[{"name":"1. Siedlungsweg","postalCode":"17335","locality":"Strasburg (Uckermark)","municipality":{"key":"13075130","name":"Strasburg (Uckermark), Stadt","type":"Stadt"},"district":{"key":"13075","name":"Vorpommern-Greifswald","type":"Landkreis"},"federalState":{"key":"13","name":"Mecklenburg-Vorpommern"}},{"name":"2. Siedlungsweg","postalCode":"17335","locality":"Strasburg (Uckermark)","municipality":{"key":"13075130","name":"Strasburg (Uckermark), Stadt","type":"Stadt"},"district":{"key":"13075","name":"Vorpommern-Greifswald","type":"Landkreis"},"federalState":{"key":"13","name":"Mecklenburg-Vorpommern"}},{"name":"3. Siedlungsweg","postalCode":"17335","locality":"Strasburg (Uckermark)","municipality":{"key":"13075130","name":"Strasburg (Uckermark), Stadt","type":"Stadt"},"district":{"key":"13075","name":"Vorpommern-Greifswald","type":"Landkreis"},"federalState":{"key":"13","name":"Mecklenburg-Vorpommern"}},{"name":"Ahornweg","postalCode":"16278","locality":"Angermünde","municipality":{"key":"12073008","name":"Angermünde, Stadt","type":"Stadt"},"district":{"key":"12073","name":"Uckermark","type":"Landkreis"},"federalState":{"key":"12","name":"Brandenburg"}},{"name":"Albrechtstr.","postalCode":"39590","locality":"Tangermünde","municipality":{"key":"15090550","name":"Tangermünde, Stadt","type":"Stadt"},"district":{"key":"15090","name":"Stendal","type":"Landkreis"},"federalState":{"key":"15","name":"Sachsen-Anhalt"}},{"name":"Alte Dorfstr.","postalCode":"16278","locality":"Angermünde","municipality":{"key":"12073008","name":"Angermünde, Stadt","type":"Stadt"},"district":{"key":"12073","name":"Uckermark","type":"Landkreis"},"federalState":{"key":"12","name":"Brandenburg"}},{"name":"Alter Friedhof","postalCode":"39590","locality":"Tangermünde","municipality":{"key":"15090550","name":"Tangermünde, Stadt","type":"Stadt"},"district":{"key":"15090","name":"Stendal","type":"Landkreis"},"federalState":{"key":"15","name":"Sachsen-Anhalt"}},{"name":"Alter Wasserturm","postalCode":"39590","locality":"Tangermünde","municipality":{"key":"15090550","name":"Tangermünde, Stadt","type":"Stadt"},"district":{"key":"15090","name":"Stendal","type":"Landkreis"},"federalState":{"key":"15","name":"Sachsen-Anhalt"}},{"name":"Althüttendorfer Str.","postalCode":"16278","locality":"Angermünde","municipality":{"key":"12073008","name":"Angermünde, Stadt","type":"Stadt"},"district":{"key":"12073","name":"Uckermark","type":"Landkreis"},"federalState":{"key":"12","name":"Brandenburg"}},{"name":"Altkünkendorfer Str.","postalCode":"16278","locality":"Angermünde","municipality":{"key":"12073008","name":"Angermünde, Stadt","type":"Stadt"},"district":{"key":"12073","name":"Uckermark","type":"Landkreis"},"federalState":{"key":"12","name":"Brandenburg"}},{"name":"Am Bahndamm","postalCode":"16278","locality":"Angermünde","municipality":{"key":"12073008","name":"Angermünde, Stadt","type":"Stadt"},"district":{"key":"12073","name":"Uckermark","type":"Landkreis"},"federalState":{"key":"12","name":"Brandenburg"}},{"name":"Am Bahnhof","postalCode":"16278","locality":"Angermünde","municipality":{"key":"12073008","name":"Angermünde, Stadt","type":"Stadt"},"district":{"key":"12073","name":"Uckermark","type":"Landkreis"},"federalState":{"key":"12","name":"Brandenburg"}},{"name":"Am Dorfteich","postalCode":"16278","locality":"Angermünde","municipality":{"key":"12073008","name":"Angermünde, Stadt","type":"Stadt"},"district":{"key":"12073","name":"Uckermark","type":"Landkreis"},"federalState":{"key":"12","name":"Brandenburg"}},{"name":"Am Eulensteg","postalCode":"16278","locality":"Angermünde","municipality":{"key":"12073008","name":"Angermünde, Stadt","type":"Stadt"},"district":{"key":"12073","name":"Uckermark","type":"Landkreis"},"federalState":{"key":"12","name":"Brandenburg"}},{"name":"Am Feldrain","postalCode":"16278","locality":"Angermünde","municipality":{"key":"12073008","name":"Angermünde, Stadt","type":"Stadt"},"district":{"key":"12073","name":"Uckermark","type":"Landkreis"},"federalState":{"key":"12","name":"Brandenburg"}},{"name":"Am Gutshof","postalCode":"16278","locality":"Angermünde","municipality":{"key":"12073008","name":"Angermünde, Stadt","type":"Stadt"},"district":{"key":"12073","name":"Uckermark","type":"Landkreis"},"federalState":{"key":"12","name":"Brandenburg"}},{"name":"Am Hafen","postalCode":"39590","locality":"Tangermünde","municipality":{"key":"15090550","name":"Tangermünde, Stadt","type":"Stadt"},"district":{"key":"15090","name":"Stendal","type":"Landkreis"},"federalState":{"key":"15","name":"Sachsen-Anhalt"}},{"name":"Am Hang","postalCode":"16278","locality":"Angermünde","municipality":{"key":"12073008","name":"Angermünde, Stadt","type":"Stadt"},"district":{"key":"12073","name":"Uckermark","type":"Landkreis"},"federalState":{"key":"12","name":"Brandenburg"}},{"name":"Am Hohlen Weg","postalCode":"39590","locality":"Tangermünde","municipality":{"key":"15090550","name":"Tangermünde, Stadt","type":"Stadt"},"district":{"key":"15090","name":"Stendal","type":"Landkreis"},"federalState":{"key":"15","name":"Sachsen-Anhalt"}},{"name":"Am Kamp","postalCode":"16278","locality":"Angermünde","municipality":{"key":"12073008","name":"Angermünde, Stadt","type":"Stadt"},"district":{"key":"12073","name":"Uckermark","type":"Landkreis"},"federalState":{"key":"12","name":"Brandenburg"}},{"name":"Am Kanal","postalCode":"16278","locality":"Angermünde","municipality":{"key":"12073008","name":"Angermünde, Stadt","type":"Stadt"},"district":{"key":"12073","name":"Uckermark","type":"Landkreis"},"federalState":{"key":"12","name":"Brandenburg"}},{"name":"Am Kiefernwäldchen","postalCode":"16278","locality":"Angermünde","municipality":{"key":"12073008","name":"Angermünde, Stadt","type":"Stadt"},"district":{"key":"12073","name":"Uckermark","type":"Landkreis"},"federalState":{"key":"12","name":"Brandenburg"}},{"name":"Am Kolk","postalCode":"39590","locality":"Tangermünde","municipality":{"key":"15090550","name":"Tangermünde, Stadt","type":"Stadt"},"district":{"key":"15090","name":"Stendal","type":"Landkreis"},"federalState":{"key":"15","name":"Sachsen-Anhalt"}},{"name":"Am Krötenberg","postalCode":"16278","locality":"Angermünde","municipality":{"key":"12073008","name":"Angermünde, Stadt","type":"Stadt"},"district":{"key":"12073","name":"Uckermark","type":"Landkreis"},"federalState":{"key":"12","name":"Brandenburg"}},{"name":"Am Meilenstein","postalCode":"39590","locality":"Tangermünde","municipality":{"key":"15090550","name":"Tangermünde, Stadt","type":"Stadt"},"district":{"key":"15090","name":"Stendal","type":"Landkreis"},"federalState":{"key":"15","name":"Sachsen-Anhalt"}},{"name":"Am Mühlenberg","postalCode":"16278","locality":"Angermünde","municipality":{"key":"12073008","name":"Angermünde, Stadt","type":"Stadt"},"district":{"key":"12073","name":"Uckermark","type":"Landkreis"},"federalState":{"key":"12","name":"Brandenburg"}},{"name":"Am Mündesee","postalCode":"16278","locality":"Angermünde","municipality":{"key":"12073008","name":"Angermünde, Stadt","type":"Stadt"},"district":{"key":"12073","name":"Uckermark","type":"Landkreis"},"federalState":{"key":"12","name":"Brandenburg"}},{"name":"Am Neustädter Graben","postalCode":"39590","locality":"Tangermünde","municipality":{"key":"15090550","name":"Tangermünde, Stadt","type":"Stadt"},"district":{"key":"15090","name":"Stendal","type":"Landkreis"},"federalState":{"key":"15","name":"Sachsen-Anhalt"}},{"name":"Am Över","postalCode":"39590","locality":"Tangermünde","municipality":{"key":"15090550","name":"Tangermünde, Stadt","type":"Stadt"},"district":{"key":"15090","name":"Stendal","type":"Landkreis"},"federalState":{"key":"15","name":"Sachsen-Anhalt"}},{"name":"Am Paddenpfuhl","postalCode":"16278","locality":"Angermünde","municipality":{"key":"12073008","name":"Angermünde, Stadt","type":"Stadt"},"district":{"key":"12073","name":"Uckermark","type":"Landkreis"},"federalState":{"key":"12","name":"Brandenburg"}},{"name":"Am Parsteinsee","postalCode":"16278","locality":"Angermünde","municipality":{"key":"12073008","name":"Angermünde, Stadt","type":"Stadt"},"district":{"key":"12073","name":"Uckermark","type":"Landkreis"},"federalState":{"key":"12","name":"Brandenburg"}},{"name":"Am Plattenwerk","postalCode":"16278","locality":"Angermünde","municipality":{"key":"12073008","name":"Angermünde, Stadt","type":"Stadt"},"district":{"key":"12073","name":"Uckermark","type":"Landkreis"},"federalState":{"key":"12","name":"Brandenburg"}},{"name":"Am Rosinberg","postalCode":"16278","locality":"Angermünde","municipality":{"key":"12073008","name":"Angermünde, Stadt","type":"Stadt"},"district":{"key":"12073","name":"Uckermark","type":"Landkreis"},"federalState":{"key":"12","name":"Brandenburg"}},{"name":"Am Schlangenbruch","postalCode":"16278","locality":"Angermünde","municipality":{"key":"12073008","name":"Angermünde, Stadt","type":"Stadt"},"district":{"key":"12073","name":"Uckermark","type":"Landkreis"},"federalState":{"key":"12","name":"Brandenburg"}},{"name":"Am Schlosspark","postalCode":"16278","locality":"Angermünde","municipality":{"key":"12073008","name":"Angermünde, Stadt","type":"Stadt"},"district":{"key":"12073","name":"Uckermark","type":"Landkreis"},"federalState":{"key":"12","name":"Brandenburg"}},{"name":"Am Schulzensee","postalCode":"16278","locality":"Angermünde","municipality":{"key":"12073008","name":"Angermünde, Stadt","type":"Stadt"},"district":{"key":"12073","name":"Uckermark","type":"Landkreis"},"federalState":{"key":"12","name":"Brandenburg"}},{"name":"Amselweg","postalCode":"39590","locality":"Tangermünde","municipality":{"key":"15090550","name":"Tangermünde, Stadt","type":"Stadt"},"district":{"key":"15090","name":"Stendal","type":"Landkreis"},"federalState":{"key":"15","name":"Sachsen-Anhalt"}},{"name":"Am Stadtberg","postalCode":"16278","locality":"Angermünde","municipality":{"key":"12073008","name":"Angermünde, Stadt","type":"Stadt"},"district":{"key":"12073","name":"Uckermark","type":"Landkreis"},"federalState":{"key":"12","name":"Brandenburg"}},{"name":"Am Tanger","postalCode":"16278","locality":"Angermünde","municipality":{"key":"12073008","name":"Angermünde, Stadt","type":"Stadt"},"district":{"key":"12073","name":"Uckermark","type":"Landkreis"},"federalState":{"key":"12","name":"Brandenburg"}},{"name":"Am Tanger","postalCode":"39590","locality":"Tangermünde","municipality":{"key":"15090550","name":"Tangermünde, Stadt","type":"Stadt"},"district":{"key":"15090","name":"Stendal","type":"Landkreis"},"federalState":{"key":"15","name":"Sachsen-Anhalt"}},{"name":"Am Tiergarten","postalCode":"16278","locality":"Angermünde","municipality":{"key":"12073008","name":"Angermünde, Stadt","type":"Stadt"},"district":{"key":"12073","name":"Uckermark","type":"Landkreis"},"federalState":{"key":"12","name":"Brandenburg"}},{"name":"Am Töpferberg","postalCode":"16278","locality":"Angermünde","municipality":{"key":"12073008","name":"Angermünde, Stadt","type":"Stadt"},"district":{"key":"12073","name":"Uckermark","type":"Landkreis"},"federalState":{"key":"12","name":"Brandenburg"}},{"name":"Am Wald","postalCode":"16278","locality":"Angermünde","municipality":{"key":"12073008","name":"Angermünde, Stadt","type":"Stadt"},"district":{"key":"12073","name":"Uckermark","type":"Landkreis"},"federalState":{"key":"12","name":"Brandenburg"}},{"name":"Am Waldrand","postalCode":"16278","locality":"Angermünde","municipality":{"key":"12073008","name":"Angermünde, Stadt","type":"Stadt"},"district":{"key":"12073","name":"Uckermark","type":"Landkreis"},"federalState":{"key":"12","name":"Brandenburg"}},{"name":"Am Wiesengrund","postalCode":"16278","locality":"Angermünde","municipality":{"key":"12073008","name":"Angermünde, Stadt","type":"Stadt"},"district":{"key":"12073","name":"Uckermark","type":"Landkreis"},"federalState":{"key":"12","name":"Brandenburg"}},{"name":"An der Grünen Kuhle","postalCode":"39590","locality":"Tangermünde","municipality":{"key":"15090550","name":"Tangermünde, Stadt","type":"Stadt"},"district":{"key":"15090","name":"Stendal","type":"Landkreis"},"federalState":{"key":"15","name":"Sachsen-Anhalt"}},{"name":"An der MTS","postalCode":"16278","locality":"Angermünde","municipality":{"key":"12073008","name":"Angermünde, Stadt","type":"Stadt"},"district":{"key":"12073","name":"Uckermark","type":"Landkreis"},"federalState":{"key":"12","name":"Brandenburg"}},{"name":"An der Pferdekoppel","postalCode":"16278","locality":"Angermünde","municipality":{"key":"12073008","name":"Angermünde, Stadt","type":"Stadt"},"district":{"key":"12073","name":"Uckermark","type":"Landkreis"},"federalState":{"key":"12","name":"Brandenburg"}},{"name":"An der Schneebeerenhecke","postalCode":"16278","locality":"Angermünde","municipality":{"key":"12073008","name":"Angermünde, Stadt","type":"Stadt"},"district":{"key":"12073","name":"Uckermark","type":"Landkreis"},"federalState":{"key":"12","name":"Brandenburg"}},{"name":"An der Umgehungsstr.","postalCode":"16278","locality":"Angermünde","municipality":{"key":"12073008","name":"Angermünde, Stadt","type":"Stadt"},"district":{"key":"12073","name":"Uckermark","type":"Landkreis"},"federalState":{"key":"12","name":"Brandenburg"}},{"name":"An der Waldquelle","postalCode":"16278","locality":"Angermünde","municipality":{"key":"12073008","name":"Angermünde, Stadt","type":"Stadt"},"district":{"key":"12073","name":"Uckermark","type":"Landkreis"},"federalState":{"key":"12","name":"Brandenburg"}},{"name":"Angermünder Str.","postalCode":"16278","locality":"Angermünde","municipality":{"key":"12073008","name":"Angermünde, Stadt","type":"Stadt"},"district":{"key":"12073","name":"Uckermark","type":"Landkreis"},"federalState":{"key":"12","name":"Brandenburg"}},{"name":"Angermünder Weg","postalCode":"16278","locality":"Angermünde","municipality":{"key":"12073008","name":"Angermünde, Stadt","type":"Stadt"},"district":{"key":"12073","name":"Uckermark","type":"Landkreis"},"federalState":{"key":"12","name":"Brandenburg"}},{"name":"Bahnhofsplatz","postalCode":"16278","locality":"Angermünde","municipality":{"key":"12073008","name":"Angermünde, Stadt","type":"Stadt"},"district":{"key":"12073","name":"Uckermark","type":"Landkreis"},"federalState":{"key":"12","name":"Brandenburg"}},{"name":"Bahnhofstr.","postalCode":"39590","locality":"Tangermünde","municipality":{"key":"15090550","name":"Tangermünde, Stadt","type":"Stadt"},"district":{"key":"15090","name":"Stendal","type":"Landkreis"},"federalState":{"key":"15","name":"Sachsen-Anhalt"}},{"name":"Bärbel-Wachholz-Weg","postalCode":"16278","locality":"Angermünde","municipality":{"key":"12073008","name":"Angermünde, Stadt","type":"Stadt"},"district":{"key":"12073","name":"Uckermark","type":"Landkreis"},"federalState":{"key":"12","name":"Brandenburg"}},{"name":"Bauernsee","postalCode":"16278","locality":"Angermünde","municipality":{"key":"12073008","name":"Angermünde, Stadt","type":"Stadt"},"district":{"key":"12073","name":"Uckermark","type":"Landkreis"},"federalState":{"key":"12","name":"Brandenburg"}},{"name":"Bauernweg","postalCode":"16278","locality":"Angermünde","municipality":{"key":"12073008","name":"Angermünde, Stadt","type":"Stadt"},"district":{"key":"12073","name":"Uckermark","type":"Landkreis"},"federalState":{"key":"12","name":"Brandenburg"}},{"name":"Beethovenstr.","postalCode":"39590","locality":"Tangermünde","municipality":{"key":"15090550","name":"Tangermünde, Stadt","type":"Stadt"},"district":{"key":"15090","name":"Stendal","type":"Landkreis"},"federalState":{"key":"15","name":"Sachsen-Anhalt"}},{"name":"Bergstr.","postalCode":"16278","locality":"Angermünde","municipality":{"key":"12073008","name":"Angermünde, Stadt","type":"Stadt"},"district":{"key":"12073","name":"Uckermark","type":"Landkreis"},"federalState":{"key":"12","name":"Brandenburg"}},{"name":"Bergstr.","postalCode":"39590","locality":"Tangermünde","municipality":{"key":"15090550","name":"Tangermünde, Stadt","type":"Stadt"},"district":{"key":"15090","name":"Stendal","type":"Landkreis"},"federalState":{"key":"15","name":"Sachsen-Anhalt"}},{"name":"Berliner Str.","postalCode":"16278","locality":"Angermünde","municipality":{"key":"12073008","name":"Angermünde, Stadt","type":"Stadt"},"district":{"key":"12073","name":"Uckermark","type":"Landkreis"},"federalState":{"key":"12","name":"Brandenburg"}},{"name":"Berliner Tor","postalCode":"16278","locality":"Angermünde","municipality":{"key":"12073008","name":"Angermünde, Stadt","type":"Stadt"},"district":{"key":"12073","name":"Uckermark","type":"Landkreis"},"federalState":{"key":"12","name":"Brandenburg"}},{"name":"Billberger Str.","postalCode":"39590","locality":"Tangermünde","municipality":{"key":"15090550","name":"Tangermünde, Stadt","type":"Stadt"},"district":{"key":"15090","name":"Stendal","type":"Landkreis"},"federalState":{"key":"15","name":"Sachsen-Anhalt"}},{"name":"Birkenallee","postalCode":"16278","locality":"Angermünde","municipality":{"key":"12073008","name":"Angermünde, Stadt","type":"Stadt"},"district":{"key":"12073","name":"Uckermark","type":"Landkreis"},"federalState":{"key":"12","name":"Brandenburg"}},{"name":"Birkenweg","postalCode":"16278","locality":"Angermünde","municipality":{"key":"12073008","name":"Angermünde, Stadt","type":"Stadt"},"district":{"key":"12073","name":"Uckermark","type":"Landkreis"},"federalState":{"key":"12","name":"Brandenburg"}},{"name":"Birkenweg","postalCode":"39590","locality":"Tangermünde","municipality":{"key":"15090550","name":"Tangermünde, Stadt","type":"Stadt"},"district":{"key":"15090","name":"Stendal","type":"Landkreis"},"federalState":{"key":"15","name":"Sachsen-Anhalt"}},{"name":"Birnenallee","postalCode":"16278","locality":"Angermünde","municipality":{"key":"12073008","name":"Angermünde, Stadt","type":"Stadt"},"district":{"key":"12073","name":"Uckermark","type":"Landkreis"},"federalState":{"key":"12","name":"Brandenburg"}},{"name":"Bleiche","postalCode":"16278","locality":"Angermünde","municipality":{"key":"12073008","name":"Angermünde, Stadt","type":"Stadt"},"district":{"key":"12073","name":"Uckermark","type":"Landkreis"},"federalState":{"key":"12","name":"Brandenburg"}},{"name":"Bleichenberg","postalCode":"39590","locality":"Tangermünde","municipality":{"key":"15090550","name":"Tangermünde, Stadt","type":"Stadt"},"district":{"key":"15090","name":"Stendal","type":"Landkreis"},"federalState":{"key":"15","name":"Sachsen-Anhalt"}},{"name":"Blumberger-Mühlen-Weg","postalCode":"16278","locality":"Angermünde","municipality":{"key":"12073008","name":"Angermünde, Stadt","type":"Stadt"},"district":{"key":"12073","name":"Uckermark","type":"Landkreis"},"federalState":{"key":"12","name":"Brandenburg"}},{"name":"Blumenthalstr.","postalCode":"39590","locality":"Tangermünde","municipality":{"key":"15090550","name":"Tangermünde, Stadt","type":"Stadt"},"district":{"key":"15090","name":"Stendal","type":"Landkreis"},"federalState":{"key":"15","name":"Sachsen-Anhalt"}},{"name":"Bölkendorfer Str.","postalCode":"16278","locality":"Angermünde","municipality":{"key":"12073008","name":"Angermünde, Stadt","type":"Stadt"},"district":{"key":"12073","name":"Uckermark","type":"Landkreis"},"federalState":{"key":"12","name":"Brandenburg"}},{"name":"Breitenteicher Mühle","postalCode":"16278","locality":"Angermünde","municipality":{"key":"12073008","name":"Angermünde, Stadt","type":"Stadt"},"district":{"key":"12073","name":"Uckermark","type":"Landkreis"},"federalState":{"key":"12","name":"Brandenburg"}},{"name":"Breiter Weg","postalCode":"39590","locality":"Tangermünde","municipality":{"key":"15090550","name":"Tangermünde, Stadt","type":"Stadt"},"district":{"key":"15090","name":"Stendal","type":"Landkreis"},"federalState":{"key":"15","name":"Sachsen-Anhalt"}},{"name":"Breite Str.","postalCode":"16278","locality":"Angermünde","municipality":{"key":"12073008","name":"Angermünde, Stadt","type":"Stadt"},"district":{"key":"12073","name":"Uckermark","type":"Landkreis"},"federalState":{"key":"12","name":"Brandenburg"}},{"name":"Breite Str.","postalCode":"39590","locality":"Tangermünde","municipality":{"key":"15090550","name":"Tangermünde, Stadt","type":"Stadt"},"district":{"key":"15090","name":"Stendal","type":"Landkreis"},"federalState":{"key":"15","name":"Sachsen-Anhalt"}},{"name":"Breitscheidstr.","postalCode":"39590","locality":"Tangermünde","municipality":{"key":"15090550","name":"Tangermünde, Stadt","type":"Stadt"},"district":{"key":"15090","name":"Stendal","type":"Landkreis"},"federalState":{"key":"15","name":"Sachsen-Anhalt"}},{"name":"Briester Weg","postalCode":"16278","locality":"Angermünde","municipality":{"key":"12073008","name":"Angermünde, Stadt","type":"Stadt"},"district":{"key":"12073","name":"Uckermark","type":"Landkreis"},"federalState":{"key":"12","name":"Brandenburg"}},{"name":"Bruchhagener Weg","postalCode":"16278","locality":"Angermünde","municipality":{"key":"12073008","name":"Angermünde, Stadt","type":"Stadt"},"district":{"key":"12073","name":"Uckermark","type":"Landkreis"},"federalState":{"key":"12","name":"Brandenburg"}},{"name":"Brüderstr.","postalCode":"16278","locality":"Angermünde","municipality":{"key":"12073008","name":"Angermünde, Stadt","type":"Stadt"},"district":{"key":"12073","name":"Uckermark","type":"Landkreis"},"federalState":{"key":"12","name":"Brandenburg"}},{"name":"Brunnenstr.","postalCode":"39590","locality":"Tangermünde","municipality":{"key":"15090550","name":"Tangermünde, Stadt","type":"Stadt"},"district":{"key":"15090","name":"Stendal","type":"Landkreis"},"federalState":{"key":"15","name":"Sachsen-Anhalt"}},{"name":"Brunnenweg","postalCode":"39590","locality":"Tangermünde","municipality":{"key":"15090550","name":"Tangermünde, Stadt","type":"Stadt"},"district":{"key":"15090","name":"Stendal","type":"Landkreis"},"federalState":{"key":"15","name":"Sachsen-Anhalt"}},{"name":"Buchenweg","postalCode":"39590","locality":"Tangermünde","municipality":{"key":"15090550","name":"Tangermünde, Stadt","type":"Stadt"},"district":{"key":"15090","name":"Stendal","type":"Landkreis"},"federalState":{"key":"15","name":"Sachsen-Anhalt"}},{"name":"Bucher Kirchstr.","postalCode":"39590","locality":"Tangermünde","municipality":{"key":"15090550","name":"Tangermünde, Stadt","type":"Stadt"},"district":{"key":"15090","name":"Stendal","type":"Landkreis"},"federalState":{"key":"15","name":"Sachsen-Anhalt"}},{"name":"Bucher Querstr.","postalCode":"39590","locality":"Tangermünde","municipality":{"key":"15090550","name":"Tangermünde, Stadt","type":"Stadt"},"district":{"key":"15090","name":"Stendal","type":"Landkreis"},"federalState":{"key":"15","name":"Sachsen-Anhalt"}},{"name":"Büchnerstr.","postalCode":"16278","locality":"Angermünde","municipality":{"key":"12073008","name":"Angermünde, Stadt","type":"Stadt"},"district":{"key":"12073","name":"Uckermark","type":"Landkreis"},"federalState":{"key":"12","name":"Brandenburg"}},{"name":"Burgberg","postalCode":"39590","locality":"Tangermünde","municipality":{"key":"15090550","name":"Tangermünde, Stadt","type":"Stadt"},"district":{"key":"15090","name":"Stendal","type":"Landkreis"},"federalState":{"key":"15","name":"Sachsen-Anhalt"}},{"name":"Burgstr.","postalCode":"16278","locality":"Angermünde","municipality":{"key":"12073008","name":"Angermünde, Stadt","type":"Stadt"},"district":{"key":"12073","name":"Uckermark","type":"Landkreis"},"federalState":{"key":"12","name":"Brandenburg"}},{"name":"Carlbau","postalCode":"39590","locality":"Tangermünde","municipality":{"key":"15090550","name":"Tangermünde, Stadt","type":"Stadt"},"district":{"key":"15090","name":"Stendal","type":"Landkreis"},"federalState":{"key":"15","name":"Sachsen-Anhalt"}},{"name":"Carlbauerstr.","postalCode":"39590","locality":"Tangermünde","municipality":{"key":"15090550","name":"Tangermünde, Stadt","type":"Stadt"},"district":{"key":"15090","name":"Stendal","type":"Landkreis"},"federalState":{"key":"15","name":"Sachsen-Anhalt"}},{"name":"Carl-von-Ossietzky-Str.","postalCode":"39590","locality":"Tangermünde","municipality":{"key":"15090550","name":"Tangermünde, Stadt","type":"Stadt"},"district":{"key":"15090","name":"Stendal","type":"Landkreis"},"federalState":{"key":"15","name":"Sachsen-Anhalt"}},{"name":"Chausseestr.","postalCode":"16278","locality":"Angermünde","municipality":{"key":"12073008","name":"Angermünde, Stadt","type":"Stadt"},"district":{"key":"12073","name":"Uckermark","type":"Landkreis"},"federalState":{"key":"12","name":"Brandenburg"}},{"name":"Chausseestr.","postalCode":"39590","locality":"Tangermünde","municipality":{"key":"15090550","name":"Tangermünde, Stadt","type":"Stadt"},"district":{"key":"15090","name":"Stendal","type":"Landkreis"},"federalState":{"key":"15","name":"Sachsen-Anhalt"}},{"name":"Deichstr.","postalCode":"39590","locality":"Tangermünde","municipality":{"key":"15090550","name":"Tangermünde, Stadt","type":"Stadt"},"district":{"key":"15090","name":"Stendal","type":"Landkreis"},"federalState":{"key":"15","name":"Sachsen-Anhalt"}},{"name":"Diestelweg","postalCode":"16278","locality":"Angermünde","municipality":{"key":"12073008","name":"Angermünde, Stadt","type":"Stadt"},"district":{"key":"12073","name":"Uckermark","type":"Landkreis"},"federalState":{"key":"12","name":"Brandenburg"}},{"name":"Dobberziner Dorfstr.","postalCode":"16278","locality":"Angermünde","municipality":{"key":"12073008","name":"Angermünde, Stadt","type":"Stadt"},"district":{"key":"12073","name":"Uckermark","type":"Landkreis"},"federalState":{"key":"12","name":"Brandenburg"}},{"name":"Dobberziner Weg","postalCode":"16278","locality":"Angermünde","municipality":{"key":"12073008","name":"Angermünde, Stadt","type":"Stadt"},"district":{"key":"12073","name":"Uckermark","type":"Landkreis"},"federalState":{"key":"12","name":"Brandenburg"}},{"name":"Dorfmitte","postalCode":"16278","locality":"Angermünde","municipality":{"key":"12073008","name":"Angermünde, Stadt","type":"Stadt"},"district":{"key":"12073","name":"Uckermark","type":"Landkreis"},"federalState":{"key":"12","name":"Brandenburg"}},{"name":"Dorfstr.","postalCode":"16278","locality":"Angermünde","municipality":{"key":"12073008","name":"Angermünde, Stadt","type":"Stadt"},"district":{"key":"12073","name":"Uckermark","type":"Landkreis"},"federalState":{"key":"12","name":"Brandenburg"}},{"name":"Dorfstr.","postalCode":"39590","locality":"Tangermünde","municipality":{"key":"15090550","name":"Tangermünde, Stadt","type":"Stadt"},"district":{"key":"15090","name":"Stendal","type":"Landkreis"},"federalState":{"key":"15","name":"Sachsen-Anhalt"}},{"name":"Ehm-Welk-Str.","postalCode":"16278","locality":"Angermünde","municipality":{"key":"12073008","name":"Angermünde, Stadt","type":"Stadt"},"district":{"key":"12073","name":"Uckermark","type":"Landkreis"},"federalState":{"key":"12","name":"Brandenburg"}},{"name":"Eigenheimstr.","postalCode":"39590","locality":"Tangermünde","municipality":{"key":"15090550","name":"Tangermünde, Stadt","type":"Stadt"},"district":{"key":"15090","name":"Stendal","type":"Landkreis"},"federalState":{"key":"15","name":"Sachsen-Anhalt"}},{"name":"Elbblick","postalCode":"39590","locality":"Tangermünde","municipality":{"key":"15090550","name":"Tangermünde, Stadt","type":"Stadt"},"district":{"key":"15090","name":"Stendal","type":"Landkreis"},"federalState":{"key":"15","name":"Sachsen-Anhalt"}},{"name":"Emaillegasse","postalCode":"16278","locality":"Angermünde","municipality":{"key":"12073008","name":"Angermünde, Stadt","type":"Stadt"},"district":{"key":"12073","name":"Uckermark","type":"Landkreis"},"federalState":{"key":"12","name":"Brandenburg"}},{"name":"Erlenweg","postalCode":"16278","locality":"Angermünde","municipality":{"key":"12073008","name":"Angermünde, Stadt","type":"Stadt"},"district":{"key":"12073","name":"Uckermark","type":"Landkreis"},"federalState":{"key":"12","name":"Brandenburg"}},{"name":"Erlenweg","postalCode":"39590","locality":"Tangermünde","municipality":{"key":"15090550","name":"Tangermünde, Stadt","type":"Stadt"},"district":{"key":"15090","name":"Stendal","type":"Landkreis"},"federalState":{"key":"15","name":"Sachsen-Anhalt"}},{"name":"Ernst-Drong-Str.","postalCode":"39590","locality":"Tangermünde","municipality":{"key":"15090550","name":"Tangermünde, Stadt","type":"Stadt"},"district":{"key":"15090","name":"Stendal","type":"Landkreis"},"federalState":{"key":"15","name":"Sachsen-Anhalt"}},{"name":"Espelkamper Weg","postalCode":"16278","locality":"Angermünde","municipality":{"key":"12073008","name":"Angermünde, Stadt","type":"Stadt"},"district":{"key":"12073","name":"Uckermark","type":"Landkreis"},"federalState":{"key":"12","name":"Brandenburg"}},{"name":"Falkenweg","postalCode":"39590","locality":"Tangermünde","municipality":{"key":"15090550","name":"Tangermünde, Stadt","type":"Stadt"},"district":{"key":"15090","name":"Stendal","type":"Landkreis"},"federalState":{"key":"15","name":"Sachsen-Anhalt"}},{"name":"Fasanenstr.","postalCode":"39590","locality":"Tangermünde","municipality":{"key":"15090550","name":"Tangermünde, Stadt","type":"Stadt"},"district":{"key":"15090","name":"Stendal","type":"Landkreis"},"federalState":{"key":"15","name":"Sachsen-Anhalt"}},{"name":"Felchower Str.","postalCode":"16278","locality":"Angermünde","municipality":{"key":"12073008","name":"Angermünde, Stadt","type":"Stadt"},"district":{"key":"12073","name":"Uckermark","type":"Landkreis"},"federalState":{"key":"12","name":"Brandenburg"}},{"name":"Feldgasse","postalCode":"39590","locality":"Tangermünde","municipality":{"key":"15090550","name":"Tangermünde, Stadt","type":"Stadt"},"district":{"key":"15090","name":"Stendal","type":"Landkreis"},"federalState":{"key":"15","name":"Sachsen-Anhalt"}},{"name":"Feodorapark","postalCode":"39590","locality":"Tangermünde","municipality":{"key":"15090550","name":"Tangermünde, Stadt","type":"Stadt"},"district":{"key":"15090","name":"Stendal","type":"Landkreis"},"federalState":{"key":"15","name":"Sachsen-Anhalt"}},{"name":"Fischerstr.","postalCode":"16278","locality":"Angermünde","municipality":{"key":"12073008","name":"Angermünde, Stadt","type":"Stadt"},"district":{"key":"12073","name":"Uckermark","type":"Landkreis"},"federalState":{"key":"12","name":"Brandenburg"}},{"name":"Frauenhagener Weg","postalCode":"16278","locality":"Angermünde","municipality":{"key":"12073008","name":"Angermünde, Stadt","type":"Stadt"},"district":{"key":"12073","name":"Uckermark","type":"Landkreis"},"federalState":{"key":"12","name":"Brandenburg"}},{"name":"Freiligrathstr.","postalCode":"16278","locality":"Angermünde","municipality":{"key":"12073008","name":"Angermünde, Stadt","type":"Stadt"},"district":{"key":"12073","name":"Uckermark","type":"Landkreis"},"federalState":{"key":"12","name":"Brandenburg"}},{"name":"Friedenspark","postalCode":"16278","locality":"Angermünde","municipality":{"key":"12073008","name":"Angermünde, Stadt","type":"Stadt"},"district":{"key":"12073","name":"Uckermark","type":"Landkreis"},"federalState":{"key":"12","name":"Brandenburg"}},{"name":"Friedensstr.","postalCode":"39590","locality":"Tangermünde","municipality":{"key":"15090550","name":"Tangermünde, Stadt","type":"Stadt"},"district":{"key":"15090","name":"Stendal","type":"Landkreis"},"federalState":{"key":"15","name":"Sachsen-Anhalt"}},{"name":"Friedrich-Ebert-Str.","postalCode":"39590","locality":"Tangermünde","municipality":{"key":"15090550","name":"Tangermünde, Stadt","type":"Stadt"},"district":{"key":"15090","name":"Stendal","type":"Landkreis"},"federalState":{"key":"15","name":"Sachsen-Anhalt"}},{"name":"Friedrichsfelder Str.","postalCode":"16278","locality":"Angermünde","municipality":{"key":"12073008","name":"Angermünde, Stadt","type":"Stadt"},"district":{"key":"12073","name":"Uckermark","type":"Landkreis"},"federalState":{"key":"12","name":"Brandenburg"}},{"name":"Fritz-Schulenburg-Str.","postalCode":"39590","locality":"Tangermünde","municipality":{"key":"15090550","name":"Tangermünde, Stadt","type":"Stadt"},"district":{"key":"15090","name":"Stendal","type":"Landkreis"},"federalState":{"key":"15","name":"Sachsen-Anhalt"}},{"name":"Fuchsweg","postalCode":"39590","locality":"Tangermünde","municipality":{"key":"15090550","name":"Tangermünde, Stadt","type":"Stadt"},"district":{"key":"15090","name":"Stendal","type":"Landkreis"},"federalState":{"key":"15","name":"Sachsen-Anhalt"}},{"name":"Gartenstr.","postalCode":"16278","locality":"Angermünde","municipality":{"key":"12073008","name":"Angermünde, Stadt","type":"Stadt"},"district":{"key":"12073","name":"Uckermark","type":"Landkreis"},"federalState":{"key":"12","name":"Brandenburg"}},{"name":"Gartenstr.","postalCode":"39590","locality":"Tangermünde","municipality":{"key":"15090550","name":"Tangermünde, Stadt","type":"Stadt"},"district":{"key":"15090","name":"Stendal","type":"Landkreis"},"federalState":{"key":"15","name":"Sachsen-Anhalt"}},{"name":"Gartenweg","postalCode":"39590","locality":"Tangermünde","municipality":{"key":"15090550","name":"Tangermünde, Stadt","type":"Stadt"},"district":{"key":"15090","name":"Stendal","type":"Landkreis"},"federalState":{"key":"15","name":"Sachsen-Anhalt"}},{"name":"Gehegemühle","postalCode":"16278","locality":"Angermünde","municipality":{"key":"12073008","name":"Angermünde, Stadt","type":"Stadt"},"district":{"key":"12073","name":"Uckermark","type":"Landkreis"},"federalState":{"key":"12","name":"Brandenburg"}},{"name":"Gellmersdorfer Str.","postalCode":"16278","locality":"Angermünde","municipality":{"key":"12073008","name":"Angermünde, Stadt","type":"Stadt"},"district":{"key":"12073","name":"Uckermark","type":"Landkreis"},"federalState":{"key":"12","name":"Brandenburg"}},{"name":"Georg-Wolff-Str.","postalCode":"16278","locality":"Angermünde","municipality":{"key":"12073008","name":"Angermünde, Stadt","type":"Stadt"},"district":{"key":"12073","name":"Uckermark","type":"Landkreis"},"federalState":{"key":"12","name":"Brandenburg"}},{"name":"Gerichtsgasse","postalCode":"16278","locality":"Angermünde","municipality":{"key":"12073008","name":"Angermünde, Stadt","type":"Stadt"},"district":{"key":"12073","name":"Uckermark","type":"Landkreis"},"federalState":{"key":"12","name":"Brandenburg"}},{"name":"Gestüt","postalCode":"16278","locality":"Angermünde","municipality":{"key":"12073008","name":"Angermünde, Stadt","type":"Stadt"},"district":{"key":"12073","name":"Uckermark","type":"Landkreis"},"federalState":{"key":"12","name":"Brandenburg"}},{"name":"Gewerbepark","postalCode":"39590","locality":"Tangermünde","municipality":{"key":"15090550","name":"Tangermünde, Stadt","type":"Stadt"},"district":{"key":"15090","name":"Stendal","type":"Landkreis"},"federalState":{"key":"15","name":"Sachsen-Anhalt"}},{"name":"Glambecker Mühle","postalCode":"16278","locality":"Angermünde","municipality":{"key":"12073008","name":"Angermünde, Stadt","type":"Stadt"},"district":{"key":"12073","name":"Uckermark","type":"Landkreis"},"federalState":{"key":"12","name":"Brandenburg"}},{"name":"Goethestr.","postalCode":"16278","locality":"Angermünde","municipality":{"key":"12073008","name":"Angermünde, Stadt","type":"Stadt"},"district":{"key":"12073","name":"Uckermark","type":"Landkreis"},"federalState":{"key":"12","name":"Brandenburg"}},{"name":"Goethestr.","postalCode":"39590","locality":"Tangermünde","municipality":{"key":"15090550","name":"Tangermünde, Stadt","type":"Stadt"},"district":{"key":"15090","name":"Stendal","type":"Landkreis"},"federalState":{"key":"15","name":"Sachsen-Anhalt"}},{"name":"Görlsdorfer Str.","postalCode":"16278","locality":"Angermünde","municipality":{"key":"12073008","name":"Angermünde, Stadt","type":"Stadt"},"district":{"key":"12073","name":"Uckermark","type":"Landkreis"},"federalState":{"key":"12","name":"Brandenburg"}},{"name":"Greiffenberger Str.","postalCode":"16278","locality":"Angermünde","municipality":{"key":"12073008","name":"Angermünde, Stadt","type":"Stadt"},"district":{"key":"12073","name":"Uckermark","type":"Landkreis"},"federalState":{"key":"12","name":"Brandenburg"}},{"name":"Grete- Minde Str.","postalCode":"39590","locality":"Tangermünde","municipality":{"key":"15090550","name":"Tangermünde, Stadt","type":"Stadt"},"district":{"key":"15090","name":"Stendal","type":"Landkreis"},"federalState":{"key":"15","name":"Sachsen-Anhalt"}},{"name":"Grobleben","postalCode":"39590","locality":"Tangermünde","municipality":{"key":"15090550","name":"Tangermünde, Stadt","type":"Stadt"},"district":{"key":"15090","name":"Stendal","type":"Landkreis"},"federalState":{"key":"15","name":"Sachsen-Anhalt"}},{"name":"Grundmühlenweg","postalCode":"16278","locality":"Angermünde","municipality":{"key":"12073008","name":"Angermünde, Stadt","type":"Stadt"},"district":{"key":"12073","name":"Uckermark","type":"Landkreis"},"federalState":{"key":"12","name":"Brandenburg"}},{"name":"Gustav-Bruhn-Str.","postalCode":"16278","locality":"Angermünde","municipality":{"key":"12073008","name":"Angermünde, Stadt","type":"Stadt"},"district":{"key":"12073","name":"Uckermark","type":"Landkreis"},"federalState":{"key":"12","name":"Brandenburg"}},{"name":"Häschenweg","postalCode":"39590","locality":"Tangermünde","municipality":{"key":"15090550","name":"Tangermünde, Stadt","type":"Stadt"},"district":{"key":"15090","name":"Stendal","type":"Landkreis"},"federalState":{"key":"15","name":"Sachsen-Anhalt"}},{"name":"Hauptstr.","postalCode":"16278","locality":"Angermünde","municipality":{"key":"12073008","name":"Angermünde, Stadt","type":"Stadt"},"district":{"key":"12073","name":"Uckermark","type":"Landkreis"},"federalState":{"key":"12","name":"Brandenburg"}},{"name":"Heckenweg","postalCode":"16278","locality":"Angermünde","municipality":{"key":"12073008","name":"Angermünde, Stadt","type":"Stadt"},"district":{"key":"12073","name":"Uckermark","type":"Landkreis"},"federalState":{"key":"12","name":"Brandenburg"}},{"name":"Heerener Str.","postalCode":"39590","locality":"Tangermünde","municipality":{"key":"15090550","name":"Tangermünde, Stadt","type":"Stadt"},"district":{"key":"15090","name":"Stendal","type":"Landkreis"},"federalState":{"key":"15","name":"Sachsen-Anhalt"}},{"name":"Heidenstr.","postalCode":"16278","locality":"Angermünde","municipality":{"key":"12073008","name":"Angermünde, Stadt","type":"Stadt"},"district":{"key":"12073","name":"Uckermark","type":"Landkreis"},"federalState":{"key":"12","name":"Brandenburg"}},{"name":"Heideweg","postalCode":"16278","locality":"Angermünde","municipality":{"key":"12073008","name":"Angermünde, Stadt","type":"Stadt"},"district":{"key":"12073","name":"Uckermark","type":"Landkreis"},"federalState":{"key":"12","name":"Brandenburg"}},{"name":"Heinestr.","postalCode":"16278","locality":"Angermünde","municipality":{"key":"12073008","name":"Angermünde, Stadt","type":"Stadt"},"district":{"key":"12073","name":"Uckermark","type":"Landkreis"},"federalState":{"key":"12","name":"Brandenburg"}},{"name":"Heinrich-Heine-Platz","postalCode":"39590","locality":"Tangermünde","municipality":{"key":"15090550","name":"Tangermünde, Stadt","type":"Stadt"},"district":{"key":"15090","name":"Stendal","type":"Landkreis"},"federalState":{"key":"15","name":"Sachsen-Anhalt"}},{"name":"Heinrichstr.","postalCode":"16278","locality":"Angermünde","municipality":{"key":"12073008","name":"Angermünde, Stadt","type":"Stadt"},"district":{"key":"12073","name":"Uckermark","type":"Landkreis"},"federalState":{"key":"12","name":"Brandenburg"}},{"name":"Henriettenhofer Str.","postalCode":"16278","locality":"Angermünde","municipality":{"key":"12073008","name":"Angermünde, Stadt","type":"Stadt"},"district":{"key":"12073","name":"Uckermark","type":"Landkreis"},"federalState":{"key":"12","name":"Brandenburg"}},{"name":"Herderstr.","postalCode":"39590","locality":"Tangermünde","municipality":{"key":"15090550","name":"Tangermünde, Stadt","type":"Stadt"},"district":{"key":"15090","name":"Stendal","type":"Landkreis"},"federalState":{"key":"15","name":"Sachsen-Anhalt"}},{"name":"Herweghstr.","postalCode":"16278","locality":"Angermünde","municipality":{"key":"12073008","name":"Angermünde, Stadt","type":"Stadt"},"district":{"key":"12073","name":"Uckermark","type":"Landkreis"},"federalState":{"key":"12","name":"Brandenburg"}},{"name":"Herzsprunger Weg","postalCode":"16278","locality":"Angermünde","municipality":{"key":"12073008","name":"Angermünde, Stadt","type":"Stadt"},"district":{"key":"12073","name":"Uckermark","type":"Landkreis"},"federalState":{"key":"12","name":"Brandenburg"}},{"name":"Hinter den Tannen","postalCode":"39590","locality":"Tangermünde","municipality":{"key":"15090550","name":"Tangermünde, Stadt","type":"Stadt"},"district":{"key":"15090","name":"Stendal","type":"Landkreis"},"federalState":{"key":"15","name":"Sachsen-Anhalt"}},{"name":"Hirtenende","postalCode":"16278","locality":"Angermünde","municipality":{"key":"12073008","name":"Angermünde, Stadt","type":"Stadt"},"district":{"key":"12073","name":"Uckermark","type":"Landkreis"},"federalState":{"key":"12","name":"Brandenburg"}},{"name":"Hoher Steinweg","postalCode":"16278","locality":"Angermünde","municipality":{"key":"12073008","name":"Angermünde, Stadt","type":"Stadt"},"district":{"key":"12073","name":"Uckermark","type":"Landkreis"},"federalState":{"key":"12","name":"Brandenburg"}},{"name":"Hohlweg","postalCode":"16278","locality":"Angermünde","municipality":{"key":"12073008","name":"Angermünde, Stadt","type":"Stadt"},"district":{"key":"12073","name":"Uckermark","type":"Landkreis"},"federalState":{"key":"12","name":"Brandenburg"}},{"name":"Hookstr.","postalCode":"39590","locality":"Tangermünde","municipality":{"key":"15090550","name":"Tangermünde, Stadt","type":"Stadt"},"district":{"key":"15090","name":"Stendal","type":"Landkreis"},"federalState":{"key":"15","name":"Sachsen-Anhalt"}},{"name":"Hünerdorfer Str.","postalCode":"39590","locality":"Tangermünde","municipality":{"key":"15090550","name":"Tangermünde, Stadt","type":"Stadt"},"district":{"key":"15090","name":"Stendal","type":"Landkreis"},"federalState":{"key":"15","name":"Sachsen-Anhalt"}},{"name":"In den Töpferstiegen","postalCode":"39590","locality":"Tangermünde","municipality":{"key":"15090550","name":"Tangermünde, Stadt","type":"Stadt"},"district":{"key":"15090","name":"Stendal","type":"Landkreis"},"federalState":{"key":"15","name":"Sachsen-Anhalt"}},{"name":"Jägerstr.","postalCode":"16278","locality":"Angermünde","municipality":{"key":"12073008","name":"Angermünde, Stadt","type":"Stadt"},"district":{"key":"12073","name":"Uckermark","type":"Landkreis"},"federalState":{"key":"12","name":"Brandenburg"}},{"name":"Jägerstr.","postalCode":"39590","locality":"Tangermünde","municipality":{"key":"15090550","name":"Tangermünde, Stadt","type":"Stadt"},"district":{"key":"15090","name":"Stendal","type":"Landkreis"},"federalState":{"key":"15","name":"Sachsen-Anhalt"}},{"name":"Jahnstr.","postalCode":"16278","locality":"Angermünde","municipality":{"key":"12073008","name":"Angermünde, Stadt","type":"Stadt"},"district":{"key":"12073","name":"Uckermark","type":"Landkreis"},"federalState":{"key":"12","name":"Brandenburg"}},{"name":"Jercheler Str.","postalCode":"39590","locality":"Tangermünde","municipality":{"key":"15090550","name":"Tangermünde, Stadt","type":"Stadt"},"district":{"key":"15090","name":"Stendal","type":"Landkreis"},"federalState":{"key":"15","name":"Sachsen-Anhalt"}},{"name":"Joachimsthaler Str.","postalCode":"16278","locality":"Angermünde","municipality":{"key":"12073008","name":"Angermünde, Stadt","type":"Stadt"},"district":{"key":"12073","name":"Uckermark","type":"Landkreis"},"federalState":{"key":"12","name":"Brandenburg"}},{"name":"Jordanstr.","postalCode":"39590","locality":"Tangermünde","municipality":{"key":"15090550","name":"Tangermünde, Stadt","type":"Stadt"},"district":{"key":"15090","name":"Stendal","type":"Landkreis"},"federalState":{"key":"15","name":"Sachsen-Anhalt"}},{"name":"Jumbostr.","postalCode":"16278","locality":"Angermünde","municipality":{"key":"12073008","name":"Angermünde, Stadt","type":"Stadt"},"district":{"key":"12073","name":"Uckermark","type":"Landkreis"},"federalState":{"key":"12","name":"Brandenburg"}},{"name":"Kaisergarten","postalCode":"16278","locality":"Angermünde","municipality":{"key":"12073008","name":"Angermünde, Stadt","type":"Stadt"},"district":{"key":"12073","name":"Uckermark","type":"Landkreis"},"federalState":{"key":"12","name":"Brandenburg"}},{"name":"Kapellenweg","postalCode":"16278","locality":"Angermünde","municipality":{"key":"12073008","name":"Angermünde, Stadt","type":"Stadt"},"district":{"key":"12073","name":"Uckermark","type":"Landkreis"},"federalState":{"key":"12","name":"Brandenburg"}},{"name":"Karl-Liebknecht-Str.","postalCode":"39590","locality":"Tangermünde","municipality":{"key":"15090550","name":"Tangermünde, Stadt","type":"Stadt"},"district":{"key":"15090","name":"Stendal","type":"Landkreis"},"federalState":{"key":"15","name":"Sachsen-Anhalt"}},{"name":"Karlstr.","postalCode":"16278","locality":"Angermünde","municipality":{"key":"12073008","name":"Angermünde, Stadt","type":"Stadt"},"district":{"key":"12073","name":"Uckermark","type":"Landkreis"},"federalState":{"key":"12","name":"Brandenburg"}},{"name":"Karlstr.","postalCode":"39590","locality":"Tangermünde","municipality":{"key":"15090550","name":"Tangermünde, Stadt","type":"Stadt"},"district":{"key":"15090","name":"Stendal","type":"Landkreis"},"federalState":{"key":"15","name":"Sachsen-Anhalt"}},{"name":"Kastanienallee","postalCode":"16278","locality":"Angermünde","municipality":{"key":"12073008","name":"Angermünde, Stadt","type":"Stadt"},"district":{"key":"12073","name":"Uckermark","type":"Landkreis"},"federalState":{"key":"12","name":"Brandenburg"}},{"name":"Kastanienweg","postalCode":"39590","locality":"Tangermünde","municipality":{"key":"15090550","name":"Tangermünde, Stadt","type":"Stadt"},"district":{"key":"15090","name":"Stendal","type":"Landkreis"},"federalState":{"key":"15","name":"Sachsen-Anhalt"}},{"name":"Käthe-Kollwitz-Ring","postalCode":"39590","locality":"Tangermünde","municipality":{"key":"15090550","name":"Tangermünde, Stadt","type":"Stadt"},"district":{"key":"15090","name":"Stendal","type":"Landkreis"},"federalState":{"key":"15","name":"Sachsen-Anhalt"}},{"name":"Kehrs Ziegelei","postalCode":"39590","locality":"Tangermünde","municipality":{"key":"15090550","name":"Tangermünde, Stadt","type":"Stadt"},"district":{"key":"15090","name":"Stendal","type":"Landkreis"},"federalState":{"key":"15","name":"Sachsen-Anhalt"}},{"name":"Kellerweg","postalCode":"39590","locality":"Tangermünde","municipality":{"key":"15090550","name":"Tangermünde, Stadt","type":"Stadt"},"district":{"key":"15090","name":"Stendal","type":"Landkreis"},"federalState":{"key":"15","name":"Sachsen-Anhalt"}},{"name":"Kerkower Dorfstr.","postalCode":"16278","locality":"Angermünde","municipality":{"key":"12073008","name":"Angermünde, Stadt","type":"Stadt"},"district":{"key":"12073","name":"Uckermark","type":"Landkreis"},"federalState":{"key":"12","name":"Brandenburg"}},{"name":"Kiebitzring","postalCode":"39590","locality":"Tangermünde","municipality":{"key":"15090550","name":"Tangermünde, Stadt","type":"Stadt"},"district":{"key":"15090","name":"Stendal","type":"Landkreis"},"federalState":{"key":"15","name":"Sachsen-Anhalt"}},{"name":"Kirchgasse","postalCode":"16278","locality":"Angermünde","municipality":{"key":"12073008","name":"Angermünde, Stadt","type":"Stadt"},"district":{"key":"12073","name":"Uckermark","type":"Landkreis"},"federalState":{"key":"12","name":"Brandenburg"}},{"name":"Kirchplatz","postalCode":"16278","locality":"Angermünde","municipality":{"key":"12073008","name":"Angermünde, Stadt","type":"Stadt"},"district":{"key":"12073","name":"Uckermark","type":"Landkreis"},"federalState":{"key":"12","name":"Brandenburg"}},{"name":"Kirchstr.","postalCode":"16278","locality":"Angermünde","municipality":{"key":"12073008","name":"Angermünde, Stadt","type":"Stadt"},"district":{"key":"12073","name":"Uckermark","type":"Landkreis"},"federalState":{"key":"12","name":"Brandenburg"}},{"name":"Kirchstr.","postalCode":"39590","locality":"Tangermünde","municipality":{"key":"15090550","name":"Tangermünde, Stadt","type":"Stadt"},"district":{"key":"15090","name":"Stendal","type":"Landkreis"},"federalState":{"key":"15","name":"Sachsen-Anhalt"}},{"name":"Kirchweg","postalCode":"16278","locality":"Angermünde","municipality":{"key":"12073008","name":"Angermünde, Stadt","type":"Stadt"},"district":{"key":"12073","name":"Uckermark","type":"Landkreis"},"federalState":{"key":"12","name":"Brandenburg"}},{"name":"Kirschallee","postalCode":"39590","locality":"Tangermünde","municipality":{"key":"15090550","name":"Tangermünde, Stadt","type":"Stadt"},"district":{"key":"15090","name":"Stendal","type":"Landkreis"},"federalState":{"key":"15","name":"Sachsen-Anhalt"}},{"name":"Kleine Fischerstr.","postalCode":"39590","locality":"Tangermünde","municipality":{"key":"15090550","name":"Tangermünde, Stadt","type":"Stadt"},"district":{"key":"15090","name":"Stendal","type":"Landkreis"},"federalState":{"key":"15","name":"Sachsen-Anhalt"}},{"name":"Kleiner Parsteinsee","postalCode":"16278","locality":"Angermünde","municipality":{"key":"12073008","name":"Angermünde, Stadt","type":"Stadt"},"district":{"key":"12073","name":"Uckermark","type":"Landkreis"},"federalState":{"key":"12","name":"Brandenburg"}},{"name":"Kleine Str.","postalCode":"39590","locality":"Tangermünde","municipality":{"key":"15090550","name":"Tangermünde, Stadt","type":"Stadt"},"district":{"key":"15090","name":"Stendal","type":"Landkreis"},"federalState":{"key":"15","name":"Sachsen-Anhalt"}},{"name":"Kleiweg","postalCode":"39590","locality":"Tangermünde","municipality":{"key":"15090550","name":"Tangermünde, Stadt","type":"Stadt"},"district":{"key":"15090","name":"Stendal","type":"Landkreis"},"federalState":{"key":"15","name":"Sachsen-Anhalt"}},{"name":"Klosterberg","postalCode":"39590","locality":"Tangermünde","municipality":{"key":"15090550","name":"Tangermünde, Stadt","type":"Stadt"},"district":{"key":"15090","name":"Stendal","type":"Landkreis"},"federalState":{"key":"15","name":"Sachsen-Anhalt"}},{"name":"Klosterbrückenweg","postalCode":"16278","locality":"Angermünde","municipality":{"key":"12073008","name":"Angermünde, Stadt","type":"Stadt"},"district":{"key":"12073","name":"Uckermark","type":"Landkreis"},"federalState":{"key":"12","name":"Brandenburg"}},{"name":"Klostergasse","postalCode":"16278","locality":"Angermünde","municipality":{"key":"12073008","name":"Angermünde, Stadt","type":"Stadt"},"district":{"key":"12073","name":"Uckermark","type":"Landkreis"},"federalState":{"key":"12","name":"Brandenburg"}},{"name":"Klosterstr.","postalCode":"16278","locality":"Angermünde","municipality":{"key":"12073008","name":"Angermünde, Stadt","type":"Stadt"},"district":{"key":"12073","name":"Uckermark","type":"Landkreis"},"federalState":{"key":"12","name":"Brandenburg"}},{"name":"Köckter Weg","postalCode":"39590","locality":"Tangermünde","municipality":{"key":"15090550","name":"Tangermünde, Stadt","type":"Stadt"},"district":{"key":"15090","name":"Stendal","type":"Landkreis"},"federalState":{"key":"15","name":"Sachsen-Anhalt"}},{"name":"Konventsteig","postalCode":"39590","locality":"Tangermünde","municipality":{"key":"15090550","name":"Tangermünde, Stadt","type":"Stadt"},"district":{"key":"15090","name":"Stendal","type":"Landkreis"},"federalState":{"key":"15","name":"Sachsen-Anhalt"}},{"name":"Koppel","postalCode":"16278","locality":"Angermünde","municipality":{"key":"12073008","name":"Angermünde, Stadt","type":"Stadt"},"district":{"key":"12073","name":"Uckermark","type":"Landkreis"},"federalState":{"key":"12","name":"Brandenburg"}},{"name":"Kornstr.","postalCode":"39590","locality":"Tangermünde","municipality":{"key":"15090550","name":"Tangermünde, Stadt","type":"Stadt"},"district":{"key":"15090","name":"Stendal","type":"Landkreis"},"federalState":{"key":"15","name":"Sachsen-Anhalt"}},{"name":"Kurt-Eisner-Str.","postalCode":"39590","locality":"Tangermünde","municipality":{"key":"15090550","name":"Tangermünde, Stadt","type":"Stadt"},"district":{"key":"15090","name":"Stendal","type":"Landkreis"},"federalState":{"key":"15","name":"Sachsen-Anhalt"}},{"name":"Landratsweg","postalCode":"39590","locality":"Tangermünde","municipality":{"key":"15090550","name":"Tangermünde, Stadt","type":"Stadt"},"district":{"key":"15090","name":"Stendal","type":"Landkreis"},"federalState":{"key":"15","name":"Sachsen-Anhalt"}},{"name":"Lange Fischerstr.","postalCode":"39590","locality":"Tangermünde","municipality":{"key":"15090550","name":"Tangermünde, Stadt","type":"Stadt"},"district":{"key":"15090","name":"Stendal","type":"Landkreis"},"federalState":{"key":"15","name":"Sachsen-Anhalt"}},{"name":"Langensalzwedeler Weg","postalCode":"39590","locality":"Tangermünde","municipality":{"key":"15090550","name":"Tangermünde, Stadt","type":"Stadt"},"district":{"key":"15090","name":"Stendal","type":"Landkreis"},"federalState":{"key":"15","name":"Sachsen-Anhalt"}},{"name":"Langer Hals","postalCode":"39590","locality":"Tangermünde","municipality":{"key":"15090550","name":"Tangermünde, Stadt","type":"Stadt"},"district":{"key":"15090","name":"Stendal","type":"Landkreis"},"federalState":{"key":"15","name":"Sachsen-Anhalt"}},{"name":"Lange Str.","postalCode":"39590","locality":"Tangermünde","municipality":{"key":"15090550","name":"Tangermünde, Stadt","type":"Stadt"},"district":{"key":"15090","name":"Stendal","type":"Landkreis"},"federalState":{"key":"15","name":"Sachsen-Anhalt"}},{"name":"Lehrerstr.","postalCode":"39590","locality":"Tangermünde","municipality":{"key":"15090550","name":"Tangermünde, Stadt","type":"Stadt"},"district":{"key":"15090","name":"Stendal","type":"Landkreis"},"federalState":{"key":"15","name":"Sachsen-Anhalt"}},{"name":"Leipardstr.","postalCode":"39590","locality":"Tangermünde","municipality":{"key":"15090550","name":"Tangermünde, Stadt","type":"Stadt"},"district":{"key":"15090","name":"Stendal","type":"Landkreis"},"federalState":{"key":"15","name":"Sachsen-Anhalt"}},{"name":"Leistenhof","postalCode":"16278","locality":"Angermünde","municipality":{"key":"12073008","name":"Angermünde, Stadt","type":"Stadt"},"district":{"key":"12073","name":"Uckermark","type":"Landkreis"},"federalState":{"key":"12","name":"Brandenburg"}},{"name":"Leopold-von-Buch-Str.","postalCode":"16278","locality":"Angermünde","municipality":{"key":"12073008","name":"Angermünde, Stadt","type":"Stadt"},"district":{"key":"12073","name":"Uckermark","type":"Landkreis"},"federalState":{"key":"12","name":"Brandenburg"}},{"name":"Lessingstr.","postalCode":"39590","locality":"Tangermünde","municipality":{"key":"15090550","name":"Tangermünde, Stadt","type":"Stadt"},"district":{"key":"15090","name":"Stendal","type":"Landkreis"},"federalState":{"key":"15","name":"Sachsen-Anhalt"}},{"name":"Licher Str.","postalCode":"39590","locality":"Tangermünde","municipality":{"key":"15090550","name":"Tangermünde, Stadt","type":"Stadt"},"district":{"key":"15090","name":"Stendal","type":"Landkreis"},"federalState":{"key":"15","name":"Sachsen-Anhalt"}},{"name":"Linde","postalCode":"16278","locality":"Angermünde","municipality":{"key":"12073008","name":"Angermünde, Stadt","type":"Stadt"},"district":{"key":"12073","name":"Uckermark","type":"Landkreis"},"federalState":{"key":"12","name":"Brandenburg"}},{"name":"Lindenallee","postalCode":"16278","locality":"Angermünde","municipality":{"key":"12073008","name":"Angermünde, Stadt","type":"Stadt"},"district":{"key":"12073","name":"Uckermark","type":"Landkreis"},"federalState":{"key":"12","name":"Brandenburg"}},{"name":"Lindenallee","postalCode":"39590","locality":"Tangermünde","municipality":{"key":"15090550","name":"Tangermünde, Stadt","type":"Stadt"},"district":{"key":"15090","name":"Stendal","type":"Landkreis"},"federalState":{"key":"15","name":"Sachsen-Anhalt"}},{"name":"Lindenhof","postalCode":"16278","locality":"Angermünde","municipality":{"key":"12073008","name":"Angermünde, Stadt","type":"Stadt"},"district":{"key":"12073","name":"Uckermark","type":"Landkreis"},"federalState":{"key":"12","name":"Brandenburg"}},{"name":"Lindenstr.","postalCode":"16278","locality":"Angermünde","municipality":{"key":"12073008","name":"Angermünde, Stadt","type":"Stadt"},"district":{"key":"12073","name":"Uckermark","type":"Landkreis"},"federalState":{"key":"12","name":"Brandenburg"}},{"name":"Lindenstr.","postalCode":"39590","locality":"Tangermünde","municipality":{"key":"15090550","name":"Tangermünde, Stadt","type":"Stadt"},"district":{"key":"15090","name":"Stendal","type":"Landkreis"},"federalState":{"key":"15","name":"Sachsen-Anhalt"}},{"name":"Lösenergasse","postalCode":"16278","locality":"Angermünde","municipality":{"key":"12073008","name":"Angermünde, Stadt","type":"Stadt"},"district":{"key":"12073","name":"Uckermark","type":"Landkreis"},"federalState":{"key":"12","name":"Brandenburg"}},{"name":"Lüderitzer Str.","postalCode":"39590","locality":"Tangermünde","municipality":{"key":"15090550","name":"Tangermünde, Stadt","type":"Stadt"},"district":{"key":"15090","name":"Stendal","type":"Landkreis"},"federalState":{"key":"15","name":"Sachsen-Anhalt"}},{"name":"Lüdger Weg","postalCode":"16278","locality":"Angermünde","municipality":{"key":"12073008","name":"Angermünde, Stadt","type":"Stadt"},"district":{"key":"12073","name":"Uckermark","type":"Landkreis"},"federalState":{"key":"12","name":"Brandenburg"}},{"name":"Luisenstr.","postalCode":"39590","locality":"Tangermünde","municipality":{"key":"15090550","name":"Tangermünde, Stadt","type":"Stadt"},"district":{"key":"15090","name":"Stendal","type":"Landkreis"},"federalState":{"key":"15","name":"Sachsen-Anhalt"}},{"name":"Luisenthal","postalCode":"16278","locality":"Angermünde","municipality":{"key":"12073008","name":"Angermünde, Stadt","type":"Stadt"},"district":{"key":"12073","name":"Uckermark","type":"Landkreis"},"federalState":{"key":"12","name":"Brandenburg"}},{"name":"Magdeburger Str.","postalCode":"39590","locality":"Tangermünde","municipality":{"key":"15090550","name":"Tangermünde, Stadt","type":"Stadt"},"district":{"key":"15090","name":"Stendal","type":"Landkreis"},"federalState":{"key":"15","name":"Sachsen-Anhalt"}},{"name":"Markt","postalCode":"16278","locality":"Angermünde","municipality":{"key":"12073008","name":"Angermünde, Stadt","type":"Stadt"},"district":{"key":"12073","name":"Uckermark","type":"Landkreis"},"federalState":{"key":"12","name":"Brandenburg"}},{"name":"Markt","postalCode":"39590","locality":"Tangermünde","municipality":{"key":"15090550","name":"Tangermünde, Stadt","type":"Stadt"},"district":{"key":"15090","name":"Stendal","type":"Landkreis"},"federalState":{"key":"15","name":"Sachsen-Anhalt"}},{"name":"Marktstr.","postalCode":"39590","locality":"Tangermünde","municipality":{"key":"15090550","name":"Tangermünde, Stadt","type":"Stadt"},"district":{"key":"15090","name":"Stendal","type":"Landkreis"},"federalState":{"key":"15","name":"Sachsen-Anhalt"}},{"name":"Martinsgasse","postalCode":"16278","locality":"Angermünde","municipality":{"key":"12073008","name":"Angermünde, Stadt","type":"Stadt"},"district":{"key":"12073","name":"Uckermark","type":"Landkreis"},"federalState":{"key":"12","name":"Brandenburg"}},{"name":"Martinsplatz","postalCode":"16278","locality":"Angermünde","municipality":{"key":"12073008","name":"Angermünde, Stadt","type":"Stadt"},"district":{"key":"12073","name":"Uckermark","type":"Landkreis"},"federalState":{"key":"12","name":"Brandenburg"}},{"name":"Mauerstr.","postalCode":"39590","locality":"Tangermünde","municipality":{"key":"15090550","name":"Tangermünde, Stadt","type":"Stadt"},"district":{"key":"15090","name":"Stendal","type":"Landkreis"},"federalState":{"key":"15","name":"Sachsen-Anhalt"}},{"name":"Meyerstr.","postalCode":"39590","locality":"Tangermünde","municipality":{"key":"15090550","name":"Tangermünde, Stadt","type":"Stadt"},"district":{"key":"15090","name":"Stendal","type":"Landkreis"},"federalState":{"key":"15","name":"Sachsen-Anhalt"}},{"name":"Mindener Str.","postalCode":"39590","locality":"Tangermünde","municipality":{"key":"15090550","name":"Tangermünde, Stadt","type":"Stadt"},"district":{"key":"15090","name":"Stendal","type":"Landkreis"},"federalState":{"key":"15","name":"Sachsen-Anhalt"}},{"name":"Mittelstr.","postalCode":"39590","locality":"Tangermünde","municipality":{"key":"15090550","name":"Tangermünde, Stadt","type":"Stadt"},"district":{"key":"15090","name":"Stendal","type":"Landkreis"},"federalState":{"key":"15","name":"Sachsen-Anhalt"}},{"name":"Mittelweg","postalCode":"16278","locality":"Angermünde","municipality":{"key":"12073008","name":"Angermünde, Stadt","type":"Stadt"},"district":{"key":"12073","name":"Uckermark","type":"Landkreis"},"federalState":{"key":"12","name":"Brandenburg"}},{"name":"Mozartstr.","postalCode":"39590","locality":"Tangermünde","municipality":{"key":"15090550","name":"Tangermünde, Stadt","type":"Stadt"},"district":{"key":"15090","name":"Stendal","type":"Landkreis"},"federalState":{"key":"15","name":"Sachsen-Anhalt"}},{"name":"Mudrowweg","postalCode":"16278","locality":"Angermünde","municipality":{"key":"12073008","name":"Angermünde, Stadt","type":"Stadt"},"district":{"key":"12073","name":"Uckermark","type":"Landkreis"},"federalState":{"key":"12","name":"Brandenburg"}},{"name":"Mürower Landstr.","postalCode":"16278","locality":"Angermünde","municipality":{"key":"12073008","name":"Angermünde, Stadt","type":"Stadt"},"district":{"key":"12073","name":"Uckermark","type":"Landkreis"},"federalState":{"key":"12","name":"Brandenburg"}},{"name":"Mürower Str.","postalCode":"16278","locality":"Angermünde","municipality":{"key":"12073008","name":"Angermünde, Stadt","type":"Stadt"},"district":{"key":"12073","name":"Uckermark","type":"Landkreis"},"federalState":{"key":"12","name":"Brandenburg"}},{"name":"Mürower Str. Ausbau","postalCode":"16278","locality":"Angermünde","municipality":{"key":"12073008","name":"Angermünde, Stadt","type":"Stadt"},"district":{"key":"12073","name":"Uckermark","type":"Landkreis"},"federalState":{"key":"12","name":"Brandenburg"}},{"name":"Mürower Weg","postalCode":"16278","locality":"Angermünde","municipality":{"key":"12073008","name":"Angermünde, Stadt","type":"Stadt"},"district":{"key":"12073","name":"Uckermark","type":"Landkreis"},"federalState":{"key":"12","name":"Brandenburg"}},{"name":"Neuer Weg","postalCode":"16278","locality":"Angermünde","municipality":{"key":"12073008","name":"Angermünde, Stadt","type":"Stadt"},"district":{"key":"12073","name":"Uckermark","type":"Landkreis"},"federalState":{"key":"12","name":"Brandenburg"}},{"name":"Neue Str.","postalCode":"39590","locality":"Tangermünde","municipality":{"key":"15090550","name":"Tangermünde, Stadt","type":"Stadt"},"district":{"key":"15090","name":"Stendal","type":"Landkreis"},"federalState":{"key":"15","name":"Sachsen-Anhalt"}},{"name":"Neu-Günterberg","postalCode":"16278","locality":"Angermünde","municipality":{"key":"12073008","name":"Angermünde, Stadt","type":"Stadt"},"district":{"key":"12073","name":"Uckermark","type":"Landkreis"},"federalState":{"key":"12","name":"Brandenburg"}},{"name":"Neuhaus","postalCode":"16278","locality":"Angermünde","municipality":{"key":"12073008","name":"Angermünde, Stadt","type":"Stadt"},"district":{"key":"12073","name":"Uckermark","type":"Landkreis"},"federalState":{"key":"12","name":"Brandenburg"}},{"name":"Neuhofer Str.","postalCode":"16278","locality":"Angermünde","municipality":{"key":"12073008","name":"Angermünde, Stadt","type":"Stadt"},"district":{"key":"12073","name":"Uckermark","type":"Landkreis"},"federalState":{"key":"12","name":"Brandenburg"}},{"name":"Nikolaistr.","postalCode":"39590","locality":"Tangermünde","municipality":{"key":"15090550","name":"Tangermünde, Stadt","type":"Stadt"},"district":{"key":"15090","name":"Stendal","type":"Landkreis"},"federalState":{"key":"15","name":"Sachsen-Anhalt"}},{"name":"Nordring","postalCode":"16278","locality":"Angermünde","municipality":{"key":"12073008","name":"Angermünde, Stadt","type":"Stadt"},"district":{"key":"12073","name":"Uckermark","type":"Landkreis"},"federalState":{"key":"12","name":"Brandenburg"}},{"name":"Notpforte","postalCode":"39590","locality":"Tangermünde","municipality":{"key":"15090550","name":"Tangermünde, Stadt","type":"Stadt"},"district":{"key":"15090","name":"Stendal","type":"Landkreis"},"federalState":{"key":"15","name":"Sachsen-Anhalt"}},{"name":"Oberster Weg","postalCode":"39590","locality":"Tangermünde","municipality":{"key":"15090550","name":"Tangermünde, Stadt","type":"Stadt"},"district":{"key":"15090","name":"Stendal","type":"Landkreis"},"federalState":{"key":"15","name":"Sachsen-Anhalt"}},{"name":"Oberwall","postalCode":"16278","locality":"Angermünde","municipality":{"key":"12073008","name":"Angermünde, Stadt","type":"Stadt"},"district":{"key":"12073","name":"Uckermark","type":"Landkreis"},"federalState":{"key":"12","name":"Brandenburg"}},{"name":"Oderberger Str.","postalCode":"16278","locality":"Angermünde","municipality":{"key":"12073008","name":"Angermünde, Stadt","type":"Stadt"},"district":{"key":"12073","name":"Uckermark","type":"Landkreis"},"federalState":{"key":"12","name":"Brandenburg"}},{"name":"Panzerstr.","postalCode":"39590","locality":"Tangermünde","municipality":{"key":"15090550","name":"Tangermünde, Stadt","type":"Stadt"},"district":{"key":"15090","name":"Stendal","type":"Landkreis"},"federalState":{"key":"15","name":"Sachsen-Anhalt"}},{"name":"Parkstr.","postalCode":"16278","locality":"Angermünde","municipality":{"key":"12073008","name":"Angermünde, Stadt","type":"Stadt"},"district":{"key":"12073","name":"Uckermark","type":"Landkreis"},"federalState":{"key":"12","name":"Brandenburg"}},{"name":"Parkweg","postalCode":"16278","locality":"Angermünde","municipality":{"key":"12073008","name":"Angermünde, Stadt","type":"Stadt"},"district":{"key":"12073","name":"Uckermark","type":"Landkreis"},"federalState":{"key":"12","name":"Brandenburg"}},{"name":"Parsteiner Weg","postalCode":"16278","locality":"Angermünde","municipality":{"key":"12073008","name":"Angermünde, Stadt","type":"Stadt"},"district":{"key":"12073","name":"Uckermark","type":"Landkreis"},"federalState":{"key":"12","name":"Brandenburg"}},{"name":"Pestalozzistr.","postalCode":"16278","locality":"Angermünde","municipality":{"key":"12073008","name":"Angermünde, Stadt","type":"Stadt"},"district":{"key":"12073","name":"Uckermark","type":"Landkreis"},"federalState":{"key":"12","name":"Brandenburg"}},{"name":"Pflasterdamm","postalCode":"16278","locality":"Angermünde","municipality":{"key":"12073008","name":"Angermünde, Stadt","type":"Stadt"},"district":{"key":"12073","name":"Uckermark","type":"Landkreis"},"federalState":{"key":"12","name":"Brandenburg"}},{"name":"Pinnower Str.","postalCode":"16278","locality":"Angermünde","municipality":{"key":"12073008","name":"Angermünde, Stadt","type":"Stadt"},"district":{"key":"12073","name":"Uckermark","type":"Landkreis"},"federalState":{"key":"12","name":"Brandenburg"}},{"name":"Platanenstr.","postalCode":"39590","locality":"Tangermünde","municipality":{"key":"15090550","name":"Tangermünde, Stadt","type":"Stadt"},"district":{"key":"15090","name":"Stendal","type":"Landkreis"},"federalState":{"key":"15","name":"Sachsen-Anhalt"}},{"name":"Poststr.","postalCode":"16278","locality":"Angermünde","municipality":{"key":"12073008","name":"Angermünde, Stadt","type":"Stadt"},"district":{"key":"12073","name":"Uckermark","type":"Landkreis"},"federalState":{"key":"12","name":"Brandenburg"}},{"name":"Poststr.-Heerstr.","postalCode":"39590","locality":"Tangermünde","municipality":{"key":"15090550","name":"Tangermünde, Stadt","type":"Stadt"},"district":{"key":"15090","name":"Stendal","type":"Landkreis"},"federalState":{"key":"15","name":"Sachsen-Anhalt"}},{"name":"Prenzlauer Str.","postalCode":"16278","locality":"Angermünde","municipality":{"key":"12073008","name":"Angermünde, Stadt","type":"Stadt"},"district":{"key":"12073","name":"Uckermark","type":"Landkreis"},"federalState":{"key":"12","name":"Brandenburg"}},{"name":"Puschkinallee","postalCode":"16278","locality":"Angermünde","municipality":{"key":"12073008","name":"Angermünde, Stadt","type":"Stadt"},"district":{"key":"12073","name":"Uckermark","type":"Landkreis"},"federalState":{"key":"12","name":"Brandenburg"}},{"name":"Querstr.","postalCode":"39590","locality":"Tangermünde","municipality":{"key":"15090550","name":"Tangermünde, Stadt","type":"Stadt"},"district":{"key":"15090","name":"Stendal","type":"Landkreis"},"federalState":{"key":"15","name":"Sachsen-Anhalt"}},{"name":"Radweg am Mündesee","postalCode":"16278","locality":"Angermünde","municipality":{"key":"12073008","name":"Angermünde, Stadt","type":"Stadt"},"district":{"key":"12073","name":"Uckermark","type":"Landkreis"},"federalState":{"key":"12","name":"Brandenburg"}},{"name":"Rathenau-Str.","postalCode":"39590","locality":"Tangermünde","municipality":{"key":"15090550","name":"Tangermünde, Stadt","type":"Stadt"},"district":{"key":"15090","name":"Stendal","type":"Landkreis"},"federalState":{"key":"15","name":"Sachsen-Anhalt"}},{"name":"Reitbahnstr.","postalCode":"39590","locality":"Tangermünde","municipality":{"key":"15090550","name":"Tangermünde, Stadt","type":"Stadt"},"district":{"key":"15090","name":"Stendal","type":"Landkreis"},"federalState":{"key":"15","name":"Sachsen-Anhalt"}},{"name":"Reuterstr.","postalCode":"39590","locality":"Tangermünde","municipality":{"key":"15090550","name":"Tangermünde, Stadt","type":"Stadt"},"district":{"key":"15090","name":"Stendal","type":"Landkreis"},"federalState":{"key":"15","name":"Sachsen-Anhalt"}},{"name":"Richard-Wagner-Str.","postalCode":"39590","locality":"Tangermünde","municipality":{"key":"15090550","name":"Tangermünde, Stadt","type":"Stadt"},"district":{"key":"15090","name":"Stendal","type":"Landkreis"},"federalState":{"key":"15","name":"Sachsen-Anhalt"}},{"name":"Richtstr.","postalCode":"16278","locality":"Angermünde","municipality":{"key":"12073008","name":"Angermünde, Stadt","type":"Stadt"},"district":{"key":"12073","name":"Uckermark","type":"Landkreis"},"federalState":{"key":"12","name":"Brandenburg"}},{"name":"Ring","postalCode":"16278","locality":"Angermünde","municipality":{"key":"12073008","name":"Angermünde, Stadt","type":"Stadt"},"district":{"key":"12073","name":"Uckermark","type":"Landkreis"},"federalState":{"key":"12","name":"Brandenburg"}},{"name":"Robert-Koch-Str.","postalCode":"39590","locality":"Tangermünde","municipality":{"key":"15090550","name":"Tangermünde, Stadt","type":"Stadt"},"district":{"key":"15090","name":"Stendal","type":"Landkreis"},"federalState":{"key":"15","name":"Sachsen-Anhalt"}},{"name":"Robert-Schumann-Str.","postalCode":"39590","locality":"Tangermünde","municipality":{"key":"15090550","name":"Tangermünde, Stadt","type":"Stadt"},"district":{"key":"15090","name":"Stendal","type":"Landkreis"},"federalState":{"key":"15","name":"Sachsen-Anhalt"}},{"name":"Rosa-Luxemburg-Str.","postalCode":"39590","locality":"Tangermünde","municipality":{"key":"15090550","name":"Tangermünde, Stadt","type":"Stadt"},"district":{"key":"15090","name":"Stendal","type":"Landkreis"},"federalState":{"key":"15","name":"Sachsen-Anhalt"}},{"name":"Rosengarten","postalCode":"16278","locality":"Angermünde","municipality":{"key":"12073008","name":"Angermünde, Stadt","type":"Stadt"},"district":{"key":"12073","name":"Uckermark","type":"Landkreis"},"federalState":{"key":"12","name":"Brandenburg"}},{"name":"Rosenstr.","postalCode":"16278","locality":"Angermünde","municipality":{"key":"12073008","name":"Angermünde, Stadt","type":"Stadt"},"district":{"key":"12073","name":"Uckermark","type":"Landkreis"},"federalState":{"key":"12","name":"Brandenburg"}},{"name":"Rosenstr.","postalCode":"39590","locality":"Tangermünde","municipality":{"key":"15090550","name":"Tangermünde, Stadt","type":"Stadt"},"district":{"key":"15090","name":"Stendal","type":"Landkreis"},"federalState":{"key":"15","name":"Sachsen-Anhalt"}},{"name":"Rosinthal","postalCode":"16278","locality":"Angermünde","municipality":{"key":"12073008","name":"Angermünde, Stadt","type":"Stadt"},"district":{"key":"12073","name":"Uckermark","type":"Landkreis"},"federalState":{"key":"12","name":"Brandenburg"}},{"name":"Rotdornstr.","postalCode":"16278","locality":"Angermünde","municipality":{"key":"12073008","name":"Angermünde, Stadt","type":"Stadt"},"district":{"key":"12073","name":"Uckermark","type":"Landkreis"},"federalState":{"key":"12","name":"Brandenburg"}},{"name":"Rotdornweg","postalCode":"39590","locality":"Tangermünde","municipality":{"key":"15090550","name":"Tangermünde, Stadt","type":"Stadt"},"district":{"key":"15090","name":"Stendal","type":"Landkreis"},"federalState":{"key":"15","name":"Sachsen-Anhalt"}},{"name":"Röthseeweg","postalCode":"16278","locality":"Angermünde","municipality":{"key":"12073008","name":"Angermünde, Stadt","type":"Stadt"},"district":{"key":"12073","name":"Uckermark","type":"Landkreis"},"federalState":{"key":"12","name":"Brandenburg"}},{"name":"Rudolf-Breitscheid-Str.","postalCode":"16278","locality":"Angermünde","municipality":{"key":"12073008","name":"Angermünde, Stadt","type":"Stadt"},"district":{"key":"12073","name":"Uckermark","type":"Landkreis"},"federalState":{"key":"12","name":"Brandenburg"}},{"name":"Rudolf-Harbig-Str.","postalCode":"16278","locality":"Angermünde","municipality":{"key":"12073008","name":"Angermünde, Stadt","type":"Stadt"},"district":{"key":"12073","name":"Uckermark","type":"Landkreis"},"federalState":{"key":"12","name":"Brandenburg"}},{"name":"Salzstr.","postalCode":"39590","locality":"Tangermünde","municipality":{"key":"15090550","name":"Tangermünde, Stadt","type":"Stadt"},"district":{"key":"15090","name":"Stendal","type":"Landkreis"},"federalState":{"key":"15","name":"Sachsen-Anhalt"}},{"name":"Sandangerweg","postalCode":"16278","locality":"Angermünde","municipality":{"key":"12073008","name":"Angermünde, Stadt","type":"Stadt"},"district":{"key":"12073","name":"Uckermark","type":"Landkreis"},"federalState":{"key":"12","name":"Brandenburg"}},{"name":"Sandhaus","postalCode":"16278","locality":"Angermünde","municipality":{"key":"12073008","name":"Angermünde, Stadt","type":"Stadt"},"district":{"key":"12073","name":"Uckermark","type":"Landkreis"},"federalState":{"key":"12","name":"Brandenburg"}},{"name":"Schäferstr.","postalCode":"39590","locality":"Tangermünde","municipality":{"key":"15090550","name":"Tangermünde, Stadt","type":"Stadt"},"district":{"key":"15090","name":"Stendal","type":"Landkreis"},"federalState":{"key":"15","name":"Sachsen-Anhalt"}},{"name":"Scharfrichtergasse","postalCode":"16278","locality":"Angermünde","municipality":{"key":"12073008","name":"Angermünde, Stadt","type":"Stadt"},"district":{"key":"12073","name":"Uckermark","type":"Landkreis"},"federalState":{"key":"12","name":"Brandenburg"}},{"name":"Scheunenhof","postalCode":"39590","locality":"Tangermünde","municipality":{"key":"15090550","name":"Tangermünde, Stadt","type":"Stadt"},"district":{"key":"15090","name":"Stendal","type":"Landkreis"},"federalState":{"key":"15","name":"Sachsen-Anhalt"}},{"name":"Scheunenstr.","postalCode":"39590","locality":"Tangermünde","municipality":{"key":"15090550","name":"Tangermünde, Stadt","type":"Stadt"},"district":{"key":"15090","name":"Stendal","type":"Landkreis"},"federalState":{"key":"15","name":"Sachsen-Anhalt"}},{"name":"Scheunenweg","postalCode":"16278","locality":"Angermünde","municipality":{"key":"12073008","name":"Angermünde, Stadt","type":"Stadt"},"district":{"key":"12073","name":"Uckermark","type":"Landkreis"},"federalState":{"key":"12","name":"Brandenburg"}},{"name":"Schienenweg","postalCode":"16278","locality":"Angermünde","municipality":{"key":"12073008","name":"Angermünde, Stadt","type":"Stadt"},"district":{"key":"12073","name":"Uckermark","type":"Landkreis"},"federalState":{"key":"12","name":"Brandenburg"}},{"name":"Schillerplatz","postalCode":"16278","locality":"Angermünde","municipality":{"key":"12073008","name":"Angermünde, Stadt","type":"Stadt"},"district":{"key":"12073","name":"Uckermark","type":"Landkreis"},"federalState":{"key":"12","name":"Brandenburg"}},{"name":"Schillerstr.","postalCode":"39590","locality":"Tangermünde","municipality":{"key":"15090550","name":"Tangermünde, Stadt","type":"Stadt"},"district":{"key":"15090","name":"Stendal","type":"Landkreis"},"federalState":{"key":"15","name":"Sachsen-Anhalt"}},{"name":"Schleiseeweg","postalCode":"16278","locality":"Angermünde","municipality":{"key":"12073008","name":"Angermünde, Stadt","type":"Stadt"},"district":{"key":"12073","name":"Uckermark","type":"Landkreis"},"federalState":{"key":"12","name":"Brandenburg"}},{"name":"Schleusenstr.","postalCode":"16278","locality":"Angermünde","municipality":{"key":"12073008","name":"Angermünde, Stadt","type":"Stadt"},"district":{"key":"12073","name":"Uckermark","type":"Landkreis"},"federalState":{"key":"12","name":"Brandenburg"}},{"name":"Schloßfreiheit","postalCode":"39590","locality":"Tangermünde","municipality":{"key":"15090550","name":"Tangermünde, Stadt","type":"Stadt"},"district":{"key":"15090","name":"Stendal","type":"Landkreis"},"federalState":{"key":"15","name":"Sachsen-Anhalt"}},{"name":"Schloßwall","postalCode":"16278","locality":"Angermünde","municipality":{"key":"12073008","name":"Angermünde, Stadt","type":"Stadt"},"district":{"key":"12073","name":"Uckermark","type":"Landkreis"},"federalState":{"key":"12","name":"Brandenburg"}},{"name":"Schmargendorfer Weg","postalCode":"16278","locality":"Angermünde","municipality":{"key":"12073008","name":"Angermünde, Stadt","type":"Stadt"},"district":{"key":"12073","name":"Uckermark","type":"Landkreis"},"federalState":{"key":"12","name":"Brandenburg"}},{"name":"Schmiedeberger Weg","postalCode":"16278","locality":"Angermünde","municipality":{"key":"12073008","name":"Angermünde, Stadt","type":"Stadt"},"district":{"key":"12073","name":"Uckermark","type":"Landkreis"},"federalState":{"key":"12","name":"Brandenburg"}},{"name":"Schmiededamm","postalCode":"16278","locality":"Angermünde","municipality":{"key":"12073008","name":"Angermünde, Stadt","type":"Stadt"},"district":{"key":"12073","name":"Uckermark","type":"Landkreis"},"federalState":{"key":"12","name":"Brandenburg"}},{"name":"Schmiedestr.","postalCode":"16278","locality":"Angermünde","municipality":{"key":"12073008","name":"Angermünde, Stadt","type":"Stadt"},"district":{"key":"12073","name":"Uckermark","type":"Landkreis"},"federalState":{"key":"12","name":"Brandenburg"}},{"name":"Schöne Aussicht","postalCode":"16278","locality":"Angermünde","municipality":{"key":"12073008","name":"Angermünde, Stadt","type":"Stadt"},"district":{"key":"12073","name":"Uckermark","type":"Landkreis"},"federalState":{"key":"12","name":"Brandenburg"}},{"name":"Schöneberger Str.","postalCode":"16278","locality":"Angermünde","municipality":{"key":"12073008","name":"Angermünde, Stadt","type":"Stadt"},"district":{"key":"12073","name":"Uckermark","type":"Landkreis"},"federalState":{"key":"12","name":"Brandenburg"}},{"name":"Schönermarker Str.","postalCode":"16278","locality":"Angermünde","municipality":{"key":"12073008","name":"Angermünde, Stadt","type":"Stadt"},"district":{"key":"12073","name":"Uckermark","type":"Landkreis"},"federalState":{"key":"12","name":"Brandenburg"}},{"name":"Schulstr.","postalCode":"39590","locality":"Tangermünde","municipality":{"key":"15090550","name":"Tangermünde, Stadt","type":"Stadt"},"district":{"key":"15090","name":"Stendal","type":"Landkreis"},"federalState":{"key":"15","name":"Sachsen-Anhalt"}},{"name":"Schwarzer Weg","postalCode":"16278","locality":"Angermünde","municipality":{"key":"12073008","name":"Angermünde, Stadt","type":"Stadt"},"district":{"key":"12073","name":"Uckermark","type":"Landkreis"},"federalState":{"key":"12","name":"Brandenburg"}},{"name":"Schwarzer Weg","postalCode":"39590","locality":"Tangermünde","municipality":{"key":"15090550","name":"Tangermünde, Stadt","type":"Stadt"},"district":{"key":"15090","name":"Stendal","type":"Landkreis"},"federalState":{"key":"15","name":"Sachsen-Anhalt"}},{"name":"Schwedter Str.","postalCode":"16278","locality":"Angermünde","municipality":{"key":"12073008","name":"Angermünde, Stadt","type":"Stadt"},"district":{"key":"12073","name":"Uckermark","type":"Landkreis"},"federalState":{"key":"12","name":"Brandenburg"}},{"name":"Seeblick","postalCode":"16278","locality":"Angermünde","municipality":{"key":"12073008","name":"Angermünde, Stadt","type":"Stadt"},"district":{"key":"12073","name":"Uckermark","type":"Landkreis"},"federalState":{"key":"12","name":"Brandenburg"}},{"name":"Seestr.","postalCode":"16278","locality":"Angermünde","municipality":{"key":"12073008","name":"Angermünde, Stadt","type":"Stadt"},"district":{"key":"12073","name":"Uckermark","type":"Landkreis"},"federalState":{"key":"12","name":"Brandenburg"}},{"name":"Seeweg","postalCode":"16278","locality":"Angermünde","municipality":{"key":"12073008","name":"Angermünde, Stadt","type":"Stadt"},"district":{"key":"12073","name":"Uckermark","type":"Landkreis"},"federalState":{"key":"12","name":"Brandenburg"}},{"name":"Siedlung","postalCode":"16278","locality":"Angermünde","municipality":{"key":"12073008","name":"Angermünde, Stadt","type":"Stadt"},"district":{"key":"12073","name":"Uckermark","type":"Landkreis"},"federalState":{"key":"12","name":"Brandenburg"}},{"name":"Siedlung","postalCode":"39590","locality":"Tangermünde","municipality":{"key":"15090550","name":"Tangermünde, Stadt","type":"Stadt"},"district":{"key":"15090","name":"Stendal","type":"Landkreis"},"federalState":{"key":"15","name":"Sachsen-Anhalt"}},{"name":"Springende","postalCode":"16278","locality":"Angermünde","municipality":{"key":"12073008","name":"Angermünde, Stadt","type":"Stadt"},"district":{"key":"12073","name":"Uckermark","type":"Landkreis"},"federalState":{"key":"12","name":"Brandenburg"}},{"name":"Stadtweg","postalCode":"16278","locality":"Angermünde","municipality":{"key":"12073008","name":"Angermünde, Stadt","type":"Stadt"},"district":{"key":"12073","name":"Uckermark","type":"Landkreis"},"federalState":{"key":"12","name":"Brandenburg"}},{"name":"Steinhöfler Str.","postalCode":"16278","locality":"Angermünde","municipality":{"key":"12073008","name":"Angermünde, Stadt","type":"Stadt"},"district":{"key":"12073","name":"Uckermark","type":"Landkreis"},"federalState":{"key":"12","name":"Brandenburg"}},{"name":"Steinhöfler Weg","postalCode":"16278","locality":"Angermünde","municipality":{"key":"12073008","name":"Angermünde, Stadt","type":"Stadt"},"district":{"key":"12073","name":"Uckermark","type":"Landkreis"},"federalState":{"key":"12","name":"Brandenburg"}},{"name":"Steinstr.","postalCode":"16278","locality":"Angermünde","municipality":{"key":"12073008","name":"Angermünde, Stadt","type":"Stadt"},"district":{"key":"12073","name":"Uckermark","type":"Landkreis"},"federalState":{"key":"12","name":"Brandenburg"}},{"name":"Stendaler Str.","postalCode":"39590","locality":"Tangermünde","municipality":{"key":"15090550","name":"Tangermünde, Stadt","type":"Stadt"},"district":{"key":"15090","name":"Stendal","type":"Landkreis"},"federalState":{"key":"15","name":"Sachsen-Anhalt"}},{"name":"Stendaler Weg","postalCode":"39590","locality":"Tangermünde","municipality":{"key":"15090550","name":"Tangermünde, Stadt","type":"Stadt"},"district":{"key":"15090","name":"Stendal","type":"Landkreis"},"federalState":{"key":"15","name":"Sachsen-Anhalt"}},{"name":"Sternfelder Str.","postalCode":"16278","locality":"Angermünde","municipality":{"key":"12073008","name":"Angermünde, Stadt","type":"Stadt"},"district":{"key":"12073","name":"Uckermark","type":"Landkreis"},"federalState":{"key":"12","name":"Brandenburg"}},{"name":"Stolpe Mühle","postalCode":"16278","locality":"Angermünde","municipality":{"key":"12073008","name":"Angermünde, Stadt","type":"Stadt"},"district":{"key":"12073","name":"Uckermark","type":"Landkreis"},"federalState":{"key":"12","name":"Brandenburg"}},{"name":"Stolper Str.","postalCode":"16278","locality":"Angermünde","municipality":{"key":"12073008","name":"Angermünde, Stadt","type":"Stadt"},"district":{"key":"12073","name":"Uckermark","type":"Landkreis"},"federalState":{"key":"12","name":"Brandenburg"}},{"name":"Storchenweg","postalCode":"39590","locality":"Tangermünde","municipality":{"key":"15090550","name":"Tangermünde, Stadt","type":"Stadt"},"district":{"key":"15090","name":"Stendal","type":"Landkreis"},"federalState":{"key":"15","name":"Sachsen-Anhalt"}},{"name":"Storkauer Dorfstr.","postalCode":"39590","locality":"Tangermünde","municipality":{"key":"15090550","name":"Tangermünde, Stadt","type":"Stadt"},"district":{"key":"15090","name":"Stendal","type":"Landkreis"},"federalState":{"key":"15","name":"Sachsen-Anhalt"}},{"name":"Str. am Dorfteich","postalCode":"16278","locality":"Angermünde","municipality":{"key":"12073008","name":"Angermünde, Stadt","type":"Stadt"},"district":{"key":"12073","name":"Uckermark","type":"Landkreis"},"federalState":{"key":"12","name":"Brandenburg"}},{"name":"Str. am Haussee","postalCode":"16278","locality":"Angermünde","municipality":{"key":"12073008","name":"Angermünde, Stadt","type":"Stadt"},"district":{"key":"12073","name":"Uckermark","type":"Landkreis"},"federalState":{"key":"12","name":"Brandenburg"}},{"name":"Str. am Spielplatz","postalCode":"16278","locality":"Angermünde","municipality":{"key":"12073008","name":"Angermünde, Stadt","type":"Stadt"},"district":{"key":"12073","name":"Uckermark","type":"Landkreis"},"federalState":{"key":"12","name":"Brandenburg"}},{"name":"Str. des Friedens","postalCode":"16278","locality":"Angermünde","municipality":{"key":"12073008","name":"Angermünde, Stadt","type":"Stadt"},"district":{"key":"12073","name":"Uckermark","type":"Landkreis"},"federalState":{"key":"12","name":"Brandenburg"}},{"name":"Str. zum Ausbau","postalCode":"16278","locality":"Angermünde","municipality":{"key":"12073008","name":"Angermünde, Stadt","type":"Stadt"},"district":{"key":"12073","name":"Uckermark","type":"Landkreis"},"federalState":{"key":"12","name":"Brandenburg"}},{"name":"Str. zum Bahnhof","postalCode":"16278","locality":"Angermünde","municipality":{"key":"12073008","name":"Angermünde, Stadt","type":"Stadt"},"district":{"key":"12073","name":"Uckermark","type":"Landkreis"},"federalState":{"key":"12","name":"Brandenburg"}},{"name":"Südring","postalCode":"16278","locality":"Angermünde","municipality":{"key":"12073008","name":"Angermünde, Stadt","type":"Stadt"},"district":{"key":"12073","name":"Uckermark","type":"Landkreis"},"federalState":{"key":"12","name":"Brandenburg"}},{"name":"Tannengrund","postalCode":"16278","locality":"Angermünde","municipality":{"key":"12073008","name":"Angermünde, Stadt","type":"Stadt"},"district":{"key":"12073","name":"Uckermark","type":"Landkreis"},"federalState":{"key":"12","name":"Brandenburg"}},{"name":"Tannenstr.","postalCode":"39590","locality":"Tangermünde","municipality":{"key":"15090550","name":"Tangermünde, Stadt","type":"Stadt"},"district":{"key":"15090","name":"Stendal","type":"Landkreis"},"federalState":{"key":"15","name":"Sachsen-Anhalt"}},{"name":"Tavarneller Weg","postalCode":"39590","locality":"Tangermünde","municipality":{"key":"15090550","name":"Tangermünde, Stadt","type":"Stadt"},"district":{"key":"15090","name":"Stendal","type":"Landkreis"},"federalState":{"key":"15","name":"Sachsen-Anhalt"}},{"name":"Templiner Str.","postalCode":"16278","locality":"Angermünde","municipality":{"key":"12073008","name":"Angermünde, Stadt","type":"Stadt"},"district":{"key":"12073","name":"Uckermark","type":"Landkreis"},"federalState":{"key":"12","name":"Brandenburg"}},{"name":"Thekenberg","postalCode":"16278","locality":"Angermünde","municipality":{"key":"12073008","name":"Angermünde, Stadt","type":"Stadt"},"district":{"key":"12073","name":"Uckermark","type":"Landkreis"},"federalState":{"key":"12","name":"Brandenburg"}},{"name":"Theodor-Fontane-Str.","postalCode":"39590","locality":"Tangermünde","municipality":{"key":"15090550","name":"Tangermünde, Stadt","type":"Stadt"},"district":{"key":"15090","name":"Stendal","type":"Landkreis"},"federalState":{"key":"15","name":"Sachsen-Anhalt"}},{"name":"Theodor-Körner-Str.","postalCode":"39590","locality":"Tangermünde","municipality":{"key":"15090550","name":"Tangermünde, Stadt","type":"Stadt"},"district":{"key":"15090","name":"Stendal","type":"Landkreis"},"federalState":{"key":"15","name":"Sachsen-Anhalt"}},{"name":"Thomas-Müntzer-Str.","postalCode":"39590","locality":"Tangermünde","municipality":{"key":"15090550","name":"Tangermünde, Stadt","type":"Stadt"},"district":{"key":"15090","name":"Stendal","type":"Landkreis"},"federalState":{"key":"15","name":"Sachsen-Anhalt"}},{"name":"Töpferpassage","postalCode":"39590","locality":"Tangermünde","municipality":{"key":"15090550","name":"Tangermünde, Stadt","type":"Stadt"},"district":{"key":"15090","name":"Stendal","type":"Landkreis"},"federalState":{"key":"15","name":"Sachsen-Anhalt"}},{"name":"Töpferstiege","postalCode":"39590","locality":"Tangermünde","municipality":{"key":"15090550","name":"Tangermünde, Stadt","type":"Stadt"},"district":{"key":"15090","name":"Stendal","type":"Landkreis"},"federalState":{"key":"15","name":"Sachsen-Anhalt"}},{"name":"Töpferstr.","postalCode":"39590","locality":"Tangermünde","municipality":{"key":"15090550","name":"Tangermünde, Stadt","type":"Stadt"},"district":{"key":"15090","name":"Stendal","type":"Landkreis"},"federalState":{"key":"15","name":"Sachsen-Anhalt"}},{"name":"Triftstr.","postalCode":"16278","locality":"Angermünde","municipality":{"key":"12073008","name":"Angermünde, Stadt","type":"Stadt"},"district":{"key":"12073","name":"Uckermark","type":"Landkreis"},"federalState":{"key":"12","name":"Brandenburg"}},{"name":"Uhlandstr.","postalCode":"39590","locality":"Tangermünde","municipality":{"key":"15090550","name":"Tangermünde, Stadt","type":"Stadt"},"district":{"key":"15090","name":"Stendal","type":"Landkreis"},"federalState":{"key":"15","name":"Sachsen-Anhalt"}},{"name":"Ulrichsstr.","postalCode":"39590","locality":"Tangermünde","municipality":{"key":"15090550","name":"Tangermünde, Stadt","type":"Stadt"},"district":{"key":"15090","name":"Stendal","type":"Landkreis"},"federalState":{"key":"15","name":"Sachsen-Anhalt"}},{"name":"Unterhof","postalCode":"16278","locality":"Angermünde","municipality":{"key":"12073008","name":"Angermünde, Stadt","type":"Stadt"},"district":{"key":"12073","name":"Uckermark","type":"Landkreis"},"federalState":{"key":"12","name":"Brandenburg"}},{"name":"Unterwall","postalCode":"16278","locality":"Angermünde","municipality":{"key":"12073008","name":"Angermünde, Stadt","type":"Stadt"},"district":{"key":"12073","name":"Uckermark","type":"Landkreis"},"federalState":{"key":"12","name":"Brandenburg"}},{"name":"Verlängerte Carlbauerstr.","postalCode":"39590","locality":"Tangermünde","municipality":{"key":"15090550","name":"Tangermünde, Stadt","type":"Stadt"},"district":{"key":"15090","name":"Stendal","type":"Landkreis"},"federalState":{"key":"15","name":"Sachsen-Anhalt"}},{"name":"Waldweg","postalCode":"16278","locality":"Angermünde","municipality":{"key":"12073008","name":"Angermünde, Stadt","type":"Stadt"},"district":{"key":"12073","name":"Uckermark","type":"Landkreis"},"federalState":{"key":"12","name":"Brandenburg"}},{"name":"Wallgarten","postalCode":"16278","locality":"Angermünde","municipality":{"key":"12073008","name":"Angermünde, Stadt","type":"Stadt"},"district":{"key":"12073","name":"Uckermark","type":"Landkreis"},"federalState":{"key":"12","name":"Brandenburg"}},{"name":"Wasserplatz","postalCode":"16278","locality":"Angermünde","municipality":{"key":"12073008","name":"Angermünde, Stadt","type":"Stadt"},"district":{"key":"12073","name":"Uckermark","type":"Landkreis"},"federalState":{"key":"12","name":"Brandenburg"}},{"name":"Wasserstr.","postalCode":"16278","locality":"Angermünde","municipality":{"key":"12073008","name":"Angermünde, Stadt","type":"Stadt"},"district":{"key":"12073","name":"Uckermark","type":"Landkreis"},"federalState":{"key":"12","name":"Brandenburg"}},{"name":"Weg Dobberzin-Kerkow","postalCode":"16278","locality":"Angermünde","municipality":{"key":"12073008","name":"Angermünde, Stadt","type":"Stadt"},"district":{"key":"12073","name":"Uckermark","type":"Landkreis"},"federalState":{"key":"12","name":"Brandenburg"}},{"name":"Weg Parstein Gellmersdorf","postalCode":"16278","locality":"Angermünde","municipality":{"key":"12073008","name":"Angermünde, Stadt","type":"Stadt"},"district":{"key":"12073","name":"Uckermark","type":"Landkreis"},"federalState":{"key":"12","name":"Brandenburg"}},{"name":"Weinbergstr.","postalCode":"39590","locality":"Tangermünde","municipality":{"key":"15090550","name":"Tangermünde, Stadt","type":"Stadt"},"district":{"key":"15090","name":"Stendal","type":"Landkreis"},"federalState":{"key":"15","name":"Sachsen-Anhalt"}},{"name":"Weinbergweg","postalCode":"16278","locality":"Angermünde","municipality":{"key":"12073008","name":"Angermünde, Stadt","type":"Stadt"},"district":{"key":"12073","name":"Uckermark","type":"Landkreis"},"federalState":{"key":"12","name":"Brandenburg"}},{"name":"Weingarten","postalCode":"39590","locality":"Tangermünde","municipality":{"key":"15090550","name":"Tangermünde, Stadt","type":"Stadt"},"district":{"key":"15090","name":"Stendal","type":"Landkreis"},"federalState":{"key":"15","name":"Sachsen-Anhalt"}},{"name":"Weißdornweg","postalCode":"39590","locality":"Tangermünde","municipality":{"key":"15090550","name":"Tangermünde, Stadt","type":"Stadt"},"district":{"key":"15090","name":"Stendal","type":"Landkreis"},"federalState":{"key":"15","name":"Sachsen-Anhalt"}},{"name":"Welsower Damm","postalCode":"16278","locality":"Angermünde","municipality":{"key":"12073008","name":"Angermünde, Stadt","type":"Stadt"},"district":{"key":"12073","name":"Uckermark","type":"Landkreis"},"federalState":{"key":"12","name":"Brandenburg"}},{"name":"Welsower Str.","postalCode":"16278","locality":"Angermünde","municipality":{"key":"12073008","name":"Angermünde, Stadt","type":"Stadt"},"district":{"key":"12073","name":"Uckermark","type":"Landkreis"},"federalState":{"key":"12","name":"Brandenburg"}},{"name":"Welsower Str. Ausbau","postalCode":"16278","locality":"Angermünde","municipality":{"key":"12073008","name":"Angermünde, Stadt","type":"Stadt"},"district":{"key":"12073","name":"Uckermark","type":"Landkreis"},"federalState":{"key":"12","name":"Brandenburg"}},{"name":"Werner-Seelenbinder-Str.","postalCode":"16278","locality":"Angermünde","municipality":{"key":"12073008","name":"Angermünde, Stadt","type":"Stadt"},"district":{"key":"12073","name":"Uckermark","type":"Landkreis"},"federalState":{"key":"12","name":"Brandenburg"}},{"name":"Wiesengrund","postalCode":"39590","locality":"Tangermünde","municipality":{"key":"15090550","name":"Tangermünde, Stadt","type":"Stadt"},"district":{"key":"15090","name":"Stendal","type":"Landkreis"},"federalState":{"key":"15","name":"Sachsen-Anhalt"}},{"name":"Wiesenstr.","postalCode":"16278","locality":"Angermünde","municipality":{"key":"12073008","name":"Angermünde, Stadt","type":"Stadt"},"district":{"key":"12073","name":"Uckermark","type":"Landkreis"},"federalState":{"key":"12","name":"Brandenburg"}},{"name":"Wiesenweg","postalCode":"16278","locality":"Angermünde","municipality":{"key":"12073008","name":"Angermünde, Stadt","type":"Stadt"},"district":{"key":"12073","name":"Uckermark","type":"Landkreis"},"federalState":{"key":"12","name":"Brandenburg"}},{"name":"Wilhelmsfelde","postalCode":"16278","locality":"Angermünde","municipality":{"key":"12073008","name":"Angermünde, Stadt","type":"Stadt"},"district":{"key":"12073","name":"Uckermark","type":"Landkreis"},"federalState":{"key":"12","name":"Brandenburg"}},{"name":"Wilhelmsfelder Str.","postalCode":"16278","locality":"Angermünde","municipality":{"key":"12073008","name":"Angermünde, Stadt","type":"Stadt"},"district":{"key":"12073","name":"Uckermark","type":"Landkreis"},"federalState":{"key":"12","name":"Brandenburg"}},{"name":"Wilmersdorfer Str.","postalCode":"16278","locality":"Angermünde","municipality":{"key":"12073008","name":"Angermünde, Stadt","type":"Stadt"},"district":{"key":"12073","name":"Uckermark","type":"Landkreis"},"federalState":{"key":"12","name":"Brandenburg"}},{"name":"Wirtschaftshof","postalCode":"16278","locality":"Angermünde","municipality":{"key":"12073008","name":"Angermünde, Stadt","type":"Stadt"},"district":{"key":"12073","name":"Uckermark","type":"Landkreis"},"federalState":{"key":"12","name":"Brandenburg"}},{"name":"Wirtschaftsweg","postalCode":"16278","locality":"Angermünde","municipality":{"key":"12073008","name":"Angermünde, Stadt","type":"Stadt"},"district":{"key":"12073","name":"Uckermark","type":"Landkreis"},"federalState":{"key":"12","name":"Brandenburg"}},{"name":"Wissembourger Str.","postalCode":"39590","locality":"Tangermünde","municipality":{"key":"15090550","name":"Tangermünde, Stadt","type":"Stadt"},"district":{"key":"15090","name":"Stendal","type":"Landkreis"},"federalState":{"key":"15","name":"Sachsen-Anhalt"}},{"name":"Wolletzer Str.","postalCode":"16278","locality":"Angermünde","municipality":{"key":"12073008","name":"Angermünde, Stadt","type":"Stadt"},"district":{"key":"12073","name":"Uckermark","type":"Landkreis"},"federalState":{"key":"12","name":"Brandenburg"}},{"name":"Ziegeleiende","postalCode":"16278","locality":"Angermünde","municipality":{"key":"12073008","name":"Angermünde, Stadt","type":"Stadt"},"district":{"key":"12073","name":"Uckermark","type":"Landkreis"},"federalState":{"key":"12","name":"Brandenburg"}},{"name":"Ziethener Weg","postalCode":"16278","locality":"Angermünde","municipality":{"key":"12073008","name":"Angermünde, Stadt","type":"Stadt"},"district":{"key":"12073","name":"Uckermark","type":"Landkreis"},"federalState":{"key":"12","name":"Brandenburg"}},{"name":"Ziethen-Mühle","postalCode":"16278","locality":"Angermünde","municipality":{"key":"12073008","name":"Angermünde, Stadt","type":"Stadt"},"district":{"key":"12073","name":"Uckermark","type":"Landkreis"},"federalState":{"key":"12","name":"Brandenburg"}},{"name":"Zolldamm","postalCode":"16278","locality":"Angermünde","municipality":{"key":"12073008","name":"Angermünde, Stadt","type":"Stadt"},"district":{"key":"12073","name":"Uckermark","type":"Landkreis"},"federalState":{"key":"12","name":"Brandenburg"}},{"name":"Zollende","postalCode":"16278","locality":"Angermünde","municipality":{"key":"12073008","name":"Angermünde, Stadt","type":"Stadt"},"district":{"key":"12073","name":"Uckermark","type":"Landkreis"},"federalState":{"key":"12","name":"Brandenburg"}},{"name":"Zollensteig","postalCode":"39590","locality":"Tangermünde","municipality":{"key":"15090550","name":"Tangermünde, Stadt","type":"Stadt"},"district":{"key":"15090","name":"Stendal","type":"Landkreis"},"federalState":{"key":"15","name":"Sachsen-Anhalt"}},{"name":"Zuchenberger Str.","postalCode":"16278","locality":"Angermünde","municipality":{"key":"12073008","name":"Angermünde, Stadt","type":"Stadt"},"district":{"key":"12073","name":"Uckermark","type":"Landkreis"},"federalState":{"key":"12","name":"Brandenburg"}},{"name":"Zum Dorfanger","postalCode":"16278","locality":"Angermünde","municipality":{"key":"12073008","name":"Angermünde, Stadt","type":"Stadt"},"district":{"key":"12073","name":"Uckermark","type":"Landkreis"},"federalState":{"key":"12","name":"Brandenburg"}},{"name":"Zum Kietz","postalCode":"16278","locality":"Angermünde","municipality":{"key":"12073008","name":"Angermünde, Stadt","type":"Stadt"},"district":{"key":"12073","name":"Uckermark","type":"Landkreis"},"federalState":{"key":"12","name":"Brandenburg"}},{"name":"Zum Meyerschen Hafen","postalCode":"39590","locality":"Tangermünde","municipality":{"key":"15090550","name":"Tangermünde, Stadt","type":"Stadt"},"district":{"key":"15090","name":"Stendal","type":"Landkreis"},"federalState":{"key":"15","name":"Sachsen-Anhalt"}},{"name":"Zum Park","postalCode":"16278","locality":"Angermünde","municipality":{"key":"12073008","name":"Angermünde, Stadt","type":"Stadt"},"district":{"key":"12073","name":"Uckermark","type":"Landkreis"},"federalState":{"key":"12","name":"Brandenburg"}},{"name":"Zum Parsteinsee","postalCode":"16278","locality":"Angermünde","municipality":{"key":"12073008","name":"Angermünde, Stadt","type":"Stadt"},"district":{"key":"12073","name":"Uckermark","type":"Landkreis"},"federalState":{"key":"12","name":"Brandenburg"}},{"name":"Zum Postbruch","postalCode":"16278","locality":"Angermünde","municipality":{"key":"12073008","name":"Angermünde, Stadt","type":"Stadt"},"district":{"key":"12073","name":"Uckermark","type":"Landkreis"},"federalState":{"key":"12","name":"Brandenburg"}},{"name":"Zum Sandberg","postalCode":"16278","locality":"Angermünde","municipality":{"key":"12073008","name":"Angermünde, Stadt","type":"Stadt"},"district":{"key":"12073","name":"Uckermark","type":"Landkreis"},"federalState":{"key":"12","name":"Brandenburg"}},{"name":"Zum Sernitzbruch","postalCode":"16278","locality":"Angermünde","municipality":{"key":"12073008","name":"Angermünde, Stadt","type":"Stadt"},"district":{"key":"12073","name":"Uckermark","type":"Landkreis"},"federalState":{"key":"12","name":"Brandenburg"}},{"name":"Zum Werder","postalCode":"16278","locality":"Angermünde","municipality":{"key":"12073008","name":"Angermünde, Stadt","type":"Stadt"},"district":{"key":"12073","name":"Uckermark","type":"Landkreis"},"federalState":{"key":"12","name":"Brandenburg"}},{"name":"Zum Windrad","postalCode":"16278","locality":"Angermünde","municipality":{"key":"12073008","name":"Angermünde, Stadt","type":"Stadt"},"district":{"key":"12073","name":"Uckermark","type":"Landkreis"},"federalState":{"key":"12","name":"Brandenburg"}},{"name":"Zur Apfelallee","postalCode":"16278","locality":"Angermünde","municipality":{"key":"12073008","name":"Angermünde, Stadt","type":"Stadt"},"district":{"key":"12073","name":"Uckermark","type":"Landkreis"},"federalState":{"key":"12","name":"Brandenburg"}},{"name":"Zur Feuerwehr","postalCode":"16278","locality":"Angermünde","municipality":{"key":"12073008","name":"Angermünde, Stadt","type":"Stadt"},"district":{"key":"12073","name":"Uckermark","type":"Landkreis"},"federalState":{"key":"12","name":"Brandenburg"}},{"name":"Zur Hamey","postalCode":"16278","locality":"Angermünde","municipality":{"key":"12073008","name":"Angermünde, Stadt","type":"Stadt"},"district":{"key":"12073","name":"Uckermark","type":"Landkreis"},"federalState":{"key":"12","name":"Brandenburg"}},{"name":"Zur Kastanienallee","postalCode":"16278","locality":"Angermünde","municipality":{"key":"12073008","name":"Angermünde, Stadt","type":"Stadt"},"district":{"key":"12073","name":"Uckermark","type":"Landkreis"},"federalState":{"key":"12","name":"Brandenburg"}},{"name":"Zur Stadtmauer","postalCode":"16278","locality":"Angermünde","municipality":{"key":"12073008","name":"Angermünde, Stadt","type":"Stadt"},"district":{"key":"12073","name":"Uckermark","type":"Landkreis"},"federalState":{"key":"12","name":"Brandenburg"}},{"name":"Zur Welse","postalCode":"16278","locality":"Angermünde","municipality":{"key":"12073008","name":"Angermünde, Stadt","type":"Stadt"},"district":{"key":"12073","name":"Uckermark","type":"Landkreis"},"federalState":{"key":"12","name":"Brandenburg"}},]