[{"name":"Agnes-Günther-Platz","postalCode":"74595","locality":"Langenburg","municipality":{"key":"08127047","name":"Langenburg, Stadt","type":"Stadt"},"district":{"key":"08127","name":"Schwäbisch Hall","type":"Landkreis"},"federalState":{"key":"08","name":"Baden-Württemberg"}},{"name":"Ahornweg","postalCode":"74595","locality":"Langenburg","municipality":{"key":"08127047","name":"Langenburg, Stadt","type":"Stadt"},"district":{"key":"08127","name":"Schwäbisch Hall","type":"Landkreis"},"federalState":{"key":"08","name":"Baden-Württemberg"}},{"name":"Alte Heusteige","postalCode":"74595","locality":"Langenburg","municipality":{"key":"08127047","name":"Langenburg, Stadt","type":"Stadt"},"district":{"key":"08127","name":"Schwäbisch Hall","type":"Landkreis"},"federalState":{"key":"08","name":"Baden-Württemberg"}},{"name":"Alter Postweg","postalCode":"74595","locality":"Langenburg","municipality":{"key":"08127047","name":"Langenburg, Stadt","type":"Stadt"},"district":{"key":"08127","name":"Schwäbisch Hall","type":"Landkreis"},"federalState":{"key":"08","name":"Baden-Württemberg"}},{"name":"Alte Steige","postalCode":"74595","locality":"Langenburg","municipality":{"key":"08127047","name":"Langenburg, Stadt","type":"Stadt"},"district":{"key":"08127","name":"Schwäbisch Hall","type":"Landkreis"},"federalState":{"key":"08","name":"Baden-Württemberg"}},{"name":"Am Bach","postalCode":"74595","locality":"Langenburg","municipality":{"key":"08127047","name":"Langenburg, Stadt","type":"Stadt"},"district":{"key":"08127","name":"Schwäbisch Hall","type":"Landkreis"},"federalState":{"key":"08","name":"Baden-Württemberg"}},{"name":"Am Kanal","postalCode":"74595","locality":"Langenburg","municipality":{"key":"08127047","name":"Langenburg, Stadt","type":"Stadt"},"district":{"key":"08127","name":"Schwäbisch Hall","type":"Landkreis"},"federalState":{"key":"08","name":"Baden-Württemberg"}},{"name":"Am Kelterplatz","postalCode":"74595","locality":"Langenburg","municipality":{"key":"08127047","name":"Langenburg, Stadt","type":"Stadt"},"district":{"key":"08127","name":"Schwäbisch Hall","type":"Landkreis"},"federalState":{"key":"08","name":"Baden-Württemberg"}},{"name":"Am Mühlberg","postalCode":"74595","locality":"Langenburg","municipality":{"key":"08127047","name":"Langenburg, Stadt","type":"Stadt"},"district":{"key":"08127","name":"Schwäbisch Hall","type":"Landkreis"},"federalState":{"key":"08","name":"Baden-Württemberg"}},{"name":"Am See","postalCode":"74595","locality":"Langenburg","municipality":{"key":"08127047","name":"Langenburg, Stadt","type":"Stadt"},"district":{"key":"08127","name":"Schwäbisch Hall","type":"Landkreis"},"federalState":{"key":"08","name":"Baden-Württemberg"}},{"name":"Am Waaghäusle","postalCode":"74595","locality":"Langenburg","municipality":{"key":"08127047","name":"Langenburg, Stadt","type":"Stadt"},"district":{"key":"08127","name":"Schwäbisch Hall","type":"Landkreis"},"federalState":{"key":"08","name":"Baden-Württemberg"}},{"name":"Am Ziegelbach","postalCode":"74595","locality":"Langenburg","municipality":{"key":"08127047","name":"Langenburg, Stadt","type":"Stadt"},"district":{"key":"08127","name":"Schwäbisch Hall","type":"Landkreis"},"federalState":{"key":"08","name":"Baden-Württemberg"}},{"name":"Archenbrücke","postalCode":"74595","locality":"Langenburg","municipality":{"key":"08127047","name":"Langenburg, Stadt","type":"Stadt"},"district":{"key":"08127","name":"Schwäbisch Hall","type":"Landkreis"},"federalState":{"key":"08","name":"Baden-Württemberg"}},{"name":"Atzenroder Kirchweg","postalCode":"74595","locality":"Langenburg","municipality":{"key":"08127047","name":"Langenburg, Stadt","type":"Stadt"},"district":{"key":"08127","name":"Schwäbisch Hall","type":"Landkreis"},"federalState":{"key":"08","name":"Baden-Württemberg"}},{"name":"Aubäcker","postalCode":"74595","locality":"Langenburg","municipality":{"key":"08127047","name":"Langenburg, Stadt","type":"Stadt"},"district":{"key":"08127","name":"Schwäbisch Hall","type":"Landkreis"},"federalState":{"key":"08","name":"Baden-Württemberg"}},{"name":"Bächlinger Str.","postalCode":"74595","locality":"Langenburg","municipality":{"key":"08127047","name":"Langenburg, Stadt","type":"Stadt"},"district":{"key":"08127","name":"Schwäbisch Hall","type":"Landkreis"},"federalState":{"key":"08","name":"Baden-Württemberg"}},{"name":"Bauerngasse","postalCode":"74595","locality":"Langenburg","municipality":{"key":"08127047","name":"Langenburg, Stadt","type":"Stadt"},"district":{"key":"08127","name":"Schwäbisch Hall","type":"Landkreis"},"federalState":{"key":"08","name":"Baden-Württemberg"}},{"name":"Bei der Wette","postalCode":"74595","locality":"Langenburg","municipality":{"key":"08127047","name":"Langenburg, Stadt","type":"Stadt"},"district":{"key":"08127","name":"Schwäbisch Hall","type":"Landkreis"},"federalState":{"key":"08","name":"Baden-Württemberg"}},{"name":"Blaufelder Str.","postalCode":"74595","locality":"Langenburg","municipality":{"key":"08127047","name":"Langenburg, Stadt","type":"Stadt"},"district":{"key":"08127","name":"Schwäbisch Hall","type":"Landkreis"},"federalState":{"key":"08","name":"Baden-Württemberg"}},{"name":"Brauereiweg","postalCode":"74595","locality":"Langenburg","municipality":{"key":"08127047","name":"Langenburg, Stadt","type":"Stadt"},"district":{"key":"08127","name":"Schwäbisch Hall","type":"Landkreis"},"federalState":{"key":"08","name":"Baden-Württemberg"}},{"name":"Brunnengasse","postalCode":"74595","locality":"Langenburg","municipality":{"key":"08127047","name":"Langenburg, Stadt","type":"Stadt"},"district":{"key":"08127","name":"Schwäbisch Hall","type":"Landkreis"},"federalState":{"key":"08","name":"Baden-Württemberg"}},{"name":"Crailsheimer Str.","postalCode":"74523","locality":"Schwäbisch Hall","municipality":{"key":"08127076","name":"Schwäbisch Hall, Stadt","type":"Große_Kreisstadt"},"district":{"key":"08127","name":"Schwäbisch Hall","type":"Landkreis"},"federalState":{"key":"08","name":"Baden-Württemberg"}},{"name":"Damaschkestr.","postalCode":"74523","locality":"Schwäbisch Hall","municipality":{"key":"08127076","name":"Schwäbisch Hall, Stadt","type":"Große_Kreisstadt"},"district":{"key":"08127","name":"Schwäbisch Hall","type":"Landkreis"},"federalState":{"key":"08","name":"Baden-Württemberg"}},{"name":"Dammstr.","postalCode":"74523","locality":"Schwäbisch Hall","municipality":{"key":"08127076","name":"Schwäbisch Hall, Stadt","type":"Große_Kreisstadt"},"district":{"key":"08127","name":"Schwäbisch Hall","type":"Landkreis"},"federalState":{"key":"08","name":"Baden-Württemberg"}},{"name":"Danziger Weg","postalCode":"74523","locality":"Schwäbisch Hall","municipality":{"key":"08127076","name":"Schwäbisch Hall, Stadt","type":"Große_Kreisstadt"},"district":{"key":"08127","name":"Schwäbisch Hall","type":"Landkreis"},"federalState":{"key":"08","name":"Baden-Württemberg"}},{"name":"Diebachweg","postalCode":"74523","locality":"Schwäbisch Hall","municipality":{"key":"08127076","name":"Schwäbisch Hall, Stadt","type":"Große_Kreisstadt"},"district":{"key":"08127","name":"Schwäbisch Hall","type":"Landkreis"},"federalState":{"key":"08","name":"Baden-Württemberg"}},{"name":"Dinkelweg","postalCode":"74523","locality":"Schwäbisch Hall","municipality":{"key":"08127076","name":"Schwäbisch Hall, Stadt","type":"Große_Kreisstadt"},"district":{"key":"08127","name":"Schwäbisch Hall","type":"Landkreis"},"federalState":{"key":"08","name":"Baden-Württemberg"}},{"name":"Doktor-Wilhem-Dürr-Weg","postalCode":"74523","locality":"Schwäbisch Hall","municipality":{"key":"08127076","name":"Schwäbisch Hall, Stadt","type":"Große_Kreisstadt"},"district":{"key":"08127","name":"Schwäbisch Hall","type":"Landkreis"},"federalState":{"key":"08","name":"Baden-Württemberg"}},{"name":"Dolanallee","postalCode":"74523","locality":"Schwäbisch Hall","municipality":{"key":"08127076","name":"Schwäbisch Hall, Stadt","type":"Große_Kreisstadt"},"district":{"key":"08127","name":"Schwäbisch Hall","type":"Landkreis"},"federalState":{"key":"08","name":"Baden-Württemberg"}},{"name":"Dorfstr.","postalCode":"74523","locality":"Schwäbisch Hall","municipality":{"key":"08127076","name":"Schwäbisch Hall, Stadt","type":"Große_Kreisstadt"},"district":{"key":"08127","name":"Schwäbisch Hall","type":"Landkreis"},"federalState":{"key":"08","name":"Baden-Württemberg"}},{"name":"Dr.-Henryk-Fenigstein-Weg","postalCode":"74523","locality":"Schwäbisch Hall","municipality":{"key":"08127076","name":"Schwäbisch Hall, Stadt","type":"Große_Kreisstadt"},"district":{"key":"08127","name":"Schwäbisch Hall","type":"Landkreis"},"federalState":{"key":"08","name":"Baden-Württemberg"}},{"name":"Dr.-Hermann-Müller-Str.","postalCode":"74523","locality":"Schwäbisch Hall","municipality":{"key":"08127076","name":"Schwäbisch Hall, Stadt","type":"Große_Kreisstadt"},"district":{"key":"08127","name":"Schwäbisch Hall","type":"Landkreis"},"federalState":{"key":"08","name":"Baden-Württemberg"}},{"name":"Dr.-Jakob-Berlinger-Weg","postalCode":"74523","locality":"Schwäbisch Hall","municipality":{"key":"08127076","name":"Schwäbisch Hall, Stadt","type":"Große_Kreisstadt"},"district":{"key":"08127","name":"Schwäbisch Hall","type":"Landkreis"},"federalState":{"key":"08","name":"Baden-Württemberg"}},{"name":"Dr.-Max-Bühler-Str.","postalCode":"74523","locality":"Schwäbisch Hall","municipality":{"key":"08127076","name":"Schwäbisch Hall, Stadt","type":"Große_Kreisstadt"},"district":{"key":"08127","name":"Schwäbisch Hall","type":"Landkreis"},"federalState":{"key":"08","name":"Baden-Württemberg"}},{"name":"Eichholzweg","postalCode":"74595","locality":"Langenburg","municipality":{"key":"08127047","name":"Langenburg, Stadt","type":"Stadt"},"district":{"key":"08127","name":"Schwäbisch Hall","type":"Landkreis"},"federalState":{"key":"08","name":"Baden-Württemberg"}},{"name":"Feodoraweg","postalCode":"74595","locality":"Langenburg","municipality":{"key":"08127047","name":"Langenburg, Stadt","type":"Stadt"},"district":{"key":"08127","name":"Schwäbisch Hall","type":"Landkreis"},"federalState":{"key":"08","name":"Baden-Württemberg"}},{"name":"Finkenweg","postalCode":"74595","locality":"Langenburg","municipality":{"key":"08127047","name":"Langenburg, Stadt","type":"Stadt"},"district":{"key":"08127","name":"Schwäbisch Hall","type":"Landkreis"},"federalState":{"key":"08","name":"Baden-Württemberg"}},{"name":"Finkersäckerweg","postalCode":"74595","locality":"Langenburg","municipality":{"key":"08127047","name":"Langenburg, Stadt","type":"Stadt"},"district":{"key":"08127","name":"Schwäbisch Hall","type":"Landkreis"},"federalState":{"key":"08","name":"Baden-Württemberg"}},{"name":"Fischhaus","postalCode":"74595","locality":"Langenburg","municipality":{"key":"08127047","name":"Langenburg, Stadt","type":"Stadt"},"district":{"key":"08127","name":"Schwäbisch Hall","type":"Landkreis"},"federalState":{"key":"08","name":"Baden-Württemberg"}},{"name":"Friedenstr.","postalCode":"74595","locality":"Langenburg","municipality":{"key":"08127047","name":"Langenburg, Stadt","type":"Stadt"},"district":{"key":"08127","name":"Schwäbisch Hall","type":"Landkreis"},"federalState":{"key":"08","name":"Baden-Württemberg"}},{"name":"Fürst-Ernst-Platz","postalCode":"74595","locality":"Langenburg","municipality":{"key":"08127047","name":"Langenburg, Stadt","type":"Stadt"},"district":{"key":"08127","name":"Schwäbisch Hall","type":"Landkreis"},"federalState":{"key":"08","name":"Baden-Württemberg"}},{"name":"Fürst-Herrmann-Str.","postalCode":"74595","locality":"Langenburg","municipality":{"key":"08127047","name":"Langenburg, Stadt","type":"Stadt"},"district":{"key":"08127","name":"Schwäbisch Hall","type":"Landkreis"},"federalState":{"key":"08","name":"Baden-Württemberg"}},{"name":"Gartenhausweg","postalCode":"74595","locality":"Langenburg","municipality":{"key":"08127047","name":"Langenburg, Stadt","type":"Stadt"},"district":{"key":"08127","name":"Schwäbisch Hall","type":"Landkreis"},"federalState":{"key":"08","name":"Baden-Württemberg"}},{"name":"Gartenstr.","postalCode":"74595","locality":"Langenburg","municipality":{"key":"08127047","name":"Langenburg, Stadt","type":"Stadt"},"district":{"key":"08127","name":"Schwäbisch Hall","type":"Landkreis"},"federalState":{"key":"08","name":"Baden-Württemberg"}},{"name":"Gässle","postalCode":"74595","locality":"Langenburg","municipality":{"key":"08127047","name":"Langenburg, Stadt","type":"Stadt"},"district":{"key":"08127","name":"Schwäbisch Hall","type":"Landkreis"},"federalState":{"key":"08","name":"Baden-Württemberg"}},{"name":"Gipsgrubenweg","postalCode":"74595","locality":"Langenburg","municipality":{"key":"08127047","name":"Langenburg, Stadt","type":"Stadt"},"district":{"key":"08127","name":"Schwäbisch Hall","type":"Landkreis"},"federalState":{"key":"08","name":"Baden-Württemberg"}},{"name":"Glasholz","postalCode":"74595","locality":"Langenburg","municipality":{"key":"08127047","name":"Langenburg, Stadt","type":"Stadt"},"district":{"key":"08127","name":"Schwäbisch Hall","type":"Landkreis"},"federalState":{"key":"08","name":"Baden-Württemberg"}},{"name":"Glasholzweg","postalCode":"74595","locality":"Langenburg","municipality":{"key":"08127047","name":"Langenburg, Stadt","type":"Stadt"},"district":{"key":"08127","name":"Schwäbisch Hall","type":"Landkreis"},"federalState":{"key":"08","name":"Baden-Württemberg"}},{"name":"Gottlieb-Drechsler-Str.","postalCode":"74595","locality":"Langenburg","municipality":{"key":"08127047","name":"Langenburg, Stadt","type":"Stadt"},"district":{"key":"08127","name":"Schwäbisch Hall","type":"Landkreis"},"federalState":{"key":"08","name":"Baden-Württemberg"}},{"name":"Grabenweg","postalCode":"74595","locality":"Langenburg","municipality":{"key":"08127047","name":"Langenburg, Stadt","type":"Stadt"},"district":{"key":"08127","name":"Schwäbisch Hall","type":"Landkreis"},"federalState":{"key":"08","name":"Baden-Württemberg"}},{"name":"Großer Garten","postalCode":"74595","locality":"Langenburg","municipality":{"key":"08127047","name":"Langenburg, Stadt","type":"Stadt"},"district":{"key":"08127","name":"Schwäbisch Hall","type":"Landkreis"},"federalState":{"key":"08","name":"Baden-Württemberg"}},{"name":"Hagsteige","postalCode":"74595","locality":"Langenburg","municipality":{"key":"08127047","name":"Langenburg, Stadt","type":"Stadt"},"district":{"key":"08127","name":"Schwäbisch Hall","type":"Landkreis"},"federalState":{"key":"08","name":"Baden-Württemberg"}},{"name":"Haldenstr.","postalCode":"74595","locality":"Langenburg","municipality":{"key":"08127047","name":"Langenburg, Stadt","type":"Stadt"},"district":{"key":"08127","name":"Schwäbisch Hall","type":"Landkreis"},"federalState":{"key":"08","name":"Baden-Württemberg"}},{"name":"Hauptstr.","postalCode":"74595","locality":"Langenburg","municipality":{"key":"08127047","name":"Langenburg, Stadt","type":"Stadt"},"district":{"key":"08127","name":"Schwäbisch Hall","type":"Landkreis"},"federalState":{"key":"08","name":"Baden-Württemberg"}},{"name":"Heggässle","postalCode":"74595","locality":"Langenburg","municipality":{"key":"08127047","name":"Langenburg, Stadt","type":"Stadt"},"district":{"key":"08127","name":"Schwäbisch Hall","type":"Landkreis"},"federalState":{"key":"08","name":"Baden-Württemberg"}},{"name":"Heiligenberg","postalCode":"74595","locality":"Langenburg","municipality":{"key":"08127047","name":"Langenburg, Stadt","type":"Stadt"},"district":{"key":"08127","name":"Schwäbisch Hall","type":"Landkreis"},"federalState":{"key":"08","name":"Baden-Württemberg"}},{"name":"Herdweg","postalCode":"74595","locality":"Langenburg","municipality":{"key":"08127047","name":"Langenburg, Stadt","type":"Stadt"},"district":{"key":"08127","name":"Schwäbisch Hall","type":"Landkreis"},"federalState":{"key":"08","name":"Baden-Württemberg"}},{"name":"Hintere Gasse","postalCode":"74595","locality":"Langenburg","municipality":{"key":"08127047","name":"Langenburg, Stadt","type":"Stadt"},"district":{"key":"08127","name":"Schwäbisch Hall","type":"Landkreis"},"federalState":{"key":"08","name":"Baden-Württemberg"}},{"name":"Hochstandsträßle","postalCode":"74595","locality":"Langenburg","municipality":{"key":"08127047","name":"Langenburg, Stadt","type":"Stadt"},"district":{"key":"08127","name":"Schwäbisch Hall","type":"Landkreis"},"federalState":{"key":"08","name":"Baden-Württemberg"}},{"name":"Hofratshalde","postalCode":"74595","locality":"Langenburg","municipality":{"key":"08127047","name":"Langenburg, Stadt","type":"Stadt"},"district":{"key":"08127","name":"Schwäbisch Hall","type":"Landkreis"},"federalState":{"key":"08","name":"Baden-Württemberg"}},{"name":"Höhweg","postalCode":"74595","locality":"Langenburg","municipality":{"key":"08127047","name":"Langenburg, Stadt","type":"Stadt"},"district":{"key":"08127","name":"Schwäbisch Hall","type":"Landkreis"},"federalState":{"key":"08","name":"Baden-Württemberg"}},{"name":"Holderklinge","postalCode":"74595","locality":"Langenburg","municipality":{"key":"08127047","name":"Langenburg, Stadt","type":"Stadt"},"district":{"key":"08127","name":"Schwäbisch Hall","type":"Landkreis"},"federalState":{"key":"08","name":"Baden-Württemberg"}},{"name":"Hürdener Str.","postalCode":"74595","locality":"Langenburg","municipality":{"key":"08127047","name":"Langenburg, Stadt","type":"Stadt"},"district":{"key":"08127","name":"Schwäbisch Hall","type":"Landkreis"},"federalState":{"key":"08","name":"Baden-Württemberg"}},{"name":"Im Brunnenacker","postalCode":"74595","locality":"Langenburg","municipality":{"key":"08127047","name":"Langenburg, Stadt","type":"Stadt"},"district":{"key":"08127","name":"Schwäbisch Hall","type":"Landkreis"},"federalState":{"key":"08","name":"Baden-Württemberg"}},{"name":"Im Viertel","postalCode":"74595","locality":"Langenburg","municipality":{"key":"08127047","name":"Langenburg, Stadt","type":"Stadt"},"district":{"key":"08127","name":"Schwäbisch Hall","type":"Landkreis"},"federalState":{"key":"08","name":"Baden-Württemberg"}},{"name":"In den Hofäckern","postalCode":"74595","locality":"Langenburg","municipality":{"key":"08127047","name":"Langenburg, Stadt","type":"Stadt"},"district":{"key":"08127","name":"Schwäbisch Hall","type":"Landkreis"},"federalState":{"key":"08","name":"Baden-Württemberg"}},{"name":"In der Strut","postalCode":"74595","locality":"Langenburg","municipality":{"key":"08127047","name":"Langenburg, Stadt","type":"Stadt"},"district":{"key":"08127","name":"Schwäbisch Hall","type":"Landkreis"},"federalState":{"key":"08","name":"Baden-Württemberg"}},{"name":"Jagsttalstr.","postalCode":"74595","locality":"Langenburg","municipality":{"key":"08127047","name":"Langenburg, Stadt","type":"Stadt"},"district":{"key":"08127","name":"Schwäbisch Hall","type":"Landkreis"},"federalState":{"key":"08","name":"Baden-Württemberg"}},{"name":"Kelterstr.","postalCode":"74595","locality":"Langenburg","municipality":{"key":"08127047","name":"Langenburg, Stadt","type":"Stadt"},"district":{"key":"08127","name":"Schwäbisch Hall","type":"Landkreis"},"federalState":{"key":"08","name":"Baden-Württemberg"}},{"name":"Kirchstr.","postalCode":"74595","locality":"Langenburg","municipality":{"key":"08127047","name":"Langenburg, Stadt","type":"Stadt"},"district":{"key":"08127","name":"Schwäbisch Hall","type":"Landkreis"},"federalState":{"key":"08","name":"Baden-Württemberg"}},{"name":"Königsmühle","postalCode":"74595","locality":"Langenburg","municipality":{"key":"08127047","name":"Langenburg, Stadt","type":"Stadt"},"district":{"key":"08127","name":"Schwäbisch Hall","type":"Landkreis"},"federalState":{"key":"08","name":"Baden-Württemberg"}},{"name":"Kreuzweg","postalCode":"74595","locality":"Langenburg","municipality":{"key":"08127047","name":"Langenburg, Stadt","type":"Stadt"},"district":{"key":"08127","name":"Schwäbisch Hall","type":"Landkreis"},"federalState":{"key":"08","name":"Baden-Württemberg"}},{"name":"Krokusweg","postalCode":"74595","locality":"Langenburg","municipality":{"key":"08127047","name":"Langenburg, Stadt","type":"Stadt"},"district":{"key":"08127","name":"Schwäbisch Hall","type":"Landkreis"},"federalState":{"key":"08","name":"Baden-Württemberg"}},{"name":"Kronenbuck","postalCode":"74595","locality":"Langenburg","municipality":{"key":"08127047","name":"Langenburg, Stadt","type":"Stadt"},"district":{"key":"08127","name":"Schwäbisch Hall","type":"Landkreis"},"federalState":{"key":"08","name":"Baden-Württemberg"}},{"name":"Landturmstr.","postalCode":"74595","locality":"Langenburg","municipality":{"key":"08127047","name":"Langenburg, Stadt","type":"Stadt"},"district":{"key":"08127","name":"Schwäbisch Hall","type":"Landkreis"},"federalState":{"key":"08","name":"Baden-Württemberg"}},{"name":"Langenburger Str.","postalCode":"74595","locality":"Langenburg","municipality":{"key":"08127047","name":"Langenburg, Stadt","type":"Stadt"},"district":{"key":"08127","name":"Schwäbisch Hall","type":"Landkreis"},"federalState":{"key":"08","name":"Baden-Württemberg"}},{"name":"Laßbacher Str.","postalCode":"74595","locality":"Langenburg","municipality":{"key":"08127047","name":"Langenburg, Stadt","type":"Stadt"},"district":{"key":"08127","name":"Schwäbisch Hall","type":"Landkreis"},"federalState":{"key":"08","name":"Baden-Württemberg"}},{"name":"Leopoldinenweg","postalCode":"74595","locality":"Langenburg","municipality":{"key":"08127047","name":"Langenburg, Stadt","type":"Stadt"},"district":{"key":"08127","name":"Schwäbisch Hall","type":"Landkreis"},"federalState":{"key":"08","name":"Baden-Württemberg"}},{"name":"Lerchenstr.","postalCode":"74595","locality":"Langenburg","municipality":{"key":"08127047","name":"Langenburg, Stadt","type":"Stadt"},"district":{"key":"08127","name":"Schwäbisch Hall","type":"Landkreis"},"federalState":{"key":"08","name":"Baden-Württemberg"}},{"name":"Lichte Eichen","postalCode":"74595","locality":"Langenburg","municipality":{"key":"08127047","name":"Langenburg, Stadt","type":"Stadt"},"district":{"key":"08127","name":"Schwäbisch Hall","type":"Landkreis"},"federalState":{"key":"08","name":"Baden-Württemberg"}},{"name":"Lindengasse","postalCode":"74595","locality":"Langenburg","municipality":{"key":"08127047","name":"Langenburg, Stadt","type":"Stadt"},"district":{"key":"08127","name":"Schwäbisch Hall","type":"Landkreis"},"federalState":{"key":"08","name":"Baden-Württemberg"}},{"name":"Lindenweg","postalCode":"74595","locality":"Langenburg","municipality":{"key":"08127047","name":"Langenburg, Stadt","type":"Stadt"},"district":{"key":"08127","name":"Schwäbisch Hall","type":"Landkreis"},"federalState":{"key":"08","name":"Baden-Württemberg"}},{"name":"Lückenplanie","postalCode":"74595","locality":"Langenburg","municipality":{"key":"08127047","name":"Langenburg, Stadt","type":"Stadt"},"district":{"key":"08127","name":"Schwäbisch Hall","type":"Landkreis"},"federalState":{"key":"08","name":"Baden-Württemberg"}},{"name":"Meisenweg","postalCode":"74595","locality":"Langenburg","municipality":{"key":"08127047","name":"Langenburg, Stadt","type":"Stadt"},"district":{"key":"08127","name":"Schwäbisch Hall","type":"Landkreis"},"federalState":{"key":"08","name":"Baden-Württemberg"}},{"name":"Merzenwiesen","postalCode":"74595","locality":"Langenburg","municipality":{"key":"08127047","name":"Langenburg, Stadt","type":"Stadt"},"district":{"key":"08127","name":"Schwäbisch Hall","type":"Landkreis"},"federalState":{"key":"08","name":"Baden-Württemberg"}},{"name":"Michelbacher Str.","postalCode":"74595","locality":"Langenburg","municipality":{"key":"08127047","name":"Langenburg, Stadt","type":"Stadt"},"district":{"key":"08127","name":"Schwäbisch Hall","type":"Landkreis"},"federalState":{"key":"08","name":"Baden-Württemberg"}},{"name":"Mühlgasse","postalCode":"74595","locality":"Langenburg","municipality":{"key":"08127047","name":"Langenburg, Stadt","type":"Stadt"},"district":{"key":"08127","name":"Schwäbisch Hall","type":"Landkreis"},"federalState":{"key":"08","name":"Baden-Württemberg"}},{"name":"Mühlsteige","postalCode":"74595","locality":"Langenburg","municipality":{"key":"08127047","name":"Langenburg, Stadt","type":"Stadt"},"district":{"key":"08127","name":"Schwäbisch Hall","type":"Landkreis"},"federalState":{"key":"08","name":"Baden-Württemberg"}},{"name":"Mühlwiesen","postalCode":"74595","locality":"Langenburg","municipality":{"key":"08127047","name":"Langenburg, Stadt","type":"Stadt"},"district":{"key":"08127","name":"Schwäbisch Hall","type":"Landkreis"},"federalState":{"key":"08","name":"Baden-Württemberg"}},{"name":"Naumannstr.","postalCode":"74523","locality":"Schwäbisch Hall","municipality":{"key":"08127076","name":"Schwäbisch Hall, Stadt","type":"Große_Kreisstadt"},"district":{"key":"08127","name":"Schwäbisch Hall","type":"Landkreis"},"federalState":{"key":"08","name":"Baden-Württemberg"}},{"name":"Nefflenallee","postalCode":"74523","locality":"Schwäbisch Hall","municipality":{"key":"08127076","name":"Schwäbisch Hall, Stadt","type":"Große_Kreisstadt"},"district":{"key":"08127","name":"Schwäbisch Hall","type":"Landkreis"},"federalState":{"key":"08","name":"Baden-Württemberg"}},{"name":"Neißeweg","postalCode":"74523","locality":"Schwäbisch Hall","municipality":{"key":"08127076","name":"Schwäbisch Hall, Stadt","type":"Große_Kreisstadt"},"district":{"key":"08127","name":"Schwäbisch Hall","type":"Landkreis"},"federalState":{"key":"08","name":"Baden-Württemberg"}},{"name":"Nelly-Sachs-Str.","postalCode":"74523","locality":"Schwäbisch Hall","municipality":{"key":"08127076","name":"Schwäbisch Hall, Stadt","type":"Große_Kreisstadt"},"district":{"key":"08127","name":"Schwäbisch Hall","type":"Landkreis"},"federalState":{"key":"08","name":"Baden-Württemberg"}},{"name":"Neubergstr.","postalCode":"74523","locality":"Schwäbisch Hall","municipality":{"key":"08127076","name":"Schwäbisch Hall, Stadt","type":"Große_Kreisstadt"},"district":{"key":"08127","name":"Schwäbisch Hall","type":"Landkreis"},"federalState":{"key":"08","name":"Baden-Württemberg"}},{"name":"Neubronn","postalCode":"74523","locality":"Schwäbisch Hall","municipality":{"key":"08127076","name":"Schwäbisch Hall, Stadt","type":"Große_Kreisstadt"},"district":{"key":"08127","name":"Schwäbisch Hall","type":"Landkreis"},"federalState":{"key":"08","name":"Baden-Württemberg"}},{"name":"Neue Reifensteige","postalCode":"74523","locality":"Schwäbisch Hall","municipality":{"key":"08127076","name":"Schwäbisch Hall, Stadt","type":"Große_Kreisstadt"},"district":{"key":"08127","name":"Schwäbisch Hall","type":"Landkreis"},"federalState":{"key":"08","name":"Baden-Württemberg"}},{"name":"Neue Str.","postalCode":"74523","locality":"Schwäbisch Hall","municipality":{"key":"08127076","name":"Schwäbisch Hall, Stadt","type":"Große_Kreisstadt"},"district":{"key":"08127","name":"Schwäbisch Hall","type":"Landkreis"},"federalState":{"key":"08","name":"Baden-Württemberg"}},{"name":"Neuhofen","postalCode":"74523","locality":"Schwäbisch Hall","municipality":{"key":"08127076","name":"Schwäbisch Hall, Stadt","type":"Große_Kreisstadt"},"district":{"key":"08127","name":"Schwäbisch Hall","type":"Landkreis"},"federalState":{"key":"08","name":"Baden-Württemberg"}},{"name":"Neumäuerstr.","postalCode":"74523","locality":"Schwäbisch Hall","municipality":{"key":"08127076","name":"Schwäbisch Hall, Stadt","type":"Große_Kreisstadt"},"district":{"key":"08127","name":"Schwäbisch Hall","type":"Landkreis"},"federalState":{"key":"08","name":"Baden-Württemberg"}},{"name":"Neustetter Str.","postalCode":"74523","locality":"Schwäbisch Hall","municipality":{"key":"08127076","name":"Schwäbisch Hall, Stadt","type":"Große_Kreisstadt"},"district":{"key":"08127","name":"Schwäbisch Hall","type":"Landkreis"},"federalState":{"key":"08","name":"Baden-Württemberg"}},{"name":"Neustrelitzer Weg","postalCode":"74523","locality":"Schwäbisch Hall","municipality":{"key":"08127076","name":"Schwäbisch Hall, Stadt","type":"Große_Kreisstadt"},"district":{"key":"08127","name":"Schwäbisch Hall","type":"Landkreis"},"federalState":{"key":"08","name":"Baden-Württemberg"}},{"name":"Nixenweg","postalCode":"74523","locality":"Schwäbisch Hall","municipality":{"key":"08127076","name":"Schwäbisch Hall, Stadt","type":"Große_Kreisstadt"},"district":{"key":"08127","name":"Schwäbisch Hall","type":"Landkreis"},"federalState":{"key":"08","name":"Baden-Württemberg"}},{"name":"Nonnenhof","postalCode":"74523","locality":"Schwäbisch Hall","municipality":{"key":"08127076","name":"Schwäbisch Hall, Stadt","type":"Große_Kreisstadt"},"district":{"key":"08127","name":"Schwäbisch Hall","type":"Landkreis"},"federalState":{"key":"08","name":"Baden-Württemberg"}},{"name":"Nordweg","postalCode":"74523","locality":"Schwäbisch Hall","municipality":{"key":"08127076","name":"Schwäbisch Hall, Stadt","type":"Große_Kreisstadt"},"district":{"key":"08127","name":"Schwäbisch Hall","type":"Landkreis"},"federalState":{"key":"08","name":"Baden-Württemberg"}},{"name":"Oberes Täschle","postalCode":"74595","locality":"Langenburg","municipality":{"key":"08127047","name":"Langenburg, Stadt","type":"Stadt"},"district":{"key":"08127","name":"Schwäbisch Hall","type":"Landkreis"},"federalState":{"key":"08","name":"Baden-Württemberg"}},{"name":"Orlacher Str.","postalCode":"74595","locality":"Langenburg","municipality":{"key":"08127047","name":"Langenburg, Stadt","type":"Stadt"},"district":{"key":"08127","name":"Schwäbisch Hall","type":"Landkreis"},"federalState":{"key":"08","name":"Baden-Württemberg"}},{"name":"Panoramaweg","postalCode":"74595","locality":"Langenburg","municipality":{"key":"08127047","name":"Langenburg, Stadt","type":"Stadt"},"district":{"key":"08127","name":"Schwäbisch Hall","type":"Landkreis"},"federalState":{"key":"08","name":"Baden-Württemberg"}},{"name":"Posthalterswaldsträßle","postalCode":"74595","locality":"Langenburg","municipality":{"key":"08127047","name":"Langenburg, Stadt","type":"Stadt"},"district":{"key":"08127","name":"Schwäbisch Hall","type":"Landkreis"},"federalState":{"key":"08","name":"Baden-Württemberg"}},{"name":"Regenbacher Steige","postalCode":"74595","locality":"Langenburg","municipality":{"key":"08127047","name":"Langenburg, Stadt","type":"Stadt"},"district":{"key":"08127","name":"Schwäbisch Hall","type":"Landkreis"},"federalState":{"key":"08","name":"Baden-Württemberg"}},{"name":"Regenbacher Str.","postalCode":"74595","locality":"Langenburg","municipality":{"key":"08127047","name":"Langenburg, Stadt","type":"Stadt"},"district":{"key":"08127","name":"Schwäbisch Hall","type":"Landkreis"},"federalState":{"key":"08","name":"Baden-Württemberg"}},{"name":"Regenbacher Weg","postalCode":"74595","locality":"Langenburg","municipality":{"key":"08127047","name":"Langenburg, Stadt","type":"Stadt"},"district":{"key":"08127","name":"Schwäbisch Hall","type":"Landkreis"},"federalState":{"key":"08","name":"Baden-Württemberg"}},{"name":"Römerwiesenweg","postalCode":"74595","locality":"Langenburg","municipality":{"key":"08127047","name":"Langenburg, Stadt","type":"Stadt"},"district":{"key":"08127","name":"Schwäbisch Hall","type":"Landkreis"},"federalState":{"key":"08","name":"Baden-Württemberg"}},{"name":"Rosenecksteige","postalCode":"74595","locality":"Langenburg","municipality":{"key":"08127047","name":"Langenburg, Stadt","type":"Stadt"},"district":{"key":"08127","name":"Schwäbisch Hall","type":"Landkreis"},"federalState":{"key":"08","name":"Baden-Württemberg"}},{"name":"Schloßbergweg","postalCode":"74595","locality":"Langenburg","municipality":{"key":"08127047","name":"Langenburg, Stadt","type":"Stadt"},"district":{"key":"08127","name":"Schwäbisch Hall","type":"Landkreis"},"federalState":{"key":"08","name":"Baden-Württemberg"}},{"name":"Schlossgarten Langenburg","postalCode":"74595","locality":"Langenburg","municipality":{"key":"08127047","name":"Langenburg, Stadt","type":"Stadt"},"district":{"key":"08127","name":"Schwäbisch Hall","type":"Landkreis"},"federalState":{"key":"08","name":"Baden-Württemberg"}},{"name":"Schmiedsgasse","postalCode":"74595","locality":"Langenburg","municipality":{"key":"08127047","name":"Langenburg, Stadt","type":"Stadt"},"district":{"key":"08127","name":"Schwäbisch Hall","type":"Landkreis"},"federalState":{"key":"08","name":"Baden-Württemberg"}},{"name":"Seestr.","postalCode":"74595","locality":"Langenburg","municipality":{"key":"08127047","name":"Langenburg, Stadt","type":"Stadt"},"district":{"key":"08127","name":"Schwäbisch Hall","type":"Landkreis"},"federalState":{"key":"08","name":"Baden-Württemberg"}},{"name":"Sonnenhalde","postalCode":"74595","locality":"Langenburg","municipality":{"key":"08127047","name":"Langenburg, Stadt","type":"Stadt"},"district":{"key":"08127","name":"Schwäbisch Hall","type":"Landkreis"},"federalState":{"key":"08","name":"Baden-Württemberg"}},{"name":"Steinacher Str.","postalCode":"74595","locality":"Langenburg","municipality":{"key":"08127047","name":"Langenburg, Stadt","type":"Stadt"},"district":{"key":"08127","name":"Schwäbisch Hall","type":"Landkreis"},"federalState":{"key":"08","name":"Baden-Württemberg"}},{"name":"Suhlweg","postalCode":"74595","locality":"Langenburg","municipality":{"key":"08127047","name":"Langenburg, Stadt","type":"Stadt"},"district":{"key":"08127","name":"Schwäbisch Hall","type":"Landkreis"},"federalState":{"key":"08","name":"Baden-Württemberg"}},{"name":"Tannenrain","postalCode":"74595","locality":"Langenburg","municipality":{"key":"08127047","name":"Langenburg, Stadt","type":"Stadt"},"district":{"key":"08127","name":"Schwäbisch Hall","type":"Landkreis"},"federalState":{"key":"08","name":"Baden-Württemberg"}},{"name":"Totensteige","postalCode":"74595","locality":"Langenburg","municipality":{"key":"08127047","name":"Langenburg, Stadt","type":"Stadt"},"district":{"key":"08127","name":"Schwäbisch Hall","type":"Landkreis"},"federalState":{"key":"08","name":"Baden-Württemberg"}},{"name":"Triebweg","postalCode":"74595","locality":"Langenburg","municipality":{"key":"08127047","name":"Langenburg, Stadt","type":"Stadt"},"district":{"key":"08127","name":"Schwäbisch Hall","type":"Landkreis"},"federalState":{"key":"08","name":"Baden-Württemberg"}},{"name":"Tulpenweg","postalCode":"74595","locality":"Langenburg","municipality":{"key":"08127047","name":"Langenburg, Stadt","type":"Stadt"},"district":{"key":"08127","name":"Schwäbisch Hall","type":"Landkreis"},"federalState":{"key":"08","name":"Baden-Württemberg"}},{"name":"Unterer Täschlesweg","postalCode":"74595","locality":"Langenburg","municipality":{"key":"08127047","name":"Langenburg, Stadt","type":"Stadt"},"district":{"key":"08127","name":"Schwäbisch Hall","type":"Landkreis"},"federalState":{"key":"08","name":"Baden-Württemberg"}},{"name":"Veinauer Str.","postalCode":"74523","locality":"Schwäbisch Hall","municipality":{"key":"08127076","name":"Schwäbisch Hall, Stadt","type":"Große_Kreisstadt"},"district":{"key":"08127","name":"Schwäbisch Hall","type":"Landkreis"},"federalState":{"key":"08","name":"Baden-Württemberg"}},{"name":"Veldnerweg","postalCode":"74523","locality":"Schwäbisch Hall","municipality":{"key":"08127076","name":"Schwäbisch Hall, Stadt","type":"Große_Kreisstadt"},"district":{"key":"08127","name":"Schwäbisch Hall","type":"Landkreis"},"federalState":{"key":"08","name":"Baden-Württemberg"}},{"name":"Vogtsweg","postalCode":"74523","locality":"Schwäbisch Hall","municipality":{"key":"08127076","name":"Schwäbisch Hall, Stadt","type":"Große_Kreisstadt"},"district":{"key":"08127","name":"Schwäbisch Hall","type":"Landkreis"},"federalState":{"key":"08","name":"Baden-Württemberg"}},{"name":"Vohensteinweg","postalCode":"74523","locality":"Schwäbisch Hall","municipality":{"key":"08127076","name":"Schwäbisch Hall, Stadt","type":"Große_Kreisstadt"},"district":{"key":"08127","name":"Schwäbisch Hall","type":"Landkreis"},"federalState":{"key":"08","name":"Baden-Württemberg"}},{"name":"Von-Palm-Str.","postalCode":"74523","locality":"Schwäbisch Hall","municipality":{"key":"08127076","name":"Schwäbisch Hall, Stadt","type":"Große_Kreisstadt"},"district":{"key":"08127","name":"Schwäbisch Hall","type":"Landkreis"},"federalState":{"key":"08","name":"Baden-Württemberg"}},{"name":"Vor dem Kelkertor","postalCode":"74523","locality":"Schwäbisch Hall","municipality":{"key":"08127076","name":"Schwäbisch Hall, Stadt","type":"Große_Kreisstadt"},"district":{"key":"08127","name":"Schwäbisch Hall","type":"Landkreis"},"federalState":{"key":"08","name":"Baden-Württemberg"}},{"name":"Vorderer Einkorn","postalCode":"74523","locality":"Schwäbisch Hall","municipality":{"key":"08127076","name":"Schwäbisch Hall, Stadt","type":"Große_Kreisstadt"},"district":{"key":"08127","name":"Schwäbisch Hall","type":"Landkreis"},"federalState":{"key":"08","name":"Baden-Württemberg"}},{"name":"Waldhausweg","postalCode":"74595","locality":"Langenburg","municipality":{"key":"08127047","name":"Langenburg, Stadt","type":"Stadt"},"district":{"key":"08127","name":"Schwäbisch Hall","type":"Landkreis"},"federalState":{"key":"08","name":"Baden-Württemberg"}},{"name":"Weinbergweg","postalCode":"74595","locality":"Langenburg","municipality":{"key":"08127047","name":"Langenburg, Stadt","type":"Stadt"},"district":{"key":"08127","name":"Schwäbisch Hall","type":"Landkreis"},"federalState":{"key":"08","name":"Baden-Württemberg"}},{"name":"Ziegelrain","postalCode":"74595","locality":"Langenburg","municipality":{"key":"08127047","name":"Langenburg, Stadt","type":"Stadt"},"district":{"key":"08127","name":"Schwäbisch Hall","type":"Landkreis"},"federalState":{"key":"08","name":"Baden-Württemberg"}},{"name":"Ödenbühlsteige","postalCode":"74523","locality":"Schwäbisch Hall","municipality":{"key":"08127076","name":"Schwäbisch Hall, Stadt","type":"Große_Kreisstadt"},"district":{"key":"08127","name":"Schwäbisch Hall","type":"Landkreis"},"federalState":{"key":"08","name":"Baden-Württemberg"}},]