[{"name":"28","postalCode":"18181","locality":"Graal-Müritz","municipality":{"key":"13072036","name":"Graal-Müritz, Ostseeheilbad","type":"Kreisangehörige_Gemeinde"},"district":{"key":"13072","name":"Landkreis Rostock","type":"Landkreis"},"federalState":{"key":"13","name":"Mecklenburg-Vorpommern"}},{"name":"32","postalCode":"18181","locality":"Graal-Müritz","municipality":{"key":"13072036","name":"Graal-Müritz, Ostseeheilbad","type":"Kreisangehörige_Gemeinde"},"district":{"key":"13072","name":"Landkreis Rostock","type":"Landkreis"},"federalState":{"key":"13","name":"Mecklenburg-Vorpommern"}},{"name":"Alexandrastr.","postalCode":"18181","locality":"Graal-Müritz","municipality":{"key":"13072036","name":"Graal-Müritz, Ostseeheilbad","type":"Kreisangehörige_Gemeinde"},"district":{"key":"13072","name":"Landkreis Rostock","type":"Landkreis"},"federalState":{"key":"13","name":"Mecklenburg-Vorpommern"}},{"name":"Am Erlengrund","postalCode":"18181","locality":"Graal-Müritz","municipality":{"key":"13072036","name":"Graal-Müritz, Ostseeheilbad","type":"Kreisangehörige_Gemeinde"},"district":{"key":"13072","name":"Landkreis Rostock","type":"Landkreis"},"federalState":{"key":"13","name":"Mecklenburg-Vorpommern"}},{"name":"Am Funkturm","postalCode":"18181","locality":"Graal-Müritz","municipality":{"key":"13072036","name":"Graal-Müritz, Ostseeheilbad","type":"Kreisangehörige_Gemeinde"},"district":{"key":"13072","name":"Landkreis Rostock","type":"Landkreis"},"federalState":{"key":"13","name":"Mecklenburg-Vorpommern"}},{"name":"Am Kliff","postalCode":"18181","locality":"Graal-Müritz","municipality":{"key":"13072036","name":"Graal-Müritz, Ostseeheilbad","type":"Kreisangehörige_Gemeinde"},"district":{"key":"13072","name":"Landkreis Rostock","type":"Landkreis"},"federalState":{"key":"13","name":"Mecklenburg-Vorpommern"}},{"name":"Am Schöpfwerk","postalCode":"18181","locality":"Graal-Müritz","municipality":{"key":"13072036","name":"Graal-Müritz, Ostseeheilbad","type":"Kreisangehörige_Gemeinde"},"district":{"key":"13072","name":"Landkreis Rostock","type":"Landkreis"},"federalState":{"key":"13","name":"Mecklenburg-Vorpommern"}},{"name":"Am Sonnenhof","postalCode":"18181","locality":"Graal-Müritz","municipality":{"key":"13072036","name":"Graal-Müritz, Ostseeheilbad","type":"Kreisangehörige_Gemeinde"},"district":{"key":"13072","name":"Landkreis Rostock","type":"Landkreis"},"federalState":{"key":"13","name":"Mecklenburg-Vorpommern"}},{"name":"Am Tannenhof","postalCode":"18181","locality":"Graal-Müritz","municipality":{"key":"13072036","name":"Graal-Müritz, Ostseeheilbad","type":"Kreisangehörige_Gemeinde"},"district":{"key":"13072","name":"Landkreis Rostock","type":"Landkreis"},"federalState":{"key":"13","name":"Mecklenburg-Vorpommern"}},{"name":"Am Wasserturm","postalCode":"18181","locality":"Graal-Müritz","municipality":{"key":"13072036","name":"Graal-Müritz, Ostseeheilbad","type":"Kreisangehörige_Gemeinde"},"district":{"key":"13072","name":"Landkreis Rostock","type":"Landkreis"},"federalState":{"key":"13","name":"Mecklenburg-Vorpommern"}},{"name":"An der Büdnerei","postalCode":"18181","locality":"Graal-Müritz","municipality":{"key":"13072036","name":"Graal-Müritz, Ostseeheilbad","type":"Kreisangehörige_Gemeinde"},"district":{"key":"13072","name":"Landkreis Rostock","type":"Landkreis"},"federalState":{"key":"13","name":"Mecklenburg-Vorpommern"}},{"name":"An der Jugendherberge","postalCode":"18181","locality":"Graal-Müritz","municipality":{"key":"13072036","name":"Graal-Müritz, Ostseeheilbad","type":"Kreisangehörige_Gemeinde"},"district":{"key":"13072","name":"Landkreis Rostock","type":"Landkreis"},"federalState":{"key":"13","name":"Mecklenburg-Vorpommern"}},{"name":"August-Bebel-Str.","postalCode":"18181","locality":"Graal-Müritz","municipality":{"key":"13072036","name":"Graal-Müritz, Ostseeheilbad","type":"Kreisangehörige_Gemeinde"},"district":{"key":"13072","name":"Landkreis Rostock","type":"Landkreis"},"federalState":{"key":"13","name":"Mecklenburg-Vorpommern"}},{"name":"Badeweg","postalCode":"18181","locality":"Graal-Müritz","municipality":{"key":"13072036","name":"Graal-Müritz, Ostseeheilbad","type":"Kreisangehörige_Gemeinde"},"district":{"key":"13072","name":"Landkreis Rostock","type":"Landkreis"},"federalState":{"key":"13","name":"Mecklenburg-Vorpommern"}},{"name":"Bahnhofstr.","postalCode":"18181","locality":"Graal-Müritz","municipality":{"key":"13072036","name":"Graal-Müritz, Ostseeheilbad","type":"Kreisangehörige_Gemeinde"},"district":{"key":"13072","name":"Landkreis Rostock","type":"Landkreis"},"federalState":{"key":"13","name":"Mecklenburg-Vorpommern"}},{"name":"Bahnhofsweg","postalCode":"18181","locality":"Graal-Müritz","municipality":{"key":"13072036","name":"Graal-Müritz, Ostseeheilbad","type":"Kreisangehörige_Gemeinde"},"district":{"key":"13072","name":"Landkreis Rostock","type":"Landkreis"},"federalState":{"key":"13","name":"Mecklenburg-Vorpommern"}},{"name":"Barsbüttler Ring","postalCode":"18181","locality":"Graal-Müritz","municipality":{"key":"13072036","name":"Graal-Müritz, Ostseeheilbad","type":"Kreisangehörige_Gemeinde"},"district":{"key":"13072","name":"Landkreis Rostock","type":"Landkreis"},"federalState":{"key":"13","name":"Mecklenburg-Vorpommern"}},{"name":"Berliner Str.","postalCode":"18181","locality":"Graal-Müritz","municipality":{"key":"13072036","name":"Graal-Müritz, Ostseeheilbad","type":"Kreisangehörige_Gemeinde"},"district":{"key":"13072","name":"Landkreis Rostock","type":"Landkreis"},"federalState":{"key":"13","name":"Mecklenburg-Vorpommern"}},{"name":"Bernsteinweg","postalCode":"18181","locality":"Graal-Müritz","municipality":{"key":"13072036","name":"Graal-Müritz, Ostseeheilbad","type":"Kreisangehörige_Gemeinde"},"district":{"key":"13072","name":"Landkreis Rostock","type":"Landkreis"},"federalState":{"key":"13","name":"Mecklenburg-Vorpommern"}},{"name":"Birkenallee","postalCode":"18181","locality":"Graal-Müritz","municipality":{"key":"13072036","name":"Graal-Müritz, Ostseeheilbad","type":"Kreisangehörige_Gemeinde"},"district":{"key":"13072","name":"Landkreis Rostock","type":"Landkreis"},"federalState":{"key":"13","name":"Mecklenburg-Vorpommern"}},{"name":"Birkenweg","postalCode":"18181","locality":"Graal-Müritz","municipality":{"key":"13072036","name":"Graal-Müritz, Ostseeheilbad","type":"Kreisangehörige_Gemeinde"},"district":{"key":"13072","name":"Landkreis Rostock","type":"Landkreis"},"federalState":{"key":"13","name":"Mecklenburg-Vorpommern"}},{"name":"Buchenkampweg","postalCode":"18181","locality":"Graal-Müritz","municipality":{"key":"13072036","name":"Graal-Müritz, Ostseeheilbad","type":"Kreisangehörige_Gemeinde"},"district":{"key":"13072","name":"Landkreis Rostock","type":"Landkreis"},"federalState":{"key":"13","name":"Mecklenburg-Vorpommern"}},{"name":"Buchenweg","postalCode":"18181","locality":"Graal-Müritz","municipality":{"key":"13072036","name":"Graal-Müritz, Ostseeheilbad","type":"Kreisangehörige_Gemeinde"},"district":{"key":"13072","name":"Landkreis Rostock","type":"Landkreis"},"federalState":{"key":"13","name":"Mecklenburg-Vorpommern"}},{"name":"Buhnenweg","postalCode":"18181","locality":"Graal-Müritz","municipality":{"key":"13072036","name":"Graal-Müritz, Ostseeheilbad","type":"Kreisangehörige_Gemeinde"},"district":{"key":"13072","name":"Landkreis Rostock","type":"Landkreis"},"federalState":{"key":"13","name":"Mecklenburg-Vorpommern"}},{"name":"Dr.-Bach-Weg","postalCode":"18181","locality":"Graal-Müritz","municipality":{"key":"13072036","name":"Graal-Müritz, Ostseeheilbad","type":"Kreisangehörige_Gemeinde"},"district":{"key":"13072","name":"Landkreis Rostock","type":"Landkreis"},"federalState":{"key":"13","name":"Mecklenburg-Vorpommern"}},{"name":"Dr.-Bernatek-Weg","postalCode":"18181","locality":"Graal-Müritz","municipality":{"key":"13072036","name":"Graal-Müritz, Ostseeheilbad","type":"Kreisangehörige_Gemeinde"},"district":{"key":"13072","name":"Landkreis Rostock","type":"Landkreis"},"federalState":{"key":"13","name":"Mecklenburg-Vorpommern"}},{"name":"Dr.-Leber-Str.","postalCode":"18181","locality":"Graal-Müritz","municipality":{"key":"13072036","name":"Graal-Müritz, Ostseeheilbad","type":"Kreisangehörige_Gemeinde"},"district":{"key":"13072","name":"Landkreis Rostock","type":"Landkreis"},"federalState":{"key":"13","name":"Mecklenburg-Vorpommern"}},{"name":"Dr.-Mettenheimer-Weg","postalCode":"18181","locality":"Graal-Müritz","municipality":{"key":"13072036","name":"Graal-Müritz, Ostseeheilbad","type":"Kreisangehörige_Gemeinde"},"district":{"key":"13072","name":"Landkreis Rostock","type":"Landkreis"},"federalState":{"key":"13","name":"Mecklenburg-Vorpommern"}},{"name":"Dr.-Sedl-Weg","postalCode":"18181","locality":"Graal-Müritz","municipality":{"key":"13072036","name":"Graal-Müritz, Ostseeheilbad","type":"Kreisangehörige_Gemeinde"},"district":{"key":"13072","name":"Landkreis Rostock","type":"Landkreis"},"federalState":{"key":"13","name":"Mecklenburg-Vorpommern"}},{"name":"Erlenweg","postalCode":"18181","locality":"Graal-Müritz","municipality":{"key":"13072036","name":"Graal-Müritz, Ostseeheilbad","type":"Kreisangehörige_Gemeinde"},"district":{"key":"13072","name":"Landkreis Rostock","type":"Landkreis"},"federalState":{"key":"13","name":"Mecklenburg-Vorpommern"}},{"name":"Ernteweg","postalCode":"18181","locality":"Graal-Müritz","municipality":{"key":"13072036","name":"Graal-Müritz, Ostseeheilbad","type":"Kreisangehörige_Gemeinde"},"district":{"key":"13072","name":"Landkreis Rostock","type":"Landkreis"},"federalState":{"key":"13","name":"Mecklenburg-Vorpommern"}},{"name":"Eulenweg","postalCode":"18181","locality":"Graal-Müritz","municipality":{"key":"13072036","name":"Graal-Müritz, Ostseeheilbad","type":"Kreisangehörige_Gemeinde"},"district":{"key":"13072","name":"Landkreis Rostock","type":"Landkreis"},"federalState":{"key":"13","name":"Mecklenburg-Vorpommern"}},{"name":"Fischerweg","postalCode":"18181","locality":"Graal-Müritz","municipality":{"key":"13072036","name":"Graal-Müritz, Ostseeheilbad","type":"Kreisangehörige_Gemeinde"},"district":{"key":"13072","name":"Landkreis Rostock","type":"Landkreis"},"federalState":{"key":"13","name":"Mecklenburg-Vorpommern"}},{"name":"Forellenweg","postalCode":"18181","locality":"Graal-Müritz","municipality":{"key":"13072036","name":"Graal-Müritz, Ostseeheilbad","type":"Kreisangehörige_Gemeinde"},"district":{"key":"13072","name":"Landkreis Rostock","type":"Landkreis"},"federalState":{"key":"13","name":"Mecklenburg-Vorpommern"}},{"name":"Friedensstr.","postalCode":"18181","locality":"Graal-Müritz","municipality":{"key":"13072036","name":"Graal-Müritz, Ostseeheilbad","type":"Kreisangehörige_Gemeinde"},"district":{"key":"13072","name":"Landkreis Rostock","type":"Landkreis"},"federalState":{"key":"13","name":"Mecklenburg-Vorpommern"}},{"name":"Friedhofsweg","postalCode":"18181","locality":"Graal-Müritz","municipality":{"key":"13072036","name":"Graal-Müritz, Ostseeheilbad","type":"Kreisangehörige_Gemeinde"},"district":{"key":"13072","name":"Landkreis Rostock","type":"Landkreis"},"federalState":{"key":"13","name":"Mecklenburg-Vorpommern"}},{"name":"Fritz-Reuter-Str.","postalCode":"18181","locality":"Graal-Müritz","municipality":{"key":"13072036","name":"Graal-Müritz, Ostseeheilbad","type":"Kreisangehörige_Gemeinde"},"district":{"key":"13072","name":"Landkreis Rostock","type":"Landkreis"},"federalState":{"key":"13","name":"Mecklenburg-Vorpommern"}},{"name":"Fuchsbau","postalCode":"18181","locality":"Graal-Müritz","municipality":{"key":"13072036","name":"Graal-Müritz, Ostseeheilbad","type":"Kreisangehörige_Gemeinde"},"district":{"key":"13072","name":"Landkreis Rostock","type":"Landkreis"},"federalState":{"key":"13","name":"Mecklenburg-Vorpommern"}},{"name":"Gänseweg","postalCode":"18181","locality":"Graal-Müritz","municipality":{"key":"13072036","name":"Graal-Müritz, Ostseeheilbad","type":"Kreisangehörige_Gemeinde"},"district":{"key":"13072","name":"Landkreis Rostock","type":"Landkreis"},"federalState":{"key":"13","name":"Mecklenburg-Vorpommern"}},{"name":"Gartenstr.","postalCode":"18181","locality":"Graal-Müritz","municipality":{"key":"13072036","name":"Graal-Müritz, Ostseeheilbad","type":"Kreisangehörige_Gemeinde"},"district":{"key":"13072","name":"Landkreis Rostock","type":"Landkreis"},"federalState":{"key":"13","name":"Mecklenburg-Vorpommern"}},{"name":"Ginsterweg","postalCode":"18181","locality":"Graal-Müritz","municipality":{"key":"13072036","name":"Graal-Müritz, Ostseeheilbad","type":"Kreisangehörige_Gemeinde"},"district":{"key":"13072","name":"Landkreis Rostock","type":"Landkreis"},"federalState":{"key":"13","name":"Mecklenburg-Vorpommern"}},{"name":"Graaler Landweg","postalCode":"18181","locality":"Graal-Müritz","municipality":{"key":"13072036","name":"Graal-Müritz, Ostseeheilbad","type":"Kreisangehörige_Gemeinde"},"district":{"key":"13072","name":"Landkreis Rostock","type":"Landkreis"},"federalState":{"key":"13","name":"Mecklenburg-Vorpommern"}},{"name":"Grenzweg","postalCode":"18181","locality":"Graal-Müritz","municipality":{"key":"13072036","name":"Graal-Müritz, Ostseeheilbad","type":"Kreisangehörige_Gemeinde"},"district":{"key":"13072","name":"Landkreis Rostock","type":"Landkreis"},"federalState":{"key":"13","name":"Mecklenburg-Vorpommern"}},{"name":"Grüner Winkel","postalCode":"18181","locality":"Graal-Müritz","municipality":{"key":"13072036","name":"Graal-Müritz, Ostseeheilbad","type":"Kreisangehörige_Gemeinde"},"district":{"key":"13072","name":"Landkreis Rostock","type":"Landkreis"},"federalState":{"key":"13","name":"Mecklenburg-Vorpommern"}},{"name":"Grüne Wiese","postalCode":"18181","locality":"Graal-Müritz","municipality":{"key":"13072036","name":"Graal-Müritz, Ostseeheilbad","type":"Kreisangehörige_Gemeinde"},"district":{"key":"13072","name":"Landkreis Rostock","type":"Landkreis"},"federalState":{"key":"13","name":"Mecklenburg-Vorpommern"}},{"name":"Hagebuttenweg","postalCode":"18181","locality":"Graal-Müritz","municipality":{"key":"13072036","name":"Graal-Müritz, Ostseeheilbad","type":"Kreisangehörige_Gemeinde"},"district":{"key":"13072","name":"Landkreis Rostock","type":"Landkreis"},"federalState":{"key":"13","name":"Mecklenburg-Vorpommern"}},{"name":"Hanning-Schuldt-Weg","postalCode":"18181","locality":"Graal-Müritz","municipality":{"key":"13072036","name":"Graal-Müritz, Ostseeheilbad","type":"Kreisangehörige_Gemeinde"},"district":{"key":"13072","name":"Landkreis Rostock","type":"Landkreis"},"federalState":{"key":"13","name":"Mecklenburg-Vorpommern"}},{"name":"Heidelbeerweg","postalCode":"18181","locality":"Graal-Müritz","municipality":{"key":"13072036","name":"Graal-Müritz, Ostseeheilbad","type":"Kreisangehörige_Gemeinde"},"district":{"key":"13072","name":"Landkreis Rostock","type":"Landkreis"},"federalState":{"key":"13","name":"Mecklenburg-Vorpommern"}},{"name":"Heuweg","postalCode":"18181","locality":"Graal-Müritz","municipality":{"key":"13072036","name":"Graal-Müritz, Ostseeheilbad","type":"Kreisangehörige_Gemeinde"},"district":{"key":"13072","name":"Landkreis Rostock","type":"Landkreis"},"federalState":{"key":"13","name":"Mecklenburg-Vorpommern"}},{"name":"Holunderweg","postalCode":"18181","locality":"Graal-Müritz","municipality":{"key":"13072036","name":"Graal-Müritz, Ostseeheilbad","type":"Kreisangehörige_Gemeinde"},"district":{"key":"13072","name":"Landkreis Rostock","type":"Landkreis"},"federalState":{"key":"13","name":"Mecklenburg-Vorpommern"}},{"name":"Hufenweg","postalCode":"18181","locality":"Graal-Müritz","municipality":{"key":"13072036","name":"Graal-Müritz, Ostseeheilbad","type":"Kreisangehörige_Gemeinde"},"district":{"key":"13072","name":"Landkreis Rostock","type":"Landkreis"},"federalState":{"key":"13","name":"Mecklenburg-Vorpommern"}},{"name":"Karl-Lühnsdorf-Weg","postalCode":"18181","locality":"Graal-Müritz","municipality":{"key":"13072036","name":"Graal-Müritz, Ostseeheilbad","type":"Kreisangehörige_Gemeinde"},"district":{"key":"13072","name":"Landkreis Rostock","type":"Landkreis"},"federalState":{"key":"13","name":"Mecklenburg-Vorpommern"}},{"name":"Karl-Rettich-Weg","postalCode":"18181","locality":"Graal-Müritz","municipality":{"key":"13072036","name":"Graal-Müritz, Ostseeheilbad","type":"Kreisangehörige_Gemeinde"},"district":{"key":"13072","name":"Landkreis Rostock","type":"Landkreis"},"federalState":{"key":"13","name":"Mecklenburg-Vorpommern"}},{"name":"Kastanienallee","postalCode":"18181","locality":"Graal-Müritz","municipality":{"key":"13072036","name":"Graal-Müritz, Ostseeheilbad","type":"Kreisangehörige_Gemeinde"},"district":{"key":"13072","name":"Landkreis Rostock","type":"Landkreis"},"federalState":{"key":"13","name":"Mecklenburg-Vorpommern"}},{"name":"Kiebitzweg","postalCode":"18181","locality":"Graal-Müritz","municipality":{"key":"13072036","name":"Graal-Müritz, Ostseeheilbad","type":"Kreisangehörige_Gemeinde"},"district":{"key":"13072","name":"Landkreis Rostock","type":"Landkreis"},"federalState":{"key":"13","name":"Mecklenburg-Vorpommern"}},{"name":"Kiefernsund","postalCode":"18181","locality":"Graal-Müritz","municipality":{"key":"13072036","name":"Graal-Müritz, Ostseeheilbad","type":"Kreisangehörige_Gemeinde"},"district":{"key":"13072","name":"Landkreis Rostock","type":"Landkreis"},"federalState":{"key":"13","name":"Mecklenburg-Vorpommern"}},{"name":"Kiefernweg","postalCode":"18181","locality":"Graal-Müritz","municipality":{"key":"13072036","name":"Graal-Müritz, Ostseeheilbad","type":"Kreisangehörige_Gemeinde"},"district":{"key":"13072","name":"Landkreis Rostock","type":"Landkreis"},"federalState":{"key":"13","name":"Mecklenburg-Vorpommern"}},{"name":"Klünnersholz","postalCode":"18181","locality":"Graal-Müritz","municipality":{"key":"13072036","name":"Graal-Müritz, Ostseeheilbad","type":"Kreisangehörige_Gemeinde"},"district":{"key":"13072","name":"Landkreis Rostock","type":"Landkreis"},"federalState":{"key":"13","name":"Mecklenburg-Vorpommern"}},{"name":"Koppelweg","postalCode":"18181","locality":"Graal-Müritz","municipality":{"key":"13072036","name":"Graal-Müritz, Ostseeheilbad","type":"Kreisangehörige_Gemeinde"},"district":{"key":"13072","name":"Landkreis Rostock","type":"Landkreis"},"federalState":{"key":"13","name":"Mecklenburg-Vorpommern"}},{"name":"Krabbenweg","postalCode":"18181","locality":"Graal-Müritz","municipality":{"key":"13072036","name":"Graal-Müritz, Ostseeheilbad","type":"Kreisangehörige_Gemeinde"},"district":{"key":"13072","name":"Landkreis Rostock","type":"Landkreis"},"federalState":{"key":"13","name":"Mecklenburg-Vorpommern"}},{"name":"Kurstr.","postalCode":"18181","locality":"Graal-Müritz","municipality":{"key":"13072036","name":"Graal-Müritz, Ostseeheilbad","type":"Kreisangehörige_Gemeinde"},"district":{"key":"13072","name":"Landkreis Rostock","type":"Landkreis"},"federalState":{"key":"13","name":"Mecklenburg-Vorpommern"}},{"name":"Lange Str.","postalCode":"18181","locality":"Graal-Müritz","municipality":{"key":"13072036","name":"Graal-Müritz, Ostseeheilbad","type":"Kreisangehörige_Gemeinde"},"district":{"key":"13072","name":"Landkreis Rostock","type":"Landkreis"},"federalState":{"key":"13","name":"Mecklenburg-Vorpommern"}},{"name":"Lerchenweg","postalCode":"18181","locality":"Graal-Müritz","municipality":{"key":"13072036","name":"Graal-Müritz, Ostseeheilbad","type":"Kreisangehörige_Gemeinde"},"district":{"key":"13072","name":"Landkreis Rostock","type":"Landkreis"},"federalState":{"key":"13","name":"Mecklenburg-Vorpommern"}},{"name":"Lindenweg","postalCode":"18181","locality":"Graal-Müritz","municipality":{"key":"13072036","name":"Graal-Müritz, Ostseeheilbad","type":"Kreisangehörige_Gemeinde"},"district":{"key":"13072","name":"Landkreis Rostock","type":"Landkreis"},"federalState":{"key":"13","name":"Mecklenburg-Vorpommern"}},{"name":"Löwenzahnweg","postalCode":"18181","locality":"Graal-Müritz","municipality":{"key":"13072036","name":"Graal-Müritz, Ostseeheilbad","type":"Kreisangehörige_Gemeinde"},"district":{"key":"13072","name":"Landkreis Rostock","type":"Landkreis"},"federalState":{"key":"13","name":"Mecklenburg-Vorpommern"}},{"name":"Max-Holz -Str.","postalCode":"18181","locality":"Graal-Müritz","municipality":{"key":"13072036","name":"Graal-Müritz, Ostseeheilbad","type":"Kreisangehörige_Gemeinde"},"district":{"key":"13072","name":"Landkreis Rostock","type":"Landkreis"},"federalState":{"key":"13","name":"Mecklenburg-Vorpommern"}},{"name":"Mittelweg","postalCode":"18181","locality":"Graal-Müritz","municipality":{"key":"13072036","name":"Graal-Müritz, Ostseeheilbad","type":"Kreisangehörige_Gemeinde"},"district":{"key":"13072","name":"Landkreis Rostock","type":"Landkreis"},"federalState":{"key":"13","name":"Mecklenburg-Vorpommern"}},{"name":"Möwenweg","postalCode":"18181","locality":"Graal-Müritz","municipality":{"key":"13072036","name":"Graal-Müritz, Ostseeheilbad","type":"Kreisangehörige_Gemeinde"},"district":{"key":"13072","name":"Landkreis Rostock","type":"Landkreis"},"federalState":{"key":"13","name":"Mecklenburg-Vorpommern"}},{"name":"Muschelweg","postalCode":"18181","locality":"Graal-Müritz","municipality":{"key":"13072036","name":"Graal-Müritz, Ostseeheilbad","type":"Kreisangehörige_Gemeinde"},"district":{"key":"13072","name":"Landkreis Rostock","type":"Landkreis"},"federalState":{"key":"13","name":"Mecklenburg-Vorpommern"}},{"name":"Nachtigallenweg","postalCode":"18181","locality":"Graal-Müritz","municipality":{"key":"13072036","name":"Graal-Müritz, Ostseeheilbad","type":"Kreisangehörige_Gemeinde"},"district":{"key":"13072","name":"Landkreis Rostock","type":"Landkreis"},"federalState":{"key":"13","name":"Mecklenburg-Vorpommern"}},{"name":"Nördliche Wiesenstr.","postalCode":"18181","locality":"Graal-Müritz","municipality":{"key":"13072036","name":"Graal-Müritz, Ostseeheilbad","type":"Kreisangehörige_Gemeinde"},"district":{"key":"13072","name":"Landkreis Rostock","type":"Landkreis"},"federalState":{"key":"13","name":"Mecklenburg-Vorpommern"}},{"name":"Onkel-Bräsig-Str.","postalCode":"18181","locality":"Graal-Müritz","municipality":{"key":"13072036","name":"Graal-Müritz, Ostseeheilbad","type":"Kreisangehörige_Gemeinde"},"district":{"key":"13072","name":"Landkreis Rostock","type":"Landkreis"},"federalState":{"key":"13","name":"Mecklenburg-Vorpommern"}},{"name":"Ostseering","postalCode":"18181","locality":"Graal-Müritz","municipality":{"key":"13072036","name":"Graal-Müritz, Ostseeheilbad","type":"Kreisangehörige_Gemeinde"},"district":{"key":"13072","name":"Landkreis Rostock","type":"Landkreis"},"federalState":{"key":"13","name":"Mecklenburg-Vorpommern"}},{"name":"Pappelgasse","postalCode":"18181","locality":"Graal-Müritz","municipality":{"key":"13072036","name":"Graal-Müritz, Ostseeheilbad","type":"Kreisangehörige_Gemeinde"},"district":{"key":"13072","name":"Landkreis Rostock","type":"Landkreis"},"federalState":{"key":"13","name":"Mecklenburg-Vorpommern"}},{"name":"Pappelweg","postalCode":"18181","locality":"Graal-Müritz","municipality":{"key":"13072036","name":"Graal-Müritz, Ostseeheilbad","type":"Kreisangehörige_Gemeinde"},"district":{"key":"13072","name":"Landkreis Rostock","type":"Landkreis"},"federalState":{"key":"13","name":"Mecklenburg-Vorpommern"}},{"name":"Parkstr.","postalCode":"18181","locality":"Graal-Müritz","municipality":{"key":"13072036","name":"Graal-Müritz, Ostseeheilbad","type":"Kreisangehörige_Gemeinde"},"district":{"key":"13072","name":"Landkreis Rostock","type":"Landkreis"},"federalState":{"key":"13","name":"Mecklenburg-Vorpommern"}},{"name":"Pilzweg","postalCode":"18181","locality":"Graal-Müritz","municipality":{"key":"13072036","name":"Graal-Müritz, Ostseeheilbad","type":"Kreisangehörige_Gemeinde"},"district":{"key":"13072","name":"Landkreis Rostock","type":"Landkreis"},"federalState":{"key":"13","name":"Mecklenburg-Vorpommern"}},{"name":"P.-K.-Evert-Weg","postalCode":"18181","locality":"Graal-Müritz","municipality":{"key":"13072036","name":"Graal-Müritz, Ostseeheilbad","type":"Kreisangehörige_Gemeinde"},"district":{"key":"13072","name":"Landkreis Rostock","type":"Landkreis"},"federalState":{"key":"13","name":"Mecklenburg-Vorpommern"}},{"name":"Rhododendronpark","postalCode":"18181","locality":"Graal-Müritz","municipality":{"key":"13072036","name":"Graal-Müritz, Ostseeheilbad","type":"Kreisangehörige_Gemeinde"},"district":{"key":"13072","name":"Landkreis Rostock","type":"Landkreis"},"federalState":{"key":"13","name":"Mecklenburg-Vorpommern"}},{"name":"Ribnitzer Str.","postalCode":"18181","locality":"Graal-Müritz","municipality":{"key":"13072036","name":"Graal-Müritz, Ostseeheilbad","type":"Kreisangehörige_Gemeinde"},"district":{"key":"13072","name":"Landkreis Rostock","type":"Landkreis"},"federalState":{"key":"13","name":"Mecklenburg-Vorpommern"}},{"name":"Richard-Wossidlo-Str.","postalCode":"18181","locality":"Graal-Müritz","municipality":{"key":"13072036","name":"Graal-Müritz, Ostseeheilbad","type":"Kreisangehörige_Gemeinde"},"district":{"key":"13072","name":"Landkreis Rostock","type":"Landkreis"},"federalState":{"key":"13","name":"Mecklenburg-Vorpommern"}},{"name":"Rostocker Str.","postalCode":"18181","locality":"Graal-Müritz","municipality":{"key":"13072036","name":"Graal-Müritz, Ostseeheilbad","type":"Kreisangehörige_Gemeinde"},"district":{"key":"13072","name":"Landkreis Rostock","type":"Landkreis"},"federalState":{"key":"13","name":"Mecklenburg-Vorpommern"}},{"name":"Sanddornweg","postalCode":"18181","locality":"Graal-Müritz","municipality":{"key":"13072036","name":"Graal-Müritz, Ostseeheilbad","type":"Kreisangehörige_Gemeinde"},"district":{"key":"13072","name":"Landkreis Rostock","type":"Landkreis"},"federalState":{"key":"13","name":"Mecklenburg-Vorpommern"}},{"name":"Schillerstr.","postalCode":"18181","locality":"Graal-Müritz","municipality":{"key":"13072036","name":"Graal-Müritz, Ostseeheilbad","type":"Kreisangehörige_Gemeinde"},"district":{"key":"13072","name":"Landkreis Rostock","type":"Landkreis"},"federalState":{"key":"13","name":"Mecklenburg-Vorpommern"}},{"name":"Schwanenberg","postalCode":"18181","locality":"Graal-Müritz","municipality":{"key":"13072036","name":"Graal-Müritz, Ostseeheilbad","type":"Kreisangehörige_Gemeinde"},"district":{"key":"13072","name":"Landkreis Rostock","type":"Landkreis"},"federalState":{"key":"13","name":"Mecklenburg-Vorpommern"}},{"name":"Schwarzer Weg","postalCode":"18181","locality":"Graal-Müritz","municipality":{"key":"13072036","name":"Graal-Müritz, Ostseeheilbad","type":"Kreisangehörige_Gemeinde"},"district":{"key":"13072","name":"Landkreis Rostock","type":"Landkreis"},"federalState":{"key":"13","name":"Mecklenburg-Vorpommern"}},{"name":"Seebrücke","postalCode":"18181","locality":"Graal-Müritz","municipality":{"key":"13072036","name":"Graal-Müritz, Ostseeheilbad","type":"Kreisangehörige_Gemeinde"},"district":{"key":"13072","name":"Landkreis Rostock","type":"Landkreis"},"federalState":{"key":"13","name":"Mecklenburg-Vorpommern"}},{"name":"Seesternweg","postalCode":"18181","locality":"Graal-Müritz","municipality":{"key":"13072036","name":"Graal-Müritz, Ostseeheilbad","type":"Kreisangehörige_Gemeinde"},"district":{"key":"13072","name":"Landkreis Rostock","type":"Landkreis"},"federalState":{"key":"13","name":"Mecklenburg-Vorpommern"}},{"name":"Strandparkallee","postalCode":"18181","locality":"Graal-Müritz","municipality":{"key":"13072036","name":"Graal-Müritz, Ostseeheilbad","type":"Kreisangehörige_Gemeinde"},"district":{"key":"13072","name":"Landkreis Rostock","type":"Landkreis"},"federalState":{"key":"13","name":"Mecklenburg-Vorpommern"}},{"name":"Strandstr.","postalCode":"18181","locality":"Graal-Müritz","municipality":{"key":"13072036","name":"Graal-Müritz, Ostseeheilbad","type":"Kreisangehörige_Gemeinde"},"district":{"key":"13072","name":"Landkreis Rostock","type":"Landkreis"},"federalState":{"key":"13","name":"Mecklenburg-Vorpommern"}},{"name":"Südliche Wiesenstr.","postalCode":"18181","locality":"Graal-Müritz","municipality":{"key":"13072036","name":"Graal-Müritz, Ostseeheilbad","type":"Kreisangehörige_Gemeinde"},"district":{"key":"13072","name":"Landkreis Rostock","type":"Landkreis"},"federalState":{"key":"13","name":"Mecklenburg-Vorpommern"}},{"name":"Teufelsrie","postalCode":"18181","locality":"Graal-Müritz","municipality":{"key":"13072036","name":"Graal-Müritz, Ostseeheilbad","type":"Kreisangehörige_Gemeinde"},"district":{"key":"13072","name":"Landkreis Rostock","type":"Landkreis"},"federalState":{"key":"13","name":"Mecklenburg-Vorpommern"}},{"name":"Torfstieg","postalCode":"18181","locality":"Graal-Müritz","municipality":{"key":"13072036","name":"Graal-Müritz, Ostseeheilbad","type":"Kreisangehörige_Gemeinde"},"district":{"key":"13072","name":"Landkreis Rostock","type":"Landkreis"},"federalState":{"key":"13","name":"Mecklenburg-Vorpommern"}},{"name":"Uferstr.","postalCode":"18181","locality":"Graal-Müritz","municipality":{"key":"13072036","name":"Graal-Müritz, Ostseeheilbad","type":"Kreisangehörige_Gemeinde"},"district":{"key":"13072","name":"Landkreis Rostock","type":"Landkreis"},"federalState":{"key":"13","name":"Mecklenburg-Vorpommern"}},{"name":"Waldstr.","postalCode":"18181","locality":"Graal-Müritz","municipality":{"key":"13072036","name":"Graal-Müritz, Ostseeheilbad","type":"Kreisangehörige_Gemeinde"},"district":{"key":"13072","name":"Landkreis Rostock","type":"Landkreis"},"federalState":{"key":"13","name":"Mecklenburg-Vorpommern"}},{"name":"Weidenweg","postalCode":"18181","locality":"Graal-Müritz","municipality":{"key":"13072036","name":"Graal-Müritz, Ostseeheilbad","type":"Kreisangehörige_Gemeinde"},"district":{"key":"13072","name":"Landkreis Rostock","type":"Landkreis"},"federalState":{"key":"13","name":"Mecklenburg-Vorpommern"}},{"name":"Wiedortschneise","postalCode":"18181","locality":"Graal-Müritz","municipality":{"key":"13072036","name":"Graal-Müritz, Ostseeheilbad","type":"Kreisangehörige_Gemeinde"},"district":{"key":"13072","name":"Landkreis Rostock","type":"Landkreis"},"federalState":{"key":"13","name":"Mecklenburg-Vorpommern"}},{"name":"Wiesenstr.","postalCode":"18181","locality":"Graal-Müritz","municipality":{"key":"13072036","name":"Graal-Müritz, Ostseeheilbad","type":"Kreisangehörige_Gemeinde"},"district":{"key":"13072","name":"Landkreis Rostock","type":"Landkreis"},"federalState":{"key":"13","name":"Mecklenburg-Vorpommern"}},{"name":"Wildschweinweg","postalCode":"18181","locality":"Graal-Müritz","municipality":{"key":"13072036","name":"Graal-Müritz, Ostseeheilbad","type":"Kreisangehörige_Gemeinde"},"district":{"key":"13072","name":"Landkreis Rostock","type":"Landkreis"},"federalState":{"key":"13","name":"Mecklenburg-Vorpommern"}},{"name":"Wurzelweg","postalCode":"18181","locality":"Graal-Müritz","municipality":{"key":"13072036","name":"Graal-Müritz, Ostseeheilbad","type":"Kreisangehörige_Gemeinde"},"district":{"key":"13072","name":"Landkreis Rostock","type":"Landkreis"},"federalState":{"key":"13","name":"Mecklenburg-Vorpommern"}},{"name":"Zapfenweg","postalCode":"18181","locality":"Graal-Müritz","municipality":{"key":"13072036","name":"Graal-Müritz, Ostseeheilbad","type":"Kreisangehörige_Gemeinde"},"district":{"key":"13072","name":"Landkreis Rostock","type":"Landkreis"},"federalState":{"key":"13","name":"Mecklenburg-Vorpommern"}},{"name":"Zarnezweg","postalCode":"18181","locality":"Graal-Müritz","municipality":{"key":"13072036","name":"Graal-Müritz, Ostseeheilbad","type":"Kreisangehörige_Gemeinde"},"district":{"key":"13072","name":"Landkreis Rostock","type":"Landkreis"},"federalState":{"key":"13","name":"Mecklenburg-Vorpommern"}},{"name":"Zur Eselswiese","postalCode":"18181","locality":"Graal-Müritz","municipality":{"key":"13072036","name":"Graal-Müritz, Ostseeheilbad","type":"Kreisangehörige_Gemeinde"},"district":{"key":"13072","name":"Landkreis Rostock","type":"Landkreis"},"federalState":{"key":"13","name":"Mecklenburg-Vorpommern"}},{"name":"Zur Koppenheide","postalCode":"18181","locality":"Graal-Müritz","municipality":{"key":"13072036","name":"Graal-Müritz, Ostseeheilbad","type":"Kreisangehörige_Gemeinde"},"district":{"key":"13072","name":"Landkreis Rostock","type":"Landkreis"},"federalState":{"key":"13","name":"Mecklenburg-Vorpommern"}},{"name":"Zur Ostsee","postalCode":"18181","locality":"Graal-Müritz","municipality":{"key":"13072036","name":"Graal-Müritz, Ostseeheilbad","type":"Kreisangehörige_Gemeinde"},"district":{"key":"13072","name":"Landkreis Rostock","type":"Landkreis"},"federalState":{"key":"13","name":"Mecklenburg-Vorpommern"}},{"name":"Zur Seebrücke","postalCode":"18181","locality":"Graal-Müritz","municipality":{"key":"13072036","name":"Graal-Müritz, Ostseeheilbad","type":"Kreisangehörige_Gemeinde"},"district":{"key":"13072","name":"Landkreis Rostock","type":"Landkreis"},"federalState":{"key":"13","name":"Mecklenburg-Vorpommern"}},]