[{"name":"Altrehlings","postalCode":"88138","locality":"Weißensberg","municipality":{"key":"09776130","name":"Weißensberg","type":"Kreisangehörige_Gemeinde"},"district":{"key":"09776","name":"Lindau (Bodensee)","type":"Landkreis"},"federalState":{"key":"09","name":"Bayern"}},{"name":"Am Brühl","postalCode":"88138","locality":"Weißensberg","municipality":{"key":"09776130","name":"Weißensberg","type":"Kreisangehörige_Gemeinde"},"district":{"key":"09776","name":"Lindau (Bodensee)","type":"Landkreis"},"federalState":{"key":"09","name":"Bayern"}},{"name":"Am Buch","postalCode":"88138","locality":"Weißensberg","municipality":{"key":"09776130","name":"Weißensberg","type":"Kreisangehörige_Gemeinde"},"district":{"key":"09776","name":"Lindau (Bodensee)","type":"Landkreis"},"federalState":{"key":"09","name":"Bayern"}},{"name":"Am Flugplatz","postalCode":"88138","locality":"Weißensberg","municipality":{"key":"09776130","name":"Weißensberg","type":"Kreisangehörige_Gemeinde"},"district":{"key":"09776","name":"Lindau (Bodensee)","type":"Landkreis"},"federalState":{"key":"09","name":"Bayern"}},{"name":"Am Steinberg","postalCode":"88138","locality":"Weißensberg","municipality":{"key":"09776130","name":"Weißensberg","type":"Kreisangehörige_Gemeinde"},"district":{"key":"09776","name":"Lindau (Bodensee)","type":"Landkreis"},"federalState":{"key":"09","name":"Bayern"}},{"name":"Am Tobelbach","postalCode":"88138","locality":"Weißensberg","municipality":{"key":"09776130","name":"Weißensberg","type":"Kreisangehörige_Gemeinde"},"district":{"key":"09776","name":"Lindau (Bodensee)","type":"Landkreis"},"federalState":{"key":"09","name":"Bayern"}},{"name":"Am Wolfsbach","postalCode":"88138","locality":"Weißensberg","municipality":{"key":"09776130","name":"Weißensberg","type":"Kreisangehörige_Gemeinde"},"district":{"key":"09776","name":"Lindau (Bodensee)","type":"Landkreis"},"federalState":{"key":"09","name":"Bayern"}},{"name":"Auf der Hochreuth","postalCode":"88138","locality":"Weißensberg","municipality":{"key":"09776130","name":"Weißensberg","type":"Kreisangehörige_Gemeinde"},"district":{"key":"09776","name":"Lindau (Bodensee)","type":"Landkreis"},"federalState":{"key":"09","name":"Bayern"}},{"name":"Beim Rothen-Kreuz","postalCode":"88138","locality":"Weißensberg","municipality":{"key":"09776130","name":"Weißensberg","type":"Kreisangehörige_Gemeinde"},"district":{"key":"09776","name":"Lindau (Bodensee)","type":"Landkreis"},"federalState":{"key":"09","name":"Bayern"}},{"name":"Bergstr.","postalCode":"88138","locality":"Weißensberg","municipality":{"key":"09776130","name":"Weißensberg","type":"Kreisangehörige_Gemeinde"},"district":{"key":"09776","name":"Lindau (Bodensee)","type":"Landkreis"},"federalState":{"key":"09","name":"Bayern"}},{"name":"Birkenweg","postalCode":"88138","locality":"Weißensberg","municipality":{"key":"09776130","name":"Weißensberg","type":"Kreisangehörige_Gemeinde"},"district":{"key":"09776","name":"Lindau (Bodensee)","type":"Landkreis"},"federalState":{"key":"09","name":"Bayern"}},{"name":"Brühlmoosweg","postalCode":"88138","locality":"Weißensberg","municipality":{"key":"09776130","name":"Weißensberg","type":"Kreisangehörige_Gemeinde"},"district":{"key":"09776","name":"Lindau (Bodensee)","type":"Landkreis"},"federalState":{"key":"09","name":"Bayern"}},{"name":"Eggenwatt","postalCode":"88138","locality":"Weißensberg","municipality":{"key":"09776130","name":"Weißensberg","type":"Kreisangehörige_Gemeinde"},"district":{"key":"09776","name":"Lindau (Bodensee)","type":"Landkreis"},"federalState":{"key":"09","name":"Bayern"}},{"name":"Festplatz","postalCode":"88138","locality":"Weißensberg","municipality":{"key":"09776130","name":"Weißensberg","type":"Kreisangehörige_Gemeinde"},"district":{"key":"09776","name":"Lindau (Bodensee)","type":"Landkreis"},"federalState":{"key":"09","name":"Bayern"}},{"name":"Gewerbepark Edelweiß","postalCode":"88138","locality":"Weißensberg","municipality":{"key":"09776130","name":"Weißensberg","type":"Kreisangehörige_Gemeinde"},"district":{"key":"09776","name":"Lindau (Bodensee)","type":"Landkreis"},"federalState":{"key":"09","name":"Bayern"}},{"name":"Giebelhalde","postalCode":"88138","locality":"Weißensberg","municipality":{"key":"09776130","name":"Weißensberg","type":"Kreisangehörige_Gemeinde"},"district":{"key":"09776","name":"Lindau (Bodensee)","type":"Landkreis"},"federalState":{"key":"09","name":"Bayern"}},{"name":"Grübels","postalCode":"88138","locality":"Weißensberg","municipality":{"key":"09776130","name":"Weißensberg","type":"Kreisangehörige_Gemeinde"},"district":{"key":"09776","name":"Lindau (Bodensee)","type":"Landkreis"},"federalState":{"key":"09","name":"Bayern"}},{"name":"Haldenweg","postalCode":"88138","locality":"Weißensberg","municipality":{"key":"09776130","name":"Weißensberg","type":"Kreisangehörige_Gemeinde"},"district":{"key":"09776","name":"Lindau (Bodensee)","type":"Landkreis"},"federalState":{"key":"09","name":"Bayern"}},{"name":"Heckenweg","postalCode":"88138","locality":"Weißensberg","municipality":{"key":"09776130","name":"Weißensberg","type":"Kreisangehörige_Gemeinde"},"district":{"key":"09776","name":"Lindau (Bodensee)","type":"Landkreis"},"federalState":{"key":"09","name":"Bayern"}},{"name":"Hinter der Säge","postalCode":"88138","locality":"Weißensberg","municipality":{"key":"09776130","name":"Weißensberg","type":"Kreisangehörige_Gemeinde"},"district":{"key":"09776","name":"Lindau (Bodensee)","type":"Landkreis"},"federalState":{"key":"09","name":"Bayern"}},{"name":"Hirschbinde","postalCode":"88138","locality":"Weißensberg","municipality":{"key":"09776130","name":"Weißensberg","type":"Kreisangehörige_Gemeinde"},"district":{"key":"09776","name":"Lindau (Bodensee)","type":"Landkreis"},"federalState":{"key":"09","name":"Bayern"}},{"name":"Im Baumgarten","postalCode":"88138","locality":"Weißensberg","municipality":{"key":"09776130","name":"Weißensberg","type":"Kreisangehörige_Gemeinde"},"district":{"key":"09776","name":"Lindau (Bodensee)","type":"Landkreis"},"federalState":{"key":"09","name":"Bayern"}},{"name":"Im Brunnacker","postalCode":"88138","locality":"Weißensberg","municipality":{"key":"09776130","name":"Weißensberg","type":"Kreisangehörige_Gemeinde"},"district":{"key":"09776","name":"Lindau (Bodensee)","type":"Landkreis"},"federalState":{"key":"09","name":"Bayern"}},{"name":"Im Gärtl","postalCode":"88138","locality":"Weißensberg","municipality":{"key":"09776130","name":"Weißensberg","type":"Kreisangehörige_Gemeinde"},"district":{"key":"09776","name":"Lindau (Bodensee)","type":"Landkreis"},"federalState":{"key":"09","name":"Bayern"}},{"name":"Im Obstgarten","postalCode":"88138","locality":"Weißensberg","municipality":{"key":"09776130","name":"Weißensberg","type":"Kreisangehörige_Gemeinde"},"district":{"key":"09776","name":"Lindau (Bodensee)","type":"Landkreis"},"federalState":{"key":"09","name":"Bayern"}},{"name":"Im Oesch","postalCode":"88138","locality":"Weißensberg","municipality":{"key":"09776130","name":"Weißensberg","type":"Kreisangehörige_Gemeinde"},"district":{"key":"09776","name":"Lindau (Bodensee)","type":"Landkreis"},"federalState":{"key":"09","name":"Bayern"}},{"name":"Im Weinberg","postalCode":"88138","locality":"Weißensberg","municipality":{"key":"09776130","name":"Weißensberg","type":"Kreisangehörige_Gemeinde"},"district":{"key":"09776","name":"Lindau (Bodensee)","type":"Landkreis"},"federalState":{"key":"09","name":"Bayern"}},{"name":"Kapellenweg","postalCode":"88138","locality":"Weißensberg","municipality":{"key":"09776130","name":"Weißensberg","type":"Kreisangehörige_Gemeinde"},"district":{"key":"09776","name":"Lindau (Bodensee)","type":"Landkreis"},"federalState":{"key":"09","name":"Bayern"}},{"name":"Kemptener Str.","postalCode":"88138","locality":"Weißensberg","municipality":{"key":"09776130","name":"Weißensberg","type":"Kreisangehörige_Gemeinde"},"district":{"key":"09776","name":"Lindau (Bodensee)","type":"Landkreis"},"federalState":{"key":"09","name":"Bayern"}},{"name":"Kirchstr.","postalCode":"88138","locality":"Weißensberg","municipality":{"key":"09776130","name":"Weißensberg","type":"Kreisangehörige_Gemeinde"},"district":{"key":"09776","name":"Lindau (Bodensee)","type":"Landkreis"},"federalState":{"key":"09","name":"Bayern"}},{"name":"Lindauer Str.","postalCode":"88138","locality":"Weißensberg","municipality":{"key":"09776130","name":"Weißensberg","type":"Kreisangehörige_Gemeinde"},"district":{"key":"09776","name":"Lindau (Bodensee)","type":"Landkreis"},"federalState":{"key":"09","name":"Bayern"}},{"name":"Lindenstr.","postalCode":"88138","locality":"Weißensberg","municipality":{"key":"09776130","name":"Weißensberg","type":"Kreisangehörige_Gemeinde"},"district":{"key":"09776","name":"Lindau (Bodensee)","type":"Landkreis"},"federalState":{"key":"09","name":"Bayern"}},{"name":"Motzacher Weg","postalCode":"88138","locality":"Weißensberg","municipality":{"key":"09776130","name":"Weißensberg","type":"Kreisangehörige_Gemeinde"},"district":{"key":"09776","name":"Lindau (Bodensee)","type":"Landkreis"},"federalState":{"key":"09","name":"Bayern"}},{"name":"Mühlenstr.","postalCode":"88138","locality":"Weißensberg","municipality":{"key":"09776130","name":"Weißensberg","type":"Kreisangehörige_Gemeinde"},"district":{"key":"09776","name":"Lindau (Bodensee)","type":"Landkreis"},"federalState":{"key":"09","name":"Bayern"}},{"name":"Pelagiusweg","postalCode":"88138","locality":"Weißensberg","municipality":{"key":"09776130","name":"Weißensberg","type":"Kreisangehörige_Gemeinde"},"district":{"key":"09776","name":"Lindau (Bodensee)","type":"Landkreis"},"federalState":{"key":"09","name":"Bayern"}},{"name":"Römerstr.","postalCode":"88138","locality":"Weißensberg","municipality":{"key":"09776130","name":"Weißensberg","type":"Kreisangehörige_Gemeinde"},"district":{"key":"09776","name":"Lindau (Bodensee)","type":"Landkreis"},"federalState":{"key":"09","name":"Bayern"}},{"name":"Rothkreuz","postalCode":"88138","locality":"Weißensberg","municipality":{"key":"09776130","name":"Weißensberg","type":"Kreisangehörige_Gemeinde"},"district":{"key":"09776","name":"Lindau (Bodensee)","type":"Landkreis"},"federalState":{"key":"09","name":"Bayern"}},{"name":"Schneckenbuch","postalCode":"88138","locality":"Weißensberg","municipality":{"key":"09776130","name":"Weißensberg","type":"Kreisangehörige_Gemeinde"},"district":{"key":"09776","name":"Lindau (Bodensee)","type":"Landkreis"},"federalState":{"key":"09","name":"Bayern"}},{"name":"Schulstr.","postalCode":"88138","locality":"Weißensberg","municipality":{"key":"09776130","name":"Weißensberg","type":"Kreisangehörige_Gemeinde"},"district":{"key":"09776","name":"Lindau (Bodensee)","type":"Landkreis"},"federalState":{"key":"09","name":"Bayern"}},{"name":"Waldstr.","postalCode":"88138","locality":"Weißensberg","municipality":{"key":"09776130","name":"Weißensberg","type":"Kreisangehörige_Gemeinde"},"district":{"key":"09776","name":"Lindau (Bodensee)","type":"Landkreis"},"federalState":{"key":"09","name":"Bayern"}},{"name":"Wildberg","postalCode":"88138","locality":"Weißensberg","municipality":{"key":"09776130","name":"Weißensberg","type":"Kreisangehörige_Gemeinde"},"district":{"key":"09776","name":"Lindau (Bodensee)","type":"Landkreis"},"federalState":{"key":"09","name":"Bayern"}},{"name":"Zum Neuweiher","postalCode":"88138","locality":"Weißensberg","municipality":{"key":"09776130","name":"Weißensberg","type":"Kreisangehörige_Gemeinde"},"district":{"key":"09776","name":"Lindau (Bodensee)","type":"Landkreis"},"federalState":{"key":"09","name":"Bayern"}},]