[{"key":"10254806","name":"Au Bévan","postalCode":"2852","locality":"Courtételle","commune":{"key":"6710","name":"Courtételle","shortName":"Courtételle"},"district":{"key":"2601","name":"District de Delémont"},"canton":{"key":"26","code":"JU","name":"Jura"},"status":"Real"},{"key":"10053608","name":"Aux Crés","postalCode":"2852","locality":"Courtételle","commune":{"key":"6710","name":"Courtételle","shortName":"Courtételle"},"district":{"key":"2601","name":"District de Delémont"},"canton":{"key":"26","code":"JU","name":"Jura"},"status":"Real"},{"key":"10122351","name":"Aux Fossés","postalCode":"2852","locality":"Courtételle","commune":{"key":"6710","name":"Courtételle","shortName":"Courtételle"},"district":{"key":"2601","name":"District de Delémont"},"canton":{"key":"26","code":"JU","name":"Jura"},"status":"Real"},{"key":"10053609","name":"Chemin de Chaux","postalCode":"2852","locality":"Courtételle","commune":{"key":"6710","name":"Courtételle","shortName":"Courtételle"},"district":{"key":"2601","name":"District de Delémont"},"canton":{"key":"26","code":"JU","name":"Jura"},"status":"Real"},{"key":"10082942","name":"Chemin de la Rosée","postalCode":"2852","locality":"Courtételle","commune":{"key":"6710","name":"Courtételle","shortName":"Courtételle"},"district":{"key":"2601","name":"District de Delémont"},"canton":{"key":"26","code":"JU","name":"Jura"},"status":"Real"},{"key":"10060341","name":"Chemin de Sainte-Fontaine","postalCode":"2852","locality":"Courtételle","commune":{"key":"6710","name":"Courtételle","shortName":"Courtételle"},"district":{"key":"2601","name":"District de Delémont"},"canton":{"key":"26","code":"JU","name":"Jura"},"status":"Real"},{"key":"10175657","name":"Chemin des Combes","postalCode":"2852","locality":"Courtételle","commune":{"key":"6710","name":"Courtételle","shortName":"Courtételle"},"district":{"key":"2601","name":"District de Delémont"},"canton":{"key":"26","code":"JU","name":"Jura"},"status":"Real"},{"key":"10053615","name":"Chemin des Esserts","postalCode":"2852","locality":"Courtételle","commune":{"key":"6710","name":"Courtételle","shortName":"Courtételle"},"district":{"key":"2601","name":"District de Delémont"},"canton":{"key":"26","code":"JU","name":"Jura"},"status":"Real"},{"key":"10060342","name":"Chemin des Fauvettes","postalCode":"2852","locality":"Courtételle","commune":{"key":"6710","name":"Courtételle","shortName":"Courtételle"},"district":{"key":"2601","name":"District de Delémont"},"canton":{"key":"26","code":"JU","name":"Jura"},"status":"Real"},{"key":"10100163","name":"Chemin des Finages","postalCode":"2852","locality":"Courtételle","commune":{"key":"6710","name":"Courtételle","shortName":"Courtételle"},"district":{"key":"2601","name":"District de Delémont"},"canton":{"key":"26","code":"JU","name":"Jura"},"status":"Real"},{"key":"10053610","name":"Chemin des Fouchies","postalCode":"2852","locality":"Courtételle","commune":{"key":"6710","name":"Courtételle","shortName":"Courtételle"},"district":{"key":"2601","name":"District de Delémont"},"canton":{"key":"26","code":"JU","name":"Jura"},"status":"Real"},{"key":"10175658","name":"Chemin des Lilas","postalCode":"2852","locality":"Courtételle","commune":{"key":"6710","name":"Courtételle","shortName":"Courtételle"},"district":{"key":"2601","name":"District de Delémont"},"canton":{"key":"26","code":"JU","name":"Jura"},"status":"Real"},{"key":"10186748","name":"Chemin des Lys","postalCode":"2852","locality":"Courtételle","commune":{"key":"6710","name":"Courtételle","shortName":"Courtételle"},"district":{"key":"2601","name":"District de Delémont"},"canton":{"key":"26","code":"JU","name":"Jura"},"status":"Real"},{"key":"10107609","name":"Chemin des Merles","postalCode":"2852","locality":"Courtételle","commune":{"key":"6710","name":"Courtételle","shortName":"Courtételle"},"district":{"key":"2601","name":"District de Delémont"},"canton":{"key":"26","code":"JU","name":"Jura"},"status":"Real"},{"key":"10100164","name":"Chemin des Mésanges","postalCode":"2852","locality":"Courtételle","commune":{"key":"6710","name":"Courtételle","shortName":"Courtételle"},"district":{"key":"2601","name":"District de Delémont"},"canton":{"key":"26","code":"JU","name":"Jura"},"status":"Real"},{"key":"10053611","name":"Chemin des Pinsons","postalCode":"2852","locality":"Courtételle","commune":{"key":"6710","name":"Courtételle","shortName":"Courtételle"},"district":{"key":"2601","name":"District de Delémont"},"canton":{"key":"26","code":"JU","name":"Jura"},"status":"Real"},{"key":"10183459","name":"Courtemelon","postalCode":"2852","locality":"Courtételle","commune":{"key":"6710","name":"Courtételle","shortName":"Courtételle"},"district":{"key":"2601","name":"District de Delémont"},"canton":{"key":"26","code":"JU","name":"Jura"},"status":"Real"},{"key":"10210938","name":"Impasse de la Basilique","postalCode":"2852","locality":"Courtételle","commune":{"key":"6710","name":"Courtételle","shortName":"Courtételle"},"district":{"key":"2601","name":"District de Delémont"},"canton":{"key":"26","code":"JU","name":"Jura"},"status":"Real"},{"key":"10127001","name":"Impasse des Erables","postalCode":"2852","locality":"Courtételle","commune":{"key":"6710","name":"Courtételle","shortName":"Courtételle"},"district":{"key":"2601","name":"District de Delémont"},"canton":{"key":"26","code":"JU","name":"Jura"},"status":"Real"},{"key":"10161077","name":"Impasse du Clos","postalCode":"2852","locality":"Courtételle","commune":{"key":"6710","name":"Courtételle","shortName":"Courtételle"},"district":{"key":"2601","name":"District de Delémont"},"canton":{"key":"26","code":"JU","name":"Jura"},"status":"Real"},{"key":"10053613","name":"La Prairie","postalCode":"2852","locality":"Courtételle","commune":{"key":"6710","name":"Courtételle","shortName":"Courtételle"},"district":{"key":"2601","name":"District de Delémont"},"canton":{"key":"26","code":"JU","name":"Jura"},"status":"Real"},{"key":"10156466","name":"Les Grands Prés","postalCode":"2852","locality":"Courtételle","commune":{"key":"6710","name":"Courtételle","shortName":"Courtételle"},"district":{"key":"2601","name":"District de Delémont"},"canton":{"key":"26","code":"JU","name":"Jura"},"status":"Real"},{"key":"10100177","name":"Les Prés Roses","postalCode":"2852","locality":"Courtételle","commune":{"key":"6710","name":"Courtételle","shortName":"Courtételle"},"district":{"key":"2601","name":"District de Delémont"},"canton":{"key":"26","code":"JU","name":"Jura"},"status":"Real"},{"key":"10223875","name":"Métairie du Mont Dessous","postalCode":"2852","locality":"Courtételle","commune":{"key":"6710","name":"Courtételle","shortName":"Courtételle"},"district":{"key":"2601","name":"District de Delémont"},"canton":{"key":"26","code":"JU","name":"Jura"},"status":"Real"},{"key":"10223879","name":"Métairie du Mont Dessus","postalCode":"2852","locality":"Courtételle","commune":{"key":"6710","name":"Courtételle","shortName":"Courtételle"},"district":{"key":"2601","name":"District de Delémont"},"canton":{"key":"26","code":"JU","name":"Jura"},"status":"Real"},{"key":"10084003","name":"Rue Abbé Grégoire-Joliat","postalCode":"2852","locality":"Courtételle","commune":{"key":"6710","name":"Courtételle","shortName":"Courtételle"},"district":{"key":"2601","name":"District de Delémont"},"canton":{"key":"26","code":"JU","name":"Jura"},"status":"Real"},{"key":"10053612","name":"Rue de la Colonie","postalCode":"2852","locality":"Courtételle","commune":{"key":"6710","name":"Courtételle","shortName":"Courtételle"},"district":{"key":"2601","name":"District de Delémont"},"canton":{"key":"26","code":"JU","name":"Jura"},"status":"Real"},{"key":"10183691","name":"Rue de la Forge","postalCode":"2852","locality":"Courtételle","commune":{"key":"6710","name":"Courtételle","shortName":"Courtételle"},"district":{"key":"2601","name":"District de Delémont"},"canton":{"key":"26","code":"JU","name":"Jura"},"status":"Real"},{"key":"10139113","name":"Rue de la Penesse","postalCode":"2852","locality":"Courtételle","commune":{"key":"6710","name":"Courtételle","shortName":"Courtételle"},"district":{"key":"2601","name":"District de Delémont"},"canton":{"key":"26","code":"JU","name":"Jura"},"status":"Real"},{"key":"10053621","name":"Rue de la Revatte","postalCode":"2852","locality":"Courtételle","commune":{"key":"6710","name":"Courtételle","shortName":"Courtételle"},"district":{"key":"2601","name":"District de Delémont"},"canton":{"key":"26","code":"JU","name":"Jura"},"status":"Real"},{"key":"10100168","name":"Rue de la Sorne","postalCode":"2852","locality":"Courtételle","commune":{"key":"6710","name":"Courtételle","shortName":"Courtételle"},"district":{"key":"2601","name":"District de Delémont"},"canton":{"key":"26","code":"JU","name":"Jura"},"status":"Real"},{"key":"10082944","name":"Rue de la Tuilerie","postalCode":"2852","locality":"Courtételle","commune":{"key":"6710","name":"Courtételle","shortName":"Courtételle"},"district":{"key":"2601","name":"District de Delémont"},"canton":{"key":"26","code":"JU","name":"Jura"},"status":"Real"},{"key":"10084004","name":"Rue de l'Avenir","postalCode":"2852","locality":"Courtételle","commune":{"key":"6710","name":"Courtételle","shortName":"Courtételle"},"district":{"key":"2601","name":"District de Delémont"},"canton":{"key":"26","code":"JU","name":"Jura"},"status":"Real"},{"key":"10053620","name":"Rue de l'Eglise","postalCode":"2852","locality":"Courtételle","commune":{"key":"6710","name":"Courtételle","shortName":"Courtételle"},"district":{"key":"2601","name":"District de Delémont"},"canton":{"key":"26","code":"JU","name":"Jura"},"status":"Real"},{"key":"10053900","name":"Rue des Chênes","postalCode":"2852","locality":"Courtételle","commune":{"key":"6710","name":"Courtételle","shortName":"Courtételle"},"district":{"key":"2601","name":"District de Delémont"},"canton":{"key":"26","code":"JU","name":"Jura"},"status":"Real"},{"key":"10100165","name":"Rue des Chenevières","postalCode":"2852","locality":"Courtételle","commune":{"key":"6710","name":"Courtételle","shortName":"Courtételle"},"district":{"key":"2601","name":"District de Delémont"},"canton":{"key":"26","code":"JU","name":"Jura"},"status":"Real"},{"key":"10082945","name":"Rue des Condemennes","postalCode":"2852","locality":"Courtételle","commune":{"key":"6710","name":"Courtételle","shortName":"Courtételle"},"district":{"key":"2601","name":"District de Delémont"},"canton":{"key":"26","code":"JU","name":"Jura"},"status":"Real"},{"key":"10082943","name":"Rue des Noisetiers","postalCode":"2852","locality":"Courtételle","commune":{"key":"6710","name":"Courtételle","shortName":"Courtételle"},"district":{"key":"2601","name":"District de Delémont"},"canton":{"key":"26","code":"JU","name":"Jura"},"status":"Real"},{"key":"10136210","name":"Rue des Vergers","postalCode":"2852","locality":"Courtételle","commune":{"key":"6710","name":"Courtételle","shortName":"Courtételle"},"district":{"key":"2601","name":"District de Delémont"},"canton":{"key":"26","code":"JU","name":"Jura"},"status":"Real"},{"key":"10100169","name":"Rue du Chéfal","postalCode":"2852","locality":"Courtételle","commune":{"key":"6710","name":"Courtételle","shortName":"Courtételle"},"district":{"key":"2601","name":"District de Delémont"},"canton":{"key":"26","code":"JU","name":"Jura"},"status":"Real"},{"key":"10053901","name":"Rue du Clô-Belat","postalCode":"2852","locality":"Courtételle","commune":{"key":"6710","name":"Courtételle","shortName":"Courtételle"},"district":{"key":"2601","name":"District de Delémont"},"canton":{"key":"26","code":"JU","name":"Jura"},"status":"Real"},{"key":"10053614","name":"Rue du Cornat","postalCode":"2852","locality":"Courtételle","commune":{"key":"6710","name":"Courtételle","shortName":"Courtételle"},"district":{"key":"2601","name":"District de Delémont"},"canton":{"key":"26","code":"JU","name":"Jura"},"status":"Real"},{"key":"10183461","name":"Rue du Mont","postalCode":"2852","locality":"Courtételle","commune":{"key":"6710","name":"Courtételle","shortName":"Courtételle"},"district":{"key":"2601","name":"District de Delémont"},"canton":{"key":"26","code":"JU","name":"Jura"},"status":"Real"},{"key":"10100170","name":"Rue du Vieux-Moulin","postalCode":"2852","locality":"Courtételle","commune":{"key":"6710","name":"Courtételle","shortName":"Courtételle"},"district":{"key":"2601","name":"District de Delémont"},"canton":{"key":"26","code":"JU","name":"Jura"},"status":"Real"},{"key":"10053616","name":"Rue Emile-Sanglard","postalCode":"2852","locality":"Courtételle","commune":{"key":"6710","name":"Courtételle","shortName":"Courtételle"},"district":{"key":"2601","name":"District de Delémont"},"canton":{"key":"26","code":"JU","name":"Jura"},"status":"Real"},{"key":"10156279","name":"Rue La Rosière","postalCode":"2852","locality":"Courtételle","commune":{"key":"6710","name":"Courtételle","shortName":"Courtételle"},"district":{"key":"2601","name":"District de Delémont"},"canton":{"key":"26","code":"JU","name":"Jura"},"status":"Real"},{"key":"10100166","name":"Rue Préfet Comte","postalCode":"2852","locality":"Courtételle","commune":{"key":"6710","name":"Courtételle","shortName":"Courtételle"},"district":{"key":"2601","name":"District de Delémont"},"canton":{"key":"26","code":"JU","name":"Jura"},"status":"Real"},{"key":"10053617","name":"Rue Rambévaux","postalCode":"2852","locality":"Courtételle","commune":{"key":"6710","name":"Courtételle","shortName":"Courtételle"},"district":{"key":"2601","name":"District de Delémont"},"canton":{"key":"26","code":"JU","name":"Jura"},"status":"Real"},{"key":"10053618","name":"Rue Saint-Germain","postalCode":"2852","locality":"Courtételle","commune":{"key":"6710","name":"Courtételle","shortName":"Courtételle"},"district":{"key":"2601","name":"District de Delémont"},"canton":{"key":"26","code":"JU","name":"Jura"},"status":"Real"},{"key":"10100167","name":"Rue Saint-Maurice","postalCode":"2852","locality":"Courtételle","commune":{"key":"6710","name":"Courtételle","shortName":"Courtételle"},"district":{"key":"2601","name":"District de Delémont"},"canton":{"key":"26","code":"JU","name":"Jura"},"status":"Real"},{"key":"10053619","name":"Rue Saint-Randoald","postalCode":"2852","locality":"Courtételle","commune":{"key":"6710","name":"Courtételle","shortName":"Courtételle"},"district":{"key":"2601","name":"District de Delémont"},"canton":{"key":"26","code":"JU","name":"Jura"},"status":"Real"},]