[{"key":"10186547","name":"Alemannenweg","postalCode":"4324","locality":"Obermumpf","commune":{"key":"4256","name":"Obermumpf","shortName":"Obermumpf"},"district":{"key":"1909","name":"Bezirk Rheinfelden"},"canton":{"key":"19","code":"AG","name":"Aargau"},"status":"Real"},{"key":"10111076","name":"Am Bach","postalCode":"4324","locality":"Obermumpf","commune":{"key":"4256","name":"Obermumpf","shortName":"Obermumpf"},"district":{"key":"1909","name":"Bezirk Rheinfelden"},"canton":{"key":"19","code":"AG","name":"Aargau"},"status":"Real"},{"key":"10038439","name":"Angerwegli","postalCode":"4324","locality":"Obermumpf","commune":{"key":"4256","name":"Obermumpf","shortName":"Obermumpf"},"district":{"key":"1909","name":"Bezirk Rheinfelden"},"canton":{"key":"19","code":"AG","name":"Aargau"},"status":"Real"},{"key":"10074269","name":"Ausserdorf","postalCode":"4324","locality":"Obermumpf","commune":{"key":"4256","name":"Obermumpf","shortName":"Obermumpf"},"district":{"key":"1909","name":"Bezirk Rheinfelden"},"canton":{"key":"19","code":"AG","name":"Aargau"},"status":"Real"},{"key":"10182801","name":"Baumgarten","postalCode":"4324","locality":"Obermumpf","commune":{"key":"4256","name":"Obermumpf","shortName":"Obermumpf"},"district":{"key":"1909","name":"Bezirk Rheinfelden"},"canton":{"key":"19","code":"AG","name":"Aargau"},"status":"Real"},{"key":"10095302","name":"Berm","postalCode":"4324","locality":"Obermumpf","commune":{"key":"4256","name":"Obermumpf","shortName":"Obermumpf"},"district":{"key":"1909","name":"Bezirk Rheinfelden"},"canton":{"key":"19","code":"AG","name":"Aargau"},"status":"Real"},{"key":"10074270","name":"Bingert","postalCode":"4324","locality":"Obermumpf","commune":{"key":"4256","name":"Obermumpf","shortName":"Obermumpf"},"district":{"key":"1909","name":"Bezirk Rheinfelden"},"canton":{"key":"19","code":"AG","name":"Aargau"},"status":"Real"},{"key":"10098187","name":"Breitenhof","postalCode":"4324","locality":"Obermumpf","commune":{"key":"4256","name":"Obermumpf","shortName":"Obermumpf"},"district":{"key":"1909","name":"Bezirk Rheinfelden"},"canton":{"key":"19","code":"AG","name":"Aargau"},"status":"Real"},{"key":"10095303","name":"Brunnacher","postalCode":"4324","locality":"Obermumpf","commune":{"key":"4256","name":"Obermumpf","shortName":"Obermumpf"},"district":{"key":"1909","name":"Bezirk Rheinfelden"},"canton":{"key":"19","code":"AG","name":"Aargau"},"status":"Real"},{"key":"10182802","name":"Buebletenhof","postalCode":"4324","locality":"Obermumpf","commune":{"key":"4256","name":"Obermumpf","shortName":"Obermumpf"},"district":{"key":"1909","name":"Bezirk Rheinfelden"},"canton":{"key":"19","code":"AG","name":"Aargau"},"status":"Real"},{"key":"10111213","name":"Bündtenmatt","postalCode":"4324","locality":"Obermumpf","commune":{"key":"4256","name":"Obermumpf","shortName":"Obermumpf"},"district":{"key":"1909","name":"Bezirk Rheinfelden"},"canton":{"key":"19","code":"AG","name":"Aargau"},"status":"Real"},{"key":"10239503","name":"Bündtetal","postalCode":"4324","locality":"Obermumpf","commune":{"key":"4256","name":"Obermumpf","shortName":"Obermumpf"},"district":{"key":"1909","name":"Bezirk Rheinfelden"},"canton":{"key":"19","code":"AG","name":"Aargau"},"status":"Real"},{"key":"10038440","name":"Bündtetalweg","postalCode":"4324","locality":"Obermumpf","commune":{"key":"4256","name":"Obermumpf","shortName":"Obermumpf"},"district":{"key":"1909","name":"Bezirk Rheinfelden"},"canton":{"key":"19","code":"AG","name":"Aargau"},"status":"Real"},{"key":"10239507","name":"Chilacherweg","postalCode":"4324","locality":"Obermumpf","commune":{"key":"4256","name":"Obermumpf","shortName":"Obermumpf"},"district":{"key":"1909","name":"Bezirk Rheinfelden"},"canton":{"key":"19","code":"AG","name":"Aargau"},"status":"Real"},{"key":"10183787","name":"Cholgruebe","postalCode":"4324","locality":"Obermumpf","commune":{"key":"4256","name":"Obermumpf","shortName":"Obermumpf"},"district":{"key":"1909","name":"Bezirk Rheinfelden"},"canton":{"key":"19","code":"AG","name":"Aargau"},"status":"Real"},{"key":"10095304","name":"Ebnethof","postalCode":"4324","locality":"Obermumpf","commune":{"key":"4256","name":"Obermumpf","shortName":"Obermumpf"},"district":{"key":"1909","name":"Bezirk Rheinfelden"},"canton":{"key":"19","code":"AG","name":"Aargau"},"status":"Real"},{"key":"10038441","name":"Fluhweg","postalCode":"4324","locality":"Obermumpf","commune":{"key":"4256","name":"Obermumpf","shortName":"Obermumpf"},"district":{"key":"1909","name":"Bezirk Rheinfelden"},"canton":{"key":"19","code":"AG","name":"Aargau"},"status":"Real"},{"key":"10074271","name":"Grundgasse","postalCode":"4324","locality":"Obermumpf","commune":{"key":"4256","name":"Obermumpf","shortName":"Obermumpf"},"district":{"key":"1909","name":"Bezirk Rheinfelden"},"canton":{"key":"19","code":"AG","name":"Aargau"},"status":"Real"},{"key":"10038442","name":"Hauptstrasse","postalCode":"4324","locality":"Obermumpf","commune":{"key":"4256","name":"Obermumpf","shortName":"Obermumpf"},"district":{"key":"1909","name":"Bezirk Rheinfelden"},"canton":{"key":"19","code":"AG","name":"Aargau"},"status":"Real"},{"key":"10111077","name":"Hinterdorf","postalCode":"4324","locality":"Obermumpf","commune":{"key":"4256","name":"Obermumpf","shortName":"Obermumpf"},"district":{"key":"1909","name":"Bezirk Rheinfelden"},"canton":{"key":"19","code":"AG","name":"Aargau"},"status":"Real"},{"key":"10095305","name":"Hofnet","postalCode":"4324","locality":"Obermumpf","commune":{"key":"4256","name":"Obermumpf","shortName":"Obermumpf"},"district":{"key":"1909","name":"Bezirk Rheinfelden"},"canton":{"key":"19","code":"AG","name":"Aargau"},"status":"Real"},{"key":"10173314","name":"Hof zur Kürze","postalCode":"4324","locality":"Obermumpf","commune":{"key":"4256","name":"Obermumpf","shortName":"Obermumpf"},"district":{"key":"1909","name":"Bezirk Rheinfelden"},"canton":{"key":"19","code":"AG","name":"Aargau"},"status":"Real"},{"key":"10038443","name":"Im Anger","postalCode":"4324","locality":"Obermumpf","commune":{"key":"4256","name":"Obermumpf","shortName":"Obermumpf"},"district":{"key":"1909","name":"Bezirk Rheinfelden"},"canton":{"key":"19","code":"AG","name":"Aargau"},"status":"Real"},{"key":"10056623","name":"In den Reben","postalCode":"4324","locality":"Obermumpf","commune":{"key":"4256","name":"Obermumpf","shortName":"Obermumpf"},"district":{"key":"1909","name":"Bezirk Rheinfelden"},"canton":{"key":"19","code":"AG","name":"Aargau"},"status":"Real"},{"key":"10074272","name":"Juchstrasse","postalCode":"4324","locality":"Obermumpf","commune":{"key":"4256","name":"Obermumpf","shortName":"Obermumpf"},"district":{"key":"1909","name":"Bezirk Rheinfelden"},"canton":{"key":"19","code":"AG","name":"Aargau"},"status":"Real"},{"key":"10038444","name":"Kirchgasse","postalCode":"4324","locality":"Obermumpf","commune":{"key":"4256","name":"Obermumpf","shortName":"Obermumpf"},"district":{"key":"1909","name":"Bezirk Rheinfelden"},"canton":{"key":"19","code":"AG","name":"Aargau"},"status":"Real"},{"key":"10038445","name":"Laibich","postalCode":"4324","locality":"Obermumpf","commune":{"key":"4256","name":"Obermumpf","shortName":"Obermumpf"},"district":{"key":"1909","name":"Bezirk Rheinfelden"},"canton":{"key":"19","code":"AG","name":"Aargau"},"status":"Real"},{"key":"10038446","name":"Leim","postalCode":"4324","locality":"Obermumpf","commune":{"key":"4256","name":"Obermumpf","shortName":"Obermumpf"},"district":{"key":"1909","name":"Bezirk Rheinfelden"},"canton":{"key":"19","code":"AG","name":"Aargau"},"status":"Real"},{"key":"10116135","name":"Leueren","postalCode":"4324","locality":"Obermumpf","commune":{"key":"4256","name":"Obermumpf","shortName":"Obermumpf"},"district":{"key":"1909","name":"Bezirk Rheinfelden"},"canton":{"key":"19","code":"AG","name":"Aargau"},"status":"Real"},{"key":"10182803","name":"Moosmet","postalCode":"4324","locality":"Obermumpf","commune":{"key":"4256","name":"Obermumpf","shortName":"Obermumpf"},"district":{"key":"1909","name":"Bezirk Rheinfelden"},"canton":{"key":"19","code":"AG","name":"Aargau"},"status":"Real"},{"key":"10074273","name":"Mühlacker","postalCode":"4324","locality":"Obermumpf","commune":{"key":"4256","name":"Obermumpf","shortName":"Obermumpf"},"district":{"key":"1909","name":"Bezirk Rheinfelden"},"canton":{"key":"19","code":"AG","name":"Aargau"},"status":"Real"},{"key":"10038447","name":"Mühliweg","postalCode":"4324","locality":"Obermumpf","commune":{"key":"4256","name":"Obermumpf","shortName":"Obermumpf"},"district":{"key":"1909","name":"Bezirk Rheinfelden"},"canton":{"key":"19","code":"AG","name":"Aargau"},"status":"Real"},{"key":"10117476","name":"Neumatt","postalCode":"4324","locality":"Obermumpf","commune":{"key":"4256","name":"Obermumpf","shortName":"Obermumpf"},"district":{"key":"1909","name":"Bezirk Rheinfelden"},"canton":{"key":"19","code":"AG","name":"Aargau"},"status":"Real"},{"key":"10111214","name":"Oberdorf","postalCode":"4324","locality":"Obermumpf","commune":{"key":"4256","name":"Obermumpf","shortName":"Obermumpf"},"district":{"key":"1909","name":"Bezirk Rheinfelden"},"canton":{"key":"19","code":"AG","name":"Aargau"},"status":"Real"},{"key":"10239511","name":"Ortsverbindung","postalCode":"4324","locality":"Obermumpf","commune":{"key":"4256","name":"Obermumpf","shortName":"Obermumpf"},"district":{"key":"1909","name":"Bezirk Rheinfelden"},"canton":{"key":"19","code":"AG","name":"Aargau"},"status":"Real"},{"key":"10038448","name":"Rank","postalCode":"4324","locality":"Obermumpf","commune":{"key":"4256","name":"Obermumpf","shortName":"Obermumpf"},"district":{"key":"1909","name":"Bezirk Rheinfelden"},"canton":{"key":"19","code":"AG","name":"Aargau"},"status":"Real"},{"key":"10038449","name":"Rüttiweg","postalCode":"4324","locality":"Obermumpf","commune":{"key":"4256","name":"Obermumpf","shortName":"Obermumpf"},"district":{"key":"1909","name":"Bezirk Rheinfelden"},"canton":{"key":"19","code":"AG","name":"Aargau"},"status":"Real"},{"key":"10074274","name":"Schloss","postalCode":"4324","locality":"Obermumpf","commune":{"key":"4256","name":"Obermumpf","shortName":"Obermumpf"},"district":{"key":"1909","name":"Bezirk Rheinfelden"},"canton":{"key":"19","code":"AG","name":"Aargau"},"status":"Real"},{"key":"10038450","name":"Schlossrain","postalCode":"4324","locality":"Obermumpf","commune":{"key":"4256","name":"Obermumpf","shortName":"Obermumpf"},"district":{"key":"1909","name":"Bezirk Rheinfelden"},"canton":{"key":"19","code":"AG","name":"Aargau"},"status":"Real"},{"key":"10095306","name":"Studenmatt","postalCode":"4324","locality":"Obermumpf","commune":{"key":"4256","name":"Obermumpf","shortName":"Obermumpf"},"district":{"key":"1909","name":"Bezirk Rheinfelden"},"canton":{"key":"19","code":"AG","name":"Aargau"},"status":"Real"},{"key":"10074275","name":"Tal","postalCode":"4324","locality":"Obermumpf","commune":{"key":"4256","name":"Obermumpf","shortName":"Obermumpf"},"district":{"key":"1909","name":"Bezirk Rheinfelden"},"canton":{"key":"19","code":"AG","name":"Aargau"},"status":"Real"},{"key":"10134725","name":"Talweg","postalCode":"4324","locality":"Obermumpf","commune":{"key":"4256","name":"Obermumpf","shortName":"Obermumpf"},"district":{"key":"1909","name":"Bezirk Rheinfelden"},"canton":{"key":"19","code":"AG","name":"Aargau"},"status":"Real"},{"key":"10182804","name":"Trommlestenweg","postalCode":"4324","locality":"Obermumpf","commune":{"key":"4256","name":"Obermumpf","shortName":"Obermumpf"},"district":{"key":"1909","name":"Bezirk Rheinfelden"},"canton":{"key":"19","code":"AG","name":"Aargau"},"status":"Real"},{"key":"10056624","name":"Undlesten","postalCode":"4324","locality":"Obermumpf","commune":{"key":"4256","name":"Obermumpf","shortName":"Obermumpf"},"district":{"key":"1909","name":"Bezirk Rheinfelden"},"canton":{"key":"19","code":"AG","name":"Aargau"},"status":"Real"},{"key":"10074276","name":"Unterdorf","postalCode":"4324","locality":"Obermumpf","commune":{"key":"4256","name":"Obermumpf","shortName":"Obermumpf"},"district":{"key":"1909","name":"Bezirk Rheinfelden"},"canton":{"key":"19","code":"AG","name":"Aargau"},"status":"Real"},{"key":"10155877","name":"Untere Moosmet","postalCode":"4324","locality":"Obermumpf","commune":{"key":"4256","name":"Obermumpf","shortName":"Obermumpf"},"district":{"key":"1909","name":"Bezirk Rheinfelden"},"canton":{"key":"19","code":"AG","name":"Aargau"},"status":"Real"},{"key":"10095307","name":"Unterer Bingert","postalCode":"4324","locality":"Obermumpf","commune":{"key":"4256","name":"Obermumpf","shortName":"Obermumpf"},"district":{"key":"1909","name":"Bezirk Rheinfelden"},"canton":{"key":"19","code":"AG","name":"Aargau"},"status":"Real"},{"key":"10038730","name":"Vorstadt","postalCode":"4324","locality":"Obermumpf","commune":{"key":"4256","name":"Obermumpf","shortName":"Obermumpf"},"district":{"key":"1909","name":"Bezirk Rheinfelden"},"canton":{"key":"19","code":"AG","name":"Aargau"},"status":"Real"},{"key":"10074277","name":"Winkel","postalCode":"4324","locality":"Obermumpf","commune":{"key":"4256","name":"Obermumpf","shortName":"Obermumpf"},"district":{"key":"1909","name":"Bezirk Rheinfelden"},"canton":{"key":"19","code":"AG","name":"Aargau"},"status":"Real"},]