[{"name":"Altbauernstr.","postalCode":"17166","locality":"Alt Sührkow","municipality":{"key":"13072003","name":"Alt Sührkow","type":"Kreisangehörige_Gemeinde"},"district":{"key":"13072","name":"Landkreis Rostock","type":"Landkreis"},"federalState":{"key":"13","name":"Mecklenburg-Vorpommern"}},{"name":"An der Kirche","postalCode":"17166","locality":"Alt Sührkow","municipality":{"key":"13072003","name":"Alt Sührkow","type":"Kreisangehörige_Gemeinde"},"district":{"key":"13072","name":"Landkreis Rostock","type":"Landkreis"},"federalState":{"key":"13","name":"Mecklenburg-Vorpommern"}},{"name":"Auf dem Hof","postalCode":"17166","locality":"Alt Sührkow","municipality":{"key":"13072003","name":"Alt Sührkow","type":"Kreisangehörige_Gemeinde"},"district":{"key":"13072","name":"Landkreis Rostock","type":"Landkreis"},"federalState":{"key":"13","name":"Mecklenburg-Vorpommern"}},{"name":"Bahnhofsweg","postalCode":"17166","locality":"Alt Sührkow","municipality":{"key":"13072003","name":"Alt Sührkow","type":"Kreisangehörige_Gemeinde"},"district":{"key":"13072","name":"Landkreis Rostock","type":"Landkreis"},"federalState":{"key":"13","name":"Mecklenburg-Vorpommern"}},{"name":"Dorfstr.","postalCode":"17166","locality":"Alt Sührkow","municipality":{"key":"13072003","name":"Alt Sührkow","type":"Kreisangehörige_Gemeinde"},"district":{"key":"13072","name":"Landkreis Rostock","type":"Landkreis"},"federalState":{"key":"13","name":"Mecklenburg-Vorpommern"}},{"name":"Eichenweg","postalCode":"17166","locality":"Alt Sührkow","municipality":{"key":"13072003","name":"Alt Sührkow","type":"Kreisangehörige_Gemeinde"},"district":{"key":"13072","name":"Landkreis Rostock","type":"Landkreis"},"federalState":{"key":"13","name":"Mecklenburg-Vorpommern"}},{"name":"Heckenweg","postalCode":"17166","locality":"Alt Sührkow","municipality":{"key":"13072003","name":"Alt Sührkow","type":"Kreisangehörige_Gemeinde"},"district":{"key":"13072","name":"Landkreis Rostock","type":"Landkreis"},"federalState":{"key":"13","name":"Mecklenburg-Vorpommern"}},{"name":"Lindenweg","postalCode":"17166","locality":"Alt Sührkow","municipality":{"key":"13072003","name":"Alt Sührkow","type":"Kreisangehörige_Gemeinde"},"district":{"key":"13072","name":"Landkreis Rostock","type":"Landkreis"},"federalState":{"key":"13","name":"Mecklenburg-Vorpommern"}},{"name":"Neu-Sührkow","postalCode":"17166","locality":"Alt Sührkow","municipality":{"key":"13072003","name":"Alt Sührkow","type":"Kreisangehörige_Gemeinde"},"district":{"key":"13072","name":"Landkreis Rostock","type":"Landkreis"},"federalState":{"key":"13","name":"Mecklenburg-Vorpommern"}},{"name":"Parkweg","postalCode":"17166","locality":"Alt Sührkow","municipality":{"key":"13072003","name":"Alt Sührkow","type":"Kreisangehörige_Gemeinde"},"district":{"key":"13072","name":"Landkreis Rostock","type":"Landkreis"},"federalState":{"key":"13","name":"Mecklenburg-Vorpommern"}},{"name":"Pohnstorf","postalCode":"17166","locality":"Alt Sührkow","municipality":{"key":"13072003","name":"Alt Sührkow","type":"Kreisangehörige_Gemeinde"},"district":{"key":"13072","name":"Landkreis Rostock","type":"Landkreis"},"federalState":{"key":"13","name":"Mecklenburg-Vorpommern"}},{"name":"Schloßstr.","postalCode":"17166","locality":"Alt Sührkow","municipality":{"key":"13072003","name":"Alt Sührkow","type":"Kreisangehörige_Gemeinde"},"district":{"key":"13072","name":"Landkreis Rostock","type":"Landkreis"},"federalState":{"key":"13","name":"Mecklenburg-Vorpommern"}},{"name":"Schulstr.","postalCode":"17166","locality":"Alt Sührkow","municipality":{"key":"13072003","name":"Alt Sührkow","type":"Kreisangehörige_Gemeinde"},"district":{"key":"13072","name":"Landkreis Rostock","type":"Landkreis"},"federalState":{"key":"13","name":"Mecklenburg-Vorpommern"}},{"name":"Zu den Feseltannen","postalCode":"17166","locality":"Alt Sührkow","municipality":{"key":"13072003","name":"Alt Sührkow","type":"Kreisangehörige_Gemeinde"},"district":{"key":"13072","name":"Landkreis Rostock","type":"Landkreis"},"federalState":{"key":"13","name":"Mecklenburg-Vorpommern"}},]