[{"name":"Am Buchanger","postalCode":"95509","locality":"Marktschorgast","municipality":{"key":"09477139","name":"Marktschorgast, M","type":"Markt"},"district":{"key":"09477","name":"Kulmbach","type":"Landkreis"},"federalState":{"key":"09","name":"Bayern"}},{"name":"Am Gehege","postalCode":"95509","locality":"Marktschorgast","municipality":{"key":"09477139","name":"Marktschorgast, M","type":"Markt"},"district":{"key":"09477","name":"Kulmbach","type":"Landkreis"},"federalState":{"key":"09","name":"Bayern"}},{"name":"Am Herrnberg","postalCode":"95509","locality":"Marktschorgast","municipality":{"key":"09477139","name":"Marktschorgast, M","type":"Markt"},"district":{"key":"09477","name":"Kulmbach","type":"Landkreis"},"federalState":{"key":"09","name":"Bayern"}},{"name":"Am Sportplatz","postalCode":"95509","locality":"Marktschorgast","municipality":{"key":"09477139","name":"Marktschorgast, M","type":"Markt"},"district":{"key":"09477","name":"Kulmbach","type":"Landkreis"},"federalState":{"key":"09","name":"Bayern"}},{"name":"Am Steinhügel","postalCode":"95509","locality":"Marktschorgast","municipality":{"key":"09477139","name":"Marktschorgast, M","type":"Markt"},"district":{"key":"09477","name":"Kulmbach","type":"Landkreis"},"federalState":{"key":"09","name":"Bayern"}},{"name":"Bahnhofstr.","postalCode":"95509","locality":"Marktschorgast","municipality":{"key":"09477139","name":"Marktschorgast, M","type":"Markt"},"district":{"key":"09477","name":"Kulmbach","type":"Landkreis"},"federalState":{"key":"09","name":"Bayern"}},{"name":"Bernecker Str.","postalCode":"95509","locality":"Marktschorgast","municipality":{"key":"09477139","name":"Marktschorgast, M","type":"Markt"},"district":{"key":"09477","name":"Kulmbach","type":"Landkreis"},"federalState":{"key":"09","name":"Bayern"}},{"name":"Caspar-Fischer-Str.","postalCode":"95326","locality":"Kulmbach","municipality":{"key":"09477128","name":"Kulmbach, GKSt","type":"Große_Kreisstadt"},"district":{"key":"09477","name":"Kulmbach","type":"Landkreis"},"federalState":{"key":"09","name":"Bayern"}},{"name":"Christian-Pertsch-Str.","postalCode":"95326","locality":"Kulmbach","municipality":{"key":"09477128","name":"Kulmbach, GKSt","type":"Große_Kreisstadt"},"district":{"key":"09477","name":"Kulmbach","type":"Landkreis"},"federalState":{"key":"09","name":"Bayern"}},{"name":"Dahlienweg","postalCode":"95326","locality":"Kulmbach","municipality":{"key":"09477128","name":"Kulmbach, GKSt","type":"Große_Kreisstadt"},"district":{"key":"09477","name":"Kulmbach","type":"Landkreis"},"federalState":{"key":"09","name":"Bayern"}},{"name":"Danziger Weg","postalCode":"95326","locality":"Kulmbach","municipality":{"key":"09477128","name":"Kulmbach, GKSt","type":"Große_Kreisstadt"},"district":{"key":"09477","name":"Kulmbach","type":"Landkreis"},"federalState":{"key":"09","name":"Bayern"}},{"name":"Dobrachstr.","postalCode":"95326","locality":"Kulmbach","municipality":{"key":"09477128","name":"Kulmbach, GKSt","type":"Große_Kreisstadt"},"district":{"key":"09477","name":"Kulmbach","type":"Landkreis"},"federalState":{"key":"09","name":"Bayern"}},{"name":"Donnersreuth","postalCode":"95326","locality":"Kulmbach","municipality":{"key":"09477128","name":"Kulmbach, GKSt","type":"Große_Kreisstadt"},"district":{"key":"09477","name":"Kulmbach","type":"Landkreis"},"federalState":{"key":"09","name":"Bayern"}},{"name":"Donnersreuther Weg","postalCode":"95326","locality":"Kulmbach","municipality":{"key":"09477128","name":"Kulmbach, GKSt","type":"Große_Kreisstadt"},"district":{"key":"09477","name":"Kulmbach","type":"Landkreis"},"federalState":{"key":"09","name":"Bayern"}},{"name":"Dorfberg","postalCode":"95326","locality":"Kulmbach","municipality":{"key":"09477128","name":"Kulmbach, GKSt","type":"Große_Kreisstadt"},"district":{"key":"09477","name":"Kulmbach","type":"Landkreis"},"federalState":{"key":"09","name":"Bayern"}},{"name":"Dreibrunnenweg","postalCode":"95326","locality":"Kulmbach","municipality":{"key":"09477128","name":"Kulmbach, GKSt","type":"Große_Kreisstadt"},"district":{"key":"09477","name":"Kulmbach","type":"Landkreis"},"federalState":{"key":"09","name":"Bayern"}},{"name":"Dr.-Martin-Luther-Str.","postalCode":"95326","locality":"Kulmbach","municipality":{"key":"09477128","name":"Kulmbach, GKSt","type":"Große_Kreisstadt"},"district":{"key":"09477","name":"Kulmbach","type":"Landkreis"},"federalState":{"key":"09","name":"Bayern"}},{"name":"E.-C.-Baumann-Str.","postalCode":"95326","locality":"Kulmbach","municipality":{"key":"09477128","name":"Kulmbach, GKSt","type":"Große_Kreisstadt"},"district":{"key":"09477","name":"Kulmbach","type":"Landkreis"},"federalState":{"key":"09","name":"Bayern"}},{"name":"Egerer Weg","postalCode":"95326","locality":"Kulmbach","municipality":{"key":"09477128","name":"Kulmbach, GKSt","type":"Große_Kreisstadt"},"district":{"key":"09477","name":"Kulmbach","type":"Landkreis"},"federalState":{"key":"09","name":"Bayern"}},{"name":"Eichenstr.","postalCode":"95326","locality":"Kulmbach","municipality":{"key":"09477128","name":"Kulmbach, GKSt","type":"Große_Kreisstadt"},"district":{"key":"09477","name":"Kulmbach","type":"Landkreis"},"federalState":{"key":"09","name":"Bayern"}},{"name":"EKU-Str.","postalCode":"95326","locality":"Kulmbach","municipality":{"key":"09477128","name":"Kulmbach, GKSt","type":"Große_Kreisstadt"},"district":{"key":"09477","name":"Kulmbach","type":"Landkreis"},"federalState":{"key":"09","name":"Bayern"}},{"name":"Erlenweg","postalCode":"95326","locality":"Kulmbach","municipality":{"key":"09477128","name":"Kulmbach, GKSt","type":"Große_Kreisstadt"},"district":{"key":"09477","name":"Kulmbach","type":"Landkreis"},"federalState":{"key":"09","name":"Bayern"}},{"name":"Ernteweg","postalCode":"95326","locality":"Kulmbach","municipality":{"key":"09477128","name":"Kulmbach, GKSt","type":"Große_Kreisstadt"},"district":{"key":"09477","name":"Kulmbach","type":"Landkreis"},"federalState":{"key":"09","name":"Bayern"}},{"name":"Eschenweg","postalCode":"95326","locality":"Kulmbach","municipality":{"key":"09477128","name":"Kulmbach, GKSt","type":"Große_Kreisstadt"},"district":{"key":"09477","name":"Kulmbach","type":"Landkreis"},"federalState":{"key":"09","name":"Bayern"}},{"name":"Friedhofsstr.","postalCode":"95509","locality":"Marktschorgast","municipality":{"key":"09477139","name":"Marktschorgast, M","type":"Markt"},"district":{"key":"09477","name":"Kulmbach","type":"Landkreis"},"federalState":{"key":"09","name":"Bayern"}},{"name":"Gefreeser Str.","postalCode":"95509","locality":"Marktschorgast","municipality":{"key":"09477139","name":"Marktschorgast, M","type":"Markt"},"district":{"key":"09477","name":"Kulmbach","type":"Landkreis"},"federalState":{"key":"09","name":"Bayern"}},{"name":"Grundmühlstr.","postalCode":"95509","locality":"Marktschorgast","municipality":{"key":"09477139","name":"Marktschorgast, M","type":"Markt"},"district":{"key":"09477","name":"Kulmbach","type":"Landkreis"},"federalState":{"key":"09","name":"Bayern"}},{"name":"Hinterer Markt","postalCode":"95509","locality":"Marktschorgast","municipality":{"key":"09477139","name":"Marktschorgast, M","type":"Markt"},"district":{"key":"09477","name":"Kulmbach","type":"Landkreis"},"federalState":{"key":"09","name":"Bayern"}},{"name":"Höhenweg","postalCode":"95509","locality":"Marktschorgast","municipality":{"key":"09477139","name":"Marktschorgast, M","type":"Markt"},"district":{"key":"09477","name":"Kulmbach","type":"Landkreis"},"federalState":{"key":"09","name":"Bayern"}},{"name":"Hohl Gass","postalCode":"95509","locality":"Marktschorgast","municipality":{"key":"09477139","name":"Marktschorgast, M","type":"Markt"},"district":{"key":"09477","name":"Kulmbach","type":"Landkreis"},"federalState":{"key":"09","name":"Bayern"}},{"name":"Hollergasse","postalCode":"95509","locality":"Marktschorgast","municipality":{"key":"09477139","name":"Marktschorgast, M","type":"Markt"},"district":{"key":"09477","name":"Kulmbach","type":"Landkreis"},"federalState":{"key":"09","name":"Bayern"}},{"name":"Im Hühnert","postalCode":"95509","locality":"Marktschorgast","municipality":{"key":"09477139","name":"Marktschorgast, M","type":"Markt"},"district":{"key":"09477","name":"Kulmbach","type":"Landkreis"},"federalState":{"key":"09","name":"Bayern"}},{"name":"Jägerndorfer Str.","postalCode":"95326","locality":"Kulmbach","municipality":{"key":"09477128","name":"Kulmbach, GKSt","type":"Große_Kreisstadt"},"district":{"key":"09477","name":"Kulmbach","type":"Landkreis"},"federalState":{"key":"09","name":"Bayern"}},{"name":"Jean-Paul-Str.","postalCode":"95326","locality":"Kulmbach","municipality":{"key":"09477128","name":"Kulmbach, GKSt","type":"Große_Kreisstadt"},"district":{"key":"09477","name":"Kulmbach","type":"Landkreis"},"federalState":{"key":"09","name":"Bayern"}},{"name":"Joachimsthaler Weg","postalCode":"95326","locality":"Kulmbach","municipality":{"key":"09477128","name":"Kulmbach, GKSt","type":"Große_Kreisstadt"},"district":{"key":"09477","name":"Kulmbach","type":"Landkreis"},"federalState":{"key":"09","name":"Bayern"}},{"name":"Johann-Brenk-Str.","postalCode":"95326","locality":"Kulmbach","municipality":{"key":"09477128","name":"Kulmbach, GKSt","type":"Große_Kreisstadt"},"district":{"key":"09477","name":"Kulmbach","type":"Landkreis"},"federalState":{"key":"09","name":"Bayern"}},{"name":"Johann-Eck-Str.","postalCode":"95326","locality":"Kulmbach","municipality":{"key":"09477128","name":"Kulmbach, GKSt","type":"Große_Kreisstadt"},"district":{"key":"09477","name":"Kulmbach","type":"Landkreis"},"federalState":{"key":"09","name":"Bayern"}},{"name":"Johannesweg","postalCode":"95326","locality":"Kulmbach","municipality":{"key":"09477128","name":"Kulmbach, GKSt","type":"Große_Kreisstadt"},"district":{"key":"09477","name":"Kulmbach","type":"Landkreis"},"federalState":{"key":"09","name":"Bayern"}},{"name":"Johann-Völker-Str.","postalCode":"95326","locality":"Kulmbach","municipality":{"key":"09477128","name":"Kulmbach, GKSt","type":"Große_Kreisstadt"},"district":{"key":"09477","name":"Kulmbach","type":"Landkreis"},"federalState":{"key":"09","name":"Bayern"}},{"name":"Kapellenberg","postalCode":"95509","locality":"Marktschorgast","municipality":{"key":"09477139","name":"Marktschorgast, M","type":"Markt"},"district":{"key":"09477","name":"Kulmbach","type":"Landkreis"},"federalState":{"key":"09","name":"Bayern"}},{"name":"Kirchweg","postalCode":"95509","locality":"Marktschorgast","municipality":{"key":"09477139","name":"Marktschorgast, M","type":"Markt"},"district":{"key":"09477","name":"Kulmbach","type":"Landkreis"},"federalState":{"key":"09","name":"Bayern"}},{"name":"Kreuzweg","postalCode":"95509","locality":"Marktschorgast","municipality":{"key":"09477139","name":"Marktschorgast, M","type":"Markt"},"district":{"key":"09477","name":"Kulmbach","type":"Landkreis"},"federalState":{"key":"09","name":"Bayern"}},{"name":"Lärchenweg","postalCode":"95326","locality":"Kulmbach","municipality":{"key":"09477128","name":"Kulmbach, GKSt","type":"Große_Kreisstadt"},"district":{"key":"09477","name":"Kulmbach","type":"Landkreis"},"federalState":{"key":"09","name":"Bayern"}},{"name":"Lehental","postalCode":"95326","locality":"Kulmbach","municipality":{"key":"09477128","name":"Kulmbach, GKSt","type":"Große_Kreisstadt"},"district":{"key":"09477","name":"Kulmbach","type":"Landkreis"},"federalState":{"key":"09","name":"Bayern"}},{"name":"Lehenthal","postalCode":"95326","locality":"Kulmbach","municipality":{"key":"09477128","name":"Kulmbach, GKSt","type":"Große_Kreisstadt"},"district":{"key":"09477","name":"Kulmbach","type":"Landkreis"},"federalState":{"key":"09","name":"Bayern"}},{"name":"Lehenthaler Nußleite","postalCode":"95326","locality":"Kulmbach","municipality":{"key":"09477128","name":"Kulmbach, GKSt","type":"Große_Kreisstadt"},"district":{"key":"09477","name":"Kulmbach","type":"Landkreis"},"federalState":{"key":"09","name":"Bayern"}},{"name":"Leitenacker","postalCode":"95326","locality":"Kulmbach","municipality":{"key":"09477128","name":"Kulmbach, GKSt","type":"Große_Kreisstadt"},"district":{"key":"09477","name":"Kulmbach","type":"Landkreis"},"federalState":{"key":"09","name":"Bayern"}},{"name":"Leitenweg","postalCode":"95326","locality":"Kulmbach","municipality":{"key":"09477128","name":"Kulmbach, GKSt","type":"Große_Kreisstadt"},"district":{"key":"09477","name":"Kulmbach","type":"Landkreis"},"federalState":{"key":"09","name":"Bayern"}},{"name":"Leuchau","postalCode":"95326","locality":"Kulmbach","municipality":{"key":"09477128","name":"Kulmbach, GKSt","type":"Große_Kreisstadt"},"district":{"key":"09477","name":"Kulmbach","type":"Landkreis"},"federalState":{"key":"09","name":"Bayern"}},{"name":"Leuchauer Siedlung","postalCode":"95326","locality":"Kulmbach","municipality":{"key":"09477128","name":"Kulmbach, GKSt","type":"Große_Kreisstadt"},"district":{"key":"09477","name":"Kulmbach","type":"Landkreis"},"federalState":{"key":"09","name":"Bayern"}},{"name":"Leuchauer Str.","postalCode":"95326","locality":"Kulmbach","municipality":{"key":"09477128","name":"Kulmbach, GKSt","type":"Große_Kreisstadt"},"district":{"key":"09477","name":"Kulmbach","type":"Landkreis"},"federalState":{"key":"09","name":"Bayern"}},{"name":"Lichtenfelser Str.","postalCode":"95326","locality":"Kulmbach","municipality":{"key":"09477128","name":"Kulmbach, GKSt","type":"Große_Kreisstadt"},"district":{"key":"09477","name":"Kulmbach","type":"Landkreis"},"federalState":{"key":"09","name":"Bayern"}},{"name":"Liegnitzer Str.","postalCode":"95326","locality":"Kulmbach","municipality":{"key":"09477128","name":"Kulmbach, GKSt","type":"Große_Kreisstadt"},"district":{"key":"09477","name":"Kulmbach","type":"Landkreis"},"federalState":{"key":"09","name":"Bayern"}},{"name":"Lindauer Str.","postalCode":"95326","locality":"Kulmbach","municipality":{"key":"09477128","name":"Kulmbach, GKSt","type":"Große_Kreisstadt"},"district":{"key":"09477","name":"Kulmbach","type":"Landkreis"},"federalState":{"key":"09","name":"Bayern"}},{"name":"Lindenstr.","postalCode":"95326","locality":"Kulmbach","municipality":{"key":"09477128","name":"Kulmbach, GKSt","type":"Große_Kreisstadt"},"district":{"key":"09477","name":"Kulmbach","type":"Landkreis"},"federalState":{"key":"09","name":"Bayern"}},{"name":"Lindigweg","postalCode":"95326","locality":"Kulmbach","municipality":{"key":"09477128","name":"Kulmbach, GKSt","type":"Große_Kreisstadt"},"district":{"key":"09477","name":"Kulmbach","type":"Landkreis"},"federalState":{"key":"09","name":"Bayern"}},{"name":"Lohfeld","postalCode":"95326","locality":"Kulmbach","municipality":{"key":"09477128","name":"Kulmbach, GKSt","type":"Große_Kreisstadt"},"district":{"key":"09477","name":"Kulmbach","type":"Landkreis"},"federalState":{"key":"09","name":"Bayern"}},{"name":"Lorenz-Sandler-Str.","postalCode":"95326","locality":"Kulmbach","municipality":{"key":"09477128","name":"Kulmbach, GKSt","type":"Große_Kreisstadt"},"district":{"key":"09477","name":"Kulmbach","type":"Landkreis"},"federalState":{"key":"09","name":"Bayern"}},{"name":"Ludwig-Crößmann-Str.","postalCode":"95326","locality":"Kulmbach","municipality":{"key":"09477128","name":"Kulmbach, GKSt","type":"Große_Kreisstadt"},"district":{"key":"09477","name":"Kulmbach","type":"Landkreis"},"federalState":{"key":"09","name":"Bayern"}},{"name":"Luitpoldstr.","postalCode":"95326","locality":"Kulmbach","municipality":{"key":"09477128","name":"Kulmbach, GKSt","type":"Große_Kreisstadt"},"district":{"key":"09477","name":"Kulmbach","type":"Landkreis"},"federalState":{"key":"09","name":"Bayern"}},{"name":"Marktplatz","postalCode":"95509","locality":"Marktschorgast","municipality":{"key":"09477139","name":"Marktschorgast, M","type":"Markt"},"district":{"key":"09477","name":"Kulmbach","type":"Landkreis"},"federalState":{"key":"09","name":"Bayern"}},{"name":"Mittelweg","postalCode":"95509","locality":"Marktschorgast","municipality":{"key":"09477139","name":"Marktschorgast, M","type":"Markt"},"district":{"key":"09477","name":"Kulmbach","type":"Landkreis"},"federalState":{"key":"09","name":"Bayern"}},{"name":"Negeleinstr.","postalCode":"95326","locality":"Kulmbach","municipality":{"key":"09477128","name":"Kulmbach, GKSt","type":"Große_Kreisstadt"},"district":{"key":"09477","name":"Kulmbach","type":"Landkreis"},"federalState":{"key":"09","name":"Bayern"}},{"name":"Nelkenweg","postalCode":"95326","locality":"Kulmbach","municipality":{"key":"09477128","name":"Kulmbach, GKSt","type":"Große_Kreisstadt"},"district":{"key":"09477","name":"Kulmbach","type":"Landkreis"},"federalState":{"key":"09","name":"Bayern"}},{"name":"Niederndobrach","postalCode":"95326","locality":"Kulmbach","municipality":{"key":"09477128","name":"Kulmbach, GKSt","type":"Große_Kreisstadt"},"district":{"key":"09477","name":"Kulmbach","type":"Landkreis"},"federalState":{"key":"09","name":"Bayern"}},{"name":"Nordhangstr.","postalCode":"95326","locality":"Kulmbach","municipality":{"key":"09477128","name":"Kulmbach, GKSt","type":"Große_Kreisstadt"},"district":{"key":"09477","name":"Kulmbach","type":"Landkreis"},"federalState":{"key":"09","name":"Bayern"}},{"name":"Oberanger","postalCode":"95509","locality":"Marktschorgast","municipality":{"key":"09477139","name":"Marktschorgast, M","type":"Markt"},"district":{"key":"09477","name":"Kulmbach","type":"Landkreis"},"federalState":{"key":"09","name":"Bayern"}},{"name":"Pöllitzer Bergsiedlung","postalCode":"95509","locality":"Marktschorgast","municipality":{"key":"09477139","name":"Marktschorgast, M","type":"Markt"},"district":{"key":"09477","name":"Kulmbach","type":"Landkreis"},"federalState":{"key":"09","name":"Bayern"}},{"name":"Pulster Weg","postalCode":"95509","locality":"Marktschorgast","municipality":{"key":"09477139","name":"Marktschorgast, M","type":"Markt"},"district":{"key":"09477","name":"Kulmbach","type":"Landkreis"},"federalState":{"key":"09","name":"Bayern"}},{"name":"Ringstr.","postalCode":"95509","locality":"Marktschorgast","municipality":{"key":"09477139","name":"Marktschorgast, M","type":"Markt"},"district":{"key":"09477","name":"Kulmbach","type":"Landkreis"},"federalState":{"key":"09","name":"Bayern"}},{"name":"Sessenreuther Str.","postalCode":"95509","locality":"Marktschorgast","municipality":{"key":"09477139","name":"Marktschorgast, M","type":"Markt"},"district":{"key":"09477","name":"Kulmbach","type":"Landkreis"},"federalState":{"key":"09","name":"Bayern"}},{"name":"Siedlung","postalCode":"95509","locality":"Marktschorgast","municipality":{"key":"09477139","name":"Marktschorgast, M","type":"Markt"},"district":{"key":"09477","name":"Kulmbach","type":"Landkreis"},"federalState":{"key":"09","name":"Bayern"}},{"name":"Stammbacher Weg","postalCode":"95509","locality":"Marktschorgast","municipality":{"key":"09477139","name":"Marktschorgast, M","type":"Markt"},"district":{"key":"09477","name":"Kulmbach","type":"Landkreis"},"federalState":{"key":"09","name":"Bayern"}},{"name":"St.-Josef-Siedlung","postalCode":"95509","locality":"Marktschorgast","municipality":{"key":"09477139","name":"Marktschorgast, M","type":"Markt"},"district":{"key":"09477","name":"Kulmbach","type":"Landkreis"},"federalState":{"key":"09","name":"Bayern"}},{"name":"Talweg","postalCode":"95509","locality":"Marktschorgast","municipality":{"key":"09477139","name":"Marktschorgast, M","type":"Markt"},"district":{"key":"09477","name":"Kulmbach","type":"Landkreis"},"federalState":{"key":"09","name":"Bayern"}},{"name":"Unteranger","postalCode":"95509","locality":"Marktschorgast","municipality":{"key":"09477139","name":"Marktschorgast, M","type":"Markt"},"district":{"key":"09477","name":"Kulmbach","type":"Landkreis"},"federalState":{"key":"09","name":"Bayern"}},{"name":"Veitengasse","postalCode":"95326","locality":"Kulmbach","municipality":{"key":"09477128","name":"Kulmbach, GKSt","type":"Große_Kreisstadt"},"district":{"key":"09477","name":"Kulmbach","type":"Landkreis"},"federalState":{"key":"09","name":"Bayern"}},{"name":"Veitlahmer Str.","postalCode":"95326","locality":"Kulmbach","municipality":{"key":"09477128","name":"Kulmbach, GKSt","type":"Große_Kreisstadt"},"district":{"key":"09477","name":"Kulmbach","type":"Landkreis"},"federalState":{"key":"09","name":"Bayern"}},{"name":"Vogelnest","postalCode":"95326","locality":"Kulmbach","municipality":{"key":"09477128","name":"Kulmbach, GKSt","type":"Große_Kreisstadt"},"district":{"key":"09477","name":"Kulmbach","type":"Landkreis"},"federalState":{"key":"09","name":"Bayern"}},{"name":"Von-Linde-Str.","postalCode":"95326","locality":"Kulmbach","municipality":{"key":"09477128","name":"Kulmbach, GKSt","type":"Große_Kreisstadt"},"district":{"key":"09477","name":"Kulmbach","type":"Landkreis"},"federalState":{"key":"09","name":"Bayern"}},{"name":"Vorwerkstr.","postalCode":"95326","locality":"Kulmbach","municipality":{"key":"09477128","name":"Kulmbach, GKSt","type":"Große_Kreisstadt"},"district":{"key":"09477","name":"Kulmbach","type":"Landkreis"},"federalState":{"key":"09","name":"Bayern"}},{"name":"Waaggasse","postalCode":"95326","locality":"Kulmbach","municipality":{"key":"09477128","name":"Kulmbach, GKSt","type":"Große_Kreisstadt"},"district":{"key":"09477","name":"Kulmbach","type":"Landkreis"},"federalState":{"key":"09","name":"Bayern"}},{"name":"Waldweg","postalCode":"95326","locality":"Kulmbach","municipality":{"key":"09477128","name":"Kulmbach, GKSt","type":"Große_Kreisstadt"},"district":{"key":"09477","name":"Kulmbach","type":"Landkreis"},"federalState":{"key":"09","name":"Bayern"}},{"name":"Webergasse","postalCode":"95326","locality":"Kulmbach","municipality":{"key":"09477128","name":"Kulmbach, GKSt","type":"Große_Kreisstadt"},"district":{"key":"09477","name":"Kulmbach","type":"Landkreis"},"federalState":{"key":"09","name":"Bayern"}},{"name":"Weidenleite","postalCode":"95326","locality":"Kulmbach","municipality":{"key":"09477128","name":"Kulmbach, GKSt","type":"Große_Kreisstadt"},"district":{"key":"09477","name":"Kulmbach","type":"Landkreis"},"federalState":{"key":"09","name":"Bayern"}},{"name":"Weiher","postalCode":"95326","locality":"Kulmbach","municipality":{"key":"09477128","name":"Kulmbach, GKSt","type":"Große_Kreisstadt"},"district":{"key":"09477","name":"Kulmbach","type":"Landkreis"},"federalState":{"key":"09","name":"Bayern"}},{"name":"Weiherer Str.","postalCode":"95326","locality":"Kulmbach","municipality":{"key":"09477128","name":"Kulmbach, GKSt","type":"Große_Kreisstadt"},"district":{"key":"09477","name":"Kulmbach","type":"Landkreis"},"federalState":{"key":"09","name":"Bayern"}},{"name":"Weizengasse","postalCode":"95326","locality":"Kulmbach","municipality":{"key":"09477128","name":"Kulmbach, GKSt","type":"Große_Kreisstadt"},"district":{"key":"09477","name":"Kulmbach","type":"Landkreis"},"federalState":{"key":"09","name":"Bayern"}},{"name":"Weltrichstr.","postalCode":"95326","locality":"Kulmbach","municipality":{"key":"09477128","name":"Kulmbach, GKSt","type":"Große_Kreisstadt"},"district":{"key":"09477","name":"Kulmbach","type":"Landkreis"},"federalState":{"key":"09","name":"Bayern"}},{"name":"Wickenreuther Allee","postalCode":"95326","locality":"Kulmbach","municipality":{"key":"09477128","name":"Kulmbach, GKSt","type":"Große_Kreisstadt"},"district":{"key":"09477","name":"Kulmbach","type":"Landkreis"},"federalState":{"key":"09","name":"Bayern"}},{"name":"Wiesengarten","postalCode":"95326","locality":"Kulmbach","municipality":{"key":"09477128","name":"Kulmbach, GKSt","type":"Große_Kreisstadt"},"district":{"key":"09477","name":"Kulmbach","type":"Landkreis"},"federalState":{"key":"09","name":"Bayern"}},{"name":"Wilhelm-Hoegner-Str.","postalCode":"95326","locality":"Kulmbach","municipality":{"key":"09477128","name":"Kulmbach, GKSt","type":"Große_Kreisstadt"},"district":{"key":"09477","name":"Kulmbach","type":"Landkreis"},"federalState":{"key":"09","name":"Bayern"}},{"name":"Wilhelm-Högner-Str.","postalCode":"95326","locality":"Kulmbach","municipality":{"key":"09477128","name":"Kulmbach, GKSt","type":"Große_Kreisstadt"},"district":{"key":"09477","name":"Kulmbach","type":"Landkreis"},"federalState":{"key":"09","name":"Bayern"}},{"name":"Wilhelm-Kühn-Str.","postalCode":"95326","locality":"Kulmbach","municipality":{"key":"09477128","name":"Kulmbach, GKSt","type":"Große_Kreisstadt"},"district":{"key":"09477","name":"Kulmbach","type":"Landkreis"},"federalState":{"key":"09","name":"Bayern"}},{"name":"Wilhelm-Meußdoerffer-Str.","postalCode":"95326","locality":"Kulmbach","municipality":{"key":"09477128","name":"Kulmbach, GKSt","type":"Große_Kreisstadt"},"district":{"key":"09477","name":"Kulmbach","type":"Landkreis"},"federalState":{"key":"09","name":"Bayern"}},{"name":"Wirtsgasse","postalCode":"95326","locality":"Kulmbach","municipality":{"key":"09477128","name":"Kulmbach, GKSt","type":"Große_Kreisstadt"},"district":{"key":"09477","name":"Kulmbach","type":"Landkreis"},"federalState":{"key":"09","name":"Bayern"}},{"name":"Wirtsleite","postalCode":"95326","locality":"Kulmbach","municipality":{"key":"09477128","name":"Kulmbach, GKSt","type":"Große_Kreisstadt"},"district":{"key":"09477","name":"Kulmbach","type":"Landkreis"},"federalState":{"key":"09","name":"Bayern"}},{"name":"Wolf-Keller-Str.","postalCode":"95326","locality":"Kulmbach","municipality":{"key":"09477128","name":"Kulmbach, GKSt","type":"Große_Kreisstadt"},"district":{"key":"09477","name":"Kulmbach","type":"Landkreis"},"federalState":{"key":"09","name":"Bayern"}},{"name":"Wolfskehle","postalCode":"95326","locality":"Kulmbach","municipality":{"key":"09477128","name":"Kulmbach, GKSt","type":"Große_Kreisstadt"},"district":{"key":"09477","name":"Kulmbach","type":"Landkreis"},"federalState":{"key":"09","name":"Bayern"}},{"name":"Wolläcker","postalCode":"95326","locality":"Kulmbach","municipality":{"key":"09477128","name":"Kulmbach, GKSt","type":"Große_Kreisstadt"},"district":{"key":"09477","name":"Kulmbach","type":"Landkreis"},"federalState":{"key":"09","name":"Bayern"}},{"name":"Ziegenburger Str.","postalCode":"95509","locality":"Marktschorgast","municipality":{"key":"09477139","name":"Marktschorgast, M","type":"Markt"},"district":{"key":"09477","name":"Kulmbach","type":"Landkreis"},"federalState":{"key":"09","name":"Bayern"}},{"name":"Ängerlein","postalCode":"95326","locality":"Kulmbach","municipality":{"key":"09477128","name":"Kulmbach, GKSt","type":"Große_Kreisstadt"},"district":{"key":"09477","name":"Kulmbach","type":"Landkreis"},"federalState":{"key":"09","name":"Bayern"}},]