[{"name":"Ackerstr.","postalCode":"06749","locality":"Bitterfeld-Wolfen","municipality":{"key":"15082015","name":"Bitterfeld-Wolfen, Stadt","type":"Stadt"},"district":{"key":"15082","name":"Anhalt-Bitterfeld","type":"Landkreis"},"federalState":{"key":"15","name":"Sachsen-Anhalt"}},{"name":"Ackerstr.","postalCode":"06766","locality":"Bitterfeld-Wolfen","municipality":{"key":"15082015","name":"Bitterfeld-Wolfen, Stadt","type":"Stadt"},"district":{"key":"15082","name":"Anhalt-Bitterfeld","type":"Landkreis"},"federalState":{"key":"15","name":"Sachsen-Anhalt"}},{"name":"Ackerstr.","postalCode":"06803","locality":"Bitterfeld-Wolfen","municipality":{"key":"15082015","name":"Bitterfeld-Wolfen, Stadt","type":"Stadt"},"district":{"key":"15082","name":"Anhalt-Bitterfeld","type":"Landkreis"},"federalState":{"key":"15","name":"Sachsen-Anhalt"}},{"name":"Ahornweg","postalCode":"06749","locality":"Bitterfeld-Wolfen","municipality":{"key":"15082015","name":"Bitterfeld-Wolfen, Stadt","type":"Stadt"},"district":{"key":"15082","name":"Anhalt-Bitterfeld","type":"Landkreis"},"federalState":{"key":"15","name":"Sachsen-Anhalt"}},{"name":"Ahornweg","postalCode":"06766","locality":"Bitterfeld-Wolfen","municipality":{"key":"15082015","name":"Bitterfeld-Wolfen, Stadt","type":"Stadt"},"district":{"key":"15082","name":"Anhalt-Bitterfeld","type":"Landkreis"},"federalState":{"key":"15","name":"Sachsen-Anhalt"}},{"name":"Akazienweg","postalCode":"06766","locality":"Bitterfeld-Wolfen","municipality":{"key":"15082015","name":"Bitterfeld-Wolfen, Stadt","type":"Stadt"},"district":{"key":"15082","name":"Anhalt-Bitterfeld","type":"Landkreis"},"federalState":{"key":"15","name":"Sachsen-Anhalt"}},{"name":"Albert-Schweitzer-Str.","postalCode":"06749","locality":"Bitterfeld-Wolfen","municipality":{"key":"15082015","name":"Bitterfeld-Wolfen, Stadt","type":"Stadt"},"district":{"key":"15082","name":"Anhalt-Bitterfeld","type":"Landkreis"},"federalState":{"key":"15","name":"Sachsen-Anhalt"}},{"name":"Albert-Schweitzer-Str.","postalCode":"06766","locality":"Bitterfeld-Wolfen","municipality":{"key":"15082015","name":"Bitterfeld-Wolfen, Stadt","type":"Stadt"},"district":{"key":"15082","name":"Anhalt-Bitterfeld","type":"Landkreis"},"federalState":{"key":"15","name":"Sachsen-Anhalt"}},{"name":"Alte Goitzschestr.","postalCode":"06749","locality":"Bitterfeld-Wolfen","municipality":{"key":"15082015","name":"Bitterfeld-Wolfen, Stadt","type":"Stadt"},"district":{"key":"15082","name":"Anhalt-Bitterfeld","type":"Landkreis"},"federalState":{"key":"15","name":"Sachsen-Anhalt"}},{"name":"Alte Leipziger Str.","postalCode":"06766","locality":"Bitterfeld-Wolfen","municipality":{"key":"15082015","name":"Bitterfeld-Wolfen, Stadt","type":"Stadt"},"district":{"key":"15082","name":"Anhalt-Bitterfeld","type":"Landkreis"},"federalState":{"key":"15","name":"Sachsen-Anhalt"}},{"name":"Alte Siedlung","postalCode":"06766","locality":"Bitterfeld-Wolfen","municipality":{"key":"15082015","name":"Bitterfeld-Wolfen, Stadt","type":"Stadt"},"district":{"key":"15082","name":"Anhalt-Bitterfeld","type":"Landkreis"},"federalState":{"key":"15","name":"Sachsen-Anhalt"}},{"name":"Alte Str.","postalCode":"06766","locality":"Bitterfeld-Wolfen","municipality":{"key":"15082015","name":"Bitterfeld-Wolfen, Stadt","type":"Stadt"},"district":{"key":"15082","name":"Anhalt-Bitterfeld","type":"Landkreis"},"federalState":{"key":"15","name":"Sachsen-Anhalt"}},{"name":"Altschloßstr.","postalCode":"06749","locality":"Bitterfeld-Wolfen","municipality":{"key":"15082015","name":"Bitterfeld-Wolfen, Stadt","type":"Stadt"},"district":{"key":"15082","name":"Anhalt-Bitterfeld","type":"Landkreis"},"federalState":{"key":"15","name":"Sachsen-Anhalt"}},{"name":"Am Anger","postalCode":"06749","locality":"Bitterfeld-Wolfen","municipality":{"key":"15082015","name":"Bitterfeld-Wolfen, Stadt","type":"Stadt"},"district":{"key":"15082","name":"Anhalt-Bitterfeld","type":"Landkreis"},"federalState":{"key":"15","name":"Sachsen-Anhalt"}},{"name":"Am Bad","postalCode":"06749","locality":"Bitterfeld-Wolfen","municipality":{"key":"15082015","name":"Bitterfeld-Wolfen, Stadt","type":"Stadt"},"district":{"key":"15082","name":"Anhalt-Bitterfeld","type":"Landkreis"},"federalState":{"key":"15","name":"Sachsen-Anhalt"}},{"name":"Am Berge","postalCode":"06766","locality":"Bitterfeld-Wolfen","municipality":{"key":"15082015","name":"Bitterfeld-Wolfen, Stadt","type":"Stadt"},"district":{"key":"15082","name":"Anhalt-Bitterfeld","type":"Landkreis"},"federalState":{"key":"15","name":"Sachsen-Anhalt"}},{"name":"Am Bolzplatz","postalCode":"06749","locality":"Bitterfeld-Wolfen","municipality":{"key":"15082015","name":"Bitterfeld-Wolfen, Stadt","type":"Stadt"},"district":{"key":"15082","name":"Anhalt-Bitterfeld","type":"Landkreis"},"federalState":{"key":"15","name":"Sachsen-Anhalt"}},{"name":"Am Brödelgraben","postalCode":"06766","locality":"Bitterfeld-Wolfen","municipality":{"key":"15082015","name":"Bitterfeld-Wolfen, Stadt","type":"Stadt"},"district":{"key":"15082","name":"Anhalt-Bitterfeld","type":"Landkreis"},"federalState":{"key":"15","name":"Sachsen-Anhalt"}},{"name":"Am Dorfteich","postalCode":"06766","locality":"Bitterfeld-Wolfen","municipality":{"key":"15082015","name":"Bitterfeld-Wolfen, Stadt","type":"Stadt"},"district":{"key":"15082","name":"Anhalt-Bitterfeld","type":"Landkreis"},"federalState":{"key":"15","name":"Sachsen-Anhalt"}},{"name":"Am Elektronsportplatz","postalCode":"06803","locality":"Bitterfeld-Wolfen","municipality":{"key":"15082015","name":"Bitterfeld-Wolfen, Stadt","type":"Stadt"},"district":{"key":"15082","name":"Anhalt-Bitterfeld","type":"Landkreis"},"federalState":{"key":"15","name":"Sachsen-Anhalt"}},{"name":"Am Feldrain","postalCode":"06766","locality":"Bitterfeld-Wolfen","municipality":{"key":"15082015","name":"Bitterfeld-Wolfen, Stadt","type":"Stadt"},"district":{"key":"15082","name":"Anhalt-Bitterfeld","type":"Landkreis"},"federalState":{"key":"15","name":"Sachsen-Anhalt"}},{"name":"Am Gelben Wasser","postalCode":"06749","locality":"Bitterfeld-Wolfen","municipality":{"key":"15082015","name":"Bitterfeld-Wolfen, Stadt","type":"Stadt"},"district":{"key":"15082","name":"Anhalt-Bitterfeld","type":"Landkreis"},"federalState":{"key":"15","name":"Sachsen-Anhalt"}},{"name":"Am Johannesweg","postalCode":"06803","locality":"Bitterfeld-Wolfen","municipality":{"key":"15082015","name":"Bitterfeld-Wolfen, Stadt","type":"Stadt"},"district":{"key":"15082","name":"Anhalt-Bitterfeld","type":"Landkreis"},"federalState":{"key":"15","name":"Sachsen-Anhalt"}},{"name":"Am Kraftwerk","postalCode":"06749","locality":"Bitterfeld-Wolfen","municipality":{"key":"15082015","name":"Bitterfeld-Wolfen, Stadt","type":"Stadt"},"district":{"key":"15082","name":"Anhalt-Bitterfeld","type":"Landkreis"},"federalState":{"key":"15","name":"Sachsen-Anhalt"}},{"name":"Am Leinedamm","postalCode":"06749","locality":"Bitterfeld-Wolfen","municipality":{"key":"15082015","name":"Bitterfeld-Wolfen, Stadt","type":"Stadt"},"district":{"key":"15082","name":"Anhalt-Bitterfeld","type":"Landkreis"},"federalState":{"key":"15","name":"Sachsen-Anhalt"}},{"name":"Am Leineufer","postalCode":"06749","locality":"Bitterfeld-Wolfen","municipality":{"key":"15082015","name":"Bitterfeld-Wolfen, Stadt","type":"Stadt"},"district":{"key":"15082","name":"Anhalt-Bitterfeld","type":"Landkreis"},"federalState":{"key":"15","name":"Sachsen-Anhalt"}},{"name":"Am Löberitzer Weg","postalCode":"06766","locality":"Bitterfeld-Wolfen","municipality":{"key":"15082015","name":"Bitterfeld-Wolfen, Stadt","type":"Stadt"},"district":{"key":"15082","name":"Anhalt-Bitterfeld","type":"Landkreis"},"federalState":{"key":"15","name":"Sachsen-Anhalt"}},{"name":"Am Markt","postalCode":"06766","locality":"Bitterfeld-Wolfen","municipality":{"key":"15082015","name":"Bitterfeld-Wolfen, Stadt","type":"Stadt"},"district":{"key":"15082","name":"Anhalt-Bitterfeld","type":"Landkreis"},"federalState":{"key":"15","name":"Sachsen-Anhalt"}},{"name":"Am Meilenstein","postalCode":"06766","locality":"Bitterfeld-Wolfen","municipality":{"key":"15082015","name":"Bitterfeld-Wolfen, Stadt","type":"Stadt"},"district":{"key":"15082","name":"Anhalt-Bitterfeld","type":"Landkreis"},"federalState":{"key":"15","name":"Sachsen-Anhalt"}},{"name":"Am Nordpark","postalCode":"06766","locality":"Bitterfeld-Wolfen","municipality":{"key":"15082015","name":"Bitterfeld-Wolfen, Stadt","type":"Stadt"},"district":{"key":"15082","name":"Anhalt-Bitterfeld","type":"Landkreis"},"federalState":{"key":"15","name":"Sachsen-Anhalt"}},{"name":"Am Park der Chemiearbeiter","postalCode":"06749","locality":"Bitterfeld-Wolfen","municipality":{"key":"15082015","name":"Bitterfeld-Wolfen, Stadt","type":"Stadt"},"district":{"key":"15082","name":"Anhalt-Bitterfeld","type":"Landkreis"},"federalState":{"key":"15","name":"Sachsen-Anhalt"}},{"name":"Am Pegelturm","postalCode":"06749","locality":"Bitterfeld-Wolfen","municipality":{"key":"15082015","name":"Bitterfeld-Wolfen, Stadt","type":"Stadt"},"district":{"key":"15082","name":"Anhalt-Bitterfeld","type":"Landkreis"},"federalState":{"key":"15","name":"Sachsen-Anhalt"}},{"name":"Am Pomselberg","postalCode":"06749","locality":"Bitterfeld-Wolfen","municipality":{"key":"15082015","name":"Bitterfeld-Wolfen, Stadt","type":"Stadt"},"district":{"key":"15082","name":"Anhalt-Bitterfeld","type":"Landkreis"},"federalState":{"key":"15","name":"Sachsen-Anhalt"}},{"name":"Am Sportplatz","postalCode":"06766","locality":"Bitterfeld-Wolfen","municipality":{"key":"15082015","name":"Bitterfeld-Wolfen, Stadt","type":"Stadt"},"district":{"key":"15082","name":"Anhalt-Bitterfeld","type":"Landkreis"},"federalState":{"key":"15","name":"Sachsen-Anhalt"}},{"name":"Am Stadion","postalCode":"06749","locality":"Bitterfeld-Wolfen","municipality":{"key":"15082015","name":"Bitterfeld-Wolfen, Stadt","type":"Stadt"},"district":{"key":"15082","name":"Anhalt-Bitterfeld","type":"Landkreis"},"federalState":{"key":"15","name":"Sachsen-Anhalt"}},{"name":"Am Stadion","postalCode":"06808","locality":"Bitterfeld-Wolfen","municipality":{"key":"15082015","name":"Bitterfeld-Wolfen, Stadt","type":"Stadt"},"district":{"key":"15082","name":"Anhalt-Bitterfeld","type":"Landkreis"},"federalState":{"key":"15","name":"Sachsen-Anhalt"}},{"name":"Am Strengbach","postalCode":"06749","locality":"Bitterfeld-Wolfen","municipality":{"key":"15082015","name":"Bitterfeld-Wolfen, Stadt","type":"Stadt"},"district":{"key":"15082","name":"Anhalt-Bitterfeld","type":"Landkreis"},"federalState":{"key":"15","name":"Sachsen-Anhalt"}},{"name":"Am Theater","postalCode":"06749","locality":"Bitterfeld-Wolfen","municipality":{"key":"15082015","name":"Bitterfeld-Wolfen, Stadt","type":"Stadt"},"district":{"key":"15082","name":"Anhalt-Bitterfeld","type":"Landkreis"},"federalState":{"key":"15","name":"Sachsen-Anhalt"}},{"name":"Am Tiergehege","postalCode":"06766","locality":"Bitterfeld-Wolfen","municipality":{"key":"15082015","name":"Bitterfeld-Wolfen, Stadt","type":"Stadt"},"district":{"key":"15082","name":"Anhalt-Bitterfeld","type":"Landkreis"},"federalState":{"key":"15","name":"Sachsen-Anhalt"}},{"name":"Am Wall","postalCode":"06766","locality":"Bitterfeld-Wolfen","municipality":{"key":"15082015","name":"Bitterfeld-Wolfen, Stadt","type":"Stadt"},"district":{"key":"15082","name":"Anhalt-Bitterfeld","type":"Landkreis"},"federalState":{"key":"15","name":"Sachsen-Anhalt"}},{"name":"Am Wasserturm","postalCode":"06766","locality":"Bitterfeld-Wolfen","municipality":{"key":"15082015","name":"Bitterfeld-Wolfen, Stadt","type":"Stadt"},"district":{"key":"15082","name":"Anhalt-Bitterfeld","type":"Landkreis"},"federalState":{"key":"15","name":"Sachsen-Anhalt"}},{"name":"Am Windberg","postalCode":"06766","locality":"Bitterfeld-Wolfen","municipality":{"key":"15082015","name":"Bitterfeld-Wolfen, Stadt","type":"Stadt"},"district":{"key":"15082","name":"Anhalt-Bitterfeld","type":"Landkreis"},"federalState":{"key":"15","name":"Sachsen-Anhalt"}},{"name":"An der alten Mulde","postalCode":"06749","locality":"Bitterfeld-Wolfen","municipality":{"key":"15082015","name":"Bitterfeld-Wolfen, Stadt","type":"Stadt"},"district":{"key":"15082","name":"Anhalt-Bitterfeld","type":"Landkreis"},"federalState":{"key":"15","name":"Sachsen-Anhalt"}},{"name":"An der Brauerei","postalCode":"06749","locality":"Bitterfeld-Wolfen","municipality":{"key":"15082015","name":"Bitterfeld-Wolfen, Stadt","type":"Stadt"},"district":{"key":"15082","name":"Anhalt-Bitterfeld","type":"Landkreis"},"federalState":{"key":"15","name":"Sachsen-Anhalt"}},{"name":"An der Koppel","postalCode":"06766","locality":"Bitterfeld-Wolfen","municipality":{"key":"15082015","name":"Bitterfeld-Wolfen, Stadt","type":"Stadt"},"district":{"key":"15082","name":"Anhalt-Bitterfeld","type":"Landkreis"},"federalState":{"key":"15","name":"Sachsen-Anhalt"}},{"name":"An der Lobermühle","postalCode":"06749","locality":"Bitterfeld-Wolfen","municipality":{"key":"15082015","name":"Bitterfeld-Wolfen, Stadt","type":"Stadt"},"district":{"key":"15082","name":"Anhalt-Bitterfeld","type":"Landkreis"},"federalState":{"key":"15","name":"Sachsen-Anhalt"}},{"name":"An der Mühlbreite","postalCode":"06749","locality":"Bitterfeld-Wolfen","municipality":{"key":"15082015","name":"Bitterfeld-Wolfen, Stadt","type":"Stadt"},"district":{"key":"15082","name":"Anhalt-Bitterfeld","type":"Landkreis"},"federalState":{"key":"15","name":"Sachsen-Anhalt"}},{"name":"An der Sorge","postalCode":"06749","locality":"Bitterfeld-Wolfen","municipality":{"key":"15082015","name":"Bitterfeld-Wolfen, Stadt","type":"Stadt"},"district":{"key":"15082","name":"Anhalt-Bitterfeld","type":"Landkreis"},"federalState":{"key":"15","name":"Sachsen-Anhalt"}},{"name":"Anhalter Platz","postalCode":"06766","locality":"Bitterfeld-Wolfen","municipality":{"key":"15082015","name":"Bitterfeld-Wolfen, Stadt","type":"Stadt"},"district":{"key":"15082","name":"Anhalt-Bitterfeld","type":"Landkreis"},"federalState":{"key":"15","name":"Sachsen-Anhalt"}},{"name":"Anhalter Str.","postalCode":"06766","locality":"Bitterfeld-Wolfen","municipality":{"key":"15082015","name":"Bitterfeld-Wolfen, Stadt","type":"Stadt"},"district":{"key":"15082","name":"Anhalt-Bitterfeld","type":"Landkreis"},"federalState":{"key":"15","name":"Sachsen-Anhalt"}},{"name":"Bachstr.","postalCode":"06766","locality":"Bitterfeld-Wolfen","municipality":{"key":"15082015","name":"Bitterfeld-Wolfen, Stadt","type":"Stadt"},"district":{"key":"15082","name":"Anhalt-Bitterfeld","type":"Landkreis"},"federalState":{"key":"15","name":"Sachsen-Anhalt"}},{"name":"Badergasse","postalCode":"06749","locality":"Bitterfeld-Wolfen","municipality":{"key":"15082015","name":"Bitterfeld-Wolfen, Stadt","type":"Stadt"},"district":{"key":"15082","name":"Anhalt-Bitterfeld","type":"Landkreis"},"federalState":{"key":"15","name":"Sachsen-Anhalt"}},{"name":"Bahnhofstr.","postalCode":"06749","locality":"Bitterfeld-Wolfen","municipality":{"key":"15082015","name":"Bitterfeld-Wolfen, Stadt","type":"Stadt"},"district":{"key":"15082","name":"Anhalt-Bitterfeld","type":"Landkreis"},"federalState":{"key":"15","name":"Sachsen-Anhalt"}},{"name":"Bahnhofstr.","postalCode":"06766","locality":"Bitterfeld-Wolfen","municipality":{"key":"15082015","name":"Bitterfeld-Wolfen, Stadt","type":"Stadt"},"district":{"key":"15082","name":"Anhalt-Bitterfeld","type":"Landkreis"},"federalState":{"key":"15","name":"Sachsen-Anhalt"}},{"name":"Bahnhofstr.","postalCode":"06803","locality":"Bitterfeld-Wolfen","municipality":{"key":"15082015","name":"Bitterfeld-Wolfen, Stadt","type":"Stadt"},"district":{"key":"15082","name":"Anhalt-Bitterfeld","type":"Landkreis"},"federalState":{"key":"15","name":"Sachsen-Anhalt"}},{"name":"Beethovenstr.","postalCode":"06749","locality":"Bitterfeld-Wolfen","municipality":{"key":"15082015","name":"Bitterfeld-Wolfen, Stadt","type":"Stadt"},"district":{"key":"15082","name":"Anhalt-Bitterfeld","type":"Landkreis"},"federalState":{"key":"15","name":"Sachsen-Anhalt"}},{"name":"Beethovenstr.","postalCode":"06766","locality":"Bitterfeld-Wolfen","municipality":{"key":"15082015","name":"Bitterfeld-Wolfen, Stadt","type":"Stadt"},"district":{"key":"15082","name":"Anhalt-Bitterfeld","type":"Landkreis"},"federalState":{"key":"15","name":"Sachsen-Anhalt"}},{"name":"Bergmannshof","postalCode":"06749","locality":"Bitterfeld-Wolfen","municipality":{"key":"15082015","name":"Bitterfeld-Wolfen, Stadt","type":"Stadt"},"district":{"key":"15082","name":"Anhalt-Bitterfeld","type":"Landkreis"},"federalState":{"key":"15","name":"Sachsen-Anhalt"}},{"name":"Bergstr.","postalCode":"06766","locality":"Bitterfeld-Wolfen","municipality":{"key":"15082015","name":"Bitterfeld-Wolfen, Stadt","type":"Stadt"},"district":{"key":"15082","name":"Anhalt-Bitterfeld","type":"Landkreis"},"federalState":{"key":"15","name":"Sachsen-Anhalt"}},{"name":"Berliner Str.","postalCode":"06749","locality":"Bitterfeld-Wolfen","municipality":{"key":"15082015","name":"Bitterfeld-Wolfen, Stadt","type":"Stadt"},"district":{"key":"15082","name":"Anhalt-Bitterfeld","type":"Landkreis"},"federalState":{"key":"15","name":"Sachsen-Anhalt"}},{"name":"Bernhard-Göring-Str.","postalCode":"06766","locality":"Bitterfeld-Wolfen","municipality":{"key":"15082015","name":"Bitterfeld-Wolfen, Stadt","type":"Stadt"},"district":{"key":"15082","name":"Anhalt-Bitterfeld","type":"Landkreis"},"federalState":{"key":"15","name":"Sachsen-Anhalt"}},{"name":"Bernsteinring","postalCode":"06749","locality":"Bitterfeld-Wolfen","municipality":{"key":"15082015","name":"Bitterfeld-Wolfen, Stadt","type":"Stadt"},"district":{"key":"15082","name":"Anhalt-Bitterfeld","type":"Landkreis"},"federalState":{"key":"15","name":"Sachsen-Anhalt"}},{"name":"Bertholdstr.","postalCode":"06808","locality":"Bitterfeld-Wolfen","municipality":{"key":"15082015","name":"Bitterfeld-Wolfen, Stadt","type":"Stadt"},"district":{"key":"15082","name":"Anhalt-Bitterfeld","type":"Landkreis"},"federalState":{"key":"15","name":"Sachsen-Anhalt"}},{"name":"Bertolt-Brecht-Str.","postalCode":"06766","locality":"Bitterfeld-Wolfen","municipality":{"key":"15082015","name":"Bitterfeld-Wolfen, Stadt","type":"Stadt"},"district":{"key":"15082","name":"Anhalt-Bitterfeld","type":"Landkreis"},"federalState":{"key":"15","name":"Sachsen-Anhalt"}},{"name":"Bettelweg","postalCode":"06766","locality":"Bitterfeld-Wolfen","municipality":{"key":"15082015","name":"Bitterfeld-Wolfen, Stadt","type":"Stadt"},"district":{"key":"15082","name":"Anhalt-Bitterfeld","type":"Landkreis"},"federalState":{"key":"15","name":"Sachsen-Anhalt"}},{"name":"Binnengärtenstr.","postalCode":"06749","locality":"Bitterfeld-Wolfen","municipality":{"key":"15082015","name":"Bitterfeld-Wolfen, Stadt","type":"Stadt"},"district":{"key":"15082","name":"Anhalt-Bitterfeld","type":"Landkreis"},"federalState":{"key":"15","name":"Sachsen-Anhalt"}},{"name":"Birkenhain","postalCode":"06766","locality":"Bitterfeld-Wolfen","municipality":{"key":"15082015","name":"Bitterfeld-Wolfen, Stadt","type":"Stadt"},"district":{"key":"15082","name":"Anhalt-Bitterfeld","type":"Landkreis"},"federalState":{"key":"15","name":"Sachsen-Anhalt"}},{"name":"Birkenweg","postalCode":"06749","locality":"Bitterfeld-Wolfen","municipality":{"key":"15082015","name":"Bitterfeld-Wolfen, Stadt","type":"Stadt"},"district":{"key":"15082","name":"Anhalt-Bitterfeld","type":"Landkreis"},"federalState":{"key":"15","name":"Sachsen-Anhalt"}},{"name":"Bismarckstr.","postalCode":"06749","locality":"Bitterfeld-Wolfen","municipality":{"key":"15082015","name":"Bitterfeld-Wolfen, Stadt","type":"Stadt"},"district":{"key":"15082","name":"Anhalt-Bitterfeld","type":"Landkreis"},"federalState":{"key":"15","name":"Sachsen-Anhalt"}},{"name":"Bitterfelder Bogen","postalCode":"06808","locality":"Bitterfeld-Wolfen","municipality":{"key":"15082015","name":"Bitterfeld-Wolfen, Stadt","type":"Stadt"},"district":{"key":"15082","name":"Anhalt-Bitterfeld","type":"Landkreis"},"federalState":{"key":"15","name":"Sachsen-Anhalt"}},{"name":"Bitterfelder Str.","postalCode":"06766","locality":"Bitterfeld-Wolfen","municipality":{"key":"15082015","name":"Bitterfeld-Wolfen, Stadt","type":"Stadt"},"district":{"key":"15082","name":"Anhalt-Bitterfeld","type":"Landkreis"},"federalState":{"key":"15","name":"Sachsen-Anhalt"}},{"name":"Bitterfelder Str.","postalCode":"06808","locality":"Bitterfeld-Wolfen","municipality":{"key":"15082015","name":"Bitterfeld-Wolfen, Stadt","type":"Stadt"},"district":{"key":"15082","name":"Anhalt-Bitterfeld","type":"Landkreis"},"federalState":{"key":"15","name":"Sachsen-Anhalt"}},{"name":"Blumenstr.","postalCode":"06766","locality":"Bitterfeld-Wolfen","municipality":{"key":"15082015","name":"Bitterfeld-Wolfen, Stadt","type":"Stadt"},"district":{"key":"15082","name":"Anhalt-Bitterfeld","type":"Landkreis"},"federalState":{"key":"15","name":"Sachsen-Anhalt"}},{"name":"Bobbauer Dorfstr.","postalCode":"06766","locality":"Bitterfeld-Wolfen","municipality":{"key":"15082015","name":"Bitterfeld-Wolfen, Stadt","type":"Stadt"},"district":{"key":"15082","name":"Anhalt-Bitterfeld","type":"Landkreis"},"federalState":{"key":"15","name":"Sachsen-Anhalt"}},{"name":"Bobbauer Grünstr.","postalCode":"06766","locality":"Bitterfeld-Wolfen","municipality":{"key":"15082015","name":"Bitterfeld-Wolfen, Stadt","type":"Stadt"},"district":{"key":"15082","name":"Anhalt-Bitterfeld","type":"Landkreis"},"federalState":{"key":"15","name":"Sachsen-Anhalt"}},{"name":"Bobbauer Str.","postalCode":"06766","locality":"Bitterfeld-Wolfen","municipality":{"key":"15082015","name":"Bitterfeld-Wolfen, Stadt","type":"Stadt"},"district":{"key":"15082","name":"Anhalt-Bitterfeld","type":"Landkreis"},"federalState":{"key":"15","name":"Sachsen-Anhalt"}},{"name":"Bornweg","postalCode":"06766","locality":"Bitterfeld-Wolfen","municipality":{"key":"15082015","name":"Bitterfeld-Wolfen, Stadt","type":"Stadt"},"district":{"key":"15082","name":"Anhalt-Bitterfeld","type":"Landkreis"},"federalState":{"key":"15","name":"Sachsen-Anhalt"}},{"name":"Brandenburger Str.","postalCode":"06749","locality":"Bitterfeld-Wolfen","municipality":{"key":"15082015","name":"Bitterfeld-Wolfen, Stadt","type":"Stadt"},"district":{"key":"15082","name":"Anhalt-Bitterfeld","type":"Landkreis"},"federalState":{"key":"15","name":"Sachsen-Anhalt"}},{"name":"Braustr.","postalCode":"06749","locality":"Bitterfeld-Wolfen","municipality":{"key":"15082015","name":"Bitterfeld-Wolfen, Stadt","type":"Stadt"},"district":{"key":"15082","name":"Anhalt-Bitterfeld","type":"Landkreis"},"federalState":{"key":"15","name":"Sachsen-Anhalt"}},{"name":"Brehnaer Str.","postalCode":"06749","locality":"Bitterfeld-Wolfen","municipality":{"key":"15082015","name":"Bitterfeld-Wolfen, Stadt","type":"Stadt"},"district":{"key":"15082","name":"Anhalt-Bitterfeld","type":"Landkreis"},"federalState":{"key":"15","name":"Sachsen-Anhalt"}},{"name":"Brennereiweg","postalCode":"06766","locality":"Bitterfeld-Wolfen","municipality":{"key":"15082015","name":"Bitterfeld-Wolfen, Stadt","type":"Stadt"},"district":{"key":"15082","name":"Anhalt-Bitterfeld","type":"Landkreis"},"federalState":{"key":"15","name":"Sachsen-Anhalt"}},{"name":"Brüder-Lang-Str.","postalCode":"06749","locality":"Bitterfeld-Wolfen","municipality":{"key":"15082015","name":"Bitterfeld-Wolfen, Stadt","type":"Stadt"},"district":{"key":"15082","name":"Anhalt-Bitterfeld","type":"Landkreis"},"federalState":{"key":"15","name":"Sachsen-Anhalt"}},{"name":"Burgstr.","postalCode":"06749","locality":"Bitterfeld-Wolfen","municipality":{"key":"15082015","name":"Bitterfeld-Wolfen, Stadt","type":"Stadt"},"district":{"key":"15082","name":"Anhalt-Bitterfeld","type":"Landkreis"},"federalState":{"key":"15","name":"Sachsen-Anhalt"}},{"name":"Burgtorwall","postalCode":"06749","locality":"Bitterfeld-Wolfen","municipality":{"key":"15082015","name":"Bitterfeld-Wolfen, Stadt","type":"Stadt"},"district":{"key":"15082","name":"Anhalt-Bitterfeld","type":"Landkreis"},"federalState":{"key":"15","name":"Sachsen-Anhalt"}},{"name":"Cäcilienstr.","postalCode":"06808","locality":"Bitterfeld-Wolfen","municipality":{"key":"15082015","name":"Bitterfeld-Wolfen, Stadt","type":"Stadt"},"district":{"key":"15082","name":"Anhalt-Bitterfeld","type":"Landkreis"},"federalState":{"key":"15","name":"Sachsen-Anhalt"}},{"name":"Carl-Maria-von-Weber-Str.","postalCode":"06749","locality":"Bitterfeld-Wolfen","municipality":{"key":"15082015","name":"Bitterfeld-Wolfen, Stadt","type":"Stadt"},"district":{"key":"15082","name":"Anhalt-Bitterfeld","type":"Landkreis"},"federalState":{"key":"15","name":"Sachsen-Anhalt"}},{"name":"Carl-von-Ossietzky-Str.","postalCode":"06749","locality":"Bitterfeld-Wolfen","municipality":{"key":"15082015","name":"Bitterfeld-Wolfen, Stadt","type":"Stadt"},"district":{"key":"15082","name":"Anhalt-Bitterfeld","type":"Landkreis"},"federalState":{"key":"15","name":"Sachsen-Anhalt"}},{"name":"Carl-von-Ossietzky-Str.","postalCode":"06766","locality":"Bitterfeld-Wolfen","municipality":{"key":"15082015","name":"Bitterfeld-Wolfen, Stadt","type":"Stadt"},"district":{"key":"15082","name":"Anhalt-Bitterfeld","type":"Landkreis"},"federalState":{"key":"15","name":"Sachsen-Anhalt"}},{"name":"Carmenstr.","postalCode":"06749","locality":"Bitterfeld-Wolfen","municipality":{"key":"15082015","name":"Bitterfeld-Wolfen, Stadt","type":"Stadt"},"district":{"key":"15082","name":"Anhalt-Bitterfeld","type":"Landkreis"},"federalState":{"key":"15","name":"Sachsen-Anhalt"}},{"name":"Clara-Zetkin-Str.","postalCode":"06766","locality":"Bitterfeld-Wolfen","municipality":{"key":"15082015","name":"Bitterfeld-Wolfen, Stadt","type":"Stadt"},"district":{"key":"15082","name":"Anhalt-Bitterfeld","type":"Landkreis"},"federalState":{"key":"15","name":"Sachsen-Anhalt"}},{"name":"Clara-Zetkin-Str.","postalCode":"06803","locality":"Bitterfeld-Wolfen","municipality":{"key":"15082015","name":"Bitterfeld-Wolfen, Stadt","type":"Stadt"},"district":{"key":"15082","name":"Anhalt-Bitterfeld","type":"Landkreis"},"federalState":{"key":"15","name":"Sachsen-Anhalt"}},{"name":"Clara-Zetkin-Str.","postalCode":"06808","locality":"Bitterfeld-Wolfen","municipality":{"key":"15082015","name":"Bitterfeld-Wolfen, Stadt","type":"Stadt"},"district":{"key":"15082","name":"Anhalt-Bitterfeld","type":"Landkreis"},"federalState":{"key":"15","name":"Sachsen-Anhalt"}},{"name":"Comeniusstr.","postalCode":"06766","locality":"Bitterfeld-Wolfen","municipality":{"key":"15082015","name":"Bitterfeld-Wolfen, Stadt","type":"Stadt"},"district":{"key":"15082","name":"Anhalt-Bitterfeld","type":"Landkreis"},"federalState":{"key":"15","name":"Sachsen-Anhalt"}},{"name":"Damaschkestr.","postalCode":"06766","locality":"Bitterfeld-Wolfen","municipality":{"key":"15082015","name":"Bitterfeld-Wolfen, Stadt","type":"Stadt"},"district":{"key":"15082","name":"Anhalt-Bitterfeld","type":"Landkreis"},"federalState":{"key":"15","name":"Sachsen-Anhalt"}},{"name":"Dammstr.","postalCode":"06749","locality":"Bitterfeld-Wolfen","municipality":{"key":"15082015","name":"Bitterfeld-Wolfen, Stadt","type":"Stadt"},"district":{"key":"15082","name":"Anhalt-Bitterfeld","type":"Landkreis"},"federalState":{"key":"15","name":"Sachsen-Anhalt"}},{"name":"Dessauer Allee","postalCode":"06766","locality":"Bitterfeld-Wolfen","municipality":{"key":"15082015","name":"Bitterfeld-Wolfen, Stadt","type":"Stadt"},"district":{"key":"15082","name":"Anhalt-Bitterfeld","type":"Landkreis"},"federalState":{"key":"15","name":"Sachsen-Anhalt"}},{"name":"Dessauer Str.","postalCode":"06749","locality":"Bitterfeld-Wolfen","municipality":{"key":"15082015","name":"Bitterfeld-Wolfen, Stadt","type":"Stadt"},"district":{"key":"15082","name":"Anhalt-Bitterfeld","type":"Landkreis"},"federalState":{"key":"15","name":"Sachsen-Anhalt"}},{"name":"Dessauer Str.","postalCode":"06803","locality":"Bitterfeld-Wolfen","municipality":{"key":"15082015","name":"Bitterfeld-Wolfen, Stadt","type":"Stadt"},"district":{"key":"15082","name":"Anhalt-Bitterfeld","type":"Landkreis"},"federalState":{"key":"15","name":"Sachsen-Anhalt"}},{"name":"Dimitroffstr.","postalCode":"06803","locality":"Bitterfeld-Wolfen","municipality":{"key":"15082015","name":"Bitterfeld-Wolfen, Stadt","type":"Stadt"},"district":{"key":"15082","name":"Anhalt-Bitterfeld","type":"Landkreis"},"federalState":{"key":"15","name":"Sachsen-Anhalt"}},{"name":"Dorfstr.","postalCode":"06766","locality":"Bitterfeld-Wolfen","municipality":{"key":"15082015","name":"Bitterfeld-Wolfen, Stadt","type":"Stadt"},"district":{"key":"15082","name":"Anhalt-Bitterfeld","type":"Landkreis"},"federalState":{"key":"15","name":"Sachsen-Anhalt"}},{"name":"Dornröschenweg","postalCode":"06749","locality":"Bitterfeld-Wolfen","municipality":{"key":"15082015","name":"Bitterfeld-Wolfen, Stadt","type":"Stadt"},"district":{"key":"15082","name":"Anhalt-Bitterfeld","type":"Landkreis"},"federalState":{"key":"15","name":"Sachsen-Anhalt"}},{"name":"Dorotheenplatz","postalCode":"06808","locality":"Bitterfeld-Wolfen","municipality":{"key":"15082015","name":"Bitterfeld-Wolfen, Stadt","type":"Stadt"},"district":{"key":"15082","name":"Anhalt-Bitterfeld","type":"Landkreis"},"federalState":{"key":"15","name":"Sachsen-Anhalt"}},{"name":"Dr.-Otto-Nuschke-Str.","postalCode":"06766","locality":"Bitterfeld-Wolfen","municipality":{"key":"15082015","name":"Bitterfeld-Wolfen, Stadt","type":"Stadt"},"district":{"key":"15082","name":"Anhalt-Bitterfeld","type":"Landkreis"},"federalState":{"key":"15","name":"Sachsen-Anhalt"}},{"name":"Dürener Str.","postalCode":"06749","locality":"Bitterfeld-Wolfen","municipality":{"key":"15082015","name":"Bitterfeld-Wolfen, Stadt","type":"Stadt"},"district":{"key":"15082","name":"Anhalt-Bitterfeld","type":"Landkreis"},"federalState":{"key":"15","name":"Sachsen-Anhalt"}},{"name":"Edgar-Andre-Str.","postalCode":"06766","locality":"Bitterfeld-Wolfen","municipality":{"key":"15082015","name":"Bitterfeld-Wolfen, Stadt","type":"Stadt"},"district":{"key":"15082","name":"Anhalt-Bitterfeld","type":"Landkreis"},"federalState":{"key":"15","name":"Sachsen-Anhalt"}},{"name":"Eichenweg","postalCode":"06766","locality":"Bitterfeld-Wolfen","municipality":{"key":"15082015","name":"Bitterfeld-Wolfen, Stadt","type":"Stadt"},"district":{"key":"15082","name":"Anhalt-Bitterfeld","type":"Landkreis"},"federalState":{"key":"15","name":"Sachsen-Anhalt"}},{"name":"Einsteinstr.","postalCode":"06749","locality":"Bitterfeld-Wolfen","municipality":{"key":"15082015","name":"Bitterfeld-Wolfen, Stadt","type":"Stadt"},"district":{"key":"15082","name":"Anhalt-Bitterfeld","type":"Landkreis"},"federalState":{"key":"15","name":"Sachsen-Anhalt"}},{"name":"Eisenbahnstr.","postalCode":"06749","locality":"Bitterfeld-Wolfen","municipality":{"key":"15082015","name":"Bitterfeld-Wolfen, Stadt","type":"Stadt"},"district":{"key":"15082","name":"Anhalt-Bitterfeld","type":"Landkreis"},"federalState":{"key":"15","name":"Sachsen-Anhalt"}},{"name":"Eisenbahnstr.","postalCode":"06766","locality":"Bitterfeld-Wolfen","municipality":{"key":"15082015","name":"Bitterfeld-Wolfen, Stadt","type":"Stadt"},"district":{"key":"15082","name":"Anhalt-Bitterfeld","type":"Landkreis"},"federalState":{"key":"15","name":"Sachsen-Anhalt"}},{"name":"Elektronstr.","postalCode":"06749","locality":"Bitterfeld-Wolfen","municipality":{"key":"15082015","name":"Bitterfeld-Wolfen, Stadt","type":"Stadt"},"district":{"key":"15082","name":"Anhalt-Bitterfeld","type":"Landkreis"},"federalState":{"key":"15","name":"Sachsen-Anhalt"}},{"name":"Emil-Obst-Str.","postalCode":"06749","locality":"Bitterfeld-Wolfen","municipality":{"key":"15082015","name":"Bitterfeld-Wolfen, Stadt","type":"Stadt"},"district":{"key":"15082","name":"Anhalt-Bitterfeld","type":"Landkreis"},"federalState":{"key":"15","name":"Sachsen-Anhalt"}},{"name":"Erich-Mühsam-Str.","postalCode":"06766","locality":"Bitterfeld-Wolfen","municipality":{"key":"15082015","name":"Bitterfeld-Wolfen, Stadt","type":"Stadt"},"district":{"key":"15082","name":"Anhalt-Bitterfeld","type":"Landkreis"},"federalState":{"key":"15","name":"Sachsen-Anhalt"}},{"name":"Erich-Weinert-Ring","postalCode":"06766","locality":"Bitterfeld-Wolfen","municipality":{"key":"15082015","name":"Bitterfeld-Wolfen, Stadt","type":"Stadt"},"district":{"key":"15082","name":"Anhalt-Bitterfeld","type":"Landkreis"},"federalState":{"key":"15","name":"Sachsen-Anhalt"}},{"name":"Erlenweg","postalCode":"06749","locality":"Bitterfeld-Wolfen","municipality":{"key":"15082015","name":"Bitterfeld-Wolfen, Stadt","type":"Stadt"},"district":{"key":"15082","name":"Anhalt-Bitterfeld","type":"Landkreis"},"federalState":{"key":"15","name":"Sachsen-Anhalt"}},{"name":"Erlenweg","postalCode":"06766","locality":"Bitterfeld-Wolfen","municipality":{"key":"15082015","name":"Bitterfeld-Wolfen, Stadt","type":"Stadt"},"district":{"key":"15082","name":"Anhalt-Bitterfeld","type":"Landkreis"},"federalState":{"key":"15","name":"Sachsen-Anhalt"}},{"name":"Ernst-Borsbach-Str.","postalCode":"06749","locality":"Bitterfeld-Wolfen","municipality":{"key":"15082015","name":"Bitterfeld-Wolfen, Stadt","type":"Stadt"},"district":{"key":"15082","name":"Anhalt-Bitterfeld","type":"Landkreis"},"federalState":{"key":"15","name":"Sachsen-Anhalt"}},{"name":"Ernst-Thälmann-Platz","postalCode":"06766","locality":"Bitterfeld-Wolfen","municipality":{"key":"15082015","name":"Bitterfeld-Wolfen, Stadt","type":"Stadt"},"district":{"key":"15082","name":"Anhalt-Bitterfeld","type":"Landkreis"},"federalState":{"key":"15","name":"Sachsen-Anhalt"}},{"name":"Ernst-Thälmann-Str.","postalCode":"06803","locality":"Bitterfeld-Wolfen","municipality":{"key":"15082015","name":"Bitterfeld-Wolfen, Stadt","type":"Stadt"},"district":{"key":"15082","name":"Anhalt-Bitterfeld","type":"Landkreis"},"federalState":{"key":"15","name":"Sachsen-Anhalt"}},{"name":"Ernst-Toller-Str.","postalCode":"06766","locality":"Bitterfeld-Wolfen","municipality":{"key":"15082015","name":"Bitterfeld-Wolfen, Stadt","type":"Stadt"},"district":{"key":"15082","name":"Anhalt-Bitterfeld","type":"Landkreis"},"federalState":{"key":"15","name":"Sachsen-Anhalt"}},{"name":"Ertelstr.","postalCode":"06749","locality":"Bitterfeld-Wolfen","municipality":{"key":"15082015","name":"Bitterfeld-Wolfen, Stadt","type":"Stadt"},"district":{"key":"15082","name":"Anhalt-Bitterfeld","type":"Landkreis"},"federalState":{"key":"15","name":"Sachsen-Anhalt"}},{"name":"Eschenweg","postalCode":"06766","locality":"Bitterfeld-Wolfen","municipality":{"key":"15082015","name":"Bitterfeld-Wolfen, Stadt","type":"Stadt"},"district":{"key":"15082","name":"Anhalt-Bitterfeld","type":"Landkreis"},"federalState":{"key":"15","name":"Sachsen-Anhalt"}},{"name":"Ewaldstr.","postalCode":"06808","locality":"Bitterfeld-Wolfen","municipality":{"key":"15082015","name":"Bitterfeld-Wolfen, Stadt","type":"Stadt"},"district":{"key":"15082","name":"Anhalt-Bitterfeld","type":"Landkreis"},"federalState":{"key":"15","name":"Sachsen-Anhalt"}},{"name":"Farbenstr.","postalCode":"06766","locality":"Bitterfeld-Wolfen","municipality":{"key":"15082015","name":"Bitterfeld-Wolfen, Stadt","type":"Stadt"},"district":{"key":"15082","name":"Anhalt-Bitterfeld","type":"Landkreis"},"federalState":{"key":"15","name":"Sachsen-Anhalt"}},{"name":"Farbenstr.","postalCode":"06803","locality":"Bitterfeld-Wolfen","municipality":{"key":"15082015","name":"Bitterfeld-Wolfen, Stadt","type":"Stadt"},"district":{"key":"15082","name":"Anhalt-Bitterfeld","type":"Landkreis"},"federalState":{"key":"15","name":"Sachsen-Anhalt"}},{"name":"Feldrain","postalCode":"06766","locality":"Bitterfeld-Wolfen","municipality":{"key":"15082015","name":"Bitterfeld-Wolfen, Stadt","type":"Stadt"},"district":{"key":"15082","name":"Anhalt-Bitterfeld","type":"Landkreis"},"federalState":{"key":"15","name":"Sachsen-Anhalt"}},{"name":"Feldstr.","postalCode":"06749","locality":"Bitterfeld-Wolfen","municipality":{"key":"15082015","name":"Bitterfeld-Wolfen, Stadt","type":"Stadt"},"district":{"key":"15082","name":"Anhalt-Bitterfeld","type":"Landkreis"},"federalState":{"key":"15","name":"Sachsen-Anhalt"}},{"name":"Feldstr.","postalCode":"06803","locality":"Bitterfeld-Wolfen","municipality":{"key":"15082015","name":"Bitterfeld-Wolfen, Stadt","type":"Stadt"},"district":{"key":"15082","name":"Anhalt-Bitterfeld","type":"Landkreis"},"federalState":{"key":"15","name":"Sachsen-Anhalt"}},{"name":"Feldstr.","postalCode":"06808","locality":"Bitterfeld-Wolfen","municipality":{"key":"15082015","name":"Bitterfeld-Wolfen, Stadt","type":"Stadt"},"district":{"key":"15082","name":"Anhalt-Bitterfeld","type":"Landkreis"},"federalState":{"key":"15","name":"Sachsen-Anhalt"}},{"name":"Fichtenweg","postalCode":"06766","locality":"Bitterfeld-Wolfen","municipality":{"key":"15082015","name":"Bitterfeld-Wolfen, Stadt","type":"Stadt"},"district":{"key":"15082","name":"Anhalt-Bitterfeld","type":"Landkreis"},"federalState":{"key":"15","name":"Sachsen-Anhalt"}},{"name":"Fichtestr.","postalCode":"06766","locality":"Bitterfeld-Wolfen","municipality":{"key":"15082015","name":"Bitterfeld-Wolfen, Stadt","type":"Stadt"},"district":{"key":"15082","name":"Anhalt-Bitterfeld","type":"Landkreis"},"federalState":{"key":"15","name":"Sachsen-Anhalt"}},{"name":"Fiete-Schulze-Str.","postalCode":"06766","locality":"Bitterfeld-Wolfen","municipality":{"key":"15082015","name":"Bitterfeld-Wolfen, Stadt","type":"Stadt"},"district":{"key":"15082","name":"Anhalt-Bitterfeld","type":"Landkreis"},"federalState":{"key":"15","name":"Sachsen-Anhalt"}},{"name":"Filmweg","postalCode":"06766","locality":"Bitterfeld-Wolfen","municipality":{"key":"15082015","name":"Bitterfeld-Wolfen, Stadt","type":"Stadt"},"district":{"key":"15082","name":"Anhalt-Bitterfeld","type":"Landkreis"},"federalState":{"key":"15","name":"Sachsen-Anhalt"}},{"name":"Fläminger Ufer","postalCode":"06749","locality":"Bitterfeld-Wolfen","municipality":{"key":"15082015","name":"Bitterfeld-Wolfen, Stadt","type":"Stadt"},"district":{"key":"15082","name":"Anhalt-Bitterfeld","type":"Landkreis"},"federalState":{"key":"15","name":"Sachsen-Anhalt"}},{"name":"Franz-Mehring-Str.","postalCode":"06766","locality":"Bitterfeld-Wolfen","municipality":{"key":"15082015","name":"Bitterfeld-Wolfen, Stadt","type":"Stadt"},"district":{"key":"15082","name":"Anhalt-Bitterfeld","type":"Landkreis"},"federalState":{"key":"15","name":"Sachsen-Anhalt"}},{"name":"Franz-Schubert-Str.","postalCode":"06749","locality":"Bitterfeld-Wolfen","municipality":{"key":"15082015","name":"Bitterfeld-Wolfen, Stadt","type":"Stadt"},"district":{"key":"15082","name":"Anhalt-Bitterfeld","type":"Landkreis"},"federalState":{"key":"15","name":"Sachsen-Anhalt"}},{"name":"Franzstr.","postalCode":"06803","locality":"Bitterfeld-Wolfen","municipality":{"key":"15082015","name":"Bitterfeld-Wolfen, Stadt","type":"Stadt"},"district":{"key":"15082","name":"Anhalt-Bitterfeld","type":"Landkreis"},"federalState":{"key":"15","name":"Sachsen-Anhalt"}},{"name":"Franzstr.","postalCode":"06808","locality":"Bitterfeld-Wolfen","municipality":{"key":"15082015","name":"Bitterfeld-Wolfen, Stadt","type":"Stadt"},"district":{"key":"15082","name":"Anhalt-Bitterfeld","type":"Landkreis"},"federalState":{"key":"15","name":"Sachsen-Anhalt"}},{"name":"Freiherr-vom-Stein-Str.","postalCode":"06749","locality":"Bitterfeld-Wolfen","municipality":{"key":"15082015","name":"Bitterfeld-Wolfen, Stadt","type":"Stadt"},"district":{"key":"15082","name":"Anhalt-Bitterfeld","type":"Landkreis"},"federalState":{"key":"15","name":"Sachsen-Anhalt"}},{"name":"Freiherr-vom-Stein-Str.","postalCode":"06766","locality":"Bitterfeld-Wolfen","municipality":{"key":"15082015","name":"Bitterfeld-Wolfen, Stadt","type":"Stadt"},"district":{"key":"15082","name":"Anhalt-Bitterfeld","type":"Landkreis"},"federalState":{"key":"15","name":"Sachsen-Anhalt"}},{"name":"Friedensallee","postalCode":"06766","locality":"Bitterfeld-Wolfen","municipality":{"key":"15082015","name":"Bitterfeld-Wolfen, Stadt","type":"Stadt"},"district":{"key":"15082","name":"Anhalt-Bitterfeld","type":"Landkreis"},"federalState":{"key":"15","name":"Sachsen-Anhalt"}},{"name":"Friedensstr.","postalCode":"06749","locality":"Bitterfeld-Wolfen","municipality":{"key":"15082015","name":"Bitterfeld-Wolfen, Stadt","type":"Stadt"},"district":{"key":"15082","name":"Anhalt-Bitterfeld","type":"Landkreis"},"federalState":{"key":"15","name":"Sachsen-Anhalt"}},{"name":"Friedensstr.","postalCode":"06766","locality":"Bitterfeld-Wolfen","municipality":{"key":"15082015","name":"Bitterfeld-Wolfen, Stadt","type":"Stadt"},"district":{"key":"15082","name":"Anhalt-Bitterfeld","type":"Landkreis"},"federalState":{"key":"15","name":"Sachsen-Anhalt"}},{"name":"Friedensweg","postalCode":"06766","locality":"Bitterfeld-Wolfen","municipality":{"key":"15082015","name":"Bitterfeld-Wolfen, Stadt","type":"Stadt"},"district":{"key":"15082","name":"Anhalt-Bitterfeld","type":"Landkreis"},"federalState":{"key":"15","name":"Sachsen-Anhalt"}},{"name":"Friedhofstr.","postalCode":"06766","locality":"Bitterfeld-Wolfen","municipality":{"key":"15082015","name":"Bitterfeld-Wolfen, Stadt","type":"Stadt"},"district":{"key":"15082","name":"Anhalt-Bitterfeld","type":"Landkreis"},"federalState":{"key":"15","name":"Sachsen-Anhalt"}},{"name":"Friedhofstr.","postalCode":"06803","locality":"Bitterfeld-Wolfen","municipality":{"key":"15082015","name":"Bitterfeld-Wolfen, Stadt","type":"Stadt"},"district":{"key":"15082","name":"Anhalt-Bitterfeld","type":"Landkreis"},"federalState":{"key":"15","name":"Sachsen-Anhalt"}},{"name":"Friedrich-Ebert-Str.","postalCode":"06808","locality":"Bitterfeld-Wolfen","municipality":{"key":"15082015","name":"Bitterfeld-Wolfen, Stadt","type":"Stadt"},"district":{"key":"15082","name":"Anhalt-Bitterfeld","type":"Landkreis"},"federalState":{"key":"15","name":"Sachsen-Anhalt"}},{"name":"Friedrich-Engels-Str.","postalCode":"06766","locality":"Bitterfeld-Wolfen","municipality":{"key":"15082015","name":"Bitterfeld-Wolfen, Stadt","type":"Stadt"},"district":{"key":"15082","name":"Anhalt-Bitterfeld","type":"Landkreis"},"federalState":{"key":"15","name":"Sachsen-Anhalt"}},{"name":"Friedrich-Engels-Str.","postalCode":"06803","locality":"Bitterfeld-Wolfen","municipality":{"key":"15082015","name":"Bitterfeld-Wolfen, Stadt","type":"Stadt"},"district":{"key":"15082","name":"Anhalt-Bitterfeld","type":"Landkreis"},"federalState":{"key":"15","name":"Sachsen-Anhalt"}},{"name":"Friedrich-Ludwig-Jahn-Str.","postalCode":"06749","locality":"Bitterfeld-Wolfen","municipality":{"key":"15082015","name":"Bitterfeld-Wolfen, Stadt","type":"Stadt"},"district":{"key":"15082","name":"Anhalt-Bitterfeld","type":"Landkreis"},"federalState":{"key":"15","name":"Sachsen-Anhalt"}},{"name":"Friedrich-Wöhler-Str.","postalCode":"06749","locality":"Bitterfeld-Wolfen","municipality":{"key":"15082015","name":"Bitterfeld-Wolfen, Stadt","type":"Stadt"},"district":{"key":"15082","name":"Anhalt-Bitterfeld","type":"Landkreis"},"federalState":{"key":"15","name":"Sachsen-Anhalt"}},{"name":"Friesenstr.","postalCode":"06749","locality":"Bitterfeld-Wolfen","municipality":{"key":"15082015","name":"Bitterfeld-Wolfen, Stadt","type":"Stadt"},"district":{"key":"15082","name":"Anhalt-Bitterfeld","type":"Landkreis"},"federalState":{"key":"15","name":"Sachsen-Anhalt"}},{"name":"Friesenstr.","postalCode":"06766","locality":"Bitterfeld-Wolfen","municipality":{"key":"15082015","name":"Bitterfeld-Wolfen, Stadt","type":"Stadt"},"district":{"key":"15082","name":"Anhalt-Bitterfeld","type":"Landkreis"},"federalState":{"key":"15","name":"Sachsen-Anhalt"}},{"name":"Fritz-Erdner-Str.","postalCode":"06749","locality":"Bitterfeld-Wolfen","municipality":{"key":"15082015","name":"Bitterfeld-Wolfen, Stadt","type":"Stadt"},"district":{"key":"15082","name":"Anhalt-Bitterfeld","type":"Landkreis"},"federalState":{"key":"15","name":"Sachsen-Anhalt"}},{"name":"Fritz-Heckert-Str.","postalCode":"06766","locality":"Bitterfeld-Wolfen","municipality":{"key":"15082015","name":"Bitterfeld-Wolfen, Stadt","type":"Stadt"},"district":{"key":"15082","name":"Anhalt-Bitterfeld","type":"Landkreis"},"federalState":{"key":"15","name":"Sachsen-Anhalt"}},{"name":"Fritz-Reuter-Str.","postalCode":"06749","locality":"Bitterfeld-Wolfen","municipality":{"key":"15082015","name":"Bitterfeld-Wolfen, Stadt","type":"Stadt"},"district":{"key":"15082","name":"Anhalt-Bitterfeld","type":"Landkreis"},"federalState":{"key":"15","name":"Sachsen-Anhalt"}},{"name":"Fritz-Reuter-Str.","postalCode":"06766","locality":"Bitterfeld-Wolfen","municipality":{"key":"15082015","name":"Bitterfeld-Wolfen, Stadt","type":"Stadt"},"district":{"key":"15082","name":"Anhalt-Bitterfeld","type":"Landkreis"},"federalState":{"key":"15","name":"Sachsen-Anhalt"}},{"name":"Fritz-Weineck-Str.","postalCode":"06766","locality":"Bitterfeld-Wolfen","municipality":{"key":"15082015","name":"Bitterfeld-Wolfen, Stadt","type":"Stadt"},"district":{"key":"15082","name":"Anhalt-Bitterfeld","type":"Landkreis"},"federalState":{"key":"15","name":"Sachsen-Anhalt"}},{"name":"Fuhneanger","postalCode":"06766","locality":"Bitterfeld-Wolfen","municipality":{"key":"15082015","name":"Bitterfeld-Wolfen, Stadt","type":"Stadt"},"district":{"key":"15082","name":"Anhalt-Bitterfeld","type":"Landkreis"},"federalState":{"key":"15","name":"Sachsen-Anhalt"}},{"name":"Fuhneblick","postalCode":"06766","locality":"Bitterfeld-Wolfen","municipality":{"key":"15082015","name":"Bitterfeld-Wolfen, Stadt","type":"Stadt"},"district":{"key":"15082","name":"Anhalt-Bitterfeld","type":"Landkreis"},"federalState":{"key":"15","name":"Sachsen-Anhalt"}},{"name":"Fuhnestr.","postalCode":"06766","locality":"Bitterfeld-Wolfen","municipality":{"key":"15082015","name":"Bitterfeld-Wolfen, Stadt","type":"Stadt"},"district":{"key":"15082","name":"Anhalt-Bitterfeld","type":"Landkreis"},"federalState":{"key":"15","name":"Sachsen-Anhalt"}},{"name":"Fuhneweg","postalCode":"06766","locality":"Bitterfeld-Wolfen","municipality":{"key":"15082015","name":"Bitterfeld-Wolfen, Stadt","type":"Stadt"},"district":{"key":"15082","name":"Anhalt-Bitterfeld","type":"Landkreis"},"federalState":{"key":"15","name":"Sachsen-Anhalt"}},{"name":"Gartenstr.","postalCode":"06749","locality":"Bitterfeld-Wolfen","municipality":{"key":"15082015","name":"Bitterfeld-Wolfen, Stadt","type":"Stadt"},"district":{"key":"15082","name":"Anhalt-Bitterfeld","type":"Landkreis"},"federalState":{"key":"15","name":"Sachsen-Anhalt"}},{"name":"Gartenstr.","postalCode":"06766","locality":"Bitterfeld-Wolfen","municipality":{"key":"15082015","name":"Bitterfeld-Wolfen, Stadt","type":"Stadt"},"district":{"key":"15082","name":"Anhalt-Bitterfeld","type":"Landkreis"},"federalState":{"key":"15","name":"Sachsen-Anhalt"}},{"name":"Gartenstr.","postalCode":"06803","locality":"Bitterfeld-Wolfen","municipality":{"key":"15082015","name":"Bitterfeld-Wolfen, Stadt","type":"Stadt"},"district":{"key":"15082","name":"Anhalt-Bitterfeld","type":"Landkreis"},"federalState":{"key":"15","name":"Sachsen-Anhalt"}},{"name":"Gartenstr.","postalCode":"06808","locality":"Bitterfeld-Wolfen","municipality":{"key":"15082015","name":"Bitterfeld-Wolfen, Stadt","type":"Stadt"},"district":{"key":"15082","name":"Anhalt-Bitterfeld","type":"Landkreis"},"federalState":{"key":"15","name":"Sachsen-Anhalt"}},{"name":"Gartenweg","postalCode":"06766","locality":"Bitterfeld-Wolfen","municipality":{"key":"15082015","name":"Bitterfeld-Wolfen, Stadt","type":"Stadt"},"district":{"key":"15082","name":"Anhalt-Bitterfeld","type":"Landkreis"},"federalState":{"key":"15","name":"Sachsen-Anhalt"}},{"name":"Georg-Friedrich-Händel-Str.","postalCode":"06749","locality":"Bitterfeld-Wolfen","municipality":{"key":"15082015","name":"Bitterfeld-Wolfen, Stadt","type":"Stadt"},"district":{"key":"15082","name":"Anhalt-Bitterfeld","type":"Landkreis"},"federalState":{"key":"15","name":"Sachsen-Anhalt"}},{"name":"Gerhart-Hauptmann-Str.","postalCode":"06766","locality":"Bitterfeld-Wolfen","municipality":{"key":"15082015","name":"Bitterfeld-Wolfen, Stadt","type":"Stadt"},"district":{"key":"15082","name":"Anhalt-Bitterfeld","type":"Landkreis"},"federalState":{"key":"15","name":"Sachsen-Anhalt"}},{"name":"Geschwister-Scholl-Str.","postalCode":"06766","locality":"Bitterfeld-Wolfen","municipality":{"key":"15082015","name":"Bitterfeld-Wolfen, Stadt","type":"Stadt"},"district":{"key":"15082","name":"Anhalt-Bitterfeld","type":"Landkreis"},"federalState":{"key":"15","name":"Sachsen-Anhalt"}},{"name":"Glück-Auf-Str.","postalCode":"06749","locality":"Bitterfeld-Wolfen","municipality":{"key":"15082015","name":"Bitterfeld-Wolfen, Stadt","type":"Stadt"},"district":{"key":"15082","name":"Anhalt-Bitterfeld","type":"Landkreis"},"federalState":{"key":"15","name":"Sachsen-Anhalt"}},{"name":"Glück-Auf-Str.","postalCode":"06808","locality":"Bitterfeld-Wolfen","municipality":{"key":"15082015","name":"Bitterfeld-Wolfen, Stadt","type":"Stadt"},"district":{"key":"15082","name":"Anhalt-Bitterfeld","type":"Landkreis"},"federalState":{"key":"15","name":"Sachsen-Anhalt"}},{"name":"Goethestr.","postalCode":"06749","locality":"Bitterfeld-Wolfen","municipality":{"key":"15082015","name":"Bitterfeld-Wolfen, Stadt","type":"Stadt"},"district":{"key":"15082","name":"Anhalt-Bitterfeld","type":"Landkreis"},"federalState":{"key":"15","name":"Sachsen-Anhalt"}},{"name":"Goethestr.","postalCode":"06766","locality":"Bitterfeld-Wolfen","municipality":{"key":"15082015","name":"Bitterfeld-Wolfen, Stadt","type":"Stadt"},"district":{"key":"15082","name":"Anhalt-Bitterfeld","type":"Landkreis"},"federalState":{"key":"15","name":"Sachsen-Anhalt"}},{"name":"Goethestr.","postalCode":"06803","locality":"Bitterfeld-Wolfen","municipality":{"key":"15082015","name":"Bitterfeld-Wolfen, Stadt","type":"Stadt"},"district":{"key":"15082","name":"Anhalt-Bitterfeld","type":"Landkreis"},"federalState":{"key":"15","name":"Sachsen-Anhalt"}},{"name":"Grenzstr.","postalCode":"06766","locality":"Bitterfeld-Wolfen","municipality":{"key":"15082015","name":"Bitterfeld-Wolfen, Stadt","type":"Stadt"},"district":{"key":"15082","name":"Anhalt-Bitterfeld","type":"Landkreis"},"federalState":{"key":"15","name":"Sachsen-Anhalt"}},{"name":"Greppiner Str.","postalCode":"06749","locality":"Bitterfeld-Wolfen","municipality":{"key":"15082015","name":"Bitterfeld-Wolfen, Stadt","type":"Stadt"},"district":{"key":"15082","name":"Anhalt-Bitterfeld","type":"Landkreis"},"federalState":{"key":"15","name":"Sachsen-Anhalt"}},{"name":"Greppiner Str.","postalCode":"06766","locality":"Bitterfeld-Wolfen","municipality":{"key":"15082015","name":"Bitterfeld-Wolfen, Stadt","type":"Stadt"},"district":{"key":"15082","name":"Anhalt-Bitterfeld","type":"Landkreis"},"federalState":{"key":"15","name":"Sachsen-Anhalt"}},{"name":"Grünstr.","postalCode":"06749","locality":"Bitterfeld-Wolfen","municipality":{"key":"15082015","name":"Bitterfeld-Wolfen, Stadt","type":"Stadt"},"district":{"key":"15082","name":"Anhalt-Bitterfeld","type":"Landkreis"},"federalState":{"key":"15","name":"Sachsen-Anhalt"}},{"name":"Grünstr.","postalCode":"06766","locality":"Bitterfeld-Wolfen","municipality":{"key":"15082015","name":"Bitterfeld-Wolfen, Stadt","type":"Stadt"},"district":{"key":"15082","name":"Anhalt-Bitterfeld","type":"Landkreis"},"federalState":{"key":"15","name":"Sachsen-Anhalt"}},{"name":"Grünstr.","postalCode":"06803","locality":"Bitterfeld-Wolfen","municipality":{"key":"15082015","name":"Bitterfeld-Wolfen, Stadt","type":"Stadt"},"district":{"key":"15082","name":"Anhalt-Bitterfeld","type":"Landkreis"},"federalState":{"key":"15","name":"Sachsen-Anhalt"}},{"name":"Guardianstr.","postalCode":"06766","locality":"Bitterfeld-Wolfen","municipality":{"key":"15082015","name":"Bitterfeld-Wolfen, Stadt","type":"Stadt"},"district":{"key":"15082","name":"Anhalt-Bitterfeld","type":"Landkreis"},"federalState":{"key":"15","name":"Sachsen-Anhalt"}},{"name":"Gutenbergstr.","postalCode":"06766","locality":"Bitterfeld-Wolfen","municipality":{"key":"15082015","name":"Bitterfeld-Wolfen, Stadt","type":"Stadt"},"district":{"key":"15082","name":"Anhalt-Bitterfeld","type":"Landkreis"},"federalState":{"key":"15","name":"Sachsen-Anhalt"}},{"name":"Güterbahnhofstr.","postalCode":"06749","locality":"Bitterfeld-Wolfen","municipality":{"key":"15082015","name":"Bitterfeld-Wolfen, Stadt","type":"Stadt"},"district":{"key":"15082","name":"Anhalt-Bitterfeld","type":"Landkreis"},"federalState":{"key":"15","name":"Sachsen-Anhalt"}},{"name":"GutsMuthsstr.","postalCode":"06749","locality":"Bitterfeld-Wolfen","municipality":{"key":"15082015","name":"Bitterfeld-Wolfen, Stadt","type":"Stadt"},"district":{"key":"15082","name":"Anhalt-Bitterfeld","type":"Landkreis"},"federalState":{"key":"15","name":"Sachsen-Anhalt"}},{"name":"Guts-Muths-Str.","postalCode":"06766","locality":"Bitterfeld-Wolfen","municipality":{"key":"15082015","name":"Bitterfeld-Wolfen, Stadt","type":"Stadt"},"district":{"key":"15082","name":"Anhalt-Bitterfeld","type":"Landkreis"},"federalState":{"key":"15","name":"Sachsen-Anhalt"}},{"name":"Hahnstückenweg","postalCode":"06749","locality":"Bitterfeld-Wolfen","municipality":{"key":"15082015","name":"Bitterfeld-Wolfen, Stadt","type":"Stadt"},"district":{"key":"15082","name":"Anhalt-Bitterfeld","type":"Landkreis"},"federalState":{"key":"15","name":"Sachsen-Anhalt"}},{"name":"Hallesche Str.","postalCode":"06808","locality":"Bitterfeld-Wolfen","municipality":{"key":"15082015","name":"Bitterfeld-Wolfen, Stadt","type":"Stadt"},"district":{"key":"15082","name":"Anhalt-Bitterfeld","type":"Landkreis"},"federalState":{"key":"15","name":"Sachsen-Anhalt"}},{"name":"Händelplatz","postalCode":"06766","locality":"Bitterfeld-Wolfen","municipality":{"key":"15082015","name":"Bitterfeld-Wolfen, Stadt","type":"Stadt"},"district":{"key":"15082","name":"Anhalt-Bitterfeld","type":"Landkreis"},"federalState":{"key":"15","name":"Sachsen-Anhalt"}},{"name":"Hans-Beimler-Str.","postalCode":"06766","locality":"Bitterfeld-Wolfen","municipality":{"key":"15082015","name":"Bitterfeld-Wolfen, Stadt","type":"Stadt"},"district":{"key":"15082","name":"Anhalt-Bitterfeld","type":"Landkreis"},"federalState":{"key":"15","name":"Sachsen-Anhalt"}},{"name":"Hardenbergstr.","postalCode":"06749","locality":"Bitterfeld-Wolfen","municipality":{"key":"15082015","name":"Bitterfeld-Wolfen, Stadt","type":"Stadt"},"district":{"key":"15082","name":"Anhalt-Bitterfeld","type":"Landkreis"},"federalState":{"key":"15","name":"Sachsen-Anhalt"}},{"name":"Hauptstr.","postalCode":"06808","locality":"Bitterfeld-Wolfen","municipality":{"key":"15082015","name":"Bitterfeld-Wolfen, Stadt","type":"Stadt"},"district":{"key":"15082","name":"Anhalt-Bitterfeld","type":"Landkreis"},"federalState":{"key":"15","name":"Sachsen-Anhalt"}},{"name":"Heideloher Str.","postalCode":"06766","locality":"Bitterfeld-Wolfen","municipality":{"key":"15082015","name":"Bitterfeld-Wolfen, Stadt","type":"Stadt"},"district":{"key":"15082","name":"Anhalt-Bitterfeld","type":"Landkreis"},"federalState":{"key":"15","name":"Sachsen-Anhalt"}},{"name":"Heimstr.","postalCode":"06766","locality":"Bitterfeld-Wolfen","municipality":{"key":"15082015","name":"Bitterfeld-Wolfen, Stadt","type":"Stadt"},"district":{"key":"15082","name":"Anhalt-Bitterfeld","type":"Landkreis"},"federalState":{"key":"15","name":"Sachsen-Anhalt"}},{"name":"Heinestr.","postalCode":"06803","locality":"Bitterfeld-Wolfen","municipality":{"key":"15082015","name":"Bitterfeld-Wolfen, Stadt","type":"Stadt"},"district":{"key":"15082","name":"Anhalt-Bitterfeld","type":"Landkreis"},"federalState":{"key":"15","name":"Sachsen-Anhalt"}},{"name":"Heinrich-Böll-Str.","postalCode":"06766","locality":"Bitterfeld-Wolfen","municipality":{"key":"15082015","name":"Bitterfeld-Wolfen, Stadt","type":"Stadt"},"district":{"key":"15082","name":"Anhalt-Bitterfeld","type":"Landkreis"},"federalState":{"key":"15","name":"Sachsen-Anhalt"}},{"name":"Heinrich-Heine-Str.","postalCode":"06766","locality":"Bitterfeld-Wolfen","municipality":{"key":"15082015","name":"Bitterfeld-Wolfen, Stadt","type":"Stadt"},"district":{"key":"15082","name":"Anhalt-Bitterfeld","type":"Landkreis"},"federalState":{"key":"15","name":"Sachsen-Anhalt"}},{"name":"Heinrich-Schütz-Str.","postalCode":"06749","locality":"Bitterfeld-Wolfen","municipality":{"key":"15082015","name":"Bitterfeld-Wolfen, Stadt","type":"Stadt"},"district":{"key":"15082","name":"Anhalt-Bitterfeld","type":"Landkreis"},"federalState":{"key":"15","name":"Sachsen-Anhalt"}},{"name":"Heinrichstr.","postalCode":"06808","locality":"Bitterfeld-Wolfen","municipality":{"key":"15082015","name":"Bitterfeld-Wolfen, Stadt","type":"Stadt"},"district":{"key":"15082","name":"Anhalt-Bitterfeld","type":"Landkreis"},"federalState":{"key":"15","name":"Sachsen-Anhalt"}},{"name":"Heinrich-von-Kleist-Str.","postalCode":"06749","locality":"Bitterfeld-Wolfen","municipality":{"key":"15082015","name":"Bitterfeld-Wolfen, Stadt","type":"Stadt"},"district":{"key":"15082","name":"Anhalt-Bitterfeld","type":"Landkreis"},"federalState":{"key":"15","name":"Sachsen-Anhalt"}},{"name":"Helenenstr.","postalCode":"06808","locality":"Bitterfeld-Wolfen","municipality":{"key":"15082015","name":"Bitterfeld-Wolfen, Stadt","type":"Stadt"},"district":{"key":"15082","name":"Anhalt-Bitterfeld","type":"Landkreis"},"federalState":{"key":"15","name":"Sachsen-Anhalt"}},{"name":"Heraeusstr.","postalCode":"06749","locality":"Bitterfeld-Wolfen","municipality":{"key":"15082015","name":"Bitterfeld-Wolfen, Stadt","type":"Stadt"},"district":{"key":"15082","name":"Anhalt-Bitterfeld","type":"Landkreis"},"federalState":{"key":"15","name":"Sachsen-Anhalt"}},{"name":"Heraeusstr.","postalCode":"06803","locality":"Bitterfeld-Wolfen","municipality":{"key":"15082015","name":"Bitterfeld-Wolfen, Stadt","type":"Stadt"},"district":{"key":"15082","name":"Anhalt-Bitterfeld","type":"Landkreis"},"federalState":{"key":"15","name":"Sachsen-Anhalt"}},{"name":"Herderstr.","postalCode":"06766","locality":"Bitterfeld-Wolfen","municipality":{"key":"15082015","name":"Bitterfeld-Wolfen, Stadt","type":"Stadt"},"district":{"key":"15082","name":"Anhalt-Bitterfeld","type":"Landkreis"},"federalState":{"key":"15","name":"Sachsen-Anhalt"}},{"name":"Hermann-Duncker-Str.","postalCode":"06766","locality":"Bitterfeld-Wolfen","municipality":{"key":"15082015","name":"Bitterfeld-Wolfen, Stadt","type":"Stadt"},"district":{"key":"15082","name":"Anhalt-Bitterfeld","type":"Landkreis"},"federalState":{"key":"15","name":"Sachsen-Anhalt"}},{"name":"Heuweg","postalCode":"06766","locality":"Bitterfeld-Wolfen","municipality":{"key":"15082015","name":"Bitterfeld-Wolfen, Stadt","type":"Stadt"},"district":{"key":"15082","name":"Anhalt-Bitterfeld","type":"Landkreis"},"federalState":{"key":"15","name":"Sachsen-Anhalt"}},{"name":"H.-Falke-Str.","postalCode":"06766","locality":"Bitterfeld-Wolfen","municipality":{"key":"15082015","name":"Bitterfeld-Wolfen, Stadt","type":"Stadt"},"district":{"key":"15082","name":"Anhalt-Bitterfeld","type":"Landkreis"},"federalState":{"key":"15","name":"Sachsen-Anhalt"}},{"name":"Hillandstr.","postalCode":"06803","locality":"Bitterfeld-Wolfen","municipality":{"key":"15082015","name":"Bitterfeld-Wolfen, Stadt","type":"Stadt"},"district":{"key":"15082","name":"Anhalt-Bitterfeld","type":"Landkreis"},"federalState":{"key":"15","name":"Sachsen-Anhalt"}},{"name":"Hinter dem Bahnhof","postalCode":"06749","locality":"Bitterfeld-Wolfen","municipality":{"key":"15082015","name":"Bitterfeld-Wolfen, Stadt","type":"Stadt"},"district":{"key":"15082","name":"Anhalt-Bitterfeld","type":"Landkreis"},"federalState":{"key":"15","name":"Sachsen-Anhalt"}},{"name":"Hinter dem Krankenhaus","postalCode":"06749","locality":"Bitterfeld-Wolfen","municipality":{"key":"15082015","name":"Bitterfeld-Wolfen, Stadt","type":"Stadt"},"district":{"key":"15082","name":"Anhalt-Bitterfeld","type":"Landkreis"},"federalState":{"key":"15","name":"Sachsen-Anhalt"}},{"name":"Hintere Dorfstr.","postalCode":"06808","locality":"Bitterfeld-Wolfen","municipality":{"key":"15082015","name":"Bitterfeld-Wolfen, Stadt","type":"Stadt"},"district":{"key":"15082","name":"Anhalt-Bitterfeld","type":"Landkreis"},"federalState":{"key":"15","name":"Sachsen-Anhalt"}},{"name":"Hitschkendorfer Str.","postalCode":"06766","locality":"Bitterfeld-Wolfen","municipality":{"key":"15082015","name":"Bitterfeld-Wolfen, Stadt","type":"Stadt"},"district":{"key":"15082","name":"Anhalt-Bitterfeld","type":"Landkreis"},"federalState":{"key":"15","name":"Sachsen-Anhalt"}},{"name":"Holzweißiger Str.","postalCode":"06749","locality":"Bitterfeld-Wolfen","municipality":{"key":"15082015","name":"Bitterfeld-Wolfen, Stadt","type":"Stadt"},"district":{"key":"15082","name":"Anhalt-Bitterfeld","type":"Landkreis"},"federalState":{"key":"15","name":"Sachsen-Anhalt"}},{"name":"Hugo-Preuß-Str.","postalCode":"06803","locality":"Bitterfeld-Wolfen","municipality":{"key":"15082015","name":"Bitterfeld-Wolfen, Stadt","type":"Stadt"},"district":{"key":"15082","name":"Anhalt-Bitterfeld","type":"Landkreis"},"federalState":{"key":"15","name":"Sachsen-Anhalt"}},{"name":"Humboldtstr.","postalCode":"06749","locality":"Bitterfeld-Wolfen","municipality":{"key":"15082015","name":"Bitterfeld-Wolfen, Stadt","type":"Stadt"},"district":{"key":"15082","name":"Anhalt-Bitterfeld","type":"Landkreis"},"federalState":{"key":"15","name":"Sachsen-Anhalt"}},{"name":"Humboldtstr.","postalCode":"06766","locality":"Bitterfeld-Wolfen","municipality":{"key":"15082015","name":"Bitterfeld-Wolfen, Stadt","type":"Stadt"},"district":{"key":"15082","name":"Anhalt-Bitterfeld","type":"Landkreis"},"federalState":{"key":"15","name":"Sachsen-Anhalt"}},{"name":"Ignatz-Stroof-Str.","postalCode":"06749","locality":"Bitterfeld-Wolfen","municipality":{"key":"15082015","name":"Bitterfeld-Wolfen, Stadt","type":"Stadt"},"district":{"key":"15082","name":"Anhalt-Bitterfeld","type":"Landkreis"},"federalState":{"key":"15","name":"Sachsen-Anhalt"}},{"name":"Im Akazienwinkel","postalCode":"06766","locality":"Bitterfeld-Wolfen","municipality":{"key":"15082015","name":"Bitterfeld-Wolfen, Stadt","type":"Stadt"},"district":{"key":"15082","name":"Anhalt-Bitterfeld","type":"Landkreis"},"federalState":{"key":"15","name":"Sachsen-Anhalt"}},{"name":"In den Pusseln","postalCode":"06766","locality":"Bitterfeld-Wolfen","municipality":{"key":"15082015","name":"Bitterfeld-Wolfen, Stadt","type":"Stadt"},"district":{"key":"15082","name":"Anhalt-Bitterfeld","type":"Landkreis"},"federalState":{"key":"15","name":"Sachsen-Anhalt"}},{"name":"Jahnstr.","postalCode":"06766","locality":"Bitterfeld-Wolfen","municipality":{"key":"15082015","name":"Bitterfeld-Wolfen, Stadt","type":"Stadt"},"district":{"key":"15082","name":"Anhalt-Bitterfeld","type":"Landkreis"},"federalState":{"key":"15","name":"Sachsen-Anhalt"}},{"name":"Jeßnitzer Str.","postalCode":"06749","locality":"Bitterfeld-Wolfen","municipality":{"key":"15082015","name":"Bitterfeld-Wolfen, Stadt","type":"Stadt"},"district":{"key":"15082","name":"Anhalt-Bitterfeld","type":"Landkreis"},"federalState":{"key":"15","name":"Sachsen-Anhalt"}},{"name":"Jeßnitzer Str.","postalCode":"06803","locality":"Bitterfeld-Wolfen","municipality":{"key":"15082015","name":"Bitterfeld-Wolfen, Stadt","type":"Stadt"},"district":{"key":"15082","name":"Anhalt-Bitterfeld","type":"Landkreis"},"federalState":{"key":"15","name":"Sachsen-Anhalt"}},{"name":"Jeßnitzer Wende","postalCode":"06766","locality":"Bitterfeld-Wolfen","municipality":{"key":"15082015","name":"Bitterfeld-Wolfen, Stadt","type":"Stadt"},"district":{"key":"15082","name":"Anhalt-Bitterfeld","type":"Landkreis"},"federalState":{"key":"15","name":"Sachsen-Anhalt"}},{"name":"Johannes-R.-Becher-Str.","postalCode":"06749","locality":"Bitterfeld-Wolfen","municipality":{"key":"15082015","name":"Bitterfeld-Wolfen, Stadt","type":"Stadt"},"district":{"key":"15082","name":"Anhalt-Bitterfeld","type":"Landkreis"},"federalState":{"key":"15","name":"Sachsen-Anhalt"}},{"name":"Johannes-Robert-Becher-Str.","postalCode":"06766","locality":"Bitterfeld-Wolfen","municipality":{"key":"15082015","name":"Bitterfeld-Wolfen, Stadt","type":"Stadt"},"district":{"key":"15082","name":"Anhalt-Bitterfeld","type":"Landkreis"},"federalState":{"key":"15","name":"Sachsen-Anhalt"}},{"name":"Johann-Sebastian-Bach-Str.","postalCode":"06749","locality":"Bitterfeld-Wolfen","municipality":{"key":"15082015","name":"Bitterfeld-Wolfen, Stadt","type":"Stadt"},"district":{"key":"15082","name":"Anhalt-Bitterfeld","type":"Landkreis"},"federalState":{"key":"15","name":"Sachsen-Anhalt"}},{"name":"Johann-Strauß-Str.","postalCode":"06749","locality":"Bitterfeld-Wolfen","municipality":{"key":"15082015","name":"Bitterfeld-Wolfen, Stadt","type":"Stadt"},"district":{"key":"15082","name":"Anhalt-Bitterfeld","type":"Landkreis"},"federalState":{"key":"15","name":"Sachsen-Anhalt"}},{"name":"John-Schehr-Str.","postalCode":"06766","locality":"Bitterfeld-Wolfen","municipality":{"key":"15082015","name":"Bitterfeld-Wolfen, Stadt","type":"Stadt"},"district":{"key":"15082","name":"Anhalt-Bitterfeld","type":"Landkreis"},"federalState":{"key":"15","name":"Sachsen-Anhalt"}},{"name":"Jörichauer Str.","postalCode":"06766","locality":"Bitterfeld-Wolfen","municipality":{"key":"15082015","name":"Bitterfeld-Wolfen, Stadt","type":"Stadt"},"district":{"key":"15082","name":"Anhalt-Bitterfeld","type":"Landkreis"},"federalState":{"key":"15","name":"Sachsen-Anhalt"}},{"name":"Joseph-Haydn-Str.","postalCode":"06749","locality":"Bitterfeld-Wolfen","municipality":{"key":"15082015","name":"Bitterfeld-Wolfen, Stadt","type":"Stadt"},"district":{"key":"15082","name":"Anhalt-Bitterfeld","type":"Landkreis"},"federalState":{"key":"15","name":"Sachsen-Anhalt"}},{"name":"Justus-von-Liebig-Str.","postalCode":"06749","locality":"Bitterfeld-Wolfen","municipality":{"key":"15082015","name":"Bitterfeld-Wolfen, Stadt","type":"Stadt"},"district":{"key":"15082","name":"Anhalt-Bitterfeld","type":"Landkreis"},"federalState":{"key":"15","name":"Sachsen-Anhalt"}},{"name":"Kantstr.","postalCode":"06803","locality":"Bitterfeld-Wolfen","municipality":{"key":"15082015","name":"Bitterfeld-Wolfen, Stadt","type":"Stadt"},"district":{"key":"15082","name":"Anhalt-Bitterfeld","type":"Landkreis"},"federalState":{"key":"15","name":"Sachsen-Anhalt"}},{"name":"Karl-Liebknecht-Str.","postalCode":"06766","locality":"Bitterfeld-Wolfen","municipality":{"key":"15082015","name":"Bitterfeld-Wolfen, Stadt","type":"Stadt"},"district":{"key":"15082","name":"Anhalt-Bitterfeld","type":"Landkreis"},"federalState":{"key":"15","name":"Sachsen-Anhalt"}},{"name":"Karl-Liebknecht-Str.","postalCode":"06803","locality":"Bitterfeld-Wolfen","municipality":{"key":"15082015","name":"Bitterfeld-Wolfen, Stadt","type":"Stadt"},"district":{"key":"15082","name":"Anhalt-Bitterfeld","type":"Landkreis"},"federalState":{"key":"15","name":"Sachsen-Anhalt"}},{"name":"Karl-Liebknecht-Str.","postalCode":"06808","locality":"Bitterfeld-Wolfen","municipality":{"key":"15082015","name":"Bitterfeld-Wolfen, Stadt","type":"Stadt"},"district":{"key":"15082","name":"Anhalt-Bitterfeld","type":"Landkreis"},"federalState":{"key":"15","name":"Sachsen-Anhalt"}},{"name":"Karl-Marx-Str.","postalCode":"06766","locality":"Bitterfeld-Wolfen","municipality":{"key":"15082015","name":"Bitterfeld-Wolfen, Stadt","type":"Stadt"},"district":{"key":"15082","name":"Anhalt-Bitterfeld","type":"Landkreis"},"federalState":{"key":"15","name":"Sachsen-Anhalt"}},{"name":"Karl-Marx-Str.","postalCode":"06803","locality":"Bitterfeld-Wolfen","municipality":{"key":"15082015","name":"Bitterfeld-Wolfen, Stadt","type":"Stadt"},"district":{"key":"15082","name":"Anhalt-Bitterfeld","type":"Landkreis"},"federalState":{"key":"15","name":"Sachsen-Anhalt"}},{"name":"Karlstr.","postalCode":"06749","locality":"Bitterfeld-Wolfen","municipality":{"key":"15082015","name":"Bitterfeld-Wolfen, Stadt","type":"Stadt"},"district":{"key":"15082","name":"Anhalt-Bitterfeld","type":"Landkreis"},"federalState":{"key":"15","name":"Sachsen-Anhalt"}},{"name":"Karlstr.","postalCode":"06808","locality":"Bitterfeld-Wolfen","municipality":{"key":"15082015","name":"Bitterfeld-Wolfen, Stadt","type":"Stadt"},"district":{"key":"15082","name":"Anhalt-Bitterfeld","type":"Landkreis"},"federalState":{"key":"15","name":"Sachsen-Anhalt"}},{"name":"Kastanienstr.","postalCode":"06803","locality":"Bitterfeld-Wolfen","municipality":{"key":"15082015","name":"Bitterfeld-Wolfen, Stadt","type":"Stadt"},"district":{"key":"15082","name":"Anhalt-Bitterfeld","type":"Landkreis"},"federalState":{"key":"15","name":"Sachsen-Anhalt"}},{"name":"Kastanienweg","postalCode":"06749","locality":"Bitterfeld-Wolfen","municipality":{"key":"15082015","name":"Bitterfeld-Wolfen, Stadt","type":"Stadt"},"district":{"key":"15082","name":"Anhalt-Bitterfeld","type":"Landkreis"},"federalState":{"key":"15","name":"Sachsen-Anhalt"}},{"name":"Kastanienweg","postalCode":"06766","locality":"Bitterfeld-Wolfen","municipality":{"key":"15082015","name":"Bitterfeld-Wolfen, Stadt","type":"Stadt"},"district":{"key":"15082","name":"Anhalt-Bitterfeld","type":"Landkreis"},"federalState":{"key":"15","name":"Sachsen-Anhalt"}},{"name":"Käthe-Kollwitz-Str.","postalCode":"06766","locality":"Bitterfeld-Wolfen","municipality":{"key":"15082015","name":"Bitterfeld-Wolfen, Stadt","type":"Stadt"},"district":{"key":"15082","name":"Anhalt-Bitterfeld","type":"Landkreis"},"federalState":{"key":"15","name":"Sachsen-Anhalt"}},{"name":"Kelvinstr.","postalCode":"06749","locality":"Bitterfeld-Wolfen","municipality":{"key":"15082015","name":"Bitterfeld-Wolfen, Stadt","type":"Stadt"},"district":{"key":"15082","name":"Anhalt-Bitterfeld","type":"Landkreis"},"federalState":{"key":"15","name":"Sachsen-Anhalt"}},{"name":"Kirchplatz","postalCode":"06749","locality":"Bitterfeld-Wolfen","municipality":{"key":"15082015","name":"Bitterfeld-Wolfen, Stadt","type":"Stadt"},"district":{"key":"15082","name":"Anhalt-Bitterfeld","type":"Landkreis"},"federalState":{"key":"15","name":"Sachsen-Anhalt"}},{"name":"Kirchstr.","postalCode":"06749","locality":"Bitterfeld-Wolfen","municipality":{"key":"15082015","name":"Bitterfeld-Wolfen, Stadt","type":"Stadt"},"district":{"key":"15082","name":"Anhalt-Bitterfeld","type":"Landkreis"},"federalState":{"key":"15","name":"Sachsen-Anhalt"}},{"name":"Kirchstr.","postalCode":"06766","locality":"Bitterfeld-Wolfen","municipality":{"key":"15082015","name":"Bitterfeld-Wolfen, Stadt","type":"Stadt"},"district":{"key":"15082","name":"Anhalt-Bitterfeld","type":"Landkreis"},"federalState":{"key":"15","name":"Sachsen-Anhalt"}},{"name":"Kirchstr.","postalCode":"06808","locality":"Bitterfeld-Wolfen","municipality":{"key":"15082015","name":"Bitterfeld-Wolfen, Stadt","type":"Stadt"},"district":{"key":"15082","name":"Anhalt-Bitterfeld","type":"Landkreis"},"federalState":{"key":"15","name":"Sachsen-Anhalt"}},{"name":"Kirschweg","postalCode":"06766","locality":"Bitterfeld-Wolfen","municipality":{"key":"15082015","name":"Bitterfeld-Wolfen, Stadt","type":"Stadt"},"district":{"key":"15082","name":"Anhalt-Bitterfeld","type":"Landkreis"},"federalState":{"key":"15","name":"Sachsen-Anhalt"}},{"name":"Kleiner Lustgarten","postalCode":"06749","locality":"Bitterfeld-Wolfen","municipality":{"key":"15082015","name":"Bitterfeld-Wolfen, Stadt","type":"Stadt"},"district":{"key":"15082","name":"Anhalt-Bitterfeld","type":"Landkreis"},"federalState":{"key":"15","name":"Sachsen-Anhalt"}},{"name":"Kleine Str.","postalCode":"06766","locality":"Bitterfeld-Wolfen","municipality":{"key":"15082015","name":"Bitterfeld-Wolfen, Stadt","type":"Stadt"},"district":{"key":"15082","name":"Anhalt-Bitterfeld","type":"Landkreis"},"federalState":{"key":"15","name":"Sachsen-Anhalt"}},{"name":"Kniestr.","postalCode":"06766","locality":"Bitterfeld-Wolfen","municipality":{"key":"15082015","name":"Bitterfeld-Wolfen, Stadt","type":"Stadt"},"district":{"key":"15082","name":"Anhalt-Bitterfeld","type":"Landkreis"},"federalState":{"key":"15","name":"Sachsen-Anhalt"}},{"name":"Kornhausplatz","postalCode":"06749","locality":"Bitterfeld-Wolfen","municipality":{"key":"15082015","name":"Bitterfeld-Wolfen, Stadt","type":"Stadt"},"district":{"key":"15082","name":"Anhalt-Bitterfeld","type":"Landkreis"},"federalState":{"key":"15","name":"Sachsen-Anhalt"}},{"name":"Krautstückenweg","postalCode":"06766","locality":"Bitterfeld-Wolfen","municipality":{"key":"15082015","name":"Bitterfeld-Wolfen, Stadt","type":"Stadt"},"district":{"key":"15082","name":"Anhalt-Bitterfeld","type":"Landkreis"},"federalState":{"key":"15","name":"Sachsen-Anhalt"}},{"name":"Krautwall","postalCode":"06749","locality":"Bitterfeld-Wolfen","municipality":{"key":"15082015","name":"Bitterfeld-Wolfen, Stadt","type":"Stadt"},"district":{"key":"15082","name":"Anhalt-Bitterfeld","type":"Landkreis"},"federalState":{"key":"15","name":"Sachsen-Anhalt"}},{"name":"Krondorfer Str.","postalCode":"06766","locality":"Bitterfeld-Wolfen","municipality":{"key":"15082015","name":"Bitterfeld-Wolfen, Stadt","type":"Stadt"},"district":{"key":"15082","name":"Anhalt-Bitterfeld","type":"Landkreis"},"federalState":{"key":"15","name":"Sachsen-Anhalt"}},{"name":"Krüllsstr.","postalCode":"06766","locality":"Bitterfeld-Wolfen","municipality":{"key":"15082015","name":"Bitterfeld-Wolfen, Stadt","type":"Stadt"},"district":{"key":"15082","name":"Anhalt-Bitterfeld","type":"Landkreis"},"federalState":{"key":"15","name":"Sachsen-Anhalt"}},{"name":"Kurzer Weg","postalCode":"06766","locality":"Bitterfeld-Wolfen","municipality":{"key":"15082015","name":"Bitterfeld-Wolfen, Stadt","type":"Stadt"},"district":{"key":"15082","name":"Anhalt-Bitterfeld","type":"Landkreis"},"federalState":{"key":"15","name":"Sachsen-Anhalt"}},{"name":"Kurze Str.","postalCode":"06766","locality":"Bitterfeld-Wolfen","municipality":{"key":"15082015","name":"Bitterfeld-Wolfen, Stadt","type":"Stadt"},"district":{"key":"15082","name":"Anhalt-Bitterfeld","type":"Landkreis"},"federalState":{"key":"15","name":"Sachsen-Anhalt"}},{"name":"Kurze Str.","postalCode":"06803","locality":"Bitterfeld-Wolfen","municipality":{"key":"15082015","name":"Bitterfeld-Wolfen, Stadt","type":"Stadt"},"district":{"key":"15082","name":"Anhalt-Bitterfeld","type":"Landkreis"},"federalState":{"key":"15","name":"Sachsen-Anhalt"}},{"name":"Kurze Str.","postalCode":"06808","locality":"Bitterfeld-Wolfen","municipality":{"key":"15082015","name":"Bitterfeld-Wolfen, Stadt","type":"Stadt"},"district":{"key":"15082","name":"Anhalt-Bitterfeld","type":"Landkreis"},"federalState":{"key":"15","name":"Sachsen-Anhalt"}},{"name":"Landsberger Str.","postalCode":"06749","locality":"Bitterfeld-Wolfen","municipality":{"key":"15082015","name":"Bitterfeld-Wolfen, Stadt","type":"Stadt"},"district":{"key":"15082","name":"Anhalt-Bitterfeld","type":"Landkreis"},"federalState":{"key":"15","name":"Sachsen-Anhalt"}},{"name":"Lange-Feld-Str.","postalCode":"06766","locality":"Bitterfeld-Wolfen","municipality":{"key":"15082015","name":"Bitterfeld-Wolfen, Stadt","type":"Stadt"},"district":{"key":"15082","name":"Anhalt-Bitterfeld","type":"Landkreis"},"federalState":{"key":"15","name":"Sachsen-Anhalt"}},{"name":"Lange Str.","postalCode":"06808","locality":"Bitterfeld-Wolfen","municipality":{"key":"15082015","name":"Bitterfeld-Wolfen, Stadt","type":"Stadt"},"district":{"key":"15082","name":"Anhalt-Bitterfeld","type":"Landkreis"},"federalState":{"key":"15","name":"Sachsen-Anhalt"}},{"name":"Lärchenweg","postalCode":"06766","locality":"Bitterfeld-Wolfen","municipality":{"key":"15082015","name":"Bitterfeld-Wolfen, Stadt","type":"Stadt"},"district":{"key":"15082","name":"Anhalt-Bitterfeld","type":"Landkreis"},"federalState":{"key":"15","name":"Sachsen-Anhalt"}},{"name":"Leinedamm","postalCode":"06749","locality":"Bitterfeld-Wolfen","municipality":{"key":"15082015","name":"Bitterfeld-Wolfen, Stadt","type":"Stadt"},"district":{"key":"15082","name":"Anhalt-Bitterfeld","type":"Landkreis"},"federalState":{"key":"15","name":"Sachsen-Anhalt"}},{"name":"Leinestr.","postalCode":"06749","locality":"Bitterfeld-Wolfen","municipality":{"key":"15082015","name":"Bitterfeld-Wolfen, Stadt","type":"Stadt"},"district":{"key":"15082","name":"Anhalt-Bitterfeld","type":"Landkreis"},"federalState":{"key":"15","name":"Sachsen-Anhalt"}},{"name":"Leipziger Str.","postalCode":"06749","locality":"Bitterfeld-Wolfen","municipality":{"key":"15082015","name":"Bitterfeld-Wolfen, Stadt","type":"Stadt"},"district":{"key":"15082","name":"Anhalt-Bitterfeld","type":"Landkreis"},"federalState":{"key":"15","name":"Sachsen-Anhalt"}},{"name":"Leipziger Str.","postalCode":"06766","locality":"Bitterfeld-Wolfen","municipality":{"key":"15082015","name":"Bitterfeld-Wolfen, Stadt","type":"Stadt"},"district":{"key":"15082","name":"Anhalt-Bitterfeld","type":"Landkreis"},"federalState":{"key":"15","name":"Sachsen-Anhalt"}},{"name":"Leipziger Str.","postalCode":"06803","locality":"Bitterfeld-Wolfen","municipality":{"key":"15082015","name":"Bitterfeld-Wolfen, Stadt","type":"Stadt"},"district":{"key":"15082","name":"Anhalt-Bitterfeld","type":"Landkreis"},"federalState":{"key":"15","name":"Sachsen-Anhalt"}},{"name":"Leopoldweg","postalCode":"06808","locality":"Bitterfeld-Wolfen","municipality":{"key":"15082015","name":"Bitterfeld-Wolfen, Stadt","type":"Stadt"},"district":{"key":"15082","name":"Anhalt-Bitterfeld","type":"Landkreis"},"federalState":{"key":"15","name":"Sachsen-Anhalt"}},{"name":"Lessingstr.","postalCode":"06749","locality":"Bitterfeld-Wolfen","municipality":{"key":"15082015","name":"Bitterfeld-Wolfen, Stadt","type":"Stadt"},"district":{"key":"15082","name":"Anhalt-Bitterfeld","type":"Landkreis"},"federalState":{"key":"15","name":"Sachsen-Anhalt"}},{"name":"Lessingstr.","postalCode":"06766","locality":"Bitterfeld-Wolfen","municipality":{"key":"15082015","name":"Bitterfeld-Wolfen, Stadt","type":"Stadt"},"district":{"key":"15082","name":"Anhalt-Bitterfeld","type":"Landkreis"},"federalState":{"key":"15","name":"Sachsen-Anhalt"}},{"name":"Lilienthalstr.","postalCode":"06749","locality":"Bitterfeld-Wolfen","municipality":{"key":"15082015","name":"Bitterfeld-Wolfen, Stadt","type":"Stadt"},"district":{"key":"15082","name":"Anhalt-Bitterfeld","type":"Landkreis"},"federalState":{"key":"15","name":"Sachsen-Anhalt"}},{"name":"Lindenplatz","postalCode":"06803","locality":"Bitterfeld-Wolfen","municipality":{"key":"15082015","name":"Bitterfeld-Wolfen, Stadt","type":"Stadt"},"district":{"key":"15082","name":"Anhalt-Bitterfeld","type":"Landkreis"},"federalState":{"key":"15","name":"Sachsen-Anhalt"}},{"name":"Lindenstr.","postalCode":"06749","locality":"Bitterfeld-Wolfen","municipality":{"key":"15082015","name":"Bitterfeld-Wolfen, Stadt","type":"Stadt"},"district":{"key":"15082","name":"Anhalt-Bitterfeld","type":"Landkreis"},"federalState":{"key":"15","name":"Sachsen-Anhalt"}},{"name":"Lortzingstr.","postalCode":"06766","locality":"Bitterfeld-Wolfen","municipality":{"key":"15082015","name":"Bitterfeld-Wolfen, Stadt","type":"Stadt"},"district":{"key":"15082","name":"Anhalt-Bitterfeld","type":"Landkreis"},"federalState":{"key":"15","name":"Sachsen-Anhalt"}},{"name":"Luisenstr.","postalCode":"06749","locality":"Bitterfeld-Wolfen","municipality":{"key":"15082015","name":"Bitterfeld-Wolfen, Stadt","type":"Stadt"},"district":{"key":"15082","name":"Anhalt-Bitterfeld","type":"Landkreis"},"federalState":{"key":"15","name":"Sachsen-Anhalt"}},{"name":"Marienstr.","postalCode":"06749","locality":"Bitterfeld-Wolfen","municipality":{"key":"15082015","name":"Bitterfeld-Wolfen, Stadt","type":"Stadt"},"district":{"key":"15082","name":"Anhalt-Bitterfeld","type":"Landkreis"},"federalState":{"key":"15","name":"Sachsen-Anhalt"}},{"name":"Martha-Brautzsch-Str.","postalCode":"06766","locality":"Bitterfeld-Wolfen","municipality":{"key":"15082015","name":"Bitterfeld-Wolfen, Stadt","type":"Stadt"},"district":{"key":"15082","name":"Anhalt-Bitterfeld","type":"Landkreis"},"federalState":{"key":"15","name":"Sachsen-Anhalt"}},{"name":"Martin-Luther-Str.","postalCode":"06749","locality":"Bitterfeld-Wolfen","municipality":{"key":"15082015","name":"Bitterfeld-Wolfen, Stadt","type":"Stadt"},"district":{"key":"15082","name":"Anhalt-Bitterfeld","type":"Landkreis"},"federalState":{"key":"15","name":"Sachsen-Anhalt"}},{"name":"Martinstr.","postalCode":"06808","locality":"Bitterfeld-Wolfen","municipality":{"key":"15082015","name":"Bitterfeld-Wolfen, Stadt","type":"Stadt"},"district":{"key":"15082","name":"Anhalt-Bitterfeld","type":"Landkreis"},"federalState":{"key":"15","name":"Sachsen-Anhalt"}},{"name":"Max-Lademann-Str.","postalCode":"06766","locality":"Bitterfeld-Wolfen","municipality":{"key":"15082015","name":"Bitterfeld-Wolfen, Stadt","type":"Stadt"},"district":{"key":"15082","name":"Anhalt-Bitterfeld","type":"Landkreis"},"federalState":{"key":"15","name":"Sachsen-Anhalt"}},{"name":"Mecklenburger Str.","postalCode":"06749","locality":"Bitterfeld-Wolfen","municipality":{"key":"15082015","name":"Bitterfeld-Wolfen, Stadt","type":"Stadt"},"district":{"key":"15082","name":"Anhalt-Bitterfeld","type":"Landkreis"},"federalState":{"key":"15","name":"Sachsen-Anhalt"}},{"name":"Mitschurinstr.","postalCode":"06766","locality":"Bitterfeld-Wolfen","municipality":{"key":"15082015","name":"Bitterfeld-Wolfen, Stadt","type":"Stadt"},"district":{"key":"15082","name":"Anhalt-Bitterfeld","type":"Landkreis"},"federalState":{"key":"15","name":"Sachsen-Anhalt"}},{"name":"Mittelstr.","postalCode":"06749","locality":"Bitterfeld-Wolfen","municipality":{"key":"15082015","name":"Bitterfeld-Wolfen, Stadt","type":"Stadt"},"district":{"key":"15082","name":"Anhalt-Bitterfeld","type":"Landkreis"},"federalState":{"key":"15","name":"Sachsen-Anhalt"}},{"name":"Mittelstr.","postalCode":"06766","locality":"Bitterfeld-Wolfen","municipality":{"key":"15082015","name":"Bitterfeld-Wolfen, Stadt","type":"Stadt"},"district":{"key":"15082","name":"Anhalt-Bitterfeld","type":"Landkreis"},"federalState":{"key":"15","name":"Sachsen-Anhalt"}},{"name":"Mittelstr.","postalCode":"06803","locality":"Bitterfeld-Wolfen","municipality":{"key":"15082015","name":"Bitterfeld-Wolfen, Stadt","type":"Stadt"},"district":{"key":"15082","name":"Anhalt-Bitterfeld","type":"Landkreis"},"federalState":{"key":"15","name":"Sachsen-Anhalt"}},{"name":"Mittelstr.","postalCode":"06808","locality":"Bitterfeld-Wolfen","municipality":{"key":"15082015","name":"Bitterfeld-Wolfen, Stadt","type":"Stadt"},"district":{"key":"15082","name":"Anhalt-Bitterfeld","type":"Landkreis"},"federalState":{"key":"15","name":"Sachsen-Anhalt"}},{"name":"Moltkestr.","postalCode":"06749","locality":"Bitterfeld-Wolfen","municipality":{"key":"15082015","name":"Bitterfeld-Wolfen, Stadt","type":"Stadt"},"district":{"key":"15082","name":"Anhalt-Bitterfeld","type":"Landkreis"},"federalState":{"key":"15","name":"Sachsen-Anhalt"}},{"name":"Mozartstr.","postalCode":"06749","locality":"Bitterfeld-Wolfen","municipality":{"key":"15082015","name":"Bitterfeld-Wolfen, Stadt","type":"Stadt"},"district":{"key":"15082","name":"Anhalt-Bitterfeld","type":"Landkreis"},"federalState":{"key":"15","name":"Sachsen-Anhalt"}},{"name":"Mozartstr.","postalCode":"06766","locality":"Bitterfeld-Wolfen","municipality":{"key":"15082015","name":"Bitterfeld-Wolfen, Stadt","type":"Stadt"},"district":{"key":"15082","name":"Anhalt-Bitterfeld","type":"Landkreis"},"federalState":{"key":"15","name":"Sachsen-Anhalt"}},{"name":"Mühlbecker Str.","postalCode":"06749","locality":"Bitterfeld-Wolfen","municipality":{"key":"15082015","name":"Bitterfeld-Wolfen, Stadt","type":"Stadt"},"district":{"key":"15082","name":"Anhalt-Bitterfeld","type":"Landkreis"},"federalState":{"key":"15","name":"Sachsen-Anhalt"}},{"name":"Mühlenstr.","postalCode":"06808","locality":"Bitterfeld-Wolfen","municipality":{"key":"15082015","name":"Bitterfeld-Wolfen, Stadt","type":"Stadt"},"district":{"key":"15082","name":"Anhalt-Bitterfeld","type":"Landkreis"},"federalState":{"key":"15","name":"Sachsen-Anhalt"}},{"name":"Mühlenweg","postalCode":"06749","locality":"Bitterfeld-Wolfen","municipality":{"key":"15082015","name":"Bitterfeld-Wolfen, Stadt","type":"Stadt"},"district":{"key":"15082","name":"Anhalt-Bitterfeld","type":"Landkreis"},"federalState":{"key":"15","name":"Sachsen-Anhalt"}},{"name":"Mühlstr.","postalCode":"06749","locality":"Bitterfeld-Wolfen","municipality":{"key":"15082015","name":"Bitterfeld-Wolfen, Stadt","type":"Stadt"},"district":{"key":"15082","name":"Anhalt-Bitterfeld","type":"Landkreis"},"federalState":{"key":"15","name":"Sachsen-Anhalt"}},{"name":"Mühlweg","postalCode":"06766","locality":"Bitterfeld-Wolfen","municipality":{"key":"15082015","name":"Bitterfeld-Wolfen, Stadt","type":"Stadt"},"district":{"key":"15082","name":"Anhalt-Bitterfeld","type":"Landkreis"},"federalState":{"key":"15","name":"Sachsen-Anhalt"}},{"name":"Mühlweg","postalCode":"06803","locality":"Bitterfeld-Wolfen","municipality":{"key":"15082015","name":"Bitterfeld-Wolfen, Stadt","type":"Stadt"},"district":{"key":"15082","name":"Anhalt-Bitterfeld","type":"Landkreis"},"federalState":{"key":"15","name":"Sachsen-Anhalt"}},{"name":"Neue Reihe","postalCode":"06766","locality":"Bitterfeld-Wolfen","municipality":{"key":"15082015","name":"Bitterfeld-Wolfen, Stadt","type":"Stadt"},"district":{"key":"15082","name":"Anhalt-Bitterfeld","type":"Landkreis"},"federalState":{"key":"15","name":"Sachsen-Anhalt"}},{"name":"Neuer Weg","postalCode":"06766","locality":"Bitterfeld-Wolfen","municipality":{"key":"15082015","name":"Bitterfeld-Wolfen, Stadt","type":"Stadt"},"district":{"key":"15082","name":"Anhalt-Bitterfeld","type":"Landkreis"},"federalState":{"key":"15","name":"Sachsen-Anhalt"}},{"name":"Neue Str.","postalCode":"06803","locality":"Bitterfeld-Wolfen","municipality":{"key":"15082015","name":"Bitterfeld-Wolfen, Stadt","type":"Stadt"},"district":{"key":"15082","name":"Anhalt-Bitterfeld","type":"Landkreis"},"federalState":{"key":"15","name":"Sachsen-Anhalt"}},{"name":"Neue Welt","postalCode":"06749","locality":"Bitterfeld-Wolfen","municipality":{"key":"15082015","name":"Bitterfeld-Wolfen, Stadt","type":"Stadt"},"district":{"key":"15082","name":"Anhalt-Bitterfeld","type":"Landkreis"},"federalState":{"key":"15","name":"Sachsen-Anhalt"}},{"name":"Nicklich-Weg","postalCode":"06808","locality":"Bitterfeld-Wolfen","municipality":{"key":"15082015","name":"Bitterfeld-Wolfen, Stadt","type":"Stadt"},"district":{"key":"15082","name":"Anhalt-Bitterfeld","type":"Landkreis"},"federalState":{"key":"15","name":"Sachsen-Anhalt"}},{"name":"Niemegker Str.","postalCode":"06749","locality":"Bitterfeld-Wolfen","municipality":{"key":"15082015","name":"Bitterfeld-Wolfen, Stadt","type":"Stadt"},"district":{"key":"15082","name":"Anhalt-Bitterfeld","type":"Landkreis"},"federalState":{"key":"15","name":"Sachsen-Anhalt"}},{"name":"Nordstr.","postalCode":"06749","locality":"Bitterfeld-Wolfen","municipality":{"key":"15082015","name":"Bitterfeld-Wolfen, Stadt","type":"Stadt"},"district":{"key":"15082","name":"Anhalt-Bitterfeld","type":"Landkreis"},"federalState":{"key":"15","name":"Sachsen-Anhalt"}},{"name":"Nordstr.","postalCode":"06766","locality":"Bitterfeld-Wolfen","municipality":{"key":"15082015","name":"Bitterfeld-Wolfen, Stadt","type":"Stadt"},"district":{"key":"15082","name":"Anhalt-Bitterfeld","type":"Landkreis"},"federalState":{"key":"15","name":"Sachsen-Anhalt"}},{"name":"Nordstr.","postalCode":"06808","locality":"Bitterfeld-Wolfen","municipality":{"key":"15082015","name":"Bitterfeld-Wolfen, Stadt","type":"Stadt"},"district":{"key":"15082","name":"Anhalt-Bitterfeld","type":"Landkreis"},"federalState":{"key":"15","name":"Sachsen-Anhalt"}},{"name":"Oppenheimstr.","postalCode":"06766","locality":"Bitterfeld-Wolfen","municipality":{"key":"15082015","name":"Bitterfeld-Wolfen, Stadt","type":"Stadt"},"district":{"key":"15082","name":"Anhalt-Bitterfeld","type":"Landkreis"},"federalState":{"key":"15","name":"Sachsen-Anhalt"}},{"name":"Otto-Hahn-Platz","postalCode":"06749","locality":"Bitterfeld-Wolfen","municipality":{"key":"15082015","name":"Bitterfeld-Wolfen, Stadt","type":"Stadt"},"district":{"key":"15082","name":"Anhalt-Bitterfeld","type":"Landkreis"},"federalState":{"key":"15","name":"Sachsen-Anhalt"}},{"name":"Otto-Krahmann-Str.","postalCode":"06766","locality":"Bitterfeld-Wolfen","municipality":{"key":"15082015","name":"Bitterfeld-Wolfen, Stadt","type":"Stadt"},"district":{"key":"15082","name":"Anhalt-Bitterfeld","type":"Landkreis"},"federalState":{"key":"15","name":"Sachsen-Anhalt"}},{"name":"Otto-Schmidt-Str.","postalCode":"06766","locality":"Bitterfeld-Wolfen","municipality":{"key":"15082015","name":"Bitterfeld-Wolfen, Stadt","type":"Stadt"},"district":{"key":"15082","name":"Anhalt-Bitterfeld","type":"Landkreis"},"federalState":{"key":"15","name":"Sachsen-Anhalt"}},{"name":"Panoramaweg","postalCode":"06808","locality":"Bitterfeld-Wolfen","municipality":{"key":"15082015","name":"Bitterfeld-Wolfen, Stadt","type":"Stadt"},"district":{"key":"15082","name":"Anhalt-Bitterfeld","type":"Landkreis"},"federalState":{"key":"15","name":"Sachsen-Anhalt"}},{"name":"Pappelgasse","postalCode":"06766","locality":"Bitterfeld-Wolfen","municipality":{"key":"15082015","name":"Bitterfeld-Wolfen, Stadt","type":"Stadt"},"district":{"key":"15082","name":"Anhalt-Bitterfeld","type":"Landkreis"},"federalState":{"key":"15","name":"Sachsen-Anhalt"}},{"name":"Pappelweg","postalCode":"06749","locality":"Bitterfeld-Wolfen","municipality":{"key":"15082015","name":"Bitterfeld-Wolfen, Stadt","type":"Stadt"},"district":{"key":"15082","name":"Anhalt-Bitterfeld","type":"Landkreis"},"federalState":{"key":"15","name":"Sachsen-Anhalt"}},{"name":"Pappelweg","postalCode":"06766","locality":"Bitterfeld-Wolfen","municipality":{"key":"15082015","name":"Bitterfeld-Wolfen, Stadt","type":"Stadt"},"district":{"key":"15082","name":"Anhalt-Bitterfeld","type":"Landkreis"},"federalState":{"key":"15","name":"Sachsen-Anhalt"}},{"name":"Paracelsusstr.","postalCode":"06766","locality":"Bitterfeld-Wolfen","municipality":{"key":"15082015","name":"Bitterfeld-Wolfen, Stadt","type":"Stadt"},"district":{"key":"15082","name":"Anhalt-Bitterfeld","type":"Landkreis"},"federalState":{"key":"15","name":"Sachsen-Anhalt"}},{"name":"Paradies","postalCode":"06749","locality":"Bitterfeld-Wolfen","municipality":{"key":"15082015","name":"Bitterfeld-Wolfen, Stadt","type":"Stadt"},"district":{"key":"15082","name":"Anhalt-Bitterfeld","type":"Landkreis"},"federalState":{"key":"15","name":"Sachsen-Anhalt"}},{"name":"Park der Chemiearbeiter","postalCode":"06749","locality":"Bitterfeld-Wolfen","municipality":{"key":"15082015","name":"Bitterfeld-Wolfen, Stadt","type":"Stadt"},"district":{"key":"15082","name":"Anhalt-Bitterfeld","type":"Landkreis"},"federalState":{"key":"15","name":"Sachsen-Anhalt"}},{"name":"Parkstr.","postalCode":"06749","locality":"Bitterfeld-Wolfen","municipality":{"key":"15082015","name":"Bitterfeld-Wolfen, Stadt","type":"Stadt"},"district":{"key":"15082","name":"Anhalt-Bitterfeld","type":"Landkreis"},"federalState":{"key":"15","name":"Sachsen-Anhalt"}},{"name":"Parsevalstr.","postalCode":"06749","locality":"Bitterfeld-Wolfen","municipality":{"key":"15082015","name":"Bitterfeld-Wolfen, Stadt","type":"Stadt"},"district":{"key":"15082","name":"Anhalt-Bitterfeld","type":"Landkreis"},"federalState":{"key":"15","name":"Sachsen-Anhalt"}},{"name":"Paul-Lincke-Str.","postalCode":"06749","locality":"Bitterfeld-Wolfen","municipality":{"key":"15082015","name":"Bitterfeld-Wolfen, Stadt","type":"Stadt"},"district":{"key":"15082","name":"Anhalt-Bitterfeld","type":"Landkreis"},"federalState":{"key":"15","name":"Sachsen-Anhalt"}},{"name":"Paul-Taube-Ring","postalCode":"06766","locality":"Bitterfeld-Wolfen","municipality":{"key":"15082015","name":"Bitterfeld-Wolfen, Stadt","type":"Stadt"},"district":{"key":"15082","name":"Anhalt-Bitterfeld","type":"Landkreis"},"federalState":{"key":"15","name":"Sachsen-Anhalt"}},{"name":"Paupitzscher Str.","postalCode":"06808","locality":"Bitterfeld-Wolfen","municipality":{"key":"15082015","name":"Bitterfeld-Wolfen, Stadt","type":"Stadt"},"district":{"key":"15082","name":"Anhalt-Bitterfeld","type":"Landkreis"},"federalState":{"key":"15","name":"Sachsen-Anhalt"}},{"name":"Pestalozzistr.","postalCode":"06766","locality":"Bitterfeld-Wolfen","municipality":{"key":"15082015","name":"Bitterfeld-Wolfen, Stadt","type":"Stadt"},"district":{"key":"15082","name":"Anhalt-Bitterfeld","type":"Landkreis"},"federalState":{"key":"15","name":"Sachsen-Anhalt"}},{"name":"Petersrodaer Str.","postalCode":"06808","locality":"Bitterfeld-Wolfen","municipality":{"key":"15082015","name":"Bitterfeld-Wolfen, Stadt","type":"Stadt"},"district":{"key":"15082","name":"Anhalt-Bitterfeld","type":"Landkreis"},"federalState":{"key":"15","name":"Sachsen-Anhalt"}},{"name":"Pistorplatz","postalCode":"06749","locality":"Bitterfeld-Wolfen","municipality":{"key":"15082015","name":"Bitterfeld-Wolfen, Stadt","type":"Stadt"},"district":{"key":"15082","name":"Anhalt-Bitterfeld","type":"Landkreis"},"federalState":{"key":"15","name":"Sachsen-Anhalt"}},{"name":"Plan","postalCode":"06749","locality":"Bitterfeld-Wolfen","municipality":{"key":"15082015","name":"Bitterfeld-Wolfen, Stadt","type":"Stadt"},"district":{"key":"15082","name":"Anhalt-Bitterfeld","type":"Landkreis"},"federalState":{"key":"15","name":"Sachsen-Anhalt"}},{"name":"Platz des Friedens","postalCode":"06803","locality":"Bitterfeld-Wolfen","municipality":{"key":"15082015","name":"Bitterfeld-Wolfen, Stadt","type":"Stadt"},"district":{"key":"15082","name":"Anhalt-Bitterfeld","type":"Landkreis"},"federalState":{"key":"15","name":"Sachsen-Anhalt"}},{"name":"Poststr.","postalCode":"06766","locality":"Bitterfeld-Wolfen","municipality":{"key":"15082015","name":"Bitterfeld-Wolfen, Stadt","type":"Stadt"},"district":{"key":"15082","name":"Anhalt-Bitterfeld","type":"Landkreis"},"federalState":{"key":"15","name":"Sachsen-Anhalt"}},{"name":"Puschkinstr.","postalCode":"06749","locality":"Bitterfeld-Wolfen","municipality":{"key":"15082015","name":"Bitterfeld-Wolfen, Stadt","type":"Stadt"},"district":{"key":"15082","name":"Anhalt-Bitterfeld","type":"Landkreis"},"federalState":{"key":"15","name":"Sachsen-Anhalt"}},{"name":"Puschkinstr.","postalCode":"06766","locality":"Bitterfeld-Wolfen","municipality":{"key":"15082015","name":"Bitterfeld-Wolfen, Stadt","type":"Stadt"},"district":{"key":"15082","name":"Anhalt-Bitterfeld","type":"Landkreis"},"federalState":{"key":"15","name":"Sachsen-Anhalt"}},{"name":"Querstr.","postalCode":"06749","locality":"Bitterfeld-Wolfen","municipality":{"key":"15082015","name":"Bitterfeld-Wolfen, Stadt","type":"Stadt"},"district":{"key":"15082","name":"Anhalt-Bitterfeld","type":"Landkreis"},"federalState":{"key":"15","name":"Sachsen-Anhalt"}},{"name":"Querstr.","postalCode":"06766","locality":"Bitterfeld-Wolfen","municipality":{"key":"15082015","name":"Bitterfeld-Wolfen, Stadt","type":"Stadt"},"district":{"key":"15082","name":"Anhalt-Bitterfeld","type":"Landkreis"},"federalState":{"key":"15","name":"Sachsen-Anhalt"}},{"name":"Querstr.","postalCode":"06808","locality":"Bitterfeld-Wolfen","municipality":{"key":"15082015","name":"Bitterfeld-Wolfen, Stadt","type":"Stadt"},"district":{"key":"15082","name":"Anhalt-Bitterfeld","type":"Landkreis"},"federalState":{"key":"15","name":"Sachsen-Anhalt"}},{"name":"Raguhner Schleife","postalCode":"06766","locality":"Bitterfeld-Wolfen","municipality":{"key":"15082015","name":"Bitterfeld-Wolfen, Stadt","type":"Stadt"},"district":{"key":"15082","name":"Anhalt-Bitterfeld","type":"Landkreis"},"federalState":{"key":"15","name":"Sachsen-Anhalt"}},{"name":"Raguhner Str.","postalCode":"06749","locality":"Bitterfeld-Wolfen","municipality":{"key":"15082015","name":"Bitterfeld-Wolfen, Stadt","type":"Stadt"},"district":{"key":"15082","name":"Anhalt-Bitterfeld","type":"Landkreis"},"federalState":{"key":"15","name":"Sachsen-Anhalt"}},{"name":"Rainer-Lemoine-Allee","postalCode":"06766","locality":"Bitterfeld-Wolfen","municipality":{"key":"15082015","name":"Bitterfeld-Wolfen, Stadt","type":"Stadt"},"district":{"key":"15082","name":"Anhalt-Bitterfeld","type":"Landkreis"},"federalState":{"key":"15","name":"Sachsen-Anhalt"}},{"name":"Rathausstr.","postalCode":"06803","locality":"Bitterfeld-Wolfen","municipality":{"key":"15082015","name":"Bitterfeld-Wolfen, Stadt","type":"Stadt"},"district":{"key":"15082","name":"Anhalt-Bitterfeld","type":"Landkreis"},"federalState":{"key":"15","name":"Sachsen-Anhalt"}},{"name":"Rathausvorplatz","postalCode":"06766","locality":"Bitterfeld-Wolfen","municipality":{"key":"15082015","name":"Bitterfeld-Wolfen, Stadt","type":"Stadt"},"district":{"key":"15082","name":"Anhalt-Bitterfeld","type":"Landkreis"},"federalState":{"key":"15","name":"Sachsen-Anhalt"}},{"name":"Rathenauplatz","postalCode":"06766","locality":"Bitterfeld-Wolfen","municipality":{"key":"15082015","name":"Bitterfeld-Wolfen, Stadt","type":"Stadt"},"district":{"key":"15082","name":"Anhalt-Bitterfeld","type":"Landkreis"},"federalState":{"key":"15","name":"Sachsen-Anhalt"}},{"name":"Ratswall","postalCode":"06749","locality":"Bitterfeld-Wolfen","municipality":{"key":"15082015","name":"Bitterfeld-Wolfen, Stadt","type":"Stadt"},"district":{"key":"15082","name":"Anhalt-Bitterfeld","type":"Landkreis"},"federalState":{"key":"15","name":"Sachsen-Anhalt"}},{"name":"Rembrandtstr.","postalCode":"06766","locality":"Bitterfeld-Wolfen","municipality":{"key":"15082015","name":"Bitterfeld-Wolfen, Stadt","type":"Stadt"},"district":{"key":"15082","name":"Anhalt-Bitterfeld","type":"Landkreis"},"federalState":{"key":"15","name":"Sachsen-Anhalt"}},{"name":"Reudener Str.","postalCode":"06766","locality":"Bitterfeld-Wolfen","municipality":{"key":"15082015","name":"Bitterfeld-Wolfen, Stadt","type":"Stadt"},"district":{"key":"15082","name":"Anhalt-Bitterfeld","type":"Landkreis"},"federalState":{"key":"15","name":"Sachsen-Anhalt"}},{"name":"Reudener Weg","postalCode":"06766","locality":"Bitterfeld-Wolfen","municipality":{"key":"15082015","name":"Bitterfeld-Wolfen, Stadt","type":"Stadt"},"district":{"key":"15082","name":"Anhalt-Bitterfeld","type":"Landkreis"},"federalState":{"key":"15","name":"Sachsen-Anhalt"}},{"name":"Richard-Schütze-Str.","postalCode":"06749","locality":"Bitterfeld-Wolfen","municipality":{"key":"15082015","name":"Bitterfeld-Wolfen, Stadt","type":"Stadt"},"district":{"key":"15082","name":"Anhalt-Bitterfeld","type":"Landkreis"},"federalState":{"key":"15","name":"Sachsen-Anhalt"}},{"name":"Richard-Stahn-Str.","postalCode":"06766","locality":"Bitterfeld-Wolfen","municipality":{"key":"15082015","name":"Bitterfeld-Wolfen, Stadt","type":"Stadt"},"district":{"key":"15082","name":"Anhalt-Bitterfeld","type":"Landkreis"},"federalState":{"key":"15","name":"Sachsen-Anhalt"}},{"name":"Richard-Wagner-Str.","postalCode":"06749","locality":"Bitterfeld-Wolfen","municipality":{"key":"15082015","name":"Bitterfeld-Wolfen, Stadt","type":"Stadt"},"district":{"key":"15082","name":"Anhalt-Bitterfeld","type":"Landkreis"},"federalState":{"key":"15","name":"Sachsen-Anhalt"}},{"name":"Richard-Wagner-Str.","postalCode":"06766","locality":"Bitterfeld-Wolfen","municipality":{"key":"15082015","name":"Bitterfeld-Wolfen, Stadt","type":"Stadt"},"district":{"key":"15082","name":"Anhalt-Bitterfeld","type":"Landkreis"},"federalState":{"key":"15","name":"Sachsen-Anhalt"}},{"name":"Ring der Bauarbeiter","postalCode":"06766","locality":"Bitterfeld-Wolfen","municipality":{"key":"15082015","name":"Bitterfeld-Wolfen, Stadt","type":"Stadt"},"district":{"key":"15082","name":"Anhalt-Bitterfeld","type":"Landkreis"},"federalState":{"key":"15","name":"Sachsen-Anhalt"}},{"name":"Robert-Blum-Str.","postalCode":"06766","locality":"Bitterfeld-Wolfen","municipality":{"key":"15082015","name":"Bitterfeld-Wolfen, Stadt","type":"Stadt"},"district":{"key":"15082","name":"Anhalt-Bitterfeld","type":"Landkreis"},"federalState":{"key":"15","name":"Sachsen-Anhalt"}},{"name":"Robert-Bunsen-Str.","postalCode":"06749","locality":"Bitterfeld-Wolfen","municipality":{"key":"15082015","name":"Bitterfeld-Wolfen, Stadt","type":"Stadt"},"district":{"key":"15082","name":"Anhalt-Bitterfeld","type":"Landkreis"},"federalState":{"key":"15","name":"Sachsen-Anhalt"}},{"name":"Robert-Grießbach-Str.","postalCode":"06749","locality":"Bitterfeld-Wolfen","municipality":{"key":"15082015","name":"Bitterfeld-Wolfen, Stadt","type":"Stadt"},"district":{"key":"15082","name":"Anhalt-Bitterfeld","type":"Landkreis"},"federalState":{"key":"15","name":"Sachsen-Anhalt"}},{"name":"Robert-Koch-Str.","postalCode":"06766","locality":"Bitterfeld-Wolfen","municipality":{"key":"15082015","name":"Bitterfeld-Wolfen, Stadt","type":"Stadt"},"district":{"key":"15082","name":"Anhalt-Bitterfeld","type":"Landkreis"},"federalState":{"key":"15","name":"Sachsen-Anhalt"}},{"name":"Rödgener Dorfstr.","postalCode":"06766","locality":"Bitterfeld-Wolfen","municipality":{"key":"15082015","name":"Bitterfeld-Wolfen, Stadt","type":"Stadt"},"district":{"key":"15082","name":"Anhalt-Bitterfeld","type":"Landkreis"},"federalState":{"key":"15","name":"Sachsen-Anhalt"}},{"name":"Rödgener Str.","postalCode":"06766","locality":"Bitterfeld-Wolfen","municipality":{"key":"15082015","name":"Bitterfeld-Wolfen, Stadt","type":"Stadt"},"district":{"key":"15082","name":"Anhalt-Bitterfeld","type":"Landkreis"},"federalState":{"key":"15","name":"Sachsen-Anhalt"}},{"name":"Röhrenstr.","postalCode":"06749","locality":"Bitterfeld-Wolfen","municipality":{"key":"15082015","name":"Bitterfeld-Wolfen, Stadt","type":"Stadt"},"district":{"key":"15082","name":"Anhalt-Bitterfeld","type":"Landkreis"},"federalState":{"key":"15","name":"Sachsen-Anhalt"}},{"name":"Roitzscher Str.","postalCode":"06808","locality":"Bitterfeld-Wolfen","municipality":{"key":"15082015","name":"Bitterfeld-Wolfen, Stadt","type":"Stadt"},"district":{"key":"15082","name":"Anhalt-Bitterfeld","type":"Landkreis"},"federalState":{"key":"15","name":"Sachsen-Anhalt"}},{"name":"Rosa-Luxemburg-Str.","postalCode":"06766","locality":"Bitterfeld-Wolfen","municipality":{"key":"15082015","name":"Bitterfeld-Wolfen, Stadt","type":"Stadt"},"district":{"key":"15082","name":"Anhalt-Bitterfeld","type":"Landkreis"},"federalState":{"key":"15","name":"Sachsen-Anhalt"}},{"name":"Rosengarten","postalCode":"06749","locality":"Bitterfeld-Wolfen","municipality":{"key":"15082015","name":"Bitterfeld-Wolfen, Stadt","type":"Stadt"},"district":{"key":"15082","name":"Anhalt-Bitterfeld","type":"Landkreis"},"federalState":{"key":"15","name":"Sachsen-Anhalt"}},{"name":"Rudi-Arndt-Str.","postalCode":"06766","locality":"Bitterfeld-Wolfen","municipality":{"key":"15082015","name":"Bitterfeld-Wolfen, Stadt","type":"Stadt"},"district":{"key":"15082","name":"Anhalt-Bitterfeld","type":"Landkreis"},"federalState":{"key":"15","name":"Sachsen-Anhalt"}},{"name":"Rudolf-Breitscheid-Str.","postalCode":"06749","locality":"Bitterfeld-Wolfen","municipality":{"key":"15082015","name":"Bitterfeld-Wolfen, Stadt","type":"Stadt"},"district":{"key":"15082","name":"Anhalt-Bitterfeld","type":"Landkreis"},"federalState":{"key":"15","name":"Sachsen-Anhalt"}},{"name":"Rudolf-Breitscheid-Str.","postalCode":"06766","locality":"Bitterfeld-Wolfen","municipality":{"key":"15082015","name":"Bitterfeld-Wolfen, Stadt","type":"Stadt"},"district":{"key":"15082","name":"Anhalt-Bitterfeld","type":"Landkreis"},"federalState":{"key":"15","name":"Sachsen-Anhalt"}},{"name":"Rudolf-Breitscheid-Str.","postalCode":"06803","locality":"Bitterfeld-Wolfen","municipality":{"key":"15082015","name":"Bitterfeld-Wolfen, Stadt","type":"Stadt"},"district":{"key":"15082","name":"Anhalt-Bitterfeld","type":"Landkreis"},"federalState":{"key":"15","name":"Sachsen-Anhalt"}},{"name":"Rudolf-Breitscheid-Str.","postalCode":"06808","locality":"Bitterfeld-Wolfen","municipality":{"key":"15082015","name":"Bitterfeld-Wolfen, Stadt","type":"Stadt"},"district":{"key":"15082","name":"Anhalt-Bitterfeld","type":"Landkreis"},"federalState":{"key":"15","name":"Sachsen-Anhalt"}},{"name":"Rudolph-Glauber-Str.","postalCode":"06749","locality":"Bitterfeld-Wolfen","municipality":{"key":"15082015","name":"Bitterfeld-Wolfen, Stadt","type":"Stadt"},"district":{"key":"15082","name":"Anhalt-Bitterfeld","type":"Landkreis"},"federalState":{"key":"15","name":"Sachsen-Anhalt"}},{"name":"Saarstr.","postalCode":"06749","locality":"Bitterfeld-Wolfen","municipality":{"key":"15082015","name":"Bitterfeld-Wolfen, Stadt","type":"Stadt"},"district":{"key":"15082","name":"Anhalt-Bitterfeld","type":"Landkreis"},"federalState":{"key":"15","name":"Sachsen-Anhalt"}},{"name":"Saarstr.","postalCode":"06766","locality":"Bitterfeld-Wolfen","municipality":{"key":"15082015","name":"Bitterfeld-Wolfen, Stadt","type":"Stadt"},"district":{"key":"15082","name":"Anhalt-Bitterfeld","type":"Landkreis"},"federalState":{"key":"15","name":"Sachsen-Anhalt"}},{"name":"Sächsische Str.","postalCode":"06749","locality":"Bitterfeld-Wolfen","municipality":{"key":"15082015","name":"Bitterfeld-Wolfen, Stadt","type":"Stadt"},"district":{"key":"15082","name":"Anhalt-Bitterfeld","type":"Landkreis"},"federalState":{"key":"15","name":"Sachsen-Anhalt"}},{"name":"Salegaster Chaussee","postalCode":"06749","locality":"Bitterfeld-Wolfen","municipality":{"key":"15082015","name":"Bitterfeld-Wolfen, Stadt","type":"Stadt"},"district":{"key":"15082","name":"Anhalt-Bitterfeld","type":"Landkreis"},"federalState":{"key":"15","name":"Sachsen-Anhalt"}},{"name":"Salegaster Chaussee","postalCode":"06766","locality":"Bitterfeld-Wolfen","municipality":{"key":"15082015","name":"Bitterfeld-Wolfen, Stadt","type":"Stadt"},"district":{"key":"15082","name":"Anhalt-Bitterfeld","type":"Landkreis"},"federalState":{"key":"15","name":"Sachsen-Anhalt"}},{"name":"Salegaster Chaussee","postalCode":"06803","locality":"Bitterfeld-Wolfen","municipality":{"key":"15082015","name":"Bitterfeld-Wolfen, Stadt","type":"Stadt"},"district":{"key":"15082","name":"Anhalt-Bitterfeld","type":"Landkreis"},"federalState":{"key":"15","name":"Sachsen-Anhalt"}},{"name":"Salzfurter Weg","postalCode":"06766","locality":"Bitterfeld-Wolfen","municipality":{"key":"15082015","name":"Bitterfeld-Wolfen, Stadt","type":"Stadt"},"district":{"key":"15082","name":"Anhalt-Bitterfeld","type":"Landkreis"},"federalState":{"key":"15","name":"Sachsen-Anhalt"}},{"name":"Sandersdorfer Str.","postalCode":"06766","locality":"Bitterfeld-Wolfen","municipality":{"key":"15082015","name":"Bitterfeld-Wolfen, Stadt","type":"Stadt"},"district":{"key":"15082","name":"Anhalt-Bitterfeld","type":"Landkreis"},"federalState":{"key":"15","name":"Sachsen-Anhalt"}},{"name":"Sandweg","postalCode":"06766","locality":"Bitterfeld-Wolfen","municipality":{"key":"15082015","name":"Bitterfeld-Wolfen, Stadt","type":"Stadt"},"district":{"key":"15082","name":"Anhalt-Bitterfeld","type":"Landkreis"},"federalState":{"key":"15","name":"Sachsen-Anhalt"}},{"name":"Schäferstr.","postalCode":"06766","locality":"Bitterfeld-Wolfen","municipality":{"key":"15082015","name":"Bitterfeld-Wolfen, Stadt","type":"Stadt"},"district":{"key":"15082","name":"Anhalt-Bitterfeld","type":"Landkreis"},"federalState":{"key":"15","name":"Sachsen-Anhalt"}},{"name":"Schenkstr.","postalCode":"06766","locality":"Bitterfeld-Wolfen","municipality":{"key":"15082015","name":"Bitterfeld-Wolfen, Stadt","type":"Stadt"},"district":{"key":"15082","name":"Anhalt-Bitterfeld","type":"Landkreis"},"federalState":{"key":"15","name":"Sachsen-Anhalt"}},{"name":"Schilfweg","postalCode":"06766","locality":"Bitterfeld-Wolfen","municipality":{"key":"15082015","name":"Bitterfeld-Wolfen, Stadt","type":"Stadt"},"district":{"key":"15082","name":"Anhalt-Bitterfeld","type":"Landkreis"},"federalState":{"key":"15","name":"Sachsen-Anhalt"}},{"name":"Schillerstr.","postalCode":"06749","locality":"Bitterfeld-Wolfen","municipality":{"key":"15082015","name":"Bitterfeld-Wolfen, Stadt","type":"Stadt"},"district":{"key":"15082","name":"Anhalt-Bitterfeld","type":"Landkreis"},"federalState":{"key":"15","name":"Sachsen-Anhalt"}},{"name":"Schillerstr.","postalCode":"06766","locality":"Bitterfeld-Wolfen","municipality":{"key":"15082015","name":"Bitterfeld-Wolfen, Stadt","type":"Stadt"},"district":{"key":"15082","name":"Anhalt-Bitterfeld","type":"Landkreis"},"federalState":{"key":"15","name":"Sachsen-Anhalt"}},{"name":"Schillerstr.","postalCode":"06803","locality":"Bitterfeld-Wolfen","municipality":{"key":"15082015","name":"Bitterfeld-Wolfen, Stadt","type":"Stadt"},"district":{"key":"15082","name":"Anhalt-Bitterfeld","type":"Landkreis"},"federalState":{"key":"15","name":"Sachsen-Anhalt"}},{"name":"Schleswiger Str.","postalCode":"06749","locality":"Bitterfeld-Wolfen","municipality":{"key":"15082015","name":"Bitterfeld-Wolfen, Stadt","type":"Stadt"},"district":{"key":"15082","name":"Anhalt-Bitterfeld","type":"Landkreis"},"federalState":{"key":"15","name":"Sachsen-Anhalt"}},{"name":"Schmetterlingspfad","postalCode":"06749","locality":"Bitterfeld-Wolfen","municipality":{"key":"15082015","name":"Bitterfeld-Wolfen, Stadt","type":"Stadt"},"district":{"key":"15082","name":"Anhalt-Bitterfeld","type":"Landkreis"},"federalState":{"key":"15","name":"Sachsen-Anhalt"}},{"name":"Schrebergartenstr.","postalCode":"06803","locality":"Bitterfeld-Wolfen","municipality":{"key":"15082015","name":"Bitterfeld-Wolfen, Stadt","type":"Stadt"},"district":{"key":"15082","name":"Anhalt-Bitterfeld","type":"Landkreis"},"federalState":{"key":"15","name":"Sachsen-Anhalt"}},{"name":"Schreberstr.","postalCode":"06749","locality":"Bitterfeld-Wolfen","municipality":{"key":"15082015","name":"Bitterfeld-Wolfen, Stadt","type":"Stadt"},"district":{"key":"15082","name":"Anhalt-Bitterfeld","type":"Landkreis"},"federalState":{"key":"15","name":"Sachsen-Anhalt"}},{"name":"Schulstr.","postalCode":"06749","locality":"Bitterfeld-Wolfen","municipality":{"key":"15082015","name":"Bitterfeld-Wolfen, Stadt","type":"Stadt"},"district":{"key":"15082","name":"Anhalt-Bitterfeld","type":"Landkreis"},"federalState":{"key":"15","name":"Sachsen-Anhalt"}},{"name":"Schulstr.","postalCode":"06803","locality":"Bitterfeld-Wolfen","municipality":{"key":"15082015","name":"Bitterfeld-Wolfen, Stadt","type":"Stadt"},"district":{"key":"15082","name":"Anhalt-Bitterfeld","type":"Landkreis"},"federalState":{"key":"15","name":"Sachsen-Anhalt"}},{"name":"Schulstr.","postalCode":"06808","locality":"Bitterfeld-Wolfen","municipality":{"key":"15082015","name":"Bitterfeld-Wolfen, Stadt","type":"Stadt"},"district":{"key":"15082","name":"Anhalt-Bitterfeld","type":"Landkreis"},"federalState":{"key":"15","name":"Sachsen-Anhalt"}},{"name":"Schulze-Delitzsch-Str.","postalCode":"06749","locality":"Bitterfeld-Wolfen","municipality":{"key":"15082015","name":"Bitterfeld-Wolfen, Stadt","type":"Stadt"},"district":{"key":"15082","name":"Anhalt-Bitterfeld","type":"Landkreis"},"federalState":{"key":"15","name":"Sachsen-Anhalt"}},{"name":"Schwarzer Weg","postalCode":"06749","locality":"Bitterfeld-Wolfen","municipality":{"key":"15082015","name":"Bitterfeld-Wolfen, Stadt","type":"Stadt"},"district":{"key":"15082","name":"Anhalt-Bitterfeld","type":"Landkreis"},"federalState":{"key":"15","name":"Sachsen-Anhalt"}},{"name":"Schwarzer Weg","postalCode":"06808","locality":"Bitterfeld-Wolfen","municipality":{"key":"15082015","name":"Bitterfeld-Wolfen, Stadt","type":"Stadt"},"district":{"key":"15082","name":"Anhalt-Bitterfeld","type":"Landkreis"},"federalState":{"key":"15","name":"Sachsen-Anhalt"}},{"name":"Schweriner Str.","postalCode":"06749","locality":"Bitterfeld-Wolfen","municipality":{"key":"15082015","name":"Bitterfeld-Wolfen, Stadt","type":"Stadt"},"district":{"key":"15082","name":"Anhalt-Bitterfeld","type":"Landkreis"},"federalState":{"key":"15","name":"Sachsen-Anhalt"}},{"name":"Seeblick","postalCode":"06749","locality":"Bitterfeld-Wolfen","municipality":{"key":"15082015","name":"Bitterfeld-Wolfen, Stadt","type":"Stadt"},"district":{"key":"15082","name":"Anhalt-Bitterfeld","type":"Landkreis"},"federalState":{"key":"15","name":"Sachsen-Anhalt"}},{"name":"Seepromenade","postalCode":"06749","locality":"Bitterfeld-Wolfen","municipality":{"key":"15082015","name":"Bitterfeld-Wolfen, Stadt","type":"Stadt"},"district":{"key":"15082","name":"Anhalt-Bitterfeld","type":"Landkreis"},"federalState":{"key":"15","name":"Sachsen-Anhalt"}},{"name":"Semmelweisstr.","postalCode":"06749","locality":"Bitterfeld-Wolfen","municipality":{"key":"15082015","name":"Bitterfeld-Wolfen, Stadt","type":"Stadt"},"district":{"key":"15082","name":"Anhalt-Bitterfeld","type":"Landkreis"},"federalState":{"key":"15","name":"Sachsen-Anhalt"}},{"name":"Siebenhausen","postalCode":"06766","locality":"Bitterfeld-Wolfen","municipality":{"key":"15082015","name":"Bitterfeld-Wolfen, Stadt","type":"Stadt"},"district":{"key":"15082","name":"Anhalt-Bitterfeld","type":"Landkreis"},"federalState":{"key":"15","name":"Sachsen-Anhalt"}},{"name":"Siebenhausener Str.","postalCode":"06766","locality":"Bitterfeld-Wolfen","municipality":{"key":"15082015","name":"Bitterfeld-Wolfen, Stadt","type":"Stadt"},"district":{"key":"15082","name":"Anhalt-Bitterfeld","type":"Landkreis"},"federalState":{"key":"15","name":"Sachsen-Anhalt"}},{"name":"Siedlung","postalCode":"06766","locality":"Bitterfeld-Wolfen","municipality":{"key":"15082015","name":"Bitterfeld-Wolfen, Stadt","type":"Stadt"},"district":{"key":"15082","name":"Anhalt-Bitterfeld","type":"Landkreis"},"federalState":{"key":"15","name":"Sachsen-Anhalt"}},{"name":"Siedlung Süd","postalCode":"06808","locality":"Bitterfeld-Wolfen","municipality":{"key":"15082015","name":"Bitterfeld-Wolfen, Stadt","type":"Stadt"},"district":{"key":"15082","name":"Anhalt-Bitterfeld","type":"Landkreis"},"federalState":{"key":"15","name":"Sachsen-Anhalt"}},{"name":"Sommerstr.","postalCode":"06749","locality":"Bitterfeld-Wolfen","municipality":{"key":"15082015","name":"Bitterfeld-Wolfen, Stadt","type":"Stadt"},"district":{"key":"15082","name":"Anhalt-Bitterfeld","type":"Landkreis"},"federalState":{"key":"15","name":"Sachsen-Anhalt"}},{"name":"Sonnenfeld","postalCode":"06766","locality":"Bitterfeld-Wolfen","municipality":{"key":"15082015","name":"Bitterfeld-Wolfen, Stadt","type":"Stadt"},"district":{"key":"15082","name":"Anhalt-Bitterfeld","type":"Landkreis"},"federalState":{"key":"15","name":"Sachsen-Anhalt"}},{"name":"Sonnenweg","postalCode":"06803","locality":"Bitterfeld-Wolfen","municipality":{"key":"15082015","name":"Bitterfeld-Wolfen, Stadt","type":"Stadt"},"district":{"key":"15082","name":"Anhalt-Bitterfeld","type":"Landkreis"},"federalState":{"key":"15","name":"Sachsen-Anhalt"}},{"name":"Sparkassenallee","postalCode":"06749","locality":"Bitterfeld-Wolfen","municipality":{"key":"15082015","name":"Bitterfeld-Wolfen, Stadt","type":"Stadt"},"district":{"key":"15082","name":"Anhalt-Bitterfeld","type":"Landkreis"},"federalState":{"key":"15","name":"Sachsen-Anhalt"}},{"name":"Stakendorfer Str.","postalCode":"06766","locality":"Bitterfeld-Wolfen","municipality":{"key":"15082015","name":"Bitterfeld-Wolfen, Stadt","type":"Stadt"},"district":{"key":"15082","name":"Anhalt-Bitterfeld","type":"Landkreis"},"federalState":{"key":"15","name":"Sachsen-Anhalt"}},{"name":"Stefan-Simon-Str.","postalCode":"06749","locality":"Bitterfeld-Wolfen","municipality":{"key":"15082015","name":"Bitterfeld-Wolfen, Stadt","type":"Stadt"},"district":{"key":"15082","name":"Anhalt-Bitterfeld","type":"Landkreis"},"federalState":{"key":"15","name":"Sachsen-Anhalt"}},{"name":"Steinfurther Str.","postalCode":"06766","locality":"Bitterfeld-Wolfen","municipality":{"key":"15082015","name":"Bitterfeld-Wolfen, Stadt","type":"Stadt"},"district":{"key":"15082","name":"Anhalt-Bitterfeld","type":"Landkreis"},"federalState":{"key":"15","name":"Sachsen-Anhalt"}},{"name":"Steinstückenweg","postalCode":"06766","locality":"Bitterfeld-Wolfen","municipality":{"key":"15082015","name":"Bitterfeld-Wolfen, Stadt","type":"Stadt"},"district":{"key":"15082","name":"Anhalt-Bitterfeld","type":"Landkreis"},"federalState":{"key":"15","name":"Sachsen-Anhalt"}},{"name":"Sternstr.","postalCode":"06749","locality":"Bitterfeld-Wolfen","municipality":{"key":"15082015","name":"Bitterfeld-Wolfen, Stadt","type":"Stadt"},"district":{"key":"15082","name":"Anhalt-Bitterfeld","type":"Landkreis"},"federalState":{"key":"15","name":"Sachsen-Anhalt"}},{"name":"Steubenstr.","postalCode":"06749","locality":"Bitterfeld-Wolfen","municipality":{"key":"15082015","name":"Bitterfeld-Wolfen, Stadt","type":"Stadt"},"district":{"key":"15082","name":"Anhalt-Bitterfeld","type":"Landkreis"},"federalState":{"key":"15","name":"Sachsen-Anhalt"}},{"name":"Stiller Winkel","postalCode":"06766","locality":"Bitterfeld-Wolfen","municipality":{"key":"15082015","name":"Bitterfeld-Wolfen, Stadt","type":"Stadt"},"district":{"key":"15082","name":"Anhalt-Bitterfeld","type":"Landkreis"},"federalState":{"key":"15","name":"Sachsen-Anhalt"}},{"name":"Str. der Chemiearbeiter","postalCode":"06766","locality":"Bitterfeld-Wolfen","municipality":{"key":"15082015","name":"Bitterfeld-Wolfen, Stadt","type":"Stadt"},"district":{"key":"15082","name":"Anhalt-Bitterfeld","type":"Landkreis"},"federalState":{"key":"15","name":"Sachsen-Anhalt"}},{"name":"Str. der DSF","postalCode":"06766","locality":"Bitterfeld-Wolfen","municipality":{"key":"15082015","name":"Bitterfeld-Wolfen, Stadt","type":"Stadt"},"district":{"key":"15082","name":"Anhalt-Bitterfeld","type":"Landkreis"},"federalState":{"key":"15","name":"Sachsen-Anhalt"}},{"name":"Str. der Jugend","postalCode":"06766","locality":"Bitterfeld-Wolfen","municipality":{"key":"15082015","name":"Bitterfeld-Wolfen, Stadt","type":"Stadt"},"district":{"key":"15082","name":"Anhalt-Bitterfeld","type":"Landkreis"},"federalState":{"key":"15","name":"Sachsen-Anhalt"}},{"name":"Str. der Republik","postalCode":"06766","locality":"Bitterfeld-Wolfen","municipality":{"key":"15082015","name":"Bitterfeld-Wolfen, Stadt","type":"Stadt"},"district":{"key":"15082","name":"Anhalt-Bitterfeld","type":"Landkreis"},"federalState":{"key":"15","name":"Sachsen-Anhalt"}},{"name":"Str. der Völkerfreundschaft","postalCode":"06766","locality":"Bitterfeld-Wolfen","municipality":{"key":"15082015","name":"Bitterfeld-Wolfen, Stadt","type":"Stadt"},"district":{"key":"15082","name":"Anhalt-Bitterfeld","type":"Landkreis"},"federalState":{"key":"15","name":"Sachsen-Anhalt"}},{"name":"Str. der Wissenschaft","postalCode":"06749","locality":"Bitterfeld-Wolfen","municipality":{"key":"15082015","name":"Bitterfeld-Wolfen, Stadt","type":"Stadt"},"district":{"key":"15082","name":"Anhalt-Bitterfeld","type":"Landkreis"},"federalState":{"key":"15","name":"Sachsen-Anhalt"}},{"name":"Talstr.","postalCode":"06808","locality":"Bitterfeld-Wolfen","municipality":{"key":"15082015","name":"Bitterfeld-Wolfen, Stadt","type":"Stadt"},"district":{"key":"15082","name":"Anhalt-Bitterfeld","type":"Landkreis"},"federalState":{"key":"15","name":"Sachsen-Anhalt"}},{"name":"Tannenweg","postalCode":"06766","locality":"Bitterfeld-Wolfen","municipality":{"key":"15082015","name":"Bitterfeld-Wolfen, Stadt","type":"Stadt"},"district":{"key":"15082","name":"Anhalt-Bitterfeld","type":"Landkreis"},"federalState":{"key":"15","name":"Sachsen-Anhalt"}},{"name":"Teichstr.","postalCode":"06749","locality":"Bitterfeld-Wolfen","municipality":{"key":"15082015","name":"Bitterfeld-Wolfen, Stadt","type":"Stadt"},"district":{"key":"15082","name":"Anhalt-Bitterfeld","type":"Landkreis"},"federalState":{"key":"15","name":"Sachsen-Anhalt"}},{"name":"Teichwall","postalCode":"06749","locality":"Bitterfeld-Wolfen","municipality":{"key":"15082015","name":"Bitterfeld-Wolfen, Stadt","type":"Stadt"},"district":{"key":"15082","name":"Anhalt-Bitterfeld","type":"Landkreis"},"federalState":{"key":"15","name":"Sachsen-Anhalt"}},{"name":"Thalheimer Str.","postalCode":"06766","locality":"Bitterfeld-Wolfen","municipality":{"key":"15082015","name":"Bitterfeld-Wolfen, Stadt","type":"Stadt"},"district":{"key":"15082","name":"Anhalt-Bitterfeld","type":"Landkreis"},"federalState":{"key":"15","name":"Sachsen-Anhalt"}},{"name":"Thalheimer Str.","postalCode":"06803","locality":"Bitterfeld-Wolfen","municipality":{"key":"15082015","name":"Bitterfeld-Wolfen, Stadt","type":"Stadt"},"district":{"key":"15082","name":"Anhalt-Bitterfeld","type":"Landkreis"},"federalState":{"key":"15","name":"Sachsen-Anhalt"}},{"name":"Thälmannstr.","postalCode":"06766","locality":"Bitterfeld-Wolfen","municipality":{"key":"15082015","name":"Bitterfeld-Wolfen, Stadt","type":"Stadt"},"district":{"key":"15082","name":"Anhalt-Bitterfeld","type":"Landkreis"},"federalState":{"key":"15","name":"Sachsen-Anhalt"}},{"name":"Theodor-Heuss-Str.","postalCode":"06749","locality":"Bitterfeld-Wolfen","municipality":{"key":"15082015","name":"Bitterfeld-Wolfen, Stadt","type":"Stadt"},"district":{"key":"15082","name":"Anhalt-Bitterfeld","type":"Landkreis"},"federalState":{"key":"15","name":"Sachsen-Anhalt"}},{"name":"Th. Körnerpark","postalCode":"06749","locality":"Bitterfeld-Wolfen","municipality":{"key":"15082015","name":"Bitterfeld-Wolfen, Stadt","type":"Stadt"},"district":{"key":"15082","name":"Anhalt-Bitterfeld","type":"Landkreis"},"federalState":{"key":"15","name":"Sachsen-Anhalt"}},{"name":"Thomas-Mann-Str.","postalCode":"06766","locality":"Bitterfeld-Wolfen","municipality":{"key":"15082015","name":"Bitterfeld-Wolfen, Stadt","type":"Stadt"},"district":{"key":"15082","name":"Anhalt-Bitterfeld","type":"Landkreis"},"federalState":{"key":"15","name":"Sachsen-Anhalt"}},{"name":"Thomas-Müntzer-Str.","postalCode":"06766","locality":"Bitterfeld-Wolfen","municipality":{"key":"15082015","name":"Bitterfeld-Wolfen, Stadt","type":"Stadt"},"district":{"key":"15082","name":"Anhalt-Bitterfeld","type":"Landkreis"},"federalState":{"key":"15","name":"Sachsen-Anhalt"}},{"name":"Thüringer Str.","postalCode":"06749","locality":"Bitterfeld-Wolfen","municipality":{"key":"15082015","name":"Bitterfeld-Wolfen, Stadt","type":"Stadt"},"district":{"key":"15082","name":"Anhalt-Bitterfeld","type":"Landkreis"},"federalState":{"key":"15","name":"Sachsen-Anhalt"}},{"name":"Töpferstr.","postalCode":"06749","locality":"Bitterfeld-Wolfen","municipality":{"key":"15082015","name":"Bitterfeld-Wolfen, Stadt","type":"Stadt"},"district":{"key":"15082","name":"Anhalt-Bitterfeld","type":"Landkreis"},"federalState":{"key":"15","name":"Sachsen-Anhalt"}},{"name":"Töpferwall","postalCode":"06749","locality":"Bitterfeld-Wolfen","municipality":{"key":"15082015","name":"Bitterfeld-Wolfen, Stadt","type":"Stadt"},"district":{"key":"15082","name":"Anhalt-Bitterfeld","type":"Landkreis"},"federalState":{"key":"15","name":"Sachsen-Anhalt"}},{"name":"Torfweg","postalCode":"06766","locality":"Bitterfeld-Wolfen","municipality":{"key":"15082015","name":"Bitterfeld-Wolfen, Stadt","type":"Stadt"},"district":{"key":"15082","name":"Anhalt-Bitterfeld","type":"Landkreis"},"federalState":{"key":"15","name":"Sachsen-Anhalt"}},{"name":"Triftweg","postalCode":"06766","locality":"Bitterfeld-Wolfen","municipality":{"key":"15082015","name":"Bitterfeld-Wolfen, Stadt","type":"Stadt"},"district":{"key":"15082","name":"Anhalt-Bitterfeld","type":"Landkreis"},"federalState":{"key":"15","name":"Sachsen-Anhalt"}},{"name":"Tucholskystr.","postalCode":"06766","locality":"Bitterfeld-Wolfen","municipality":{"key":"15082015","name":"Bitterfeld-Wolfen, Stadt","type":"Stadt"},"district":{"key":"15082","name":"Anhalt-Bitterfeld","type":"Landkreis"},"federalState":{"key":"15","name":"Sachsen-Anhalt"}},{"name":"Turmstr.","postalCode":"06766","locality":"Bitterfeld-Wolfen","municipality":{"key":"15082015","name":"Bitterfeld-Wolfen, Stadt","type":"Stadt"},"district":{"key":"15082","name":"Anhalt-Bitterfeld","type":"Landkreis"},"federalState":{"key":"15","name":"Sachsen-Anhalt"}},{"name":"Ulmenweg","postalCode":"06749","locality":"Bitterfeld-Wolfen","municipality":{"key":"15082015","name":"Bitterfeld-Wolfen, Stadt","type":"Stadt"},"district":{"key":"15082","name":"Anhalt-Bitterfeld","type":"Landkreis"},"federalState":{"key":"15","name":"Sachsen-Anhalt"}},{"name":"Ulmenweg","postalCode":"06766","locality":"Bitterfeld-Wolfen","municipality":{"key":"15082015","name":"Bitterfeld-Wolfen, Stadt","type":"Stadt"},"district":{"key":"15082","name":"Anhalt-Bitterfeld","type":"Landkreis"},"federalState":{"key":"15","name":"Sachsen-Anhalt"}},{"name":"Umgehungsstr.","postalCode":"06766","locality":"Bitterfeld-Wolfen","municipality":{"key":"15082015","name":"Bitterfeld-Wolfen, Stadt","type":"Stadt"},"district":{"key":"15082","name":"Anhalt-Bitterfeld","type":"Landkreis"},"federalState":{"key":"15","name":"Sachsen-Anhalt"}},{"name":"Verbindungsstr.","postalCode":"06766","locality":"Bitterfeld-Wolfen","municipality":{"key":"15082015","name":"Bitterfeld-Wolfen, Stadt","type":"Stadt"},"district":{"key":"15082","name":"Anhalt-Bitterfeld","type":"Landkreis"},"federalState":{"key":"15","name":"Sachsen-Anhalt"}},{"name":"Virchowstr.","postalCode":"06766","locality":"Bitterfeld-Wolfen","municipality":{"key":"15082015","name":"Bitterfeld-Wolfen, Stadt","type":"Stadt"},"district":{"key":"15082","name":"Anhalt-Bitterfeld","type":"Landkreis"},"federalState":{"key":"15","name":"Sachsen-Anhalt"}},{"name":"Vogelschutzgebiet","postalCode":"06766","locality":"Bitterfeld-Wolfen","municipality":{"key":"15082015","name":"Bitterfeld-Wolfen, Stadt","type":"Stadt"},"district":{"key":"15082","name":"Anhalt-Bitterfeld","type":"Landkreis"},"federalState":{"key":"15","name":"Sachsen-Anhalt"}},{"name":"Vor dem Muldedamm","postalCode":"06749","locality":"Bitterfeld-Wolfen","municipality":{"key":"15082015","name":"Bitterfeld-Wolfen, Stadt","type":"Stadt"},"district":{"key":"15082","name":"Anhalt-Bitterfeld","type":"Landkreis"},"federalState":{"key":"15","name":"Sachsen-Anhalt"}},{"name":"Waldstr.","postalCode":"06766","locality":"Bitterfeld-Wolfen","municipality":{"key":"15082015","name":"Bitterfeld-Wolfen, Stadt","type":"Stadt"},"district":{"key":"15082","name":"Anhalt-Bitterfeld","type":"Landkreis"},"federalState":{"key":"15","name":"Sachsen-Anhalt"}},{"name":"Waldstr.","postalCode":"06803","locality":"Bitterfeld-Wolfen","municipality":{"key":"15082015","name":"Bitterfeld-Wolfen, Stadt","type":"Stadt"},"district":{"key":"15082","name":"Anhalt-Bitterfeld","type":"Landkreis"},"federalState":{"key":"15","name":"Sachsen-Anhalt"}},{"name":"Walther-Rathenau-Str.","postalCode":"06749","locality":"Bitterfeld-Wolfen","municipality":{"key":"15082015","name":"Bitterfeld-Wolfen, Stadt","type":"Stadt"},"district":{"key":"15082","name":"Anhalt-Bitterfeld","type":"Landkreis"},"federalState":{"key":"15","name":"Sachsen-Anhalt"}},{"name":"Walther-Rathenau-Str.","postalCode":"06803","locality":"Bitterfeld-Wolfen","municipality":{"key":"15082015","name":"Bitterfeld-Wolfen, Stadt","type":"Stadt"},"district":{"key":"15082","name":"Anhalt-Bitterfeld","type":"Landkreis"},"federalState":{"key":"15","name":"Sachsen-Anhalt"}},{"name":"Weinbergstr.","postalCode":"06749","locality":"Bitterfeld-Wolfen","municipality":{"key":"15082015","name":"Bitterfeld-Wolfen, Stadt","type":"Stadt"},"district":{"key":"15082","name":"Anhalt-Bitterfeld","type":"Landkreis"},"federalState":{"key":"15","name":"Sachsen-Anhalt"}},{"name":"Weststr.","postalCode":"06803","locality":"Bitterfeld-Wolfen","municipality":{"key":"15082015","name":"Bitterfeld-Wolfen, Stadt","type":"Stadt"},"district":{"key":"15082","name":"Anhalt-Bitterfeld","type":"Landkreis"},"federalState":{"key":"15","name":"Sachsen-Anhalt"}},{"name":"Weststr.","postalCode":"06808","locality":"Bitterfeld-Wolfen","municipality":{"key":"15082015","name":"Bitterfeld-Wolfen, Stadt","type":"Stadt"},"district":{"key":"15082","name":"Anhalt-Bitterfeld","type":"Landkreis"},"federalState":{"key":"15","name":"Sachsen-Anhalt"}},{"name":"Wiesengrund","postalCode":"06766","locality":"Bitterfeld-Wolfen","municipality":{"key":"15082015","name":"Bitterfeld-Wolfen, Stadt","type":"Stadt"},"district":{"key":"15082","name":"Anhalt-Bitterfeld","type":"Landkreis"},"federalState":{"key":"15","name":"Sachsen-Anhalt"}},{"name":"Wiesenstr.","postalCode":"06749","locality":"Bitterfeld-Wolfen","municipality":{"key":"15082015","name":"Bitterfeld-Wolfen, Stadt","type":"Stadt"},"district":{"key":"15082","name":"Anhalt-Bitterfeld","type":"Landkreis"},"federalState":{"key":"15","name":"Sachsen-Anhalt"}},{"name":"Wiesenstr.","postalCode":"06803","locality":"Bitterfeld-Wolfen","municipality":{"key":"15082015","name":"Bitterfeld-Wolfen, Stadt","type":"Stadt"},"district":{"key":"15082","name":"Anhalt-Bitterfeld","type":"Landkreis"},"federalState":{"key":"15","name":"Sachsen-Anhalt"}},{"name":"Wiesenstr.","postalCode":"06808","locality":"Bitterfeld-Wolfen","municipality":{"key":"15082015","name":"Bitterfeld-Wolfen, Stadt","type":"Stadt"},"district":{"key":"15082","name":"Anhalt-Bitterfeld","type":"Landkreis"},"federalState":{"key":"15","name":"Sachsen-Anhalt"}},{"name":"Wilhelm-Schneider-Str.","postalCode":"06766","locality":"Bitterfeld-Wolfen","municipality":{"key":"15082015","name":"Bitterfeld-Wolfen, Stadt","type":"Stadt"},"district":{"key":"15082","name":"Anhalt-Bitterfeld","type":"Landkreis"},"federalState":{"key":"15","name":"Sachsen-Anhalt"}},{"name":"Wilhelmstr.","postalCode":"06749","locality":"Bitterfeld-Wolfen","municipality":{"key":"15082015","name":"Bitterfeld-Wolfen, Stadt","type":"Stadt"},"district":{"key":"15082","name":"Anhalt-Bitterfeld","type":"Landkreis"},"federalState":{"key":"15","name":"Sachsen-Anhalt"}},{"name":"Willy-Sachse-Str.","postalCode":"06766","locality":"Bitterfeld-Wolfen","municipality":{"key":"15082015","name":"Bitterfeld-Wolfen, Stadt","type":"Stadt"},"district":{"key":"15082","name":"Anhalt-Bitterfeld","type":"Landkreis"},"federalState":{"key":"15","name":"Sachsen-Anhalt"}},{"name":"Windmühlenstr.","postalCode":"06749","locality":"Bitterfeld-Wolfen","municipality":{"key":"15082015","name":"Bitterfeld-Wolfen, Stadt","type":"Stadt"},"district":{"key":"15082","name":"Anhalt-Bitterfeld","type":"Landkreis"},"federalState":{"key":"15","name":"Sachsen-Anhalt"}},{"name":"Windmühlenstr.","postalCode":"06766","locality":"Bitterfeld-Wolfen","municipality":{"key":"15082015","name":"Bitterfeld-Wolfen, Stadt","type":"Stadt"},"district":{"key":"15082","name":"Anhalt-Bitterfeld","type":"Landkreis"},"federalState":{"key":"15","name":"Sachsen-Anhalt"}},{"name":"Wittenberger Str.","postalCode":"06749","locality":"Bitterfeld-Wolfen","municipality":{"key":"15082015","name":"Bitterfeld-Wolfen, Stadt","type":"Stadt"},"district":{"key":"15082","name":"Anhalt-Bitterfeld","type":"Landkreis"},"federalState":{"key":"15","name":"Sachsen-Anhalt"}},{"name":"Wittener Str.","postalCode":"06766","locality":"Bitterfeld-Wolfen","municipality":{"key":"15082015","name":"Bitterfeld-Wolfen, Stadt","type":"Stadt"},"district":{"key":"15082","name":"Anhalt-Bitterfeld","type":"Landkreis"},"federalState":{"key":"15","name":"Sachsen-Anhalt"}},{"name":"Wolfener Str.","postalCode":"06766","locality":"Bitterfeld-Wolfen","municipality":{"key":"15082015","name":"Bitterfeld-Wolfen, Stadt","type":"Stadt"},"district":{"key":"15082","name":"Anhalt-Bitterfeld","type":"Landkreis"},"federalState":{"key":"15","name":"Sachsen-Anhalt"}},{"name":"Wolfener Str.","postalCode":"06803","locality":"Bitterfeld-Wolfen","municipality":{"key":"15082015","name":"Bitterfeld-Wolfen, Stadt","type":"Stadt"},"district":{"key":"15082","name":"Anhalt-Bitterfeld","type":"Landkreis"},"federalState":{"key":"15","name":"Sachsen-Anhalt"}},{"name":"Wunderburg","postalCode":"06766","locality":"Bitterfeld-Wolfen","municipality":{"key":"15082015","name":"Bitterfeld-Wolfen, Stadt","type":"Stadt"},"district":{"key":"15082","name":"Anhalt-Bitterfeld","type":"Landkreis"},"federalState":{"key":"15","name":"Sachsen-Anhalt"}},{"name":"Ziegelstr.","postalCode":"06749","locality":"Bitterfeld-Wolfen","municipality":{"key":"15082015","name":"Bitterfeld-Wolfen, Stadt","type":"Stadt"},"district":{"key":"15082","name":"Anhalt-Bitterfeld","type":"Landkreis"},"federalState":{"key":"15","name":"Sachsen-Anhalt"}},{"name":"Zimmerstr.","postalCode":"06749","locality":"Bitterfeld-Wolfen","municipality":{"key":"15082015","name":"Bitterfeld-Wolfen, Stadt","type":"Stadt"},"district":{"key":"15082","name":"Anhalt-Bitterfeld","type":"Landkreis"},"federalState":{"key":"15","name":"Sachsen-Anhalt"}},{"name":"Zörbiger Str.","postalCode":"06749","locality":"Bitterfeld-Wolfen","municipality":{"key":"15082015","name":"Bitterfeld-Wolfen, Stadt","type":"Stadt"},"district":{"key":"15082","name":"Anhalt-Bitterfeld","type":"Landkreis"},"federalState":{"key":"15","name":"Sachsen-Anhalt"}},{"name":"Zörbiger Str.","postalCode":"06766","locality":"Bitterfeld-Wolfen","municipality":{"key":"15082015","name":"Bitterfeld-Wolfen, Stadt","type":"Stadt"},"district":{"key":"15082","name":"Anhalt-Bitterfeld","type":"Landkreis"},"federalState":{"key":"15","name":"Sachsen-Anhalt"}},{"name":"Zschepkauer Dorfstr.","postalCode":"06766","locality":"Bitterfeld-Wolfen","municipality":{"key":"15082015","name":"Bitterfeld-Wolfen, Stadt","type":"Stadt"},"district":{"key":"15082","name":"Anhalt-Bitterfeld","type":"Landkreis"},"federalState":{"key":"15","name":"Sachsen-Anhalt"}},{"name":"Zschepkauer Str.","postalCode":"06766","locality":"Bitterfeld-Wolfen","municipality":{"key":"15082015","name":"Bitterfeld-Wolfen, Stadt","type":"Stadt"},"district":{"key":"15082","name":"Anhalt-Bitterfeld","type":"Landkreis"},"federalState":{"key":"15","name":"Sachsen-Anhalt"}},{"name":"Zscherndorfer Str.","postalCode":"06808","locality":"Bitterfeld-Wolfen","municipality":{"key":"15082015","name":"Bitterfeld-Wolfen, Stadt","type":"Stadt"},"district":{"key":"15082","name":"Anhalt-Bitterfeld","type":"Landkreis"},"federalState":{"key":"15","name":"Sachsen-Anhalt"}},{"name":"Zscherndorfer Weg","postalCode":"06749","locality":"Bitterfeld-Wolfen","municipality":{"key":"15082015","name":"Bitterfeld-Wolfen, Stadt","type":"Stadt"},"district":{"key":"15082","name":"Anhalt-Bitterfeld","type":"Landkreis"},"federalState":{"key":"15","name":"Sachsen-Anhalt"}},{"name":"Zum Feldrain","postalCode":"06766","locality":"Bitterfeld-Wolfen","municipality":{"key":"15082015","name":"Bitterfeld-Wolfen, Stadt","type":"Stadt"},"district":{"key":"15082","name":"Anhalt-Bitterfeld","type":"Landkreis"},"federalState":{"key":"15","name":"Sachsen-Anhalt"}},{"name":"Zum Greppiner Wehr","postalCode":"06749","locality":"Bitterfeld-Wolfen","municipality":{"key":"15082015","name":"Bitterfeld-Wolfen, Stadt","type":"Stadt"},"district":{"key":"15082","name":"Anhalt-Bitterfeld","type":"Landkreis"},"federalState":{"key":"15","name":"Sachsen-Anhalt"}},{"name":"Zur Querstr.","postalCode":"06766","locality":"Bitterfeld-Wolfen","municipality":{"key":"15082015","name":"Bitterfeld-Wolfen, Stadt","type":"Stadt"},"district":{"key":"15082","name":"Anhalt-Bitterfeld","type":"Landkreis"},"federalState":{"key":"15","name":"Sachsen-Anhalt"}},{"name":"Zur Tränke","postalCode":"06766","locality":"Bitterfeld-Wolfen","municipality":{"key":"15082015","name":"Bitterfeld-Wolfen, Stadt","type":"Stadt"},"district":{"key":"15082","name":"Anhalt-Bitterfeld","type":"Landkreis"},"federalState":{"key":"15","name":"Sachsen-Anhalt"}},{"name":"Äußere Dorfstr.","postalCode":"06766","locality":"Bitterfeld-Wolfen","municipality":{"key":"15082015","name":"Bitterfeld-Wolfen, Stadt","type":"Stadt"},"district":{"key":"15082","name":"Anhalt-Bitterfeld","type":"Landkreis"},"federalState":{"key":"15","name":"Sachsen-Anhalt"}},{"name":"Äußere Waldstr.","postalCode":"06803","locality":"Bitterfeld-Wolfen","municipality":{"key":"15082015","name":"Bitterfeld-Wolfen, Stadt","type":"Stadt"},"district":{"key":"15082","name":"Anhalt-Bitterfeld","type":"Landkreis"},"federalState":{"key":"15","name":"Sachsen-Anhalt"}},]