[{"name":"98-Stufen-Weg","postalCode":"96465","locality":"Neustadt bei Coburg","municipality":{"key":"09473151","name":"Neustadt b.Coburg, GKSt","type":"Große_Kreisstadt"},"district":{"key":"09473","name":"Coburg","type":"Landkreis"},"federalState":{"key":"09","name":"Bayern"}},{"name":"Ahornweg","postalCode":"96479","locality":"Weitramsdorf","municipality":{"key":"09473175","name":"Weitramsdorf","type":"Kreisangehörige_Gemeinde"},"district":{"key":"09473","name":"Coburg","type":"Landkreis"},"federalState":{"key":"09","name":"Bayern"}},{"name":"Akazienweg","postalCode":"96479","locality":"Weitramsdorf","municipality":{"key":"09473175","name":"Weitramsdorf","type":"Kreisangehörige_Gemeinde"},"district":{"key":"09473","name":"Coburg","type":"Landkreis"},"federalState":{"key":"09","name":"Bayern"}},{"name":"Altenhofer Str.","postalCode":"96479","locality":"Weitramsdorf","municipality":{"key":"09473175","name":"Weitramsdorf","type":"Kreisangehörige_Gemeinde"},"district":{"key":"09473","name":"Coburg","type":"Landkreis"},"federalState":{"key":"09","name":"Bayern"}},{"name":"Altrangen","postalCode":"96479","locality":"Weitramsdorf","municipality":{"key":"09473175","name":"Weitramsdorf","type":"Kreisangehörige_Gemeinde"},"district":{"key":"09473","name":"Coburg","type":"Landkreis"},"federalState":{"key":"09","name":"Bayern"}},{"name":"Am Angerbach","postalCode":"96479","locality":"Weitramsdorf","municipality":{"key":"09473175","name":"Weitramsdorf","type":"Kreisangehörige_Gemeinde"},"district":{"key":"09473","name":"Coburg","type":"Landkreis"},"federalState":{"key":"09","name":"Bayern"}},{"name":"Am Bach","postalCode":"96479","locality":"Weitramsdorf","municipality":{"key":"09473175","name":"Weitramsdorf","type":"Kreisangehörige_Gemeinde"},"district":{"key":"09473","name":"Coburg","type":"Landkreis"},"federalState":{"key":"09","name":"Bayern"}},{"name":"Am Birkenschrötlein","postalCode":"96479","locality":"Weitramsdorf","municipality":{"key":"09473175","name":"Weitramsdorf","type":"Kreisangehörige_Gemeinde"},"district":{"key":"09473","name":"Coburg","type":"Landkreis"},"federalState":{"key":"09","name":"Bayern"}},{"name":"Am Brunnhölzlein","postalCode":"96479","locality":"Weitramsdorf","municipality":{"key":"09473175","name":"Weitramsdorf","type":"Kreisangehörige_Gemeinde"},"district":{"key":"09473","name":"Coburg","type":"Landkreis"},"federalState":{"key":"09","name":"Bayern"}},{"name":"Am Dorfplatz","postalCode":"96479","locality":"Weitramsdorf","municipality":{"key":"09473175","name":"Weitramsdorf","type":"Kreisangehörige_Gemeinde"},"district":{"key":"09473","name":"Coburg","type":"Landkreis"},"federalState":{"key":"09","name":"Bayern"}},{"name":"Am Hang","postalCode":"96479","locality":"Weitramsdorf","municipality":{"key":"09473175","name":"Weitramsdorf","type":"Kreisangehörige_Gemeinde"},"district":{"key":"09473","name":"Coburg","type":"Landkreis"},"federalState":{"key":"09","name":"Bayern"}},{"name":"Am Holz","postalCode":"96479","locality":"Weitramsdorf","municipality":{"key":"09473175","name":"Weitramsdorf","type":"Kreisangehörige_Gemeinde"},"district":{"key":"09473","name":"Coburg","type":"Landkreis"},"federalState":{"key":"09","name":"Bayern"}},{"name":"Am Hühnerberg","postalCode":"96479","locality":"Weitramsdorf","municipality":{"key":"09473175","name":"Weitramsdorf","type":"Kreisangehörige_Gemeinde"},"district":{"key":"09473","name":"Coburg","type":"Landkreis"},"federalState":{"key":"09","name":"Bayern"}},{"name":"Amselstieg","postalCode":"96479","locality":"Weitramsdorf","municipality":{"key":"09473175","name":"Weitramsdorf","type":"Kreisangehörige_Gemeinde"},"district":{"key":"09473","name":"Coburg","type":"Landkreis"},"federalState":{"key":"09","name":"Bayern"}},{"name":"Am Steig","postalCode":"96479","locality":"Weitramsdorf","municipality":{"key":"09473175","name":"Weitramsdorf","type":"Kreisangehörige_Gemeinde"},"district":{"key":"09473","name":"Coburg","type":"Landkreis"},"federalState":{"key":"09","name":"Bayern"}},{"name":"Am Wasserturm","postalCode":"96479","locality":"Weitramsdorf","municipality":{"key":"09473175","name":"Weitramsdorf","type":"Kreisangehörige_Gemeinde"},"district":{"key":"09473","name":"Coburg","type":"Landkreis"},"federalState":{"key":"09","name":"Bayern"}},{"name":"An der Schäferei","postalCode":"96479","locality":"Weitramsdorf","municipality":{"key":"09473175","name":"Weitramsdorf","type":"Kreisangehörige_Gemeinde"},"district":{"key":"09473","name":"Coburg","type":"Landkreis"},"federalState":{"key":"09","name":"Bayern"}},{"name":"Bergstr.","postalCode":"96479","locality":"Weitramsdorf","municipality":{"key":"09473175","name":"Weitramsdorf","type":"Kreisangehörige_Gemeinde"},"district":{"key":"09473","name":"Coburg","type":"Landkreis"},"federalState":{"key":"09","name":"Bayern"}},{"name":"Binzigweg","postalCode":"96479","locality":"Weitramsdorf","municipality":{"key":"09473175","name":"Weitramsdorf","type":"Kreisangehörige_Gemeinde"},"district":{"key":"09473","name":"Coburg","type":"Landkreis"},"federalState":{"key":"09","name":"Bayern"}},{"name":"Birkäckerweg","postalCode":"96479","locality":"Weitramsdorf","municipality":{"key":"09473175","name":"Weitramsdorf","type":"Kreisangehörige_Gemeinde"},"district":{"key":"09473","name":"Coburg","type":"Landkreis"},"federalState":{"key":"09","name":"Bayern"}},{"name":"Birkenweg","postalCode":"96479","locality":"Weitramsdorf","municipality":{"key":"09473175","name":"Weitramsdorf","type":"Kreisangehörige_Gemeinde"},"district":{"key":"09473","name":"Coburg","type":"Landkreis"},"federalState":{"key":"09","name":"Bayern"}},{"name":"Blumenweg","postalCode":"96479","locality":"Weitramsdorf","municipality":{"key":"09473175","name":"Weitramsdorf","type":"Kreisangehörige_Gemeinde"},"district":{"key":"09473","name":"Coburg","type":"Landkreis"},"federalState":{"key":"09","name":"Bayern"}},{"name":"Breiter Rain","postalCode":"96479","locality":"Weitramsdorf","municipality":{"key":"09473175","name":"Weitramsdorf","type":"Kreisangehörige_Gemeinde"},"district":{"key":"09473","name":"Coburg","type":"Landkreis"},"federalState":{"key":"09","name":"Bayern"}},{"name":"Buchenweg","postalCode":"96479","locality":"Weitramsdorf","municipality":{"key":"09473175","name":"Weitramsdorf","type":"Kreisangehörige_Gemeinde"},"district":{"key":"09473","name":"Coburg","type":"Landkreis"},"federalState":{"key":"09","name":"Bayern"}},{"name":"Callenberger Str.","postalCode":"96479","locality":"Weitramsdorf","municipality":{"key":"09473175","name":"Weitramsdorf","type":"Kreisangehörige_Gemeinde"},"district":{"key":"09473","name":"Coburg","type":"Landkreis"},"federalState":{"key":"09","name":"Bayern"}},{"name":"Coburger Str.","postalCode":"96479","locality":"Weitramsdorf","municipality":{"key":"09473175","name":"Weitramsdorf","type":"Kreisangehörige_Gemeinde"},"district":{"key":"09473","name":"Coburg","type":"Landkreis"},"federalState":{"key":"09","name":"Bayern"}},{"name":"Dachsleite","postalCode":"96479","locality":"Weitramsdorf","municipality":{"key":"09473175","name":"Weitramsdorf","type":"Kreisangehörige_Gemeinde"},"district":{"key":"09473","name":"Coburg","type":"Landkreis"},"federalState":{"key":"09","name":"Bayern"}},{"name":"Eichenweg","postalCode":"96479","locality":"Weitramsdorf","municipality":{"key":"09473175","name":"Weitramsdorf","type":"Kreisangehörige_Gemeinde"},"district":{"key":"09473","name":"Coburg","type":"Landkreis"},"federalState":{"key":"09","name":"Bayern"}},{"name":"Ellersgraben","postalCode":"96479","locality":"Weitramsdorf","municipality":{"key":"09473175","name":"Weitramsdorf","type":"Kreisangehörige_Gemeinde"},"district":{"key":"09473","name":"Coburg","type":"Landkreis"},"federalState":{"key":"09","name":"Bayern"}},{"name":"Erlengrund","postalCode":"96479","locality":"Weitramsdorf","municipality":{"key":"09473175","name":"Weitramsdorf","type":"Kreisangehörige_Gemeinde"},"district":{"key":"09473","name":"Coburg","type":"Landkreis"},"federalState":{"key":"09","name":"Bayern"}},{"name":"Fasanenleite","postalCode":"96479","locality":"Weitramsdorf","municipality":{"key":"09473175","name":"Weitramsdorf","type":"Kreisangehörige_Gemeinde"},"district":{"key":"09473","name":"Coburg","type":"Landkreis"},"federalState":{"key":"09","name":"Bayern"}},{"name":"Finkenweg","postalCode":"96479","locality":"Weitramsdorf","municipality":{"key":"09473175","name":"Weitramsdorf","type":"Kreisangehörige_Gemeinde"},"district":{"key":"09473","name":"Coburg","type":"Landkreis"},"federalState":{"key":"09","name":"Bayern"}},{"name":"Forstgrund","postalCode":"96479","locality":"Weitramsdorf","municipality":{"key":"09473175","name":"Weitramsdorf","type":"Kreisangehörige_Gemeinde"},"district":{"key":"09473","name":"Coburg","type":"Landkreis"},"federalState":{"key":"09","name":"Bayern"}},{"name":"Fuchsleite","postalCode":"96479","locality":"Weitramsdorf","municipality":{"key":"09473175","name":"Weitramsdorf","type":"Kreisangehörige_Gemeinde"},"district":{"key":"09473","name":"Coburg","type":"Landkreis"},"federalState":{"key":"09","name":"Bayern"}},{"name":"Gauerstadter Berg","postalCode":"96479","locality":"Weitramsdorf","municipality":{"key":"09473175","name":"Weitramsdorf","type":"Kreisangehörige_Gemeinde"},"district":{"key":"09473","name":"Coburg","type":"Landkreis"},"federalState":{"key":"09","name":"Bayern"}},{"name":"Gebrannter Baum","postalCode":"96479","locality":"Weitramsdorf","municipality":{"key":"09473175","name":"Weitramsdorf","type":"Kreisangehörige_Gemeinde"},"district":{"key":"09473","name":"Coburg","type":"Landkreis"},"federalState":{"key":"09","name":"Bayern"}},{"name":"Hasenleite","postalCode":"96479","locality":"Weitramsdorf","municipality":{"key":"09473175","name":"Weitramsdorf","type":"Kreisangehörige_Gemeinde"},"district":{"key":"09473","name":"Coburg","type":"Landkreis"},"federalState":{"key":"09","name":"Bayern"}},{"name":"Häslichweg","postalCode":"96479","locality":"Weitramsdorf","municipality":{"key":"09473175","name":"Weitramsdorf","type":"Kreisangehörige_Gemeinde"},"district":{"key":"09473","name":"Coburg","type":"Landkreis"},"federalState":{"key":"09","name":"Bayern"}},{"name":"Hellinger Weg","postalCode":"96479","locality":"Weitramsdorf","municipality":{"key":"09473175","name":"Weitramsdorf","type":"Kreisangehörige_Gemeinde"},"district":{"key":"09473","name":"Coburg","type":"Landkreis"},"federalState":{"key":"09","name":"Bayern"}},{"name":"Herrengasse","postalCode":"96479","locality":"Weitramsdorf","municipality":{"key":"09473175","name":"Weitramsdorf","type":"Kreisangehörige_Gemeinde"},"district":{"key":"09473","name":"Coburg","type":"Landkreis"},"federalState":{"key":"09","name":"Bayern"}},{"name":"Himmelleite","postalCode":"96479","locality":"Weitramsdorf","municipality":{"key":"09473175","name":"Weitramsdorf","type":"Kreisangehörige_Gemeinde"},"district":{"key":"09473","name":"Coburg","type":"Landkreis"},"federalState":{"key":"09","name":"Bayern"}},{"name":"Hinterer Mühlberg","postalCode":"96479","locality":"Weitramsdorf","municipality":{"key":"09473175","name":"Weitramsdorf","type":"Kreisangehörige_Gemeinde"},"district":{"key":"09473","name":"Coburg","type":"Landkreis"},"federalState":{"key":"09","name":"Bayern"}},{"name":"Hirtenweg","postalCode":"96479","locality":"Weitramsdorf","municipality":{"key":"09473175","name":"Weitramsdorf","type":"Kreisangehörige_Gemeinde"},"district":{"key":"09473","name":"Coburg","type":"Landkreis"},"federalState":{"key":"09","name":"Bayern"}},{"name":"Hoher Rain","postalCode":"96479","locality":"Weitramsdorf","municipality":{"key":"09473175","name":"Weitramsdorf","type":"Kreisangehörige_Gemeinde"},"district":{"key":"09473","name":"Coburg","type":"Landkreis"},"federalState":{"key":"09","name":"Bayern"}},{"name":"Hohe Str.","postalCode":"96479","locality":"Weitramsdorf","municipality":{"key":"09473175","name":"Weitramsdorf","type":"Kreisangehörige_Gemeinde"},"district":{"key":"09473","name":"Coburg","type":"Landkreis"},"federalState":{"key":"09","name":"Bayern"}},{"name":"Hutstr.","postalCode":"96479","locality":"Weitramsdorf","municipality":{"key":"09473175","name":"Weitramsdorf","type":"Kreisangehörige_Gemeinde"},"district":{"key":"09473","name":"Coburg","type":"Landkreis"},"federalState":{"key":"09","name":"Bayern"}},{"name":"Ilmenauer Str.","postalCode":"96450","locality":"Coburg","municipality":{"key":"09463000","name":"Coburg","type":"Kreisfreie_Stadt"},"district":{"key":"09463","name":"Coburg","type":"Kreisfreie_Stadt"},"federalState":{"key":"09","name":"Bayern"}},{"name":"Im Grund","postalCode":"96450","locality":"Coburg","municipality":{"key":"09463000","name":"Coburg","type":"Kreisfreie_Stadt"},"district":{"key":"09463","name":"Coburg","type":"Kreisfreie_Stadt"},"federalState":{"key":"09","name":"Bayern"}},{"name":"Im Winkel","postalCode":"96279","locality":"Weidhausen b. Coburg","municipality":{"key":"09473174","name":"Weidhausen b.Coburg","type":"Kreisangehörige_Gemeinde"},"district":{"key":"09473","name":"Coburg","type":"Landkreis"},"federalState":{"key":"09","name":"Bayern"}},{"name":"Industriestr.","postalCode":"96465","locality":"Neustadt bei Coburg","municipality":{"key":"09473151","name":"Neustadt b.Coburg, GKSt","type":"Große_Kreisstadt"},"district":{"key":"09473","name":"Coburg","type":"Landkreis"},"federalState":{"key":"09","name":"Bayern"}},{"name":"Isselburgweg","postalCode":"96450","locality":"Coburg","municipality":{"key":"09463000","name":"Coburg","type":"Kreisfreie_Stadt"},"district":{"key":"09463","name":"Coburg","type":"Kreisfreie_Stadt"},"federalState":{"key":"09","name":"Bayern"}},{"name":"Jahnstr.","postalCode":"96237","locality":"Ebersdorf b. Coburg","municipality":{"key":"09473121","name":"Ebersdorf b.Coburg","type":"Kreisangehörige_Gemeinde"},"district":{"key":"09473","name":"Coburg","type":"Landkreis"},"federalState":{"key":"09","name":"Bayern"}},{"name":"Jean-Paul-Allee","postalCode":"96465","locality":"Neustadt bei Coburg","municipality":{"key":"09473151","name":"Neustadt b.Coburg, GKSt","type":"Große_Kreisstadt"},"district":{"key":"09473","name":"Coburg","type":"Landkreis"},"federalState":{"key":"09","name":"Bayern"}},{"name":"Jean-Paul-Weg","postalCode":"96450","locality":"Coburg","municipality":{"key":"09463000","name":"Coburg","type":"Kreisfreie_Stadt"},"district":{"key":"09463","name":"Coburg","type":"Kreisfreie_Stadt"},"federalState":{"key":"09","name":"Bayern"}},{"name":"Jenaer Str.","postalCode":"96450","locality":"Coburg","municipality":{"key":"09463000","name":"Coburg","type":"Kreisfreie_Stadt"},"district":{"key":"09463","name":"Coburg","type":"Kreisfreie_Stadt"},"federalState":{"key":"09","name":"Bayern"}},{"name":"Johanneskirchplatz","postalCode":"96450","locality":"Coburg","municipality":{"key":"09463000","name":"Coburg","type":"Kreisfreie_Stadt"},"district":{"key":"09463","name":"Coburg","type":"Kreisfreie_Stadt"},"federalState":{"key":"09","name":"Bayern"}},{"name":"Johannesleite","postalCode":"96450","locality":"Coburg","municipality":{"key":"09463000","name":"Coburg","type":"Kreisfreie_Stadt"},"district":{"key":"09463","name":"Coburg","type":"Kreisfreie_Stadt"},"federalState":{"key":"09","name":"Bayern"}},{"name":"Johann-Strauß-Platz","postalCode":"96450","locality":"Coburg","municipality":{"key":"09463000","name":"Coburg","type":"Kreisfreie_Stadt"},"district":{"key":"09463","name":"Coburg","type":"Kreisfreie_Stadt"},"federalState":{"key":"09","name":"Bayern"}},{"name":"Judenberg","postalCode":"96450","locality":"Coburg","municipality":{"key":"09463000","name":"Coburg","type":"Kreisfreie_Stadt"},"district":{"key":"09463","name":"Coburg","type":"Kreisfreie_Stadt"},"federalState":{"key":"09","name":"Bayern"}},{"name":"Judengasse","postalCode":"96450","locality":"Coburg","municipality":{"key":"09463000","name":"Coburg","type":"Kreisfreie_Stadt"},"district":{"key":"09463","name":"Coburg","type":"Kreisfreie_Stadt"},"federalState":{"key":"09","name":"Bayern"}},{"name":"Julius-Griesbach-Str.","postalCode":"96450","locality":"Coburg","municipality":{"key":"09463000","name":"Coburg","type":"Kreisfreie_Stadt"},"district":{"key":"09463","name":"Coburg","type":"Kreisfreie_Stadt"},"federalState":{"key":"09","name":"Bayern"}},{"name":"Julius-Popp-Str.","postalCode":"96450","locality":"Coburg","municipality":{"key":"09463000","name":"Coburg","type":"Kreisfreie_Stadt"},"district":{"key":"09463","name":"Coburg","type":"Kreisfreie_Stadt"},"federalState":{"key":"09","name":"Bayern"}},{"name":"Kastanienweg","postalCode":"96479","locality":"Weitramsdorf","municipality":{"key":"09473175","name":"Weitramsdorf","type":"Kreisangehörige_Gemeinde"},"district":{"key":"09473","name":"Coburg","type":"Landkreis"},"federalState":{"key":"09","name":"Bayern"}},{"name":"Kellerberg","postalCode":"96479","locality":"Weitramsdorf","municipality":{"key":"09473175","name":"Weitramsdorf","type":"Kreisangehörige_Gemeinde"},"district":{"key":"09473","name":"Coburg","type":"Landkreis"},"federalState":{"key":"09","name":"Bayern"}},{"name":"Kiefernweg","postalCode":"96479","locality":"Weitramsdorf","municipality":{"key":"09473175","name":"Weitramsdorf","type":"Kreisangehörige_Gemeinde"},"district":{"key":"09473","name":"Coburg","type":"Landkreis"},"federalState":{"key":"09","name":"Bayern"}},{"name":"Kienleite","postalCode":"96479","locality":"Weitramsdorf","municipality":{"key":"09473175","name":"Weitramsdorf","type":"Kreisangehörige_Gemeinde"},"district":{"key":"09473","name":"Coburg","type":"Landkreis"},"federalState":{"key":"09","name":"Bayern"}},{"name":"Kreuzberg","postalCode":"96479","locality":"Weitramsdorf","municipality":{"key":"09473175","name":"Weitramsdorf","type":"Kreisangehörige_Gemeinde"},"district":{"key":"09473","name":"Coburg","type":"Landkreis"},"federalState":{"key":"09","name":"Bayern"}},{"name":"Lämmerweg","postalCode":"96479","locality":"Weitramsdorf","municipality":{"key":"09473175","name":"Weitramsdorf","type":"Kreisangehörige_Gemeinde"},"district":{"key":"09473","name":"Coburg","type":"Landkreis"},"federalState":{"key":"09","name":"Bayern"}},{"name":"Langgrund","postalCode":"96479","locality":"Weitramsdorf","municipality":{"key":"09473175","name":"Weitramsdorf","type":"Kreisangehörige_Gemeinde"},"district":{"key":"09473","name":"Coburg","type":"Landkreis"},"federalState":{"key":"09","name":"Bayern"}},{"name":"Lärchenhöhe","postalCode":"96479","locality":"Weitramsdorf","municipality":{"key":"09473175","name":"Weitramsdorf","type":"Kreisangehörige_Gemeinde"},"district":{"key":"09473","name":"Coburg","type":"Landkreis"},"federalState":{"key":"09","name":"Bayern"}},{"name":"Lindenauer Str.","postalCode":"96479","locality":"Weitramsdorf","municipality":{"key":"09473175","name":"Weitramsdorf","type":"Kreisangehörige_Gemeinde"},"district":{"key":"09473","name":"Coburg","type":"Landkreis"},"federalState":{"key":"09","name":"Bayern"}},{"name":"Lindenweg","postalCode":"96479","locality":"Weitramsdorf","municipality":{"key":"09473175","name":"Weitramsdorf","type":"Kreisangehörige_Gemeinde"},"district":{"key":"09473","name":"Coburg","type":"Landkreis"},"federalState":{"key":"09","name":"Bayern"}},{"name":"Mährenhäuser Str.","postalCode":"96479","locality":"Weitramsdorf","municipality":{"key":"09473175","name":"Weitramsdorf","type":"Kreisangehörige_Gemeinde"},"district":{"key":"09473","name":"Coburg","type":"Landkreis"},"federalState":{"key":"09","name":"Bayern"}},{"name":"Margaretenweg","postalCode":"96479","locality":"Weitramsdorf","municipality":{"key":"09473175","name":"Weitramsdorf","type":"Kreisangehörige_Gemeinde"},"district":{"key":"09473","name":"Coburg","type":"Landkreis"},"federalState":{"key":"09","name":"Bayern"}},{"name":"Mönchswiesenweg","postalCode":"96479","locality":"Weitramsdorf","municipality":{"key":"09473175","name":"Weitramsdorf","type":"Kreisangehörige_Gemeinde"},"district":{"key":"09473","name":"Coburg","type":"Landkreis"},"federalState":{"key":"09","name":"Bayern"}},{"name":"Mühlengrund","postalCode":"96479","locality":"Weitramsdorf","municipality":{"key":"09473175","name":"Weitramsdorf","type":"Kreisangehörige_Gemeinde"},"district":{"key":"09473","name":"Coburg","type":"Landkreis"},"federalState":{"key":"09","name":"Bayern"}},{"name":"Mühlgasse","postalCode":"96479","locality":"Weitramsdorf","municipality":{"key":"09473175","name":"Weitramsdorf","type":"Kreisangehörige_Gemeinde"},"district":{"key":"09473","name":"Coburg","type":"Landkreis"},"federalState":{"key":"09","name":"Bayern"}},{"name":"Neuseser Weg","postalCode":"96479","locality":"Weitramsdorf","municipality":{"key":"09473175","name":"Weitramsdorf","type":"Kreisangehörige_Gemeinde"},"district":{"key":"09473","name":"Coburg","type":"Landkreis"},"federalState":{"key":"09","name":"Bayern"}},{"name":"Oberer Wickenweg","postalCode":"96479","locality":"Weitramsdorf","municipality":{"key":"09473175","name":"Weitramsdorf","type":"Kreisangehörige_Gemeinde"},"district":{"key":"09473","name":"Coburg","type":"Landkreis"},"federalState":{"key":"09","name":"Bayern"}},{"name":"Paracelsusstr.","postalCode":"96450","locality":"Coburg","municipality":{"key":"09463000","name":"Coburg","type":"Kreisfreie_Stadt"},"district":{"key":"09463","name":"Coburg","type":"Kreisfreie_Stadt"},"federalState":{"key":"09","name":"Bayern"}},{"name":"Park","postalCode":"96450","locality":"Coburg","municipality":{"key":"09463000","name":"Coburg","type":"Kreisfreie_Stadt"},"district":{"key":"09463","name":"Coburg","type":"Kreisfreie_Stadt"},"federalState":{"key":"09","name":"Bayern"}},{"name":"Park am Nägleinsteich","postalCode":"96450","locality":"Coburg","municipality":{"key":"09463000","name":"Coburg","type":"Kreisfreie_Stadt"},"district":{"key":"09463","name":"Coburg","type":"Kreisfreie_Stadt"},"federalState":{"key":"09","name":"Bayern"}},{"name":"Park am Ölberg","postalCode":"96450","locality":"Coburg","municipality":{"key":"09463000","name":"Coburg","type":"Kreisfreie_Stadt"},"district":{"key":"09463","name":"Coburg","type":"Kreisfreie_Stadt"},"federalState":{"key":"09","name":"Bayern"}},{"name":"Parkstr.","postalCode":"96450","locality":"Coburg","municipality":{"key":"09463000","name":"Coburg","type":"Kreisfreie_Stadt"},"district":{"key":"09463","name":"Coburg","type":"Kreisfreie_Stadt"},"federalState":{"key":"09","name":"Bayern"}},{"name":"Patzschkestr.","postalCode":"96465","locality":"Neustadt bei Coburg","municipality":{"key":"09473151","name":"Neustadt b.Coburg, GKSt","type":"Große_Kreisstadt"},"district":{"key":"09473","name":"Coburg","type":"Landkreis"},"federalState":{"key":"09","name":"Bayern"}},{"name":"Paul-Helbich-Str.","postalCode":"96450","locality":"Coburg","municipality":{"key":"09463000","name":"Coburg","type":"Kreisfreie_Stadt"},"district":{"key":"09463","name":"Coburg","type":"Kreisfreie_Stadt"},"federalState":{"key":"09","name":"Bayern"}},{"name":"Pestalozzistr.","postalCode":"96279","locality":"Weidhausen b. Coburg","municipality":{"key":"09473174","name":"Weidhausen b.Coburg","type":"Kreisangehörige_Gemeinde"},"district":{"key":"09473","name":"Coburg","type":"Landkreis"},"federalState":{"key":"09","name":"Bayern"}},{"name":"Pestalozzistr.","postalCode":"96465","locality":"Neustadt bei Coburg","municipality":{"key":"09473151","name":"Neustadt b.Coburg, GKSt","type":"Große_Kreisstadt"},"district":{"key":"09473","name":"Coburg","type":"Landkreis"},"federalState":{"key":"09","name":"Bayern"}},{"name":"Pettenkoferstr.","postalCode":"96450","locality":"Coburg","municipality":{"key":"09463000","name":"Coburg","type":"Kreisfreie_Stadt"},"district":{"key":"09463","name":"Coburg","type":"Kreisfreie_Stadt"},"federalState":{"key":"09","name":"Bayern"}},{"name":"Pfaffengrund","postalCode":"96450","locality":"Coburg","municipality":{"key":"09463000","name":"Coburg","type":"Kreisfreie_Stadt"},"district":{"key":"09463","name":"Coburg","type":"Kreisfreie_Stadt"},"federalState":{"key":"09","name":"Bayern"}},{"name":"Pfarrar-Greiner-Str.","postalCode":"96465","locality":"Neustadt bei Coburg","municipality":{"key":"09473151","name":"Neustadt b.Coburg, GKSt","type":"Große_Kreisstadt"},"district":{"key":"09473","name":"Coburg","type":"Landkreis"},"federalState":{"key":"09","name":"Bayern"}},{"name":"Pfarrer-Greiner-Str.","postalCode":"96465","locality":"Neustadt bei Coburg","municipality":{"key":"09473151","name":"Neustadt b.Coburg, GKSt","type":"Große_Kreisstadt"},"district":{"key":"09473","name":"Coburg","type":"Landkreis"},"federalState":{"key":"09","name":"Bayern"}},{"name":"Pfarrgasse","postalCode":"96237","locality":"Ebersdorf b. Coburg","municipality":{"key":"09473121","name":"Ebersdorf b.Coburg","type":"Kreisangehörige_Gemeinde"},"district":{"key":"09473","name":"Coburg","type":"Landkreis"},"federalState":{"key":"09","name":"Bayern"}},{"name":"Pfarrgasse","postalCode":"96450","locality":"Coburg","municipality":{"key":"09463000","name":"Coburg","type":"Kreisfreie_Stadt"},"district":{"key":"09463","name":"Coburg","type":"Kreisfreie_Stadt"},"federalState":{"key":"09","name":"Bayern"}},{"name":"Pilgramsroth","postalCode":"96450","locality":"Coburg","municipality":{"key":"09463000","name":"Coburg","type":"Kreisfreie_Stadt"},"district":{"key":"09463","name":"Coburg","type":"Kreisfreie_Stadt"},"federalState":{"key":"09","name":"Bayern"}},{"name":"Plattenäcker","postalCode":"96450","locality":"Coburg","municipality":{"key":"09463000","name":"Coburg","type":"Kreisfreie_Stadt"},"district":{"key":"09463","name":"Coburg","type":"Kreisfreie_Stadt"},"federalState":{"key":"09","name":"Bayern"}},{"name":"Plattenäcker Str.","postalCode":"96465","locality":"Neustadt bei Coburg","municipality":{"key":"09473151","name":"Neustadt b.Coburg, GKSt","type":"Große_Kreisstadt"},"district":{"key":"09473","name":"Coburg","type":"Landkreis"},"federalState":{"key":"09","name":"Bayern"}},{"name":"Plestener Weg","postalCode":"96465","locality":"Neustadt bei Coburg","municipality":{"key":"09473151","name":"Neustadt b.Coburg, GKSt","type":"Große_Kreisstadt"},"district":{"key":"09473","name":"Coburg","type":"Landkreis"},"federalState":{"key":"09","name":"Bayern"}},{"name":"Pommernstr.","postalCode":"96450","locality":"Coburg","municipality":{"key":"09463000","name":"Coburg","type":"Kreisfreie_Stadt"},"district":{"key":"09463","name":"Coburg","type":"Kreisfreie_Stadt"},"federalState":{"key":"09","name":"Bayern"}},{"name":"Pommernweg","postalCode":"96465","locality":"Neustadt bei Coburg","municipality":{"key":"09473151","name":"Neustadt b.Coburg, GKSt","type":"Große_Kreisstadt"},"district":{"key":"09473","name":"Coburg","type":"Landkreis"},"federalState":{"key":"09","name":"Bayern"}},{"name":"Posener Str.","postalCode":"96465","locality":"Neustadt bei Coburg","municipality":{"key":"09473151","name":"Neustadt b.Coburg, GKSt","type":"Große_Kreisstadt"},"district":{"key":"09473","name":"Coburg","type":"Landkreis"},"federalState":{"key":"09","name":"Bayern"}},{"name":"Posseck","postalCode":"96450","locality":"Coburg","municipality":{"key":"09463000","name":"Coburg","type":"Kreisfreie_Stadt"},"district":{"key":"09463","name":"Coburg","type":"Kreisfreie_Stadt"},"federalState":{"key":"09","name":"Bayern"}},{"name":"Postgrund","postalCode":"96450","locality":"Coburg","municipality":{"key":"09463000","name":"Coburg","type":"Kreisfreie_Stadt"},"district":{"key":"09463","name":"Coburg","type":"Kreisfreie_Stadt"},"federalState":{"key":"09","name":"Bayern"}},{"name":"Postweg","postalCode":"96450","locality":"Coburg","municipality":{"key":"09463000","name":"Coburg","type":"Kreisfreie_Stadt"},"district":{"key":"09463","name":"Coburg","type":"Kreisfreie_Stadt"},"federalState":{"key":"09","name":"Bayern"}},{"name":"Probstgrund","postalCode":"96450","locality":"Coburg","municipality":{"key":"09463000","name":"Coburg","type":"Kreisfreie_Stadt"},"district":{"key":"09463","name":"Coburg","type":"Kreisfreie_Stadt"},"federalState":{"key":"09","name":"Bayern"}},{"name":"Professor-Derra-Str.","postalCode":"96465","locality":"Neustadt bei Coburg","municipality":{"key":"09473151","name":"Neustadt b.Coburg, GKSt","type":"Große_Kreisstadt"},"district":{"key":"09473","name":"Coburg","type":"Landkreis"},"federalState":{"key":"09","name":"Bayern"}},{"name":"Querstr.","postalCode":"96450","locality":"Coburg","municipality":{"key":"09463000","name":"Coburg","type":"Kreisfreie_Stadt"},"district":{"key":"09463","name":"Coburg","type":"Kreisfreie_Stadt"},"federalState":{"key":"09","name":"Bayern"}},{"name":"Rehleite","postalCode":"96479","locality":"Weitramsdorf","municipality":{"key":"09473175","name":"Weitramsdorf","type":"Kreisangehörige_Gemeinde"},"district":{"key":"09473","name":"Coburg","type":"Landkreis"},"federalState":{"key":"09","name":"Bayern"}},{"name":"Röderberg","postalCode":"96479","locality":"Weitramsdorf","municipality":{"key":"09473175","name":"Weitramsdorf","type":"Kreisangehörige_Gemeinde"},"district":{"key":"09473","name":"Coburg","type":"Landkreis"},"federalState":{"key":"09","name":"Bayern"}},{"name":"Rosengasse","postalCode":"96479","locality":"Weitramsdorf","municipality":{"key":"09473175","name":"Weitramsdorf","type":"Kreisangehörige_Gemeinde"},"district":{"key":"09473","name":"Coburg","type":"Landkreis"},"federalState":{"key":"09","name":"Bayern"}},{"name":"Rosenweg","postalCode":"96479","locality":"Weitramsdorf","municipality":{"key":"09473175","name":"Weitramsdorf","type":"Kreisangehörige_Gemeinde"},"district":{"key":"09473","name":"Coburg","type":"Landkreis"},"federalState":{"key":"09","name":"Bayern"}},{"name":"Röthenweg","postalCode":"96479","locality":"Weitramsdorf","municipality":{"key":"09473175","name":"Weitramsdorf","type":"Kreisangehörige_Gemeinde"},"district":{"key":"09473","name":"Coburg","type":"Landkreis"},"federalState":{"key":"09","name":"Bayern"}},{"name":"Ruhäcker","postalCode":"96479","locality":"Weitramsdorf","municipality":{"key":"09473175","name":"Weitramsdorf","type":"Kreisangehörige_Gemeinde"},"district":{"key":"09473","name":"Coburg","type":"Landkreis"},"federalState":{"key":"09","name":"Bayern"}},{"name":"Schäfersgasse","postalCode":"96479","locality":"Weitramsdorf","municipality":{"key":"09473175","name":"Weitramsdorf","type":"Kreisangehörige_Gemeinde"},"district":{"key":"09473","name":"Coburg","type":"Landkreis"},"federalState":{"key":"09","name":"Bayern"}},{"name":"Schafwiesenweg","postalCode":"96479","locality":"Weitramsdorf","municipality":{"key":"09473175","name":"Weitramsdorf","type":"Kreisangehörige_Gemeinde"},"district":{"key":"09473","name":"Coburg","type":"Landkreis"},"federalState":{"key":"09","name":"Bayern"}},{"name":"Schelmersgraben","postalCode":"96479","locality":"Weitramsdorf","municipality":{"key":"09473175","name":"Weitramsdorf","type":"Kreisangehörige_Gemeinde"},"district":{"key":"09473","name":"Coburg","type":"Landkreis"},"federalState":{"key":"09","name":"Bayern"}},{"name":"Schenkenweg","postalCode":"96479","locality":"Weitramsdorf","municipality":{"key":"09473175","name":"Weitramsdorf","type":"Kreisangehörige_Gemeinde"},"district":{"key":"09473","name":"Coburg","type":"Landkreis"},"federalState":{"key":"09","name":"Bayern"}},{"name":"Schillerstr.","postalCode":"96479","locality":"Weitramsdorf","municipality":{"key":"09473175","name":"Weitramsdorf","type":"Kreisangehörige_Gemeinde"},"district":{"key":"09473","name":"Coburg","type":"Landkreis"},"federalState":{"key":"09","name":"Bayern"}},{"name":"Schlagleite","postalCode":"96479","locality":"Weitramsdorf","municipality":{"key":"09473175","name":"Weitramsdorf","type":"Kreisangehörige_Gemeinde"},"district":{"key":"09473","name":"Coburg","type":"Landkreis"},"federalState":{"key":"09","name":"Bayern"}},{"name":"Schlettacher Str.","postalCode":"96479","locality":"Weitramsdorf","municipality":{"key":"09473175","name":"Weitramsdorf","type":"Kreisangehörige_Gemeinde"},"district":{"key":"09473","name":"Coburg","type":"Landkreis"},"federalState":{"key":"09","name":"Bayern"}},{"name":"Schloßallee","postalCode":"96479","locality":"Weitramsdorf","municipality":{"key":"09473175","name":"Weitramsdorf","type":"Kreisangehörige_Gemeinde"},"district":{"key":"09473","name":"Coburg","type":"Landkreis"},"federalState":{"key":"09","name":"Bayern"}},{"name":"Schulstr.","postalCode":"96479","locality":"Weitramsdorf","municipality":{"key":"09473175","name":"Weitramsdorf","type":"Kreisangehörige_Gemeinde"},"district":{"key":"09473","name":"Coburg","type":"Landkreis"},"federalState":{"key":"09","name":"Bayern"}},{"name":"Schwarze Heide","postalCode":"96479","locality":"Weitramsdorf","municipality":{"key":"09473175","name":"Weitramsdorf","type":"Kreisangehörige_Gemeinde"},"district":{"key":"09473","name":"Coburg","type":"Landkreis"},"federalState":{"key":"09","name":"Bayern"}},{"name":"Seeleitenstr.","postalCode":"96479","locality":"Weitramsdorf","municipality":{"key":"09473175","name":"Weitramsdorf","type":"Kreisangehörige_Gemeinde"},"district":{"key":"09473","name":"Coburg","type":"Landkreis"},"federalState":{"key":"09","name":"Bayern"}},{"name":"Sommerleite","postalCode":"96479","locality":"Weitramsdorf","municipality":{"key":"09473175","name":"Weitramsdorf","type":"Kreisangehörige_Gemeinde"},"district":{"key":"09473","name":"Coburg","type":"Landkreis"},"federalState":{"key":"09","name":"Bayern"}},{"name":"Sülzfelder Str.","postalCode":"96479","locality":"Weitramsdorf","municipality":{"key":"09473175","name":"Weitramsdorf","type":"Kreisangehörige_Gemeinde"},"district":{"key":"09473","name":"Coburg","type":"Landkreis"},"federalState":{"key":"09","name":"Bayern"}},{"name":"Tambacher Berg","postalCode":"96479","locality":"Weitramsdorf","municipality":{"key":"09473175","name":"Weitramsdorf","type":"Kreisangehörige_Gemeinde"},"district":{"key":"09473","name":"Coburg","type":"Landkreis"},"federalState":{"key":"09","name":"Bayern"}},{"name":"Tambacher Str.","postalCode":"96479","locality":"Weitramsdorf","municipality":{"key":"09473175","name":"Weitramsdorf","type":"Kreisangehörige_Gemeinde"},"district":{"key":"09473","name":"Coburg","type":"Landkreis"},"federalState":{"key":"09","name":"Bayern"}},{"name":"Tannenweg","postalCode":"96479","locality":"Weitramsdorf","municipality":{"key":"09473175","name":"Weitramsdorf","type":"Kreisangehörige_Gemeinde"},"district":{"key":"09473","name":"Coburg","type":"Landkreis"},"federalState":{"key":"09","name":"Bayern"}},{"name":"Thüringer Str.","postalCode":"96479","locality":"Weitramsdorf","municipality":{"key":"09473175","name":"Weitramsdorf","type":"Kreisangehörige_Gemeinde"},"district":{"key":"09473","name":"Coburg","type":"Landkreis"},"federalState":{"key":"09","name":"Bayern"}},{"name":"Ulmenweg","postalCode":"96479","locality":"Weitramsdorf","municipality":{"key":"09473175","name":"Weitramsdorf","type":"Kreisangehörige_Gemeinde"},"district":{"key":"09473","name":"Coburg","type":"Landkreis"},"federalState":{"key":"09","name":"Bayern"}},{"name":"Ummerstadter Str.","postalCode":"96479","locality":"Weitramsdorf","municipality":{"key":"09473175","name":"Weitramsdorf","type":"Kreisangehörige_Gemeinde"},"district":{"key":"09473","name":"Coburg","type":"Landkreis"},"federalState":{"key":"09","name":"Bayern"}},{"name":"Veilchenweg","postalCode":"96479","locality":"Weitramsdorf","municipality":{"key":"09473175","name":"Weitramsdorf","type":"Kreisangehörige_Gemeinde"},"district":{"key":"09473","name":"Coburg","type":"Landkreis"},"federalState":{"key":"09","name":"Bayern"}},{"name":"Wassergasse","postalCode":"96479","locality":"Weitramsdorf","municipality":{"key":"09473175","name":"Weitramsdorf","type":"Kreisangehörige_Gemeinde"},"district":{"key":"09473","name":"Coburg","type":"Landkreis"},"federalState":{"key":"09","name":"Bayern"}},{"name":"Weidacher Str.","postalCode":"96479","locality":"Weitramsdorf","municipality":{"key":"09473175","name":"Weitramsdorf","type":"Kreisangehörige_Gemeinde"},"district":{"key":"09473","name":"Coburg","type":"Landkreis"},"federalState":{"key":"09","name":"Bayern"}},{"name":"Weidacher Weg","postalCode":"96479","locality":"Weitramsdorf","municipality":{"key":"09473175","name":"Weitramsdorf","type":"Kreisangehörige_Gemeinde"},"district":{"key":"09473","name":"Coburg","type":"Landkreis"},"federalState":{"key":"09","name":"Bayern"}},{"name":"Weinberg","postalCode":"96479","locality":"Weitramsdorf","municipality":{"key":"09473175","name":"Weitramsdorf","type":"Kreisangehörige_Gemeinde"},"district":{"key":"09473","name":"Coburg","type":"Landkreis"},"federalState":{"key":"09","name":"Bayern"}},{"name":"Wickenweg","postalCode":"96479","locality":"Weitramsdorf","municipality":{"key":"09473175","name":"Weitramsdorf","type":"Kreisangehörige_Gemeinde"},"district":{"key":"09473","name":"Coburg","type":"Landkreis"},"federalState":{"key":"09","name":"Bayern"}},{"name":"Wiesenweg","postalCode":"96479","locality":"Weitramsdorf","municipality":{"key":"09473175","name":"Weitramsdorf","type":"Kreisangehörige_Gemeinde"},"district":{"key":"09473","name":"Coburg","type":"Landkreis"},"federalState":{"key":"09","name":"Bayern"}},{"name":"Winterleite","postalCode":"96479","locality":"Weitramsdorf","municipality":{"key":"09473175","name":"Weitramsdorf","type":"Kreisangehörige_Gemeinde"},"district":{"key":"09473","name":"Coburg","type":"Landkreis"},"federalState":{"key":"09","name":"Bayern"}},{"name":"Zeisigweg","postalCode":"96479","locality":"Weitramsdorf","municipality":{"key":"09473175","name":"Weitramsdorf","type":"Kreisangehörige_Gemeinde"},"district":{"key":"09473","name":"Coburg","type":"Landkreis"},"federalState":{"key":"09","name":"Bayern"}},{"name":"Ziegeläckerweg","postalCode":"96479","locality":"Weitramsdorf","municipality":{"key":"09473175","name":"Weitramsdorf","type":"Kreisangehörige_Gemeinde"},"district":{"key":"09473","name":"Coburg","type":"Landkreis"},"federalState":{"key":"09","name":"Bayern"}},{"name":"Zum Förtschentor","postalCode":"96479","locality":"Weitramsdorf","municipality":{"key":"09473175","name":"Weitramsdorf","type":"Kreisangehörige_Gemeinde"},"district":{"key":"09473","name":"Coburg","type":"Landkreis"},"federalState":{"key":"09","name":"Bayern"}},{"name":"Zum Froschgrund","postalCode":"96479","locality":"Weitramsdorf","municipality":{"key":"09473175","name":"Weitramsdorf","type":"Kreisangehörige_Gemeinde"},"district":{"key":"09473","name":"Coburg","type":"Landkreis"},"federalState":{"key":"09","name":"Bayern"}},{"name":"Zum Spitzberg","postalCode":"96479","locality":"Weitramsdorf","municipality":{"key":"09473175","name":"Weitramsdorf","type":"Kreisangehörige_Gemeinde"},"district":{"key":"09473","name":"Coburg","type":"Landkreis"},"federalState":{"key":"09","name":"Bayern"}},{"name":"Zum Wohlbach","postalCode":"96479","locality":"Weitramsdorf","municipality":{"key":"09473175","name":"Weitramsdorf","type":"Kreisangehörige_Gemeinde"},"district":{"key":"09473","name":"Coburg","type":"Landkreis"},"federalState":{"key":"09","name":"Bayern"}},{"name":"Zur Sandleite","postalCode":"96479","locality":"Weitramsdorf","municipality":{"key":"09473175","name":"Weitramsdorf","type":"Kreisangehörige_Gemeinde"},"district":{"key":"09473","name":"Coburg","type":"Landkreis"},"federalState":{"key":"09","name":"Bayern"}},{"name":"Zur Schmalzgrube","postalCode":"96479","locality":"Weitramsdorf","municipality":{"key":"09473175","name":"Weitramsdorf","type":"Kreisangehörige_Gemeinde"},"district":{"key":"09473","name":"Coburg","type":"Landkreis"},"federalState":{"key":"09","name":"Bayern"}},{"name":"Äußere Wallstr.","postalCode":"96465","locality":"Neustadt bei Coburg","municipality":{"key":"09473151","name":"Neustadt b.Coburg, GKSt","type":"Große_Kreisstadt"},"district":{"key":"09473","name":"Coburg","type":"Landkreis"},"federalState":{"key":"09","name":"Bayern"}},{"name":"Ölsch","postalCode":"96450","locality":"Coburg","municipality":{"key":"09463000","name":"Coburg","type":"Kreisfreie_Stadt"},"district":{"key":"09463","name":"Coburg","type":"Kreisfreie_Stadt"},"federalState":{"key":"09","name":"Bayern"}},{"name":"Örtleinsgrund","postalCode":"96237","locality":"Ebersdorf b. Coburg","municipality":{"key":"09473121","name":"Ebersdorf b.Coburg","type":"Kreisangehörige_Gemeinde"},"district":{"key":"09473","name":"Coburg","type":"Landkreis"},"federalState":{"key":"09","name":"Bayern"}},]