[{"name":"Alemannenstr.","postalCode":"86685","locality":"Huisheim","municipality":{"key":"09779167","name":"Huisheim","type":"Kreisangehörige_Gemeinde"},"district":{"key":"09779","name":"Donau-Ries","type":"Landkreis"},"federalState":{"key":"09","name":"Bayern"}},{"name":"Am Kalvarienberg","postalCode":"86685","locality":"Huisheim","municipality":{"key":"09779167","name":"Huisheim","type":"Kreisangehörige_Gemeinde"},"district":{"key":"09779","name":"Donau-Ries","type":"Landkreis"},"federalState":{"key":"09","name":"Bayern"}},{"name":"Am Lettenbuck","postalCode":"86685","locality":"Huisheim","municipality":{"key":"09779167","name":"Huisheim","type":"Kreisangehörige_Gemeinde"},"district":{"key":"09779","name":"Donau-Ries","type":"Landkreis"},"federalState":{"key":"09","name":"Bayern"}},{"name":"Am oberen Anger","postalCode":"86685","locality":"Huisheim","municipality":{"key":"09779167","name":"Huisheim","type":"Kreisangehörige_Gemeinde"},"district":{"key":"09779","name":"Donau-Ries","type":"Landkreis"},"federalState":{"key":"09","name":"Bayern"}},{"name":"Am Spielberg","postalCode":"86685","locality":"Huisheim","municipality":{"key":"09779167","name":"Huisheim","type":"Kreisangehörige_Gemeinde"},"district":{"key":"09779","name":"Donau-Ries","type":"Landkreis"},"federalState":{"key":"09","name":"Bayern"}},{"name":"Badgasse","postalCode":"86685","locality":"Huisheim","municipality":{"key":"09779167","name":"Huisheim","type":"Kreisangehörige_Gemeinde"},"district":{"key":"09779","name":"Donau-Ries","type":"Landkreis"},"federalState":{"key":"09","name":"Bayern"}},{"name":"Bergstr.","postalCode":"86685","locality":"Huisheim","municipality":{"key":"09779167","name":"Huisheim","type":"Kreisangehörige_Gemeinde"},"district":{"key":"09779","name":"Donau-Ries","type":"Landkreis"},"federalState":{"key":"09","name":"Bayern"}},{"name":"Donauwörther Str.","postalCode":"86685","locality":"Huisheim","municipality":{"key":"09779167","name":"Huisheim","type":"Kreisangehörige_Gemeinde"},"district":{"key":"09779","name":"Donau-Ries","type":"Landkreis"},"federalState":{"key":"09","name":"Bayern"}},{"name":"Eichenstr.","postalCode":"86685","locality":"Huisheim","municipality":{"key":"09779167","name":"Huisheim","type":"Kreisangehörige_Gemeinde"},"district":{"key":"09779","name":"Donau-Ries","type":"Landkreis"},"federalState":{"key":"09","name":"Bayern"}},{"name":"Feldweg","postalCode":"86685","locality":"Huisheim","municipality":{"key":"09779167","name":"Huisheim","type":"Kreisangehörige_Gemeinde"},"district":{"key":"09779","name":"Donau-Ries","type":"Landkreis"},"federalState":{"key":"09","name":"Bayern"}},{"name":"Finkenweg","postalCode":"86685","locality":"Huisheim","municipality":{"key":"09779167","name":"Huisheim","type":"Kreisangehörige_Gemeinde"},"district":{"key":"09779","name":"Donau-Ries","type":"Landkreis"},"federalState":{"key":"09","name":"Bayern"}},{"name":"Gartenweg","postalCode":"86685","locality":"Huisheim","municipality":{"key":"09779167","name":"Huisheim","type":"Kreisangehörige_Gemeinde"},"district":{"key":"09779","name":"Donau-Ries","type":"Landkreis"},"federalState":{"key":"09","name":"Bayern"}},{"name":"Grüner Weg","postalCode":"86685","locality":"Huisheim","municipality":{"key":"09779167","name":"Huisheim","type":"Kreisangehörige_Gemeinde"},"district":{"key":"09779","name":"Donau-Ries","type":"Landkreis"},"federalState":{"key":"09","name":"Bayern"}},{"name":"Hauptstr.","postalCode":"86685","locality":"Huisheim","municipality":{"key":"09779167","name":"Huisheim","type":"Kreisangehörige_Gemeinde"},"district":{"key":"09779","name":"Donau-Ries","type":"Landkreis"},"federalState":{"key":"09","name":"Bayern"}},{"name":"Im Anger","postalCode":"86685","locality":"Huisheim","municipality":{"key":"09779167","name":"Huisheim","type":"Kreisangehörige_Gemeinde"},"district":{"key":"09779","name":"Donau-Ries","type":"Landkreis"},"federalState":{"key":"09","name":"Bayern"}},{"name":"Im Winkel","postalCode":"86685","locality":"Huisheim","municipality":{"key":"09779167","name":"Huisheim","type":"Kreisangehörige_Gemeinde"},"district":{"key":"09779","name":"Donau-Ries","type":"Landkreis"},"federalState":{"key":"09","name":"Bayern"}},{"name":"In der Kappl","postalCode":"86685","locality":"Huisheim","municipality":{"key":"09779167","name":"Huisheim","type":"Kreisangehörige_Gemeinde"},"district":{"key":"09779","name":"Donau-Ries","type":"Landkreis"},"federalState":{"key":"09","name":"Bayern"}},{"name":"In der Rees","postalCode":"86685","locality":"Huisheim","municipality":{"key":"09779167","name":"Huisheim","type":"Kreisangehörige_Gemeinde"},"district":{"key":"09779","name":"Donau-Ries","type":"Landkreis"},"federalState":{"key":"09","name":"Bayern"}},{"name":"Jurastr.","postalCode":"86685","locality":"Huisheim","municipality":{"key":"09779167","name":"Huisheim","type":"Kreisangehörige_Gemeinde"},"district":{"key":"09779","name":"Donau-Ries","type":"Landkreis"},"federalState":{"key":"09","name":"Bayern"}},{"name":"Kapellenfeld","postalCode":"86685","locality":"Huisheim","municipality":{"key":"09779167","name":"Huisheim","type":"Kreisangehörige_Gemeinde"},"district":{"key":"09779","name":"Donau-Ries","type":"Landkreis"},"federalState":{"key":"09","name":"Bayern"}},{"name":"Kellerfeldstr.","postalCode":"86685","locality":"Huisheim","municipality":{"key":"09779167","name":"Huisheim","type":"Kreisangehörige_Gemeinde"},"district":{"key":"09779","name":"Donau-Ries","type":"Landkreis"},"federalState":{"key":"09","name":"Bayern"}},{"name":"Lerchenweg","postalCode":"86685","locality":"Huisheim","municipality":{"key":"09779167","name":"Huisheim","type":"Kreisangehörige_Gemeinde"},"district":{"key":"09779","name":"Donau-Ries","type":"Landkreis"},"federalState":{"key":"09","name":"Bayern"}},{"name":"Lommersheim","postalCode":"86685","locality":"Huisheim","municipality":{"key":"09779167","name":"Huisheim","type":"Kreisangehörige_Gemeinde"},"district":{"key":"09779","name":"Donau-Ries","type":"Landkreis"},"federalState":{"key":"09","name":"Bayern"}},{"name":"Mühlenstr.","postalCode":"86685","locality":"Huisheim","municipality":{"key":"09779167","name":"Huisheim","type":"Kreisangehörige_Gemeinde"},"district":{"key":"09779","name":"Donau-Ries","type":"Landkreis"},"federalState":{"key":"09","name":"Bayern"}},{"name":"Mündlinger Str.","postalCode":"86685","locality":"Huisheim","municipality":{"key":"09779167","name":"Huisheim","type":"Kreisangehörige_Gemeinde"},"district":{"key":"09779","name":"Donau-Ries","type":"Landkreis"},"federalState":{"key":"09","name":"Bayern"}},{"name":"Oberdorfstr.","postalCode":"86685","locality":"Huisheim","municipality":{"key":"09779167","name":"Huisheim","type":"Kreisangehörige_Gemeinde"},"district":{"key":"09779","name":"Donau-Ries","type":"Landkreis"},"federalState":{"key":"09","name":"Bayern"}},{"name":"Pfarrer-Brand-Weg","postalCode":"86685","locality":"Huisheim","municipality":{"key":"09779167","name":"Huisheim","type":"Kreisangehörige_Gemeinde"},"district":{"key":"09779","name":"Donau-Ries","type":"Landkreis"},"federalState":{"key":"09","name":"Bayern"}},{"name":"Pfarrer-Wiedemann-Str.","postalCode":"86685","locality":"Huisheim","municipality":{"key":"09779167","name":"Huisheim","type":"Kreisangehörige_Gemeinde"},"district":{"key":"09779","name":"Donau-Ries","type":"Landkreis"},"federalState":{"key":"09","name":"Bayern"}},{"name":"Riesblick","postalCode":"86685","locality":"Huisheim","municipality":{"key":"09779167","name":"Huisheim","type":"Kreisangehörige_Gemeinde"},"district":{"key":"09779","name":"Donau-Ries","type":"Landkreis"},"federalState":{"key":"09","name":"Bayern"}},{"name":"Ringstr.","postalCode":"86685","locality":"Huisheim","municipality":{"key":"09779167","name":"Huisheim","type":"Kreisangehörige_Gemeinde"},"district":{"key":"09779","name":"Donau-Ries","type":"Landkreis"},"federalState":{"key":"09","name":"Bayern"}},{"name":"Schlesierstr.","postalCode":"86685","locality":"Huisheim","municipality":{"key":"09779167","name":"Huisheim","type":"Kreisangehörige_Gemeinde"},"district":{"key":"09779","name":"Donau-Ries","type":"Landkreis"},"federalState":{"key":"09","name":"Bayern"}},{"name":"Schloßgartenstr.","postalCode":"86685","locality":"Huisheim","municipality":{"key":"09779167","name":"Huisheim","type":"Kreisangehörige_Gemeinde"},"district":{"key":"09779","name":"Donau-Ries","type":"Landkreis"},"federalState":{"key":"09","name":"Bayern"}},{"name":"St.-Florian-Str.","postalCode":"86685","locality":"Huisheim","municipality":{"key":"09779167","name":"Huisheim","type":"Kreisangehörige_Gemeinde"},"district":{"key":"09779","name":"Donau-Ries","type":"Landkreis"},"federalState":{"key":"09","name":"Bayern"}},{"name":"St.-Sebastian-Str.","postalCode":"86685","locality":"Huisheim","municipality":{"key":"09779167","name":"Huisheim","type":"Kreisangehörige_Gemeinde"},"district":{"key":"09779","name":"Donau-Ries","type":"Landkreis"},"federalState":{"key":"09","name":"Bayern"}},{"name":"Sudetenring","postalCode":"86685","locality":"Huisheim","municipality":{"key":"09779167","name":"Huisheim","type":"Kreisangehörige_Gemeinde"},"district":{"key":"09779","name":"Donau-Ries","type":"Landkreis"},"federalState":{"key":"09","name":"Bayern"}},{"name":"Unterdorfstr.","postalCode":"86685","locality":"Huisheim","municipality":{"key":"09779167","name":"Huisheim","type":"Kreisangehörige_Gemeinde"},"district":{"key":"09779","name":"Donau-Ries","type":"Landkreis"},"federalState":{"key":"09","name":"Bayern"}},{"name":"Waldlehrpfad","postalCode":"86685","locality":"Huisheim","municipality":{"key":"09779167","name":"Huisheim","type":"Kreisangehörige_Gemeinde"},"district":{"key":"09779","name":"Donau-Ries","type":"Landkreis"},"federalState":{"key":"09","name":"Bayern"}},{"name":"Waldstr.","postalCode":"86685","locality":"Huisheim","municipality":{"key":"09779167","name":"Huisheim","type":"Kreisangehörige_Gemeinde"},"district":{"key":"09779","name":"Donau-Ries","type":"Landkreis"},"federalState":{"key":"09","name":"Bayern"}},{"name":"Weidenstr.","postalCode":"86685","locality":"Huisheim","municipality":{"key":"09779167","name":"Huisheim","type":"Kreisangehörige_Gemeinde"},"district":{"key":"09779","name":"Donau-Ries","type":"Landkreis"},"federalState":{"key":"09","name":"Bayern"}},{"name":"Wemdinger Str.","postalCode":"86685","locality":"Huisheim","municipality":{"key":"09779167","name":"Huisheim","type":"Kreisangehörige_Gemeinde"},"district":{"key":"09779","name":"Donau-Ries","type":"Landkreis"},"federalState":{"key":"09","name":"Bayern"}},{"name":"Wiesenstr.","postalCode":"86685","locality":"Huisheim","municipality":{"key":"09779167","name":"Huisheim","type":"Kreisangehörige_Gemeinde"},"district":{"key":"09779","name":"Donau-Ries","type":"Landkreis"},"federalState":{"key":"09","name":"Bayern"}},]