[{"name":"Ackendorfer Dorfstr.","postalCode":"39638","locality":"Gardelegen","municipality":{"key":"15081135","name":"Gardelegen, Hansestadt","type":"Stadt"},"district":{"key":"15081","name":"Altmarkkreis Salzwedel","type":"Landkreis"},"federalState":{"key":"15","name":"Sachsen-Anhalt"}},{"name":"Ackendorfer Landstr.","postalCode":"39638","locality":"Gardelegen","municipality":{"key":"15081135","name":"Gardelegen, Hansestadt","type":"Stadt"},"district":{"key":"15081","name":"Altmarkkreis Salzwedel","type":"Landkreis"},"federalState":{"key":"15","name":"Sachsen-Anhalt"}},{"name":"Ahornweg","postalCode":"39638","locality":"Gardelegen","municipality":{"key":"15081135","name":"Gardelegen, Hansestadt","type":"Stadt"},"district":{"key":"15081","name":"Altmarkkreis Salzwedel","type":"Landkreis"},"federalState":{"key":"15","name":"Sachsen-Anhalt"}},{"name":"Ahornweg","postalCode":"39649","locality":"Gardelegen","municipality":{"key":"15081135","name":"Gardelegen, Hansestadt","type":"Stadt"},"district":{"key":"15081","name":"Altmarkkreis Salzwedel","type":"Landkreis"},"federalState":{"key":"15","name":"Sachsen-Anhalt"}},{"name":"Akazienweg","postalCode":"39638","locality":"Gardelegen","municipality":{"key":"15081135","name":"Gardelegen, Hansestadt","type":"Stadt"},"district":{"key":"15081","name":"Altmarkkreis Salzwedel","type":"Landkreis"},"federalState":{"key":"15","name":"Sachsen-Anhalt"}},{"name":"Algenstedter Str.","postalCode":"39638","locality":"Gardelegen","municipality":{"key":"15081135","name":"Gardelegen, Hansestadt","type":"Stadt"},"district":{"key":"15081","name":"Altmarkkreis Salzwedel","type":"Landkreis"},"federalState":{"key":"15","name":"Sachsen-Anhalt"}},{"name":"Alte Dorfstr.","postalCode":"39638","locality":"Gardelegen","municipality":{"key":"15081135","name":"Gardelegen, Hansestadt","type":"Stadt"},"district":{"key":"15081","name":"Altmarkkreis Salzwedel","type":"Landkreis"},"federalState":{"key":"15","name":"Sachsen-Anhalt"}},{"name":"Alte Heerstr.","postalCode":"39638","locality":"Gardelegen","municipality":{"key":"15081135","name":"Gardelegen, Hansestadt","type":"Stadt"},"district":{"key":"15081","name":"Altmarkkreis Salzwedel","type":"Landkreis"},"federalState":{"key":"15","name":"Sachsen-Anhalt"}},{"name":"Alte Mühlenstr.","postalCode":"39638","locality":"Gardelegen","municipality":{"key":"15081135","name":"Gardelegen, Hansestadt","type":"Stadt"},"district":{"key":"15081","name":"Altmarkkreis Salzwedel","type":"Landkreis"},"federalState":{"key":"15","name":"Sachsen-Anhalt"}},{"name":"Alte Mühlenstr.","postalCode":"39649","locality":"Gardelegen","municipality":{"key":"15081135","name":"Gardelegen, Hansestadt","type":"Stadt"},"district":{"key":"15081","name":"Altmarkkreis Salzwedel","type":"Landkreis"},"federalState":{"key":"15","name":"Sachsen-Anhalt"}},{"name":"Alte Poststr.","postalCode":"39638","locality":"Gardelegen","municipality":{"key":"15081135","name":"Gardelegen, Hansestadt","type":"Stadt"},"district":{"key":"15081","name":"Altmarkkreis Salzwedel","type":"Landkreis"},"federalState":{"key":"15","name":"Sachsen-Anhalt"}},{"name":"Alter Hof","postalCode":"39649","locality":"Gardelegen","municipality":{"key":"15081135","name":"Gardelegen, Hansestadt","type":"Stadt"},"district":{"key":"15081","name":"Altmarkkreis Salzwedel","type":"Landkreis"},"federalState":{"key":"15","name":"Sachsen-Anhalt"}},{"name":"Alter Prinzendamm","postalCode":"39638","locality":"Gardelegen","municipality":{"key":"15081135","name":"Gardelegen, Hansestadt","type":"Stadt"},"district":{"key":"15081","name":"Altmarkkreis Salzwedel","type":"Landkreis"},"federalState":{"key":"15","name":"Sachsen-Anhalt"}},{"name":"Altes Dorf","postalCode":"39638","locality":"Gardelegen","municipality":{"key":"15081135","name":"Gardelegen, Hansestadt","type":"Stadt"},"district":{"key":"15081","name":"Altmarkkreis Salzwedel","type":"Landkreis"},"federalState":{"key":"15","name":"Sachsen-Anhalt"}},{"name":"Alte Ziegelei","postalCode":"39638","locality":"Gardelegen","municipality":{"key":"15081135","name":"Gardelegen, Hansestadt","type":"Stadt"},"district":{"key":"15081","name":"Altmarkkreis Salzwedel","type":"Landkreis"},"federalState":{"key":"15","name":"Sachsen-Anhalt"}},{"name":"Am alten Bahnhof","postalCode":"39638","locality":"Gardelegen","municipality":{"key":"15081135","name":"Gardelegen, Hansestadt","type":"Stadt"},"district":{"key":"15081","name":"Altmarkkreis Salzwedel","type":"Landkreis"},"federalState":{"key":"15","name":"Sachsen-Anhalt"}},{"name":"Am Bad","postalCode":"39638","locality":"Gardelegen","municipality":{"key":"15081135","name":"Gardelegen, Hansestadt","type":"Stadt"},"district":{"key":"15081","name":"Altmarkkreis Salzwedel","type":"Landkreis"},"federalState":{"key":"15","name":"Sachsen-Anhalt"}},{"name":"Am Bahnhof","postalCode":"39638","locality":"Gardelegen","municipality":{"key":"15081135","name":"Gardelegen, Hansestadt","type":"Stadt"},"district":{"key":"15081","name":"Altmarkkreis Salzwedel","type":"Landkreis"},"federalState":{"key":"15","name":"Sachsen-Anhalt"}},{"name":"Am Bürgerbusch","postalCode":"39638","locality":"Gardelegen","municipality":{"key":"15081135","name":"Gardelegen, Hansestadt","type":"Stadt"},"district":{"key":"15081","name":"Altmarkkreis Salzwedel","type":"Landkreis"},"federalState":{"key":"15","name":"Sachsen-Anhalt"}},{"name":"Am Burgwall","postalCode":"39638","locality":"Gardelegen","municipality":{"key":"15081135","name":"Gardelegen, Hansestadt","type":"Stadt"},"district":{"key":"15081","name":"Altmarkkreis Salzwedel","type":"Landkreis"},"federalState":{"key":"15","name":"Sachsen-Anhalt"}},{"name":"Am Dammkrug","postalCode":"39649","locality":"Gardelegen","municipality":{"key":"15081135","name":"Gardelegen, Hansestadt","type":"Stadt"},"district":{"key":"15081","name":"Altmarkkreis Salzwedel","type":"Landkreis"},"federalState":{"key":"15","name":"Sachsen-Anhalt"}},{"name":"Am Dorfplatz","postalCode":"39649","locality":"Gardelegen","municipality":{"key":"15081135","name":"Gardelegen, Hansestadt","type":"Stadt"},"district":{"key":"15081","name":"Altmarkkreis Salzwedel","type":"Landkreis"},"federalState":{"key":"15","name":"Sachsen-Anhalt"}},{"name":"Am Dorn","postalCode":"39638","locality":"Gardelegen","municipality":{"key":"15081135","name":"Gardelegen, Hansestadt","type":"Stadt"},"district":{"key":"15081","name":"Altmarkkreis Salzwedel","type":"Landkreis"},"federalState":{"key":"15","name":"Sachsen-Anhalt"}},{"name":"Am Eckerberg","postalCode":"39638","locality":"Gardelegen","municipality":{"key":"15081135","name":"Gardelegen, Hansestadt","type":"Stadt"},"district":{"key":"15081","name":"Altmarkkreis Salzwedel","type":"Landkreis"},"federalState":{"key":"15","name":"Sachsen-Anhalt"}},{"name":"Am Feldrand","postalCode":"39649","locality":"Gardelegen","municipality":{"key":"15081135","name":"Gardelegen, Hansestadt","type":"Stadt"},"district":{"key":"15081","name":"Altmarkkreis Salzwedel","type":"Landkreis"},"federalState":{"key":"15","name":"Sachsen-Anhalt"}},{"name":"Am Fliegerhorst","postalCode":"39638","locality":"Gardelegen","municipality":{"key":"15081135","name":"Gardelegen, Hansestadt","type":"Stadt"},"district":{"key":"15081","name":"Altmarkkreis Salzwedel","type":"Landkreis"},"federalState":{"key":"15","name":"Sachsen-Anhalt"}},{"name":"Am Freibad","postalCode":"39649","locality":"Gardelegen","municipality":{"key":"15081135","name":"Gardelegen, Hansestadt","type":"Stadt"},"district":{"key":"15081","name":"Altmarkkreis Salzwedel","type":"Landkreis"},"federalState":{"key":"15","name":"Sachsen-Anhalt"}},{"name":"Am Gartenweg","postalCode":"39638","locality":"Gardelegen","municipality":{"key":"15081135","name":"Gardelegen, Hansestadt","type":"Stadt"},"district":{"key":"15081","name":"Altmarkkreis Salzwedel","type":"Landkreis"},"federalState":{"key":"15","name":"Sachsen-Anhalt"}},{"name":"Am Gericht","postalCode":"39638","locality":"Gardelegen","municipality":{"key":"15081135","name":"Gardelegen, Hansestadt","type":"Stadt"},"district":{"key":"15081","name":"Altmarkkreis Salzwedel","type":"Landkreis"},"federalState":{"key":"15","name":"Sachsen-Anhalt"}},{"name":"Am Gutshof","postalCode":"39638","locality":"Gardelegen","municipality":{"key":"15081135","name":"Gardelegen, Hansestadt","type":"Stadt"},"district":{"key":"15081","name":"Altmarkkreis Salzwedel","type":"Landkreis"},"federalState":{"key":"15","name":"Sachsen-Anhalt"}},{"name":"Am Hirtenhaus","postalCode":"39638","locality":"Gardelegen","municipality":{"key":"15081135","name":"Gardelegen, Hansestadt","type":"Stadt"},"district":{"key":"15081","name":"Altmarkkreis Salzwedel","type":"Landkreis"},"federalState":{"key":"15","name":"Sachsen-Anhalt"}},{"name":"Am Kämmereiforst","postalCode":"39638","locality":"Gardelegen","municipality":{"key":"15081135","name":"Gardelegen, Hansestadt","type":"Stadt"},"district":{"key":"15081","name":"Altmarkkreis Salzwedel","type":"Landkreis"},"federalState":{"key":"15","name":"Sachsen-Anhalt"}},{"name":"Am Kiefernwald","postalCode":"39638","locality":"Gardelegen","municipality":{"key":"15081135","name":"Gardelegen, Hansestadt","type":"Stadt"},"district":{"key":"15081","name":"Altmarkkreis Salzwedel","type":"Landkreis"},"federalState":{"key":"15","name":"Sachsen-Anhalt"}},{"name":"Am Köthenberg","postalCode":"39638","locality":"Gardelegen","municipality":{"key":"15081135","name":"Gardelegen, Hansestadt","type":"Stadt"},"district":{"key":"15081","name":"Altmarkkreis Salzwedel","type":"Landkreis"},"federalState":{"key":"15","name":"Sachsen-Anhalt"}},{"name":"Am Kuhschlagweg","postalCode":"39638","locality":"Gardelegen","municipality":{"key":"15081135","name":"Gardelegen, Hansestadt","type":"Stadt"},"district":{"key":"15081","name":"Altmarkkreis Salzwedel","type":"Landkreis"},"federalState":{"key":"15","name":"Sachsen-Anhalt"}},{"name":"Am Lausebach","postalCode":"39638","locality":"Gardelegen","municipality":{"key":"15081135","name":"Gardelegen, Hansestadt","type":"Stadt"},"district":{"key":"15081","name":"Altmarkkreis Salzwedel","type":"Landkreis"},"federalState":{"key":"15","name":"Sachsen-Anhalt"}},{"name":"Am Lindenberg","postalCode":"39638","locality":"Gardelegen","municipality":{"key":"15081135","name":"Gardelegen, Hansestadt","type":"Stadt"},"district":{"key":"15081","name":"Altmarkkreis Salzwedel","type":"Landkreis"},"federalState":{"key":"15","name":"Sachsen-Anhalt"}},{"name":"Am Moor","postalCode":"39638","locality":"Gardelegen","municipality":{"key":"15081135","name":"Gardelegen, Hansestadt","type":"Stadt"},"district":{"key":"15081","name":"Altmarkkreis Salzwedel","type":"Landkreis"},"federalState":{"key":"15","name":"Sachsen-Anhalt"}},{"name":"Am Mühlenberg","postalCode":"39638","locality":"Gardelegen","municipality":{"key":"15081135","name":"Gardelegen, Hansestadt","type":"Stadt"},"district":{"key":"15081","name":"Altmarkkreis Salzwedel","type":"Landkreis"},"federalState":{"key":"15","name":"Sachsen-Anhalt"}},{"name":"Am Nesenitzbach","postalCode":"39638","locality":"Gardelegen","municipality":{"key":"15081135","name":"Gardelegen, Hansestadt","type":"Stadt"},"district":{"key":"15081","name":"Altmarkkreis Salzwedel","type":"Landkreis"},"federalState":{"key":"15","name":"Sachsen-Anhalt"}},{"name":"Am Park","postalCode":"39638","locality":"Gardelegen","municipality":{"key":"15081135","name":"Gardelegen, Hansestadt","type":"Stadt"},"district":{"key":"15081","name":"Altmarkkreis Salzwedel","type":"Landkreis"},"federalState":{"key":"15","name":"Sachsen-Anhalt"}},{"name":"Am Prützenberg","postalCode":"39638","locality":"Gardelegen","municipality":{"key":"15081135","name":"Gardelegen, Hansestadt","type":"Stadt"},"district":{"key":"15081","name":"Altmarkkreis Salzwedel","type":"Landkreis"},"federalState":{"key":"15","name":"Sachsen-Anhalt"}},{"name":"Am Reuthen","postalCode":"39638","locality":"Gardelegen","municipality":{"key":"15081135","name":"Gardelegen, Hansestadt","type":"Stadt"},"district":{"key":"15081","name":"Altmarkkreis Salzwedel","type":"Landkreis"},"federalState":{"key":"15","name":"Sachsen-Anhalt"}},{"name":"Am Rottweg","postalCode":"39638","locality":"Gardelegen","municipality":{"key":"15081135","name":"Gardelegen, Hansestadt","type":"Stadt"},"district":{"key":"15081","name":"Altmarkkreis Salzwedel","type":"Landkreis"},"federalState":{"key":"15","name":"Sachsen-Anhalt"}},{"name":"Am Sankt Georg","postalCode":"39638","locality":"Gardelegen","municipality":{"key":"15081135","name":"Gardelegen, Hansestadt","type":"Stadt"},"district":{"key":"15081","name":"Altmarkkreis Salzwedel","type":"Landkreis"},"federalState":{"key":"15","name":"Sachsen-Anhalt"}},{"name":"Am Schlosspark","postalCode":"39638","locality":"Gardelegen","municipality":{"key":"15081135","name":"Gardelegen, Hansestadt","type":"Stadt"},"district":{"key":"15081","name":"Altmarkkreis Salzwedel","type":"Landkreis"},"federalState":{"key":"15","name":"Sachsen-Anhalt"}},{"name":"Am Schneiderberg","postalCode":"39638","locality":"Gardelegen","municipality":{"key":"15081135","name":"Gardelegen, Hansestadt","type":"Stadt"},"district":{"key":"15081","name":"Altmarkkreis Salzwedel","type":"Landkreis"},"federalState":{"key":"15","name":"Sachsen-Anhalt"}},{"name":"Amselweg","postalCode":"39638","locality":"Gardelegen","municipality":{"key":"15081135","name":"Gardelegen, Hansestadt","type":"Stadt"},"district":{"key":"15081","name":"Altmarkkreis Salzwedel","type":"Landkreis"},"federalState":{"key":"15","name":"Sachsen-Anhalt"}},{"name":"Am Sportplatz","postalCode":"39649","locality":"Gardelegen","municipality":{"key":"15081135","name":"Gardelegen, Hansestadt","type":"Stadt"},"district":{"key":"15081","name":"Altmarkkreis Salzwedel","type":"Landkreis"},"federalState":{"key":"15","name":"Sachsen-Anhalt"}},{"name":"Am Tannenwald","postalCode":"39638","locality":"Gardelegen","municipality":{"key":"15081135","name":"Gardelegen, Hansestadt","type":"Stadt"},"district":{"key":"15081","name":"Altmarkkreis Salzwedel","type":"Landkreis"},"federalState":{"key":"15","name":"Sachsen-Anhalt"}},{"name":"B0","postalCode":"39638","locality":"Gardelegen","municipality":{"key":"15081135","name":"Gardelegen, Hansestadt","type":"Stadt"},"district":{"key":"15081","name":"Altmarkkreis Salzwedel","type":"Landkreis"},"federalState":{"key":"15","name":"Sachsen-Anhalt"}},{"name":"Bahnhofstr.","postalCode":"39638","locality":"Gardelegen","municipality":{"key":"15081135","name":"Gardelegen, Hansestadt","type":"Stadt"},"district":{"key":"15081","name":"Altmarkkreis Salzwedel","type":"Landkreis"},"federalState":{"key":"15","name":"Sachsen-Anhalt"}},{"name":"Bahnhofstr.","postalCode":"39649","locality":"Gardelegen","municipality":{"key":"15081135","name":"Gardelegen, Hansestadt","type":"Stadt"},"district":{"key":"15081","name":"Altmarkkreis Salzwedel","type":"Landkreis"},"federalState":{"key":"15","name":"Sachsen-Anhalt"}},{"name":"Bauernstr.","postalCode":"39649","locality":"Gardelegen","municipality":{"key":"15081135","name":"Gardelegen, Hansestadt","type":"Stadt"},"district":{"key":"15081","name":"Altmarkkreis Salzwedel","type":"Landkreis"},"federalState":{"key":"15","name":"Sachsen-Anhalt"}},{"name":"Bauernwinkel","postalCode":"39638","locality":"Gardelegen","municipality":{"key":"15081135","name":"Gardelegen, Hansestadt","type":"Stadt"},"district":{"key":"15081","name":"Altmarkkreis Salzwedel","type":"Landkreis"},"federalState":{"key":"15","name":"Sachsen-Anhalt"}},{"name":"Beekendorfer Str.","postalCode":"39638","locality":"Gardelegen","municipality":{"key":"15081135","name":"Gardelegen, Hansestadt","type":"Stadt"},"district":{"key":"15081","name":"Altmarkkreis Salzwedel","type":"Landkreis"},"federalState":{"key":"15","name":"Sachsen-Anhalt"}},{"name":"Beitscheidstr.","postalCode":"39649","locality":"Gardelegen","municipality":{"key":"15081135","name":"Gardelegen, Hansestadt","type":"Stadt"},"district":{"key":"15081","name":"Altmarkkreis Salzwedel","type":"Landkreis"},"federalState":{"key":"15","name":"Sachsen-Anhalt"}},{"name":"Berger Dorfstr.","postalCode":"39638","locality":"Gardelegen","municipality":{"key":"15081135","name":"Gardelegen, Hansestadt","type":"Stadt"},"district":{"key":"15081","name":"Altmarkkreis Salzwedel","type":"Landkreis"},"federalState":{"key":"15","name":"Sachsen-Anhalt"}},{"name":"Bertolt-Brecht-Str.","postalCode":"39638","locality":"Gardelegen","municipality":{"key":"15081135","name":"Gardelegen, Hansestadt","type":"Stadt"},"district":{"key":"15081","name":"Altmarkkreis Salzwedel","type":"Landkreis"},"federalState":{"key":"15","name":"Sachsen-Anhalt"}},{"name":"Birkenallee","postalCode":"39638","locality":"Gardelegen","municipality":{"key":"15081135","name":"Gardelegen, Hansestadt","type":"Stadt"},"district":{"key":"15081","name":"Altmarkkreis Salzwedel","type":"Landkreis"},"federalState":{"key":"15","name":"Sachsen-Anhalt"}},{"name":"Birkhorst","postalCode":"39649","locality":"Gardelegen","municipality":{"key":"15081135","name":"Gardelegen, Hansestadt","type":"Stadt"},"district":{"key":"15081","name":"Altmarkkreis Salzwedel","type":"Landkreis"},"federalState":{"key":"15","name":"Sachsen-Anhalt"}},{"name":"Bismarckstr.","postalCode":"39649","locality":"Gardelegen","municipality":{"key":"15081135","name":"Gardelegen, Hansestadt","type":"Stadt"},"district":{"key":"15081","name":"Altmarkkreis Salzwedel","type":"Landkreis"},"federalState":{"key":"15","name":"Sachsen-Anhalt"}},{"name":"Bismarker Str.","postalCode":"39638","locality":"Gardelegen","municipality":{"key":"15081135","name":"Gardelegen, Hansestadt","type":"Stadt"},"district":{"key":"15081","name":"Altmarkkreis Salzwedel","type":"Landkreis"},"federalState":{"key":"15","name":"Sachsen-Anhalt"}},{"name":"Bornemannstr.","postalCode":"39638","locality":"Gardelegen","municipality":{"key":"15081135","name":"Gardelegen, Hansestadt","type":"Stadt"},"district":{"key":"15081","name":"Altmarkkreis Salzwedel","type":"Landkreis"},"federalState":{"key":"15","name":"Sachsen-Anhalt"}},{"name":"Brandstr.","postalCode":"39649","locality":"Gardelegen","municipality":{"key":"15081135","name":"Gardelegen, Hansestadt","type":"Stadt"},"district":{"key":"15081","name":"Altmarkkreis Salzwedel","type":"Landkreis"},"federalState":{"key":"15","name":"Sachsen-Anhalt"}},{"name":"Breiteiche","postalCode":"39649","locality":"Gardelegen","municipality":{"key":"15081135","name":"Gardelegen, Hansestadt","type":"Stadt"},"district":{"key":"15081","name":"Altmarkkreis Salzwedel","type":"Landkreis"},"federalState":{"key":"15","name":"Sachsen-Anhalt"}},{"name":"Breitenfelder Dorfstr.","postalCode":"39638","locality":"Gardelegen","municipality":{"key":"15081135","name":"Gardelegen, Hansestadt","type":"Stadt"},"district":{"key":"15081","name":"Altmarkkreis Salzwedel","type":"Landkreis"},"federalState":{"key":"15","name":"Sachsen-Anhalt"}},{"name":"Breite Str.","postalCode":"39638","locality":"Gardelegen","municipality":{"key":"15081135","name":"Gardelegen, Hansestadt","type":"Stadt"},"district":{"key":"15081","name":"Altmarkkreis Salzwedel","type":"Landkreis"},"federalState":{"key":"15","name":"Sachsen-Anhalt"}},{"name":"Breite Str.","postalCode":"39649","locality":"Gardelegen","municipality":{"key":"15081135","name":"Gardelegen, Hansestadt","type":"Stadt"},"district":{"key":"15081","name":"Altmarkkreis Salzwedel","type":"Landkreis"},"federalState":{"key":"15","name":"Sachsen-Anhalt"}},{"name":"Buchenweg","postalCode":"39638","locality":"Gardelegen","municipality":{"key":"15081135","name":"Gardelegen, Hansestadt","type":"Stadt"},"district":{"key":"15081","name":"Altmarkkreis Salzwedel","type":"Landkreis"},"federalState":{"key":"15","name":"Sachsen-Anhalt"}},{"name":"Buchenweg","postalCode":"39649","locality":"Gardelegen","municipality":{"key":"15081135","name":"Gardelegen, Hansestadt","type":"Stadt"},"district":{"key":"15081","name":"Altmarkkreis Salzwedel","type":"Landkreis"},"federalState":{"key":"15","name":"Sachsen-Anhalt"}},{"name":"Buchtweg","postalCode":"39638","locality":"Gardelegen","municipality":{"key":"15081135","name":"Gardelegen, Hansestadt","type":"Stadt"},"district":{"key":"15081","name":"Altmarkkreis Salzwedel","type":"Landkreis"},"federalState":{"key":"15","name":"Sachsen-Anhalt"}},{"name":"Burgstr.","postalCode":"39638","locality":"Gardelegen","municipality":{"key":"15081135","name":"Gardelegen, Hansestadt","type":"Stadt"},"district":{"key":"15081","name":"Altmarkkreis Salzwedel","type":"Landkreis"},"federalState":{"key":"15","name":"Sachsen-Anhalt"}},{"name":"Buschhorstweg","postalCode":"39638","locality":"Gardelegen","municipality":{"key":"15081135","name":"Gardelegen, Hansestadt","type":"Stadt"},"district":{"key":"15081","name":"Altmarkkreis Salzwedel","type":"Landkreis"},"federalState":{"key":"15","name":"Sachsen-Anhalt"}},{"name":"Buschstr.","postalCode":"39649","locality":"Gardelegen","municipality":{"key":"15081135","name":"Gardelegen, Hansestadt","type":"Stadt"},"district":{"key":"15081","name":"Altmarkkreis Salzwedel","type":"Landkreis"},"federalState":{"key":"15","name":"Sachsen-Anhalt"}},{"name":"Buschstückenstr.","postalCode":"39638","locality":"Gardelegen","municipality":{"key":"15081135","name":"Gardelegen, Hansestadt","type":"Stadt"},"district":{"key":"15081","name":"Altmarkkreis Salzwedel","type":"Landkreis"},"federalState":{"key":"15","name":"Sachsen-Anhalt"}},{"name":"Chaussee","postalCode":"39638","locality":"Gardelegen","municipality":{"key":"15081135","name":"Gardelegen, Hansestadt","type":"Stadt"},"district":{"key":"15081","name":"Altmarkkreis Salzwedel","type":"Landkreis"},"federalState":{"key":"15","name":"Sachsen-Anhalt"}},{"name":"Chausseestr.","postalCode":"39638","locality":"Gardelegen","municipality":{"key":"15081135","name":"Gardelegen, Hansestadt","type":"Stadt"},"district":{"key":"15081","name":"Altmarkkreis Salzwedel","type":"Landkreis"},"federalState":{"key":"15","name":"Sachsen-Anhalt"}},{"name":"Chausseestr.","postalCode":"39649","locality":"Gardelegen","municipality":{"key":"15081135","name":"Gardelegen, Hansestadt","type":"Stadt"},"district":{"key":"15081","name":"Altmarkkreis Salzwedel","type":"Landkreis"},"federalState":{"key":"15","name":"Sachsen-Anhalt"}},{"name":"Colbitzer Str.","postalCode":"39638","locality":"Gardelegen","municipality":{"key":"15081135","name":"Gardelegen, Hansestadt","type":"Stadt"},"district":{"key":"15081","name":"Altmarkkreis Salzwedel","type":"Landkreis"},"federalState":{"key":"15","name":"Sachsen-Anhalt"}},{"name":"David-Bauke-Str.","postalCode":"39638","locality":"Gardelegen","municipality":{"key":"15081135","name":"Gardelegen, Hansestadt","type":"Stadt"},"district":{"key":"15081","name":"Altmarkkreis Salzwedel","type":"Landkreis"},"federalState":{"key":"15","name":"Sachsen-Anhalt"}},{"name":"Doktor-Albert-Schweitzer-Str.","postalCode":"39638","locality":"Gardelegen","municipality":{"key":"15081135","name":"Gardelegen, Hansestadt","type":"Stadt"},"district":{"key":"15081","name":"Altmarkkreis Salzwedel","type":"Landkreis"},"federalState":{"key":"15","name":"Sachsen-Anhalt"}},{"name":"Dompfaffweg","postalCode":"39638","locality":"Gardelegen","municipality":{"key":"15081135","name":"Gardelegen, Hansestadt","type":"Stadt"},"district":{"key":"15081","name":"Altmarkkreis Salzwedel","type":"Landkreis"},"federalState":{"key":"15","name":"Sachsen-Anhalt"}},{"name":"Dorfmitte","postalCode":"39649","locality":"Gardelegen","municipality":{"key":"15081135","name":"Gardelegen, Hansestadt","type":"Stadt"},"district":{"key":"15081","name":"Altmarkkreis Salzwedel","type":"Landkreis"},"federalState":{"key":"15","name":"Sachsen-Anhalt"}},{"name":"Dorfplatz","postalCode":"39638","locality":"Gardelegen","municipality":{"key":"15081135","name":"Gardelegen, Hansestadt","type":"Stadt"},"district":{"key":"15081","name":"Altmarkkreis Salzwedel","type":"Landkreis"},"federalState":{"key":"15","name":"Sachsen-Anhalt"}},{"name":"Dorfplatz","postalCode":"39649","locality":"Gardelegen","municipality":{"key":"15081135","name":"Gardelegen, Hansestadt","type":"Stadt"},"district":{"key":"15081","name":"Altmarkkreis Salzwedel","type":"Landkreis"},"federalState":{"key":"15","name":"Sachsen-Anhalt"}},{"name":"Dorfstr.","postalCode":"39638","locality":"Gardelegen","municipality":{"key":"15081135","name":"Gardelegen, Hansestadt","type":"Stadt"},"district":{"key":"15081","name":"Altmarkkreis Salzwedel","type":"Landkreis"},"federalState":{"key":"15","name":"Sachsen-Anhalt"}},{"name":"Dorfstr.","postalCode":"39649","locality":"Gardelegen","municipality":{"key":"15081135","name":"Gardelegen, Hansestadt","type":"Stadt"},"district":{"key":"15081","name":"Altmarkkreis Salzwedel","type":"Landkreis"},"federalState":{"key":"15","name":"Sachsen-Anhalt"}},{"name":"Drosselweg","postalCode":"39638","locality":"Gardelegen","municipality":{"key":"15081135","name":"Gardelegen, Hansestadt","type":"Stadt"},"district":{"key":"15081","name":"Altmarkkreis Salzwedel","type":"Landkreis"},"federalState":{"key":"15","name":"Sachsen-Anhalt"}},{"name":"Dr. Robert Koch Str.","postalCode":"39638","locality":"Gardelegen","municipality":{"key":"15081135","name":"Gardelegen, Hansestadt","type":"Stadt"},"district":{"key":"15081","name":"Altmarkkreis Salzwedel","type":"Landkreis"},"federalState":{"key":"15","name":"Sachsen-Anhalt"}},{"name":"ehem. Schlosspark Letzlingen","postalCode":"39638","locality":"Gardelegen","municipality":{"key":"15081135","name":"Gardelegen, Hansestadt","type":"Stadt"},"district":{"key":"15081","name":"Altmarkkreis Salzwedel","type":"Landkreis"},"federalState":{"key":"15","name":"Sachsen-Anhalt"}},{"name":"Eichenbergweg","postalCode":"39638","locality":"Gardelegen","municipality":{"key":"15081135","name":"Gardelegen, Hansestadt","type":"Stadt"},"district":{"key":"15081","name":"Altmarkkreis Salzwedel","type":"Landkreis"},"federalState":{"key":"15","name":"Sachsen-Anhalt"}},{"name":"Eichenweg","postalCode":"39638","locality":"Gardelegen","municipality":{"key":"15081135","name":"Gardelegen, Hansestadt","type":"Stadt"},"district":{"key":"15081","name":"Altmarkkreis Salzwedel","type":"Landkreis"},"federalState":{"key":"15","name":"Sachsen-Anhalt"}},{"name":"Eichenweg","postalCode":"39649","locality":"Gardelegen","municipality":{"key":"15081135","name":"Gardelegen, Hansestadt","type":"Stadt"},"district":{"key":"15081","name":"Altmarkkreis Salzwedel","type":"Landkreis"},"federalState":{"key":"15","name":"Sachsen-Anhalt"}},{"name":"Eigenthum","postalCode":"39649","locality":"Gardelegen","municipality":{"key":"15081135","name":"Gardelegen, Hansestadt","type":"Stadt"},"district":{"key":"15081","name":"Altmarkkreis Salzwedel","type":"Landkreis"},"federalState":{"key":"15","name":"Sachsen-Anhalt"}},{"name":"Elsholzweg","postalCode":"39649","locality":"Gardelegen","municipality":{"key":"15081135","name":"Gardelegen, Hansestadt","type":"Stadt"},"district":{"key":"15081","name":"Altmarkkreis Salzwedel","type":"Landkreis"},"federalState":{"key":"15","name":"Sachsen-Anhalt"}},{"name":"Engerser Chaussee","postalCode":"39638","locality":"Gardelegen","municipality":{"key":"15081135","name":"Gardelegen, Hansestadt","type":"Stadt"},"district":{"key":"15081","name":"Altmarkkreis Salzwedel","type":"Landkreis"},"federalState":{"key":"15","name":"Sachsen-Anhalt"}},{"name":"Erich-Weinert-Str.","postalCode":"39638","locality":"Gardelegen","municipality":{"key":"15081135","name":"Gardelegen, Hansestadt","type":"Stadt"},"district":{"key":"15081","name":"Altmarkkreis Salzwedel","type":"Landkreis"},"federalState":{"key":"15","name":"Sachsen-Anhalt"}},{"name":"Erlenweg","postalCode":"39638","locality":"Gardelegen","municipality":{"key":"15081135","name":"Gardelegen, Hansestadt","type":"Stadt"},"district":{"key":"15081","name":"Altmarkkreis Salzwedel","type":"Landkreis"},"federalState":{"key":"15","name":"Sachsen-Anhalt"}},{"name":"Ernst-Thälmann-Str.","postalCode":"39638","locality":"Gardelegen","municipality":{"key":"15081135","name":"Gardelegen, Hansestadt","type":"Stadt"},"district":{"key":"15081","name":"Altmarkkreis Salzwedel","type":"Landkreis"},"federalState":{"key":"15","name":"Sachsen-Anhalt"}},{"name":"Ernst-von-Bergmann-Str.","postalCode":"39638","locality":"Gardelegen","municipality":{"key":"15081135","name":"Gardelegen, Hansestadt","type":"Stadt"},"district":{"key":"15081","name":"Altmarkkreis Salzwedel","type":"Landkreis"},"federalState":{"key":"15","name":"Sachsen-Anhalt"}},{"name":"Eschhorstweg","postalCode":"39649","locality":"Gardelegen","municipality":{"key":"15081135","name":"Gardelegen, Hansestadt","type":"Stadt"},"district":{"key":"15081","name":"Altmarkkreis Salzwedel","type":"Landkreis"},"federalState":{"key":"15","name":"Sachsen-Anhalt"}},{"name":"Fasaneneck1","postalCode":"39638","locality":"Gardelegen","municipality":{"key":"15081135","name":"Gardelegen, Hansestadt","type":"Stadt"},"district":{"key":"15081","name":"Altmarkkreis Salzwedel","type":"Landkreis"},"federalState":{"key":"15","name":"Sachsen-Anhalt"}},{"name":"Fasaneneck3","postalCode":"39638","locality":"Gardelegen","municipality":{"key":"15081135","name":"Gardelegen, Hansestadt","type":"Stadt"},"district":{"key":"15081","name":"Altmarkkreis Salzwedel","type":"Landkreis"},"federalState":{"key":"15","name":"Sachsen-Anhalt"}},{"name":"Feldstr.","postalCode":"39638","locality":"Gardelegen","municipality":{"key":"15081135","name":"Gardelegen, Hansestadt","type":"Stadt"},"district":{"key":"15081","name":"Altmarkkreis Salzwedel","type":"Landkreis"},"federalState":{"key":"15","name":"Sachsen-Anhalt"}},{"name":"Feldstr.","postalCode":"39649","locality":"Gardelegen","municipality":{"key":"15081135","name":"Gardelegen, Hansestadt","type":"Stadt"},"district":{"key":"15081","name":"Altmarkkreis Salzwedel","type":"Landkreis"},"federalState":{"key":"15","name":"Sachsen-Anhalt"}},{"name":"Fichtenweg","postalCode":"39638","locality":"Gardelegen","municipality":{"key":"15081135","name":"Gardelegen, Hansestadt","type":"Stadt"},"district":{"key":"15081","name":"Altmarkkreis Salzwedel","type":"Landkreis"},"federalState":{"key":"15","name":"Sachsen-Anhalt"}},{"name":"Finkenweg","postalCode":"39638","locality":"Gardelegen","municipality":{"key":"15081135","name":"Gardelegen, Hansestadt","type":"Stadt"},"district":{"key":"15081","name":"Altmarkkreis Salzwedel","type":"Landkreis"},"federalState":{"key":"15","name":"Sachsen-Anhalt"}},{"name":"Freibad","postalCode":"39649","locality":"Gardelegen","municipality":{"key":"15081135","name":"Gardelegen, Hansestadt","type":"Stadt"},"district":{"key":"15081","name":"Altmarkkreis Salzwedel","type":"Landkreis"},"federalState":{"key":"15","name":"Sachsen-Anhalt"}},{"name":"Freiligrathstr.","postalCode":"39638","locality":"Gardelegen","municipality":{"key":"15081135","name":"Gardelegen, Hansestadt","type":"Stadt"},"district":{"key":"15081","name":"Altmarkkreis Salzwedel","type":"Landkreis"},"federalState":{"key":"15","name":"Sachsen-Anhalt"}},{"name":"Friedensstr.","postalCode":"39638","locality":"Gardelegen","municipality":{"key":"15081135","name":"Gardelegen, Hansestadt","type":"Stadt"},"district":{"key":"15081","name":"Altmarkkreis Salzwedel","type":"Landkreis"},"federalState":{"key":"15","name":"Sachsen-Anhalt"}},{"name":"Friedensweg","postalCode":"39638","locality":"Gardelegen","municipality":{"key":"15081135","name":"Gardelegen, Hansestadt","type":"Stadt"},"district":{"key":"15081","name":"Altmarkkreis Salzwedel","type":"Landkreis"},"federalState":{"key":"15","name":"Sachsen-Anhalt"}},{"name":"Friedrich-Engels-Str.","postalCode":"39638","locality":"Gardelegen","municipality":{"key":"15081135","name":"Gardelegen, Hansestadt","type":"Stadt"},"district":{"key":"15081","name":"Altmarkkreis Salzwedel","type":"Landkreis"},"federalState":{"key":"15","name":"Sachsen-Anhalt"}},{"name":"Friedrich-Engels-Str.","postalCode":"39649","locality":"Gardelegen","municipality":{"key":"15081135","name":"Gardelegen, Hansestadt","type":"Stadt"},"district":{"key":"15081","name":"Altmarkkreis Salzwedel","type":"Landkreis"},"federalState":{"key":"15","name":"Sachsen-Anhalt"}},{"name":"Friedrichstr.","postalCode":"39649","locality":"Gardelegen","municipality":{"key":"15081135","name":"Gardelegen, Hansestadt","type":"Stadt"},"district":{"key":"15081","name":"Altmarkkreis Salzwedel","type":"Landkreis"},"federalState":{"key":"15","name":"Sachsen-Anhalt"}},{"name":"Fritz-Schulz-Str.","postalCode":"39649","locality":"Gardelegen","municipality":{"key":"15081135","name":"Gardelegen, Hansestadt","type":"Stadt"},"district":{"key":"15081","name":"Altmarkkreis Salzwedel","type":"Landkreis"},"federalState":{"key":"15","name":"Sachsen-Anhalt"}},{"name":"Fritz-Thomas-Str.","postalCode":"39649","locality":"Gardelegen","municipality":{"key":"15081135","name":"Gardelegen, Hansestadt","type":"Stadt"},"district":{"key":"15081","name":"Altmarkkreis Salzwedel","type":"Landkreis"},"federalState":{"key":"15","name":"Sachsen-Anhalt"}},{"name":"Gardelegener Stadtweg","postalCode":"39649","locality":"Gardelegen","municipality":{"key":"15081135","name":"Gardelegen, Hansestadt","type":"Stadt"},"district":{"key":"15081","name":"Altmarkkreis Salzwedel","type":"Landkreis"},"federalState":{"key":"15","name":"Sachsen-Anhalt"}},{"name":"Gardeleger Str.","postalCode":"39638","locality":"Gardelegen","municipality":{"key":"15081135","name":"Gardelegen, Hansestadt","type":"Stadt"},"district":{"key":"15081","name":"Altmarkkreis Salzwedel","type":"Landkreis"},"federalState":{"key":"15","name":"Sachsen-Anhalt"}},{"name":"Gardeleger Str.","postalCode":"39649","locality":"Gardelegen","municipality":{"key":"15081135","name":"Gardelegen, Hansestadt","type":"Stadt"},"district":{"key":"15081","name":"Altmarkkreis Salzwedel","type":"Landkreis"},"federalState":{"key":"15","name":"Sachsen-Anhalt"}},{"name":"Gartenstr.","postalCode":"39638","locality":"Gardelegen","municipality":{"key":"15081135","name":"Gardelegen, Hansestadt","type":"Stadt"},"district":{"key":"15081","name":"Altmarkkreis Salzwedel","type":"Landkreis"},"federalState":{"key":"15","name":"Sachsen-Anhalt"}},{"name":"Gartenstr.","postalCode":"39649","locality":"Gardelegen","municipality":{"key":"15081135","name":"Gardelegen, Hansestadt","type":"Stadt"},"district":{"key":"15081","name":"Altmarkkreis Salzwedel","type":"Landkreis"},"federalState":{"key":"15","name":"Sachsen-Anhalt"}},{"name":"Gartenweg","postalCode":"39638","locality":"Gardelegen","municipality":{"key":"15081135","name":"Gardelegen, Hansestadt","type":"Stadt"},"district":{"key":"15081","name":"Altmarkkreis Salzwedel","type":"Landkreis"},"federalState":{"key":"15","name":"Sachsen-Anhalt"}},{"name":"Geschwister-Scholl-Str.","postalCode":"39638","locality":"Gardelegen","municipality":{"key":"15081135","name":"Gardelegen, Hansestadt","type":"Stadt"},"district":{"key":"15081","name":"Altmarkkreis Salzwedel","type":"Landkreis"},"federalState":{"key":"15","name":"Sachsen-Anhalt"}},{"name":"Gifhorner Str.","postalCode":"39638","locality":"Gardelegen","municipality":{"key":"15081135","name":"Gardelegen, Hansestadt","type":"Stadt"},"district":{"key":"15081","name":"Altmarkkreis Salzwedel","type":"Landkreis"},"federalState":{"key":"15","name":"Sachsen-Anhalt"}},{"name":"Ginsterweg","postalCode":"39638","locality":"Gardelegen","municipality":{"key":"15081135","name":"Gardelegen, Hansestadt","type":"Stadt"},"district":{"key":"15081","name":"Altmarkkreis Salzwedel","type":"Landkreis"},"federalState":{"key":"15","name":"Sachsen-Anhalt"}},{"name":"Goethestr.","postalCode":"39638","locality":"Gardelegen","municipality":{"key":"15081135","name":"Gardelegen, Hansestadt","type":"Stadt"},"district":{"key":"15081","name":"Altmarkkreis Salzwedel","type":"Landkreis"},"federalState":{"key":"15","name":"Sachsen-Anhalt"}},{"name":"Goethestr.","postalCode":"39649","locality":"Gardelegen","municipality":{"key":"15081135","name":"Gardelegen, Hansestadt","type":"Stadt"},"district":{"key":"15081","name":"Altmarkkreis Salzwedel","type":"Landkreis"},"federalState":{"key":"15","name":"Sachsen-Anhalt"}},{"name":"Goldener Ring","postalCode":"39638","locality":"Gardelegen","municipality":{"key":"15081135","name":"Gardelegen, Hansestadt","type":"Stadt"},"district":{"key":"15081","name":"Altmarkkreis Salzwedel","type":"Landkreis"},"federalState":{"key":"15","name":"Sachsen-Anhalt"}},{"name":"Grüne Gasse","postalCode":"39638","locality":"Gardelegen","municipality":{"key":"15081135","name":"Gardelegen, Hansestadt","type":"Stadt"},"district":{"key":"15081","name":"Altmarkkreis Salzwedel","type":"Landkreis"},"federalState":{"key":"15","name":"Sachsen-Anhalt"}},{"name":"Grüner Weg","postalCode":"39638","locality":"Gardelegen","municipality":{"key":"15081135","name":"Gardelegen, Hansestadt","type":"Stadt"},"district":{"key":"15081","name":"Altmarkkreis Salzwedel","type":"Landkreis"},"federalState":{"key":"15","name":"Sachsen-Anhalt"}},{"name":"Hagen","postalCode":"39638","locality":"Gardelegen","municipality":{"key":"15081135","name":"Gardelegen, Hansestadt","type":"Stadt"},"district":{"key":"15081","name":"Altmarkkreis Salzwedel","type":"Landkreis"},"federalState":{"key":"15","name":"Sachsen-Anhalt"}},{"name":"Hauptstr.","postalCode":"39638","locality":"Gardelegen","municipality":{"key":"15081135","name":"Gardelegen, Hansestadt","type":"Stadt"},"district":{"key":"15081","name":"Altmarkkreis Salzwedel","type":"Landkreis"},"federalState":{"key":"15","name":"Sachsen-Anhalt"}},{"name":"Heidestr.","postalCode":"39638","locality":"Gardelegen","municipality":{"key":"15081135","name":"Gardelegen, Hansestadt","type":"Stadt"},"district":{"key":"15081","name":"Altmarkkreis Salzwedel","type":"Landkreis"},"federalState":{"key":"15","name":"Sachsen-Anhalt"}},{"name":"Heideweg","postalCode":"39638","locality":"Gardelegen","municipality":{"key":"15081135","name":"Gardelegen, Hansestadt","type":"Stadt"},"district":{"key":"15081","name":"Altmarkkreis Salzwedel","type":"Landkreis"},"federalState":{"key":"15","name":"Sachsen-Anhalt"}},{"name":"Heinrich-Heine-Str.","postalCode":"39649","locality":"Gardelegen","municipality":{"key":"15081135","name":"Gardelegen, Hansestadt","type":"Stadt"},"district":{"key":"15081","name":"Altmarkkreis Salzwedel","type":"Landkreis"},"federalState":{"key":"15","name":"Sachsen-Anhalt"}},{"name":"Heinrich-Heine-Weg","postalCode":"39638","locality":"Gardelegen","municipality":{"key":"15081135","name":"Gardelegen, Hansestadt","type":"Stadt"},"district":{"key":"15081","name":"Altmarkkreis Salzwedel","type":"Landkreis"},"federalState":{"key":"15","name":"Sachsen-Anhalt"}},{"name":"Heldenstr.","postalCode":"39638","locality":"Gardelegen","municipality":{"key":"15081135","name":"Gardelegen, Hansestadt","type":"Stadt"},"district":{"key":"15081","name":"Altmarkkreis Salzwedel","type":"Landkreis"},"federalState":{"key":"15","name":"Sachsen-Anhalt"}},{"name":"Hemstedt","postalCode":"39638","locality":"Gardelegen","municipality":{"key":"15081135","name":"Gardelegen, Hansestadt","type":"Stadt"},"district":{"key":"15081","name":"Altmarkkreis Salzwedel","type":"Landkreis"},"federalState":{"key":"15","name":"Sachsen-Anhalt"}},{"name":"Himmelreichstr.","postalCode":"39649","locality":"Gardelegen","municipality":{"key":"15081135","name":"Gardelegen, Hansestadt","type":"Stadt"},"district":{"key":"15081","name":"Altmarkkreis Salzwedel","type":"Landkreis"},"federalState":{"key":"15","name":"Sachsen-Anhalt"}},{"name":"Hinterdorfstr.","postalCode":"39638","locality":"Gardelegen","municipality":{"key":"15081135","name":"Gardelegen, Hansestadt","type":"Stadt"},"district":{"key":"15081","name":"Altmarkkreis Salzwedel","type":"Landkreis"},"federalState":{"key":"15","name":"Sachsen-Anhalt"}},{"name":"Hinterstr.","postalCode":"39638","locality":"Gardelegen","municipality":{"key":"15081135","name":"Gardelegen, Hansestadt","type":"Stadt"},"district":{"key":"15081","name":"Altmarkkreis Salzwedel","type":"Landkreis"},"federalState":{"key":"15","name":"Sachsen-Anhalt"}},{"name":"Hirtenweg","postalCode":"39638","locality":"Gardelegen","municipality":{"key":"15081135","name":"Gardelegen, Hansestadt","type":"Stadt"},"district":{"key":"15081","name":"Altmarkkreis Salzwedel","type":"Landkreis"},"federalState":{"key":"15","name":"Sachsen-Anhalt"}},{"name":"Holzhausener Str.","postalCode":"39638","locality":"Gardelegen","municipality":{"key":"15081135","name":"Gardelegen, Hansestadt","type":"Stadt"},"district":{"key":"15081","name":"Altmarkkreis Salzwedel","type":"Landkreis"},"federalState":{"key":"15","name":"Sachsen-Anhalt"}},{"name":"Holzmarkt","postalCode":"39638","locality":"Gardelegen","municipality":{"key":"15081135","name":"Gardelegen, Hansestadt","type":"Stadt"},"district":{"key":"15081","name":"Altmarkkreis Salzwedel","type":"Landkreis"},"federalState":{"key":"15","name":"Sachsen-Anhalt"}},{"name":"Holzweg","postalCode":"39638","locality":"Gardelegen","municipality":{"key":"15081135","name":"Gardelegen, Hansestadt","type":"Stadt"},"district":{"key":"15081","name":"Altmarkkreis Salzwedel","type":"Landkreis"},"federalState":{"key":"15","name":"Sachsen-Anhalt"}},{"name":"Hopfenhorster Str.","postalCode":"39649","locality":"Gardelegen","municipality":{"key":"15081135","name":"Gardelegen, Hansestadt","type":"Stadt"},"district":{"key":"15081","name":"Altmarkkreis Salzwedel","type":"Landkreis"},"federalState":{"key":"15","name":"Sachsen-Anhalt"}},{"name":"Hopfenstr.","postalCode":"39638","locality":"Gardelegen","municipality":{"key":"15081135","name":"Gardelegen, Hansestadt","type":"Stadt"},"district":{"key":"15081","name":"Altmarkkreis Salzwedel","type":"Landkreis"},"federalState":{"key":"15","name":"Sachsen-Anhalt"}},{"name":"Hopfentunnel","postalCode":"39638","locality":"Gardelegen","municipality":{"key":"15081135","name":"Gardelegen, Hansestadt","type":"Stadt"},"district":{"key":"15081","name":"Altmarkkreis Salzwedel","type":"Landkreis"},"federalState":{"key":"15","name":"Sachsen-Anhalt"}},{"name":"Hottendorf","postalCode":"39638","locality":"Gardelegen","municipality":{"key":"15081135","name":"Gardelegen, Hansestadt","type":"Stadt"},"district":{"key":"15081","name":"Altmarkkreis Salzwedel","type":"Landkreis"},"federalState":{"key":"15","name":"Sachsen-Anhalt"}},{"name":"Hottendorfer Str.","postalCode":"39638","locality":"Gardelegen","municipality":{"key":"15081135","name":"Gardelegen, Hansestadt","type":"Stadt"},"district":{"key":"15081","name":"Altmarkkreis Salzwedel","type":"Landkreis"},"federalState":{"key":"15","name":"Sachsen-Anhalt"}},{"name":"Hottendorfer Weg","postalCode":"39638","locality":"Gardelegen","municipality":{"key":"15081135","name":"Gardelegen, Hansestadt","type":"Stadt"},"district":{"key":"15081","name":"Altmarkkreis Salzwedel","type":"Landkreis"},"federalState":{"key":"15","name":"Sachsen-Anhalt"}},{"name":"Im Dorfe","postalCode":"39638","locality":"Gardelegen","municipality":{"key":"15081135","name":"Gardelegen, Hansestadt","type":"Stadt"},"district":{"key":"15081","name":"Altmarkkreis Salzwedel","type":"Landkreis"},"federalState":{"key":"15","name":"Sachsen-Anhalt"}},{"name":"Im Eichengrund","postalCode":"39638","locality":"Gardelegen","municipality":{"key":"15081135","name":"Gardelegen, Hansestadt","type":"Stadt"},"district":{"key":"15081","name":"Altmarkkreis Salzwedel","type":"Landkreis"},"federalState":{"key":"15","name":"Sachsen-Anhalt"}},{"name":"Im Lanken","postalCode":"39638","locality":"Gardelegen","municipality":{"key":"15081135","name":"Gardelegen, Hansestadt","type":"Stadt"},"district":{"key":"15081","name":"Altmarkkreis Salzwedel","type":"Landkreis"},"federalState":{"key":"15","name":"Sachsen-Anhalt"}},{"name":"Immanuel-Kant-Str.","postalCode":"39638","locality":"Gardelegen","municipality":{"key":"15081135","name":"Gardelegen, Hansestadt","type":"Stadt"},"district":{"key":"15081","name":"Altmarkkreis Salzwedel","type":"Landkreis"},"federalState":{"key":"15","name":"Sachsen-Anhalt"}},{"name":"Im Rosenwinkel","postalCode":"39638","locality":"Gardelegen","municipality":{"key":"15081135","name":"Gardelegen, Hansestadt","type":"Stadt"},"district":{"key":"15081","name":"Altmarkkreis Salzwedel","type":"Landkreis"},"federalState":{"key":"15","name":"Sachsen-Anhalt"}},{"name":"Im Winkel","postalCode":"39638","locality":"Gardelegen","municipality":{"key":"15081135","name":"Gardelegen, Hansestadt","type":"Stadt"},"district":{"key":"15081","name":"Altmarkkreis Salzwedel","type":"Landkreis"},"federalState":{"key":"15","name":"Sachsen-Anhalt"}},{"name":"In den Gärten","postalCode":"39638","locality":"Gardelegen","municipality":{"key":"15081135","name":"Gardelegen, Hansestadt","type":"Stadt"},"district":{"key":"15081","name":"Altmarkkreis Salzwedel","type":"Landkreis"},"federalState":{"key":"15","name":"Sachsen-Anhalt"}},{"name":"Ipser Weg","postalCode":"39638","locality":"Gardelegen","municipality":{"key":"15081135","name":"Gardelegen, Hansestadt","type":"Stadt"},"district":{"key":"15081","name":"Altmarkkreis Salzwedel","type":"Landkreis"},"federalState":{"key":"15","name":"Sachsen-Anhalt"}},{"name":"Isenschnibber Chaussee","postalCode":"39638","locality":"Gardelegen","municipality":{"key":"15081135","name":"Gardelegen, Hansestadt","type":"Stadt"},"district":{"key":"15081","name":"Altmarkkreis Salzwedel","type":"Landkreis"},"federalState":{"key":"15","name":"Sachsen-Anhalt"}},{"name":"Isenschnibber Str.","postalCode":"39638","locality":"Gardelegen","municipality":{"key":"15081135","name":"Gardelegen, Hansestadt","type":"Stadt"},"district":{"key":"15081","name":"Altmarkkreis Salzwedel","type":"Landkreis"},"federalState":{"key":"15","name":"Sachsen-Anhalt"}},{"name":"Jägerstieg","postalCode":"39638","locality":"Gardelegen","municipality":{"key":"15081135","name":"Gardelegen, Hansestadt","type":"Stadt"},"district":{"key":"15081","name":"Altmarkkreis Salzwedel","type":"Landkreis"},"federalState":{"key":"15","name":"Sachsen-Anhalt"}},{"name":"Jävenitzer Chaussee","postalCode":"39638","locality":"Gardelegen","municipality":{"key":"15081135","name":"Gardelegen, Hansestadt","type":"Stadt"},"district":{"key":"15081","name":"Altmarkkreis Salzwedel","type":"Landkreis"},"federalState":{"key":"15","name":"Sachsen-Anhalt"}},{"name":"Jävenitzer Str.","postalCode":"39638","locality":"Gardelegen","municipality":{"key":"15081135","name":"Gardelegen, Hansestadt","type":"Stadt"},"district":{"key":"15081","name":"Altmarkkreis Salzwedel","type":"Landkreis"},"federalState":{"key":"15","name":"Sachsen-Anhalt"}},{"name":"Jeggau","postalCode":"39649","locality":"Gardelegen","municipality":{"key":"15081135","name":"Gardelegen, Hansestadt","type":"Stadt"},"district":{"key":"15081","name":"Altmarkkreis Salzwedel","type":"Landkreis"},"federalState":{"key":"15","name":"Sachsen-Anhalt"}},{"name":"Jerchel","postalCode":"39638","locality":"Gardelegen","municipality":{"key":"15081135","name":"Gardelegen, Hansestadt","type":"Stadt"},"district":{"key":"15081","name":"Altmarkkreis Salzwedel","type":"Landkreis"},"federalState":{"key":"15","name":"Sachsen-Anhalt"}},{"name":"Jercheler Heuweg","postalCode":"39638","locality":"Gardelegen","municipality":{"key":"15081135","name":"Gardelegen, Hansestadt","type":"Stadt"},"district":{"key":"15081","name":"Altmarkkreis Salzwedel","type":"Landkreis"},"federalState":{"key":"15","name":"Sachsen-Anhalt"}},{"name":"Jercheler Heuweg","postalCode":"39649","locality":"Gardelegen","municipality":{"key":"15081135","name":"Gardelegen, Hansestadt","type":"Stadt"},"district":{"key":"15081","name":"Altmarkkreis Salzwedel","type":"Landkreis"},"federalState":{"key":"15","name":"Sachsen-Anhalt"}},{"name":"Jercheler Str.","postalCode":"39638","locality":"Gardelegen","municipality":{"key":"15081135","name":"Gardelegen, Hansestadt","type":"Stadt"},"district":{"key":"15081","name":"Altmarkkreis Salzwedel","type":"Landkreis"},"federalState":{"key":"15","name":"Sachsen-Anhalt"}},{"name":"Jeseritzer Dorfstr.","postalCode":"39638","locality":"Gardelegen","municipality":{"key":"15081135","name":"Gardelegen, Hansestadt","type":"Stadt"},"district":{"key":"15081","name":"Altmarkkreis Salzwedel","type":"Landkreis"},"federalState":{"key":"15","name":"Sachsen-Anhalt"}},{"name":"Jeseritzer Str.","postalCode":"39638","locality":"Gardelegen","municipality":{"key":"15081135","name":"Gardelegen, Hansestadt","type":"Stadt"},"district":{"key":"15081","name":"Altmarkkreis Salzwedel","type":"Landkreis"},"federalState":{"key":"15","name":"Sachsen-Anhalt"}},{"name":"Kalbenser Str.","postalCode":"39638","locality":"Gardelegen","municipality":{"key":"15081135","name":"Gardelegen, Hansestadt","type":"Stadt"},"district":{"key":"15081","name":"Altmarkkreis Salzwedel","type":"Landkreis"},"federalState":{"key":"15","name":"Sachsen-Anhalt"}},{"name":"Kämeritz","postalCode":"39649","locality":"Gardelegen","municipality":{"key":"15081135","name":"Gardelegen, Hansestadt","type":"Stadt"},"district":{"key":"15081","name":"Altmarkkreis Salzwedel","type":"Landkreis"},"federalState":{"key":"15","name":"Sachsen-Anhalt"}},{"name":"Kantorpforte","postalCode":"39638","locality":"Gardelegen","municipality":{"key":"15081135","name":"Gardelegen, Hansestadt","type":"Stadt"},"district":{"key":"15081","name":"Altmarkkreis Salzwedel","type":"Landkreis"},"federalState":{"key":"15","name":"Sachsen-Anhalt"}},{"name":"Karl-Liebknecht-Str.","postalCode":"39638","locality":"Gardelegen","municipality":{"key":"15081135","name":"Gardelegen, Hansestadt","type":"Stadt"},"district":{"key":"15081","name":"Altmarkkreis Salzwedel","type":"Landkreis"},"federalState":{"key":"15","name":"Sachsen-Anhalt"}},{"name":"Karl-Marx-Str.","postalCode":"39638","locality":"Gardelegen","municipality":{"key":"15081135","name":"Gardelegen, Hansestadt","type":"Stadt"},"district":{"key":"15081","name":"Altmarkkreis Salzwedel","type":"Landkreis"},"federalState":{"key":"15","name":"Sachsen-Anhalt"}},{"name":"Kassieck","postalCode":"39638","locality":"Gardelegen","municipality":{"key":"15081135","name":"Gardelegen, Hansestadt","type":"Stadt"},"district":{"key":"15081","name":"Altmarkkreis Salzwedel","type":"Landkreis"},"federalState":{"key":"15","name":"Sachsen-Anhalt"}},{"name":"Kassiecker Str.","postalCode":"39638","locality":"Gardelegen","municipality":{"key":"15081135","name":"Gardelegen, Hansestadt","type":"Stadt"},"district":{"key":"15081","name":"Altmarkkreis Salzwedel","type":"Landkreis"},"federalState":{"key":"15","name":"Sachsen-Anhalt"}},{"name":"Kastanienweg","postalCode":"39638","locality":"Gardelegen","municipality":{"key":"15081135","name":"Gardelegen, Hansestadt","type":"Stadt"},"district":{"key":"15081","name":"Altmarkkreis Salzwedel","type":"Landkreis"},"federalState":{"key":"15","name":"Sachsen-Anhalt"}},{"name":"Kastanienweg","postalCode":"39649","locality":"Gardelegen","municipality":{"key":"15081135","name":"Gardelegen, Hansestadt","type":"Stadt"},"district":{"key":"15081","name":"Altmarkkreis Salzwedel","type":"Landkreis"},"federalState":{"key":"15","name":"Sachsen-Anhalt"}},{"name":"Kenzendorf","postalCode":"39638","locality":"Gardelegen","municipality":{"key":"15081135","name":"Gardelegen, Hansestadt","type":"Stadt"},"district":{"key":"15081","name":"Altmarkkreis Salzwedel","type":"Landkreis"},"federalState":{"key":"15","name":"Sachsen-Anhalt"}},{"name":"Kiefernstr.","postalCode":"39638","locality":"Gardelegen","municipality":{"key":"15081135","name":"Gardelegen, Hansestadt","type":"Stadt"},"district":{"key":"15081","name":"Altmarkkreis Salzwedel","type":"Landkreis"},"federalState":{"key":"15","name":"Sachsen-Anhalt"}},{"name":"Kiefernweg","postalCode":"39638","locality":"Gardelegen","municipality":{"key":"15081135","name":"Gardelegen, Hansestadt","type":"Stadt"},"district":{"key":"15081","name":"Altmarkkreis Salzwedel","type":"Landkreis"},"federalState":{"key":"15","name":"Sachsen-Anhalt"}},{"name":"Kirchbreite","postalCode":"39649","locality":"Gardelegen","municipality":{"key":"15081135","name":"Gardelegen, Hansestadt","type":"Stadt"},"district":{"key":"15081","name":"Altmarkkreis Salzwedel","type":"Landkreis"},"federalState":{"key":"15","name":"Sachsen-Anhalt"}},{"name":"Kirchweg","postalCode":"39638","locality":"Gardelegen","municipality":{"key":"15081135","name":"Gardelegen, Hansestadt","type":"Stadt"},"district":{"key":"15081","name":"Altmarkkreis Salzwedel","type":"Landkreis"},"federalState":{"key":"15","name":"Sachsen-Anhalt"}},{"name":"Klammstieg","postalCode":"39638","locality":"Gardelegen","municipality":{"key":"15081135","name":"Gardelegen, Hansestadt","type":"Stadt"},"district":{"key":"15081","name":"Altmarkkreis Salzwedel","type":"Landkreis"},"federalState":{"key":"15","name":"Sachsen-Anhalt"}},{"name":"Kletschweg","postalCode":"39638","locality":"Gardelegen","municipality":{"key":"15081135","name":"Gardelegen, Hansestadt","type":"Stadt"},"district":{"key":"15081","name":"Altmarkkreis Salzwedel","type":"Landkreis"},"federalState":{"key":"15","name":"Sachsen-Anhalt"}},{"name":"Klingberg","postalCode":"39638","locality":"Gardelegen","municipality":{"key":"15081135","name":"Gardelegen, Hansestadt","type":"Stadt"},"district":{"key":"15081","name":"Altmarkkreis Salzwedel","type":"Landkreis"},"federalState":{"key":"15","name":"Sachsen-Anhalt"}},{"name":"Klosterallee","postalCode":"39638","locality":"Gardelegen","municipality":{"key":"15081135","name":"Gardelegen, Hansestadt","type":"Stadt"},"district":{"key":"15081","name":"Altmarkkreis Salzwedel","type":"Landkreis"},"federalState":{"key":"15","name":"Sachsen-Anhalt"}},{"name":"Klosterpforte","postalCode":"39638","locality":"Gardelegen","municipality":{"key":"15081135","name":"Gardelegen, Hansestadt","type":"Stadt"},"district":{"key":"15081","name":"Altmarkkreis Salzwedel","type":"Landkreis"},"federalState":{"key":"15","name":"Sachsen-Anhalt"}},{"name":"Klosterstr.","postalCode":"39638","locality":"Gardelegen","municipality":{"key":"15081135","name":"Gardelegen, Hansestadt","type":"Stadt"},"district":{"key":"15081","name":"Altmarkkreis Salzwedel","type":"Landkreis"},"federalState":{"key":"15","name":"Sachsen-Anhalt"}},{"name":"Klosterweg","postalCode":"39638","locality":"Gardelegen","municipality":{"key":"15081135","name":"Gardelegen, Hansestadt","type":"Stadt"},"district":{"key":"15081","name":"Altmarkkreis Salzwedel","type":"Landkreis"},"federalState":{"key":"15","name":"Sachsen-Anhalt"}},{"name":"Klosterweg","postalCode":"39649","locality":"Gardelegen","municipality":{"key":"15081135","name":"Gardelegen, Hansestadt","type":"Stadt"},"district":{"key":"15081","name":"Altmarkkreis Salzwedel","type":"Landkreis"},"federalState":{"key":"15","name":"Sachsen-Anhalt"}},{"name":"Klötzer Weg","postalCode":"39638","locality":"Gardelegen","municipality":{"key":"15081135","name":"Gardelegen, Hansestadt","type":"Stadt"},"district":{"key":"15081","name":"Altmarkkreis Salzwedel","type":"Landkreis"},"federalState":{"key":"15","name":"Sachsen-Anhalt"}},{"name":"Klüdener Str.","postalCode":"39638","locality":"Gardelegen","municipality":{"key":"15081135","name":"Gardelegen, Hansestadt","type":"Stadt"},"district":{"key":"15081","name":"Altmarkkreis Salzwedel","type":"Landkreis"},"federalState":{"key":"15","name":"Sachsen-Anhalt"}},{"name":"Köckter Feldstr.","postalCode":"39649","locality":"Gardelegen","municipality":{"key":"15081135","name":"Gardelegen, Hansestadt","type":"Stadt"},"district":{"key":"15081","name":"Altmarkkreis Salzwedel","type":"Landkreis"},"federalState":{"key":"15","name":"Sachsen-Anhalt"}},{"name":"Kolonie","postalCode":"39649","locality":"Gardelegen","municipality":{"key":"15081135","name":"Gardelegen, Hansestadt","type":"Stadt"},"district":{"key":"15081","name":"Altmarkkreis Salzwedel","type":"Landkreis"},"federalState":{"key":"15","name":"Sachsen-Anhalt"}},{"name":"Kreuzbaumweg","postalCode":"39638","locality":"Gardelegen","municipality":{"key":"15081135","name":"Gardelegen, Hansestadt","type":"Stadt"},"district":{"key":"15081","name":"Altmarkkreis Salzwedel","type":"Landkreis"},"federalState":{"key":"15","name":"Sachsen-Anhalt"}},{"name":"Krugbreite","postalCode":"39638","locality":"Gardelegen","municipality":{"key":"15081135","name":"Gardelegen, Hansestadt","type":"Stadt"},"district":{"key":"15081","name":"Altmarkkreis Salzwedel","type":"Landkreis"},"federalState":{"key":"15","name":"Sachsen-Anhalt"}},{"name":"Krugende","postalCode":"39638","locality":"Gardelegen","municipality":{"key":"15081135","name":"Gardelegen, Hansestadt","type":"Stadt"},"district":{"key":"15081","name":"Altmarkkreis Salzwedel","type":"Landkreis"},"federalState":{"key":"15","name":"Sachsen-Anhalt"}},{"name":"Krumme Str.","postalCode":"39638","locality":"Gardelegen","municipality":{"key":"15081135","name":"Gardelegen, Hansestadt","type":"Stadt"},"district":{"key":"15081","name":"Altmarkkreis Salzwedel","type":"Landkreis"},"federalState":{"key":"15","name":"Sachsen-Anhalt"}},{"name":"Kuhschlagweg","postalCode":"39638","locality":"Gardelegen","municipality":{"key":"15081135","name":"Gardelegen, Hansestadt","type":"Stadt"},"district":{"key":"15081","name":"Altmarkkreis Salzwedel","type":"Landkreis"},"federalState":{"key":"15","name":"Sachsen-Anhalt"}},{"name":"Kuhtriftweg","postalCode":"39638","locality":"Gardelegen","municipality":{"key":"15081135","name":"Gardelegen, Hansestadt","type":"Stadt"},"district":{"key":"15081","name":"Altmarkkreis Salzwedel","type":"Landkreis"},"federalState":{"key":"15","name":"Sachsen-Anhalt"}},{"name":"Kurze Str.","postalCode":"39638","locality":"Gardelegen","municipality":{"key":"15081135","name":"Gardelegen, Hansestadt","type":"Stadt"},"district":{"key":"15081","name":"Altmarkkreis Salzwedel","type":"Landkreis"},"federalState":{"key":"15","name":"Sachsen-Anhalt"}},{"name":"Langförderweg","postalCode":"39638","locality":"Gardelegen","municipality":{"key":"15081135","name":"Gardelegen, Hansestadt","type":"Stadt"},"district":{"key":"15081","name":"Altmarkkreis Salzwedel","type":"Landkreis"},"federalState":{"key":"15","name":"Sachsen-Anhalt"}},{"name":"Lenz I","postalCode":"39649","locality":"Gardelegen","municipality":{"key":"15081135","name":"Gardelegen, Hansestadt","type":"Stadt"},"district":{"key":"15081","name":"Altmarkkreis Salzwedel","type":"Landkreis"},"federalState":{"key":"15","name":"Sachsen-Anhalt"}},{"name":"Lerchenweg","postalCode":"39638","locality":"Gardelegen","municipality":{"key":"15081135","name":"Gardelegen, Hansestadt","type":"Stadt"},"district":{"key":"15081","name":"Altmarkkreis Salzwedel","type":"Landkreis"},"federalState":{"key":"15","name":"Sachsen-Anhalt"}},{"name":"Letzlinger Landstr.","postalCode":"39638","locality":"Gardelegen","municipality":{"key":"15081135","name":"Gardelegen, Hansestadt","type":"Stadt"},"district":{"key":"15081","name":"Altmarkkreis Salzwedel","type":"Landkreis"},"federalState":{"key":"15","name":"Sachsen-Anhalt"}},{"name":"Letzlinger Str.","postalCode":"39638","locality":"Gardelegen","municipality":{"key":"15081135","name":"Gardelegen, Hansestadt","type":"Stadt"},"district":{"key":"15081","name":"Altmarkkreis Salzwedel","type":"Landkreis"},"federalState":{"key":"15","name":"Sachsen-Anhalt"}},{"name":"Letzlinger Weg","postalCode":"39638","locality":"Gardelegen","municipality":{"key":"15081135","name":"Gardelegen, Hansestadt","type":"Stadt"},"district":{"key":"15081","name":"Altmarkkreis Salzwedel","type":"Landkreis"},"federalState":{"key":"15","name":"Sachsen-Anhalt"}},{"name":"Lindenallee","postalCode":"39638","locality":"Gardelegen","municipality":{"key":"15081135","name":"Gardelegen, Hansestadt","type":"Stadt"},"district":{"key":"15081","name":"Altmarkkreis Salzwedel","type":"Landkreis"},"federalState":{"key":"15","name":"Sachsen-Anhalt"}},{"name":"Lindenstr.","postalCode":"39638","locality":"Gardelegen","municipality":{"key":"15081135","name":"Gardelegen, Hansestadt","type":"Stadt"},"district":{"key":"15081","name":"Altmarkkreis Salzwedel","type":"Landkreis"},"federalState":{"key":"15","name":"Sachsen-Anhalt"}},{"name":"Lindenstr.","postalCode":"39649","locality":"Gardelegen","municipality":{"key":"15081135","name":"Gardelegen, Hansestadt","type":"Stadt"},"district":{"key":"15081","name":"Altmarkkreis Salzwedel","type":"Landkreis"},"federalState":{"key":"15","name":"Sachsen-Anhalt"}},{"name":"Lindenweg","postalCode":"39638","locality":"Gardelegen","municipality":{"key":"15081135","name":"Gardelegen, Hansestadt","type":"Stadt"},"district":{"key":"15081","name":"Altmarkkreis Salzwedel","type":"Landkreis"},"federalState":{"key":"15","name":"Sachsen-Anhalt"}},{"name":"Lindenweg","postalCode":"39649","locality":"Gardelegen","municipality":{"key":"15081135","name":"Gardelegen, Hansestadt","type":"Stadt"},"district":{"key":"15081","name":"Altmarkkreis Salzwedel","type":"Landkreis"},"federalState":{"key":"15","name":"Sachsen-Anhalt"}},{"name":"Lindstedter Chaussee","postalCode":"39638","locality":"Gardelegen","municipality":{"key":"15081135","name":"Gardelegen, Hansestadt","type":"Stadt"},"district":{"key":"15081","name":"Altmarkkreis Salzwedel","type":"Landkreis"},"federalState":{"key":"15","name":"Sachsen-Anhalt"}},{"name":"Lindstedter Str.","postalCode":"39638","locality":"Gardelegen","municipality":{"key":"15081135","name":"Gardelegen, Hansestadt","type":"Stadt"},"district":{"key":"15081","name":"Altmarkkreis Salzwedel","type":"Landkreis"},"federalState":{"key":"15","name":"Sachsen-Anhalt"}},{"name":"Lineal","postalCode":"39638","locality":"Gardelegen","municipality":{"key":"15081135","name":"Gardelegen, Hansestadt","type":"Stadt"},"district":{"key":"15081","name":"Altmarkkreis Salzwedel","type":"Landkreis"},"federalState":{"key":"15","name":"Sachsen-Anhalt"}},{"name":"Lüffingen","postalCode":"39638","locality":"Gardelegen","municipality":{"key":"15081135","name":"Gardelegen, Hansestadt","type":"Stadt"},"district":{"key":"15081","name":"Altmarkkreis Salzwedel","type":"Landkreis"},"federalState":{"key":"15","name":"Sachsen-Anhalt"}},{"name":"Lüffinger Weg","postalCode":"39638","locality":"Gardelegen","municipality":{"key":"15081135","name":"Gardelegen, Hansestadt","type":"Stadt"},"district":{"key":"15081","name":"Altmarkkreis Salzwedel","type":"Landkreis"},"federalState":{"key":"15","name":"Sachsen-Anhalt"}},{"name":"Lunauer Str.","postalCode":"39638","locality":"Gardelegen","municipality":{"key":"15081135","name":"Gardelegen, Hansestadt","type":"Stadt"},"district":{"key":"15081","name":"Altmarkkreis Salzwedel","type":"Landkreis"},"federalState":{"key":"15","name":"Sachsen-Anhalt"}},{"name":"Luthäne","postalCode":"39638","locality":"Gardelegen","municipality":{"key":"15081135","name":"Gardelegen, Hansestadt","type":"Stadt"},"district":{"key":"15081","name":"Altmarkkreis Salzwedel","type":"Landkreis"},"federalState":{"key":"15","name":"Sachsen-Anhalt"}},{"name":"Magdeburger Landstr.","postalCode":"39638","locality":"Gardelegen","municipality":{"key":"15081135","name":"Gardelegen, Hansestadt","type":"Stadt"},"district":{"key":"15081","name":"Altmarkkreis Salzwedel","type":"Landkreis"},"federalState":{"key":"15","name":"Sachsen-Anhalt"}},{"name":"Magdeburger Str.","postalCode":"39638","locality":"Gardelegen","municipality":{"key":"15081135","name":"Gardelegen, Hansestadt","type":"Stadt"},"district":{"key":"15081","name":"Altmarkkreis Salzwedel","type":"Landkreis"},"federalState":{"key":"15","name":"Sachsen-Anhalt"}},{"name":"Marienbreiter Weg","postalCode":"39638","locality":"Gardelegen","municipality":{"key":"15081135","name":"Gardelegen, Hansestadt","type":"Stadt"},"district":{"key":"15081","name":"Altmarkkreis Salzwedel","type":"Landkreis"},"federalState":{"key":"15","name":"Sachsen-Anhalt"}},{"name":"Marienkirchgang","postalCode":"39638","locality":"Gardelegen","municipality":{"key":"15081135","name":"Gardelegen, Hansestadt","type":"Stadt"},"district":{"key":"15081","name":"Altmarkkreis Salzwedel","type":"Landkreis"},"federalState":{"key":"15","name":"Sachsen-Anhalt"}},{"name":"Marienkirchplatz","postalCode":"39638","locality":"Gardelegen","municipality":{"key":"15081135","name":"Gardelegen, Hansestadt","type":"Stadt"},"district":{"key":"15081","name":"Altmarkkreis Salzwedel","type":"Landkreis"},"federalState":{"key":"15","name":"Sachsen-Anhalt"}},{"name":"Marktplatz","postalCode":"39638","locality":"Gardelegen","municipality":{"key":"15081135","name":"Gardelegen, Hansestadt","type":"Stadt"},"district":{"key":"15081","name":"Altmarkkreis Salzwedel","type":"Landkreis"},"federalState":{"key":"15","name":"Sachsen-Anhalt"}},{"name":"Marktstr.","postalCode":"39638","locality":"Gardelegen","municipality":{"key":"15081135","name":"Gardelegen, Hansestadt","type":"Stadt"},"district":{"key":"15081","name":"Altmarkkreis Salzwedel","type":"Landkreis"},"federalState":{"key":"15","name":"Sachsen-Anhalt"}},{"name":"Matthias-Claudius-Str.","postalCode":"39638","locality":"Gardelegen","municipality":{"key":"15081135","name":"Gardelegen, Hansestadt","type":"Stadt"},"district":{"key":"15081","name":"Altmarkkreis Salzwedel","type":"Landkreis"},"federalState":{"key":"15","name":"Sachsen-Anhalt"}},{"name":"Mieste-Breiteiche","postalCode":"39649","locality":"Gardelegen","municipality":{"key":"15081135","name":"Gardelegen, Hansestadt","type":"Stadt"},"district":{"key":"15081","name":"Altmarkkreis Salzwedel","type":"Landkreis"},"federalState":{"key":"15","name":"Sachsen-Anhalt"}},{"name":"Mieste Bretteiche","postalCode":"39649","locality":"Gardelegen","municipality":{"key":"15081135","name":"Gardelegen, Hansestadt","type":"Stadt"},"district":{"key":"15081","name":"Altmarkkreis Salzwedel","type":"Landkreis"},"federalState":{"key":"15","name":"Sachsen-Anhalt"}},{"name":"Miester Bahnhofstr.","postalCode":"39649","locality":"Gardelegen","municipality":{"key":"15081135","name":"Gardelegen, Hansestadt","type":"Stadt"},"district":{"key":"15081","name":"Altmarkkreis Salzwedel","type":"Landkreis"},"federalState":{"key":"15","name":"Sachsen-Anhalt"}},{"name":"Miesterhorster Bahnhof","postalCode":"39649","locality":"Gardelegen","municipality":{"key":"15081135","name":"Gardelegen, Hansestadt","type":"Stadt"},"district":{"key":"15081","name":"Altmarkkreis Salzwedel","type":"Landkreis"},"federalState":{"key":"15","name":"Sachsen-Anhalt"}},{"name":"Miester Str.","postalCode":"39649","locality":"Gardelegen","municipality":{"key":"15081135","name":"Gardelegen, Hansestadt","type":"Stadt"},"district":{"key":"15081","name":"Altmarkkreis Salzwedel","type":"Landkreis"},"federalState":{"key":"15","name":"Sachsen-Anhalt"}},{"name":"Mittelstr.","postalCode":"39649","locality":"Gardelegen","municipality":{"key":"15081135","name":"Gardelegen, Hansestadt","type":"Stadt"},"district":{"key":"15081","name":"Altmarkkreis Salzwedel","type":"Landkreis"},"federalState":{"key":"15","name":"Sachsen-Anhalt"}},{"name":"Molkereistr.","postalCode":"39638","locality":"Gardelegen","municipality":{"key":"15081135","name":"Gardelegen, Hansestadt","type":"Stadt"},"district":{"key":"15081","name":"Altmarkkreis Salzwedel","type":"Landkreis"},"federalState":{"key":"15","name":"Sachsen-Anhalt"}},{"name":"Mozartstr.","postalCode":"39638","locality":"Gardelegen","municipality":{"key":"15081135","name":"Gardelegen, Hansestadt","type":"Stadt"},"district":{"key":"15081","name":"Altmarkkreis Salzwedel","type":"Landkreis"},"federalState":{"key":"15","name":"Sachsen-Anhalt"}},{"name":"Mühlenberg","postalCode":"39649","locality":"Gardelegen","municipality":{"key":"15081135","name":"Gardelegen, Hansestadt","type":"Stadt"},"district":{"key":"15081","name":"Altmarkkreis Salzwedel","type":"Landkreis"},"federalState":{"key":"15","name":"Sachsen-Anhalt"}},{"name":"Mühlensteig","postalCode":"39638","locality":"Gardelegen","municipality":{"key":"15081135","name":"Gardelegen, Hansestadt","type":"Stadt"},"district":{"key":"15081","name":"Altmarkkreis Salzwedel","type":"Landkreis"},"federalState":{"key":"15","name":"Sachsen-Anhalt"}},{"name":"Mühlenstr.","postalCode":"39638","locality":"Gardelegen","municipality":{"key":"15081135","name":"Gardelegen, Hansestadt","type":"Stadt"},"district":{"key":"15081","name":"Altmarkkreis Salzwedel","type":"Landkreis"},"federalState":{"key":"15","name":"Sachsen-Anhalt"}},{"name":"Mühlenweg","postalCode":"39638","locality":"Gardelegen","municipality":{"key":"15081135","name":"Gardelegen, Hansestadt","type":"Stadt"},"district":{"key":"15081","name":"Altmarkkreis Salzwedel","type":"Landkreis"},"federalState":{"key":"15","name":"Sachsen-Anhalt"}},{"name":"Mühlenweg","postalCode":"39649","locality":"Gardelegen","municipality":{"key":"15081135","name":"Gardelegen, Hansestadt","type":"Stadt"},"district":{"key":"15081","name":"Altmarkkreis Salzwedel","type":"Landkreis"},"federalState":{"key":"15","name":"Sachsen-Anhalt"}},{"name":"Nachtigallweg","postalCode":"39638","locality":"Gardelegen","municipality":{"key":"15081135","name":"Gardelegen, Hansestadt","type":"Stadt"},"district":{"key":"15081","name":"Altmarkkreis Salzwedel","type":"Landkreis"},"federalState":{"key":"15","name":"Sachsen-Anhalt"}},{"name":"Neuer Steinweg","postalCode":"39638","locality":"Gardelegen","municipality":{"key":"15081135","name":"Gardelegen, Hansestadt","type":"Stadt"},"district":{"key":"15081","name":"Altmarkkreis Salzwedel","type":"Landkreis"},"federalState":{"key":"15","name":"Sachsen-Anhalt"}},{"name":"Neue Siedlung","postalCode":"39649","locality":"Gardelegen","municipality":{"key":"15081135","name":"Gardelegen, Hansestadt","type":"Stadt"},"district":{"key":"15081","name":"Altmarkkreis Salzwedel","type":"Landkreis"},"federalState":{"key":"15","name":"Sachsen-Anhalt"}},{"name":"Neue Str.","postalCode":"39649","locality":"Gardelegen","municipality":{"key":"15081135","name":"Gardelegen, Hansestadt","type":"Stadt"},"district":{"key":"15081","name":"Altmarkkreis Salzwedel","type":"Landkreis"},"federalState":{"key":"15","name":"Sachsen-Anhalt"}},{"name":"Nikolaistr.","postalCode":"39638","locality":"Gardelegen","municipality":{"key":"15081135","name":"Gardelegen, Hansestadt","type":"Stadt"},"district":{"key":"15081","name":"Altmarkkreis Salzwedel","type":"Landkreis"},"federalState":{"key":"15","name":"Sachsen-Anhalt"}},{"name":"Notpforte","postalCode":"39638","locality":"Gardelegen","municipality":{"key":"15081135","name":"Gardelegen, Hansestadt","type":"Stadt"},"district":{"key":"15081","name":"Altmarkkreis Salzwedel","type":"Landkreis"},"federalState":{"key":"15","name":"Sachsen-Anhalt"}},{"name":"Ochsenweidendamm","postalCode":"39649","locality":"Gardelegen","municipality":{"key":"15081135","name":"Gardelegen, Hansestadt","type":"Stadt"},"district":{"key":"15081","name":"Altmarkkreis Salzwedel","type":"Landkreis"},"federalState":{"key":"15","name":"Sachsen-Anhalt"}},{"name":"Oebisfelder Str.","postalCode":"39649","locality":"Gardelegen","municipality":{"key":"15081135","name":"Gardelegen, Hansestadt","type":"Stadt"},"district":{"key":"15081","name":"Altmarkkreis Salzwedel","type":"Landkreis"},"federalState":{"key":"15","name":"Sachsen-Anhalt"}},{"name":"Otto-Nuschke Str.","postalCode":"39638","locality":"Gardelegen","municipality":{"key":"15081135","name":"Gardelegen, Hansestadt","type":"Stadt"},"district":{"key":"15081","name":"Altmarkkreis Salzwedel","type":"Landkreis"},"federalState":{"key":"15","name":"Sachsen-Anhalt"}},{"name":"Otto-Reutter-Platz","postalCode":"39638","locality":"Gardelegen","municipality":{"key":"15081135","name":"Gardelegen, Hansestadt","type":"Stadt"},"district":{"key":"15081","name":"Altmarkkreis Salzwedel","type":"Landkreis"},"federalState":{"key":"15","name":"Sachsen-Anhalt"}},{"name":"Pagenweg","postalCode":"39638","locality":"Gardelegen","municipality":{"key":"15081135","name":"Gardelegen, Hansestadt","type":"Stadt"},"district":{"key":"15081","name":"Altmarkkreis Salzwedel","type":"Landkreis"},"federalState":{"key":"15","name":"Sachsen-Anhalt"}},{"name":"Pappelweg","postalCode":"39638","locality":"Gardelegen","municipality":{"key":"15081135","name":"Gardelegen, Hansestadt","type":"Stadt"},"district":{"key":"15081","name":"Altmarkkreis Salzwedel","type":"Landkreis"},"federalState":{"key":"15","name":"Sachsen-Anhalt"}},{"name":"Parkstr.","postalCode":"39649","locality":"Gardelegen","municipality":{"key":"15081135","name":"Gardelegen, Hansestadt","type":"Stadt"},"district":{"key":"15081","name":"Altmarkkreis Salzwedel","type":"Landkreis"},"federalState":{"key":"15","name":"Sachsen-Anhalt"}},{"name":"Parleib","postalCode":"39638","locality":"Gardelegen","municipality":{"key":"15081135","name":"Gardelegen, Hansestadt","type":"Stadt"},"district":{"key":"15081","name":"Altmarkkreis Salzwedel","type":"Landkreis"},"federalState":{"key":"15","name":"Sachsen-Anhalt"}},{"name":"Pastorgang","postalCode":"39638","locality":"Gardelegen","municipality":{"key":"15081135","name":"Gardelegen, Hansestadt","type":"Stadt"},"district":{"key":"15081","name":"Altmarkkreis Salzwedel","type":"Landkreis"},"federalState":{"key":"15","name":"Sachsen-Anhalt"}},{"name":"Peckfitzer Str.","postalCode":"39649","locality":"Gardelegen","municipality":{"key":"15081135","name":"Gardelegen, Hansestadt","type":"Stadt"},"district":{"key":"15081","name":"Altmarkkreis Salzwedel","type":"Landkreis"},"federalState":{"key":"15","name":"Sachsen-Anhalt"}},{"name":"Pfahlweide","postalCode":"39638","locality":"Gardelegen","municipality":{"key":"15081135","name":"Gardelegen, Hansestadt","type":"Stadt"},"district":{"key":"15081","name":"Altmarkkreis Salzwedel","type":"Landkreis"},"federalState":{"key":"15","name":"Sachsen-Anhalt"}},{"name":"Philipp-Müller-Str.","postalCode":"39638","locality":"Gardelegen","municipality":{"key":"15081135","name":"Gardelegen, Hansestadt","type":"Stadt"},"district":{"key":"15081","name":"Altmarkkreis Salzwedel","type":"Landkreis"},"federalState":{"key":"15","name":"Sachsen-Anhalt"}},{"name":"Plastweg","postalCode":"39638","locality":"Gardelegen","municipality":{"key":"15081135","name":"Gardelegen, Hansestadt","type":"Stadt"},"district":{"key":"15081","name":"Altmarkkreis Salzwedel","type":"Landkreis"},"federalState":{"key":"15","name":"Sachsen-Anhalt"}},{"name":"Platanenweg","postalCode":"39638","locality":"Gardelegen","municipality":{"key":"15081135","name":"Gardelegen, Hansestadt","type":"Stadt"},"district":{"key":"15081","name":"Altmarkkreis Salzwedel","type":"Landkreis"},"federalState":{"key":"15","name":"Sachsen-Anhalt"}},{"name":"Platz der Freiheit","postalCode":"39638","locality":"Gardelegen","municipality":{"key":"15081135","name":"Gardelegen, Hansestadt","type":"Stadt"},"district":{"key":"15081","name":"Altmarkkreis Salzwedel","type":"Landkreis"},"federalState":{"key":"15","name":"Sachsen-Anhalt"}},{"name":"Plinkstr.","postalCode":"39638","locality":"Gardelegen","municipality":{"key":"15081135","name":"Gardelegen, Hansestadt","type":"Stadt"},"district":{"key":"15081","name":"Altmarkkreis Salzwedel","type":"Landkreis"},"federalState":{"key":"15","name":"Sachsen-Anhalt"}},{"name":"Polvitz","postalCode":"39638","locality":"Gardelegen","municipality":{"key":"15081135","name":"Gardelegen, Hansestadt","type":"Stadt"},"district":{"key":"15081","name":"Altmarkkreis Salzwedel","type":"Landkreis"},"federalState":{"key":"15","name":"Sachsen-Anhalt"}},{"name":"Poststr.","postalCode":"39638","locality":"Gardelegen","municipality":{"key":"15081135","name":"Gardelegen, Hansestadt","type":"Stadt"},"district":{"key":"15081","name":"Altmarkkreis Salzwedel","type":"Landkreis"},"federalState":{"key":"15","name":"Sachsen-Anhalt"}},{"name":"Potzener Str.","postalCode":"39638","locality":"Gardelegen","municipality":{"key":"15081135","name":"Gardelegen, Hansestadt","type":"Stadt"},"district":{"key":"15081","name":"Altmarkkreis Salzwedel","type":"Landkreis"},"federalState":{"key":"15","name":"Sachsen-Anhalt"}},{"name":"Priesterstr.","postalCode":"39638","locality":"Gardelegen","municipality":{"key":"15081135","name":"Gardelegen, Hansestadt","type":"Stadt"},"district":{"key":"15081","name":"Altmarkkreis Salzwedel","type":"Landkreis"},"federalState":{"key":"15","name":"Sachsen-Anhalt"}},{"name":"Prinzendamm","postalCode":"39638","locality":"Gardelegen","municipality":{"key":"15081135","name":"Gardelegen, Hansestadt","type":"Stadt"},"district":{"key":"15081","name":"Altmarkkreis Salzwedel","type":"Landkreis"},"federalState":{"key":"15","name":"Sachsen-Anhalt"}},{"name":"Privatweg","postalCode":"39649","locality":"Gardelegen","municipality":{"key":"15081135","name":"Gardelegen, Hansestadt","type":"Stadt"},"district":{"key":"15081","name":"Altmarkkreis Salzwedel","type":"Landkreis"},"federalState":{"key":"15","name":"Sachsen-Anhalt"}},{"name":"Quarnebecker Stadtweg","postalCode":"39638","locality":"Gardelegen","municipality":{"key":"15081135","name":"Gardelegen, Hansestadt","type":"Stadt"},"district":{"key":"15081","name":"Altmarkkreis Salzwedel","type":"Landkreis"},"federalState":{"key":"15","name":"Sachsen-Anhalt"}},{"name":"Querung","postalCode":"39638","locality":"Gardelegen","municipality":{"key":"15081135","name":"Gardelegen, Hansestadt","type":"Stadt"},"district":{"key":"15081","name":"Altmarkkreis Salzwedel","type":"Landkreis"},"federalState":{"key":"15","name":"Sachsen-Anhalt"}},{"name":"Rathausplatz","postalCode":"39638","locality":"Gardelegen","municipality":{"key":"15081135","name":"Gardelegen, Hansestadt","type":"Stadt"},"district":{"key":"15081","name":"Altmarkkreis Salzwedel","type":"Landkreis"},"federalState":{"key":"15","name":"Sachsen-Anhalt"}},{"name":"Reichsstr.","postalCode":"39638","locality":"Gardelegen","municipality":{"key":"15081135","name":"Gardelegen, Hansestadt","type":"Stadt"},"district":{"key":"15081","name":"Altmarkkreis Salzwedel","type":"Landkreis"},"federalState":{"key":"15","name":"Sachsen-Anhalt"}},{"name":"Rendelbahn","postalCode":"39638","locality":"Gardelegen","municipality":{"key":"15081135","name":"Gardelegen, Hansestadt","type":"Stadt"},"district":{"key":"15081","name":"Altmarkkreis Salzwedel","type":"Landkreis"},"federalState":{"key":"15","name":"Sachsen-Anhalt"}},{"name":"Rienbeckweg","postalCode":"39638","locality":"Gardelegen","municipality":{"key":"15081135","name":"Gardelegen, Hansestadt","type":"Stadt"},"district":{"key":"15081","name":"Altmarkkreis Salzwedel","type":"Landkreis"},"federalState":{"key":"15","name":"Sachsen-Anhalt"}},{"name":"Riesebergstr.","postalCode":"39638","locality":"Gardelegen","municipality":{"key":"15081135","name":"Gardelegen, Hansestadt","type":"Stadt"},"district":{"key":"15081","name":"Altmarkkreis Salzwedel","type":"Landkreis"},"federalState":{"key":"15","name":"Sachsen-Anhalt"}},{"name":"Riesebergstr.","postalCode":"39649","locality":"Gardelegen","municipality":{"key":"15081135","name":"Gardelegen, Hansestadt","type":"Stadt"},"district":{"key":"15081","name":"Altmarkkreis Salzwedel","type":"Landkreis"},"federalState":{"key":"15","name":"Sachsen-Anhalt"}},{"name":"Robinienstr.","postalCode":"39638","locality":"Gardelegen","municipality":{"key":"15081135","name":"Gardelegen, Hansestadt","type":"Stadt"},"district":{"key":"15081","name":"Altmarkkreis Salzwedel","type":"Landkreis"},"federalState":{"key":"15","name":"Sachsen-Anhalt"}},{"name":"Rosa-Luxemburg-Str.","postalCode":"39638","locality":"Gardelegen","municipality":{"key":"15081135","name":"Gardelegen, Hansestadt","type":"Stadt"},"district":{"key":"15081","name":"Altmarkkreis Salzwedel","type":"Landkreis"},"federalState":{"key":"15","name":"Sachsen-Anhalt"}},{"name":"Rosenweg","postalCode":"39638","locality":"Gardelegen","municipality":{"key":"15081135","name":"Gardelegen, Hansestadt","type":"Stadt"},"district":{"key":"15081","name":"Altmarkkreis Salzwedel","type":"Landkreis"},"federalState":{"key":"15","name":"Sachsen-Anhalt"}},{"name":"Rosthopweg","postalCode":"39638","locality":"Gardelegen","municipality":{"key":"15081135","name":"Gardelegen, Hansestadt","type":"Stadt"},"district":{"key":"15081","name":"Altmarkkreis Salzwedel","type":"Landkreis"},"federalState":{"key":"15","name":"Sachsen-Anhalt"}},{"name":"Rottweg","postalCode":"39638","locality":"Gardelegen","municipality":{"key":"15081135","name":"Gardelegen, Hansestadt","type":"Stadt"},"district":{"key":"15081","name":"Altmarkkreis Salzwedel","type":"Landkreis"},"federalState":{"key":"15","name":"Sachsen-Anhalt"}},{"name":"Roxförder Str.","postalCode":"39638","locality":"Gardelegen","municipality":{"key":"15081135","name":"Gardelegen, Hansestadt","type":"Stadt"},"district":{"key":"15081","name":"Altmarkkreis Salzwedel","type":"Landkreis"},"federalState":{"key":"15","name":"Sachsen-Anhalt"}},{"name":"Rudolf-Breitscheid-Str.","postalCode":"39638","locality":"Gardelegen","municipality":{"key":"15081135","name":"Gardelegen, Hansestadt","type":"Stadt"},"district":{"key":"15081","name":"Altmarkkreis Salzwedel","type":"Landkreis"},"federalState":{"key":"15","name":"Sachsen-Anhalt"}},{"name":"Sachau","postalCode":"39649","locality":"Gardelegen","municipality":{"key":"15081135","name":"Gardelegen, Hansestadt","type":"Stadt"},"district":{"key":"15081","name":"Altmarkkreis Salzwedel","type":"Landkreis"},"federalState":{"key":"15","name":"Sachsen-Anhalt"}},{"name":"Sachau Bretteiche","postalCode":"39649","locality":"Gardelegen","municipality":{"key":"15081135","name":"Gardelegen, Hansestadt","type":"Stadt"},"district":{"key":"15081","name":"Altmarkkreis Salzwedel","type":"Landkreis"},"federalState":{"key":"15","name":"Sachsen-Anhalt"}},{"name":"Sachauer Str.","postalCode":"39638","locality":"Gardelegen","municipality":{"key":"15081135","name":"Gardelegen, Hansestadt","type":"Stadt"},"district":{"key":"15081","name":"Altmarkkreis Salzwedel","type":"Landkreis"},"federalState":{"key":"15","name":"Sachsen-Anhalt"}},{"name":"Sachauer Weg","postalCode":"39638","locality":"Gardelegen","municipality":{"key":"15081135","name":"Gardelegen, Hansestadt","type":"Stadt"},"district":{"key":"15081","name":"Altmarkkreis Salzwedel","type":"Landkreis"},"federalState":{"key":"15","name":"Sachsen-Anhalt"}},{"name":"Salchauer Chaussee","postalCode":"39638","locality":"Gardelegen","municipality":{"key":"15081135","name":"Gardelegen, Hansestadt","type":"Stadt"},"district":{"key":"15081","name":"Altmarkkreis Salzwedel","type":"Landkreis"},"federalState":{"key":"15","name":"Sachsen-Anhalt"}},{"name":"Salchauer Str.","postalCode":"39638","locality":"Gardelegen","municipality":{"key":"15081135","name":"Gardelegen, Hansestadt","type":"Stadt"},"district":{"key":"15081","name":"Altmarkkreis Salzwedel","type":"Landkreis"},"federalState":{"key":"15","name":"Sachsen-Anhalt"}},{"name":"Salzwedeler Tormühle","postalCode":"39638","locality":"Gardelegen","municipality":{"key":"15081135","name":"Gardelegen, Hansestadt","type":"Stadt"},"district":{"key":"15081","name":"Altmarkkreis Salzwedel","type":"Landkreis"},"federalState":{"key":"15","name":"Sachsen-Anhalt"}},{"name":"Salzwedeler Torstr.","postalCode":"39638","locality":"Gardelegen","municipality":{"key":"15081135","name":"Gardelegen, Hansestadt","type":"Stadt"},"district":{"key":"15081","name":"Altmarkkreis Salzwedel","type":"Landkreis"},"federalState":{"key":"15","name":"Sachsen-Anhalt"}},{"name":"Sandstr.","postalCode":"39638","locality":"Gardelegen","municipality":{"key":"15081135","name":"Gardelegen, Hansestadt","type":"Stadt"},"district":{"key":"15081","name":"Altmarkkreis Salzwedel","type":"Landkreis"},"federalState":{"key":"15","name":"Sachsen-Anhalt"}},{"name":"Sauergrund","postalCode":"39649","locality":"Gardelegen","municipality":{"key":"15081135","name":"Gardelegen, Hansestadt","type":"Stadt"},"district":{"key":"15081","name":"Altmarkkreis Salzwedel","type":"Landkreis"},"federalState":{"key":"15","name":"Sachsen-Anhalt"}},{"name":"Schäferberg","postalCode":"39638","locality":"Gardelegen","municipality":{"key":"15081135","name":"Gardelegen, Hansestadt","type":"Stadt"},"district":{"key":"15081","name":"Altmarkkreis Salzwedel","type":"Landkreis"},"federalState":{"key":"15","name":"Sachsen-Anhalt"}},{"name":"Schenkenhorster Str.","postalCode":"39638","locality":"Gardelegen","municipality":{"key":"15081135","name":"Gardelegen, Hansestadt","type":"Stadt"},"district":{"key":"15081","name":"Altmarkkreis Salzwedel","type":"Landkreis"},"federalState":{"key":"15","name":"Sachsen-Anhalt"}},{"name":"Schillerstr.","postalCode":"39638","locality":"Gardelegen","municipality":{"key":"15081135","name":"Gardelegen, Hansestadt","type":"Stadt"},"district":{"key":"15081","name":"Altmarkkreis Salzwedel","type":"Landkreis"},"federalState":{"key":"15","name":"Sachsen-Anhalt"}},{"name":"Schillerstr.","postalCode":"39649","locality":"Gardelegen","municipality":{"key":"15081135","name":"Gardelegen, Hansestadt","type":"Stadt"},"district":{"key":"15081","name":"Altmarkkreis Salzwedel","type":"Landkreis"},"federalState":{"key":"15","name":"Sachsen-Anhalt"}},{"name":"Schlauch","postalCode":"39638","locality":"Gardelegen","municipality":{"key":"15081135","name":"Gardelegen, Hansestadt","type":"Stadt"},"district":{"key":"15081","name":"Altmarkkreis Salzwedel","type":"Landkreis"},"federalState":{"key":"15","name":"Sachsen-Anhalt"}},{"name":"Schlossstr.","postalCode":"39638","locality":"Gardelegen","municipality":{"key":"15081135","name":"Gardelegen, Hansestadt","type":"Stadt"},"district":{"key":"15081","name":"Altmarkkreis Salzwedel","type":"Landkreis"},"federalState":{"key":"15","name":"Sachsen-Anhalt"}},{"name":"Schneiderberg","postalCode":"39638","locality":"Gardelegen","municipality":{"key":"15081135","name":"Gardelegen, Hansestadt","type":"Stadt"},"district":{"key":"15081","name":"Altmarkkreis Salzwedel","type":"Landkreis"},"federalState":{"key":"15","name":"Sachsen-Anhalt"}},{"name":"Schulplatz","postalCode":"39638","locality":"Gardelegen","municipality":{"key":"15081135","name":"Gardelegen, Hansestadt","type":"Stadt"},"district":{"key":"15081","name":"Altmarkkreis Salzwedel","type":"Landkreis"},"federalState":{"key":"15","name":"Sachsen-Anhalt"}},{"name":"Schulstr.","postalCode":"39638","locality":"Gardelegen","municipality":{"key":"15081135","name":"Gardelegen, Hansestadt","type":"Stadt"},"district":{"key":"15081","name":"Altmarkkreis Salzwedel","type":"Landkreis"},"federalState":{"key":"15","name":"Sachsen-Anhalt"}},{"name":"Schulweg","postalCode":"39638","locality":"Gardelegen","municipality":{"key":"15081135","name":"Gardelegen, Hansestadt","type":"Stadt"},"district":{"key":"15081","name":"Altmarkkreis Salzwedel","type":"Landkreis"},"federalState":{"key":"15","name":"Sachsen-Anhalt"}},{"name":"Schulzenhof","postalCode":"39638","locality":"Gardelegen","municipality":{"key":"15081135","name":"Gardelegen, Hansestadt","type":"Stadt"},"district":{"key":"15081","name":"Altmarkkreis Salzwedel","type":"Landkreis"},"federalState":{"key":"15","name":"Sachsen-Anhalt"}},{"name":"Schwiesauer Str.","postalCode":"39638","locality":"Gardelegen","municipality":{"key":"15081135","name":"Gardelegen, Hansestadt","type":"Stadt"},"district":{"key":"15081","name":"Altmarkkreis Salzwedel","type":"Landkreis"},"federalState":{"key":"15","name":"Sachsen-Anhalt"}},{"name":"Seethen","postalCode":"39638","locality":"Gardelegen","municipality":{"key":"15081135","name":"Gardelegen, Hansestadt","type":"Stadt"},"district":{"key":"15081","name":"Altmarkkreis Salzwedel","type":"Landkreis"},"federalState":{"key":"15","name":"Sachsen-Anhalt"}},{"name":"Seethener Weg","postalCode":"39638","locality":"Gardelegen","municipality":{"key":"15081135","name":"Gardelegen, Hansestadt","type":"Stadt"},"district":{"key":"15081","name":"Altmarkkreis Salzwedel","type":"Landkreis"},"federalState":{"key":"15","name":"Sachsen-Anhalt"}},{"name":"Sichau","postalCode":"39649","locality":"Gardelegen","municipality":{"key":"15081135","name":"Gardelegen, Hansestadt","type":"Stadt"},"district":{"key":"15081","name":"Altmarkkreis Salzwedel","type":"Landkreis"},"federalState":{"key":"15","name":"Sachsen-Anhalt"}},{"name":"Siedlung","postalCode":"39649","locality":"Gardelegen","municipality":{"key":"15081135","name":"Gardelegen, Hansestadt","type":"Stadt"},"district":{"key":"15081","name":"Altmarkkreis Salzwedel","type":"Landkreis"},"federalState":{"key":"15","name":"Sachsen-Anhalt"}},{"name":"Siedlungsstr.","postalCode":"39638","locality":"Gardelegen","municipality":{"key":"15081135","name":"Gardelegen, Hansestadt","type":"Stadt"},"district":{"key":"15081","name":"Altmarkkreis Salzwedel","type":"Landkreis"},"federalState":{"key":"15","name":"Sachsen-Anhalt"}},{"name":"Siedlungsstr.","postalCode":"39649","locality":"Gardelegen","municipality":{"key":"15081135","name":"Gardelegen, Hansestadt","type":"Stadt"},"district":{"key":"15081","name":"Altmarkkreis Salzwedel","type":"Landkreis"},"federalState":{"key":"15","name":"Sachsen-Anhalt"}},{"name":"Siems","postalCode":"39649","locality":"Gardelegen","municipality":{"key":"15081135","name":"Gardelegen, Hansestadt","type":"Stadt"},"district":{"key":"15081","name":"Altmarkkreis Salzwedel","type":"Landkreis"},"federalState":{"key":"15","name":"Sachsen-Anhalt"}},{"name":"Siemser Str.","postalCode":"39649","locality":"Gardelegen","municipality":{"key":"15081135","name":"Gardelegen, Hansestadt","type":"Stadt"},"district":{"key":"15081","name":"Altmarkkreis Salzwedel","type":"Landkreis"},"federalState":{"key":"15","name":"Sachsen-Anhalt"}},{"name":"Solpker Str.","postalCode":"39638","locality":"Gardelegen","municipality":{"key":"15081135","name":"Gardelegen, Hansestadt","type":"Stadt"},"district":{"key":"15081","name":"Altmarkkreis Salzwedel","type":"Landkreis"},"federalState":{"key":"15","name":"Sachsen-Anhalt"}},{"name":"Solpker Weg","postalCode":"39638","locality":"Gardelegen","municipality":{"key":"15081135","name":"Gardelegen, Hansestadt","type":"Stadt"},"district":{"key":"15081","name":"Altmarkkreis Salzwedel","type":"Landkreis"},"federalState":{"key":"15","name":"Sachsen-Anhalt"}},{"name":"Speckweg","postalCode":"39638","locality":"Gardelegen","municipality":{"key":"15081135","name":"Gardelegen, Hansestadt","type":"Stadt"},"district":{"key":"15081","name":"Altmarkkreis Salzwedel","type":"Landkreis"},"federalState":{"key":"15","name":"Sachsen-Anhalt"}},{"name":"Stadtweg","postalCode":"39649","locality":"Gardelegen","municipality":{"key":"15081135","name":"Gardelegen, Hansestadt","type":"Stadt"},"district":{"key":"15081","name":"Altmarkkreis Salzwedel","type":"Landkreis"},"federalState":{"key":"15","name":"Sachsen-Anhalt"}},{"name":"Stakenbergweg","postalCode":"39638","locality":"Gardelegen","municipality":{"key":"15081135","name":"Gardelegen, Hansestadt","type":"Stadt"},"district":{"key":"15081","name":"Altmarkkreis Salzwedel","type":"Landkreis"},"federalState":{"key":"15","name":"Sachsen-Anhalt"}},{"name":"Steg","postalCode":"39638","locality":"Gardelegen","municipality":{"key":"15081135","name":"Gardelegen, Hansestadt","type":"Stadt"},"district":{"key":"15081","name":"Altmarkkreis Salzwedel","type":"Landkreis"},"federalState":{"key":"15","name":"Sachsen-Anhalt"}},{"name":"Stendaler Chaussee","postalCode":"39638","locality":"Gardelegen","municipality":{"key":"15081135","name":"Gardelegen, Hansestadt","type":"Stadt"},"district":{"key":"15081","name":"Altmarkkreis Salzwedel","type":"Landkreis"},"federalState":{"key":"15","name":"Sachsen-Anhalt"}},{"name":"Stendaler Str.","postalCode":"39638","locality":"Gardelegen","municipality":{"key":"15081135","name":"Gardelegen, Hansestadt","type":"Stadt"},"district":{"key":"15081","name":"Altmarkkreis Salzwedel","type":"Landkreis"},"federalState":{"key":"15","name":"Sachsen-Anhalt"}},{"name":"Str. der Befreiung","postalCode":"39638","locality":"Gardelegen","municipality":{"key":"15081135","name":"Gardelegen, Hansestadt","type":"Stadt"},"district":{"key":"15081","name":"Altmarkkreis Salzwedel","type":"Landkreis"},"federalState":{"key":"15","name":"Sachsen-Anhalt"}},{"name":"Str. der Freundschaft","postalCode":"39638","locality":"Gardelegen","municipality":{"key":"15081135","name":"Gardelegen, Hansestadt","type":"Stadt"},"district":{"key":"15081","name":"Altmarkkreis Salzwedel","type":"Landkreis"},"federalState":{"key":"15","name":"Sachsen-Anhalt"}},{"name":"Str. der Opfer des Faschismus","postalCode":"39638","locality":"Gardelegen","municipality":{"key":"15081135","name":"Gardelegen, Hansestadt","type":"Stadt"},"district":{"key":"15081","name":"Altmarkkreis Salzwedel","type":"Landkreis"},"federalState":{"key":"15","name":"Sachsen-Anhalt"}},{"name":"Str. der Republik","postalCode":"39638","locality":"Gardelegen","municipality":{"key":"15081135","name":"Gardelegen, Hansestadt","type":"Stadt"},"district":{"key":"15081","name":"Altmarkkreis Salzwedel","type":"Landkreis"},"federalState":{"key":"15","name":"Sachsen-Anhalt"}},{"name":"Süd","postalCode":"39638","locality":"Gardelegen","municipality":{"key":"15081135","name":"Gardelegen, Hansestadt","type":"Stadt"},"district":{"key":"15081","name":"Altmarkkreis Salzwedel","type":"Landkreis"},"federalState":{"key":"15","name":"Sachsen-Anhalt"}},{"name":"Tangente","postalCode":"39638","locality":"Gardelegen","municipality":{"key":"15081135","name":"Gardelegen, Hansestadt","type":"Stadt"},"district":{"key":"15081","name":"Altmarkkreis Salzwedel","type":"Landkreis"},"federalState":{"key":"15","name":"Sachsen-Anhalt"}},{"name":"Tannenweg","postalCode":"39638","locality":"Gardelegen","municipality":{"key":"15081135","name":"Gardelegen, Hansestadt","type":"Stadt"},"district":{"key":"15081","name":"Altmarkkreis Salzwedel","type":"Landkreis"},"federalState":{"key":"15","name":"Sachsen-Anhalt"}},{"name":"Tarnefitz","postalCode":"39649","locality":"Gardelegen","municipality":{"key":"15081135","name":"Gardelegen, Hansestadt","type":"Stadt"},"district":{"key":"15081","name":"Altmarkkreis Salzwedel","type":"Landkreis"},"federalState":{"key":"15","name":"Sachsen-Anhalt"}},{"name":"Thälmannstr.","postalCode":"39649","locality":"Gardelegen","municipality":{"key":"15081135","name":"Gardelegen, Hansestadt","type":"Stadt"},"district":{"key":"15081","name":"Altmarkkreis Salzwedel","type":"Landkreis"},"federalState":{"key":"15","name":"Sachsen-Anhalt"}},{"name":"Theerhütter Str.","postalCode":"39638","locality":"Gardelegen","municipality":{"key":"15081135","name":"Gardelegen, Hansestadt","type":"Stadt"},"district":{"key":"15081","name":"Altmarkkreis Salzwedel","type":"Landkreis"},"federalState":{"key":"15","name":"Sachsen-Anhalt"}},{"name":"Tiedgestr.","postalCode":"39638","locality":"Gardelegen","municipality":{"key":"15081135","name":"Gardelegen, Hansestadt","type":"Stadt"},"district":{"key":"15081","name":"Altmarkkreis Salzwedel","type":"Landkreis"},"federalState":{"key":"15","name":"Sachsen-Anhalt"}},{"name":"Triftweg","postalCode":"39649","locality":"Gardelegen","municipality":{"key":"15081135","name":"Gardelegen, Hansestadt","type":"Stadt"},"district":{"key":"15081","name":"Altmarkkreis Salzwedel","type":"Landkreis"},"federalState":{"key":"15","name":"Sachsen-Anhalt"}},{"name":"Trippiglebener Weg","postalCode":"39649","locality":"Gardelegen","municipality":{"key":"15081135","name":"Gardelegen, Hansestadt","type":"Stadt"},"district":{"key":"15081","name":"Altmarkkreis Salzwedel","type":"Landkreis"},"federalState":{"key":"15","name":"Sachsen-Anhalt"}},{"name":"Trüstedt","postalCode":"39638","locality":"Gardelegen","municipality":{"key":"15081135","name":"Gardelegen, Hansestadt","type":"Stadt"},"district":{"key":"15081","name":"Altmarkkreis Salzwedel","type":"Landkreis"},"federalState":{"key":"15","name":"Sachsen-Anhalt"}},{"name":"Trüstedter Str.","postalCode":"39638","locality":"Gardelegen","municipality":{"key":"15081135","name":"Gardelegen, Hansestadt","type":"Stadt"},"district":{"key":"15081","name":"Altmarkkreis Salzwedel","type":"Landkreis"},"federalState":{"key":"15","name":"Sachsen-Anhalt"}},{"name":"Ulmenweg","postalCode":"39638","locality":"Gardelegen","municipality":{"key":"15081135","name":"Gardelegen, Hansestadt","type":"Stadt"},"district":{"key":"15081","name":"Altmarkkreis Salzwedel","type":"Landkreis"},"federalState":{"key":"15","name":"Sachsen-Anhalt"}},{"name":"Unter den Linden","postalCode":"39649","locality":"Gardelegen","municipality":{"key":"15081135","name":"Gardelegen, Hansestadt","type":"Stadt"},"district":{"key":"15081","name":"Altmarkkreis Salzwedel","type":"Landkreis"},"federalState":{"key":"15","name":"Sachsen-Anhalt"}},{"name":"Vogelsangweg","postalCode":"39638","locality":"Gardelegen","municipality":{"key":"15081135","name":"Gardelegen, Hansestadt","type":"Stadt"},"district":{"key":"15081","name":"Altmarkkreis Salzwedel","type":"Landkreis"},"federalState":{"key":"15","name":"Sachsen-Anhalt"}},{"name":"Von-Alvensleben-Ring","postalCode":"39638","locality":"Gardelegen","municipality":{"key":"15081135","name":"Gardelegen, Hansestadt","type":"Stadt"},"district":{"key":"15081","name":"Altmarkkreis Salzwedel","type":"Landkreis"},"federalState":{"key":"15","name":"Sachsen-Anhalt"}},{"name":"Vor dem Salzwedeler Tor","postalCode":"39638","locality":"Gardelegen","municipality":{"key":"15081135","name":"Gardelegen, Hansestadt","type":"Stadt"},"district":{"key":"15081","name":"Altmarkkreis Salzwedel","type":"Landkreis"},"federalState":{"key":"15","name":"Sachsen-Anhalt"}},{"name":"Vordorf","postalCode":"39649","locality":"Gardelegen","municipality":{"key":"15081135","name":"Gardelegen, Hansestadt","type":"Stadt"},"district":{"key":"15081","name":"Altmarkkreis Salzwedel","type":"Landkreis"},"federalState":{"key":"15","name":"Sachsen-Anhalt"}},{"name":"Wächterstr.","postalCode":"39638","locality":"Gardelegen","municipality":{"key":"15081135","name":"Gardelegen, Hansestadt","type":"Stadt"},"district":{"key":"15081","name":"Altmarkkreis Salzwedel","type":"Landkreis"},"federalState":{"key":"15","name":"Sachsen-Anhalt"}},{"name":"Waldfrieden","postalCode":"39638","locality":"Gardelegen","municipality":{"key":"15081135","name":"Gardelegen, Hansestadt","type":"Stadt"},"district":{"key":"15081","name":"Altmarkkreis Salzwedel","type":"Landkreis"},"federalState":{"key":"15","name":"Sachsen-Anhalt"}},{"name":"Waldweg","postalCode":"39638","locality":"Gardelegen","municipality":{"key":"15081135","name":"Gardelegen, Hansestadt","type":"Stadt"},"district":{"key":"15081","name":"Altmarkkreis Salzwedel","type":"Landkreis"},"federalState":{"key":"15","name":"Sachsen-Anhalt"}},{"name":"Wall","postalCode":"39638","locality":"Gardelegen","municipality":{"key":"15081135","name":"Gardelegen, Hansestadt","type":"Stadt"},"district":{"key":"15081","name":"Altmarkkreis Salzwedel","type":"Landkreis"},"federalState":{"key":"15","name":"Sachsen-Anhalt"}},{"name":"Walther-Rathenau-Str.","postalCode":"39638","locality":"Gardelegen","municipality":{"key":"15081135","name":"Gardelegen, Hansestadt","type":"Stadt"},"district":{"key":"15081","name":"Altmarkkreis Salzwedel","type":"Landkreis"},"federalState":{"key":"15","name":"Sachsen-Anhalt"}},{"name":"Waltroper Str.","postalCode":"39638","locality":"Gardelegen","municipality":{"key":"15081135","name":"Gardelegen, Hansestadt","type":"Stadt"},"district":{"key":"15081","name":"Altmarkkreis Salzwedel","type":"Landkreis"},"federalState":{"key":"15","name":"Sachsen-Anhalt"}},{"name":"Wannefeld","postalCode":"39638","locality":"Gardelegen","municipality":{"key":"15081135","name":"Gardelegen, Hansestadt","type":"Stadt"},"district":{"key":"15081","name":"Altmarkkreis Salzwedel","type":"Landkreis"},"federalState":{"key":"15","name":"Sachsen-Anhalt"}},{"name":"Wannefelder Str.","postalCode":"39638","locality":"Gardelegen","municipality":{"key":"15081135","name":"Gardelegen, Hansestadt","type":"Stadt"},"district":{"key":"15081","name":"Altmarkkreis Salzwedel","type":"Landkreis"},"federalState":{"key":"15","name":"Sachsen-Anhalt"}},{"name":"Wasserstr.","postalCode":"39638","locality":"Gardelegen","municipality":{"key":"15081135","name":"Gardelegen, Hansestadt","type":"Stadt"},"district":{"key":"15081","name":"Altmarkkreis Salzwedel","type":"Landkreis"},"federalState":{"key":"15","name":"Sachsen-Anhalt"}},{"name":"Weg","postalCode":"39638","locality":"Gardelegen","municipality":{"key":"15081135","name":"Gardelegen, Hansestadt","type":"Stadt"},"district":{"key":"15081","name":"Altmarkkreis Salzwedel","type":"Landkreis"},"federalState":{"key":"15","name":"Sachsen-Anhalt"}},{"name":"Weinberggang","postalCode":"39638","locality":"Gardelegen","municipality":{"key":"15081135","name":"Gardelegen, Hansestadt","type":"Stadt"},"district":{"key":"15081","name":"Altmarkkreis Salzwedel","type":"Landkreis"},"federalState":{"key":"15","name":"Sachsen-Anhalt"}},{"name":"Wernerstr.","postalCode":"39638","locality":"Gardelegen","municipality":{"key":"15081135","name":"Gardelegen, Hansestadt","type":"Stadt"},"district":{"key":"15081","name":"Altmarkkreis Salzwedel","type":"Landkreis"},"federalState":{"key":"15","name":"Sachsen-Anhalt"}},{"name":"Wernitzer Str.","postalCode":"39638","locality":"Gardelegen","municipality":{"key":"15081135","name":"Gardelegen, Hansestadt","type":"Stadt"},"district":{"key":"15081","name":"Altmarkkreis Salzwedel","type":"Landkreis"},"federalState":{"key":"15","name":"Sachsen-Anhalt"}},{"name":"Weteritzer Landstr.","postalCode":"39638","locality":"Gardelegen","municipality":{"key":"15081135","name":"Gardelegen, Hansestadt","type":"Stadt"},"district":{"key":"15081","name":"Altmarkkreis Salzwedel","type":"Landkreis"},"federalState":{"key":"15","name":"Sachsen-Anhalt"}},{"name":"Weteritzer Park","postalCode":"39638","locality":"Gardelegen","municipality":{"key":"15081135","name":"Gardelegen, Hansestadt","type":"Stadt"},"district":{"key":"15081","name":"Altmarkkreis Salzwedel","type":"Landkreis"},"federalState":{"key":"15","name":"Sachsen-Anhalt"}},{"name":"Wiesenweg","postalCode":"39638","locality":"Gardelegen","municipality":{"key":"15081135","name":"Gardelegen, Hansestadt","type":"Stadt"},"district":{"key":"15081","name":"Altmarkkreis Salzwedel","type":"Landkreis"},"federalState":{"key":"15","name":"Sachsen-Anhalt"}},{"name":"Wildrosenweg","postalCode":"39638","locality":"Gardelegen","municipality":{"key":"15081135","name":"Gardelegen, Hansestadt","type":"Stadt"},"district":{"key":"15081","name":"Altmarkkreis Salzwedel","type":"Landkreis"},"federalState":{"key":"15","name":"Sachsen-Anhalt"}},{"name":"Wilhelmstr.","postalCode":"39649","locality":"Gardelegen","municipality":{"key":"15081135","name":"Gardelegen, Hansestadt","type":"Stadt"},"district":{"key":"15081","name":"Altmarkkreis Salzwedel","type":"Landkreis"},"federalState":{"key":"15","name":"Sachsen-Anhalt"}},{"name":"Winkel","postalCode":"39638","locality":"Gardelegen","municipality":{"key":"15081135","name":"Gardelegen, Hansestadt","type":"Stadt"},"district":{"key":"15081","name":"Altmarkkreis Salzwedel","type":"Landkreis"},"federalState":{"key":"15","name":"Sachsen-Anhalt"}},{"name":"Zeisigweg","postalCode":"39638","locality":"Gardelegen","municipality":{"key":"15081135","name":"Gardelegen, Hansestadt","type":"Stadt"},"district":{"key":"15081","name":"Altmarkkreis Salzwedel","type":"Landkreis"},"federalState":{"key":"15","name":"Sachsen-Anhalt"}},{"name":"Zichtauer Str.","postalCode":"39638","locality":"Gardelegen","municipality":{"key":"15081135","name":"Gardelegen, Hansestadt","type":"Stadt"},"district":{"key":"15081","name":"Altmarkkreis Salzwedel","type":"Landkreis"},"federalState":{"key":"15","name":"Sachsen-Anhalt"}},{"name":"Zichtauer Weg","postalCode":"39638","locality":"Gardelegen","municipality":{"key":"15081135","name":"Gardelegen, Hansestadt","type":"Stadt"},"district":{"key":"15081","name":"Altmarkkreis Salzwedel","type":"Landkreis"},"federalState":{"key":"15","name":"Sachsen-Anhalt"}},{"name":"Zichtauer Weg","postalCode":"39649","locality":"Gardelegen","municipality":{"key":"15081135","name":"Gardelegen, Hansestadt","type":"Stadt"},"district":{"key":"15081","name":"Altmarkkreis Salzwedel","type":"Landkreis"},"federalState":{"key":"15","name":"Sachsen-Anhalt"}},{"name":"Ziegelhof","postalCode":"39638","locality":"Gardelegen","municipality":{"key":"15081135","name":"Gardelegen, Hansestadt","type":"Stadt"},"district":{"key":"15081","name":"Altmarkkreis Salzwedel","type":"Landkreis"},"federalState":{"key":"15","name":"Sachsen-Anhalt"}},{"name":"Zienauer Weg","postalCode":"39638","locality":"Gardelegen","municipality":{"key":"15081135","name":"Gardelegen, Hansestadt","type":"Stadt"},"district":{"key":"15081","name":"Altmarkkreis Salzwedel","type":"Landkreis"},"federalState":{"key":"15","name":"Sachsen-Anhalt"}},{"name":"Ziepel","postalCode":"39638","locality":"Gardelegen","municipality":{"key":"15081135","name":"Gardelegen, Hansestadt","type":"Stadt"},"district":{"key":"15081","name":"Altmarkkreis Salzwedel","type":"Landkreis"},"federalState":{"key":"15","name":"Sachsen-Anhalt"}},{"name":"Ziepeler Weg","postalCode":"39638","locality":"Gardelegen","municipality":{"key":"15081135","name":"Gardelegen, Hansestadt","type":"Stadt"},"district":{"key":"15081","name":"Altmarkkreis Salzwedel","type":"Landkreis"},"federalState":{"key":"15","name":"Sachsen-Anhalt"}},{"name":"Zum Bahnhof","postalCode":"39638","locality":"Gardelegen","municipality":{"key":"15081135","name":"Gardelegen, Hansestadt","type":"Stadt"},"district":{"key":"15081","name":"Altmarkkreis Salzwedel","type":"Landkreis"},"federalState":{"key":"15","name":"Sachsen-Anhalt"}},{"name":"Zum Dorfkrug","postalCode":"39649","locality":"Gardelegen","municipality":{"key":"15081135","name":"Gardelegen, Hansestadt","type":"Stadt"},"district":{"key":"15081","name":"Altmarkkreis Salzwedel","type":"Landkreis"},"federalState":{"key":"15","name":"Sachsen-Anhalt"}},{"name":"Zum Dornbusch","postalCode":"39638","locality":"Gardelegen","municipality":{"key":"15081135","name":"Gardelegen, Hansestadt","type":"Stadt"},"district":{"key":"15081","name":"Altmarkkreis Salzwedel","type":"Landkreis"},"federalState":{"key":"15","name":"Sachsen-Anhalt"}},{"name":"Zum Lindengut","postalCode":"39638","locality":"Gardelegen","municipality":{"key":"15081135","name":"Gardelegen, Hansestadt","type":"Stadt"},"district":{"key":"15081","name":"Altmarkkreis Salzwedel","type":"Landkreis"},"federalState":{"key":"15","name":"Sachsen-Anhalt"}},{"name":"Zum neuen Damm","postalCode":"39649","locality":"Gardelegen","municipality":{"key":"15081135","name":"Gardelegen, Hansestadt","type":"Stadt"},"district":{"key":"15081","name":"Altmarkkreis Salzwedel","type":"Landkreis"},"federalState":{"key":"15","name":"Sachsen-Anhalt"}},{"name":"Zum Prinzendamm","postalCode":"39638","locality":"Gardelegen","municipality":{"key":"15081135","name":"Gardelegen, Hansestadt","type":"Stadt"},"district":{"key":"15081","name":"Altmarkkreis Salzwedel","type":"Landkreis"},"federalState":{"key":"15","name":"Sachsen-Anhalt"}},{"name":"Zum Seerabenberg","postalCode":"39638","locality":"Gardelegen","municipality":{"key":"15081135","name":"Gardelegen, Hansestadt","type":"Stadt"},"district":{"key":"15081","name":"Altmarkkreis Salzwedel","type":"Landkreis"},"federalState":{"key":"15","name":"Sachsen-Anhalt"}},{"name":"Zum Tempelberg","postalCode":"39638","locality":"Gardelegen","municipality":{"key":"15081135","name":"Gardelegen, Hansestadt","type":"Stadt"},"district":{"key":"15081","name":"Altmarkkreis Salzwedel","type":"Landkreis"},"federalState":{"key":"15","name":"Sachsen-Anhalt"}},{"name":"Zur Milde","postalCode":"39638","locality":"Gardelegen","municipality":{"key":"15081135","name":"Gardelegen, Hansestadt","type":"Stadt"},"district":{"key":"15081","name":"Altmarkkreis Salzwedel","type":"Landkreis"},"federalState":{"key":"15","name":"Sachsen-Anhalt"}},{"name":"Zur Schmalen Gehre","postalCode":"39638","locality":"Gardelegen","municipality":{"key":"15081135","name":"Gardelegen, Hansestadt","type":"Stadt"},"district":{"key":"15081","name":"Altmarkkreis Salzwedel","type":"Landkreis"},"federalState":{"key":"15","name":"Sachsen-Anhalt"}},{"name":"Zur Walzenmühle","postalCode":"39638","locality":"Gardelegen","municipality":{"key":"15081135","name":"Gardelegen, Hansestadt","type":"Stadt"},"district":{"key":"15081","name":"Altmarkkreis Salzwedel","type":"Landkreis"},"federalState":{"key":"15","name":"Sachsen-Anhalt"}},]