[{"name":"Am Denkmal","postalCode":"29396","locality":"Schönewörde","municipality":{"key":"03151026","name":"Schönewörde","type":"Kreisangehörige_Gemeinde"},"district":{"key":"03151","name":"Gifhorn","type":"Landkreis"},"federalState":{"key":"03","name":"Niedersachsen"}},{"name":"Am Försterhof","postalCode":"29396","locality":"Schönewörde","municipality":{"key":"03151026","name":"Schönewörde","type":"Kreisangehörige_Gemeinde"},"district":{"key":"03151","name":"Gifhorn","type":"Landkreis"},"federalState":{"key":"03","name":"Niedersachsen"}},{"name":"Am Kamp","postalCode":"29396","locality":"Schönewörde","municipality":{"key":"03151026","name":"Schönewörde","type":"Kreisangehörige_Gemeinde"},"district":{"key":"03151","name":"Gifhorn","type":"Landkreis"},"federalState":{"key":"03","name":"Niedersachsen"}},{"name":"Am Leu","postalCode":"29396","locality":"Schönewörde","municipality":{"key":"03151026","name":"Schönewörde","type":"Kreisangehörige_Gemeinde"},"district":{"key":"03151","name":"Gifhorn","type":"Landkreis"},"federalState":{"key":"03","name":"Niedersachsen"}},{"name":"Amselweg","postalCode":"29396","locality":"Schönewörde","municipality":{"key":"03151026","name":"Schönewörde","type":"Kreisangehörige_Gemeinde"},"district":{"key":"03151","name":"Gifhorn","type":"Landkreis"},"federalState":{"key":"03","name":"Niedersachsen"}},{"name":"Bahnhofsweg","postalCode":"29396","locality":"Schönewörde","municipality":{"key":"03151026","name":"Schönewörde","type":"Kreisangehörige_Gemeinde"},"district":{"key":"03151","name":"Gifhorn","type":"Landkreis"},"federalState":{"key":"03","name":"Niedersachsen"}},{"name":"Berendfeld","postalCode":"29396","locality":"Schönewörde","municipality":{"key":"03151026","name":"Schönewörde","type":"Kreisangehörige_Gemeinde"},"district":{"key":"03151","name":"Gifhorn","type":"Landkreis"},"federalState":{"key":"03","name":"Niedersachsen"}},{"name":"Buchhorstweg","postalCode":"29396","locality":"Schönewörde","municipality":{"key":"03151026","name":"Schönewörde","type":"Kreisangehörige_Gemeinde"},"district":{"key":"03151","name":"Gifhorn","type":"Landkreis"},"federalState":{"key":"03","name":"Niedersachsen"}},{"name":"Calberlaher Damm","postalCode":"38518","locality":"Gifhorn","municipality":{"key":"03151009","name":"Gifhorn, Stadt","type":"Stadt"},"district":{"key":"03151","name":"Gifhorn","type":"Landkreis"},"federalState":{"key":"03","name":"Niedersachsen"}},{"name":"Camminer Str.","postalCode":"38518","locality":"Gifhorn","municipality":{"key":"03151009","name":"Gifhorn, Stadt","type":"Stadt"},"district":{"key":"03151","name":"Gifhorn","type":"Landkreis"},"federalState":{"key":"03","name":"Niedersachsen"}},{"name":"Campus","postalCode":"38518","locality":"Gifhorn","municipality":{"key":"03151009","name":"Gifhorn, Stadt","type":"Stadt"},"district":{"key":"03151","name":"Gifhorn","type":"Landkreis"},"federalState":{"key":"03","name":"Niedersachsen"}},{"name":"Cardenap","postalCode":"38518","locality":"Gifhorn","municipality":{"key":"03151009","name":"Gifhorn, Stadt","type":"Stadt"},"district":{"key":"03151","name":"Gifhorn","type":"Landkreis"},"federalState":{"key":"03","name":"Niedersachsen"}},{"name":"Carl-Diem-Str.","postalCode":"38518","locality":"Gifhorn","municipality":{"key":"03151009","name":"Gifhorn, Stadt","type":"Stadt"},"district":{"key":"03151","name":"Gifhorn","type":"Landkreis"},"federalState":{"key":"03","name":"Niedersachsen"}},{"name":"Carl-Goerdeler-Ring","postalCode":"38518","locality":"Gifhorn","municipality":{"key":"03151009","name":"Gifhorn, Stadt","type":"Stadt"},"district":{"key":"03151","name":"Gifhorn","type":"Landkreis"},"federalState":{"key":"03","name":"Niedersachsen"}},{"name":"Carl-Miele-Str.","postalCode":"38518","locality":"Gifhorn","municipality":{"key":"03151009","name":"Gifhorn, Stadt","type":"Stadt"},"district":{"key":"03151","name":"Gifhorn","type":"Landkreis"},"federalState":{"key":"03","name":"Niedersachsen"}},{"name":"Carl-Zeiss-Str.","postalCode":"38518","locality":"Gifhorn","municipality":{"key":"03151009","name":"Gifhorn, Stadt","type":"Stadt"},"district":{"key":"03151","name":"Gifhorn","type":"Landkreis"},"federalState":{"key":"03","name":"Niedersachsen"}},{"name":"Celler Str.","postalCode":"38518","locality":"Gifhorn","municipality":{"key":"03151009","name":"Gifhorn, Stadt","type":"Stadt"},"district":{"key":"03151","name":"Gifhorn","type":"Landkreis"},"federalState":{"key":"03","name":"Niedersachsen"}},{"name":"Celler Weg","postalCode":"38518","locality":"Gifhorn","municipality":{"key":"03151009","name":"Gifhorn, Stadt","type":"Stadt"},"district":{"key":"03151","name":"Gifhorn","type":"Landkreis"},"federalState":{"key":"03","name":"Niedersachsen"}},{"name":"Charlottenburger Str.","postalCode":"38518","locality":"Gifhorn","municipality":{"key":"03151009","name":"Gifhorn, Stadt","type":"Stadt"},"district":{"key":"03151","name":"Gifhorn","type":"Landkreis"},"federalState":{"key":"03","name":"Niedersachsen"}},{"name":"Christian-Olfermann-Str.","postalCode":"38518","locality":"Gifhorn","municipality":{"key":"03151009","name":"Gifhorn, Stadt","type":"Stadt"},"district":{"key":"03151","name":"Gifhorn","type":"Landkreis"},"federalState":{"key":"03","name":"Niedersachsen"}},{"name":"Claus-von-Stauffenberg-Str.","postalCode":"38518","locality":"Gifhorn","municipality":{"key":"03151009","name":"Gifhorn, Stadt","type":"Stadt"},"district":{"key":"03151","name":"Gifhorn","type":"Landkreis"},"federalState":{"key":"03","name":"Niedersachsen"}},{"name":"Dannheitzfeld","postalCode":"29396","locality":"Schönewörde","municipality":{"key":"03151026","name":"Schönewörde","type":"Kreisangehörige_Gemeinde"},"district":{"key":"03151","name":"Gifhorn","type":"Landkreis"},"federalState":{"key":"03","name":"Niedersachsen"}},{"name":"Dorfplatz","postalCode":"29396","locality":"Schönewörde","municipality":{"key":"03151026","name":"Schönewörde","type":"Kreisangehörige_Gemeinde"},"district":{"key":"03151","name":"Gifhorn","type":"Landkreis"},"federalState":{"key":"03","name":"Niedersachsen"}},{"name":"Dorfstr.","postalCode":"29396","locality":"Schönewörde","municipality":{"key":"03151026","name":"Schönewörde","type":"Kreisangehörige_Gemeinde"},"district":{"key":"03151","name":"Gifhorn","type":"Landkreis"},"federalState":{"key":"03","name":"Niedersachsen"}},{"name":"Drosselweg","postalCode":"29396","locality":"Schönewörde","municipality":{"key":"03151026","name":"Schönewörde","type":"Kreisangehörige_Gemeinde"},"district":{"key":"03151","name":"Gifhorn","type":"Landkreis"},"federalState":{"key":"03","name":"Niedersachsen"}},{"name":"Efeuweg","postalCode":"38518","locality":"Gifhorn","municipality":{"key":"03151009","name":"Gifhorn, Stadt","type":"Stadt"},"district":{"key":"03151","name":"Gifhorn","type":"Landkreis"},"federalState":{"key":"03","name":"Niedersachsen"}},{"name":"Egerländer Weg","postalCode":"38518","locality":"Gifhorn","municipality":{"key":"03151009","name":"Gifhorn, Stadt","type":"Stadt"},"district":{"key":"03151","name":"Gifhorn","type":"Landkreis"},"federalState":{"key":"03","name":"Niedersachsen"}},{"name":"Eichenkamp","postalCode":"38518","locality":"Gifhorn","municipality":{"key":"03151009","name":"Gifhorn, Stadt","type":"Stadt"},"district":{"key":"03151","name":"Gifhorn","type":"Landkreis"},"federalState":{"key":"03","name":"Niedersachsen"}},{"name":"Eichkamp","postalCode":"38518","locality":"Gifhorn","municipality":{"key":"03151009","name":"Gifhorn, Stadt","type":"Stadt"},"district":{"key":"03151","name":"Gifhorn","type":"Landkreis"},"federalState":{"key":"03","name":"Niedersachsen"}},{"name":"Elbinger Str.","postalCode":"38518","locality":"Gifhorn","municipality":{"key":"03151009","name":"Gifhorn, Stadt","type":"Stadt"},"district":{"key":"03151","name":"Gifhorn","type":"Landkreis"},"federalState":{"key":"03","name":"Niedersachsen"}},{"name":"Elbinger Weg","postalCode":"38518","locality":"Gifhorn","municipality":{"key":"03151009","name":"Gifhorn, Stadt","type":"Stadt"},"district":{"key":"03151","name":"Gifhorn","type":"Landkreis"},"federalState":{"key":"03","name":"Niedersachsen"}},{"name":"Elisabeth-Liedy-Str.","postalCode":"38518","locality":"Gifhorn","municipality":{"key":"03151009","name":"Gifhorn, Stadt","type":"Stadt"},"district":{"key":"03151","name":"Gifhorn","type":"Landkreis"},"federalState":{"key":"03","name":"Niedersachsen"}},{"name":"Elisabeth-Schwarzhaupt-Str.","postalCode":"38518","locality":"Gifhorn","municipality":{"key":"03151009","name":"Gifhorn, Stadt","type":"Stadt"},"district":{"key":"03151","name":"Gifhorn","type":"Landkreis"},"federalState":{"key":"03","name":"Niedersachsen"}},{"name":"Elisabeth-Selbert-Anger","postalCode":"38518","locality":"Gifhorn","municipality":{"key":"03151009","name":"Gifhorn, Stadt","type":"Stadt"},"district":{"key":"03151","name":"Gifhorn","type":"Landkreis"},"federalState":{"key":"03","name":"Niedersachsen"}},{"name":"Elsternweg","postalCode":"38518","locality":"Gifhorn","municipality":{"key":"03151009","name":"Gifhorn, Stadt","type":"Stadt"},"district":{"key":"03151","name":"Gifhorn","type":"Landkreis"},"federalState":{"key":"03","name":"Niedersachsen"}},{"name":"Emma-Wrede-Ring","postalCode":"38518","locality":"Gifhorn","municipality":{"key":"03151009","name":"Gifhorn, Stadt","type":"Stadt"},"district":{"key":"03151","name":"Gifhorn","type":"Landkreis"},"federalState":{"key":"03","name":"Niedersachsen"}},{"name":"Erich-Schaper-Str.","postalCode":"38518","locality":"Gifhorn","municipality":{"key":"03151009","name":"Gifhorn, Stadt","type":"Stadt"},"district":{"key":"03151","name":"Gifhorn","type":"Landkreis"},"federalState":{"key":"03","name":"Niedersachsen"}},{"name":"Erikaweg","postalCode":"38518","locality":"Gifhorn","municipality":{"key":"03151009","name":"Gifhorn, Stadt","type":"Stadt"},"district":{"key":"03151","name":"Gifhorn","type":"Landkreis"},"federalState":{"key":"03","name":"Niedersachsen"}},{"name":"Erlenkamp","postalCode":"38518","locality":"Gifhorn","municipality":{"key":"03151009","name":"Gifhorn, Stadt","type":"Stadt"},"district":{"key":"03151","name":"Gifhorn","type":"Landkreis"},"federalState":{"key":"03","name":"Niedersachsen"}},{"name":"Ermlandweg","postalCode":"38518","locality":"Gifhorn","municipality":{"key":"03151009","name":"Gifhorn, Stadt","type":"Stadt"},"district":{"key":"03151","name":"Gifhorn","type":"Landkreis"},"federalState":{"key":"03","name":"Niedersachsen"}},{"name":"Ernst-Höfermann-Weg","postalCode":"38518","locality":"Gifhorn","municipality":{"key":"03151009","name":"Gifhorn, Stadt","type":"Stadt"},"district":{"key":"03151","name":"Gifhorn","type":"Landkreis"},"federalState":{"key":"03","name":"Niedersachsen"}},{"name":"Ernst-Reuter-Str.","postalCode":"38518","locality":"Gifhorn","municipality":{"key":"03151009","name":"Gifhorn, Stadt","type":"Stadt"},"district":{"key":"03151","name":"Gifhorn","type":"Landkreis"},"federalState":{"key":"03","name":"Niedersachsen"}},{"name":"ES-Pulschmoor","postalCode":"38518","locality":"Gifhorn","municipality":{"key":"03151009","name":"Gifhorn, Stadt","type":"Stadt"},"district":{"key":"03151","name":"Gifhorn","type":"Landkreis"},"federalState":{"key":"03","name":"Niedersachsen"}},{"name":"Eyßelheideweg","postalCode":"38518","locality":"Gifhorn","municipality":{"key":"03151009","name":"Gifhorn, Stadt","type":"Stadt"},"district":{"key":"03151","name":"Gifhorn","type":"Landkreis"},"federalState":{"key":"03","name":"Niedersachsen"}},{"name":"Eyßelkamp","postalCode":"38518","locality":"Gifhorn","municipality":{"key":"03151009","name":"Gifhorn, Stadt","type":"Stadt"},"district":{"key":"03151","name":"Gifhorn","type":"Landkreis"},"federalState":{"key":"03","name":"Niedersachsen"}},{"name":"Feldstr.","postalCode":"29396","locality":"Schönewörde","municipality":{"key":"03151026","name":"Schönewörde","type":"Kreisangehörige_Gemeinde"},"district":{"key":"03151","name":"Gifhorn","type":"Landkreis"},"federalState":{"key":"03","name":"Niedersachsen"}},{"name":"Finkenweg","postalCode":"29396","locality":"Schönewörde","municipality":{"key":"03151026","name":"Schönewörde","type":"Kreisangehörige_Gemeinde"},"district":{"key":"03151","name":"Gifhorn","type":"Landkreis"},"federalState":{"key":"03","name":"Niedersachsen"}},{"name":"Großer Wiesenweg","postalCode":"29396","locality":"Schönewörde","municipality":{"key":"03151026","name":"Schönewörde","type":"Kreisangehörige_Gemeinde"},"district":{"key":"03151","name":"Gifhorn","type":"Landkreis"},"federalState":{"key":"03","name":"Niedersachsen"}},{"name":"Hagenkamp","postalCode":"29396","locality":"Schönewörde","municipality":{"key":"03151026","name":"Schönewörde","type":"Kreisangehörige_Gemeinde"},"district":{"key":"03151","name":"Gifhorn","type":"Landkreis"},"federalState":{"key":"03","name":"Niedersachsen"}},{"name":"Heidberg","postalCode":"29396","locality":"Schönewörde","municipality":{"key":"03151026","name":"Schönewörde","type":"Kreisangehörige_Gemeinde"},"district":{"key":"03151","name":"Gifhorn","type":"Landkreis"},"federalState":{"key":"03","name":"Niedersachsen"}},{"name":"Hesterbergweg","postalCode":"29396","locality":"Schönewörde","municipality":{"key":"03151026","name":"Schönewörde","type":"Kreisangehörige_Gemeinde"},"district":{"key":"03151","name":"Gifhorn","type":"Landkreis"},"federalState":{"key":"03","name":"Niedersachsen"}},{"name":"Hirtenweg","postalCode":"29396","locality":"Schönewörde","municipality":{"key":"03151026","name":"Schönewörde","type":"Kreisangehörige_Gemeinde"},"district":{"key":"03151","name":"Gifhorn","type":"Landkreis"},"federalState":{"key":"03","name":"Niedersachsen"}},{"name":"Im Winkel","postalCode":"29396","locality":"Schönewörde","municipality":{"key":"03151026","name":"Schönewörde","type":"Kreisangehörige_Gemeinde"},"district":{"key":"03151","name":"Gifhorn","type":"Landkreis"},"federalState":{"key":"03","name":"Niedersachsen"}},{"name":"Jägerstr.","postalCode":"38518","locality":"Gifhorn","municipality":{"key":"03151009","name":"Gifhorn, Stadt","type":"Stadt"},"district":{"key":"03151","name":"Gifhorn","type":"Landkreis"},"federalState":{"key":"03","name":"Niedersachsen"}},{"name":"Jahnweg","postalCode":"38518","locality":"Gifhorn","municipality":{"key":"03151009","name":"Gifhorn, Stadt","type":"Stadt"},"district":{"key":"03151","name":"Gifhorn","type":"Landkreis"},"federalState":{"key":"03","name":"Niedersachsen"}},{"name":"Jakob-Büchel-Str.","postalCode":"38518","locality":"Gifhorn","municipality":{"key":"03151009","name":"Gifhorn, Stadt","type":"Stadt"},"district":{"key":"03151","name":"Gifhorn","type":"Landkreis"},"federalState":{"key":"03","name":"Niedersachsen"}},{"name":"Jakob-Kaiser-Weg","postalCode":"38518","locality":"Gifhorn","municipality":{"key":"03151009","name":"Gifhorn, Stadt","type":"Stadt"},"district":{"key":"03151","name":"Gifhorn","type":"Landkreis"},"federalState":{"key":"03","name":"Niedersachsen"}},{"name":"Johann-Trollmann-Weg","postalCode":"38518","locality":"Gifhorn","municipality":{"key":"03151009","name":"Gifhorn, Stadt","type":"Stadt"},"district":{"key":"03151","name":"Gifhorn","type":"Landkreis"},"federalState":{"key":"03","name":"Niedersachsen"}},{"name":"Juister Weg","postalCode":"38518","locality":"Gifhorn","municipality":{"key":"03151009","name":"Gifhorn, Stadt","type":"Stadt"},"district":{"key":"03151","name":"Gifhorn","type":"Landkreis"},"federalState":{"key":"03","name":"Niedersachsen"}},{"name":"Julius-Leber-Str.","postalCode":"38518","locality":"Gifhorn","municipality":{"key":"03151009","name":"Gifhorn, Stadt","type":"Stadt"},"district":{"key":"03151","name":"Gifhorn","type":"Landkreis"},"federalState":{"key":"03","name":"Niedersachsen"}},{"name":"Katerberg","postalCode":"29396","locality":"Schönewörde","municipality":{"key":"03151026","name":"Schönewörde","type":"Kreisangehörige_Gemeinde"},"district":{"key":"03151","name":"Gifhorn","type":"Landkreis"},"federalState":{"key":"03","name":"Niedersachsen"}},{"name":"Kurzer Weg","postalCode":"29396","locality":"Schönewörde","municipality":{"key":"03151026","name":"Schönewörde","type":"Kreisangehörige_Gemeinde"},"district":{"key":"03151","name":"Gifhorn","type":"Landkreis"},"federalState":{"key":"03","name":"Niedersachsen"}},{"name":"Lerchenweg","postalCode":"29396","locality":"Schönewörde","municipality":{"key":"03151026","name":"Schönewörde","type":"Kreisangehörige_Gemeinde"},"district":{"key":"03151","name":"Gifhorn","type":"Landkreis"},"federalState":{"key":"03","name":"Niedersachsen"}},{"name":"Lindenstr.","postalCode":"29396","locality":"Schönewörde","municipality":{"key":"03151026","name":"Schönewörde","type":"Kreisangehörige_Gemeinde"},"district":{"key":"03151","name":"Gifhorn","type":"Landkreis"},"federalState":{"key":"03","name":"Niedersachsen"}},{"name":"Lootsche Weg","postalCode":"29396","locality":"Schönewörde","municipality":{"key":"03151026","name":"Schönewörde","type":"Kreisangehörige_Gemeinde"},"district":{"key":"03151","name":"Gifhorn","type":"Landkreis"},"federalState":{"key":"03","name":"Niedersachsen"}},{"name":"Meisenweg","postalCode":"29396","locality":"Schönewörde","municipality":{"key":"03151026","name":"Schönewörde","type":"Kreisangehörige_Gemeinde"},"district":{"key":"03151","name":"Gifhorn","type":"Landkreis"},"federalState":{"key":"03","name":"Niedersachsen"}},{"name":"Narzissenweg","postalCode":"38518","locality":"Gifhorn","municipality":{"key":"03151009","name":"Gifhorn, Stadt","type":"Stadt"},"district":{"key":"03151","name":"Gifhorn","type":"Landkreis"},"federalState":{"key":"03","name":"Niedersachsen"}},{"name":"Neidenburger Str.","postalCode":"38518","locality":"Gifhorn","municipality":{"key":"03151009","name":"Gifhorn, Stadt","type":"Stadt"},"district":{"key":"03151","name":"Gifhorn","type":"Landkreis"},"federalState":{"key":"03","name":"Niedersachsen"}},{"name":"Nelkenweg","postalCode":"38518","locality":"Gifhorn","municipality":{"key":"03151009","name":"Gifhorn, Stadt","type":"Stadt"},"district":{"key":"03151","name":"Gifhorn","type":"Landkreis"},"federalState":{"key":"03","name":"Niedersachsen"}},{"name":"Neubokeler Str.","postalCode":"38518","locality":"Gifhorn","municipality":{"key":"03151009","name":"Gifhorn, Stadt","type":"Stadt"},"district":{"key":"03151","name":"Gifhorn","type":"Landkreis"},"federalState":{"key":"03","name":"Niedersachsen"}},{"name":"Neue Str.","postalCode":"38518","locality":"Gifhorn","municipality":{"key":"03151009","name":"Gifhorn, Stadt","type":"Stadt"},"district":{"key":"03151","name":"Gifhorn","type":"Landkreis"},"federalState":{"key":"03","name":"Niedersachsen"}},{"name":"Neu Waldhof","postalCode":"38518","locality":"Gifhorn","municipality":{"key":"03151009","name":"Gifhorn, Stadt","type":"Stadt"},"district":{"key":"03151","name":"Gifhorn","type":"Landkreis"},"federalState":{"key":"03","name":"Niedersachsen"}},{"name":"Nordhoffstr.","postalCode":"38518","locality":"Gifhorn","municipality":{"key":"03151009","name":"Gifhorn, Stadt","type":"Stadt"},"district":{"key":"03151","name":"Gifhorn","type":"Landkreis"},"federalState":{"key":"03","name":"Niedersachsen"}},{"name":"Oldaustr.","postalCode":"38518","locality":"Gifhorn","municipality":{"key":"03151009","name":"Gifhorn, Stadt","type":"Stadt"},"district":{"key":"03151","name":"Gifhorn","type":"Landkreis"},"federalState":{"key":"03","name":"Niedersachsen"}},{"name":"Orchideenweg","postalCode":"38518","locality":"Gifhorn","municipality":{"key":"03151009","name":"Gifhorn, Stadt","type":"Stadt"},"district":{"key":"03151","name":"Gifhorn","type":"Landkreis"},"federalState":{"key":"03","name":"Niedersachsen"}},{"name":"Ortfeld","postalCode":"38518","locality":"Gifhorn","municipality":{"key":"03151009","name":"Gifhorn, Stadt","type":"Stadt"},"district":{"key":"03151","name":"Gifhorn","type":"Landkreis"},"federalState":{"key":"03","name":"Niedersachsen"}},{"name":"Osterberg","postalCode":"38518","locality":"Gifhorn","municipality":{"key":"03151009","name":"Gifhorn, Stadt","type":"Stadt"},"district":{"key":"03151","name":"Gifhorn","type":"Landkreis"},"federalState":{"key":"03","name":"Niedersachsen"}},{"name":"Osttangente","postalCode":"38518","locality":"Gifhorn","municipality":{"key":"03151009","name":"Gifhorn, Stadt","type":"Stadt"},"district":{"key":"03151","name":"Gifhorn","type":"Landkreis"},"federalState":{"key":"03","name":"Niedersachsen"}},{"name":"Otto-Heuer-Str.","postalCode":"38518","locality":"Gifhorn","municipality":{"key":"03151009","name":"Gifhorn, Stadt","type":"Stadt"},"district":{"key":"03151","name":"Gifhorn","type":"Landkreis"},"federalState":{"key":"03","name":"Niedersachsen"}},{"name":"Ottostr.","postalCode":"38518","locality":"Gifhorn","municipality":{"key":"03151009","name":"Gifhorn, Stadt","type":"Stadt"},"district":{"key":"03151","name":"Gifhorn","type":"Landkreis"},"federalState":{"key":"03","name":"Niedersachsen"}},{"name":"Platendorfer Str.","postalCode":"29396","locality":"Schönewörde","municipality":{"key":"03151026","name":"Schönewörde","type":"Kreisangehörige_Gemeinde"},"district":{"key":"03151","name":"Gifhorn","type":"Landkreis"},"federalState":{"key":"03","name":"Niedersachsen"}},{"name":"Postdamm","postalCode":"29396","locality":"Schönewörde","municipality":{"key":"03151026","name":"Schönewörde","type":"Kreisangehörige_Gemeinde"},"district":{"key":"03151","name":"Gifhorn","type":"Landkreis"},"federalState":{"key":"03","name":"Niedersachsen"}},{"name":"Postweg","postalCode":"29396","locality":"Schönewörde","municipality":{"key":"03151026","name":"Schönewörde","type":"Kreisangehörige_Gemeinde"},"district":{"key":"03151","name":"Gifhorn","type":"Landkreis"},"federalState":{"key":"03","name":"Niedersachsen"}},{"name":"Preussagstr.","postalCode":"29396","locality":"Schönewörde","municipality":{"key":"03151026","name":"Schönewörde","type":"Kreisangehörige_Gemeinde"},"district":{"key":"03151","name":"Gifhorn","type":"Landkreis"},"federalState":{"key":"03","name":"Niedersachsen"}},{"name":"Querkamp","postalCode":"29396","locality":"Schönewörde","municipality":{"key":"03151026","name":"Schönewörde","type":"Kreisangehörige_Gemeinde"},"district":{"key":"03151","name":"Gifhorn","type":"Landkreis"},"federalState":{"key":"03","name":"Niedersachsen"}},{"name":"Reineckenweg","postalCode":"29396","locality":"Schönewörde","municipality":{"key":"03151026","name":"Schönewörde","type":"Kreisangehörige_Gemeinde"},"district":{"key":"03151","name":"Gifhorn","type":"Landkreis"},"federalState":{"key":"03","name":"Niedersachsen"}},{"name":"Rietberg","postalCode":"29396","locality":"Schönewörde","municipality":{"key":"03151026","name":"Schönewörde","type":"Kreisangehörige_Gemeinde"},"district":{"key":"03151","name":"Gifhorn","type":"Landkreis"},"federalState":{"key":"03","name":"Niedersachsen"}},{"name":"Ringstr.","postalCode":"29396","locality":"Schönewörde","municipality":{"key":"03151026","name":"Schönewörde","type":"Kreisangehörige_Gemeinde"},"district":{"key":"03151","name":"Gifhorn","type":"Landkreis"},"federalState":{"key":"03","name":"Niedersachsen"}},{"name":"Schulweg","postalCode":"29396","locality":"Schönewörde","municipality":{"key":"03151026","name":"Schönewörde","type":"Kreisangehörige_Gemeinde"},"district":{"key":"03151","name":"Gifhorn","type":"Landkreis"},"federalState":{"key":"03","name":"Niedersachsen"}},{"name":"Schützenstr.","postalCode":"29396","locality":"Schönewörde","municipality":{"key":"03151026","name":"Schönewörde","type":"Kreisangehörige_Gemeinde"},"district":{"key":"03151","name":"Gifhorn","type":"Landkreis"},"federalState":{"key":"03","name":"Niedersachsen"}},{"name":"Schwarzburg","postalCode":"29396","locality":"Schönewörde","municipality":{"key":"03151026","name":"Schönewörde","type":"Kreisangehörige_Gemeinde"},"district":{"key":"03151","name":"Gifhorn","type":"Landkreis"},"federalState":{"key":"03","name":"Niedersachsen"}},{"name":"Schwarzburgweg","postalCode":"29396","locality":"Schönewörde","municipality":{"key":"03151026","name":"Schönewörde","type":"Kreisangehörige_Gemeinde"},"district":{"key":"03151","name":"Gifhorn","type":"Landkreis"},"federalState":{"key":"03","name":"Niedersachsen"}},{"name":"Söhlenweg","postalCode":"29396","locality":"Schönewörde","municipality":{"key":"03151026","name":"Schönewörde","type":"Kreisangehörige_Gemeinde"},"district":{"key":"03151","name":"Gifhorn","type":"Landkreis"},"federalState":{"key":"03","name":"Niedersachsen"}},{"name":"Tangermünder Str.","postalCode":"38518","locality":"Gifhorn","municipality":{"key":"03151009","name":"Gifhorn, Stadt","type":"Stadt"},"district":{"key":"03151","name":"Gifhorn","type":"Landkreis"},"federalState":{"key":"03","name":"Niedersachsen"}},{"name":"Tannengrund","postalCode":"38518","locality":"Gifhorn","municipality":{"key":"03151009","name":"Gifhorn, Stadt","type":"Stadt"},"district":{"key":"03151","name":"Gifhorn","type":"Landkreis"},"federalState":{"key":"03","name":"Niedersachsen"}},{"name":"Tegeler Str.","postalCode":"38518","locality":"Gifhorn","municipality":{"key":"03151009","name":"Gifhorn, Stadt","type":"Stadt"},"district":{"key":"03151","name":"Gifhorn","type":"Landkreis"},"federalState":{"key":"03","name":"Niedersachsen"}},{"name":"Teichwiesenweg","postalCode":"38518","locality":"Gifhorn","municipality":{"key":"03151009","name":"Gifhorn, Stadt","type":"Stadt"},"district":{"key":"03151","name":"Gifhorn","type":"Landkreis"},"federalState":{"key":"03","name":"Niedersachsen"}},{"name":"Tempelhofer Str.","postalCode":"38518","locality":"Gifhorn","municipality":{"key":"03151009","name":"Gifhorn, Stadt","type":"Stadt"},"district":{"key":"03151","name":"Gifhorn","type":"Landkreis"},"federalState":{"key":"03","name":"Niedersachsen"}},{"name":"Theodor-Heuss-Str.","postalCode":"38518","locality":"Gifhorn","municipality":{"key":"03151009","name":"Gifhorn, Stadt","type":"Stadt"},"district":{"key":"03151","name":"Gifhorn","type":"Landkreis"},"federalState":{"key":"03","name":"Niedersachsen"}},{"name":"Theodor-Menke-Str.","postalCode":"38518","locality":"Gifhorn","municipality":{"key":"03151009","name":"Gifhorn, Stadt","type":"Stadt"},"district":{"key":"03151","name":"Gifhorn","type":"Landkreis"},"federalState":{"key":"03","name":"Niedersachsen"}},{"name":"Tilsiter Str.","postalCode":"38518","locality":"Gifhorn","municipality":{"key":"03151009","name":"Gifhorn, Stadt","type":"Stadt"},"district":{"key":"03151","name":"Gifhorn","type":"Landkreis"},"federalState":{"key":"03","name":"Niedersachsen"}},{"name":"Tischlerstr.","postalCode":"38518","locality":"Gifhorn","municipality":{"key":"03151009","name":"Gifhorn, Stadt","type":"Stadt"},"district":{"key":"03151","name":"Gifhorn","type":"Landkreis"},"federalState":{"key":"03","name":"Niedersachsen"}},{"name":"Torstr.","postalCode":"38518","locality":"Gifhorn","municipality":{"key":"03151009","name":"Gifhorn, Stadt","type":"Stadt"},"district":{"key":"03151","name":"Gifhorn","type":"Landkreis"},"federalState":{"key":"03","name":"Niedersachsen"}},{"name":"Trakehnenweg","postalCode":"38518","locality":"Gifhorn","municipality":{"key":"03151009","name":"Gifhorn, Stadt","type":"Stadt"},"district":{"key":"03151","name":"Gifhorn","type":"Landkreis"},"federalState":{"key":"03","name":"Niedersachsen"}},{"name":"Tränkebergstr.","postalCode":"38518","locality":"Gifhorn","municipality":{"key":"03151009","name":"Gifhorn, Stadt","type":"Stadt"},"district":{"key":"03151","name":"Gifhorn","type":"Landkreis"},"federalState":{"key":"03","name":"Niedersachsen"}},{"name":"Treptower Str.","postalCode":"38518","locality":"Gifhorn","municipality":{"key":"03151009","name":"Gifhorn, Stadt","type":"Stadt"},"district":{"key":"03151","name":"Gifhorn","type":"Landkreis"},"federalState":{"key":"03","name":"Niedersachsen"}},{"name":"Trüffelweg","postalCode":"38518","locality":"Gifhorn","municipality":{"key":"03151009","name":"Gifhorn, Stadt","type":"Stadt"},"district":{"key":"03151","name":"Gifhorn","type":"Landkreis"},"federalState":{"key":"03","name":"Niedersachsen"}},{"name":"Tulpenweg","postalCode":"38518","locality":"Gifhorn","municipality":{"key":"03151009","name":"Gifhorn, Stadt","type":"Stadt"},"district":{"key":"03151","name":"Gifhorn","type":"Landkreis"},"federalState":{"key":"03","name":"Niedersachsen"}},{"name":"Tuunkamp","postalCode":"38518","locality":"Gifhorn","municipality":{"key":"03151009","name":"Gifhorn, Stadt","type":"Stadt"},"district":{"key":"03151","name":"Gifhorn","type":"Landkreis"},"federalState":{"key":"03","name":"Niedersachsen"}},{"name":"Tweete","postalCode":"38518","locality":"Gifhorn","municipality":{"key":"03151009","name":"Gifhorn, Stadt","type":"Stadt"},"district":{"key":"03151","name":"Gifhorn","type":"Landkreis"},"federalState":{"key":"03","name":"Niedersachsen"}},{"name":"Uhlandweg","postalCode":"38518","locality":"Gifhorn","municipality":{"key":"03151009","name":"Gifhorn, Stadt","type":"Stadt"},"district":{"key":"03151","name":"Gifhorn","type":"Landkreis"},"federalState":{"key":"03","name":"Niedersachsen"}},{"name":"Uhlenhorst","postalCode":"38518","locality":"Gifhorn","municipality":{"key":"03151009","name":"Gifhorn, Stadt","type":"Stadt"},"district":{"key":"03151","name":"Gifhorn","type":"Landkreis"},"federalState":{"key":"03","name":"Niedersachsen"}},{"name":"Ummersche Heerstr.","postalCode":"38518","locality":"Gifhorn","municipality":{"key":"03151009","name":"Gifhorn, Stadt","type":"Stadt"},"district":{"key":"03151","name":"Gifhorn","type":"Landkreis"},"federalState":{"key":"03","name":"Niedersachsen"}},{"name":"Veilchenweg","postalCode":"38518","locality":"Gifhorn","municipality":{"key":"03151009","name":"Gifhorn, Stadt","type":"Stadt"},"district":{"key":"03151","name":"Gifhorn","type":"Landkreis"},"federalState":{"key":"03","name":"Niedersachsen"}},{"name":"Verbindungsweg 25028","postalCode":"38518","locality":"Gifhorn","municipality":{"key":"03151009","name":"Gifhorn, Stadt","type":"Stadt"},"district":{"key":"03151","name":"Gifhorn","type":"Landkreis"},"federalState":{"key":"03","name":"Niedersachsen"}},{"name":"Verbindungsweg 25033","postalCode":"38518","locality":"Gifhorn","municipality":{"key":"03151009","name":"Gifhorn, Stadt","type":"Stadt"},"district":{"key":"03151","name":"Gifhorn","type":"Landkreis"},"federalState":{"key":"03","name":"Niedersachsen"}},{"name":"Verbindungsweg 39005","postalCode":"38518","locality":"Gifhorn","municipality":{"key":"03151009","name":"Gifhorn, Stadt","type":"Stadt"},"district":{"key":"03151","name":"Gifhorn","type":"Landkreis"},"federalState":{"key":"03","name":"Niedersachsen"}},{"name":"Verbindungsweg 39010","postalCode":"38518","locality":"Gifhorn","municipality":{"key":"03151009","name":"Gifhorn, Stadt","type":"Stadt"},"district":{"key":"03151","name":"Gifhorn","type":"Landkreis"},"federalState":{"key":"03","name":"Niedersachsen"}},{"name":"Virchowstr.","postalCode":"38518","locality":"Gifhorn","municipality":{"key":"03151009","name":"Gifhorn, Stadt","type":"Stadt"},"district":{"key":"03151","name":"Gifhorn","type":"Landkreis"},"federalState":{"key":"03","name":"Niedersachsen"}},{"name":"Vogelbeerweg","postalCode":"38518","locality":"Gifhorn","municipality":{"key":"03151009","name":"Gifhorn, Stadt","type":"Stadt"},"district":{"key":"03151","name":"Gifhorn","type":"Landkreis"},"federalState":{"key":"03","name":"Niedersachsen"}},{"name":"Von-Basedow-Str.","postalCode":"38518","locality":"Gifhorn","municipality":{"key":"03151009","name":"Gifhorn, Stadt","type":"Stadt"},"district":{"key":"03151","name":"Gifhorn","type":"Landkreis"},"federalState":{"key":"03","name":"Niedersachsen"}},{"name":"Von-Behring-Str.","postalCode":"38518","locality":"Gifhorn","municipality":{"key":"03151009","name":"Gifhorn, Stadt","type":"Stadt"},"district":{"key":"03151","name":"Gifhorn","type":"Landkreis"},"federalState":{"key":"03","name":"Niedersachsen"}},{"name":"Von-Hammerstein-Weg","postalCode":"38518","locality":"Gifhorn","municipality":{"key":"03151009","name":"Gifhorn, Stadt","type":"Stadt"},"district":{"key":"03151","name":"Gifhorn","type":"Landkreis"},"federalState":{"key":"03","name":"Niedersachsen"}},{"name":"Von-Helmholtz-Str.","postalCode":"38518","locality":"Gifhorn","municipality":{"key":"03151009","name":"Gifhorn, Stadt","type":"Stadt"},"district":{"key":"03151","name":"Gifhorn","type":"Landkreis"},"federalState":{"key":"03","name":"Niedersachsen"}},{"name":"Von-Humboldt-Str.","postalCode":"38518","locality":"Gifhorn","municipality":{"key":"03151009","name":"Gifhorn, Stadt","type":"Stadt"},"district":{"key":"03151","name":"Gifhorn","type":"Landkreis"},"federalState":{"key":"03","name":"Niedersachsen"}},{"name":"Von-Zeppelin-Str.","postalCode":"38518","locality":"Gifhorn","municipality":{"key":"03151009","name":"Gifhorn, Stadt","type":"Stadt"},"district":{"key":"03151","name":"Gifhorn","type":"Landkreis"},"federalState":{"key":"03","name":"Niedersachsen"}},{"name":"Wiesenweg","postalCode":"29396","locality":"Schönewörde","municipality":{"key":"03151026","name":"Schönewörde","type":"Kreisangehörige_Gemeinde"},"district":{"key":"03151","name":"Gifhorn","type":"Landkreis"},"federalState":{"key":"03","name":"Niedersachsen"}},{"name":"Xanthistr.","postalCode":"38518","locality":"Gifhorn","municipality":{"key":"03151009","name":"Gifhorn, Stadt","type":"Stadt"},"district":{"key":"03151","name":"Gifhorn","type":"Landkreis"},"federalState":{"key":"03","name":"Niedersachsen"}},{"name":"Zanderweg","postalCode":"38518","locality":"Gifhorn","municipality":{"key":"03151009","name":"Gifhorn, Stadt","type":"Stadt"},"district":{"key":"03151","name":"Gifhorn","type":"Landkreis"},"federalState":{"key":"03","name":"Niedersachsen"}},{"name":"Zeisigweg","postalCode":"38518","locality":"Gifhorn","municipality":{"key":"03151009","name":"Gifhorn, Stadt","type":"Stadt"},"district":{"key":"03151","name":"Gifhorn","type":"Landkreis"},"federalState":{"key":"03","name":"Niedersachsen"}},{"name":"Zickengasse","postalCode":"38518","locality":"Gifhorn","municipality":{"key":"03151009","name":"Gifhorn, Stadt","type":"Stadt"},"district":{"key":"03151","name":"Gifhorn","type":"Landkreis"},"federalState":{"key":"03","name":"Niedersachsen"}},{"name":"Zimmererstr.","postalCode":"38518","locality":"Gifhorn","municipality":{"key":"03151009","name":"Gifhorn, Stadt","type":"Stadt"},"district":{"key":"03151","name":"Gifhorn","type":"Landkreis"},"federalState":{"key":"03","name":"Niedersachsen"}},{"name":"Zu den Kikenfuhren","postalCode":"38518","locality":"Gifhorn","municipality":{"key":"03151009","name":"Gifhorn, Stadt","type":"Stadt"},"district":{"key":"03151","name":"Gifhorn","type":"Landkreis"},"federalState":{"key":"03","name":"Niedersachsen"}},{"name":"Zu den Mushoren","postalCode":"38518","locality":"Gifhorn","municipality":{"key":"03151009","name":"Gifhorn, Stadt","type":"Stadt"},"district":{"key":"03151","name":"Gifhorn","type":"Landkreis"},"federalState":{"key":"03","name":"Niedersachsen"}},{"name":"Zum Isetal","postalCode":"38518","locality":"Gifhorn","municipality":{"key":"03151009","name":"Gifhorn, Stadt","type":"Stadt"},"district":{"key":"03151","name":"Gifhorn","type":"Landkreis"},"federalState":{"key":"03","name":"Niedersachsen"}},{"name":"Zum Lehmbusch","postalCode":"38518","locality":"Gifhorn","municipality":{"key":"03151009","name":"Gifhorn, Stadt","type":"Stadt"},"district":{"key":"03151","name":"Gifhorn","type":"Landkreis"},"federalState":{"key":"03","name":"Niedersachsen"}},{"name":"Zum Luisenhof","postalCode":"38518","locality":"Gifhorn","municipality":{"key":"03151009","name":"Gifhorn, Stadt","type":"Stadt"},"district":{"key":"03151","name":"Gifhorn","type":"Landkreis"},"federalState":{"key":"03","name":"Niedersachsen"}},{"name":"Zur Allerwelle","postalCode":"38518","locality":"Gifhorn","municipality":{"key":"03151009","name":"Gifhorn, Stadt","type":"Stadt"},"district":{"key":"03151","name":"Gifhorn","type":"Landkreis"},"federalState":{"key":"03","name":"Niedersachsen"}},{"name":"Zur Alten Schmiede","postalCode":"38518","locality":"Gifhorn","municipality":{"key":"03151009","name":"Gifhorn, Stadt","type":"Stadt"},"district":{"key":"03151","name":"Gifhorn","type":"Landkreis"},"federalState":{"key":"03","name":"Niedersachsen"}},{"name":"Zur Dannheide","postalCode":"38518","locality":"Gifhorn","municipality":{"key":"03151009","name":"Gifhorn, Stadt","type":"Stadt"},"district":{"key":"03151","name":"Gifhorn","type":"Landkreis"},"federalState":{"key":"03","name":"Niedersachsen"}},{"name":"Zur Laage","postalCode":"38518","locality":"Gifhorn","municipality":{"key":"03151009","name":"Gifhorn, Stadt","type":"Stadt"},"district":{"key":"03151","name":"Gifhorn","type":"Landkreis"},"federalState":{"key":"03","name":"Niedersachsen"}},{"name":"Zur Lehmkuhle","postalCode":"38518","locality":"Gifhorn","municipality":{"key":"03151009","name":"Gifhorn, Stadt","type":"Stadt"},"district":{"key":"03151","name":"Gifhorn","type":"Landkreis"},"federalState":{"key":"03","name":"Niedersachsen"}},{"name":"Zur Roten Riede","postalCode":"38518","locality":"Gifhorn","municipality":{"key":"03151009","name":"Gifhorn, Stadt","type":"Stadt"},"district":{"key":"03151","name":"Gifhorn","type":"Landkreis"},"federalState":{"key":"03","name":"Niedersachsen"}},{"name":"Zur Silbereiche","postalCode":"38518","locality":"Gifhorn","municipality":{"key":"03151009","name":"Gifhorn, Stadt","type":"Stadt"},"district":{"key":"03151","name":"Gifhorn","type":"Landkreis"},"federalState":{"key":"03","name":"Niedersachsen"}},{"name":"Ährenweg","postalCode":"38518","locality":"Gifhorn","municipality":{"key":"03151009","name":"Gifhorn, Stadt","type":"Stadt"},"district":{"key":"03151","name":"Gifhorn","type":"Landkreis"},"federalState":{"key":"03","name":"Niedersachsen"}},]