[{"name":"Achtern Knick","postalCode":"21521","locality":"Dassendorf","municipality":{"key":"01053023","name":"Dassendorf","type":"Kreisangehörige_Gemeinde"},"district":{"key":"01053","name":"Herzogtum Lauenburg","type":"Kreis"},"federalState":{"key":"01","name":"Schleswig-Holstein"}},{"name":"Ahornweg","postalCode":"21521","locality":"Dassendorf","municipality":{"key":"01053023","name":"Dassendorf","type":"Kreisangehörige_Gemeinde"},"district":{"key":"01053","name":"Herzogtum Lauenburg","type":"Kreis"},"federalState":{"key":"01","name":"Schleswig-Holstein"}},{"name":"Alter Frachtweg","postalCode":"21521","locality":"Dassendorf","municipality":{"key":"01053023","name":"Dassendorf","type":"Kreisangehörige_Gemeinde"},"district":{"key":"01053","name":"Herzogtum Lauenburg","type":"Kreis"},"federalState":{"key":"01","name":"Schleswig-Holstein"}},{"name":"Alter Götenhof","postalCode":"21521","locality":"Dassendorf","municipality":{"key":"01053023","name":"Dassendorf","type":"Kreisangehörige_Gemeinde"},"district":{"key":"01053","name":"Herzogtum Lauenburg","type":"Kreis"},"federalState":{"key":"01","name":"Schleswig-Holstein"}},{"name":"Am Brink","postalCode":"21521","locality":"Dassendorf","municipality":{"key":"01053023","name":"Dassendorf","type":"Kreisangehörige_Gemeinde"},"district":{"key":"01053","name":"Herzogtum Lauenburg","type":"Kreis"},"federalState":{"key":"01","name":"Schleswig-Holstein"}},{"name":"Am Holunderbusch","postalCode":"21521","locality":"Dassendorf","municipality":{"key":"01053023","name":"Dassendorf","type":"Kreisangehörige_Gemeinde"},"district":{"key":"01053","name":"Herzogtum Lauenburg","type":"Kreis"},"federalState":{"key":"01","name":"Schleswig-Holstein"}},{"name":"Am Kreuzhorn","postalCode":"21521","locality":"Dassendorf","municipality":{"key":"01053023","name":"Dassendorf","type":"Kreisangehörige_Gemeinde"},"district":{"key":"01053","name":"Herzogtum Lauenburg","type":"Kreis"},"federalState":{"key":"01","name":"Schleswig-Holstein"}},{"name":"Am Martenshof","postalCode":"21521","locality":"Dassendorf","municipality":{"key":"01053023","name":"Dassendorf","type":"Kreisangehörige_Gemeinde"},"district":{"key":"01053","name":"Herzogtum Lauenburg","type":"Kreis"},"federalState":{"key":"01","name":"Schleswig-Holstein"}},{"name":"Am Nienhegen","postalCode":"21521","locality":"Dassendorf","municipality":{"key":"01053023","name":"Dassendorf","type":"Kreisangehörige_Gemeinde"},"district":{"key":"01053","name":"Herzogtum Lauenburg","type":"Kreis"},"federalState":{"key":"01","name":"Schleswig-Holstein"}},{"name":"Am Wendel","postalCode":"21521","locality":"Dassendorf","municipality":{"key":"01053023","name":"Dassendorf","type":"Kreisangehörige_Gemeinde"},"district":{"key":"01053","name":"Herzogtum Lauenburg","type":"Kreis"},"federalState":{"key":"01","name":"Schleswig-Holstein"}},{"name":"Bargkoppel","postalCode":"21521","locality":"Dassendorf","municipality":{"key":"01053023","name":"Dassendorf","type":"Kreisangehörige_Gemeinde"},"district":{"key":"01053","name":"Herzogtum Lauenburg","type":"Kreis"},"federalState":{"key":"01","name":"Schleswig-Holstein"}},{"name":"Berodtskamp","postalCode":"21521","locality":"Dassendorf","municipality":{"key":"01053023","name":"Dassendorf","type":"Kreisangehörige_Gemeinde"},"district":{"key":"01053","name":"Herzogtum Lauenburg","type":"Kreis"},"federalState":{"key":"01","name":"Schleswig-Holstein"}},{"name":"Bomstedt","postalCode":"21521","locality":"Dassendorf","municipality":{"key":"01053023","name":"Dassendorf","type":"Kreisangehörige_Gemeinde"},"district":{"key":"01053","name":"Herzogtum Lauenburg","type":"Kreis"},"federalState":{"key":"01","name":"Schleswig-Holstein"}},{"name":"Borneck","postalCode":"21521","locality":"Dassendorf","municipality":{"key":"01053023","name":"Dassendorf","type":"Kreisangehörige_Gemeinde"},"district":{"key":"01053","name":"Herzogtum Lauenburg","type":"Kreis"},"federalState":{"key":"01","name":"Schleswig-Holstein"}},{"name":"Bornweg","postalCode":"21521","locality":"Dassendorf","municipality":{"key":"01053023","name":"Dassendorf","type":"Kreisangehörige_Gemeinde"},"district":{"key":"01053","name":"Herzogtum Lauenburg","type":"Kreis"},"federalState":{"key":"01","name":"Schleswig-Holstein"}},{"name":"Buchenweg","postalCode":"21521","locality":"Dassendorf","municipality":{"key":"01053023","name":"Dassendorf","type":"Kreisangehörige_Gemeinde"},"district":{"key":"01053","name":"Herzogtum Lauenburg","type":"Kreis"},"federalState":{"key":"01","name":"Schleswig-Holstein"}},{"name":"Bundesstr.","postalCode":"21521","locality":"Dassendorf","municipality":{"key":"01053023","name":"Dassendorf","type":"Kreisangehörige_Gemeinde"},"district":{"key":"01053","name":"Herzogtum Lauenburg","type":"Kreis"},"federalState":{"key":"01","name":"Schleswig-Holstein"}},{"name":"Bussardweg","postalCode":"21521","locality":"Dassendorf","municipality":{"key":"01053023","name":"Dassendorf","type":"Kreisangehörige_Gemeinde"},"district":{"key":"01053","name":"Herzogtum Lauenburg","type":"Kreis"},"federalState":{"key":"01","name":"Schleswig-Holstein"}},{"name":"Christa-Höppner-Platz","postalCode":"21521","locality":"Dassendorf","municipality":{"key":"01053023","name":"Dassendorf","type":"Kreisangehörige_Gemeinde"},"district":{"key":"01053","name":"Herzogtum Lauenburg","type":"Kreis"},"federalState":{"key":"01","name":"Schleswig-Holstein"}},{"name":"Dorfstr.","postalCode":"21521","locality":"Dassendorf","municipality":{"key":"01053023","name":"Dassendorf","type":"Kreisangehörige_Gemeinde"},"district":{"key":"01053","name":"Herzogtum Lauenburg","type":"Kreis"},"federalState":{"key":"01","name":"Schleswig-Holstein"}},{"name":"Dubberskamp","postalCode":"21521","locality":"Dassendorf","municipality":{"key":"01053023","name":"Dassendorf","type":"Kreisangehörige_Gemeinde"},"district":{"key":"01053","name":"Herzogtum Lauenburg","type":"Kreis"},"federalState":{"key":"01","name":"Schleswig-Holstein"}},{"name":"Ebersoll","postalCode":"21521","locality":"Dassendorf","municipality":{"key":"01053023","name":"Dassendorf","type":"Kreisangehörige_Gemeinde"},"district":{"key":"01053","name":"Herzogtum Lauenburg","type":"Kreis"},"federalState":{"key":"01","name":"Schleswig-Holstein"}},{"name":"Ecksweg","postalCode":"21521","locality":"Dassendorf","municipality":{"key":"01053023","name":"Dassendorf","type":"Kreisangehörige_Gemeinde"},"district":{"key":"01053","name":"Herzogtum Lauenburg","type":"Kreis"},"federalState":{"key":"01","name":"Schleswig-Holstein"}},{"name":"Falkenring","postalCode":"21521","locality":"Dassendorf","municipality":{"key":"01053023","name":"Dassendorf","type":"Kreisangehörige_Gemeinde"},"district":{"key":"01053","name":"Herzogtum Lauenburg","type":"Kreis"},"federalState":{"key":"01","name":"Schleswig-Holstein"}},{"name":"Fasanenstieg","postalCode":"21521","locality":"Dassendorf","municipality":{"key":"01053023","name":"Dassendorf","type":"Kreisangehörige_Gemeinde"},"district":{"key":"01053","name":"Herzogtum Lauenburg","type":"Kreis"},"federalState":{"key":"01","name":"Schleswig-Holstein"}},{"name":"Fehlenweg","postalCode":"21521","locality":"Dassendorf","municipality":{"key":"01053023","name":"Dassendorf","type":"Kreisangehörige_Gemeinde"},"district":{"key":"01053","name":"Herzogtum Lauenburg","type":"Kreis"},"federalState":{"key":"01","name":"Schleswig-Holstein"}},{"name":"Flachsthumweg","postalCode":"21521","locality":"Dassendorf","municipality":{"key":"01053023","name":"Dassendorf","type":"Kreisangehörige_Gemeinde"},"district":{"key":"01053","name":"Herzogtum Lauenburg","type":"Kreis"},"federalState":{"key":"01","name":"Schleswig-Holstein"}},{"name":"Friedrichsruher Weg","postalCode":"21521","locality":"Dassendorf","municipality":{"key":"01053023","name":"Dassendorf","type":"Kreisangehörige_Gemeinde"},"district":{"key":"01053","name":"Herzogtum Lauenburg","type":"Kreis"},"federalState":{"key":"01","name":"Schleswig-Holstein"}},{"name":"Gartenweg","postalCode":"21521","locality":"Dassendorf","municipality":{"key":"01053023","name":"Dassendorf","type":"Kreisangehörige_Gemeinde"},"district":{"key":"01053","name":"Herzogtum Lauenburg","type":"Kreis"},"federalState":{"key":"01","name":"Schleswig-Holstein"}},{"name":"Götenweg","postalCode":"21521","locality":"Dassendorf","municipality":{"key":"01053023","name":"Dassendorf","type":"Kreisangehörige_Gemeinde"},"district":{"key":"01053","name":"Herzogtum Lauenburg","type":"Kreis"},"federalState":{"key":"01","name":"Schleswig-Holstein"}},{"name":"Grenzwall","postalCode":"21521","locality":"Dassendorf","municipality":{"key":"01053023","name":"Dassendorf","type":"Kreisangehörige_Gemeinde"},"district":{"key":"01053","name":"Herzogtum Lauenburg","type":"Kreis"},"federalState":{"key":"01","name":"Schleswig-Holstein"}},{"name":"Habichtweg","postalCode":"21521","locality":"Dassendorf","municipality":{"key":"01053023","name":"Dassendorf","type":"Kreisangehörige_Gemeinde"},"district":{"key":"01053","name":"Herzogtum Lauenburg","type":"Kreis"},"federalState":{"key":"01","name":"Schleswig-Holstein"}},{"name":"Hasenwinkel","postalCode":"21521","locality":"Dassendorf","municipality":{"key":"01053023","name":"Dassendorf","type":"Kreisangehörige_Gemeinde"},"district":{"key":"01053","name":"Herzogtum Lauenburg","type":"Kreis"},"federalState":{"key":"01","name":"Schleswig-Holstein"}},{"name":"Hauskoppel","postalCode":"21521","locality":"Dassendorf","municipality":{"key":"01053023","name":"Dassendorf","type":"Kreisangehörige_Gemeinde"},"district":{"key":"01053","name":"Herzogtum Lauenburg","type":"Kreis"},"federalState":{"key":"01","name":"Schleswig-Holstein"}},{"name":"Heidekamp","postalCode":"21521","locality":"Dassendorf","municipality":{"key":"01053023","name":"Dassendorf","type":"Kreisangehörige_Gemeinde"},"district":{"key":"01053","name":"Herzogtum Lauenburg","type":"Kreis"},"federalState":{"key":"01","name":"Schleswig-Holstein"}},{"name":"Heidkoppelweg","postalCode":"21521","locality":"Dassendorf","municipality":{"key":"01053023","name":"Dassendorf","type":"Kreisangehörige_Gemeinde"},"district":{"key":"01053","name":"Herzogtum Lauenburg","type":"Kreis"},"federalState":{"key":"01","name":"Schleswig-Holstein"}},{"name":"Hinterste Koppel","postalCode":"21521","locality":"Dassendorf","municipality":{"key":"01053023","name":"Dassendorf","type":"Kreisangehörige_Gemeinde"},"district":{"key":"01053","name":"Herzogtum Lauenburg","type":"Kreis"},"federalState":{"key":"01","name":"Schleswig-Holstein"}},{"name":"Hinterster Kämpen","postalCode":"21521","locality":"Dassendorf","municipality":{"key":"01053023","name":"Dassendorf","type":"Kreisangehörige_Gemeinde"},"district":{"key":"01053","name":"Herzogtum Lauenburg","type":"Kreis"},"federalState":{"key":"01","name":"Schleswig-Holstein"}},{"name":"Hohlweg","postalCode":"21521","locality":"Dassendorf","municipality":{"key":"01053023","name":"Dassendorf","type":"Kreisangehörige_Gemeinde"},"district":{"key":"01053","name":"Herzogtum Lauenburg","type":"Kreis"},"federalState":{"key":"01","name":"Schleswig-Holstein"}},{"name":"Hubertuskamp","postalCode":"21521","locality":"Dassendorf","municipality":{"key":"01053023","name":"Dassendorf","type":"Kreisangehörige_Gemeinde"},"district":{"key":"01053","name":"Herzogtum Lauenburg","type":"Kreis"},"federalState":{"key":"01","name":"Schleswig-Holstein"}},{"name":"Im Kirschgarten","postalCode":"21521","locality":"Dassendorf","municipality":{"key":"01053023","name":"Dassendorf","type":"Kreisangehörige_Gemeinde"},"district":{"key":"01053","name":"Herzogtum Lauenburg","type":"Kreis"},"federalState":{"key":"01","name":"Schleswig-Holstein"}},{"name":"Im Wald","postalCode":"21521","locality":"Dassendorf","municipality":{"key":"01053023","name":"Dassendorf","type":"Kreisangehörige_Gemeinde"},"district":{"key":"01053","name":"Herzogtum Lauenburg","type":"Kreis"},"federalState":{"key":"01","name":"Schleswig-Holstein"}},{"name":"Im Winkel","postalCode":"21521","locality":"Dassendorf","municipality":{"key":"01053023","name":"Dassendorf","type":"Kreisangehörige_Gemeinde"},"district":{"key":"01053","name":"Herzogtum Lauenburg","type":"Kreis"},"federalState":{"key":"01","name":"Schleswig-Holstein"}},{"name":"Kämpenweg","postalCode":"21521","locality":"Dassendorf","municipality":{"key":"01053023","name":"Dassendorf","type":"Kreisangehörige_Gemeinde"},"district":{"key":"01053","name":"Herzogtum Lauenburg","type":"Kreis"},"federalState":{"key":"01","name":"Schleswig-Holstein"}},{"name":"Karpfenteich","postalCode":"21521","locality":"Dassendorf","municipality":{"key":"01053023","name":"Dassendorf","type":"Kreisangehörige_Gemeinde"},"district":{"key":"01053","name":"Herzogtum Lauenburg","type":"Kreis"},"federalState":{"key":"01","name":"Schleswig-Holstein"}},{"name":"Katenkoppel","postalCode":"21521","locality":"Dassendorf","municipality":{"key":"01053023","name":"Dassendorf","type":"Kreisangehörige_Gemeinde"},"district":{"key":"01053","name":"Herzogtum Lauenburg","type":"Kreis"},"federalState":{"key":"01","name":"Schleswig-Holstein"}},{"name":"Kauersweg","postalCode":"21521","locality":"Dassendorf","municipality":{"key":"01053023","name":"Dassendorf","type":"Kreisangehörige_Gemeinde"},"district":{"key":"01053","name":"Herzogtum Lauenburg","type":"Kreis"},"federalState":{"key":"01","name":"Schleswig-Holstein"}},{"name":"Kreuzhornweg","postalCode":"21521","locality":"Dassendorf","municipality":{"key":"01053023","name":"Dassendorf","type":"Kreisangehörige_Gemeinde"},"district":{"key":"01053","name":"Herzogtum Lauenburg","type":"Kreis"},"federalState":{"key":"01","name":"Schleswig-Holstein"}},{"name":"Kurzer Weg","postalCode":"21521","locality":"Dassendorf","municipality":{"key":"01053023","name":"Dassendorf","type":"Kreisangehörige_Gemeinde"},"district":{"key":"01053","name":"Herzogtum Lauenburg","type":"Kreis"},"federalState":{"key":"01","name":"Schleswig-Holstein"}},{"name":"Meyersweg","postalCode":"21521","locality":"Dassendorf","municipality":{"key":"01053023","name":"Dassendorf","type":"Kreisangehörige_Gemeinde"},"district":{"key":"01053","name":"Herzogtum Lauenburg","type":"Kreis"},"federalState":{"key":"01","name":"Schleswig-Holstein"}},{"name":"Mittelweg","postalCode":"21521","locality":"Dassendorf","municipality":{"key":"01053023","name":"Dassendorf","type":"Kreisangehörige_Gemeinde"},"district":{"key":"01053","name":"Herzogtum Lauenburg","type":"Kreis"},"federalState":{"key":"01","name":"Schleswig-Holstein"}},{"name":"Mückenkamp","postalCode":"21521","locality":"Dassendorf","municipality":{"key":"01053023","name":"Dassendorf","type":"Kreisangehörige_Gemeinde"},"district":{"key":"01053","name":"Herzogtum Lauenburg","type":"Kreis"},"federalState":{"key":"01","name":"Schleswig-Holstein"}},{"name":"Mühlenweg","postalCode":"21521","locality":"Dassendorf","municipality":{"key":"01053023","name":"Dassendorf","type":"Kreisangehörige_Gemeinde"},"district":{"key":"01053","name":"Herzogtum Lauenburg","type":"Kreis"},"federalState":{"key":"01","name":"Schleswig-Holstein"}},{"name":"Müssenweg","postalCode":"21521","locality":"Dassendorf","municipality":{"key":"01053023","name":"Dassendorf","type":"Kreisangehörige_Gemeinde"},"district":{"key":"01053","name":"Herzogtum Lauenburg","type":"Kreis"},"federalState":{"key":"01","name":"Schleswig-Holstein"}},{"name":"Pappelallee","postalCode":"21521","locality":"Dassendorf","municipality":{"key":"01053023","name":"Dassendorf","type":"Kreisangehörige_Gemeinde"},"district":{"key":"01053","name":"Herzogtum Lauenburg","type":"Kreis"},"federalState":{"key":"01","name":"Schleswig-Holstein"}},{"name":"Quellenweg","postalCode":"21521","locality":"Dassendorf","municipality":{"key":"01053023","name":"Dassendorf","type":"Kreisangehörige_Gemeinde"},"district":{"key":"01053","name":"Herzogtum Lauenburg","type":"Kreis"},"federalState":{"key":"01","name":"Schleswig-Holstein"}},{"name":"Querweg","postalCode":"21521","locality":"Dassendorf","municipality":{"key":"01053023","name":"Dassendorf","type":"Kreisangehörige_Gemeinde"},"district":{"key":"01053","name":"Herzogtum Lauenburg","type":"Kreis"},"federalState":{"key":"01","name":"Schleswig-Holstein"}},{"name":"Rehkamp","postalCode":"21521","locality":"Dassendorf","municipality":{"key":"01053023","name":"Dassendorf","type":"Kreisangehörige_Gemeinde"},"district":{"key":"01053","name":"Herzogtum Lauenburg","type":"Kreis"},"federalState":{"key":"01","name":"Schleswig-Holstein"}},{"name":"Rotdornweg","postalCode":"21521","locality":"Dassendorf","municipality":{"key":"01053023","name":"Dassendorf","type":"Kreisangehörige_Gemeinde"},"district":{"key":"01053","name":"Herzogtum Lauenburg","type":"Kreis"},"federalState":{"key":"01","name":"Schleswig-Holstein"}},{"name":"Schlangenweg","postalCode":"21521","locality":"Dassendorf","municipality":{"key":"01053023","name":"Dassendorf","type":"Kreisangehörige_Gemeinde"},"district":{"key":"01053","name":"Herzogtum Lauenburg","type":"Kreis"},"federalState":{"key":"01","name":"Schleswig-Holstein"}},{"name":"Sperberweg","postalCode":"21521","locality":"Dassendorf","municipality":{"key":"01053023","name":"Dassendorf","type":"Kreisangehörige_Gemeinde"},"district":{"key":"01053","name":"Herzogtum Lauenburg","type":"Kreis"},"federalState":{"key":"01","name":"Schleswig-Holstein"}},{"name":"Steinberg","postalCode":"21521","locality":"Dassendorf","municipality":{"key":"01053023","name":"Dassendorf","type":"Kreisangehörige_Gemeinde"},"district":{"key":"01053","name":"Herzogtum Lauenburg","type":"Kreis"},"federalState":{"key":"01","name":"Schleswig-Holstein"}},{"name":"Steinerweg","postalCode":"21521","locality":"Dassendorf","municipality":{"key":"01053023","name":"Dassendorf","type":"Kreisangehörige_Gemeinde"},"district":{"key":"01053","name":"Herzogtum Lauenburg","type":"Kreis"},"federalState":{"key":"01","name":"Schleswig-Holstein"}},{"name":"Stemmenkamp","postalCode":"21521","locality":"Dassendorf","municipality":{"key":"01053023","name":"Dassendorf","type":"Kreisangehörige_Gemeinde"},"district":{"key":"01053","name":"Herzogtum Lauenburg","type":"Kreis"},"federalState":{"key":"01","name":"Schleswig-Holstein"}},{"name":"Südweg","postalCode":"21521","locality":"Dassendorf","municipality":{"key":"01053023","name":"Dassendorf","type":"Kreisangehörige_Gemeinde"},"district":{"key":"01053","name":"Herzogtum Lauenburg","type":"Kreis"},"federalState":{"key":"01","name":"Schleswig-Holstein"}},{"name":"Sumperlande","postalCode":"21521","locality":"Dassendorf","municipality":{"key":"01053023","name":"Dassendorf","type":"Kreisangehörige_Gemeinde"},"district":{"key":"01053","name":"Herzogtum Lauenburg","type":"Kreis"},"federalState":{"key":"01","name":"Schleswig-Holstein"}},{"name":"Tannenweg","postalCode":"21521","locality":"Dassendorf","municipality":{"key":"01053023","name":"Dassendorf","type":"Kreisangehörige_Gemeinde"},"district":{"key":"01053","name":"Herzogtum Lauenburg","type":"Kreis"},"federalState":{"key":"01","name":"Schleswig-Holstein"}},{"name":"Uhlenkamp","postalCode":"21521","locality":"Dassendorf","municipality":{"key":"01053023","name":"Dassendorf","type":"Kreisangehörige_Gemeinde"},"district":{"key":"01053","name":"Herzogtum Lauenburg","type":"Kreis"},"federalState":{"key":"01","name":"Schleswig-Holstein"}},{"name":"Vorderste Koppel","postalCode":"21521","locality":"Dassendorf","municipality":{"key":"01053023","name":"Dassendorf","type":"Kreisangehörige_Gemeinde"},"district":{"key":"01053","name":"Herzogtum Lauenburg","type":"Kreis"},"federalState":{"key":"01","name":"Schleswig-Holstein"}},{"name":"Wendelweg","postalCode":"21521","locality":"Dassendorf","municipality":{"key":"01053023","name":"Dassendorf","type":"Kreisangehörige_Gemeinde"},"district":{"key":"01053","name":"Herzogtum Lauenburg","type":"Kreis"},"federalState":{"key":"01","name":"Schleswig-Holstein"}},{"name":"Wittbüschen","postalCode":"21521","locality":"Dassendorf","municipality":{"key":"01053023","name":"Dassendorf","type":"Kreisangehörige_Gemeinde"},"district":{"key":"01053","name":"Herzogtum Lauenburg","type":"Kreis"},"federalState":{"key":"01","name":"Schleswig-Holstein"}},{"name":"Wotanskamp","postalCode":"21521","locality":"Dassendorf","municipality":{"key":"01053023","name":"Dassendorf","type":"Kreisangehörige_Gemeinde"},"district":{"key":"01053","name":"Herzogtum Lauenburg","type":"Kreis"},"federalState":{"key":"01","name":"Schleswig-Holstein"}},{"name":"Wulersweg","postalCode":"21521","locality":"Dassendorf","municipality":{"key":"01053023","name":"Dassendorf","type":"Kreisangehörige_Gemeinde"},"district":{"key":"01053","name":"Herzogtum Lauenburg","type":"Kreis"},"federalState":{"key":"01","name":"Schleswig-Holstein"}},]