[{"name":"Aichelauer Str.","postalCode":"72534","locality":"Hayingen","municipality":{"key":"08415034","name":"Hayingen, Stadt","type":"Stadt"},"district":{"key":"08415","name":"Reutlingen","type":"Landkreis"},"federalState":{"key":"08","name":"Baden-Württemberg"}},{"name":"Albert-Stemmer-Weg","postalCode":"72534","locality":"Hayingen","municipality":{"key":"08415034","name":"Hayingen, Stadt","type":"Stadt"},"district":{"key":"08415","name":"Reutlingen","type":"Landkreis"},"federalState":{"key":"08","name":"Baden-Württemberg"}},{"name":"Am Bahnhof","postalCode":"85653","locality":"Aying","municipality":{"key":"09184137","name":"Aying","type":"Kreisangehörige_Gemeinde"},"district":{"key":"09184","name":"München","type":"Landkreis"},"federalState":{"key":"09","name":"Bayern"}},{"name":"Am Bürgergarten","postalCode":"72534","locality":"Hayingen","municipality":{"key":"08415034","name":"Hayingen, Stadt","type":"Stadt"},"district":{"key":"08415","name":"Reutlingen","type":"Landkreis"},"federalState":{"key":"08","name":"Baden-Württemberg"}},{"name":"Am Ehestetter Weg","postalCode":"72534","locality":"Hayingen","municipality":{"key":"08415034","name":"Hayingen, Stadt","type":"Stadt"},"district":{"key":"08415","name":"Reutlingen","type":"Landkreis"},"federalState":{"key":"08","name":"Baden-Württemberg"}},{"name":"Am Hagfeld","postalCode":"85653","locality":"Aying","municipality":{"key":"09184137","name":"Aying","type":"Kreisangehörige_Gemeinde"},"district":{"key":"09184","name":"München","type":"Landkreis"},"federalState":{"key":"09","name":"Bayern"}},{"name":"Am Kirchweg","postalCode":"72534","locality":"Hayingen","municipality":{"key":"08415034","name":"Hayingen, Stadt","type":"Stadt"},"district":{"key":"08415","name":"Reutlingen","type":"Landkreis"},"federalState":{"key":"08","name":"Baden-Württemberg"}},{"name":"Am Markt","postalCode":"85653","locality":"Aying","municipality":{"key":"09184137","name":"Aying","type":"Kreisangehörige_Gemeinde"},"district":{"key":"09184","name":"München","type":"Landkreis"},"federalState":{"key":"09","name":"Bayern"}},{"name":"Am Mühlweg","postalCode":"72534","locality":"Hayingen","municipality":{"key":"08415034","name":"Hayingen, Stadt","type":"Stadt"},"district":{"key":"08415","name":"Reutlingen","type":"Landkreis"},"federalState":{"key":"08","name":"Baden-Württemberg"}},{"name":"Am Oberfeld","postalCode":"85653","locality":"Aying","municipality":{"key":"09184137","name":"Aying","type":"Kreisangehörige_Gemeinde"},"district":{"key":"09184","name":"München","type":"Landkreis"},"federalState":{"key":"09","name":"Bayern"}},{"name":"Am Schmiedberg","postalCode":"85653","locality":"Aying","municipality":{"key":"09184137","name":"Aying","type":"Kreisangehörige_Gemeinde"},"district":{"key":"09184","name":"München","type":"Landkreis"},"federalState":{"key":"09","name":"Bayern"}},{"name":"Amselweg","postalCode":"85653","locality":"Aying","municipality":{"key":"09184137","name":"Aying","type":"Kreisangehörige_Gemeinde"},"district":{"key":"09184","name":"München","type":"Landkreis"},"federalState":{"key":"09","name":"Bayern"}},{"name":"Am Wagnerberg","postalCode":"85653","locality":"Aying","municipality":{"key":"09184137","name":"Aying","type":"Kreisangehörige_Gemeinde"},"district":{"key":"09184","name":"München","type":"Landkreis"},"federalState":{"key":"09","name":"Bayern"}},{"name":"An der Gaß","postalCode":"85653","locality":"Aying","municipality":{"key":"09184137","name":"Aying","type":"Kreisangehörige_Gemeinde"},"district":{"key":"09184","name":"München","type":"Landkreis"},"federalState":{"key":"09","name":"Bayern"}},{"name":"Angerstr.","postalCode":"85653","locality":"Aying","municipality":{"key":"09184137","name":"Aying","type":"Kreisangehörige_Gemeinde"},"district":{"key":"09184","name":"München","type":"Landkreis"},"federalState":{"key":"09","name":"Bayern"}},{"name":"Auf dem Leihen","postalCode":"72534","locality":"Hayingen","municipality":{"key":"08415034","name":"Hayingen, Stadt","type":"Stadt"},"district":{"key":"08415","name":"Reutlingen","type":"Landkreis"},"federalState":{"key":"08","name":"Baden-Württemberg"}},{"name":"Auf der Bleiche","postalCode":"72534","locality":"Hayingen","municipality":{"key":"08415034","name":"Hayingen, Stadt","type":"Stadt"},"district":{"key":"08415","name":"Reutlingen","type":"Landkreis"},"federalState":{"key":"08","name":"Baden-Württemberg"}},{"name":"Auf der Nachthut","postalCode":"72534","locality":"Hayingen","municipality":{"key":"08415034","name":"Hayingen, Stadt","type":"Stadt"},"district":{"key":"08415","name":"Reutlingen","type":"Landkreis"},"federalState":{"key":"08","name":"Baden-Württemberg"}},{"name":"Ayinger Str.","postalCode":"85653","locality":"Aying","municipality":{"key":"09184137","name":"Aying","type":"Kreisangehörige_Gemeinde"},"district":{"key":"09184","name":"München","type":"Landkreis"},"federalState":{"key":"09","name":"Bayern"}},{"name":"Bachweg","postalCode":"72534","locality":"Hayingen","municipality":{"key":"08415034","name":"Hayingen, Stadt","type":"Stadt"},"district":{"key":"08415","name":"Reutlingen","type":"Landkreis"},"federalState":{"key":"08","name":"Baden-Württemberg"}},{"name":"Bäckergasse","postalCode":"72534","locality":"Hayingen","municipality":{"key":"08415034","name":"Hayingen, Stadt","type":"Stadt"},"district":{"key":"08415","name":"Reutlingen","type":"Landkreis"},"federalState":{"key":"08","name":"Baden-Württemberg"}},{"name":"Badgasse","postalCode":"72534","locality":"Hayingen","municipality":{"key":"08415034","name":"Hayingen, Stadt","type":"Stadt"},"district":{"key":"08415","name":"Reutlingen","type":"Landkreis"},"federalState":{"key":"08","name":"Baden-Württemberg"}},{"name":"Bahnhofstr.","postalCode":"85653","locality":"Aying","municipality":{"key":"09184137","name":"Aying","type":"Kreisangehörige_Gemeinde"},"district":{"key":"09184","name":"München","type":"Landkreis"},"federalState":{"key":"09","name":"Bayern"}},{"name":"Bahnzaunweg","postalCode":"85653","locality":"Aying","municipality":{"key":"09184137","name":"Aying","type":"Kreisangehörige_Gemeinde"},"district":{"key":"09184","name":"München","type":"Landkreis"},"federalState":{"key":"09","name":"Bayern"}},{"name":"Bartenstr.","postalCode":"85653","locality":"Aying","municipality":{"key":"09184137","name":"Aying","type":"Kreisangehörige_Gemeinde"},"district":{"key":"09184","name":"München","type":"Landkreis"},"federalState":{"key":"09","name":"Bayern"}},{"name":"Benediktenwandstr.","postalCode":"85653","locality":"Aying","municipality":{"key":"09184137","name":"Aying","type":"Kreisangehörige_Gemeinde"},"district":{"key":"09184","name":"München","type":"Landkreis"},"federalState":{"key":"09","name":"Bayern"}},{"name":"Bergblick","postalCode":"85653","locality":"Aying","municipality":{"key":"09184137","name":"Aying","type":"Kreisangehörige_Gemeinde"},"district":{"key":"09184","name":"München","type":"Landkreis"},"federalState":{"key":"09","name":"Bayern"}},{"name":"Biechlweg","postalCode":"85653","locality":"Aying","municipality":{"key":"09184137","name":"Aying","type":"Kreisangehörige_Gemeinde"},"district":{"key":"09184","name":"München","type":"Landkreis"},"federalState":{"key":"09","name":"Bayern"}},{"name":"Birkenweg","postalCode":"72534","locality":"Hayingen","municipality":{"key":"08415034","name":"Hayingen, Stadt","type":"Stadt"},"district":{"key":"08415","name":"Reutlingen","type":"Landkreis"},"federalState":{"key":"08","name":"Baden-Württemberg"}},{"name":"Bräugasse","postalCode":"85653","locality":"Aying","municipality":{"key":"09184137","name":"Aying","type":"Kreisangehörige_Gemeinde"},"district":{"key":"09184","name":"München","type":"Landkreis"},"federalState":{"key":"09","name":"Bayern"}},{"name":"Bräulandweg","postalCode":"85653","locality":"Aying","municipality":{"key":"09184137","name":"Aying","type":"Kreisangehörige_Gemeinde"},"district":{"key":"09184","name":"München","type":"Landkreis"},"federalState":{"key":"09","name":"Bayern"}},{"name":"Brecherspitzstr.","postalCode":"85653","locality":"Aying","municipality":{"key":"09184137","name":"Aying","type":"Kreisangehörige_Gemeinde"},"district":{"key":"09184","name":"München","type":"Landkreis"},"federalState":{"key":"09","name":"Bayern"}},{"name":"Brennereiweg","postalCode":"85653","locality":"Aying","municipality":{"key":"09184137","name":"Aying","type":"Kreisangehörige_Gemeinde"},"district":{"key":"09184","name":"München","type":"Landkreis"},"federalState":{"key":"09","name":"Bayern"}},{"name":"Brühl","postalCode":"72534","locality":"Hayingen","municipality":{"key":"08415034","name":"Hayingen, Stadt","type":"Stadt"},"district":{"key":"08415","name":"Reutlingen","type":"Landkreis"},"federalState":{"key":"08","name":"Baden-Württemberg"}},{"name":"Brunnenstr.","postalCode":"72534","locality":"Hayingen","municipality":{"key":"08415034","name":"Hayingen, Stadt","type":"Stadt"},"district":{"key":"08415","name":"Reutlingen","type":"Landkreis"},"federalState":{"key":"08","name":"Baden-Württemberg"}},{"name":"Brunnweg","postalCode":"85653","locality":"Aying","municipality":{"key":"09184137","name":"Aying","type":"Kreisangehörige_Gemeinde"},"district":{"key":"09184","name":"München","type":"Landkreis"},"federalState":{"key":"09","name":"Bayern"}},{"name":"Brunst-Geräumt","postalCode":"85653","locality":"Aying","municipality":{"key":"09184137","name":"Aying","type":"Kreisangehörige_Gemeinde"},"district":{"key":"09184","name":"München","type":"Landkreis"},"federalState":{"key":"09","name":"Bayern"}},{"name":"Buchenstr.","postalCode":"85653","locality":"Aying","municipality":{"key":"09184137","name":"Aying","type":"Kreisangehörige_Gemeinde"},"district":{"key":"09184","name":"München","type":"Landkreis"},"federalState":{"key":"09","name":"Bayern"}},{"name":"Bürgergarten","postalCode":"72534","locality":"Hayingen","municipality":{"key":"08415034","name":"Hayingen, Stadt","type":"Stadt"},"district":{"key":"08415","name":"Reutlingen","type":"Landkreis"},"federalState":{"key":"08","name":"Baden-Württemberg"}},{"name":"Burghaldenweg","postalCode":"72534","locality":"Hayingen","municipality":{"key":"08415034","name":"Hayingen, Stadt","type":"Stadt"},"district":{"key":"08415","name":"Reutlingen","type":"Landkreis"},"federalState":{"key":"08","name":"Baden-Württemberg"}},{"name":"Camerloherstr.","postalCode":"80686","locality":"München","municipality":{"key":"09162000","name":"München, Landeshauptstadt","type":"Kreisfreie_Stadt"},"district":{"key":"09162","name":"München, Landeshauptstadt","type":"Kreisfreie_Stadt"},"federalState":{"key":"09","name":"Bayern"}},{"name":"Camerloherstr.","postalCode":"80689","locality":"München","municipality":{"key":"09162000","name":"München, Landeshauptstadt","type":"Kreisfreie_Stadt"},"district":{"key":"09162","name":"München, Landeshauptstadt","type":"Kreisfreie_Stadt"},"federalState":{"key":"09","name":"Bayern"}},{"name":"Canalettostr.","postalCode":"80638","locality":"München","municipality":{"key":"09162000","name":"München, Landeshauptstadt","type":"Kreisfreie_Stadt"},"district":{"key":"09162","name":"München, Landeshauptstadt","type":"Kreisfreie_Stadt"},"federalState":{"key":"09","name":"Bayern"}},{"name":"Candidstr.","postalCode":"81539","locality":"München","municipality":{"key":"09162000","name":"München, Landeshauptstadt","type":"Kreisfreie_Stadt"},"district":{"key":"09162","name":"München, Landeshauptstadt","type":"Kreisfreie_Stadt"},"federalState":{"key":"09","name":"Bayern"}},{"name":"Candidstr.","postalCode":"81543","locality":"München","municipality":{"key":"09162000","name":"München, Landeshauptstadt","type":"Kreisfreie_Stadt"},"district":{"key":"09162","name":"München, Landeshauptstadt","type":"Kreisfreie_Stadt"},"federalState":{"key":"09","name":"Bayern"}},{"name":"Candidstr.","postalCode":"81547","locality":"München","municipality":{"key":"09162000","name":"München, Landeshauptstadt","type":"Kreisfreie_Stadt"},"district":{"key":"09162","name":"München, Landeshauptstadt","type":"Kreisfreie_Stadt"},"federalState":{"key":"09","name":"Bayern"}},{"name":"Canisiusplatz","postalCode":"81377","locality":"München","municipality":{"key":"09162000","name":"München, Landeshauptstadt","type":"Kreisfreie_Stadt"},"district":{"key":"09162","name":"München, Landeshauptstadt","type":"Kreisfreie_Stadt"},"federalState":{"key":"09","name":"Bayern"}},{"name":"Canisiusstr.","postalCode":"81377","locality":"München","municipality":{"key":"09162000","name":"München, Landeshauptstadt","type":"Kreisfreie_Stadt"},"district":{"key":"09162","name":"München, Landeshauptstadt","type":"Kreisfreie_Stadt"},"federalState":{"key":"09","name":"Bayern"}},{"name":"Cannabichstr.","postalCode":"81543","locality":"München","municipality":{"key":"09162000","name":"München, Landeshauptstadt","type":"Kreisfreie_Stadt"},"district":{"key":"09162","name":"München, Landeshauptstadt","type":"Kreisfreie_Stadt"},"federalState":{"key":"09","name":"Bayern"}},{"name":"Caracciolastr.","postalCode":"80935","locality":"München","municipality":{"key":"09162000","name":"München, Landeshauptstadt","type":"Kreisfreie_Stadt"},"district":{"key":"09162","name":"München, Landeshauptstadt","type":"Kreisfreie_Stadt"},"federalState":{"key":"09","name":"Bayern"}},{"name":"Caramanicostr.","postalCode":"85551","locality":"Kirchheim bei München","municipality":{"key":"09184131","name":"Kirchheim b.München","type":"Kreisangehörige_Gemeinde"},"district":{"key":"09184","name":"München","type":"Landkreis"},"federalState":{"key":"09","name":"Bayern"}},{"name":"Carlamaria-Heim-Str.","postalCode":"80339","locality":"München","municipality":{"key":"09162000","name":"München, Landeshauptstadt","type":"Kreisfreie_Stadt"},"district":{"key":"09162","name":"München, Landeshauptstadt","type":"Kreisfreie_Stadt"},"federalState":{"key":"09","name":"Bayern"}},{"name":"Carl-Amery-Platz","postalCode":"81541","locality":"München","municipality":{"key":"09162000","name":"München, Landeshauptstadt","type":"Kreisfreie_Stadt"},"district":{"key":"09162","name":"München, Landeshauptstadt","type":"Kreisfreie_Stadt"},"federalState":{"key":"09","name":"Bayern"}},{"name":"Carl-August-Sckell-Weg","postalCode":"80538","locality":"München","municipality":{"key":"09162000","name":"München, Landeshauptstadt","type":"Kreisfreie_Stadt"},"district":{"key":"09162","name":"München, Landeshauptstadt","type":"Kreisfreie_Stadt"},"federalState":{"key":"09","name":"Bayern"}},{"name":"Carl-Baierl-Bogen","postalCode":"81739","locality":"München","municipality":{"key":"09162000","name":"München, Landeshauptstadt","type":"Kreisfreie_Stadt"},"district":{"key":"09162","name":"München, Landeshauptstadt","type":"Kreisfreie_Stadt"},"federalState":{"key":"09","name":"Bayern"}},{"name":"Carl-Hanser-Str.","postalCode":"81247","locality":"München","municipality":{"key":"09162000","name":"München, Landeshauptstadt","type":"Kreisfreie_Stadt"},"district":{"key":"09162","name":"München, Landeshauptstadt","type":"Kreisfreie_Stadt"},"federalState":{"key":"09","name":"Bayern"}},{"name":"Carl-Orff-Bogen","postalCode":"80939","locality":"München","municipality":{"key":"09162000","name":"München, Landeshauptstadt","type":"Kreisfreie_Stadt"},"district":{"key":"09162","name":"München, Landeshauptstadt","type":"Kreisfreie_Stadt"},"federalState":{"key":"09","name":"Bayern"}},{"name":"Carl-Orff-Str.","postalCode":"85551","locality":"Kirchheim bei München","municipality":{"key":"09184131","name":"Kirchheim b.München","type":"Kreisangehörige_Gemeinde"},"district":{"key":"09184","name":"München","type":"Landkreis"},"federalState":{"key":"09","name":"Bayern"}},{"name":"Carlo-Schmid-Str.","postalCode":"81739","locality":"München","municipality":{"key":"09162000","name":"München, Landeshauptstadt","type":"Kreisfreie_Stadt"},"district":{"key":"09162","name":"München, Landeshauptstadt","type":"Kreisfreie_Stadt"},"federalState":{"key":"09","name":"Bayern"}},{"name":"Carl-Sternheim-Weg","postalCode":"81927","locality":"München","municipality":{"key":"09162000","name":"München, Landeshauptstadt","type":"Kreisfreie_Stadt"},"district":{"key":"09162","name":"München, Landeshauptstadt","type":"Kreisfreie_Stadt"},"federalState":{"key":"09","name":"Bayern"}},{"name":"Carl-Wery-Str.","postalCode":"81739","locality":"München","municipality":{"key":"09162000","name":"München, Landeshauptstadt","type":"Kreisfreie_Stadt"},"district":{"key":"09162","name":"München, Landeshauptstadt","type":"Kreisfreie_Stadt"},"federalState":{"key":"09","name":"Bayern"}},{"name":"Carl-Zuckmayer-Str.","postalCode":"81927","locality":"München","municipality":{"key":"09162000","name":"München, Landeshauptstadt","type":"Kreisfreie_Stadt"},"district":{"key":"09162","name":"München, Landeshauptstadt","type":"Kreisfreie_Stadt"},"federalState":{"key":"09","name":"Bayern"}},{"name":"Carola-Neher-Str.","postalCode":"81379","locality":"München","municipality":{"key":"09162000","name":"München, Landeshauptstadt","type":"Kreisfreie_Stadt"},"district":{"key":"09162","name":"München, Landeshauptstadt","type":"Kreisfreie_Stadt"},"federalState":{"key":"09","name":"Bayern"}},{"name":"Caroline-Herschel-Str.","postalCode":"81829","locality":"München","municipality":{"key":"09162000","name":"München, Landeshauptstadt","type":"Kreisfreie_Stadt"},"district":{"key":"09162","name":"München, Landeshauptstadt","type":"Kreisfreie_Stadt"},"federalState":{"key":"09","name":"Bayern"}},{"name":"Carossastr.","postalCode":"81245","locality":"München","municipality":{"key":"09162000","name":"München, Landeshauptstadt","type":"Kreisfreie_Stadt"},"district":{"key":"09162","name":"München, Landeshauptstadt","type":"Kreisfreie_Stadt"},"federalState":{"key":"09","name":"Bayern"}},{"name":"Carrierestr.","postalCode":"80999","locality":"München","municipality":{"key":"09162000","name":"München, Landeshauptstadt","type":"Kreisfreie_Stadt"},"district":{"key":"09162","name":"München, Landeshauptstadt","type":"Kreisfreie_Stadt"},"federalState":{"key":"09","name":"Bayern"}},{"name":"Carusoweg","postalCode":"81479","locality":"München","municipality":{"key":"09162000","name":"München, Landeshauptstadt","type":"Kreisfreie_Stadt"},"district":{"key":"09162","name":"München, Landeshauptstadt","type":"Kreisfreie_Stadt"},"federalState":{"key":"09","name":"Bayern"}},{"name":"Caubstr.","postalCode":"80993","locality":"München","municipality":{"key":"09162000","name":"München, Landeshauptstadt","type":"Kreisfreie_Stadt"},"district":{"key":"09162","name":"München, Landeshauptstadt","type":"Kreisfreie_Stadt"},"federalState":{"key":"09","name":"Bayern"}},{"name":"Celibidacheforum","postalCode":"81667","locality":"München","municipality":{"key":"09162000","name":"München, Landeshauptstadt","type":"Kreisfreie_Stadt"},"district":{"key":"09162","name":"München, Landeshauptstadt","type":"Kreisfreie_Stadt"},"federalState":{"key":"09","name":"Bayern"}},{"name":"Centa-Hafenbrädl-Str.","postalCode":"81249","locality":"München","municipality":{"key":"09162000","name":"München, Landeshauptstadt","type":"Kreisfreie_Stadt"},"district":{"key":"09162","name":"München, Landeshauptstadt","type":"Kreisfreie_Stadt"},"federalState":{"key":"09","name":"Bayern"}},{"name":"Centa-Herker-Bogen","postalCode":"80797","locality":"München","municipality":{"key":"09162000","name":"München, Landeshauptstadt","type":"Kreisfreie_Stadt"},"district":{"key":"09162","name":"München, Landeshauptstadt","type":"Kreisfreie_Stadt"},"federalState":{"key":"09","name":"Bayern"}},{"name":"Cerebotanistr.","postalCode":"80992","locality":"München","municipality":{"key":"09162000","name":"München, Landeshauptstadt","type":"Kreisfreie_Stadt"},"district":{"key":"09162","name":"München, Landeshauptstadt","type":"Kreisfreie_Stadt"},"federalState":{"key":"09","name":"Bayern"}},{"name":"Cervantesstr.","postalCode":"81241","locality":"München","municipality":{"key":"09162000","name":"München, Landeshauptstadt","type":"Kreisfreie_Stadt"},"district":{"key":"09162","name":"München, Landeshauptstadt","type":"Kreisfreie_Stadt"},"federalState":{"key":"09","name":"Bayern"}},{"name":"Chamissostr.","postalCode":"81925","locality":"München","municipality":{"key":"09162000","name":"München, Landeshauptstadt","type":"Kreisfreie_Stadt"},"district":{"key":"09162","name":"München, Landeshauptstadt","type":"Kreisfreie_Stadt"},"federalState":{"key":"09","name":"Bayern"}},{"name":"Chammünsterstr.","postalCode":"81827","locality":"München","municipality":{"key":"09162000","name":"München, Landeshauptstadt","type":"Kreisfreie_Stadt"},"district":{"key":"09162","name":"München, Landeshauptstadt","type":"Kreisfreie_Stadt"},"federalState":{"key":"09","name":"Bayern"}},{"name":"Charles-de-Gaulle-Str.","postalCode":"81737","locality":"München","municipality":{"key":"09162000","name":"München, Landeshauptstadt","type":"Kreisfreie_Stadt"},"district":{"key":"09162","name":"München, Landeshauptstadt","type":"Kreisfreie_Stadt"},"federalState":{"key":"09","name":"Bayern"}},{"name":"Chemnitzer Platz","postalCode":"80992","locality":"München","municipality":{"key":"09162000","name":"München, Landeshauptstadt","type":"Kreisfreie_Stadt"},"district":{"key":"09162","name":"München, Landeshauptstadt","type":"Kreisfreie_Stadt"},"federalState":{"key":"09","name":"Bayern"}},{"name":"Cherubinistr.","postalCode":"80803","locality":"München","municipality":{"key":"09162000","name":"München, Landeshauptstadt","type":"Kreisfreie_Stadt"},"district":{"key":"09162","name":"München, Landeshauptstadt","type":"Kreisfreie_Stadt"},"federalState":{"key":"09","name":"Bayern"}},{"name":"Chiemgaustr.","postalCode":"81539","locality":"München","municipality":{"key":"09162000","name":"München, Landeshauptstadt","type":"Kreisfreie_Stadt"},"district":{"key":"09162","name":"München, Landeshauptstadt","type":"Kreisfreie_Stadt"},"federalState":{"key":"09","name":"Bayern"}},{"name":"Chiemgaustr.","postalCode":"81549","locality":"München","municipality":{"key":"09162000","name":"München, Landeshauptstadt","type":"Kreisfreie_Stadt"},"district":{"key":"09162","name":"München, Landeshauptstadt","type":"Kreisfreie_Stadt"},"federalState":{"key":"09","name":"Bayern"}},{"name":"Chiemseering","postalCode":"85551","locality":"Kirchheim bei München","municipality":{"key":"09184131","name":"Kirchheim b.München","type":"Kreisangehörige_Gemeinde"},"district":{"key":"09184","name":"München","type":"Landkreis"},"federalState":{"key":"09","name":"Bayern"}},{"name":"China-Garten","postalCode":"81377","locality":"München","municipality":{"key":"09162000","name":"München, Landeshauptstadt","type":"Kreisfreie_Stadt"},"district":{"key":"09162","name":"München, Landeshauptstadt","type":"Kreisfreie_Stadt"},"federalState":{"key":"09","name":"Bayern"}},{"name":"Chopinstr.","postalCode":"81245","locality":"München","municipality":{"key":"09162000","name":"München, Landeshauptstadt","type":"Kreisfreie_Stadt"},"district":{"key":"09162","name":"München, Landeshauptstadt","type":"Kreisfreie_Stadt"},"federalState":{"key":"09","name":"Bayern"}},{"name":"Chorherrstr.","postalCode":"81667","locality":"München","municipality":{"key":"09162000","name":"München, Landeshauptstadt","type":"Kreisfreie_Stadt"},"district":{"key":"09162","name":"München, Landeshauptstadt","type":"Kreisfreie_Stadt"},"federalState":{"key":"09","name":"Bayern"}},{"name":"Christel-Küpper-Platz","postalCode":"81379","locality":"München","municipality":{"key":"09162000","name":"München, Landeshauptstadt","type":"Kreisfreie_Stadt"},"district":{"key":"09162","name":"München, Landeshauptstadt","type":"Kreisfreie_Stadt"},"federalState":{"key":"09","name":"Bayern"}},{"name":"Christel-Sembach-Krone-Str.","postalCode":"81248","locality":"München","municipality":{"key":"09162000","name":"München, Landeshauptstadt","type":"Kreisfreie_Stadt"},"district":{"key":"09162","name":"München, Landeshauptstadt","type":"Kreisfreie_Stadt"},"federalState":{"key":"09","name":"Bayern"}},{"name":"Christl-Cranz-Str.","postalCode":"85551","locality":"Kirchheim bei München","municipality":{"key":"09184131","name":"Kirchheim b.München","type":"Kreisangehörige_Gemeinde"},"district":{"key":"09184","name":"München","type":"Landkreis"},"federalState":{"key":"09","name":"Bayern"}},{"name":"Christoph-Probst-Str.","postalCode":"80805","locality":"München","municipality":{"key":"09162000","name":"München, Landeshauptstadt","type":"Kreisfreie_Stadt"},"district":{"key":"09162","name":"München, Landeshauptstadt","type":"Kreisfreie_Stadt"},"federalState":{"key":"09","name":"Bayern"}},{"name":"Christoph-Rapparini-Bogen","postalCode":"80639","locality":"München","municipality":{"key":"09162000","name":"München, Landeshauptstadt","type":"Kreisfreie_Stadt"},"district":{"key":"09162","name":"München, Landeshauptstadt","type":"Kreisfreie_Stadt"},"federalState":{"key":"09","name":"Bayern"}},{"name":"Christoph-Schmid-Str.","postalCode":"80807","locality":"München","municipality":{"key":"09162000","name":"München, Landeshauptstadt","type":"Kreisfreie_Stadt"},"district":{"key":"09162","name":"München, Landeshauptstadt","type":"Kreisfreie_Stadt"},"federalState":{"key":"09","name":"Bayern"}},{"name":"Dammweg","postalCode":"85653","locality":"Aying","municipality":{"key":"09184137","name":"Aying","type":"Kreisangehörige_Gemeinde"},"district":{"key":"09184","name":"München","type":"Landkreis"},"federalState":{"key":"09","name":"Bayern"}},{"name":"Dienst-Geräumt","postalCode":"85653","locality":"Aying","municipality":{"key":"09184137","name":"Aying","type":"Kreisangehörige_Gemeinde"},"district":{"key":"09184","name":"München","type":"Landkreis"},"federalState":{"key":"09","name":"Bayern"}},{"name":"Digelfeldstr.","postalCode":"72534","locality":"Hayingen","municipality":{"key":"08415034","name":"Hayingen, Stadt","type":"Stadt"},"district":{"key":"08415","name":"Reutlingen","type":"Landkreis"},"federalState":{"key":"08","name":"Baden-Württemberg"}},{"name":"Dorfstr.","postalCode":"85653","locality":"Aying","municipality":{"key":"09184137","name":"Aying","type":"Kreisangehörige_Gemeinde"},"district":{"key":"09184","name":"München","type":"Landkreis"},"federalState":{"key":"09","name":"Bayern"}},{"name":"Drosselweg","postalCode":"85653","locality":"Aying","municipality":{"key":"09184137","name":"Aying","type":"Kreisangehörige_Gemeinde"},"district":{"key":"09184","name":"München","type":"Landkreis"},"federalState":{"key":"09","name":"Bayern"}},{"name":"Dürrnhaarer-Geräumt","postalCode":"85653","locality":"Aying","municipality":{"key":"09184137","name":"Aying","type":"Kreisangehörige_Gemeinde"},"district":{"key":"09184","name":"München","type":"Landkreis"},"federalState":{"key":"09","name":"Bayern"}},{"name":"Dürrnhaarer Str.","postalCode":"85653","locality":"Aying","municipality":{"key":"09184137","name":"Aying","type":"Kreisangehörige_Gemeinde"},"district":{"key":"09184","name":"München","type":"Landkreis"},"federalState":{"key":"09","name":"Bayern"}},{"name":"Egmatinger Str.","postalCode":"85653","locality":"Aying","municipality":{"key":"09184137","name":"Aying","type":"Kreisangehörige_Gemeinde"},"district":{"key":"09184","name":"München","type":"Landkreis"},"federalState":{"key":"09","name":"Bayern"}},{"name":"Ehestetter Str.","postalCode":"72534","locality":"Hayingen","municipality":{"key":"08415034","name":"Hayingen, Stadt","type":"Stadt"},"district":{"key":"08415","name":"Reutlingen","type":"Landkreis"},"federalState":{"key":"08","name":"Baden-Württemberg"}},{"name":"Ehrenfelser Weg","postalCode":"72534","locality":"Hayingen","municipality":{"key":"08415034","name":"Hayingen, Stadt","type":"Stadt"},"district":{"key":"08415","name":"Reutlingen","type":"Landkreis"},"federalState":{"key":"08","name":"Baden-Württemberg"}},{"name":"Eichbühl","postalCode":"72534","locality":"Hayingen","municipality":{"key":"08415034","name":"Hayingen, Stadt","type":"Stadt"},"district":{"key":"08415","name":"Reutlingen","type":"Landkreis"},"federalState":{"key":"08","name":"Baden-Württemberg"}},{"name":"Enzianweg","postalCode":"72534","locality":"Hayingen","municipality":{"key":"08415034","name":"Hayingen, Stadt","type":"Stadt"},"district":{"key":"08415","name":"Reutlingen","type":"Landkreis"},"federalState":{"key":"08","name":"Baden-Württemberg"}},{"name":"Erbstetter Str.","postalCode":"72534","locality":"Hayingen","municipality":{"key":"08415034","name":"Hayingen, Stadt","type":"Stadt"},"district":{"key":"08415","name":"Reutlingen","type":"Landkreis"},"federalState":{"key":"08","name":"Baden-Württemberg"}},{"name":"Färbergasse","postalCode":"72534","locality":"Hayingen","municipality":{"key":"08415034","name":"Hayingen, Stadt","type":"Stadt"},"district":{"key":"08415","name":"Reutlingen","type":"Landkreis"},"federalState":{"key":"08","name":"Baden-Württemberg"}},{"name":"Fichtenstr.","postalCode":"85653","locality":"Aying","municipality":{"key":"09184137","name":"Aying","type":"Kreisangehörige_Gemeinde"},"district":{"key":"09184","name":"München","type":"Landkreis"},"federalState":{"key":"09","name":"Bayern"}},{"name":"Finkenweg","postalCode":"85653","locality":"Aying","municipality":{"key":"09184137","name":"Aying","type":"Kreisangehörige_Gemeinde"},"district":{"key":"09184","name":"München","type":"Landkreis"},"federalState":{"key":"09","name":"Bayern"}},{"name":"Flurstr.","postalCode":"85653","locality":"Aying","municipality":{"key":"09184137","name":"Aying","type":"Kreisangehörige_Gemeinde"},"district":{"key":"09184","name":"München","type":"Landkreis"},"federalState":{"key":"09","name":"Bayern"}},{"name":"Forstdirektor-Greis-Weg","postalCode":"85653","locality":"Aying","municipality":{"key":"09184137","name":"Aying","type":"Kreisangehörige_Gemeinde"},"district":{"key":"09184","name":"München","type":"Landkreis"},"federalState":{"key":"09","name":"Bayern"}},{"name":"Forststr.","postalCode":"85653","locality":"Aying","municipality":{"key":"09184137","name":"Aying","type":"Kreisangehörige_Gemeinde"},"district":{"key":"09184","name":"München","type":"Landkreis"},"federalState":{"key":"09","name":"Bayern"}},{"name":"Franz-Inselkammer-Str.","postalCode":"85653","locality":"Aying","municipality":{"key":"09184137","name":"Aying","type":"Kreisangehörige_Gemeinde"},"district":{"key":"09184","name":"München","type":"Landkreis"},"federalState":{"key":"09","name":"Bayern"}},{"name":"Franz-Inselkammer-Weg","postalCode":"85653","locality":"Aying","municipality":{"key":"09184137","name":"Aying","type":"Kreisangehörige_Gemeinde"},"district":{"key":"09184","name":"München","type":"Landkreis"},"federalState":{"key":"09","name":"Bayern"}},{"name":"Frauengasse","postalCode":"72534","locality":"Hayingen","municipality":{"key":"08415034","name":"Hayingen, Stadt","type":"Stadt"},"district":{"key":"08415","name":"Reutlingen","type":"Landkreis"},"federalState":{"key":"08","name":"Baden-Württemberg"}},{"name":"Friedhofweg","postalCode":"72534","locality":"Hayingen","municipality":{"key":"08415034","name":"Hayingen, Stadt","type":"Stadt"},"district":{"key":"08415","name":"Reutlingen","type":"Landkreis"},"federalState":{"key":"08","name":"Baden-Württemberg"}},{"name":"Fuchs Geräumt","postalCode":"85653","locality":"Aying","municipality":{"key":"09184137","name":"Aying","type":"Kreisangehörige_Gemeinde"},"district":{"key":"09184","name":"München","type":"Landkreis"},"federalState":{"key":"09","name":"Bayern"}},{"name":"Furter Feld","postalCode":"85653","locality":"Aying","municipality":{"key":"09184137","name":"Aying","type":"Kreisangehörige_Gemeinde"},"district":{"key":"09184","name":"München","type":"Landkreis"},"federalState":{"key":"09","name":"Bayern"}},{"name":"Gallusweg","postalCode":"72534","locality":"Hayingen","municipality":{"key":"08415034","name":"Hayingen, Stadt","type":"Stadt"},"district":{"key":"08415","name":"Reutlingen","type":"Landkreis"},"federalState":{"key":"08","name":"Baden-Württemberg"}},{"name":"Ganghoferstr.","postalCode":"85653","locality":"Aying","municipality":{"key":"09184137","name":"Aying","type":"Kreisangehörige_Gemeinde"},"district":{"key":"09184","name":"München","type":"Landkreis"},"federalState":{"key":"09","name":"Bayern"}},{"name":"Gerbergasse","postalCode":"72534","locality":"Hayingen","municipality":{"key":"08415034","name":"Hayingen, Stadt","type":"Stadt"},"district":{"key":"08415","name":"Reutlingen","type":"Landkreis"},"federalState":{"key":"08","name":"Baden-Württemberg"}},{"name":"Gerstenweg","postalCode":"85653","locality":"Aying","municipality":{"key":"09184137","name":"Aying","type":"Kreisangehörige_Gemeinde"},"district":{"key":"09184","name":"München","type":"Landkreis"},"federalState":{"key":"09","name":"Bayern"}},{"name":"Gespreiweg","postalCode":"85653","locality":"Aying","municipality":{"key":"09184137","name":"Aying","type":"Kreisangehörige_Gemeinde"},"district":{"key":"09184","name":"München","type":"Landkreis"},"federalState":{"key":"09","name":"Bayern"}},{"name":"Glastal","postalCode":"72534","locality":"Hayingen","municipality":{"key":"08415034","name":"Hayingen, Stadt","type":"Stadt"},"district":{"key":"08415","name":"Reutlingen","type":"Landkreis"},"federalState":{"key":"08","name":"Baden-Württemberg"}},{"name":"Glastalstr.","postalCode":"72534","locality":"Hayingen","municipality":{"key":"08415034","name":"Hayingen, Stadt","type":"Stadt"},"district":{"key":"08415","name":"Reutlingen","type":"Landkreis"},"federalState":{"key":"08","name":"Baden-Württemberg"}},{"name":"Glonner Str.","postalCode":"85653","locality":"Aying","municipality":{"key":"09184137","name":"Aying","type":"Kreisangehörige_Gemeinde"},"district":{"key":"09184","name":"München","type":"Landkreis"},"federalState":{"key":"09","name":"Bayern"}},{"name":"Göggenhofener Kirchweg","postalCode":"85653","locality":"Aying","municipality":{"key":"09184137","name":"Aying","type":"Kreisangehörige_Gemeinde"},"district":{"key":"09184","name":"München","type":"Landkreis"},"federalState":{"key":"09","name":"Bayern"}},{"name":"Goldbergstr.","postalCode":"85653","locality":"Aying","municipality":{"key":"09184137","name":"Aying","type":"Kreisangehörige_Gemeinde"},"district":{"key":"09184","name":"München","type":"Landkreis"},"federalState":{"key":"09","name":"Bayern"}},{"name":"Graßer Str.","postalCode":"85653","locality":"Aying","municipality":{"key":"09184137","name":"Aying","type":"Kreisangehörige_Gemeinde"},"district":{"key":"09184","name":"München","type":"Landkreis"},"federalState":{"key":"09","name":"Bayern"}},{"name":"Gruber Str.","postalCode":"85653","locality":"Aying","municipality":{"key":"09184137","name":"Aying","type":"Kreisangehörige_Gemeinde"},"district":{"key":"09184","name":"München","type":"Landkreis"},"federalState":{"key":"09","name":"Bayern"}},{"name":"Guckentalweg","postalCode":"72534","locality":"Hayingen","municipality":{"key":"08415034","name":"Hayingen, Stadt","type":"Stadt"},"district":{"key":"08415","name":"Reutlingen","type":"Landkreis"},"federalState":{"key":"08","name":"Baden-Württemberg"}},{"name":"Gustav-Jourdan-Weg","postalCode":"72534","locality":"Hayingen","municipality":{"key":"08415034","name":"Hayingen, Stadt","type":"Stadt"},"district":{"key":"08415","name":"Reutlingen","type":"Landkreis"},"federalState":{"key":"08","name":"Baden-Württemberg"}},{"name":"Hanfgärten","postalCode":"72534","locality":"Hayingen","municipality":{"key":"08415034","name":"Hayingen, Stadt","type":"Stadt"},"district":{"key":"08415","name":"Reutlingen","type":"Landkreis"},"federalState":{"key":"08","name":"Baden-Württemberg"}},{"name":"Hans-Ernst-Str.","postalCode":"85653","locality":"Aying","municipality":{"key":"09184137","name":"Aying","type":"Kreisangehörige_Gemeinde"},"district":{"key":"09184","name":"München","type":"Landkreis"},"federalState":{"key":"09","name":"Bayern"}},{"name":"Haupt-Geräumt","postalCode":"85653","locality":"Aying","municipality":{"key":"09184137","name":"Aying","type":"Kreisangehörige_Gemeinde"},"district":{"key":"09184","name":"München","type":"Landkreis"},"federalState":{"key":"09","name":"Bayern"}},{"name":"Hauptstr.","postalCode":"72534","locality":"Hayingen","municipality":{"key":"08415034","name":"Hayingen, Stadt","type":"Stadt"},"district":{"key":"08415","name":"Reutlingen","type":"Landkreis"},"federalState":{"key":"08","name":"Baden-Württemberg"}},{"name":"Hauptstr.","postalCode":"85653","locality":"Aying","municipality":{"key":"09184137","name":"Aying","type":"Kreisangehörige_Gemeinde"},"district":{"key":"09184","name":"München","type":"Landkreis"},"federalState":{"key":"09","name":"Bayern"}},{"name":"Heiligenberg","postalCode":"72534","locality":"Hayingen","municipality":{"key":"08415034","name":"Hayingen, Stadt","type":"Stadt"},"district":{"key":"08415","name":"Reutlingen","type":"Landkreis"},"federalState":{"key":"08","name":"Baden-Württemberg"}},{"name":"Heimatshofen","postalCode":"85653","locality":"Aying","municipality":{"key":"09184137","name":"Aying","type":"Kreisangehörige_Gemeinde"},"district":{"key":"09184","name":"München","type":"Landkreis"},"federalState":{"key":"09","name":"Bayern"}},{"name":"Herrenstr.","postalCode":"85653","locality":"Aying","municipality":{"key":"09184137","name":"Aying","type":"Kreisangehörige_Gemeinde"},"district":{"key":"09184","name":"München","type":"Landkreis"},"federalState":{"key":"09","name":"Bayern"}},{"name":"Herzental","postalCode":"72534","locality":"Hayingen","municipality":{"key":"08415034","name":"Hayingen, Stadt","type":"Stadt"},"district":{"key":"08415","name":"Reutlingen","type":"Landkreis"},"federalState":{"key":"08","name":"Baden-Württemberg"}},{"name":"Hirschbergstr.","postalCode":"85653","locality":"Aying","municipality":{"key":"09184137","name":"Aying","type":"Kreisangehörige_Gemeinde"},"district":{"key":"09184","name":"München","type":"Landkreis"},"federalState":{"key":"09","name":"Bayern"}},{"name":"Hitzenstaudenring","postalCode":"72534","locality":"Hayingen","municipality":{"key":"08415034","name":"Hayingen, Stadt","type":"Stadt"},"district":{"key":"08415","name":"Reutlingen","type":"Landkreis"},"federalState":{"key":"08","name":"Baden-Württemberg"}},{"name":"Hofäckerstr.","postalCode":"72534","locality":"Hayingen","municipality":{"key":"08415034","name":"Hayingen, Stadt","type":"Stadt"},"district":{"key":"08415","name":"Reutlingen","type":"Landkreis"},"federalState":{"key":"08","name":"Baden-Württemberg"}},{"name":"Höhe","postalCode":"72534","locality":"Hayingen","municipality":{"key":"08415034","name":"Hayingen, Stadt","type":"Stadt"},"district":{"key":"08415","name":"Reutlingen","type":"Landkreis"},"federalState":{"key":"08","name":"Baden-Württemberg"}},{"name":"Höhenkirchener Str.","postalCode":"85653","locality":"Aying","municipality":{"key":"09184137","name":"Aying","type":"Kreisangehörige_Gemeinde"},"district":{"key":"09184","name":"München","type":"Landkreis"},"federalState":{"key":"09","name":"Bayern"}},{"name":"Höhenweg","postalCode":"72534","locality":"Hayingen","municipality":{"key":"08415034","name":"Hayingen, Stadt","type":"Stadt"},"district":{"key":"08415","name":"Reutlingen","type":"Landkreis"},"federalState":{"key":"08","name":"Baden-Württemberg"}},{"name":"Holzgasse","postalCode":"72534","locality":"Hayingen","municipality":{"key":"08415034","name":"Hayingen, Stadt","type":"Stadt"},"district":{"key":"08415","name":"Reutlingen","type":"Landkreis"},"federalState":{"key":"08","name":"Baden-Württemberg"}},{"name":"Holzkirchener Str.","postalCode":"85653","locality":"Aying","municipality":{"key":"09184137","name":"Aying","type":"Kreisangehörige_Gemeinde"},"district":{"key":"09184","name":"München","type":"Landkreis"},"federalState":{"key":"09","name":"Bayern"}},{"name":"Hopfenweg","postalCode":"85653","locality":"Aying","municipality":{"key":"09184137","name":"Aying","type":"Kreisangehörige_Gemeinde"},"district":{"key":"09184","name":"München","type":"Landkreis"},"federalState":{"key":"09","name":"Bayern"}},{"name":"Hornsmann-Geräumt","postalCode":"85653","locality":"Aying","municipality":{"key":"09184137","name":"Aying","type":"Kreisangehörige_Gemeinde"},"district":{"key":"09184","name":"München","type":"Landkreis"},"federalState":{"key":"09","name":"Bayern"}},{"name":"Im Kühlfeld","postalCode":"85653","locality":"Aying","municipality":{"key":"09184137","name":"Aying","type":"Kreisangehörige_Gemeinde"},"district":{"key":"09184","name":"München","type":"Landkreis"},"federalState":{"key":"09","name":"Bayern"}},{"name":"Im Öschle","postalCode":"72534","locality":"Hayingen","municipality":{"key":"08415034","name":"Hayingen, Stadt","type":"Stadt"},"district":{"key":"08415","name":"Reutlingen","type":"Landkreis"},"federalState":{"key":"08","name":"Baden-Württemberg"}},{"name":"In Breitwiesen","postalCode":"72534","locality":"Hayingen","municipality":{"key":"08415034","name":"Hayingen, Stadt","type":"Stadt"},"district":{"key":"08415","name":"Reutlingen","type":"Landkreis"},"federalState":{"key":"08","name":"Baden-Württemberg"}},{"name":"Jägerkampstr.","postalCode":"85653","locality":"Aying","municipality":{"key":"09184137","name":"Aying","type":"Kreisangehörige_Gemeinde"},"district":{"key":"09184","name":"München","type":"Landkreis"},"federalState":{"key":"09","name":"Bayern"}},{"name":"Johannes-Schwendele-Weg","postalCode":"72534","locality":"Hayingen","municipality":{"key":"08415034","name":"Hayingen, Stadt","type":"Stadt"},"district":{"key":"08415","name":"Reutlingen","type":"Landkreis"},"federalState":{"key":"08","name":"Baden-Württemberg"}},{"name":"Josef-Haible-Weg","postalCode":"72534","locality":"Hayingen","municipality":{"key":"08415034","name":"Hayingen, Stadt","type":"Stadt"},"district":{"key":"08415","name":"Reutlingen","type":"Landkreis"},"federalState":{"key":"08","name":"Baden-Württemberg"}},{"name":"Josefstr.","postalCode":"72534","locality":"Hayingen","municipality":{"key":"08415034","name":"Hayingen, Stadt","type":"Stadt"},"district":{"key":"08415","name":"Reutlingen","type":"Landkreis"},"federalState":{"key":"08","name":"Baden-Württemberg"}},{"name":"Kaltenbrunner Str.","postalCode":"85653","locality":"Aying","municipality":{"key":"09184137","name":"Aying","type":"Kreisangehörige_Gemeinde"},"district":{"key":"09184","name":"München","type":"Landkreis"},"federalState":{"key":"09","name":"Bayern"}},{"name":"Kaplaneistr.","postalCode":"72534","locality":"Hayingen","municipality":{"key":"08415034","name":"Hayingen, Stadt","type":"Stadt"},"district":{"key":"08415","name":"Reutlingen","type":"Landkreis"},"federalState":{"key":"08","name":"Baden-Württemberg"}},{"name":"Kappisbühl","postalCode":"72534","locality":"Hayingen","municipality":{"key":"08415034","name":"Hayingen, Stadt","type":"Stadt"},"district":{"key":"08415","name":"Reutlingen","type":"Landkreis"},"federalState":{"key":"08","name":"Baden-Württemberg"}},{"name":"Karlsplatz","postalCode":"72534","locality":"Hayingen","municipality":{"key":"08415034","name":"Hayingen, Stadt","type":"Stadt"},"district":{"key":"08415","name":"Reutlingen","type":"Landkreis"},"federalState":{"key":"08","name":"Baden-Württemberg"}},{"name":"Karl-Truchsess-Weg","postalCode":"72534","locality":"Hayingen","municipality":{"key":"08415034","name":"Hayingen, Stadt","type":"Stadt"},"district":{"key":"08415","name":"Reutlingen","type":"Landkreis"},"federalState":{"key":"08","name":"Baden-Württemberg"}},{"name":"Kirchberg","postalCode":"72534","locality":"Hayingen","municipality":{"key":"08415034","name":"Hayingen, Stadt","type":"Stadt"},"district":{"key":"08415","name":"Reutlingen","type":"Landkreis"},"federalState":{"key":"08","name":"Baden-Württemberg"}},{"name":"Kirchenstr.","postalCode":"85653","locality":"Aying","municipality":{"key":"09184137","name":"Aying","type":"Kreisangehörige_Gemeinde"},"district":{"key":"09184","name":"München","type":"Landkreis"},"federalState":{"key":"09","name":"Bayern"}},{"name":"Kirchfeldstr.","postalCode":"85653","locality":"Aying","municipality":{"key":"09184137","name":"Aying","type":"Kreisangehörige_Gemeinde"},"district":{"key":"09184","name":"München","type":"Landkreis"},"federalState":{"key":"09","name":"Bayern"}},{"name":"Kirchgasse","postalCode":"85653","locality":"Aying","municipality":{"key":"09184137","name":"Aying","type":"Kreisangehörige_Gemeinde"},"district":{"key":"09184","name":"München","type":"Landkreis"},"federalState":{"key":"09","name":"Bayern"}},{"name":"Kirchstr.","postalCode":"72534","locality":"Hayingen","municipality":{"key":"08415034","name":"Hayingen, Stadt","type":"Stadt"},"district":{"key":"08415","name":"Reutlingen","type":"Landkreis"},"federalState":{"key":"08","name":"Baden-Württemberg"}},{"name":"Kleinhelfendorf","postalCode":"85653","locality":"Aying","municipality":{"key":"09184137","name":"Aying","type":"Kreisangehörige_Gemeinde"},"district":{"key":"09184","name":"München","type":"Landkreis"},"federalState":{"key":"09","name":"Bayern"}},{"name":"Kleinkarolinenfeld","postalCode":"85653","locality":"Aying","municipality":{"key":"09184137","name":"Aying","type":"Kreisangehörige_Gemeinde"},"district":{"key":"09184","name":"München","type":"Landkreis"},"federalState":{"key":"09","name":"Bayern"}},{"name":"Kohlholzweg","postalCode":"85653","locality":"Aying","municipality":{"key":"09184137","name":"Aying","type":"Kreisangehörige_Gemeinde"},"district":{"key":"09184","name":"München","type":"Landkreis"},"federalState":{"key":"09","name":"Bayern"}},{"name":"Königs Geräumt","postalCode":"85653","locality":"Aying","municipality":{"key":"09184137","name":"Aying","type":"Kreisangehörige_Gemeinde"},"district":{"key":"09184","name":"München","type":"Landkreis"},"federalState":{"key":"09","name":"Bayern"}},{"name":"Konrad-Häbe-Str.","postalCode":"72534","locality":"Hayingen","municipality":{"key":"08415034","name":"Hayingen, Stadt","type":"Stadt"},"district":{"key":"08415","name":"Reutlingen","type":"Landkreis"},"federalState":{"key":"08","name":"Baden-Württemberg"}},{"name":"Kreuzbergweg","postalCode":"72534","locality":"Hayingen","municipality":{"key":"08415034","name":"Hayingen, Stadt","type":"Stadt"},"district":{"key":"08415","name":"Reutlingen","type":"Landkreis"},"federalState":{"key":"08","name":"Baden-Württemberg"}},{"name":"Kronest-Geräumt","postalCode":"85653","locality":"Aying","municipality":{"key":"09184137","name":"Aying","type":"Kreisangehörige_Gemeinde"},"district":{"key":"09184","name":"München","type":"Landkreis"},"federalState":{"key":"09","name":"Bayern"}},{"name":"Küfergasse","postalCode":"72534","locality":"Hayingen","municipality":{"key":"08415034","name":"Hayingen, Stadt","type":"Stadt"},"district":{"key":"08415","name":"Reutlingen","type":"Landkreis"},"federalState":{"key":"08","name":"Baden-Württemberg"}},{"name":"Lärchenstr.","postalCode":"85653","locality":"Aying","municipality":{"key":"09184137","name":"Aying","type":"Kreisangehörige_Gemeinde"},"district":{"key":"09184","name":"München","type":"Landkreis"},"federalState":{"key":"09","name":"Bayern"}},{"name":"Lautertalstr.","postalCode":"72534","locality":"Hayingen","municipality":{"key":"08415034","name":"Hayingen, Stadt","type":"Stadt"},"district":{"key":"08415","name":"Reutlingen","type":"Landkreis"},"federalState":{"key":"08","name":"Baden-Württemberg"}},{"name":"Lena-Christ-Weg","postalCode":"85653","locality":"Aying","municipality":{"key":"09184137","name":"Aying","type":"Kreisangehörige_Gemeinde"},"district":{"key":"09184","name":"München","type":"Landkreis"},"federalState":{"key":"09","name":"Bayern"}},{"name":"Lendl-Geräumt","postalCode":"85653","locality":"Aying","municipality":{"key":"09184137","name":"Aying","type":"Kreisangehörige_Gemeinde"},"district":{"key":"09184","name":"München","type":"Landkreis"},"federalState":{"key":"09","name":"Bayern"}},{"name":"Lerchenweg","postalCode":"85653","locality":"Aying","municipality":{"key":"09184137","name":"Aying","type":"Kreisangehörige_Gemeinde"},"district":{"key":"09184","name":"München","type":"Landkreis"},"federalState":{"key":"09","name":"Bayern"}},{"name":"Lindacher Weg","postalCode":"85653","locality":"Aying","municipality":{"key":"09184137","name":"Aying","type":"Kreisangehörige_Gemeinde"},"district":{"key":"09184","name":"München","type":"Landkreis"},"federalState":{"key":"09","name":"Bayern"}},{"name":"Lindenstr.","postalCode":"85653","locality":"Aying","municipality":{"key":"09184137","name":"Aying","type":"Kreisangehörige_Gemeinde"},"district":{"key":"09184","name":"München","type":"Landkreis"},"federalState":{"key":"09","name":"Bayern"}},{"name":"Lindenweg","postalCode":"72534","locality":"Hayingen","municipality":{"key":"08415034","name":"Hayingen, Stadt","type":"Stadt"},"district":{"key":"08415","name":"Reutlingen","type":"Landkreis"},"federalState":{"key":"08","name":"Baden-Württemberg"}},{"name":"Malzweg","postalCode":"85653","locality":"Aying","municipality":{"key":"09184137","name":"Aying","type":"Kreisangehörige_Gemeinde"},"district":{"key":"09184","name":"München","type":"Landkreis"},"federalState":{"key":"09","name":"Bayern"}},{"name":"Mangfallweg","postalCode":"85653","locality":"Aying","municipality":{"key":"09184137","name":"Aying","type":"Kreisangehörige_Gemeinde"},"district":{"key":"09184","name":"München","type":"Landkreis"},"federalState":{"key":"09","name":"Bayern"}},{"name":"Marktstr.","postalCode":"72534","locality":"Hayingen","municipality":{"key":"08415034","name":"Hayingen, Stadt","type":"Stadt"},"district":{"key":"08415","name":"Reutlingen","type":"Landkreis"},"federalState":{"key":"08","name":"Baden-Württemberg"}},{"name":"Martin-Schleker-Platz","postalCode":"72534","locality":"Hayingen","municipality":{"key":"08415034","name":"Hayingen, Stadt","type":"Stadt"},"district":{"key":"08415","name":"Reutlingen","type":"Landkreis"},"federalState":{"key":"08","name":"Baden-Württemberg"}},{"name":"Michael-Kometer-Ring","postalCode":"85653","locality":"Aying","municipality":{"key":"09184137","name":"Aying","type":"Kreisangehörige_Gemeinde"},"district":{"key":"09184","name":"München","type":"Landkreis"},"federalState":{"key":"09","name":"Bayern"}},{"name":"Mitterweg","postalCode":"85653","locality":"Aying","municipality":{"key":"09184137","name":"Aying","type":"Kreisangehörige_Gemeinde"},"district":{"key":"09184","name":"München","type":"Landkreis"},"federalState":{"key":"09","name":"Bayern"}},{"name":"Mitterweg-Geräumt","postalCode":"85653","locality":"Aying","municipality":{"key":"09184137","name":"Aying","type":"Kreisangehörige_Gemeinde"},"district":{"key":"09184","name":"München","type":"Landkreis"},"federalState":{"key":"09","name":"Bayern"}},{"name":"Moosweg","postalCode":"85653","locality":"Aying","municipality":{"key":"09184137","name":"Aying","type":"Kreisangehörige_Gemeinde"},"district":{"key":"09184","name":"München","type":"Landkreis"},"federalState":{"key":"09","name":"Bayern"}},{"name":"Mozartstr.","postalCode":"85653","locality":"Aying","municipality":{"key":"09184137","name":"Aying","type":"Kreisangehörige_Gemeinde"},"district":{"key":"09184","name":"München","type":"Landkreis"},"federalState":{"key":"09","name":"Bayern"}},{"name":"Mühlenweg","postalCode":"85653","locality":"Aying","municipality":{"key":"09184137","name":"Aying","type":"Kreisangehörige_Gemeinde"},"district":{"key":"09184","name":"München","type":"Landkreis"},"federalState":{"key":"09","name":"Bayern"}},{"name":"Mühlstr.","postalCode":"72534","locality":"Hayingen","municipality":{"key":"08415034","name":"Hayingen, Stadt","type":"Stadt"},"district":{"key":"08415","name":"Reutlingen","type":"Landkreis"},"federalState":{"key":"08","name":"Baden-Württemberg"}},{"name":"Mühlweg","postalCode":"85653","locality":"Aying","municipality":{"key":"09184137","name":"Aying","type":"Kreisangehörige_Gemeinde"},"district":{"key":"09184","name":"München","type":"Landkreis"},"federalState":{"key":"09","name":"Bayern"}},{"name":"Münchener Str.","postalCode":"85653","locality":"Aying","municipality":{"key":"09184137","name":"Aying","type":"Kreisangehörige_Gemeinde"},"district":{"key":"09184","name":"München","type":"Landkreis"},"federalState":{"key":"09","name":"Bayern"}},{"name":"Münsinger Str.","postalCode":"72534","locality":"Hayingen","municipality":{"key":"08415034","name":"Hayingen, Stadt","type":"Stadt"},"district":{"key":"08415","name":"Reutlingen","type":"Landkreis"},"federalState":{"key":"08","name":"Baden-Württemberg"}},{"name":"Neugöggenhofen","postalCode":"85653","locality":"Aying","municipality":{"key":"09184137","name":"Aying","type":"Kreisangehörige_Gemeinde"},"district":{"key":"09184","name":"München","type":"Landkreis"},"federalState":{"key":"09","name":"Bayern"}},{"name":"Ney-Geräumt","postalCode":"85653","locality":"Aying","municipality":{"key":"09184137","name":"Aying","type":"Kreisangehörige_Gemeinde"},"district":{"key":"09184","name":"München","type":"Landkreis"},"federalState":{"key":"09","name":"Bayern"}},{"name":"Obere Bahnhofstr.","postalCode":"85653","locality":"Aying","municipality":{"key":"09184137","name":"Aying","type":"Kreisangehörige_Gemeinde"},"district":{"key":"09184","name":"München","type":"Landkreis"},"federalState":{"key":"09","name":"Bayern"}},{"name":"Obere Dorfstr.","postalCode":"85653","locality":"Aying","municipality":{"key":"09184137","name":"Aying","type":"Kreisangehörige_Gemeinde"},"district":{"key":"09184","name":"München","type":"Landkreis"},"federalState":{"key":"09","name":"Bayern"}},{"name":"Obere Kirchstr.","postalCode":"72534","locality":"Hayingen","municipality":{"key":"08415034","name":"Hayingen, Stadt","type":"Stadt"},"district":{"key":"08415","name":"Reutlingen","type":"Landkreis"},"federalState":{"key":"08","name":"Baden-Württemberg"}},{"name":"Obere Wiesen","postalCode":"72534","locality":"Hayingen","municipality":{"key":"08415034","name":"Hayingen, Stadt","type":"Stadt"},"district":{"key":"08415","name":"Reutlingen","type":"Landkreis"},"federalState":{"key":"08","name":"Baden-Württemberg"}},{"name":"Oberwilzinger Str.","postalCode":"72534","locality":"Hayingen","municipality":{"key":"08415034","name":"Hayingen, Stadt","type":"Stadt"},"district":{"key":"08415","name":"Reutlingen","type":"Landkreis"},"federalState":{"key":"08","name":"Baden-Württemberg"}},{"name":"Orchideenstr.","postalCode":"72534","locality":"Hayingen","municipality":{"key":"08415034","name":"Hayingen, Stadt","type":"Stadt"},"district":{"key":"08415","name":"Reutlingen","type":"Landkreis"},"federalState":{"key":"08","name":"Baden-Württemberg"}},{"name":"Ortsstr.","postalCode":"72534","locality":"Hayingen","municipality":{"key":"08415034","name":"Hayingen, Stadt","type":"Stadt"},"district":{"key":"08415","name":"Reutlingen","type":"Landkreis"},"federalState":{"key":"08","name":"Baden-Württemberg"}},{"name":"Osterholzfeld","postalCode":"85653","locality":"Aying","municipality":{"key":"09184137","name":"Aying","type":"Kreisangehörige_Gemeinde"},"district":{"key":"09184","name":"München","type":"Landkreis"},"federalState":{"key":"09","name":"Bayern"}},{"name":"Otto-Geräumt","postalCode":"85653","locality":"Aying","municipality":{"key":"09184137","name":"Aying","type":"Kreisangehörige_Gemeinde"},"district":{"key":"09184","name":"München","type":"Landkreis"},"federalState":{"key":"09","name":"Bayern"}},{"name":"Paul-Burkhardt-Weg","postalCode":"72534","locality":"Hayingen","municipality":{"key":"08415034","name":"Hayingen, Stadt","type":"Stadt"},"district":{"key":"08415","name":"Reutlingen","type":"Landkreis"},"federalState":{"key":"08","name":"Baden-Württemberg"}},{"name":"Peisser-Geräumt","postalCode":"85653","locality":"Aying","municipality":{"key":"09184137","name":"Aying","type":"Kreisangehörige_Gemeinde"},"district":{"key":"09184","name":"München","type":"Landkreis"},"federalState":{"key":"09","name":"Bayern"}},{"name":"Peißer Kirchweg","postalCode":"85653","locality":"Aying","municipality":{"key":"09184137","name":"Aying","type":"Kreisangehörige_Gemeinde"},"district":{"key":"09184","name":"München","type":"Landkreis"},"federalState":{"key":"09","name":"Bayern"}},{"name":"Peißer Str.","postalCode":"85653","locality":"Aying","municipality":{"key":"09184137","name":"Aying","type":"Kreisangehörige_Gemeinde"},"district":{"key":"09184","name":"München","type":"Landkreis"},"federalState":{"key":"09","name":"Bayern"}},{"name":"Peißer Weg","postalCode":"85653","locality":"Aying","municipality":{"key":"09184137","name":"Aying","type":"Kreisangehörige_Gemeinde"},"district":{"key":"09184","name":"München","type":"Landkreis"},"federalState":{"key":"09","name":"Bayern"}},{"name":"Pflugweg","postalCode":"85653","locality":"Aying","municipality":{"key":"09184137","name":"Aying","type":"Kreisangehörige_Gemeinde"},"district":{"key":"09184","name":"München","type":"Landkreis"},"federalState":{"key":"09","name":"Bayern"}},{"name":"Prälatenweg","postalCode":"72534","locality":"Hayingen","municipality":{"key":"08415034","name":"Hayingen, Stadt","type":"Stadt"},"district":{"key":"08415","name":"Reutlingen","type":"Landkreis"},"federalState":{"key":"08","name":"Baden-Württemberg"}},{"name":"Quagliostr.","postalCode":"81543","locality":"München","municipality":{"key":"09162000","name":"München, Landeshauptstadt","type":"Kreisfreie_Stadt"},"district":{"key":"09162","name":"München, Landeshauptstadt","type":"Kreisfreie_Stadt"},"federalState":{"key":"09","name":"Bayern"}},{"name":"Quedlinburger Str.","postalCode":"80992","locality":"München","municipality":{"key":"09162000","name":"München, Landeshauptstadt","type":"Kreisfreie_Stadt"},"district":{"key":"09162","name":"München, Landeshauptstadt","type":"Kreisfreie_Stadt"},"federalState":{"key":"09","name":"Bayern"}},{"name":"Quellweg","postalCode":"85551","locality":"Kirchheim bei München","municipality":{"key":"09184131","name":"Kirchheim b.München","type":"Kreisangehörige_Gemeinde"},"district":{"key":"09184","name":"München","type":"Landkreis"},"federalState":{"key":"09","name":"Bayern"}},{"name":"Queristr.","postalCode":"80689","locality":"München","municipality":{"key":"09162000","name":"München, Landeshauptstadt","type":"Kreisfreie_Stadt"},"district":{"key":"09162","name":"München, Landeshauptstadt","type":"Kreisfreie_Stadt"},"federalState":{"key":"09","name":"Bayern"}},{"name":"Querstr.","postalCode":"07589","locality":"Münchenbernsdorf","municipality":{"key":"16076049","name":"Münchenbernsdorf, Stadt","type":"Stadt"},"district":{"key":"16076","name":"Greiz","type":"Landkreis"},"federalState":{"key":"16","name":"Thüringen"}},{"name":"Quiddestr.","postalCode":"81735","locality":"München","municipality":{"key":"09162000","name":"München, Landeshauptstadt","type":"Kreisfreie_Stadt"},"district":{"key":"09162","name":"München, Landeshauptstadt","type":"Kreisfreie_Stadt"},"federalState":{"key":"09","name":"Bayern"}},{"name":"Quiddestr.","postalCode":"81737","locality":"München","municipality":{"key":"09162000","name":"München, Landeshauptstadt","type":"Kreisfreie_Stadt"},"district":{"key":"09162","name":"München, Landeshauptstadt","type":"Kreisfreie_Stadt"},"federalState":{"key":"09","name":"Bayern"}},{"name":"Rathausplatz","postalCode":"72534","locality":"Hayingen","municipality":{"key":"08415034","name":"Hayingen, Stadt","type":"Stadt"},"district":{"key":"08415","name":"Reutlingen","type":"Landkreis"},"federalState":{"key":"08","name":"Baden-Württemberg"}},{"name":"Rauher Hund","postalCode":"72534","locality":"Hayingen","municipality":{"key":"08415034","name":"Hayingen, Stadt","type":"Stadt"},"district":{"key":"08415","name":"Reutlingen","type":"Landkreis"},"federalState":{"key":"08","name":"Baden-Württemberg"}},{"name":"Regerstr.","postalCode":"85653","locality":"Aying","municipality":{"key":"09184137","name":"Aying","type":"Kreisangehörige_Gemeinde"},"district":{"key":"09184","name":"München","type":"Landkreis"},"federalState":{"key":"09","name":"Bayern"}},{"name":"Römerstr.","postalCode":"85653","locality":"Aying","municipality":{"key":"09184137","name":"Aying","type":"Kreisangehörige_Gemeinde"},"district":{"key":"09184","name":"München","type":"Landkreis"},"federalState":{"key":"09","name":"Bayern"}},{"name":"Roseggerstr.","postalCode":"85653","locality":"Aying","municipality":{"key":"09184137","name":"Aying","type":"Kreisangehörige_Gemeinde"},"district":{"key":"09184","name":"München","type":"Landkreis"},"federalState":{"key":"09","name":"Bayern"}},{"name":"Rosenheimer Landstr.","postalCode":"85653","locality":"Aying","municipality":{"key":"09184137","name":"Aying","type":"Kreisangehörige_Gemeinde"},"district":{"key":"09184","name":"München","type":"Landkreis"},"federalState":{"key":"09","name":"Bayern"}},{"name":"Rosenheimer Str.","postalCode":"85653","locality":"Aying","municipality":{"key":"09184137","name":"Aying","type":"Kreisangehörige_Gemeinde"},"district":{"key":"09184","name":"München","type":"Landkreis"},"federalState":{"key":"09","name":"Bayern"}},{"name":"Saglerweg","postalCode":"85653","locality":"Aying","municipality":{"key":"09184137","name":"Aying","type":"Kreisangehörige_Gemeinde"},"district":{"key":"09184","name":"München","type":"Landkreis"},"federalState":{"key":"09","name":"Bayern"}},{"name":"Sattlerberg","postalCode":"85653","locality":"Aying","municipality":{"key":"09184137","name":"Aying","type":"Kreisangehörige_Gemeinde"},"district":{"key":"09184","name":"München","type":"Landkreis"},"federalState":{"key":"09","name":"Bayern"}},{"name":"Schäfflerstr.","postalCode":"85653","locality":"Aying","municipality":{"key":"09184137","name":"Aying","type":"Kreisangehörige_Gemeinde"},"district":{"key":"09184","name":"München","type":"Landkreis"},"federalState":{"key":"09","name":"Bayern"}},{"name":"Schieferweg","postalCode":"85653","locality":"Aying","municipality":{"key":"09184137","name":"Aying","type":"Kreisangehörige_Gemeinde"},"district":{"key":"09184","name":"München","type":"Landkreis"},"federalState":{"key":"09","name":"Bayern"}},{"name":"Schinderweg","postalCode":"85653","locality":"Aying","municipality":{"key":"09184137","name":"Aying","type":"Kreisangehörige_Gemeinde"},"district":{"key":"09184","name":"München","type":"Landkreis"},"federalState":{"key":"09","name":"Bayern"}},{"name":"Schlehdornweg","postalCode":"72534","locality":"Hayingen","municipality":{"key":"08415034","name":"Hayingen, Stadt","type":"Stadt"},"district":{"key":"08415","name":"Reutlingen","type":"Landkreis"},"federalState":{"key":"08","name":"Baden-Württemberg"}},{"name":"Schloßgartenstr.","postalCode":"72534","locality":"Hayingen","municipality":{"key":"08415034","name":"Hayingen, Stadt","type":"Stadt"},"district":{"key":"08415","name":"Reutlingen","type":"Landkreis"},"federalState":{"key":"08","name":"Baden-Württemberg"}},{"name":"Schloßhof","postalCode":"72534","locality":"Hayingen","municipality":{"key":"08415034","name":"Hayingen, Stadt","type":"Stadt"},"district":{"key":"08415","name":"Reutlingen","type":"Landkreis"},"federalState":{"key":"08","name":"Baden-Württemberg"}},{"name":"Schloßsteige","postalCode":"72534","locality":"Hayingen","municipality":{"key":"08415034","name":"Hayingen, Stadt","type":"Stadt"},"district":{"key":"08415","name":"Reutlingen","type":"Landkreis"},"federalState":{"key":"08","name":"Baden-Württemberg"}},{"name":"Schmiedgässle","postalCode":"72534","locality":"Hayingen","municipality":{"key":"08415034","name":"Hayingen, Stadt","type":"Stadt"},"district":{"key":"08415","name":"Reutlingen","type":"Landkreis"},"federalState":{"key":"08","name":"Baden-Württemberg"}},{"name":"Schneidergasse","postalCode":"72534","locality":"Hayingen","municipality":{"key":"08415034","name":"Hayingen, Stadt","type":"Stadt"},"district":{"key":"08415","name":"Reutlingen","type":"Landkreis"},"federalState":{"key":"08","name":"Baden-Württemberg"}},{"name":"Schreinerweg","postalCode":"85653","locality":"Aying","municipality":{"key":"09184137","name":"Aying","type":"Kreisangehörige_Gemeinde"},"district":{"key":"09184","name":"München","type":"Landkreis"},"federalState":{"key":"09","name":"Bayern"}},{"name":"Schubertstr.","postalCode":"85653","locality":"Aying","municipality":{"key":"09184137","name":"Aying","type":"Kreisangehörige_Gemeinde"},"district":{"key":"09184","name":"München","type":"Landkreis"},"federalState":{"key":"09","name":"Bayern"}},{"name":"Schulstr.","postalCode":"72534","locality":"Hayingen","municipality":{"key":"08415034","name":"Hayingen, Stadt","type":"Stadt"},"district":{"key":"08415","name":"Reutlingen","type":"Landkreis"},"federalState":{"key":"08","name":"Baden-Württemberg"}},{"name":"Schülzburgweg","postalCode":"72534","locality":"Hayingen","municipality":{"key":"08415034","name":"Hayingen, Stadt","type":"Stadt"},"district":{"key":"08415","name":"Reutlingen","type":"Landkreis"},"federalState":{"key":"08","name":"Baden-Württemberg"}},{"name":"Schusterstr.","postalCode":"85653","locality":"Aying","municipality":{"key":"09184137","name":"Aying","type":"Kreisangehörige_Gemeinde"},"district":{"key":"09184","name":"München","type":"Landkreis"},"federalState":{"key":"09","name":"Bayern"}},{"name":"Schwaigerweg","postalCode":"85653","locality":"Aying","municipality":{"key":"09184137","name":"Aying","type":"Kreisangehörige_Gemeinde"},"district":{"key":"09184","name":"München","type":"Landkreis"},"federalState":{"key":"09","name":"Bayern"}},{"name":"Schweiftalweg","postalCode":"72534","locality":"Hayingen","municipality":{"key":"08415034","name":"Hayingen, Stadt","type":"Stadt"},"district":{"key":"08415","name":"Reutlingen","type":"Landkreis"},"federalState":{"key":"08","name":"Baden-Württemberg"}},{"name":"Siedlungsstr.","postalCode":"85653","locality":"Aying","municipality":{"key":"09184137","name":"Aying","type":"Kreisangehörige_Gemeinde"},"district":{"key":"09184","name":"München","type":"Landkreis"},"federalState":{"key":"09","name":"Bayern"}},{"name":"Siegertsbrunner Weg","postalCode":"85653","locality":"Aying","municipality":{"key":"09184137","name":"Aying","type":"Kreisangehörige_Gemeinde"},"district":{"key":"09184","name":"München","type":"Landkreis"},"federalState":{"key":"09","name":"Bayern"}},{"name":"Silberdistelweg","postalCode":"72534","locality":"Hayingen","municipality":{"key":"08415034","name":"Hayingen, Stadt","type":"Stadt"},"district":{"key":"08415","name":"Reutlingen","type":"Landkreis"},"federalState":{"key":"08","name":"Baden-Württemberg"}},{"name":"Sixenbogen","postalCode":"85653","locality":"Aying","municipality":{"key":"09184137","name":"Aying","type":"Kreisangehörige_Gemeinde"},"district":{"key":"09184","name":"München","type":"Landkreis"},"federalState":{"key":"09","name":"Bayern"}},{"name":"Sonnenweg","postalCode":"85653","locality":"Aying","municipality":{"key":"09184137","name":"Aying","type":"Kreisangehörige_Gemeinde"},"district":{"key":"09184","name":"München","type":"Landkreis"},"federalState":{"key":"09","name":"Bayern"}},{"name":"Spitalgasse","postalCode":"72534","locality":"Hayingen","municipality":{"key":"08415034","name":"Hayingen, Stadt","type":"Stadt"},"district":{"key":"08415","name":"Reutlingen","type":"Landkreis"},"federalState":{"key":"08","name":"Baden-Württemberg"}},{"name":"Steige","postalCode":"72534","locality":"Hayingen","municipality":{"key":"08415034","name":"Hayingen, Stadt","type":"Stadt"},"district":{"key":"08415","name":"Reutlingen","type":"Landkreis"},"federalState":{"key":"08","name":"Baden-Württemberg"}},{"name":"Steigwiesen","postalCode":"72534","locality":"Hayingen","municipality":{"key":"08415034","name":"Hayingen, Stadt","type":"Stadt"},"district":{"key":"08415","name":"Reutlingen","type":"Landkreis"},"federalState":{"key":"08","name":"Baden-Württemberg"}},{"name":"Straßlandweg","postalCode":"85653","locality":"Aying","municipality":{"key":"09184137","name":"Aying","type":"Kreisangehörige_Gemeinde"},"district":{"key":"09184","name":"München","type":"Landkreis"},"federalState":{"key":"09","name":"Bayern"}},{"name":"St.-Urban-Weg","postalCode":"72534","locality":"Hayingen","municipality":{"key":"08415034","name":"Hayingen, Stadt","type":"Stadt"},"district":{"key":"08415","name":"Reutlingen","type":"Landkreis"},"federalState":{"key":"08","name":"Baden-Württemberg"}},{"name":"St.-Ursula-Str.","postalCode":"72534","locality":"Hayingen","municipality":{"key":"08415034","name":"Hayingen, Stadt","type":"Stadt"},"district":{"key":"08415","name":"Reutlingen","type":"Landkreis"},"federalState":{"key":"08","name":"Baden-Württemberg"}},{"name":"Swiggerstr.","postalCode":"72534","locality":"Hayingen","municipality":{"key":"08415034","name":"Hayingen, Stadt","type":"Stadt"},"district":{"key":"08415","name":"Reutlingen","type":"Landkreis"},"federalState":{"key":"08","name":"Baden-Württemberg"}},{"name":"Talblick","postalCode":"72534","locality":"Hayingen","municipality":{"key":"08415034","name":"Hayingen, Stadt","type":"Stadt"},"district":{"key":"08415","name":"Reutlingen","type":"Landkreis"},"federalState":{"key":"08","name":"Baden-Württemberg"}},{"name":"Talweg","postalCode":"72534","locality":"Hayingen","municipality":{"key":"08415034","name":"Hayingen, Stadt","type":"Stadt"},"district":{"key":"08415","name":"Reutlingen","type":"Landkreis"},"federalState":{"key":"08","name":"Baden-Württemberg"}},{"name":"Thomastr.","postalCode":"85653","locality":"Aying","municipality":{"key":"09184137","name":"Aying","type":"Kreisangehörige_Gemeinde"},"district":{"key":"09184","name":"München","type":"Landkreis"},"federalState":{"key":"09","name":"Bayern"}},{"name":"Tiber-Fundel-Weg","postalCode":"72534","locality":"Hayingen","municipality":{"key":"08415034","name":"Hayingen, Stadt","type":"Stadt"},"district":{"key":"08415","name":"Reutlingen","type":"Landkreis"},"federalState":{"key":"08","name":"Baden-Württemberg"}},{"name":"Tiefental","postalCode":"72534","locality":"Hayingen","municipality":{"key":"08415034","name":"Hayingen, Stadt","type":"Stadt"},"district":{"key":"08415","name":"Reutlingen","type":"Landkreis"},"federalState":{"key":"08","name":"Baden-Württemberg"}},{"name":"Unter dem Rain","postalCode":"72534","locality":"Hayingen","municipality":{"key":"08415034","name":"Hayingen, Stadt","type":"Stadt"},"district":{"key":"08415","name":"Reutlingen","type":"Landkreis"},"federalState":{"key":"08","name":"Baden-Württemberg"}},{"name":"Unter der Buche","postalCode":"72534","locality":"Hayingen","municipality":{"key":"08415034","name":"Hayingen, Stadt","type":"Stadt"},"district":{"key":"08415","name":"Reutlingen","type":"Landkreis"},"federalState":{"key":"08","name":"Baden-Württemberg"}},{"name":"Untere Bahnhofstr.","postalCode":"85653","locality":"Aying","municipality":{"key":"09184137","name":"Aying","type":"Kreisangehörige_Gemeinde"},"district":{"key":"09184","name":"München","type":"Landkreis"},"federalState":{"key":"09","name":"Bayern"}},{"name":"Untere Dorfstr.","postalCode":"85653","locality":"Aying","municipality":{"key":"09184137","name":"Aying","type":"Kreisangehörige_Gemeinde"},"district":{"key":"09184","name":"München","type":"Landkreis"},"federalState":{"key":"09","name":"Bayern"}},{"name":"Unterfeld","postalCode":"85653","locality":"Aying","municipality":{"key":"09184137","name":"Aying","type":"Kreisangehörige_Gemeinde"},"district":{"key":"09184","name":"München","type":"Landkreis"},"federalState":{"key":"09","name":"Bayern"}},{"name":"Unter-Geräumt","postalCode":"85653","locality":"Aying","municipality":{"key":"09184137","name":"Aying","type":"Kreisangehörige_Gemeinde"},"district":{"key":"09184","name":"München","type":"Landkreis"},"federalState":{"key":"09","name":"Bayern"}},{"name":"Vahrner Str.","postalCode":"81545","locality":"München","municipality":{"key":"09162000","name":"München, Landeshauptstadt","type":"Kreisfreie_Stadt"},"district":{"key":"09162","name":"München, Landeshauptstadt","type":"Kreisfreie_Stadt"},"federalState":{"key":"09","name":"Bayern"}},{"name":"Valeppstr.","postalCode":"81539","locality":"München","municipality":{"key":"09162000","name":"München, Landeshauptstadt","type":"Kreisfreie_Stadt"},"district":{"key":"09162","name":"München, Landeshauptstadt","type":"Kreisfreie_Stadt"},"federalState":{"key":"09","name":"Bayern"}},{"name":"Vallettastr.","postalCode":"81829","locality":"München","municipality":{"key":"09162000","name":"München, Landeshauptstadt","type":"Kreisfreie_Stadt"},"district":{"key":"09162","name":"München, Landeshauptstadt","type":"Kreisfreie_Stadt"},"federalState":{"key":"09","name":"Bayern"}},{"name":"Valleyplatz","postalCode":"81371","locality":"München","municipality":{"key":"09162000","name":"München, Landeshauptstadt","type":"Kreisfreie_Stadt"},"district":{"key":"09162","name":"München, Landeshauptstadt","type":"Kreisfreie_Stadt"},"federalState":{"key":"09","name":"Bayern"}},{"name":"Valleystr.","postalCode":"81371","locality":"München","municipality":{"key":"09162000","name":"München, Landeshauptstadt","type":"Kreisfreie_Stadt"},"district":{"key":"09162","name":"München, Landeshauptstadt","type":"Kreisfreie_Stadt"},"federalState":{"key":"09","name":"Bayern"}},{"name":"Valpichlerstr.","postalCode":"80686","locality":"München","municipality":{"key":"09162000","name":"München, Landeshauptstadt","type":"Kreisfreie_Stadt"},"district":{"key":"09162","name":"München, Landeshauptstadt","type":"Kreisfreie_Stadt"},"federalState":{"key":"09","name":"Bayern"}},{"name":"Valpichlerstr.","postalCode":"80689","locality":"München","municipality":{"key":"09162000","name":"München, Landeshauptstadt","type":"Kreisfreie_Stadt"},"district":{"key":"09162","name":"München, Landeshauptstadt","type":"Kreisfreie_Stadt"},"federalState":{"key":"09","name":"Bayern"}},{"name":"Vandalenstr.","postalCode":"81925","locality":"München","municipality":{"key":"09162000","name":"München, Landeshauptstadt","type":"Kreisfreie_Stadt"},"district":{"key":"09162","name":"München, Landeshauptstadt","type":"Kreisfreie_Stadt"},"federalState":{"key":"09","name":"Bayern"}},{"name":"Van-Eyck-Str.","postalCode":"81735","locality":"München","municipality":{"key":"09162000","name":"München, Landeshauptstadt","type":"Kreisfreie_Stadt"},"district":{"key":"09162","name":"München, Landeshauptstadt","type":"Kreisfreie_Stadt"},"federalState":{"key":"09","name":"Bayern"}},{"name":"Van-Gogh-Str.","postalCode":"81479","locality":"München","municipality":{"key":"09162000","name":"München, Landeshauptstadt","type":"Kreisfreie_Stadt"},"district":{"key":"09162","name":"München, Landeshauptstadt","type":"Kreisfreie_Stadt"},"federalState":{"key":"09","name":"Bayern"}},{"name":"Varnhagenstr.","postalCode":"81241","locality":"München","municipality":{"key":"09162000","name":"München, Landeshauptstadt","type":"Kreisfreie_Stadt"},"district":{"key":"09162","name":"München, Landeshauptstadt","type":"Kreisfreie_Stadt"},"federalState":{"key":"09","name":"Bayern"}},{"name":"Vazaninistr.","postalCode":"85567","locality":"Grafing bei München","municipality":{"key":"09175122","name":"Grafing b.München, St","type":"Stadt"},"district":{"key":"09175","name":"Ebersberg","type":"Landkreis"},"federalState":{"key":"09","name":"Bayern"}},{"name":"Veilchenstr.","postalCode":"80689","locality":"München","municipality":{"key":"09162000","name":"München, Landeshauptstadt","type":"Kreisfreie_Stadt"},"district":{"key":"09162","name":"München, Landeshauptstadt","type":"Kreisfreie_Stadt"},"federalState":{"key":"09","name":"Bayern"}},{"name":"Veilchenweg","postalCode":"85551","locality":"Kirchheim bei München","municipality":{"key":"09184131","name":"Kirchheim b.München","type":"Kreisangehörige_Gemeinde"},"district":{"key":"09184","name":"München","type":"Landkreis"},"federalState":{"key":"09","name":"Bayern"}},{"name":"Veit-Pogner-Str.","postalCode":"81927","locality":"München","municipality":{"key":"09162000","name":"München, Landeshauptstadt","type":"Kreisfreie_Stadt"},"district":{"key":"09162","name":"München, Landeshauptstadt","type":"Kreisfreie_Stadt"},"federalState":{"key":"09","name":"Bayern"}},{"name":"Veitshöchheimer Weg","postalCode":"81243","locality":"München","municipality":{"key":"09162000","name":"München, Landeshauptstadt","type":"Kreisfreie_Stadt"},"district":{"key":"09162","name":"München, Landeshauptstadt","type":"Kreisfreie_Stadt"},"federalState":{"key":"09","name":"Bayern"}},{"name":"Veit-Stoß-Str.","postalCode":"80687","locality":"München","municipality":{"key":"09162000","name":"München, Landeshauptstadt","type":"Kreisfreie_Stadt"},"district":{"key":"09162","name":"München, Landeshauptstadt","type":"Kreisfreie_Stadt"},"federalState":{"key":"09","name":"Bayern"}},{"name":"Veldener Str.","postalCode":"81241","locality":"München","municipality":{"key":"09162000","name":"München, Landeshauptstadt","type":"Kreisfreie_Stadt"},"district":{"key":"09162","name":"München, Landeshauptstadt","type":"Kreisfreie_Stadt"},"federalState":{"key":"09","name":"Bayern"}},{"name":"Veldensteinstr.","postalCode":"81249","locality":"München","municipality":{"key":"09162000","name":"München, Landeshauptstadt","type":"Kreisfreie_Stadt"},"district":{"key":"09162","name":"München, Landeshauptstadt","type":"Kreisfreie_Stadt"},"federalState":{"key":"09","name":"Bayern"}},{"name":"Verdistr.","postalCode":"81245","locality":"München","municipality":{"key":"09162000","name":"München, Landeshauptstadt","type":"Kreisfreie_Stadt"},"district":{"key":"09162","name":"München, Landeshauptstadt","type":"Kreisfreie_Stadt"},"federalState":{"key":"09","name":"Bayern"}},{"name":"Verdistr.","postalCode":"81247","locality":"München","municipality":{"key":"09162000","name":"München, Landeshauptstadt","type":"Kreisfreie_Stadt"},"district":{"key":"09162","name":"München, Landeshauptstadt","type":"Kreisfreie_Stadt"},"federalState":{"key":"09","name":"Bayern"}},{"name":"Verhoevenstr.","postalCode":"81739","locality":"München","municipality":{"key":"09162000","name":"München, Landeshauptstadt","type":"Kreisfreie_Stadt"},"district":{"key":"09162","name":"München, Landeshauptstadt","type":"Kreisfreie_Stadt"},"federalState":{"key":"09","name":"Bayern"}},{"name":"Veronastr.","postalCode":"81735","locality":"München","municipality":{"key":"09162000","name":"München, Landeshauptstadt","type":"Kreisfreie_Stadt"},"district":{"key":"09162","name":"München, Landeshauptstadt","type":"Kreisfreie_Stadt"},"federalState":{"key":"09","name":"Bayern"}},{"name":"Veroneser Str.","postalCode":"81547","locality":"München","municipality":{"key":"09162000","name":"München, Landeshauptstadt","type":"Kreisfreie_Stadt"},"district":{"key":"09162","name":"München, Landeshauptstadt","type":"Kreisfreie_Stadt"},"federalState":{"key":"09","name":"Bayern"}},{"name":"Veronikastr.","postalCode":"81827","locality":"München","municipality":{"key":"09162000","name":"München, Landeshauptstadt","type":"Kreisfreie_Stadt"},"district":{"key":"09162","name":"München, Landeshauptstadt","type":"Kreisfreie_Stadt"},"federalState":{"key":"09","name":"Bayern"}},{"name":"Versailler Str.","postalCode":"81677","locality":"München","municipality":{"key":"09162000","name":"München, Landeshauptstadt","type":"Kreisfreie_Stadt"},"district":{"key":"09162","name":"München, Landeshauptstadt","type":"Kreisfreie_Stadt"},"federalState":{"key":"09","name":"Bayern"}},{"name":"Vesaliusstr.","postalCode":"80999","locality":"München","municipality":{"key":"09162000","name":"München, Landeshauptstadt","type":"Kreisfreie_Stadt"},"district":{"key":"09162","name":"München, Landeshauptstadt","type":"Kreisfreie_Stadt"},"federalState":{"key":"09","name":"Bayern"}},{"name":"Vestastr.","postalCode":"81249","locality":"München","municipality":{"key":"09162000","name":"München, Landeshauptstadt","type":"Kreisfreie_Stadt"},"district":{"key":"09162","name":"München, Landeshauptstadt","type":"Kreisfreie_Stadt"},"federalState":{"key":"09","name":"Bayern"}},{"name":"Veterinärstr.","postalCode":"80539","locality":"München","municipality":{"key":"09162000","name":"München, Landeshauptstadt","type":"Kreisfreie_Stadt"},"district":{"key":"09162","name":"München, Landeshauptstadt","type":"Kreisfreie_Stadt"},"federalState":{"key":"09","name":"Bayern"}},{"name":"Viebigplatz","postalCode":"80686","locality":"München","municipality":{"key":"09162000","name":"München, Landeshauptstadt","type":"Kreisfreie_Stadt"},"district":{"key":"09162","name":"München, Landeshauptstadt","type":"Kreisfreie_Stadt"},"federalState":{"key":"09","name":"Bayern"}},{"name":"Vierheiligstr.","postalCode":"81545","locality":"München","municipality":{"key":"09162000","name":"München, Landeshauptstadt","type":"Kreisfreie_Stadt"},"district":{"key":"09162","name":"München, Landeshauptstadt","type":"Kreisfreie_Stadt"},"federalState":{"key":"09","name":"Bayern"}},{"name":"Viktoriaplatz","postalCode":"80803","locality":"München","municipality":{"key":"09162000","name":"München, Landeshauptstadt","type":"Kreisfreie_Stadt"},"district":{"key":"09162","name":"München, Landeshauptstadt","type":"Kreisfreie_Stadt"},"federalState":{"key":"09","name":"Bayern"}},{"name":"Viktoriastr.","postalCode":"80803","locality":"München","municipality":{"key":"09162000","name":"München, Landeshauptstadt","type":"Kreisfreie_Stadt"},"district":{"key":"09162","name":"München, Landeshauptstadt","type":"Kreisfreie_Stadt"},"federalState":{"key":"09","name":"Bayern"}},{"name":"Viktor-Scheffel-Str.","postalCode":"80803","locality":"München","municipality":{"key":"09162000","name":"München, Landeshauptstadt","type":"Kreisfreie_Stadt"},"district":{"key":"09162","name":"München, Landeshauptstadt","type":"Kreisfreie_Stadt"},"federalState":{"key":"09","name":"Bayern"}},{"name":"Viktor-von-Scheffel-Str.","postalCode":"86830","locality":"Schwabmünchen","municipality":{"key":"09772200","name":"Schwabmünchen, St","type":"Stadt"},"district":{"key":"09772","name":"Augsburg","type":"Landkreis"},"federalState":{"key":"09","name":"Bayern"}},{"name":"Viktualienmarkt","postalCode":"80331","locality":"München","municipality":{"key":"09162000","name":"München, Landeshauptstadt","type":"Kreisfreie_Stadt"},"district":{"key":"09162","name":"München, Landeshauptstadt","type":"Kreisfreie_Stadt"},"federalState":{"key":"09","name":"Bayern"}},{"name":"Viktualienmarktpassage","postalCode":"80331","locality":"München","municipality":{"key":"09162000","name":"München, Landeshauptstadt","type":"Kreisfreie_Stadt"},"district":{"key":"09162","name":"München, Landeshauptstadt","type":"Kreisfreie_Stadt"},"federalState":{"key":"09","name":"Bayern"}},{"name":"Villacher Str.","postalCode":"80687","locality":"München","municipality":{"key":"09162000","name":"München, Landeshauptstadt","type":"Kreisfreie_Stadt"},"district":{"key":"09162","name":"München, Landeshauptstadt","type":"Kreisfreie_Stadt"},"federalState":{"key":"09","name":"Bayern"}},{"name":"Vilniusstr.","postalCode":"80992","locality":"München","municipality":{"key":"09162000","name":"München, Landeshauptstadt","type":"Kreisfreie_Stadt"},"district":{"key":"09162","name":"München, Landeshauptstadt","type":"Kreisfreie_Stadt"},"federalState":{"key":"09","name":"Bayern"}},{"name":"Vilshofener Str.","postalCode":"81679","locality":"München","municipality":{"key":"09162000","name":"München, Landeshauptstadt","type":"Kreisfreie_Stadt"},"district":{"key":"09162","name":"München, Landeshauptstadt","type":"Kreisfreie_Stadt"},"federalState":{"key":"09","name":"Bayern"}},{"name":"Vingerstr.","postalCode":"81375","locality":"München","municipality":{"key":"09162000","name":"München, Landeshauptstadt","type":"Kreisfreie_Stadt"},"district":{"key":"09162","name":"München, Landeshauptstadt","type":"Kreisfreie_Stadt"},"federalState":{"key":"09","name":"Bayern"}},{"name":"Vintschgauer Str.","postalCode":"81547","locality":"München","municipality":{"key":"09162000","name":"München, Landeshauptstadt","type":"Kreisfreie_Stadt"},"district":{"key":"09162","name":"München, Landeshauptstadt","type":"Kreisfreie_Stadt"},"federalState":{"key":"09","name":"Bayern"}},{"name":"Vinzenz-Schüpfer-Str.","postalCode":"81475","locality":"München","municipality":{"key":"09162000","name":"München, Landeshauptstadt","type":"Kreisfreie_Stadt"},"district":{"key":"09162","name":"München, Landeshauptstadt","type":"Kreisfreie_Stadt"},"federalState":{"key":"09","name":"Bayern"}},{"name":"Vinzenz-von-Paul-Str.","postalCode":"81671","locality":"München","municipality":{"key":"09162000","name":"München, Landeshauptstadt","type":"Kreisfreie_Stadt"},"district":{"key":"09162","name":"München, Landeshauptstadt","type":"Kreisfreie_Stadt"},"federalState":{"key":"09","name":"Bayern"}},{"name":"Violenstr.","postalCode":"80689","locality":"München","municipality":{"key":"09162000","name":"München, Landeshauptstadt","type":"Kreisfreie_Stadt"},"district":{"key":"09162","name":"München, Landeshauptstadt","type":"Kreisfreie_Stadt"},"federalState":{"key":"09","name":"Bayern"}},{"name":"Virgilstr.","postalCode":"81673","locality":"München","municipality":{"key":"09162000","name":"München, Landeshauptstadt","type":"Kreisfreie_Stadt"},"district":{"key":"09162","name":"München, Landeshauptstadt","type":"Kreisfreie_Stadt"},"federalState":{"key":"09","name":"Bayern"}},{"name":"Viscardihof","postalCode":"80333","locality":"München","municipality":{"key":"09162000","name":"München, Landeshauptstadt","type":"Kreisfreie_Stadt"},"district":{"key":"09162","name":"München, Landeshauptstadt","type":"Kreisfreie_Stadt"},"federalState":{"key":"09","name":"Bayern"}},{"name":"Vogelanger","postalCode":"81477","locality":"München","municipality":{"key":"09162000","name":"München, Landeshauptstadt","type":"Kreisfreie_Stadt"},"district":{"key":"09162","name":"München, Landeshauptstadt","type":"Kreisfreie_Stadt"},"federalState":{"key":"09","name":"Bayern"}},{"name":"Vogelbeerenweg","postalCode":"85551","locality":"Kirchheim bei München","municipality":{"key":"09184131","name":"Kirchheim b.München","type":"Kreisangehörige_Gemeinde"},"district":{"key":"09184","name":"München","type":"Landkreis"},"federalState":{"key":"09","name":"Bayern"}},{"name":"Vogelhartstr.","postalCode":"80807","locality":"München","municipality":{"key":"09162000","name":"München, Landeshauptstadt","type":"Kreisfreie_Stadt"},"district":{"key":"09162","name":"München, Landeshauptstadt","type":"Kreisfreie_Stadt"},"federalState":{"key":"09","name":"Bayern"}},{"name":"Wacholderweg","postalCode":"72534","locality":"Hayingen","municipality":{"key":"08415034","name":"Hayingen, Stadt","type":"Stadt"},"district":{"key":"08415","name":"Reutlingen","type":"Landkreis"},"federalState":{"key":"08","name":"Baden-Württemberg"}},{"name":"Wagnergasse","postalCode":"72534","locality":"Hayingen","municipality":{"key":"08415034","name":"Hayingen, Stadt","type":"Stadt"},"district":{"key":"08415","name":"Reutlingen","type":"Landkreis"},"federalState":{"key":"08","name":"Baden-Württemberg"}},{"name":"Waldbrunnenweg","postalCode":"72534","locality":"Hayingen","municipality":{"key":"08415034","name":"Hayingen, Stadt","type":"Stadt"},"district":{"key":"08415","name":"Reutlingen","type":"Landkreis"},"federalState":{"key":"08","name":"Baden-Württemberg"}},{"name":"Wallbergstr.","postalCode":"85653","locality":"Aying","municipality":{"key":"09184137","name":"Aying","type":"Kreisangehörige_Gemeinde"},"district":{"key":"09184","name":"München","type":"Landkreis"},"federalState":{"key":"09","name":"Bayern"}},{"name":"Wannenweg","postalCode":"72534","locality":"Hayingen","municipality":{"key":"08415034","name":"Hayingen, Stadt","type":"Stadt"},"district":{"key":"08415","name":"Reutlingen","type":"Landkreis"},"federalState":{"key":"08","name":"Baden-Württemberg"}},{"name":"Wartsteinweg","postalCode":"72534","locality":"Hayingen","municipality":{"key":"08415034","name":"Hayingen, Stadt","type":"Stadt"},"district":{"key":"08415","name":"Reutlingen","type":"Landkreis"},"federalState":{"key":"08","name":"Baden-Württemberg"}},{"name":"Wasserweg","postalCode":"72534","locality":"Hayingen","municipality":{"key":"08415034","name":"Hayingen, Stadt","type":"Stadt"},"district":{"key":"08415","name":"Reutlingen","type":"Landkreis"},"federalState":{"key":"08","name":"Baden-Württemberg"}},{"name":"Wendelinusweg","postalCode":"72534","locality":"Hayingen","municipality":{"key":"08415034","name":"Hayingen, Stadt","type":"Stadt"},"district":{"key":"08415","name":"Reutlingen","type":"Landkreis"},"federalState":{"key":"08","name":"Baden-Württemberg"}},{"name":"Wiesenweg","postalCode":"85653","locality":"Aying","municipality":{"key":"09184137","name":"Aying","type":"Kreisangehörige_Gemeinde"},"district":{"key":"09184","name":"München","type":"Landkreis"},"federalState":{"key":"09","name":"Bayern"}},{"name":"Wildrosenstr.","postalCode":"72534","locality":"Hayingen","municipality":{"key":"08415034","name":"Hayingen, Stadt","type":"Stadt"},"district":{"key":"08415","name":"Reutlingen","type":"Landkreis"},"federalState":{"key":"08","name":"Baden-Württemberg"}},{"name":"Xaver-Weismor-Str.","postalCode":"81829","locality":"München","municipality":{"key":"09162000","name":"München, Landeshauptstadt","type":"Kreisfreie_Stadt"},"district":{"key":"09162","name":"München, Landeshauptstadt","type":"Kreisfreie_Stadt"},"federalState":{"key":"09","name":"Bayern"}},{"name":"Yorckstr.","postalCode":"80637","locality":"München","municipality":{"key":"09162000","name":"München, Landeshauptstadt","type":"Kreisfreie_Stadt"},"district":{"key":"09162","name":"München, Landeshauptstadt","type":"Kreisfreie_Stadt"},"federalState":{"key":"09","name":"Bayern"}},{"name":"Ysenburgstr.","postalCode":"80634","locality":"München","municipality":{"key":"09162000","name":"München, Landeshauptstadt","type":"Kreisfreie_Stadt"},"district":{"key":"09162","name":"München, Landeshauptstadt","type":"Kreisfreie_Stadt"},"federalState":{"key":"09","name":"Bayern"}},{"name":"Zacherl-Geräumt","postalCode":"85653","locality":"Aying","municipality":{"key":"09184137","name":"Aying","type":"Kreisangehörige_Gemeinde"},"district":{"key":"09184","name":"München","type":"Landkreis"},"federalState":{"key":"09","name":"Bayern"}},{"name":"Zehntscheuerweg","postalCode":"72534","locality":"Hayingen","municipality":{"key":"08415034","name":"Hayingen, Stadt","type":"Stadt"},"district":{"key":"08415","name":"Reutlingen","type":"Landkreis"},"federalState":{"key":"08","name":"Baden-Württemberg"}},{"name":"Zornedinger Str.","postalCode":"85653","locality":"Aying","municipality":{"key":"09184137","name":"Aying","type":"Kreisangehörige_Gemeinde"},"district":{"key":"09184","name":"München","type":"Landkreis"},"federalState":{"key":"09","name":"Bayern"}},{"name":"Zum Talfeld","postalCode":"85653","locality":"Aying","municipality":{"key":"09184137","name":"Aying","type":"Kreisangehörige_Gemeinde"},"district":{"key":"09184","name":"München","type":"Landkreis"},"federalState":{"key":"09","name":"Bayern"}},{"name":"Zwiefalter Str.","postalCode":"72534","locality":"Hayingen","municipality":{"key":"08415034","name":"Hayingen, Stadt","type":"Stadt"},"district":{"key":"08415","name":"Reutlingen","type":"Landkreis"},"federalState":{"key":"08","name":"Baden-Württemberg"}},{"name":"Äckerlen","postalCode":"72534","locality":"Hayingen","municipality":{"key":"08415034","name":"Hayingen, Stadt","type":"Stadt"},"district":{"key":"08415","name":"Reutlingen","type":"Landkreis"},"federalState":{"key":"08","name":"Baden-Württemberg"}},{"name":"Öcklweg","postalCode":"81369","locality":"München","municipality":{"key":"09162000","name":"München, Landeshauptstadt","type":"Kreisfreie_Stadt"},"district":{"key":"09162","name":"München, Landeshauptstadt","type":"Kreisfreie_Stadt"},"federalState":{"key":"09","name":"Bayern"}},{"name":"Öffentliche Grünanlage am Horst-Salzmann-Weg","postalCode":"81825","locality":"München","municipality":{"key":"09162000","name":"München, Landeshauptstadt","type":"Kreisfreie_Stadt"},"district":{"key":"09162","name":"München, Landeshauptstadt","type":"Kreisfreie_Stadt"},"federalState":{"key":"09","name":"Bayern"}},{"name":"Öffentliche Grünfläche Hochäckerstr.","postalCode":"81737","locality":"München","municipality":{"key":"09162000","name":"München, Landeshauptstadt","type":"Kreisfreie_Stadt"},"district":{"key":"09162","name":"München, Landeshauptstadt","type":"Kreisfreie_Stadt"},"federalState":{"key":"09","name":"Bayern"}},{"name":"Öffentlicher Garten am Kriegsarchiv","postalCode":"80636","locality":"München","municipality":{"key":"09162000","name":"München, Landeshauptstadt","type":"Kreisfreie_Stadt"},"district":{"key":"09162","name":"München, Landeshauptstadt","type":"Kreisfreie_Stadt"},"federalState":{"key":"09","name":"Bayern"}},{"name":"Ölbergstr.","postalCode":"93449","locality":"Waldmünchen","municipality":{"key":"09372171","name":"Waldmünchen, St","type":"Stadt"},"district":{"key":"09372","name":"Cham","type":"Landkreis"},"federalState":{"key":"09","name":"Bayern"}},{"name":"Ölbergweg","postalCode":"93449","locality":"Waldmünchen","municipality":{"key":"09372171","name":"Waldmünchen, St","type":"Stadt"},"district":{"key":"09372","name":"Cham","type":"Landkreis"},"federalState":{"key":"09","name":"Bayern"}},{"name":"Ötschmannweg","postalCode":"81369","locality":"München","municipality":{"key":"09162000","name":"München, Landeshauptstadt","type":"Kreisfreie_Stadt"},"district":{"key":"09162","name":"München, Landeshauptstadt","type":"Kreisfreie_Stadt"},"federalState":{"key":"09","name":"Bayern"}},{"name":"Öttlmairstr.","postalCode":"81737","locality":"München","municipality":{"key":"09162000","name":"München, Landeshauptstadt","type":"Kreisfreie_Stadt"},"district":{"key":"09162","name":"München, Landeshauptstadt","type":"Kreisfreie_Stadt"},"federalState":{"key":"09","name":"Bayern"}},{"name":"Über der Klause","postalCode":"81545","locality":"München","municipality":{"key":"09162000","name":"München, Landeshauptstadt","type":"Kreisfreie_Stadt"},"district":{"key":"09162","name":"München, Landeshauptstadt","type":"Kreisfreie_Stadt"},"federalState":{"key":"09","name":"Bayern"}},{"name":"Überlinger Weg","postalCode":"81243","locality":"München","municipality":{"key":"09162000","name":"München, Landeshauptstadt","type":"Kreisfreie_Stadt"},"district":{"key":"09162","name":"München, Landeshauptstadt","type":"Kreisfreie_Stadt"},"federalState":{"key":"09","name":"Bayern"}},{"name":"Überreiterstr.","postalCode":"81247","locality":"München","municipality":{"key":"09162000","name":"München, Landeshauptstadt","type":"Kreisfreie_Stadt"},"district":{"key":"09162","name":"München, Landeshauptstadt","type":"Kreisfreie_Stadt"},"federalState":{"key":"09","name":"Bayern"}},{"name":"Überreiterweg","postalCode":"85748","locality":"Garching bei München","municipality":{"key":"09184119","name":"Garching b.München, St","type":"Stadt"},"district":{"key":"09184","name":"München","type":"Landkreis"},"federalState":{"key":"09","name":"Bayern"}},{"name":"Überrheinerstr.","postalCode":"85551","locality":"Kirchheim bei München","municipality":{"key":"09184131","name":"Kirchheim b.München","type":"Kreisangehörige_Gemeinde"},"district":{"key":"09184","name":"München","type":"Landkreis"},"federalState":{"key":"09","name":"Bayern"}},{"name":"Überseeplatz","postalCode":"81825","locality":"München","municipality":{"key":"09162000","name":"München, Landeshauptstadt","type":"Kreisfreie_Stadt"},"district":{"key":"09162","name":"München, Landeshauptstadt","type":"Kreisfreie_Stadt"},"federalState":{"key":"09","name":"Bayern"}},]