[{"name":"Alpenweg","postalCode":"78266","locality":"Büsingen am Hochrhein","municipality":{"key":"08335015","name":"Büsingen am Hochrhein","type":"Kreisangehörige_Gemeinde"},"district":{"key":"08335","name":"Konstanz","type":"Landkreis"},"federalState":{"key":"08","name":"Baden-Württemberg"}},{"name":"Am Äckerle","postalCode":"78266","locality":"Büsingen am Hochrhein","municipality":{"key":"08335015","name":"Büsingen am Hochrhein","type":"Kreisangehörige_Gemeinde"},"district":{"key":"08335","name":"Konstanz","type":"Landkreis"},"federalState":{"key":"08","name":"Baden-Württemberg"}},{"name":"Bergkirchenweg","postalCode":"78266","locality":"Büsingen am Hochrhein","municipality":{"key":"08335015","name":"Büsingen am Hochrhein","type":"Kreisangehörige_Gemeinde"},"district":{"key":"08335","name":"Konstanz","type":"Landkreis"},"federalState":{"key":"08","name":"Baden-Württemberg"}},{"name":"Bietinger Weg","postalCode":"78266","locality":"Büsingen am Hochrhein","municipality":{"key":"08335015","name":"Büsingen am Hochrhein","type":"Kreisangehörige_Gemeinde"},"district":{"key":"08335","name":"Konstanz","type":"Landkreis"},"federalState":{"key":"08","name":"Baden-Württemberg"}},{"name":"Breitlenstr.","postalCode":"78266","locality":"Büsingen am Hochrhein","municipality":{"key":"08335015","name":"Büsingen am Hochrhein","type":"Kreisangehörige_Gemeinde"},"district":{"key":"08335","name":"Konstanz","type":"Landkreis"},"federalState":{"key":"08","name":"Baden-Württemberg"}},{"name":"Brenntenhauweg","postalCode":"78266","locality":"Büsingen am Hochrhein","municipality":{"key":"08335015","name":"Büsingen am Hochrhein","type":"Kreisangehörige_Gemeinde"},"district":{"key":"08335","name":"Konstanz","type":"Landkreis"},"federalState":{"key":"08","name":"Baden-Württemberg"}},{"name":"Carl-Benz-Str.","postalCode":"78467","locality":"Konstanz","municipality":{"key":"08335043","name":"Konstanz, Universitätsstadt","type":"Große_Kreisstadt"},"district":{"key":"08335","name":"Konstanz","type":"Landkreis"},"federalState":{"key":"08","name":"Baden-Württemberg"}},{"name":"Cherisy-Str.","postalCode":"78467","locality":"Konstanz","municipality":{"key":"08335043","name":"Konstanz, Universitätsstadt","type":"Große_Kreisstadt"},"district":{"key":"08335","name":"Konstanz","type":"Landkreis"},"federalState":{"key":"08","name":"Baden-Württemberg"}},{"name":"Christoph-Daniel-Schenck-Str.","postalCode":"78464","locality":"Konstanz","municipality":{"key":"08335043","name":"Konstanz, Universitätsstadt","type":"Große_Kreisstadt"},"district":{"key":"08335","name":"Konstanz","type":"Landkreis"},"federalState":{"key":"08","name":"Baden-Württemberg"}},{"name":"Clara-Schumann-Str.","postalCode":"78464","locality":"Konstanz","municipality":{"key":"08335043","name":"Konstanz, Universitätsstadt","type":"Große_Kreisstadt"},"district":{"key":"08335","name":"Konstanz","type":"Landkreis"},"federalState":{"key":"08","name":"Baden-Württemberg"}},{"name":"Claude-Dornier-Str.","postalCode":"78467","locality":"Konstanz","municipality":{"key":"08335043","name":"Konstanz, Universitätsstadt","type":"Große_Kreisstadt"},"district":{"key":"08335","name":"Konstanz","type":"Landkreis"},"federalState":{"key":"08","name":"Baden-Württemberg"}},{"name":"Conrad-Gröber-Str.","postalCode":"78464","locality":"Konstanz","municipality":{"key":"08335043","name":"Konstanz, Universitätsstadt","type":"Große_Kreisstadt"},"district":{"key":"08335","name":"Konstanz","type":"Landkreis"},"federalState":{"key":"08","name":"Baden-Württemberg"}},{"name":"Conradin-Kreutzer-Str.","postalCode":"78467","locality":"Konstanz","municipality":{"key":"08335043","name":"Konstanz, Universitätsstadt","type":"Große_Kreisstadt"},"district":{"key":"08335","name":"Konstanz","type":"Landkreis"},"federalState":{"key":"08","name":"Baden-Württemberg"}},{"name":"Dörflingerstr.","postalCode":"78266","locality":"Büsingen am Hochrhein","municipality":{"key":"08335015","name":"Büsingen am Hochrhein","type":"Kreisangehörige_Gemeinde"},"district":{"key":"08335","name":"Konstanz","type":"Landkreis"},"federalState":{"key":"08","name":"Baden-Württemberg"}},{"name":"Espyweg","postalCode":"78266","locality":"Büsingen am Hochrhein","municipality":{"key":"08335015","name":"Büsingen am Hochrhein","type":"Kreisangehörige_Gemeinde"},"district":{"key":"08335","name":"Konstanz","type":"Landkreis"},"federalState":{"key":"08","name":"Baden-Württemberg"}},{"name":"Exklavenweg","postalCode":"78266","locality":"Büsingen am Hochrhein","municipality":{"key":"08335015","name":"Büsingen am Hochrhein","type":"Kreisangehörige_Gemeinde"},"district":{"key":"08335","name":"Konstanz","type":"Landkreis"},"federalState":{"key":"08","name":"Baden-Württemberg"}},{"name":"Fährmann-Clemens-Str.","postalCode":"78465","locality":"Konstanz","municipality":{"key":"08335043","name":"Konstanz, Universitätsstadt","type":"Große_Kreisstadt"},"district":{"key":"08335","name":"Konstanz","type":"Landkreis"},"federalState":{"key":"08","name":"Baden-Württemberg"}},{"name":"Färberstr.","postalCode":"78467","locality":"Konstanz","municipality":{"key":"08335043","name":"Konstanz, Universitätsstadt","type":"Große_Kreisstadt"},"district":{"key":"08335","name":"Konstanz","type":"Landkreis"},"federalState":{"key":"08","name":"Baden-Württemberg"}},{"name":"Farnweg","postalCode":"78467","locality":"Konstanz","municipality":{"key":"08335043","name":"Konstanz, Universitätsstadt","type":"Große_Kreisstadt"},"district":{"key":"08335","name":"Konstanz","type":"Landkreis"},"federalState":{"key":"08","name":"Baden-Württemberg"}},{"name":"Fasanenweg","postalCode":"78464","locality":"Konstanz","municipality":{"key":"08335043","name":"Konstanz, Universitätsstadt","type":"Große_Kreisstadt"},"district":{"key":"08335","name":"Konstanz","type":"Landkreis"},"federalState":{"key":"08","name":"Baden-Württemberg"}},{"name":"Faustenholzstr.","postalCode":"78465","locality":"Konstanz","municipality":{"key":"08335043","name":"Konstanz, Universitätsstadt","type":"Große_Kreisstadt"},"district":{"key":"08335","name":"Konstanz","type":"Landkreis"},"federalState":{"key":"08","name":"Baden-Württemberg"}},{"name":"Felchengang","postalCode":"78464","locality":"Konstanz","municipality":{"key":"08335043","name":"Konstanz, Universitätsstadt","type":"Große_Kreisstadt"},"district":{"key":"08335","name":"Konstanz","type":"Landkreis"},"federalState":{"key":"08","name":"Baden-Württemberg"}},{"name":"Feldstr.","postalCode":"78462","locality":"Konstanz","municipality":{"key":"08335043","name":"Konstanz, Universitätsstadt","type":"Große_Kreisstadt"},"district":{"key":"08335","name":"Konstanz","type":"Landkreis"},"federalState":{"key":"08","name":"Baden-Württemberg"}},{"name":"Felix-Wankel-Str.","postalCode":"78467","locality":"Konstanz","municipality":{"key":"08335043","name":"Konstanz, Universitätsstadt","type":"Große_Kreisstadt"},"district":{"key":"08335","name":"Konstanz","type":"Landkreis"},"federalState":{"key":"08","name":"Baden-Württemberg"}},{"name":"Feursteinstr.","postalCode":"78467","locality":"Konstanz","municipality":{"key":"08335043","name":"Konstanz, Universitätsstadt","type":"Große_Kreisstadt"},"district":{"key":"08335","name":"Konstanz","type":"Landkreis"},"federalState":{"key":"08","name":"Baden-Württemberg"}},{"name":"Fischenzstr.","postalCode":"78462","locality":"Konstanz","municipality":{"key":"08335043","name":"Konstanz, Universitätsstadt","type":"Große_Kreisstadt"},"district":{"key":"08335","name":"Konstanz","type":"Landkreis"},"federalState":{"key":"08","name":"Baden-Württemberg"}},{"name":"Fischergasse","postalCode":"78465","locality":"Konstanz","municipality":{"key":"08335043","name":"Konstanz, Universitätsstadt","type":"Große_Kreisstadt"},"district":{"key":"08335","name":"Konstanz","type":"Landkreis"},"federalState":{"key":"08","name":"Baden-Württemberg"}},{"name":"Fischerstr.","postalCode":"78464","locality":"Konstanz","municipality":{"key":"08335043","name":"Konstanz, Universitätsstadt","type":"Große_Kreisstadt"},"district":{"key":"08335","name":"Konstanz","type":"Landkreis"},"federalState":{"key":"08","name":"Baden-Württemberg"}},{"name":"Fischmarkt","postalCode":"78462","locality":"Konstanz","municipality":{"key":"08335043","name":"Konstanz, Universitätsstadt","type":"Große_Kreisstadt"},"district":{"key":"08335","name":"Konstanz","type":"Landkreis"},"federalState":{"key":"08","name":"Baden-Württemberg"}},{"name":"Fließhornstr.","postalCode":"78465","locality":"Konstanz","municipality":{"key":"08335043","name":"Konstanz, Universitätsstadt","type":"Große_Kreisstadt"},"district":{"key":"08335","name":"Konstanz","type":"Landkreis"},"federalState":{"key":"08","name":"Baden-Württemberg"}},{"name":"Flurweg","postalCode":"78464","locality":"Konstanz","municipality":{"key":"08335043","name":"Konstanz, Universitätsstadt","type":"Große_Kreisstadt"},"district":{"key":"08335","name":"Konstanz","type":"Landkreis"},"federalState":{"key":"08","name":"Baden-Württemberg"}},{"name":"Fohrenbühlweg","postalCode":"78464","locality":"Konstanz","municipality":{"key":"08335043","name":"Konstanz, Universitätsstadt","type":"Große_Kreisstadt"},"district":{"key":"08335","name":"Konstanz","type":"Landkreis"},"federalState":{"key":"08","name":"Baden-Württemberg"}},{"name":"Fontainebleau-Allee","postalCode":"78464","locality":"Konstanz","municipality":{"key":"08335043","name":"Konstanz, Universitätsstadt","type":"Große_Kreisstadt"},"district":{"key":"08335","name":"Konstanz","type":"Landkreis"},"federalState":{"key":"08","name":"Baden-Württemberg"}},{"name":"Forellengang","postalCode":"78464","locality":"Konstanz","municipality":{"key":"08335043","name":"Konstanz, Universitätsstadt","type":"Große_Kreisstadt"},"district":{"key":"08335","name":"Konstanz","type":"Landkreis"},"federalState":{"key":"08","name":"Baden-Württemberg"}},{"name":"Franz-Liszt-Str.","postalCode":"78464","locality":"Konstanz","municipality":{"key":"08335043","name":"Konstanz, Universitätsstadt","type":"Große_Kreisstadt"},"district":{"key":"08335","name":"Konstanz","type":"Landkreis"},"federalState":{"key":"08","name":"Baden-Württemberg"}},{"name":"Franz-Moser-Str.","postalCode":"78465","locality":"Konstanz","municipality":{"key":"08335043","name":"Konstanz, Universitätsstadt","type":"Große_Kreisstadt"},"district":{"key":"08335","name":"Konstanz","type":"Landkreis"},"federalState":{"key":"08","name":"Baden-Württemberg"}},{"name":"Freibürgleweg","postalCode":"78467","locality":"Konstanz","municipality":{"key":"08335043","name":"Konstanz, Universitätsstadt","type":"Große_Kreisstadt"},"district":{"key":"08335","name":"Konstanz","type":"Landkreis"},"federalState":{"key":"08","name":"Baden-Württemberg"}},{"name":"Friedhofweg","postalCode":"78467","locality":"Konstanz","municipality":{"key":"08335043","name":"Konstanz, Universitätsstadt","type":"Große_Kreisstadt"},"district":{"key":"08335","name":"Konstanz","type":"Landkreis"},"federalState":{"key":"08","name":"Baden-Württemberg"}},{"name":"Friedrich-Hug-Str.","postalCode":"78464","locality":"Konstanz","municipality":{"key":"08335043","name":"Konstanz, Universitätsstadt","type":"Große_Kreisstadt"},"district":{"key":"08335","name":"Konstanz","type":"Landkreis"},"federalState":{"key":"08","name":"Baden-Württemberg"}},{"name":"Friedrich-Pecht-Weg","postalCode":"78462","locality":"Konstanz","municipality":{"key":"08335043","name":"Konstanz, Universitätsstadt","type":"Große_Kreisstadt"},"district":{"key":"08335","name":"Konstanz","type":"Landkreis"},"federalState":{"key":"08","name":"Baden-Württemberg"}},{"name":"Friedrichstr.","postalCode":"78464","locality":"Konstanz","municipality":{"key":"08335043","name":"Konstanz, Universitätsstadt","type":"Große_Kreisstadt"},"district":{"key":"08335","name":"Konstanz","type":"Landkreis"},"federalState":{"key":"08","name":"Baden-Württemberg"}},{"name":"Fritz-Arnold-Str.","postalCode":"78467","locality":"Konstanz","municipality":{"key":"08335043","name":"Konstanz, Universitätsstadt","type":"Große_Kreisstadt"},"district":{"key":"08335","name":"Konstanz","type":"Landkreis"},"federalState":{"key":"08","name":"Baden-Württemberg"}},{"name":"Frühlingsallee","postalCode":"78465","locality":"Konstanz","municipality":{"key":"08335043","name":"Konstanz, Universitätsstadt","type":"Große_Kreisstadt"},"district":{"key":"08335","name":"Konstanz","type":"Landkreis"},"federalState":{"key":"08","name":"Baden-Württemberg"}},{"name":"Fuchsbauweg","postalCode":"78467","locality":"Konstanz","municipality":{"key":"08335043","name":"Konstanz, Universitätsstadt","type":"Große_Kreisstadt"},"district":{"key":"08335","name":"Konstanz","type":"Landkreis"},"federalState":{"key":"08","name":"Baden-Württemberg"}},{"name":"Fuchsbühlweg","postalCode":"78467","locality":"Konstanz","municipality":{"key":"08335043","name":"Konstanz, Universitätsstadt","type":"Große_Kreisstadt"},"district":{"key":"08335","name":"Konstanz","type":"Landkreis"},"federalState":{"key":"08","name":"Baden-Württemberg"}},{"name":"Fürstenbergstr.","postalCode":"78467","locality":"Konstanz","municipality":{"key":"08335043","name":"Konstanz, Universitätsstadt","type":"Große_Kreisstadt"},"district":{"key":"08335","name":"Konstanz","type":"Landkreis"},"federalState":{"key":"08","name":"Baden-Württemberg"}},{"name":"Fürstengutweg","postalCode":"78462","locality":"Konstanz","municipality":{"key":"08335043","name":"Konstanz, Universitätsstadt","type":"Große_Kreisstadt"},"district":{"key":"08335","name":"Konstanz","type":"Landkreis"},"federalState":{"key":"08","name":"Baden-Württemberg"}},{"name":"Gailingerstr.","postalCode":"78266","locality":"Büsingen am Hochrhein","municipality":{"key":"08335015","name":"Büsingen am Hochrhein","type":"Kreisangehörige_Gemeinde"},"district":{"key":"08335","name":"Konstanz","type":"Landkreis"},"federalState":{"key":"08","name":"Baden-Württemberg"}},{"name":"Gärtenweg","postalCode":"78266","locality":"Büsingen am Hochrhein","municipality":{"key":"08335015","name":"Büsingen am Hochrhein","type":"Kreisangehörige_Gemeinde"},"district":{"key":"08335","name":"Konstanz","type":"Landkreis"},"federalState":{"key":"08","name":"Baden-Württemberg"}},{"name":"Gennersbrunnerstrasse","postalCode":"78266","locality":"Büsingen am Hochrhein","municipality":{"key":"08335015","name":"Büsingen am Hochrhein","type":"Kreisangehörige_Gemeinde"},"district":{"key":"08335","name":"Konstanz","type":"Landkreis"},"federalState":{"key":"08","name":"Baden-Württemberg"}},{"name":"Goethestr.","postalCode":"78266","locality":"Büsingen am Hochrhein","municipality":{"key":"08335015","name":"Büsingen am Hochrhein","type":"Kreisangehörige_Gemeinde"},"district":{"key":"08335","name":"Konstanz","type":"Landkreis"},"federalState":{"key":"08","name":"Baden-Württemberg"}},{"name":"Griesstr.","postalCode":"78266","locality":"Büsingen am Hochrhein","municipality":{"key":"08335015","name":"Büsingen am Hochrhein","type":"Kreisangehörige_Gemeinde"},"district":{"key":"08335","name":"Konstanz","type":"Landkreis"},"federalState":{"key":"08","name":"Baden-Württemberg"}},{"name":"Hasenweg / Büesingerwäg","postalCode":"78266","locality":"Büsingen am Hochrhein","municipality":{"key":"08335015","name":"Büsingen am Hochrhein","type":"Kreisangehörige_Gemeinde"},"district":{"key":"08335","name":"Konstanz","type":"Landkreis"},"federalState":{"key":"08","name":"Baden-Württemberg"}},{"name":"Herblingerstr.","postalCode":"78266","locality":"Büsingen am Hochrhein","municipality":{"key":"08335015","name":"Büsingen am Hochrhein","type":"Kreisangehörige_Gemeinde"},"district":{"key":"08335","name":"Konstanz","type":"Landkreis"},"federalState":{"key":"08","name":"Baden-Württemberg"}},{"name":"Herblingerstr. / Lochgass / Sametgass","postalCode":"78266","locality":"Büsingen am Hochrhein","municipality":{"key":"08335015","name":"Büsingen am Hochrhein","type":"Kreisangehörige_Gemeinde"},"district":{"key":"08335","name":"Konstanz","type":"Landkreis"},"federalState":{"key":"08","name":"Baden-Württemberg"}},{"name":"Hinter den Gärten","postalCode":"78266","locality":"Büsingen am Hochrhein","municipality":{"key":"08335015","name":"Büsingen am Hochrhein","type":"Kreisangehörige_Gemeinde"},"district":{"key":"08335","name":"Konstanz","type":"Landkreis"},"federalState":{"key":"08","name":"Baden-Württemberg"}},{"name":"Hippbühlweg","postalCode":"78266","locality":"Büsingen am Hochrhein","municipality":{"key":"08335015","name":"Büsingen am Hochrhein","type":"Kreisangehörige_Gemeinde"},"district":{"key":"08335","name":"Konstanz","type":"Landkreis"},"federalState":{"key":"08","name":"Baden-Württemberg"}},{"name":"Hohwachtweg","postalCode":"78266","locality":"Büsingen am Hochrhein","municipality":{"key":"08335015","name":"Büsingen am Hochrhein","type":"Kreisangehörige_Gemeinde"},"district":{"key":"08335","name":"Konstanz","type":"Landkreis"},"federalState":{"key":"08","name":"Baden-Württemberg"}},{"name":"Hoobelwäg","postalCode":"78266","locality":"Büsingen am Hochrhein","municipality":{"key":"08335015","name":"Büsingen am Hochrhein","type":"Kreisangehörige_Gemeinde"},"district":{"key":"08335","name":"Konstanz","type":"Landkreis"},"federalState":{"key":"08","name":"Baden-Württemberg"}},{"name":"Im Apfelgarten","postalCode":"78465","locality":"Konstanz","municipality":{"key":"08335043","name":"Konstanz, Universitätsstadt","type":"Große_Kreisstadt"},"district":{"key":"08335","name":"Konstanz","type":"Landkreis"},"federalState":{"key":"08","name":"Baden-Württemberg"}},{"name":"Im Baumgarten","postalCode":"78465","locality":"Konstanz","municipality":{"key":"08335043","name":"Konstanz, Universitätsstadt","type":"Große_Kreisstadt"},"district":{"key":"08335","name":"Konstanz","type":"Landkreis"},"federalState":{"key":"08","name":"Baden-Württemberg"}},{"name":"Im Grün","postalCode":"78465","locality":"Konstanz","municipality":{"key":"08335043","name":"Konstanz, Universitätsstadt","type":"Große_Kreisstadt"},"district":{"key":"08335","name":"Konstanz","type":"Landkreis"},"federalState":{"key":"08","name":"Baden-Württemberg"}},{"name":"Im Grund","postalCode":"78465","locality":"Konstanz","municipality":{"key":"08335043","name":"Konstanz, Universitätsstadt","type":"Große_Kreisstadt"},"district":{"key":"08335","name":"Konstanz","type":"Landkreis"},"federalState":{"key":"08","name":"Baden-Württemberg"}},{"name":"Im Klostergut","postalCode":"78464","locality":"Konstanz","municipality":{"key":"08335043","name":"Konstanz, Universitätsstadt","type":"Große_Kreisstadt"},"district":{"key":"08335","name":"Konstanz","type":"Landkreis"},"federalState":{"key":"08","name":"Baden-Württemberg"}},{"name":"Im Langenberg","postalCode":"78465","locality":"Konstanz","municipality":{"key":"08335043","name":"Konstanz, Universitätsstadt","type":"Große_Kreisstadt"},"district":{"key":"08335","name":"Konstanz","type":"Landkreis"},"federalState":{"key":"08","name":"Baden-Württemberg"}},{"name":"Im Langert","postalCode":"78467","locality":"Konstanz","municipality":{"key":"08335043","name":"Konstanz, Universitätsstadt","type":"Große_Kreisstadt"},"district":{"key":"08335","name":"Konstanz","type":"Landkreis"},"federalState":{"key":"08","name":"Baden-Württemberg"}},{"name":"Im Loh","postalCode":"78465","locality":"Konstanz","municipality":{"key":"08335043","name":"Konstanz, Universitätsstadt","type":"Große_Kreisstadt"},"district":{"key":"08335","name":"Konstanz","type":"Landkreis"},"federalState":{"key":"08","name":"Baden-Württemberg"}},{"name":"Im Neugut","postalCode":"78464","locality":"Konstanz","municipality":{"key":"08335043","name":"Konstanz, Universitätsstadt","type":"Große_Kreisstadt"},"district":{"key":"08335","name":"Konstanz","type":"Landkreis"},"federalState":{"key":"08","name":"Baden-Württemberg"}},{"name":"Im Tiergarten","postalCode":"78465","locality":"Konstanz","municipality":{"key":"08335043","name":"Konstanz, Universitätsstadt","type":"Große_Kreisstadt"},"district":{"key":"08335","name":"Konstanz","type":"Landkreis"},"federalState":{"key":"08","name":"Baden-Württemberg"}},{"name":"Im Weinberg","postalCode":"78464","locality":"Konstanz","municipality":{"key":"08335043","name":"Konstanz, Universitätsstadt","type":"Große_Kreisstadt"},"district":{"key":"08335","name":"Konstanz","type":"Landkreis"},"federalState":{"key":"08","name":"Baden-Württemberg"}},{"name":"In den Dorfäckern","postalCode":"78465","locality":"Konstanz","municipality":{"key":"08335043","name":"Konstanz, Universitätsstadt","type":"Große_Kreisstadt"},"district":{"key":"08335","name":"Konstanz","type":"Landkreis"},"federalState":{"key":"08","name":"Baden-Württemberg"}},{"name":"In der Gebhardsösch","postalCode":"78467","locality":"Konstanz","municipality":{"key":"08335043","name":"Konstanz, Universitätsstadt","type":"Große_Kreisstadt"},"district":{"key":"08335","name":"Konstanz","type":"Landkreis"},"federalState":{"key":"08","name":"Baden-Württemberg"}},{"name":"Inselgasse","postalCode":"78462","locality":"Konstanz","municipality":{"key":"08335043","name":"Konstanz, Universitätsstadt","type":"Große_Kreisstadt"},"district":{"key":"08335","name":"Konstanz","type":"Landkreis"},"federalState":{"key":"08","name":"Baden-Württemberg"}},{"name":"Irisweg","postalCode":"78467","locality":"Konstanz","municipality":{"key":"08335043","name":"Konstanz, Universitätsstadt","type":"Große_Kreisstadt"},"district":{"key":"08335","name":"Konstanz","type":"Landkreis"},"federalState":{"key":"08","name":"Baden-Württemberg"}},{"name":"Junkerstr.","postalCode":"78266","locality":"Büsingen am Hochrhein","municipality":{"key":"08335015","name":"Büsingen am Hochrhein","type":"Kreisangehörige_Gemeinde"},"district":{"key":"08335","name":"Konstanz","type":"Landkreis"},"federalState":{"key":"08","name":"Baden-Württemberg"}},{"name":"Kapellenweg","postalCode":"78266","locality":"Büsingen am Hochrhein","municipality":{"key":"08335015","name":"Büsingen am Hochrhein","type":"Kreisangehörige_Gemeinde"},"district":{"key":"08335","name":"Konstanz","type":"Landkreis"},"federalState":{"key":"08","name":"Baden-Württemberg"}},{"name":"Kehlhofstr.","postalCode":"78266","locality":"Büsingen am Hochrhein","municipality":{"key":"08335015","name":"Büsingen am Hochrhein","type":"Kreisangehörige_Gemeinde"},"district":{"key":"08335","name":"Konstanz","type":"Landkreis"},"federalState":{"key":"08","name":"Baden-Württemberg"}},{"name":"Kirchgasse","postalCode":"78266","locality":"Büsingen am Hochrhein","municipality":{"key":"08335015","name":"Büsingen am Hochrhein","type":"Kreisangehörige_Gemeinde"},"district":{"key":"08335","name":"Konstanz","type":"Landkreis"},"federalState":{"key":"08","name":"Baden-Württemberg"}},{"name":"Kohlfirststr.","postalCode":"78266","locality":"Büsingen am Hochrhein","municipality":{"key":"08335015","name":"Büsingen am Hochrhein","type":"Kreisangehörige_Gemeinde"},"district":{"key":"08335","name":"Konstanz","type":"Landkreis"},"federalState":{"key":"08","name":"Baden-Württemberg"}},{"name":"Küblerbückli","postalCode":"78266","locality":"Büsingen am Hochrhein","municipality":{"key":"08335015","name":"Büsingen am Hochrhein","type":"Kreisangehörige_Gemeinde"},"district":{"key":"08335","name":"Konstanz","type":"Landkreis"},"federalState":{"key":"08","name":"Baden-Württemberg"}},{"name":"Lindenweg","postalCode":"78266","locality":"Büsingen am Hochrhein","municipality":{"key":"08335015","name":"Büsingen am Hochrhein","type":"Kreisangehörige_Gemeinde"},"district":{"key":"08335","name":"Konstanz","type":"Landkreis"},"federalState":{"key":"08","name":"Baden-Württemberg"}},{"name":"Murtenstr.","postalCode":"78266","locality":"Büsingen am Hochrhein","municipality":{"key":"08335015","name":"Büsingen am Hochrhein","type":"Kreisangehörige_Gemeinde"},"district":{"key":"08335","name":"Konstanz","type":"Landkreis"},"federalState":{"key":"08","name":"Baden-Württemberg"}},{"name":"Näherinnenstr.","postalCode":"78467","locality":"Konstanz","municipality":{"key":"08335043","name":"Konstanz, Universitätsstadt","type":"Große_Kreisstadt"},"district":{"key":"08335","name":"Konstanz","type":"Landkreis"},"federalState":{"key":"08","name":"Baden-Württemberg"}},{"name":"Nestgasse","postalCode":"78464","locality":"Konstanz","municipality":{"key":"08335043","name":"Konstanz, Universitätsstadt","type":"Große_Kreisstadt"},"district":{"key":"08335","name":"Konstanz","type":"Landkreis"},"federalState":{"key":"08","name":"Baden-Württemberg"}},{"name":"Neuhauser Str.","postalCode":"78464","locality":"Konstanz","municipality":{"key":"08335043","name":"Konstanz, Universitätsstadt","type":"Große_Kreisstadt"},"district":{"key":"08335","name":"Konstanz","type":"Landkreis"},"federalState":{"key":"08","name":"Baden-Württemberg"}},{"name":"Niederburggasse","postalCode":"78462","locality":"Konstanz","municipality":{"key":"08335043","name":"Konstanz, Universitätsstadt","type":"Große_Kreisstadt"},"district":{"key":"08335","name":"Konstanz","type":"Landkreis"},"federalState":{"key":"08","name":"Baden-Württemberg"}},{"name":"Nikolausweg","postalCode":"78465","locality":"Konstanz","municipality":{"key":"08335043","name":"Konstanz, Universitätsstadt","type":"Große_Kreisstadt"},"district":{"key":"08335","name":"Konstanz","type":"Landkreis"},"federalState":{"key":"08","name":"Baden-Württemberg"}},{"name":"Oberdorfstr.","postalCode":"78465","locality":"Konstanz","municipality":{"key":"08335043","name":"Konstanz, Universitätsstadt","type":"Große_Kreisstadt"},"district":{"key":"08335","name":"Konstanz","type":"Landkreis"},"federalState":{"key":"08","name":"Baden-Württemberg"}},{"name":"Obere Bündt","postalCode":"78465","locality":"Konstanz","municipality":{"key":"08335043","name":"Konstanz, Universitätsstadt","type":"Große_Kreisstadt"},"district":{"key":"08335","name":"Konstanz","type":"Landkreis"},"federalState":{"key":"08","name":"Baden-Württemberg"}},{"name":"Obere Laube","postalCode":"78462","locality":"Konstanz","municipality":{"key":"08335043","name":"Konstanz, Universitätsstadt","type":"Große_Kreisstadt"},"district":{"key":"08335","name":"Konstanz","type":"Landkreis"},"federalState":{"key":"08","name":"Baden-Württemberg"}},{"name":"Oberer Eulenbachweg","postalCode":"78465","locality":"Konstanz","municipality":{"key":"08335043","name":"Konstanz, Universitätsstadt","type":"Große_Kreisstadt"},"district":{"key":"08335","name":"Konstanz","type":"Landkreis"},"federalState":{"key":"08","name":"Baden-Württemberg"}},{"name":"Oberlohnstr.","postalCode":"78467","locality":"Konstanz","municipality":{"key":"08335043","name":"Konstanz, Universitätsstadt","type":"Große_Kreisstadt"},"district":{"key":"08335","name":"Konstanz","type":"Landkreis"},"federalState":{"key":"08","name":"Baden-Württemberg"}},{"name":"Oberstegle","postalCode":"78464","locality":"Konstanz","municipality":{"key":"08335043","name":"Konstanz, Universitätsstadt","type":"Große_Kreisstadt"},"district":{"key":"08335","name":"Konstanz","type":"Landkreis"},"federalState":{"key":"08","name":"Baden-Württemberg"}},{"name":"Obstgarten","postalCode":"78465","locality":"Konstanz","municipality":{"key":"08335043","name":"Konstanz, Universitätsstadt","type":"Große_Kreisstadt"},"district":{"key":"08335","name":"Konstanz","type":"Landkreis"},"federalState":{"key":"08","name":"Baden-Württemberg"}},{"name":"Opelstr.","postalCode":"78467","locality":"Konstanz","municipality":{"key":"08335043","name":"Konstanz, Universitätsstadt","type":"Große_Kreisstadt"},"district":{"key":"08335","name":"Konstanz","type":"Landkreis"},"federalState":{"key":"08","name":"Baden-Württemberg"}},{"name":"Otto-Adam-Str.","postalCode":"78467","locality":"Konstanz","municipality":{"key":"08335043","name":"Konstanz, Universitätsstadt","type":"Große_Kreisstadt"},"district":{"key":"08335","name":"Konstanz","type":"Landkreis"},"federalState":{"key":"08","name":"Baden-Württemberg"}},{"name":"Otto-Raggenbass-Str.","postalCode":"78462","locality":"Konstanz","municipality":{"key":"08335043","name":"Konstanz, Universitätsstadt","type":"Große_Kreisstadt"},"district":{"key":"08335","name":"Konstanz","type":"Landkreis"},"federalState":{"key":"08","name":"Baden-Württemberg"}},{"name":"Paradiesstr.","postalCode":"78266","locality":"Büsingen am Hochrhein","municipality":{"key":"08335015","name":"Büsingen am Hochrhein","type":"Kreisangehörige_Gemeinde"},"district":{"key":"08335","name":"Konstanz","type":"Landkreis"},"federalState":{"key":"08","name":"Baden-Württemberg"}},{"name":"Postweg","postalCode":"78266","locality":"Büsingen am Hochrhein","municipality":{"key":"08335015","name":"Büsingen am Hochrhein","type":"Kreisangehörige_Gemeinde"},"district":{"key":"08335","name":"Konstanz","type":"Landkreis"},"federalState":{"key":"08","name":"Baden-Württemberg"}},{"name":"Querweg","postalCode":"78266","locality":"Büsingen am Hochrhein","municipality":{"key":"08335015","name":"Büsingen am Hochrhein","type":"Kreisangehörige_Gemeinde"},"district":{"key":"08335","name":"Konstanz","type":"Landkreis"},"federalState":{"key":"08","name":"Baden-Württemberg"}},{"name":"Rebhaldenweg","postalCode":"78266","locality":"Büsingen am Hochrhein","municipality":{"key":"08335015","name":"Büsingen am Hochrhein","type":"Kreisangehörige_Gemeinde"},"district":{"key":"08335","name":"Konstanz","type":"Landkreis"},"federalState":{"key":"08","name":"Baden-Württemberg"}},{"name":"Rheinhardweg","postalCode":"78266","locality":"Büsingen am Hochrhein","municipality":{"key":"08335015","name":"Büsingen am Hochrhein","type":"Kreisangehörige_Gemeinde"},"district":{"key":"08335","name":"Konstanz","type":"Landkreis"},"federalState":{"key":"08","name":"Baden-Württemberg"}},{"name":"Rosenstr.","postalCode":"78266","locality":"Büsingen am Hochrhein","municipality":{"key":"08335015","name":"Büsingen am Hochrhein","type":"Kreisangehörige_Gemeinde"},"district":{"key":"08335","name":"Konstanz","type":"Landkreis"},"federalState":{"key":"08","name":"Baden-Württemberg"}},{"name":"Schaffhauser Str.","postalCode":"78266","locality":"Büsingen am Hochrhein","municipality":{"key":"08335015","name":"Büsingen am Hochrhein","type":"Kreisangehörige_Gemeinde"},"district":{"key":"08335","name":"Konstanz","type":"Landkreis"},"federalState":{"key":"08","name":"Baden-Württemberg"}},{"name":"Schützenstr.","postalCode":"78266","locality":"Büsingen am Hochrhein","municipality":{"key":"08335015","name":"Büsingen am Hochrhein","type":"Kreisangehörige_Gemeinde"},"district":{"key":"08335","name":"Konstanz","type":"Landkreis"},"federalState":{"key":"08","name":"Baden-Württemberg"}},{"name":"Schwärzlenstr.","postalCode":"78266","locality":"Büsingen am Hochrhein","municipality":{"key":"08335015","name":"Büsingen am Hochrhein","type":"Kreisangehörige_Gemeinde"},"district":{"key":"08335","name":"Konstanz","type":"Landkreis"},"federalState":{"key":"08","name":"Baden-Württemberg"}},{"name":"S'Eder / Aalti Poscht","postalCode":"78266","locality":"Büsingen am Hochrhein","municipality":{"key":"08335015","name":"Büsingen am Hochrhein","type":"Kreisangehörige_Gemeinde"},"district":{"key":"08335","name":"Konstanz","type":"Landkreis"},"federalState":{"key":"08","name":"Baden-Württemberg"}},{"name":"S'Schwaderloch","postalCode":"78266","locality":"Büsingen am Hochrhein","municipality":{"key":"08335015","name":"Büsingen am Hochrhein","type":"Kreisangehörige_Gemeinde"},"district":{"key":"08335","name":"Konstanz","type":"Landkreis"},"federalState":{"key":"08","name":"Baden-Württemberg"}},{"name":"Stemmerstr.","postalCode":"78266","locality":"Büsingen am Hochrhein","municipality":{"key":"08335015","name":"Büsingen am Hochrhein","type":"Kreisangehörige_Gemeinde"},"district":{"key":"08335","name":"Konstanz","type":"Landkreis"},"federalState":{"key":"08","name":"Baden-Württemberg"}},{"name":"Strandbadweg","postalCode":"78266","locality":"Büsingen am Hochrhein","municipality":{"key":"08335015","name":"Büsingen am Hochrhein","type":"Kreisangehörige_Gemeinde"},"district":{"key":"08335","name":"Konstanz","type":"Landkreis"},"federalState":{"key":"08","name":"Baden-Württemberg"}},{"name":"Trottenweg","postalCode":"78266","locality":"Büsingen am Hochrhein","municipality":{"key":"08335015","name":"Büsingen am Hochrhein","type":"Kreisangehörige_Gemeinde"},"district":{"key":"08335","name":"Konstanz","type":"Landkreis"},"federalState":{"key":"08","name":"Baden-Württemberg"}},{"name":"Tulpenstr.","postalCode":"78266","locality":"Büsingen am Hochrhein","municipality":{"key":"08335015","name":"Büsingen am Hochrhein","type":"Kreisangehörige_Gemeinde"},"district":{"key":"08335","name":"Konstanz","type":"Landkreis"},"federalState":{"key":"08","name":"Baden-Württemberg"}},{"name":"Uferstr.","postalCode":"78465","locality":"Konstanz","municipality":{"key":"08335043","name":"Konstanz, Universitätsstadt","type":"Große_Kreisstadt"},"district":{"key":"08335","name":"Konstanz","type":"Landkreis"},"federalState":{"key":"08","name":"Baden-Württemberg"}},{"name":"Uhlandstr.","postalCode":"78464","locality":"Konstanz","municipality":{"key":"08335043","name":"Konstanz, Universitätsstadt","type":"Große_Kreisstadt"},"district":{"key":"08335","name":"Konstanz","type":"Landkreis"},"federalState":{"key":"08","name":"Baden-Württemberg"}},{"name":"Ulmisriedweg","postalCode":"78467","locality":"Konstanz","municipality":{"key":"08335043","name":"Konstanz, Universitätsstadt","type":"Große_Kreisstadt"},"district":{"key":"08335","name":"Konstanz","type":"Landkreis"},"federalState":{"key":"08","name":"Baden-Württemberg"}},{"name":"Universitätsstr.","postalCode":"78464","locality":"Konstanz","municipality":{"key":"08335043","name":"Konstanz, Universitätsstadt","type":"Große_Kreisstadt"},"district":{"key":"08335","name":"Konstanz","type":"Landkreis"},"federalState":{"key":"08","name":"Baden-Württemberg"}},{"name":"Universitätsstr.","postalCode":"78467","locality":"Konstanz","municipality":{"key":"08335043","name":"Konstanz, Universitätsstadt","type":"Große_Kreisstadt"},"district":{"key":"08335","name":"Konstanz","type":"Landkreis"},"federalState":{"key":"08","name":"Baden-Württemberg"}},{"name":"Unter dem Torkelberg","postalCode":"78465","locality":"Konstanz","municipality":{"key":"08335043","name":"Konstanz, Universitätsstadt","type":"Große_Kreisstadt"},"district":{"key":"08335","name":"Konstanz","type":"Landkreis"},"federalState":{"key":"08","name":"Baden-Württemberg"}},{"name":"Untere Bohlstr.","postalCode":"78465","locality":"Konstanz","municipality":{"key":"08335043","name":"Konstanz, Universitätsstadt","type":"Große_Kreisstadt"},"district":{"key":"08335","name":"Konstanz","type":"Landkreis"},"federalState":{"key":"08","name":"Baden-Württemberg"}},{"name":"Untere Bündt","postalCode":"78465","locality":"Konstanz","municipality":{"key":"08335043","name":"Konstanz, Universitätsstadt","type":"Große_Kreisstadt"},"district":{"key":"08335","name":"Konstanz","type":"Landkreis"},"federalState":{"key":"08","name":"Baden-Württemberg"}},{"name":"Untere Laube","postalCode":"78462","locality":"Konstanz","municipality":{"key":"08335043","name":"Konstanz, Universitätsstadt","type":"Große_Kreisstadt"},"district":{"key":"08335","name":"Konstanz","type":"Landkreis"},"federalState":{"key":"08","name":"Baden-Württemberg"}},{"name":"Unterrießstr.","postalCode":"78465","locality":"Konstanz","municipality":{"key":"08335043","name":"Konstanz, Universitätsstadt","type":"Große_Kreisstadt"},"district":{"key":"08335","name":"Konstanz","type":"Landkreis"},"federalState":{"key":"08","name":"Baden-Württemberg"}},{"name":"Unterstegle","postalCode":"78464","locality":"Konstanz","municipality":{"key":"08335043","name":"Konstanz, Universitätsstadt","type":"Große_Kreisstadt"},"district":{"key":"08335","name":"Konstanz","type":"Landkreis"},"federalState":{"key":"08","name":"Baden-Württemberg"}},{"name":"Urisbergweg","postalCode":"78467","locality":"Konstanz","municipality":{"key":"08335043","name":"Konstanz, Universitätsstadt","type":"Große_Kreisstadt"},"district":{"key":"08335","name":"Konstanz","type":"Landkreis"},"federalState":{"key":"08","name":"Baden-Württemberg"}},{"name":"Vögelingässchen","postalCode":"78266","locality":"Büsingen am Hochrhein","municipality":{"key":"08335015","name":"Büsingen am Hochrhein","type":"Kreisangehörige_Gemeinde"},"district":{"key":"08335","name":"Konstanz","type":"Landkreis"},"federalState":{"key":"08","name":"Baden-Württemberg"}},{"name":"Weitengrundweg","postalCode":"78266","locality":"Büsingen am Hochrhein","municipality":{"key":"08335015","name":"Büsingen am Hochrhein","type":"Kreisangehörige_Gemeinde"},"district":{"key":"08335","name":"Konstanz","type":"Landkreis"},"federalState":{"key":"08","name":"Baden-Württemberg"}},{"name":"Wieslestr.","postalCode":"78266","locality":"Büsingen am Hochrhein","municipality":{"key":"08335015","name":"Büsingen am Hochrhein","type":"Kreisangehörige_Gemeinde"},"district":{"key":"08335","name":"Konstanz","type":"Landkreis"},"federalState":{"key":"08","name":"Baden-Württemberg"}},{"name":"Zigeunerweg","postalCode":"78266","locality":"Büsingen am Hochrhein","municipality":{"key":"08335015","name":"Büsingen am Hochrhein","type":"Kreisangehörige_Gemeinde"},"district":{"key":"08335","name":"Konstanz","type":"Landkreis"},"federalState":{"key":"08","name":"Baden-Württemberg"}},{"name":"Zur Schiffländi","postalCode":"78266","locality":"Büsingen am Hochrhein","municipality":{"key":"08335015","name":"Büsingen am Hochrhein","type":"Kreisangehörige_Gemeinde"},"district":{"key":"08335","name":"Konstanz","type":"Landkreis"},"federalState":{"key":"08","name":"Baden-Württemberg"}},{"name":"Überlinger Str.","postalCode":"78464","locality":"Konstanz","municipality":{"key":"08335043","name":"Konstanz, Universitätsstadt","type":"Große_Kreisstadt"},"district":{"key":"08335","name":"Konstanz","type":"Landkreis"},"federalState":{"key":"08","name":"Baden-Württemberg"}},]