[{"name":"Ackerweg","postalCode":"08529","locality":"Plauen","municipality":{"key":"14523320","name":"Plauen, Stadt","type":"Stadt"},"district":{"key":"14523","name":"Vogtlandkreis","type":"Landkreis"},"federalState":{"key":"14","name":"Sachsen"}},{"name":"Adolf-Amelung-Weg","postalCode":"08529","locality":"Plauen","municipality":{"key":"14523320","name":"Plauen, Stadt","type":"Stadt"},"district":{"key":"14523","name":"Vogtlandkreis","type":"Landkreis"},"federalState":{"key":"14","name":"Sachsen"}},{"name":"Ahornstr.","postalCode":"08525","locality":"Plauen","municipality":{"key":"14523320","name":"Plauen, Stadt","type":"Stadt"},"district":{"key":"14523","name":"Vogtlandkreis","type":"Landkreis"},"federalState":{"key":"14","name":"Sachsen"}},{"name":"Albertplatz","postalCode":"08523","locality":"Plauen","municipality":{"key":"14523320","name":"Plauen, Stadt","type":"Stadt"},"district":{"key":"14523","name":"Vogtlandkreis","type":"Landkreis"},"federalState":{"key":"14","name":"Sachsen"}},{"name":"Albert-Schweitzer-Str.","postalCode":"08529","locality":"Plauen","municipality":{"key":"14523320","name":"Plauen, Stadt","type":"Stadt"},"district":{"key":"14523","name":"Vogtlandkreis","type":"Landkreis"},"federalState":{"key":"14","name":"Sachsen"}},{"name":"Albin-Enders-Str.","postalCode":"08527","locality":"Plauen","municipality":{"key":"14523320","name":"Plauen, Stadt","type":"Stadt"},"district":{"key":"14523","name":"Vogtlandkreis","type":"Landkreis"},"federalState":{"key":"14","name":"Sachsen"}},{"name":"Albin-Schlehahn-Str.","postalCode":"08547","locality":"Plauen","municipality":{"key":"14523320","name":"Plauen, Stadt","type":"Stadt"},"district":{"key":"14523","name":"Vogtlandkreis","type":"Landkreis"},"federalState":{"key":"14","name":"Sachsen"}},{"name":"Alfred-Schlagk-Str.","postalCode":"08523","locality":"Plauen","municipality":{"key":"14523320","name":"Plauen, Stadt","type":"Stadt"},"district":{"key":"14523","name":"Vogtlandkreis","type":"Landkreis"},"federalState":{"key":"14","name":"Sachsen"}},{"name":"Alleestr.","postalCode":"08525","locality":"Plauen","municipality":{"key":"14523320","name":"Plauen, Stadt","type":"Stadt"},"district":{"key":"14523","name":"Vogtlandkreis","type":"Landkreis"},"federalState":{"key":"14","name":"Sachsen"}},{"name":"Alte Jößnitzer Str.","postalCode":"08525","locality":"Plauen","municipality":{"key":"14523320","name":"Plauen, Stadt","type":"Stadt"},"district":{"key":"14523","name":"Vogtlandkreis","type":"Landkreis"},"federalState":{"key":"14","name":"Sachsen"}},{"name":"Alte Möschwitzer Str.","postalCode":"08529","locality":"Plauen","municipality":{"key":"14523320","name":"Plauen, Stadt","type":"Stadt"},"district":{"key":"14523","name":"Vogtlandkreis","type":"Landkreis"},"federalState":{"key":"14","name":"Sachsen"}},{"name":"Alte Oelsnitzer Str.","postalCode":"08527","locality":"Plauen","municipality":{"key":"14523320","name":"Plauen, Stadt","type":"Stadt"},"district":{"key":"14523","name":"Vogtlandkreis","type":"Landkreis"},"federalState":{"key":"14","name":"Sachsen"}},{"name":"Alte Plauener Str.","postalCode":"08541","locality":"Plauen","municipality":{"key":"14523320","name":"Plauen, Stadt","type":"Stadt"},"district":{"key":"14523","name":"Vogtlandkreis","type":"Landkreis"},"federalState":{"key":"14","name":"Sachsen"}},{"name":"Alte Plauensche Str.","postalCode":"08527","locality":"Plauen","municipality":{"key":"14523320","name":"Plauen, Stadt","type":"Stadt"},"district":{"key":"14523","name":"Vogtlandkreis","type":"Landkreis"},"federalState":{"key":"14","name":"Sachsen"}},{"name":"Alte Reichenbacher Str.","postalCode":"08529","locality":"Plauen","municipality":{"key":"14523320","name":"Plauen, Stadt","type":"Stadt"},"district":{"key":"14523","name":"Vogtlandkreis","type":"Landkreis"},"federalState":{"key":"14","name":"Sachsen"}},{"name":"Alter Postweg","postalCode":"08529","locality":"Plauen","municipality":{"key":"14523320","name":"Plauen, Stadt","type":"Stadt"},"district":{"key":"14523","name":"Vogtlandkreis","type":"Landkreis"},"federalState":{"key":"14","name":"Sachsen"}},{"name":"Alter Schulweg","postalCode":"08527","locality":"Plauen","municipality":{"key":"14523320","name":"Plauen, Stadt","type":"Stadt"},"district":{"key":"14523","name":"Vogtlandkreis","type":"Landkreis"},"federalState":{"key":"14","name":"Sachsen"}},{"name":"Alter Teich","postalCode":"08527","locality":"Plauen","municipality":{"key":"14523320","name":"Plauen, Stadt","type":"Stadt"},"district":{"key":"14523","name":"Vogtlandkreis","type":"Landkreis"},"federalState":{"key":"14","name":"Sachsen"}},{"name":"Alte Salzstr.","postalCode":"08547","locality":"Plauen","municipality":{"key":"14523320","name":"Plauen, Stadt","type":"Stadt"},"district":{"key":"14523","name":"Vogtlandkreis","type":"Landkreis"},"federalState":{"key":"14","name":"Sachsen"}},{"name":"Alte Straßberger Str.","postalCode":"08523","locality":"Plauen","municipality":{"key":"14523320","name":"Plauen, Stadt","type":"Stadt"},"district":{"key":"14523","name":"Vogtlandkreis","type":"Landkreis"},"federalState":{"key":"14","name":"Sachsen"}},{"name":"Alte Straßberger Str.","postalCode":"08527","locality":"Plauen","municipality":{"key":"14523320","name":"Plauen, Stadt","type":"Stadt"},"district":{"key":"14523","name":"Vogtlandkreis","type":"Landkreis"},"federalState":{"key":"14","name":"Sachsen"}},{"name":"Alte Zwoschwitzer Str.","postalCode":"08523","locality":"Plauen","municipality":{"key":"14523320","name":"Plauen, Stadt","type":"Stadt"},"district":{"key":"14523","name":"Vogtlandkreis","type":"Landkreis"},"federalState":{"key":"14","name":"Sachsen"}},{"name":"Althaselbrunn","postalCode":"08525","locality":"Plauen","municipality":{"key":"14523320","name":"Plauen, Stadt","type":"Stadt"},"district":{"key":"14523","name":"Vogtlandkreis","type":"Landkreis"},"federalState":{"key":"14","name":"Sachsen"}},{"name":"Altmarkt","postalCode":"08523","locality":"Plauen","municipality":{"key":"14523320","name":"Plauen, Stadt","type":"Stadt"},"district":{"key":"14523","name":"Vogtlandkreis","type":"Landkreis"},"federalState":{"key":"14","name":"Sachsen"}},{"name":"Am Alten Bahndamm","postalCode":"08529","locality":"Plauen","municipality":{"key":"14523320","name":"Plauen, Stadt","type":"Stadt"},"district":{"key":"14523","name":"Vogtlandkreis","type":"Landkreis"},"federalState":{"key":"14","name":"Sachsen"}},{"name":"Am Anger","postalCode":"08527","locality":"Plauen","municipality":{"key":"14523320","name":"Plauen, Stadt","type":"Stadt"},"district":{"key":"14523","name":"Vogtlandkreis","type":"Landkreis"},"federalState":{"key":"14","name":"Sachsen"}},{"name":"Am-August-Bebel-Hain","postalCode":"08527","locality":"Plauen","municipality":{"key":"14523320","name":"Plauen, Stadt","type":"Stadt"},"district":{"key":"14523","name":"Vogtlandkreis","type":"Landkreis"},"federalState":{"key":"14","name":"Sachsen"}},{"name":"Am-August-Bebel-Hain","postalCode":"08529","locality":"Plauen","municipality":{"key":"14523320","name":"Plauen, Stadt","type":"Stadt"},"district":{"key":"14523","name":"Vogtlandkreis","type":"Landkreis"},"federalState":{"key":"14","name":"Sachsen"}},{"name":"Am Bache","postalCode":"99338","locality":"Plaue","municipality":{"key":"16070043","name":"Plaue, Stadt","type":"Stadt"},"district":{"key":"16070","name":"Ilm-Kreis","type":"Landkreis"},"federalState":{"key":"16","name":"Thüringen"}},{"name":"Am Badeplatz","postalCode":"08523","locality":"Plauen","municipality":{"key":"14523320","name":"Plauen, Stadt","type":"Stadt"},"district":{"key":"14523","name":"Vogtlandkreis","type":"Landkreis"},"federalState":{"key":"14","name":"Sachsen"}},{"name":"Am Badetor","postalCode":"08523","locality":"Plauen","municipality":{"key":"14523320","name":"Plauen, Stadt","type":"Stadt"},"district":{"key":"14523","name":"Vogtlandkreis","type":"Landkreis"},"federalState":{"key":"14","name":"Sachsen"}},{"name":"Am Bahndamm","postalCode":"99338","locality":"Plaue","municipality":{"key":"16070043","name":"Plaue, Stadt","type":"Stadt"},"district":{"key":"16070","name":"Ilm-Kreis","type":"Landkreis"},"federalState":{"key":"16","name":"Thüringen"}},{"name":"Am Bärenstein","postalCode":"08523","locality":"Plauen","municipality":{"key":"14523320","name":"Plauen, Stadt","type":"Stadt"},"district":{"key":"14523","name":"Vogtlandkreis","type":"Landkreis"},"federalState":{"key":"14","name":"Sachsen"}},{"name":"Am Berg","postalCode":"08547","locality":"Plauen","municipality":{"key":"14523320","name":"Plauen, Stadt","type":"Stadt"},"district":{"key":"14523","name":"Vogtlandkreis","type":"Landkreis"},"federalState":{"key":"14","name":"Sachsen"}},{"name":"Am Birkenhübel","postalCode":"08523","locality":"Plauen","municipality":{"key":"14523320","name":"Plauen, Stadt","type":"Stadt"},"district":{"key":"14523","name":"Vogtlandkreis","type":"Landkreis"},"federalState":{"key":"14","name":"Sachsen"}},{"name":"Am Dorfacker","postalCode":"08525","locality":"Plauen","municipality":{"key":"14523320","name":"Plauen, Stadt","type":"Stadt"},"district":{"key":"14523","name":"Vogtlandkreis","type":"Landkreis"},"federalState":{"key":"14","name":"Sachsen"}},{"name":"Am Eichenwald","postalCode":"08541","locality":"Plauen","municipality":{"key":"14523320","name":"Plauen, Stadt","type":"Stadt"},"district":{"key":"14523","name":"Vogtlandkreis","type":"Landkreis"},"federalState":{"key":"14","name":"Sachsen"}},{"name":"Am Eichhäuschen","postalCode":"08523","locality":"Plauen","municipality":{"key":"14523320","name":"Plauen, Stadt","type":"Stadt"},"district":{"key":"14523","name":"Vogtlandkreis","type":"Landkreis"},"federalState":{"key":"14","name":"Sachsen"}},{"name":"Am Elsteranger","postalCode":"08527","locality":"Plauen","municipality":{"key":"14523320","name":"Plauen, Stadt","type":"Stadt"},"district":{"key":"14523","name":"Vogtlandkreis","type":"Landkreis"},"federalState":{"key":"14","name":"Sachsen"}},{"name":"Am Elsterbad","postalCode":"08523","locality":"Plauen","municipality":{"key":"14523320","name":"Plauen, Stadt","type":"Stadt"},"district":{"key":"14523","name":"Vogtlandkreis","type":"Landkreis"},"federalState":{"key":"14","name":"Sachsen"}},{"name":"Am Erlbusch","postalCode":"08529","locality":"Plauen","municipality":{"key":"14523320","name":"Plauen, Stadt","type":"Stadt"},"district":{"key":"14523","name":"Vogtlandkreis","type":"Landkreis"},"federalState":{"key":"14","name":"Sachsen"}},{"name":"Am Essigsteig","postalCode":"08525","locality":"Plauen","municipality":{"key":"14523320","name":"Plauen, Stadt","type":"Stadt"},"district":{"key":"14523","name":"Vogtlandkreis","type":"Landkreis"},"federalState":{"key":"14","name":"Sachsen"}},{"name":"Am Essigsteig","postalCode":"08547","locality":"Plauen","municipality":{"key":"14523320","name":"Plauen, Stadt","type":"Stadt"},"district":{"key":"14523","name":"Vogtlandkreis","type":"Landkreis"},"federalState":{"key":"14","name":"Sachsen"}},{"name":"Am Friesenbach","postalCode":"08529","locality":"Plauen","municipality":{"key":"14523320","name":"Plauen, Stadt","type":"Stadt"},"district":{"key":"14523","name":"Vogtlandkreis","type":"Landkreis"},"federalState":{"key":"14","name":"Sachsen"}},{"name":"Am Froschteich","postalCode":"08523","locality":"Plauen","municipality":{"key":"14523320","name":"Plauen, Stadt","type":"Stadt"},"district":{"key":"14523","name":"Vogtlandkreis","type":"Landkreis"},"federalState":{"key":"14","name":"Sachsen"}},{"name":"Am Fuchsloch","postalCode":"08525","locality":"Plauen","municipality":{"key":"14523320","name":"Plauen, Stadt","type":"Stadt"},"district":{"key":"14523","name":"Vogtlandkreis","type":"Landkreis"},"federalState":{"key":"14","name":"Sachsen"}},{"name":"Am Galgenberg","postalCode":"08527","locality":"Plauen","municipality":{"key":"14523320","name":"Plauen, Stadt","type":"Stadt"},"district":{"key":"14523","name":"Vogtlandkreis","type":"Landkreis"},"federalState":{"key":"14","name":"Sachsen"}},{"name":"Am Gebörn","postalCode":"99338","locality":"Plaue","municipality":{"key":"16070043","name":"Plaue, Stadt","type":"Stadt"},"district":{"key":"16070","name":"Ilm-Kreis","type":"Landkreis"},"federalState":{"key":"16","name":"Thüringen"}},{"name":"Am Gericht","postalCode":"08527","locality":"Plauen","municipality":{"key":"14523320","name":"Plauen, Stadt","type":"Stadt"},"district":{"key":"14523","name":"Vogtlandkreis","type":"Landkreis"},"federalState":{"key":"14","name":"Sachsen"}},{"name":"Am Ginsterhübel","postalCode":"08527","locality":"Plauen","municipality":{"key":"14523320","name":"Plauen, Stadt","type":"Stadt"},"district":{"key":"14523","name":"Vogtlandkreis","type":"Landkreis"},"federalState":{"key":"14","name":"Sachsen"}},{"name":"Bachstr.","postalCode":"08527","locality":"Plauen","municipality":{"key":"14523320","name":"Plauen, Stadt","type":"Stadt"},"district":{"key":"14523","name":"Vogtlandkreis","type":"Landkreis"},"federalState":{"key":"14","name":"Sachsen"}},{"name":"Badestr.","postalCode":"08527","locality":"Plauen","municipality":{"key":"14523320","name":"Plauen, Stadt","type":"Stadt"},"district":{"key":"14523","name":"Vogtlandkreis","type":"Landkreis"},"federalState":{"key":"14","name":"Sachsen"}},{"name":"Bahnhofstr.","postalCode":"08523","locality":"Plauen","municipality":{"key":"14523320","name":"Plauen, Stadt","type":"Stadt"},"district":{"key":"14523","name":"Vogtlandkreis","type":"Landkreis"},"federalState":{"key":"14","name":"Sachsen"}},{"name":"Bahnhofstr.","postalCode":"08525","locality":"Plauen","municipality":{"key":"14523320","name":"Plauen, Stadt","type":"Stadt"},"district":{"key":"14523","name":"Vogtlandkreis","type":"Landkreis"},"federalState":{"key":"14","name":"Sachsen"}},{"name":"Bahnhofstr.","postalCode":"08547","locality":"Plauen","municipality":{"key":"14523320","name":"Plauen, Stadt","type":"Stadt"},"district":{"key":"14523","name":"Vogtlandkreis","type":"Landkreis"},"federalState":{"key":"14","name":"Sachsen"}},{"name":"Bahnhofstr.","postalCode":"99338","locality":"Plaue","municipality":{"key":"16070043","name":"Plaue, Stadt","type":"Stadt"},"district":{"key":"16070","name":"Ilm-Kreis","type":"Landkreis"},"federalState":{"key":"16","name":"Thüringen"}},{"name":"Bänkegäßchen","postalCode":"08523","locality":"Plauen","municipality":{"key":"14523320","name":"Plauen, Stadt","type":"Stadt"},"district":{"key":"14523","name":"Vogtlandkreis","type":"Landkreis"},"federalState":{"key":"14","name":"Sachsen"}},{"name":"Barbussestr.","postalCode":"08529","locality":"Plauen","municipality":{"key":"14523320","name":"Plauen, Stadt","type":"Stadt"},"district":{"key":"14523","name":"Vogtlandkreis","type":"Landkreis"},"federalState":{"key":"14","name":"Sachsen"}},{"name":"Bärenstr.","postalCode":"08523","locality":"Plauen","municipality":{"key":"14523320","name":"Plauen, Stadt","type":"Stadt"},"district":{"key":"14523","name":"Vogtlandkreis","type":"Landkreis"},"federalState":{"key":"14","name":"Sachsen"}},{"name":"Barthmühlenstr.","postalCode":"08547","locality":"Plauen","municipality":{"key":"14523320","name":"Plauen, Stadt","type":"Stadt"},"district":{"key":"14523","name":"Vogtlandkreis","type":"Landkreis"},"federalState":{"key":"14","name":"Sachsen"}},{"name":"Bauer-Kilian-Weg","postalCode":"08527","locality":"Plauen","municipality":{"key":"14523320","name":"Plauen, Stadt","type":"Stadt"},"district":{"key":"14523","name":"Vogtlandkreis","type":"Landkreis"},"federalState":{"key":"14","name":"Sachsen"}},{"name":"Beethovenstr.","postalCode":"08525","locality":"Plauen","municipality":{"key":"14523320","name":"Plauen, Stadt","type":"Stadt"},"district":{"key":"14523","name":"Vogtlandkreis","type":"Landkreis"},"federalState":{"key":"14","name":"Sachsen"}},{"name":"Beethovenstr.","postalCode":"08547","locality":"Plauen","municipality":{"key":"14523320","name":"Plauen, Stadt","type":"Stadt"},"district":{"key":"14523","name":"Vogtlandkreis","type":"Landkreis"},"federalState":{"key":"14","name":"Sachsen"}},{"name":"Bergstr.","postalCode":"08523","locality":"Plauen","municipality":{"key":"14523320","name":"Plauen, Stadt","type":"Stadt"},"district":{"key":"14523","name":"Vogtlandkreis","type":"Landkreis"},"federalState":{"key":"14","name":"Sachsen"}},{"name":"Bergstr.","postalCode":"08547","locality":"Plauen","municipality":{"key":"14523320","name":"Plauen, Stadt","type":"Stadt"},"district":{"key":"14523","name":"Vogtlandkreis","type":"Landkreis"},"federalState":{"key":"14","name":"Sachsen"}},{"name":"Bernhard-Lichtenberg-Weg","postalCode":"08529","locality":"Plauen","municipality":{"key":"14523320","name":"Plauen, Stadt","type":"Stadt"},"district":{"key":"14523","name":"Vogtlandkreis","type":"Landkreis"},"federalState":{"key":"14","name":"Sachsen"}},{"name":"Bertolt-Brecht-Str.","postalCode":"08529","locality":"Plauen","municipality":{"key":"14523320","name":"Plauen, Stadt","type":"Stadt"},"district":{"key":"14523","name":"Vogtlandkreis","type":"Landkreis"},"federalState":{"key":"14","name":"Sachsen"}},{"name":"Bertrand-Roth-Str.","postalCode":"08525","locality":"Plauen","municipality":{"key":"14523320","name":"Plauen, Stadt","type":"Stadt"},"district":{"key":"14523","name":"Vogtlandkreis","type":"Landkreis"},"federalState":{"key":"14","name":"Sachsen"}},{"name":"Beyerstr.","postalCode":"08527","locality":"Plauen","municipality":{"key":"14523320","name":"Plauen, Stadt","type":"Stadt"},"district":{"key":"14523","name":"Vogtlandkreis","type":"Landkreis"},"federalState":{"key":"14","name":"Sachsen"}},{"name":"Bickelstr.","postalCode":"08527","locality":"Plauen","municipality":{"key":"14523320","name":"Plauen, Stadt","type":"Stadt"},"district":{"key":"14523","name":"Vogtlandkreis","type":"Landkreis"},"federalState":{"key":"14","name":"Sachsen"}},{"name":"Birnbaumweg","postalCode":"08529","locality":"Plauen","municipality":{"key":"14523320","name":"Plauen, Stadt","type":"Stadt"},"district":{"key":"14523","name":"Vogtlandkreis","type":"Landkreis"},"federalState":{"key":"14","name":"Sachsen"}},{"name":"Bismarckstr.","postalCode":"08527","locality":"Plauen","municipality":{"key":"14523320","name":"Plauen, Stadt","type":"Stadt"},"district":{"key":"14523","name":"Vogtlandkreis","type":"Landkreis"},"federalState":{"key":"14","name":"Sachsen"}},{"name":"Blauweg","postalCode":"08527","locality":"Plauen","municipality":{"key":"14523320","name":"Plauen, Stadt","type":"Stadt"},"district":{"key":"14523","name":"Vogtlandkreis","type":"Landkreis"},"federalState":{"key":"14","name":"Sachsen"}},{"name":"Blechschmidtweg","postalCode":"08523","locality":"Plauen","municipality":{"key":"14523320","name":"Plauen, Stadt","type":"Stadt"},"district":{"key":"14523","name":"Vogtlandkreis","type":"Landkreis"},"federalState":{"key":"14","name":"Sachsen"}},{"name":"Bleichstr.","postalCode":"08527","locality":"Plauen","municipality":{"key":"14523320","name":"Plauen, Stadt","type":"Stadt"},"district":{"key":"14523","name":"Vogtlandkreis","type":"Landkreis"},"federalState":{"key":"14","name":"Sachsen"}},{"name":"Böhlerstr.","postalCode":"08527","locality":"Plauen","municipality":{"key":"14523320","name":"Plauen, Stadt","type":"Stadt"},"district":{"key":"14523","name":"Vogtlandkreis","type":"Landkreis"},"federalState":{"key":"14","name":"Sachsen"}},{"name":"Bonhoefferstr.","postalCode":"08525","locality":"Plauen","municipality":{"key":"14523320","name":"Plauen, Stadt","type":"Stadt"},"district":{"key":"14523","name":"Vogtlandkreis","type":"Landkreis"},"federalState":{"key":"14","name":"Sachsen"}},{"name":"Brand","postalCode":"08527","locality":"Plauen","municipality":{"key":"14523320","name":"Plauen, Stadt","type":"Stadt"},"district":{"key":"14523","name":"Vogtlandkreis","type":"Landkreis"},"federalState":{"key":"14","name":"Sachsen"}},{"name":"Brander Weg","postalCode":"08527","locality":"Plauen","municipality":{"key":"14523320","name":"Plauen, Stadt","type":"Stadt"},"district":{"key":"14523","name":"Vogtlandkreis","type":"Landkreis"},"federalState":{"key":"14","name":"Sachsen"}},{"name":"Braugässchen","postalCode":"08523","locality":"Plauen","municipality":{"key":"14523320","name":"Plauen, Stadt","type":"Stadt"},"district":{"key":"14523","name":"Vogtlandkreis","type":"Landkreis"},"federalState":{"key":"14","name":"Sachsen"}},{"name":"Breitscheidstr.","postalCode":"08525","locality":"Plauen","municipality":{"key":"14523320","name":"Plauen, Stadt","type":"Stadt"},"district":{"key":"14523","name":"Vogtlandkreis","type":"Landkreis"},"federalState":{"key":"14","name":"Sachsen"}},{"name":"Brüderstr.","postalCode":"08527","locality":"Plauen","municipality":{"key":"14523320","name":"Plauen, Stadt","type":"Stadt"},"district":{"key":"14523","name":"Vogtlandkreis","type":"Landkreis"},"federalState":{"key":"14","name":"Sachsen"}},{"name":"Brunnenweg","postalCode":"08527","locality":"Plauen","municipality":{"key":"14523320","name":"Plauen, Stadt","type":"Stadt"},"district":{"key":"14523","name":"Vogtlandkreis","type":"Landkreis"},"federalState":{"key":"14","name":"Sachsen"}},{"name":"Buchenweg","postalCode":"08547","locality":"Plauen","municipality":{"key":"14523320","name":"Plauen, Stadt","type":"Stadt"},"district":{"key":"14523","name":"Vogtlandkreis","type":"Landkreis"},"federalState":{"key":"14","name":"Sachsen"}},{"name":"Burgstr.","postalCode":"08523","locality":"Plauen","municipality":{"key":"14523320","name":"Plauen, Stadt","type":"Stadt"},"district":{"key":"14523","name":"Vogtlandkreis","type":"Landkreis"},"federalState":{"key":"14","name":"Sachsen"}},{"name":"Burgweg","postalCode":"08529","locality":"Plauen","municipality":{"key":"14523320","name":"Plauen, Stadt","type":"Stadt"},"district":{"key":"14523","name":"Vogtlandkreis","type":"Landkreis"},"federalState":{"key":"14","name":"Sachsen"}},{"name":"Burgweg","postalCode":"99338","locality":"Plaue","municipality":{"key":"16070043","name":"Plaue, Stadt","type":"Stadt"},"district":{"key":"16070","name":"Ilm-Kreis","type":"Landkreis"},"federalState":{"key":"16","name":"Thüringen"}},{"name":"B-Weg","postalCode":"08527","locality":"Plauen","municipality":{"key":"14523320","name":"Plauen, Stadt","type":"Stadt"},"district":{"key":"14523","name":"Vogtlandkreis","type":"Landkreis"},"federalState":{"key":"14","name":"Sachsen"}},{"name":"Carl-von-Ossietzky-Weg","postalCode":"08529","locality":"Plauen","municipality":{"key":"14523320","name":"Plauen, Stadt","type":"Stadt"},"district":{"key":"14523","name":"Vogtlandkreis","type":"Landkreis"},"federalState":{"key":"14","name":"Sachsen"}},{"name":"Celler Str.","postalCode":"08525","locality":"Plauen","municipality":{"key":"14523320","name":"Plauen, Stadt","type":"Stadt"},"district":{"key":"14523","name":"Vogtlandkreis","type":"Landkreis"},"federalState":{"key":"14","name":"Sachsen"}},{"name":"Chamissostr.","postalCode":"08525","locality":"Plauen","municipality":{"key":"14523320","name":"Plauen, Stadt","type":"Stadt"},"district":{"key":"14523","name":"Vogtlandkreis","type":"Landkreis"},"federalState":{"key":"14","name":"Sachsen"}},{"name":"Chamissostr.","postalCode":"08529","locality":"Plauen","municipality":{"key":"14523320","name":"Plauen, Stadt","type":"Stadt"},"district":{"key":"14523","name":"Vogtlandkreis","type":"Landkreis"},"federalState":{"key":"14","name":"Sachsen"}},{"name":"Chrieschwitzer Str.","postalCode":"08525","locality":"Plauen","municipality":{"key":"14523320","name":"Plauen, Stadt","type":"Stadt"},"district":{"key":"14523","name":"Vogtlandkreis","type":"Landkreis"},"federalState":{"key":"14","name":"Sachsen"}},{"name":"Clara-Wieck-Str.","postalCode":"08527","locality":"Plauen","municipality":{"key":"14523320","name":"Plauen, Stadt","type":"Stadt"},"district":{"key":"14523","name":"Vogtlandkreis","type":"Landkreis"},"federalState":{"key":"14","name":"Sachsen"}},{"name":"Comeniusstr.","postalCode":"08523","locality":"Plauen","municipality":{"key":"14523320","name":"Plauen, Stadt","type":"Stadt"},"district":{"key":"14523","name":"Vogtlandkreis","type":"Landkreis"},"federalState":{"key":"14","name":"Sachsen"}},{"name":"Cranachstr.","postalCode":"08527","locality":"Plauen","municipality":{"key":"14523320","name":"Plauen, Stadt","type":"Stadt"},"district":{"key":"14523","name":"Vogtlandkreis","type":"Landkreis"},"federalState":{"key":"14","name":"Sachsen"}},{"name":"C-Weg","postalCode":"08527","locality":"Plauen","municipality":{"key":"14523320","name":"Plauen, Stadt","type":"Stadt"},"district":{"key":"14523","name":"Vogtlandkreis","type":"Landkreis"},"federalState":{"key":"14","name":"Sachsen"}},{"name":"Damaschkestr.","postalCode":"08529","locality":"Plauen","municipality":{"key":"14523320","name":"Plauen, Stadt","type":"Stadt"},"district":{"key":"14523","name":"Vogtlandkreis","type":"Landkreis"},"federalState":{"key":"14","name":"Sachsen"}},{"name":"Dammstr.","postalCode":"08527","locality":"Plauen","municipality":{"key":"14523320","name":"Plauen, Stadt","type":"Stadt"},"district":{"key":"14523","name":"Vogtlandkreis","type":"Landkreis"},"federalState":{"key":"14","name":"Sachsen"}},{"name":"Darwinstr.","postalCode":"08529","locality":"Plauen","municipality":{"key":"14523320","name":"Plauen, Stadt","type":"Stadt"},"district":{"key":"14523","name":"Vogtlandkreis","type":"Landkreis"},"federalState":{"key":"14","name":"Sachsen"}},{"name":"Der Mühlweg","postalCode":"99338","locality":"Plaue","municipality":{"key":"16070043","name":"Plaue, Stadt","type":"Stadt"},"district":{"key":"16070","name":"Ilm-Kreis","type":"Landkreis"},"federalState":{"key":"16","name":"Thüringen"}},{"name":"Diesterwegstr.","postalCode":"08523","locality":"Plauen","municipality":{"key":"14523320","name":"Plauen, Stadt","type":"Stadt"},"district":{"key":"14523","name":"Vogtlandkreis","type":"Landkreis"},"federalState":{"key":"14","name":"Sachsen"}},{"name":"Dillnerplatz","postalCode":"08527","locality":"Plauen","municipality":{"key":"14523320","name":"Plauen, Stadt","type":"Stadt"},"district":{"key":"14523","name":"Vogtlandkreis","type":"Landkreis"},"federalState":{"key":"14","name":"Sachsen"}},{"name":"Dittesstr.","postalCode":"08523","locality":"Plauen","municipality":{"key":"14523320","name":"Plauen, Stadt","type":"Stadt"},"district":{"key":"14523","name":"Vogtlandkreis","type":"Landkreis"},"federalState":{"key":"14","name":"Sachsen"}},{"name":"Dittrichplatz","postalCode":"08523","locality":"Plauen","municipality":{"key":"14523320","name":"Plauen, Stadt","type":"Stadt"},"district":{"key":"14523","name":"Vogtlandkreis","type":"Landkreis"},"federalState":{"key":"14","name":"Sachsen"}},{"name":"Dobenaustr.","postalCode":"08523","locality":"Plauen","municipality":{"key":"14523320","name":"Plauen, Stadt","type":"Stadt"},"district":{"key":"14523","name":"Vogtlandkreis","type":"Landkreis"},"federalState":{"key":"14","name":"Sachsen"}},{"name":"Doktor-Ewald-Simon-Str.","postalCode":"08529","locality":"Plauen","municipality":{"key":"14523320","name":"Plauen, Stadt","type":"Stadt"},"district":{"key":"14523","name":"Vogtlandkreis","type":"Landkreis"},"federalState":{"key":"14","name":"Sachsen"}},{"name":"Doktor-Karl-Gelbke-Str.","postalCode":"08529","locality":"Plauen","municipality":{"key":"14523320","name":"Plauen, Stadt","type":"Stadt"},"district":{"key":"14523","name":"Vogtlandkreis","type":"Landkreis"},"federalState":{"key":"14","name":"Sachsen"}},{"name":"Dörffelstr.","postalCode":"08523","locality":"Plauen","municipality":{"key":"14523320","name":"Plauen, Stadt","type":"Stadt"},"district":{"key":"14523","name":"Vogtlandkreis","type":"Landkreis"},"federalState":{"key":"14","name":"Sachsen"}},{"name":"Dörffelstr.","postalCode":"08527","locality":"Plauen","municipality":{"key":"14523320","name":"Plauen, Stadt","type":"Stadt"},"district":{"key":"14523","name":"Vogtlandkreis","type":"Landkreis"},"federalState":{"key":"14","name":"Sachsen"}},{"name":"Dorfstr.","postalCode":"08527","locality":"Plauen","municipality":{"key":"14523320","name":"Plauen, Stadt","type":"Stadt"},"district":{"key":"14523","name":"Vogtlandkreis","type":"Landkreis"},"federalState":{"key":"14","name":"Sachsen"}},{"name":"Dr.-Christoph-Hufeland-Str.","postalCode":"08529","locality":"Plauen","municipality":{"key":"14523320","name":"Plauen, Stadt","type":"Stadt"},"district":{"key":"14523","name":"Vogtlandkreis","type":"Landkreis"},"federalState":{"key":"14","name":"Sachsen"}},{"name":"Dr.-Eduard-Stadler-Str.","postalCode":"08529","locality":"Plauen","municipality":{"key":"14523320","name":"Plauen, Stadt","type":"Stadt"},"district":{"key":"14523","name":"Vogtlandkreis","type":"Landkreis"},"federalState":{"key":"14","name":"Sachsen"}},{"name":"Dresdener Str.","postalCode":"08529","locality":"Plauen","municipality":{"key":"14523320","name":"Plauen, Stadt","type":"Stadt"},"district":{"key":"14523","name":"Vogtlandkreis","type":"Landkreis"},"federalState":{"key":"14","name":"Sachsen"}},{"name":"Dr.-Friedrich-Wolf-Str.","postalCode":"08529","locality":"Plauen","municipality":{"key":"14523320","name":"Plauen, Stadt","type":"Stadt"},"district":{"key":"14523","name":"Vogtlandkreis","type":"Landkreis"},"federalState":{"key":"14","name":"Sachsen"}},{"name":"Dr.-Hans-Zorn-Str.","postalCode":"08529","locality":"Plauen","municipality":{"key":"14523320","name":"Plauen, Stadt","type":"Stadt"},"district":{"key":"14523","name":"Vogtlandkreis","type":"Landkreis"},"federalState":{"key":"14","name":"Sachsen"}},{"name":"Dr.-Karl-Gelbke-Str.","postalCode":"08529","locality":"Plauen","municipality":{"key":"14523320","name":"Plauen, Stadt","type":"Stadt"},"district":{"key":"14523","name":"Vogtlandkreis","type":"Landkreis"},"federalState":{"key":"14","name":"Sachsen"}},{"name":"Dr.-Max-Breitung-Str.","postalCode":"08529","locality":"Plauen","municipality":{"key":"14523320","name":"Plauen, Stadt","type":"Stadt"},"district":{"key":"14523","name":"Vogtlandkreis","type":"Landkreis"},"federalState":{"key":"14","name":"Sachsen"}},{"name":"Dr.-Theodor-Brugsch-Str.","postalCode":"08529","locality":"Plauen","municipality":{"key":"14523320","name":"Plauen, Stadt","type":"Stadt"},"district":{"key":"14523","name":"Vogtlandkreis","type":"Landkreis"},"federalState":{"key":"14","name":"Sachsen"}},{"name":"Durchgang(Stauffenb.-Wildstr.)","postalCode":"08523","locality":"Plauen","municipality":{"key":"14523320","name":"Plauen, Stadt","type":"Stadt"},"district":{"key":"14523","name":"Vogtlandkreis","type":"Landkreis"},"federalState":{"key":"14","name":"Sachsen"}},{"name":"Dürerbrücke","postalCode":"08527","locality":"Plauen","municipality":{"key":"14523320","name":"Plauen, Stadt","type":"Stadt"},"district":{"key":"14523","name":"Vogtlandkreis","type":"Landkreis"},"federalState":{"key":"14","name":"Sachsen"}},{"name":"Dürerstr.","postalCode":"08527","locality":"Plauen","municipality":{"key":"14523320","name":"Plauen, Stadt","type":"Stadt"},"district":{"key":"14523","name":"Vogtlandkreis","type":"Landkreis"},"federalState":{"key":"14","name":"Sachsen"}},{"name":"Dürrgut","postalCode":"08525","locality":"Plauen","municipality":{"key":"14523320","name":"Plauen, Stadt","type":"Stadt"},"district":{"key":"14523","name":"Vogtlandkreis","type":"Landkreis"},"federalState":{"key":"14","name":"Sachsen"}},{"name":"D-Weg","postalCode":"08527","locality":"Plauen","municipality":{"key":"14523320","name":"Plauen, Stadt","type":"Stadt"},"district":{"key":"14523","name":"Vogtlandkreis","type":"Landkreis"},"federalState":{"key":"14","name":"Sachsen"}},{"name":"Edith-Stein-Str.","postalCode":"08523","locality":"Plauen","municipality":{"key":"14523320","name":"Plauen, Stadt","type":"Stadt"},"district":{"key":"14523","name":"Vogtlandkreis","type":"Landkreis"},"federalState":{"key":"14","name":"Sachsen"}},{"name":"Efeuweg","postalCode":"08529","locality":"Plauen","municipality":{"key":"14523320","name":"Plauen, Stadt","type":"Stadt"},"district":{"key":"14523","name":"Vogtlandkreis","type":"Landkreis"},"federalState":{"key":"14","name":"Sachsen"}},{"name":"Eichhübelpark","postalCode":"08523","locality":"Plauen","municipality":{"key":"14523320","name":"Plauen, Stadt","type":"Stadt"},"district":{"key":"14523","name":"Vogtlandkreis","type":"Landkreis"},"federalState":{"key":"14","name":"Sachsen"}},{"name":"Eichhübelweg","postalCode":"08523","locality":"Plauen","municipality":{"key":"14523320","name":"Plauen, Stadt","type":"Stadt"},"district":{"key":"14523","name":"Vogtlandkreis","type":"Landkreis"},"federalState":{"key":"14","name":"Sachsen"}},{"name":"Einsteinweg","postalCode":"08529","locality":"Plauen","municipality":{"key":"14523320","name":"Plauen, Stadt","type":"Stadt"},"district":{"key":"14523","name":"Vogtlandkreis","type":"Landkreis"},"federalState":{"key":"14","name":"Sachsen"}},{"name":"Eisenacher Str.","postalCode":"08525","locality":"Plauen","municipality":{"key":"14523320","name":"Plauen, Stadt","type":"Stadt"},"district":{"key":"14523","name":"Vogtlandkreis","type":"Landkreis"},"federalState":{"key":"14","name":"Sachsen"}},{"name":"Elisabethstr.","postalCode":"08527","locality":"Plauen","municipality":{"key":"14523320","name":"Plauen, Stadt","type":"Stadt"},"district":{"key":"14523","name":"Vogtlandkreis","type":"Landkreis"},"federalState":{"key":"14","name":"Sachsen"}},{"name":"Elsterberger Landstr.","postalCode":"08547","locality":"Plauen","municipality":{"key":"14523320","name":"Plauen, Stadt","type":"Stadt"},"district":{"key":"14523","name":"Vogtlandkreis","type":"Landkreis"},"federalState":{"key":"14","name":"Sachsen"}},{"name":"Elsterberger Str.","postalCode":"08525","locality":"Plauen","municipality":{"key":"14523320","name":"Plauen, Stadt","type":"Stadt"},"district":{"key":"14523","name":"Vogtlandkreis","type":"Landkreis"},"federalState":{"key":"14","name":"Sachsen"}},{"name":"Elsterbrücke","postalCode":"08527","locality":"Plauen","municipality":{"key":"14523320","name":"Plauen, Stadt","type":"Stadt"},"district":{"key":"14523","name":"Vogtlandkreis","type":"Landkreis"},"federalState":{"key":"14","name":"Sachsen"}},{"name":"Elsterstr.","postalCode":"08527","locality":"Plauen","municipality":{"key":"14523320","name":"Plauen, Stadt","type":"Stadt"},"district":{"key":"14523","name":"Vogtlandkreis","type":"Landkreis"},"federalState":{"key":"14","name":"Sachsen"}},{"name":"Elstertalblick","postalCode":"08527","locality":"Plauen","municipality":{"key":"14523320","name":"Plauen, Stadt","type":"Stadt"},"district":{"key":"14523","name":"Vogtlandkreis","type":"Landkreis"},"federalState":{"key":"14","name":"Sachsen"}},{"name":"Elsteruferweg","postalCode":"08525","locality":"Plauen","municipality":{"key":"14523320","name":"Plauen, Stadt","type":"Stadt"},"district":{"key":"14523","name":"Vogtlandkreis","type":"Landkreis"},"federalState":{"key":"14","name":"Sachsen"}},{"name":"Elsteruferweg","postalCode":"08529","locality":"Plauen","municipality":{"key":"14523320","name":"Plauen, Stadt","type":"Stadt"},"district":{"key":"14523","name":"Vogtlandkreis","type":"Landkreis"},"federalState":{"key":"14","name":"Sachsen"}},{"name":"Emanuel-Heimann-Str.","postalCode":"08527","locality":"Plauen","municipality":{"key":"14523320","name":"Plauen, Stadt","type":"Stadt"},"district":{"key":"14523","name":"Vogtlandkreis","type":"Landkreis"},"federalState":{"key":"14","name":"Sachsen"}},{"name":"Engelstr.","postalCode":"08523","locality":"Plauen","municipality":{"key":"14523320","name":"Plauen, Stadt","type":"Stadt"},"district":{"key":"14523","name":"Vogtlandkreis","type":"Landkreis"},"federalState":{"key":"14","name":"Sachsen"}},{"name":"Erfurter Str.","postalCode":"08525","locality":"Plauen","municipality":{"key":"14523320","name":"Plauen, Stadt","type":"Stadt"},"district":{"key":"14523","name":"Vogtlandkreis","type":"Landkreis"},"federalState":{"key":"14","name":"Sachsen"}},{"name":"Erich-Kästner-Str.","postalCode":"08525","locality":"Plauen","municipality":{"key":"14523320","name":"Plauen, Stadt","type":"Stadt"},"district":{"key":"14523","name":"Vogtlandkreis","type":"Landkreis"},"federalState":{"key":"14","name":"Sachsen"}},{"name":"Erich-Knauf-Str.","postalCode":"08525","locality":"Plauen","municipality":{"key":"14523320","name":"Plauen, Stadt","type":"Stadt"},"district":{"key":"14523","name":"Vogtlandkreis","type":"Landkreis"},"federalState":{"key":"14","name":"Sachsen"}},{"name":"Erich-Ohser-Str.","postalCode":"08525","locality":"Plauen","municipality":{"key":"14523320","name":"Plauen, Stadt","type":"Stadt"},"district":{"key":"14523","name":"Vogtlandkreis","type":"Landkreis"},"federalState":{"key":"14","name":"Sachsen"}},{"name":"Erlengrund","postalCode":"08527","locality":"Plauen","municipality":{"key":"14523320","name":"Plauen, Stadt","type":"Stadt"},"district":{"key":"14523","name":"Vogtlandkreis","type":"Landkreis"},"federalState":{"key":"14","name":"Sachsen"}},{"name":"Eschenweg","postalCode":"08529","locality":"Plauen","municipality":{"key":"14523320","name":"Plauen, Stadt","type":"Stadt"},"district":{"key":"14523","name":"Vogtlandkreis","type":"Landkreis"},"federalState":{"key":"14","name":"Sachsen"}},{"name":"Eugen-Fritsch-Str.","postalCode":"08523","locality":"Plauen","municipality":{"key":"14523320","name":"Plauen, Stadt","type":"Stadt"},"district":{"key":"14523","name":"Vogtlandkreis","type":"Landkreis"},"federalState":{"key":"14","name":"Sachsen"}},{"name":"Eugenie-Schumann-Weg","postalCode":"08529","locality":"Plauen","municipality":{"key":"14523320","name":"Plauen, Stadt","type":"Stadt"},"district":{"key":"14523","name":"Vogtlandkreis","type":"Landkreis"},"federalState":{"key":"14","name":"Sachsen"}},{"name":"E-Weg","postalCode":"08527","locality":"Plauen","municipality":{"key":"14523320","name":"Plauen, Stadt","type":"Stadt"},"district":{"key":"14523","name":"Vogtlandkreis","type":"Landkreis"},"federalState":{"key":"14","name":"Sachsen"}},{"name":"Fabrikstr.","postalCode":"08527","locality":"Plauen","municipality":{"key":"14523320","name":"Plauen, Stadt","type":"Stadt"},"district":{"key":"14523","name":"Vogtlandkreis","type":"Landkreis"},"federalState":{"key":"14","name":"Sachsen"}},{"name":"Fabrikstr.","postalCode":"08547","locality":"Plauen","municipality":{"key":"14523320","name":"Plauen, Stadt","type":"Stadt"},"district":{"key":"14523","name":"Vogtlandkreis","type":"Landkreis"},"federalState":{"key":"14","name":"Sachsen"}},{"name":"Falkensteiner Landstr.","postalCode":"08529","locality":"Plauen","municipality":{"key":"14523320","name":"Plauen, Stadt","type":"Stadt"},"district":{"key":"14523","name":"Vogtlandkreis","type":"Landkreis"},"federalState":{"key":"14","name":"Sachsen"}},{"name":"Falkensteiner Landstr.","postalCode":"08541","locality":"Plauen","municipality":{"key":"14523320","name":"Plauen, Stadt","type":"Stadt"},"district":{"key":"14523","name":"Vogtlandkreis","type":"Landkreis"},"federalState":{"key":"14","name":"Sachsen"}},{"name":"Falkensteiner Str.","postalCode":"08529","locality":"Plauen","municipality":{"key":"14523320","name":"Plauen, Stadt","type":"Stadt"},"district":{"key":"14523","name":"Vogtlandkreis","type":"Landkreis"},"federalState":{"key":"14","name":"Sachsen"}},{"name":"Färberstr.","postalCode":"08527","locality":"Plauen","municipality":{"key":"14523320","name":"Plauen, Stadt","type":"Stadt"},"district":{"key":"14523","name":"Vogtlandkreis","type":"Landkreis"},"federalState":{"key":"14","name":"Sachsen"}},{"name":"Fasanenring","postalCode":"08525","locality":"Plauen","municipality":{"key":"14523320","name":"Plauen, Stadt","type":"Stadt"},"district":{"key":"14523","name":"Vogtlandkreis","type":"Landkreis"},"federalState":{"key":"14","name":"Sachsen"}},{"name":"Feldberg","postalCode":"08523","locality":"Plauen","municipality":{"key":"14523320","name":"Plauen, Stadt","type":"Stadt"},"district":{"key":"14523","name":"Vogtlandkreis","type":"Landkreis"},"federalState":{"key":"14","name":"Sachsen"}},{"name":"Feldstr.","postalCode":"08523","locality":"Plauen","municipality":{"key":"14523320","name":"Plauen, Stadt","type":"Stadt"},"district":{"key":"14523","name":"Vogtlandkreis","type":"Landkreis"},"federalState":{"key":"14","name":"Sachsen"}},{"name":"Feldstr.","postalCode":"08547","locality":"Plauen","municipality":{"key":"14523320","name":"Plauen, Stadt","type":"Stadt"},"district":{"key":"14523","name":"Vogtlandkreis","type":"Landkreis"},"federalState":{"key":"14","name":"Sachsen"}},{"name":"Felix-Georgi-Weg","postalCode":"99338","locality":"Plaue","municipality":{"key":"16070043","name":"Plaue, Stadt","type":"Stadt"},"district":{"key":"16070","name":"Ilm-Kreis","type":"Landkreis"},"federalState":{"key":"16","name":"Thüringen"}},{"name":"Ferbigweg","postalCode":"08527","locality":"Plauen","municipality":{"key":"14523320","name":"Plauen, Stadt","type":"Stadt"},"district":{"key":"14523","name":"Vogtlandkreis","type":"Landkreis"},"federalState":{"key":"14","name":"Sachsen"}},{"name":"Ferdinand-Schill-Str.","postalCode":"08523","locality":"Plauen","municipality":{"key":"14523320","name":"Plauen, Stadt","type":"Stadt"},"district":{"key":"14523","name":"Vogtlandkreis","type":"Landkreis"},"federalState":{"key":"14","name":"Sachsen"}},{"name":"Fichtestr.","postalCode":"08527","locality":"Plauen","municipality":{"key":"14523320","name":"Plauen, Stadt","type":"Stadt"},"district":{"key":"14523","name":"Vogtlandkreis","type":"Landkreis"},"federalState":{"key":"14","name":"Sachsen"}},{"name":"Fickertsberg","postalCode":"08527","locality":"Plauen","municipality":{"key":"14523320","name":"Plauen, Stadt","type":"Stadt"},"district":{"key":"14523","name":"Vogtlandkreis","type":"Landkreis"},"federalState":{"key":"14","name":"Sachsen"}},{"name":"Fiedlerstr.","postalCode":"08527","locality":"Plauen","municipality":{"key":"14523320","name":"Plauen, Stadt","type":"Stadt"},"district":{"key":"14523","name":"Vogtlandkreis","type":"Landkreis"},"federalState":{"key":"14","name":"Sachsen"}},{"name":"Findeisenstr.","postalCode":"08527","locality":"Plauen","municipality":{"key":"14523320","name":"Plauen, Stadt","type":"Stadt"},"district":{"key":"14523","name":"Vogtlandkreis","type":"Landkreis"},"federalState":{"key":"14","name":"Sachsen"}},{"name":"Fliederweg","postalCode":"08529","locality":"Plauen","municipality":{"key":"14523320","name":"Plauen, Stadt","type":"Stadt"},"district":{"key":"14523","name":"Vogtlandkreis","type":"Landkreis"},"federalState":{"key":"14","name":"Sachsen"}},{"name":"Försterweg","postalCode":"08527","locality":"Plauen","municipality":{"key":"14523320","name":"Plauen, Stadt","type":"Stadt"},"district":{"key":"14523","name":"Vogtlandkreis","type":"Landkreis"},"federalState":{"key":"14","name":"Sachsen"}},{"name":"Forststr.","postalCode":"08523","locality":"Plauen","municipality":{"key":"14523320","name":"Plauen, Stadt","type":"Stadt"},"district":{"key":"14523","name":"Vogtlandkreis","type":"Landkreis"},"federalState":{"key":"14","name":"Sachsen"}},{"name":"Forststr.","postalCode":"08525","locality":"Plauen","municipality":{"key":"14523320","name":"Plauen, Stadt","type":"Stadt"},"district":{"key":"14523","name":"Vogtlandkreis","type":"Landkreis"},"federalState":{"key":"14","name":"Sachsen"}},{"name":"Forststr.","postalCode":"08547","locality":"Plauen","municipality":{"key":"14523320","name":"Plauen, Stadt","type":"Stadt"},"district":{"key":"14523","name":"Vogtlandkreis","type":"Landkreis"},"federalState":{"key":"14","name":"Sachsen"}},{"name":"Frankentalbrücke","postalCode":"99338","locality":"Plaue","municipality":{"key":"16070043","name":"Plaue, Stadt","type":"Stadt"},"district":{"key":"16070","name":"Ilm-Kreis","type":"Landkreis"},"federalState":{"key":"16","name":"Thüringen"}},{"name":"Franz-Liszt-Str.","postalCode":"08525","locality":"Plauen","municipality":{"key":"14523320","name":"Plauen, Stadt","type":"Stadt"},"district":{"key":"14523","name":"Vogtlandkreis","type":"Landkreis"},"federalState":{"key":"14","name":"Sachsen"}},{"name":"Freiheitsstr.","postalCode":"08523","locality":"Plauen","municipality":{"key":"14523320","name":"Plauen, Stadt","type":"Stadt"},"district":{"key":"14523","name":"Vogtlandkreis","type":"Landkreis"},"federalState":{"key":"14","name":"Sachsen"}},{"name":"Friedensbrücke","postalCode":"08523","locality":"Plauen","municipality":{"key":"14523320","name":"Plauen, Stadt","type":"Stadt"},"district":{"key":"14523","name":"Vogtlandkreis","type":"Landkreis"},"federalState":{"key":"14","name":"Sachsen"}},{"name":"Friedensstr.","postalCode":"08523","locality":"Plauen","municipality":{"key":"14523320","name":"Plauen, Stadt","type":"Stadt"},"district":{"key":"14523","name":"Vogtlandkreis","type":"Landkreis"},"federalState":{"key":"14","name":"Sachsen"}},{"name":"Friedensstr.","postalCode":"08525","locality":"Plauen","municipality":{"key":"14523320","name":"Plauen, Stadt","type":"Stadt"},"district":{"key":"14523","name":"Vogtlandkreis","type":"Landkreis"},"federalState":{"key":"14","name":"Sachsen"}},{"name":"Friedensstr.","postalCode":"08547","locality":"Plauen","municipality":{"key":"14523320","name":"Plauen, Stadt","type":"Stadt"},"district":{"key":"14523","name":"Vogtlandkreis","type":"Landkreis"},"federalState":{"key":"14","name":"Sachsen"}},{"name":"Friedrich-August-Stein","postalCode":"08547","locality":"Plauen","municipality":{"key":"14523320","name":"Plauen, Stadt","type":"Stadt"},"district":{"key":"14523","name":"Vogtlandkreis","type":"Landkreis"},"federalState":{"key":"14","name":"Sachsen"}},{"name":"Friedrich-Boysen-Str.","postalCode":"08527","locality":"Plauen","municipality":{"key":"14523320","name":"Plauen, Stadt","type":"Stadt"},"district":{"key":"14523","name":"Vogtlandkreis","type":"Landkreis"},"federalState":{"key":"14","name":"Sachsen"}},{"name":"Friedrich-Eckardt-Str.","postalCode":"08529","locality":"Plauen","municipality":{"key":"14523320","name":"Plauen, Stadt","type":"Stadt"},"district":{"key":"14523","name":"Vogtlandkreis","type":"Landkreis"},"federalState":{"key":"14","name":"Sachsen"}},{"name":"Friedrich-Engels-Str.","postalCode":"08523","locality":"Plauen","municipality":{"key":"14523320","name":"Plauen, Stadt","type":"Stadt"},"district":{"key":"14523","name":"Vogtlandkreis","type":"Landkreis"},"federalState":{"key":"14","name":"Sachsen"}},{"name":"Friedrich-Krause-Weg","postalCode":"08527","locality":"Plauen","municipality":{"key":"14523320","name":"Plauen, Stadt","type":"Stadt"},"district":{"key":"14523","name":"Vogtlandkreis","type":"Landkreis"},"federalState":{"key":"14","name":"Sachsen"}},{"name":"Friedrich-Schiller-Str.","postalCode":"08547","locality":"Plauen","municipality":{"key":"14523320","name":"Plauen, Stadt","type":"Stadt"},"district":{"key":"14523","name":"Vogtlandkreis","type":"Landkreis"},"federalState":{"key":"14","name":"Sachsen"}},{"name":"Friedrichstr.","postalCode":"08523","locality":"Plauen","municipality":{"key":"14523320","name":"Plauen, Stadt","type":"Stadt"},"district":{"key":"14523","name":"Vogtlandkreis","type":"Landkreis"},"federalState":{"key":"14","name":"Sachsen"}},{"name":"Friesenweg","postalCode":"08529","locality":"Plauen","municipality":{"key":"14523320","name":"Plauen, Stadt","type":"Stadt"},"district":{"key":"14523","name":"Vogtlandkreis","type":"Landkreis"},"federalState":{"key":"14","name":"Sachsen"}},{"name":"Fritz-Ehrler-Str.","postalCode":"08547","locality":"Plauen","municipality":{"key":"14523320","name":"Plauen, Stadt","type":"Stadt"},"district":{"key":"14523","name":"Vogtlandkreis","type":"Landkreis"},"federalState":{"key":"14","name":"Sachsen"}},{"name":"Fritz-Reuter-Str.","postalCode":"08525","locality":"Plauen","municipality":{"key":"14523320","name":"Plauen, Stadt","type":"Stadt"},"district":{"key":"14523","name":"Vogtlandkreis","type":"Landkreis"},"federalState":{"key":"14","name":"Sachsen"}},{"name":"Fuchspfad","postalCode":"08525","locality":"Plauen","municipality":{"key":"14523320","name":"Plauen, Stadt","type":"Stadt"},"district":{"key":"14523","name":"Vogtlandkreis","type":"Landkreis"},"federalState":{"key":"14","name":"Sachsen"}},{"name":"Furtweg","postalCode":"08527","locality":"Plauen","municipality":{"key":"14523320","name":"Plauen, Stadt","type":"Stadt"},"district":{"key":"14523","name":"Vogtlandkreis","type":"Landkreis"},"federalState":{"key":"14","name":"Sachsen"}},{"name":"F-Weg","postalCode":"08527","locality":"Plauen","municipality":{"key":"14523320","name":"Plauen, Stadt","type":"Stadt"},"district":{"key":"14523","name":"Vogtlandkreis","type":"Landkreis"},"federalState":{"key":"14","name":"Sachsen"}},{"name":"Gabelsbergerstr.","postalCode":"08523","locality":"Plauen","municipality":{"key":"14523320","name":"Plauen, Stadt","type":"Stadt"},"district":{"key":"14523","name":"Vogtlandkreis","type":"Landkreis"},"federalState":{"key":"14","name":"Sachsen"}},{"name":"Gartenstr.","postalCode":"08523","locality":"Plauen","municipality":{"key":"14523320","name":"Plauen, Stadt","type":"Stadt"},"district":{"key":"14523","name":"Vogtlandkreis","type":"Landkreis"},"federalState":{"key":"14","name":"Sachsen"}},{"name":"Gartenstr.","postalCode":"08547","locality":"Plauen","municipality":{"key":"14523320","name":"Plauen, Stadt","type":"Stadt"},"district":{"key":"14523","name":"Vogtlandkreis","type":"Landkreis"},"federalState":{"key":"14","name":"Sachsen"}},{"name":"Gartenstr.","postalCode":"99338","locality":"Plaue","municipality":{"key":"16070043","name":"Plaue, Stadt","type":"Stadt"},"district":{"key":"16070","name":"Ilm-Kreis","type":"Landkreis"},"federalState":{"key":"16","name":"Thüringen"}},{"name":"Gartenweg","postalCode":"08541","locality":"Plauen","municipality":{"key":"14523320","name":"Plauen, Stadt","type":"Stadt"},"district":{"key":"14523","name":"Vogtlandkreis","type":"Landkreis"},"federalState":{"key":"14","name":"Sachsen"}},{"name":"Gebrüder-Lay-Str.","postalCode":"08527","locality":"Plauen","municipality":{"key":"14523320","name":"Plauen, Stadt","type":"Stadt"},"district":{"key":"14523","name":"Vogtlandkreis","type":"Landkreis"},"federalState":{"key":"14","name":"Sachsen"}},{"name":"Geibelstr.","postalCode":"08525","locality":"Plauen","municipality":{"key":"14523320","name":"Plauen, Stadt","type":"Stadt"},"district":{"key":"14523","name":"Vogtlandkreis","type":"Landkreis"},"federalState":{"key":"14","name":"Sachsen"}},{"name":"Gellertstr.","postalCode":"08547","locality":"Plauen","municipality":{"key":"14523320","name":"Plauen, Stadt","type":"Stadt"},"district":{"key":"14523","name":"Vogtlandkreis","type":"Landkreis"},"federalState":{"key":"14","name":"Sachsen"}},{"name":"Georg-Benjamin-Str.","postalCode":"08529","locality":"Plauen","municipality":{"key":"14523320","name":"Plauen, Stadt","type":"Stadt"},"district":{"key":"14523","name":"Vogtlandkreis","type":"Landkreis"},"federalState":{"key":"14","name":"Sachsen"}},{"name":"Gera-Ufer","postalCode":"99338","locality":"Plaue","municipality":{"key":"16070043","name":"Plaue, Stadt","type":"Stadt"},"district":{"key":"16070","name":"Ilm-Kreis","type":"Landkreis"},"federalState":{"key":"16","name":"Thüringen"}},{"name":"Gerberplatz","postalCode":"08523","locality":"Plauen","municipality":{"key":"14523320","name":"Plauen, Stadt","type":"Stadt"},"district":{"key":"14523","name":"Vogtlandkreis","type":"Landkreis"},"federalState":{"key":"14","name":"Sachsen"}},{"name":"Gerberstr.","postalCode":"08527","locality":"Plauen","municipality":{"key":"14523320","name":"Plauen, Stadt","type":"Stadt"},"district":{"key":"14523","name":"Vogtlandkreis","type":"Landkreis"},"federalState":{"key":"14","name":"Sachsen"}},{"name":"Gerhart-Hauptmann-Str.","postalCode":"08547","locality":"Plauen","municipality":{"key":"14523320","name":"Plauen, Stadt","type":"Stadt"},"district":{"key":"14523","name":"Vogtlandkreis","type":"Landkreis"},"federalState":{"key":"14","name":"Sachsen"}},{"name":"Geschwister-Scholl-Str.","postalCode":"08525","locality":"Plauen","municipality":{"key":"14523320","name":"Plauen, Stadt","type":"Stadt"},"district":{"key":"14523","name":"Vogtlandkreis","type":"Landkreis"},"federalState":{"key":"14","name":"Sachsen"}},{"name":"Ginsterweg","postalCode":"08529","locality":"Plauen","municipality":{"key":"14523320","name":"Plauen, Stadt","type":"Stadt"},"district":{"key":"14523","name":"Vogtlandkreis","type":"Landkreis"},"federalState":{"key":"14","name":"Sachsen"}},{"name":"Glückauf","postalCode":"08523","locality":"Plauen","municipality":{"key":"14523320","name":"Plauen, Stadt","type":"Stadt"},"district":{"key":"14523","name":"Vogtlandkreis","type":"Landkreis"},"federalState":{"key":"14","name":"Sachsen"}},{"name":"Gluckstr.","postalCode":"08525","locality":"Plauen","municipality":{"key":"14523320","name":"Plauen, Stadt","type":"Stadt"},"district":{"key":"14523","name":"Vogtlandkreis","type":"Landkreis"},"federalState":{"key":"14","name":"Sachsen"}},{"name":"Gluckstr.","postalCode":"08547","locality":"Plauen","municipality":{"key":"14523320","name":"Plauen, Stadt","type":"Stadt"},"district":{"key":"14523","name":"Vogtlandkreis","type":"Landkreis"},"federalState":{"key":"14","name":"Sachsen"}},{"name":"Gneisenaustr.","postalCode":"08523","locality":"Plauen","municipality":{"key":"14523320","name":"Plauen, Stadt","type":"Stadt"},"district":{"key":"14523","name":"Vogtlandkreis","type":"Landkreis"},"federalState":{"key":"14","name":"Sachsen"}},{"name":"Goetheplatz","postalCode":"08525","locality":"Plauen","municipality":{"key":"14523320","name":"Plauen, Stadt","type":"Stadt"},"district":{"key":"14523","name":"Vogtlandkreis","type":"Landkreis"},"federalState":{"key":"14","name":"Sachsen"}},{"name":"Goethestr.","postalCode":"08525","locality":"Plauen","municipality":{"key":"14523320","name":"Plauen, Stadt","type":"Stadt"},"district":{"key":"14523","name":"Vogtlandkreis","type":"Landkreis"},"federalState":{"key":"14","name":"Sachsen"}},{"name":"Goethestr.","postalCode":"08547","locality":"Plauen","municipality":{"key":"14523320","name":"Plauen, Stadt","type":"Stadt"},"district":{"key":"14523","name":"Vogtlandkreis","type":"Landkreis"},"federalState":{"key":"14","name":"Sachsen"}},{"name":"Gosseler Weg","postalCode":"99338","locality":"Plaue","municipality":{"key":"16070043","name":"Plaue, Stadt","type":"Stadt"},"district":{"key":"16070","name":"Ilm-Kreis","type":"Landkreis"},"federalState":{"key":"16","name":"Thüringen"}},{"name":"Gottschaldstr.","postalCode":"08523","locality":"Plauen","municipality":{"key":"14523320","name":"Plauen, Stadt","type":"Stadt"},"district":{"key":"14523","name":"Vogtlandkreis","type":"Landkreis"},"federalState":{"key":"14","name":"Sachsen"}},{"name":"Große Feldstr.","postalCode":"99338","locality":"Plaue","municipality":{"key":"16070043","name":"Plaue, Stadt","type":"Stadt"},"district":{"key":"16070","name":"Ilm-Kreis","type":"Landkreis"},"federalState":{"key":"16","name":"Thüringen"}},{"name":"Grundweg","postalCode":"08541","locality":"Plauen","municipality":{"key":"14523320","name":"Plauen, Stadt","type":"Stadt"},"district":{"key":"14523","name":"Vogtlandkreis","type":"Landkreis"},"federalState":{"key":"14","name":"Sachsen"}},{"name":"Grüne Gasse","postalCode":"08547","locality":"Plauen","municipality":{"key":"14523320","name":"Plauen, Stadt","type":"Stadt"},"district":{"key":"14523","name":"Vogtlandkreis","type":"Landkreis"},"federalState":{"key":"14","name":"Sachsen"}},{"name":"Grüner Weg","postalCode":"08529","locality":"Plauen","municipality":{"key":"14523320","name":"Plauen, Stadt","type":"Stadt"},"district":{"key":"14523","name":"Vogtlandkreis","type":"Landkreis"},"federalState":{"key":"14","name":"Sachsen"}},{"name":"Grünewaldstr.","postalCode":"08527","locality":"Plauen","municipality":{"key":"14523320","name":"Plauen, Stadt","type":"Stadt"},"district":{"key":"14523","name":"Vogtlandkreis","type":"Landkreis"},"federalState":{"key":"14","name":"Sachsen"}},{"name":"Gunoldstr.","postalCode":"08525","locality":"Plauen","municipality":{"key":"14523320","name":"Plauen, Stadt","type":"Stadt"},"district":{"key":"14523","name":"Vogtlandkreis","type":"Landkreis"},"federalState":{"key":"14","name":"Sachsen"}},{"name":"Gustav-Adolf-Str.","postalCode":"08523","locality":"Plauen","municipality":{"key":"14523320","name":"Plauen, Stadt","type":"Stadt"},"district":{"key":"14523","name":"Vogtlandkreis","type":"Landkreis"},"federalState":{"key":"14","name":"Sachsen"}},{"name":"Gustav-Freytag-Str.","postalCode":"08525","locality":"Plauen","municipality":{"key":"14523320","name":"Plauen, Stadt","type":"Stadt"},"district":{"key":"14523","name":"Vogtlandkreis","type":"Landkreis"},"federalState":{"key":"14","name":"Sachsen"}},{"name":"Gustav-Schmidt-Weg","postalCode":"08527","locality":"Plauen","municipality":{"key":"14523320","name":"Plauen, Stadt","type":"Stadt"},"district":{"key":"14523","name":"Vogtlandkreis","type":"Landkreis"},"federalState":{"key":"14","name":"Sachsen"}},{"name":"Gutenbergstr.","postalCode":"08523","locality":"Plauen","municipality":{"key":"14523320","name":"Plauen, Stadt","type":"Stadt"},"district":{"key":"14523","name":"Vogtlandkreis","type":"Landkreis"},"federalState":{"key":"14","name":"Sachsen"}},{"name":"Güterstr.","postalCode":"08527","locality":"Plauen","municipality":{"key":"14523320","name":"Plauen, Stadt","type":"Stadt"},"district":{"key":"14523","name":"Vogtlandkreis","type":"Landkreis"},"federalState":{"key":"14","name":"Sachsen"}},{"name":"Gut Reusa","postalCode":"08529","locality":"Plauen","municipality":{"key":"14523320","name":"Plauen, Stadt","type":"Stadt"},"district":{"key":"14523","name":"Vogtlandkreis","type":"Landkreis"},"federalState":{"key":"14","name":"Sachsen"}},{"name":"Hainstr.","postalCode":"08523","locality":"Plauen","municipality":{"key":"14523320","name":"Plauen, Stadt","type":"Stadt"},"district":{"key":"14523","name":"Vogtlandkreis","type":"Landkreis"},"federalState":{"key":"14","name":"Sachsen"}},{"name":"Hammerplatz","postalCode":"08529","locality":"Plauen","municipality":{"key":"14523320","name":"Plauen, Stadt","type":"Stadt"},"district":{"key":"14523","name":"Vogtlandkreis","type":"Landkreis"},"federalState":{"key":"14","name":"Sachsen"}},{"name":"Hammerstr.","postalCode":"08523","locality":"Plauen","municipality":{"key":"14523320","name":"Plauen, Stadt","type":"Stadt"},"district":{"key":"14523","name":"Vogtlandkreis","type":"Landkreis"},"federalState":{"key":"14","name":"Sachsen"}},{"name":"Hammerstr.","postalCode":"08525","locality":"Plauen","municipality":{"key":"14523320","name":"Plauen, Stadt","type":"Stadt"},"district":{"key":"14523","name":"Vogtlandkreis","type":"Landkreis"},"federalState":{"key":"14","name":"Sachsen"}},{"name":"Hammerstr.","postalCode":"08527","locality":"Plauen","municipality":{"key":"14523320","name":"Plauen, Stadt","type":"Stadt"},"district":{"key":"14523","name":"Vogtlandkreis","type":"Landkreis"},"federalState":{"key":"14","name":"Sachsen"}},{"name":"Hammerstr.","postalCode":"08529","locality":"Plauen","municipality":{"key":"14523320","name":"Plauen, Stadt","type":"Stadt"},"district":{"key":"14523","name":"Vogtlandkreis","type":"Landkreis"},"federalState":{"key":"14","name":"Sachsen"}},{"name":"Händelstr.","postalCode":"08525","locality":"Plauen","municipality":{"key":"14523320","name":"Plauen, Stadt","type":"Stadt"},"district":{"key":"14523","name":"Vogtlandkreis","type":"Landkreis"},"federalState":{"key":"14","name":"Sachsen"}},{"name":"Hans-Löwel-Platz","postalCode":"08523","locality":"Plauen","municipality":{"key":"14523320","name":"Plauen, Stadt","type":"Stadt"},"district":{"key":"14523","name":"Vogtlandkreis","type":"Landkreis"},"federalState":{"key":"14","name":"Sachsen"}},{"name":"Hans-Sachs-Str.","postalCode":"08525","locality":"Plauen","municipality":{"key":"14523320","name":"Plauen, Stadt","type":"Stadt"},"district":{"key":"14523","name":"Vogtlandkreis","type":"Landkreis"},"federalState":{"key":"14","name":"Sachsen"}},{"name":"Hartmannstr.","postalCode":"08523","locality":"Plauen","municipality":{"key":"14523320","name":"Plauen, Stadt","type":"Stadt"},"district":{"key":"14523","name":"Vogtlandkreis","type":"Landkreis"},"federalState":{"key":"14","name":"Sachsen"}},{"name":"Haselbrunner Str.","postalCode":"08525","locality":"Plauen","municipality":{"key":"14523320","name":"Plauen, Stadt","type":"Stadt"},"district":{"key":"14523","name":"Vogtlandkreis","type":"Landkreis"},"federalState":{"key":"14","name":"Sachsen"}},{"name":"Hauffstr.","postalCode":"08525","locality":"Plauen","municipality":{"key":"14523320","name":"Plauen, Stadt","type":"Stadt"},"district":{"key":"14523","name":"Vogtlandkreis","type":"Landkreis"},"federalState":{"key":"14","name":"Sachsen"}},{"name":"Hauptstr.","postalCode":"08527","locality":"Plauen","municipality":{"key":"14523320","name":"Plauen, Stadt","type":"Stadt"},"district":{"key":"14523","name":"Vogtlandkreis","type":"Landkreis"},"federalState":{"key":"14","name":"Sachsen"}},{"name":"Hauptstr.","postalCode":"08547","locality":"Plauen","municipality":{"key":"14523320","name":"Plauen, Stadt","type":"Stadt"},"district":{"key":"14523","name":"Vogtlandkreis","type":"Landkreis"},"federalState":{"key":"14","name":"Sachsen"}},{"name":"Hauptstr.","postalCode":"99338","locality":"Plaue","municipality":{"key":"16070043","name":"Plaue, Stadt","type":"Stadt"},"district":{"key":"16070","name":"Ilm-Kreis","type":"Landkreis"},"federalState":{"key":"16","name":"Thüringen"}},{"name":"Haußnerstr.","postalCode":"08523","locality":"Plauen","municipality":{"key":"14523320","name":"Plauen, Stadt","type":"Stadt"},"district":{"key":"14523","name":"Vogtlandkreis","type":"Landkreis"},"federalState":{"key":"14","name":"Sachsen"}},{"name":"Haydnstr.","postalCode":"08525","locality":"Plauen","municipality":{"key":"14523320","name":"Plauen, Stadt","type":"Stadt"},"district":{"key":"14523","name":"Vogtlandkreis","type":"Landkreis"},"federalState":{"key":"14","name":"Sachsen"}},{"name":"Hebammensteig","postalCode":"08547","locality":"Plauen","municipality":{"key":"14523320","name":"Plauen, Stadt","type":"Stadt"},"district":{"key":"14523","name":"Vogtlandkreis","type":"Landkreis"},"federalState":{"key":"14","name":"Sachsen"}},{"name":"Heckenrosenweg","postalCode":"08529","locality":"Plauen","municipality":{"key":"14523320","name":"Plauen, Stadt","type":"Stadt"},"district":{"key":"14523","name":"Vogtlandkreis","type":"Landkreis"},"federalState":{"key":"14","name":"Sachsen"}},{"name":"Hegelstr.","postalCode":"08527","locality":"Plauen","municipality":{"key":"14523320","name":"Plauen, Stadt","type":"Stadt"},"district":{"key":"14523","name":"Vogtlandkreis","type":"Landkreis"},"federalState":{"key":"14","name":"Sachsen"}},{"name":"Heineplatz","postalCode":"08523","locality":"Plauen","municipality":{"key":"14523320","name":"Plauen, Stadt","type":"Stadt"},"district":{"key":"14523","name":"Vogtlandkreis","type":"Landkreis"},"federalState":{"key":"14","name":"Sachsen"}},{"name":"Heinrich-Heine-Str.","postalCode":"08547","locality":"Plauen","municipality":{"key":"14523320","name":"Plauen, Stadt","type":"Stadt"},"district":{"key":"14523","name":"Vogtlandkreis","type":"Landkreis"},"federalState":{"key":"14","name":"Sachsen"}},{"name":"Heinrichstr.","postalCode":"08523","locality":"Plauen","municipality":{"key":"14523320","name":"Plauen, Stadt","type":"Stadt"},"district":{"key":"14523","name":"Vogtlandkreis","type":"Landkreis"},"federalState":{"key":"14","name":"Sachsen"}},{"name":"Heiterer Blick","postalCode":"08541","locality":"Plauen","municipality":{"key":"14523320","name":"Plauen, Stadt","type":"Stadt"},"district":{"key":"14523","name":"Vogtlandkreis","type":"Landkreis"},"federalState":{"key":"14","name":"Sachsen"}},{"name":"Heiterer Blick","postalCode":"08547","locality":"Plauen","municipality":{"key":"14523320","name":"Plauen, Stadt","type":"Stadt"},"district":{"key":"14523","name":"Vogtlandkreis","type":"Landkreis"},"federalState":{"key":"14","name":"Sachsen"}},{"name":"Herbartstr.","postalCode":"08527","locality":"Plauen","municipality":{"key":"14523320","name":"Plauen, Stadt","type":"Stadt"},"district":{"key":"14523","name":"Vogtlandkreis","type":"Landkreis"},"federalState":{"key":"14","name":"Sachsen"}},{"name":"Herderstr.","postalCode":"08525","locality":"Plauen","municipality":{"key":"14523320","name":"Plauen, Stadt","type":"Stadt"},"district":{"key":"14523","name":"Vogtlandkreis","type":"Landkreis"},"federalState":{"key":"14","name":"Sachsen"}},{"name":"Hermann-Dietrich-Str.","postalCode":"08523","locality":"Plauen","municipality":{"key":"14523320","name":"Plauen, Stadt","type":"Stadt"},"district":{"key":"14523","name":"Vogtlandkreis","type":"Landkreis"},"federalState":{"key":"14","name":"Sachsen"}},{"name":"Hermann-Vogel-Str.","postalCode":"08525","locality":"Plauen","municipality":{"key":"14523320","name":"Plauen, Stadt","type":"Stadt"},"district":{"key":"14523","name":"Vogtlandkreis","type":"Landkreis"},"federalState":{"key":"14","name":"Sachsen"}},{"name":"Hermann-Vogel-Str.","postalCode":"08547","locality":"Plauen","municipality":{"key":"14523320","name":"Plauen, Stadt","type":"Stadt"},"district":{"key":"14523","name":"Vogtlandkreis","type":"Landkreis"},"federalState":{"key":"14","name":"Sachsen"}},{"name":"Herrenstr.","postalCode":"08523","locality":"Plauen","municipality":{"key":"14523320","name":"Plauen, Stadt","type":"Stadt"},"district":{"key":"14523","name":"Vogtlandkreis","type":"Landkreis"},"federalState":{"key":"14","name":"Sachsen"}},{"name":"Heubnerstr.","postalCode":"08523","locality":"Plauen","municipality":{"key":"14523320","name":"Plauen, Stadt","type":"Stadt"},"district":{"key":"14523","name":"Vogtlandkreis","type":"Landkreis"},"federalState":{"key":"14","name":"Sachsen"}},{"name":"Heugasse","postalCode":"08525","locality":"Plauen","municipality":{"key":"14523320","name":"Plauen, Stadt","type":"Stadt"},"district":{"key":"14523","name":"Vogtlandkreis","type":"Landkreis"},"federalState":{"key":"14","name":"Sachsen"}},{"name":"Heydaer Str.","postalCode":"99338","locality":"Plaue","municipality":{"key":"16070043","name":"Plaue, Stadt","type":"Stadt"},"district":{"key":"16070","name":"Ilm-Kreis","type":"Landkreis"},"federalState":{"key":"16","name":"Thüringen"}},{"name":"Heynigstr.","postalCode":"08527","locality":"Plauen","municipality":{"key":"14523320","name":"Plauen, Stadt","type":"Stadt"},"district":{"key":"14523","name":"Vogtlandkreis","type":"Landkreis"},"federalState":{"key":"14","name":"Sachsen"}},{"name":"Hinter der Mauer","postalCode":"99338","locality":"Plaue","municipality":{"key":"16070043","name":"Plaue, Stadt","type":"Stadt"},"district":{"key":"16070","name":"Ilm-Kreis","type":"Landkreis"},"federalState":{"key":"16","name":"Thüringen"}},{"name":"Hintere Gellertstr.","postalCode":"08525","locality":"Plauen","municipality":{"key":"14523320","name":"Plauen, Stadt","type":"Stadt"},"district":{"key":"14523","name":"Vogtlandkreis","type":"Landkreis"},"federalState":{"key":"14","name":"Sachsen"}},{"name":"Hirtenweg","postalCode":"08529","locality":"Plauen","municipality":{"key":"14523320","name":"Plauen, Stadt","type":"Stadt"},"district":{"key":"14523","name":"Vogtlandkreis","type":"Landkreis"},"federalState":{"key":"14","name":"Sachsen"}},{"name":"Hochzeitsweg","postalCode":"08547","locality":"Plauen","municipality":{"key":"14523320","name":"Plauen, Stadt","type":"Stadt"},"district":{"key":"14523","name":"Vogtlandkreis","type":"Landkreis"},"federalState":{"key":"14","name":"Sachsen"}},{"name":"Höcknerplatz","postalCode":"08527","locality":"Plauen","municipality":{"key":"14523320","name":"Plauen, Stadt","type":"Stadt"},"district":{"key":"14523","name":"Vogtlandkreis","type":"Landkreis"},"federalState":{"key":"14","name":"Sachsen"}},{"name":"Hofer Landstr.","postalCode":"08527","locality":"Plauen","municipality":{"key":"14523320","name":"Plauen, Stadt","type":"Stadt"},"district":{"key":"14523","name":"Vogtlandkreis","type":"Landkreis"},"federalState":{"key":"14","name":"Sachsen"}},{"name":"Hofer Str.","postalCode":"08527","locality":"Plauen","municipality":{"key":"14523320","name":"Plauen, Stadt","type":"Stadt"},"district":{"key":"14523","name":"Vogtlandkreis","type":"Landkreis"},"federalState":{"key":"14","name":"Sachsen"}},{"name":"Hofwiesenstr.","postalCode":"08527","locality":"Plauen","municipality":{"key":"14523320","name":"Plauen, Stadt","type":"Stadt"},"district":{"key":"14523","name":"Vogtlandkreis","type":"Landkreis"},"federalState":{"key":"14","name":"Sachsen"}},{"name":"Hoher Weg","postalCode":"08547","locality":"Plauen","municipality":{"key":"14523320","name":"Plauen, Stadt","type":"Stadt"},"district":{"key":"14523","name":"Vogtlandkreis","type":"Landkreis"},"federalState":{"key":"14","name":"Sachsen"}},{"name":"Hohe Str.","postalCode":"08523","locality":"Plauen","municipality":{"key":"14523320","name":"Plauen, Stadt","type":"Stadt"},"district":{"key":"14523","name":"Vogtlandkreis","type":"Landkreis"},"federalState":{"key":"14","name":"Sachsen"}},{"name":"Hohe Str.","postalCode":"08525","locality":"Plauen","municipality":{"key":"14523320","name":"Plauen, Stadt","type":"Stadt"},"district":{"key":"14523","name":"Vogtlandkreis","type":"Landkreis"},"federalState":{"key":"14","name":"Sachsen"}},{"name":"Hohle Gasse","postalCode":"08547","locality":"Plauen","municipality":{"key":"14523320","name":"Plauen, Stadt","type":"Stadt"},"district":{"key":"14523","name":"Vogtlandkreis","type":"Landkreis"},"federalState":{"key":"14","name":"Sachsen"}},{"name":"Holbeinstr.","postalCode":"08527","locality":"Plauen","municipality":{"key":"14523320","name":"Plauen, Stadt","type":"Stadt"},"district":{"key":"14523","name":"Vogtlandkreis","type":"Landkreis"},"federalState":{"key":"14","name":"Sachsen"}},{"name":"Hölderlinstr.","postalCode":"08525","locality":"Plauen","municipality":{"key":"14523320","name":"Plauen, Stadt","type":"Stadt"},"district":{"key":"14523","name":"Vogtlandkreis","type":"Landkreis"},"federalState":{"key":"14","name":"Sachsen"}},{"name":"Holunderweg","postalCode":"08529","locality":"Plauen","municipality":{"key":"14523320","name":"Plauen, Stadt","type":"Stadt"},"district":{"key":"14523","name":"Vogtlandkreis","type":"Landkreis"},"federalState":{"key":"14","name":"Sachsen"}},{"name":"Ilmenauer Str.","postalCode":"99338","locality":"Plaue","municipality":{"key":"16070043","name":"Plaue, Stadt","type":"Stadt"},"district":{"key":"16070","name":"Ilm-Kreis","type":"Landkreis"},"federalState":{"key":"16","name":"Thüringen"}},{"name":"Im kleinen Felde","postalCode":"99338","locality":"Plaue","municipality":{"key":"16070043","name":"Plaue, Stadt","type":"Stadt"},"district":{"key":"16070","name":"Ilm-Kreis","type":"Landkreis"},"federalState":{"key":"16","name":"Thüringen"}},{"name":"Im See","postalCode":"08523","locality":"Plauen","municipality":{"key":"14523320","name":"Plauen, Stadt","type":"Stadt"},"district":{"key":"14523","name":"Vogtlandkreis","type":"Landkreis"},"federalState":{"key":"14","name":"Sachsen"}},{"name":"Im Tränkegarten","postalCode":"99338","locality":"Plaue","municipality":{"key":"16070043","name":"Plaue, Stadt","type":"Stadt"},"district":{"key":"16070","name":"Ilm-Kreis","type":"Landkreis"},"federalState":{"key":"16","name":"Thüringen"}},{"name":"In der Aue","postalCode":"99338","locality":"Plaue","municipality":{"key":"16070043","name":"Plaue, Stadt","type":"Stadt"},"district":{"key":"16070","name":"Ilm-Kreis","type":"Landkreis"},"federalState":{"key":"16","name":"Thüringen"}},{"name":"Isidor-Goldberg-Str.","postalCode":"08527","locality":"Plauen","municipality":{"key":"14523320","name":"Plauen, Stadt","type":"Stadt"},"district":{"key":"14523","name":"Vogtlandkreis","type":"Landkreis"},"federalState":{"key":"14","name":"Sachsen"}},{"name":"Jägerstr.","postalCode":"08523","locality":"Plauen","municipality":{"key":"14523320","name":"Plauen, Stadt","type":"Stadt"},"district":{"key":"14523","name":"Vogtlandkreis","type":"Landkreis"},"federalState":{"key":"14","name":"Sachsen"}},{"name":"Jägerstr.","postalCode":"08525","locality":"Plauen","municipality":{"key":"14523320","name":"Plauen, Stadt","type":"Stadt"},"district":{"key":"14523","name":"Vogtlandkreis","type":"Landkreis"},"federalState":{"key":"14","name":"Sachsen"}},{"name":"Jahnstr.","postalCode":"08523","locality":"Plauen","municipality":{"key":"14523320","name":"Plauen, Stadt","type":"Stadt"},"district":{"key":"14523","name":"Vogtlandkreis","type":"Landkreis"},"federalState":{"key":"14","name":"Sachsen"}},{"name":"Jasminweg","postalCode":"08529","locality":"Plauen","municipality":{"key":"14523320","name":"Plauen, Stadt","type":"Stadt"},"district":{"key":"14523","name":"Vogtlandkreis","type":"Landkreis"},"federalState":{"key":"14","name":"Sachsen"}},{"name":"Jean-Paul-Str.","postalCode":"08525","locality":"Plauen","municipality":{"key":"14523320","name":"Plauen, Stadt","type":"Stadt"},"district":{"key":"14523","name":"Vogtlandkreis","type":"Landkreis"},"federalState":{"key":"14","name":"Sachsen"}},{"name":"Jenaer Str.","postalCode":"08525","locality":"Plauen","municipality":{"key":"14523320","name":"Plauen, Stadt","type":"Stadt"},"district":{"key":"14523","name":"Vogtlandkreis","type":"Landkreis"},"federalState":{"key":"14","name":"Sachsen"}},{"name":"Jocketaer Str.","postalCode":"08525","locality":"Plauen","municipality":{"key":"14523320","name":"Plauen, Stadt","type":"Stadt"},"district":{"key":"14523","name":"Vogtlandkreis","type":"Landkreis"},"federalState":{"key":"14","name":"Sachsen"}},{"name":"Johanniskirchplatz","postalCode":"08523","locality":"Plauen","municipality":{"key":"14523320","name":"Plauen, Stadt","type":"Stadt"},"district":{"key":"14523","name":"Vogtlandkreis","type":"Landkreis"},"federalState":{"key":"14","name":"Sachsen"}},{"name":"Jößnitzer Str.","postalCode":"08525","locality":"Plauen","municipality":{"key":"14523320","name":"Plauen, Stadt","type":"Stadt"},"district":{"key":"14523","name":"Vogtlandkreis","type":"Landkreis"},"federalState":{"key":"14","name":"Sachsen"}},{"name":"Jößnitzer Str.","postalCode":"08547","locality":"Plauen","municipality":{"key":"14523320","name":"Plauen, Stadt","type":"Stadt"},"district":{"key":"14523","name":"Vogtlandkreis","type":"Landkreis"},"federalState":{"key":"14","name":"Sachsen"}},{"name":"Julius-Fucik-Str.","postalCode":"08523","locality":"Plauen","municipality":{"key":"14523320","name":"Plauen, Stadt","type":"Stadt"},"district":{"key":"14523","name":"Vogtlandkreis","type":"Landkreis"},"federalState":{"key":"14","name":"Sachsen"}},{"name":"Kaiserstr.","postalCode":"08523","locality":"Plauen","municipality":{"key":"14523320","name":"Plauen, Stadt","type":"Stadt"},"district":{"key":"14523","name":"Vogtlandkreis","type":"Landkreis"},"federalState":{"key":"14","name":"Sachsen"}},{"name":"Kaiserstr.","postalCode":"08525","locality":"Plauen","municipality":{"key":"14523320","name":"Plauen, Stadt","type":"Stadt"},"district":{"key":"14523","name":"Vogtlandkreis","type":"Landkreis"},"federalState":{"key":"14","name":"Sachsen"}},{"name":"Kantstr.","postalCode":"08527","locality":"Plauen","municipality":{"key":"14523320","name":"Plauen, Stadt","type":"Stadt"},"district":{"key":"14523","name":"Vogtlandkreis","type":"Landkreis"},"federalState":{"key":"14","name":"Sachsen"}},{"name":"Karl-Friedrich-Schinkel-Str.","postalCode":"08529","locality":"Plauen","municipality":{"key":"14523320","name":"Plauen, Stadt","type":"Stadt"},"district":{"key":"14523","name":"Vogtlandkreis","type":"Landkreis"},"federalState":{"key":"14","name":"Sachsen"}},{"name":"Karlstr.","postalCode":"08523","locality":"Plauen","municipality":{"key":"14523320","name":"Plauen, Stadt","type":"Stadt"},"district":{"key":"14523","name":"Vogtlandkreis","type":"Landkreis"},"federalState":{"key":"14","name":"Sachsen"}},{"name":"Karolastr.","postalCode":"08525","locality":"Plauen","municipality":{"key":"14523320","name":"Plauen, Stadt","type":"Stadt"},"district":{"key":"14523","name":"Vogtlandkreis","type":"Landkreis"},"federalState":{"key":"14","name":"Sachsen"}},{"name":"Kasernenstr.","postalCode":"08523","locality":"Plauen","municipality":{"key":"14523320","name":"Plauen, Stadt","type":"Stadt"},"district":{"key":"14523","name":"Vogtlandkreis","type":"Landkreis"},"federalState":{"key":"14","name":"Sachsen"}},{"name":"Kastanienweg","postalCode":"08529","locality":"Plauen","municipality":{"key":"14523320","name":"Plauen, Stadt","type":"Stadt"},"district":{"key":"14523","name":"Vogtlandkreis","type":"Landkreis"},"federalState":{"key":"14","name":"Sachsen"}},{"name":"Käthe-Kollwitz-Weg","postalCode":"08529","locality":"Plauen","municipality":{"key":"14523320","name":"Plauen, Stadt","type":"Stadt"},"district":{"key":"14523","name":"Vogtlandkreis","type":"Landkreis"},"federalState":{"key":"14","name":"Sachsen"}},{"name":"Kauschwitzer Str.","postalCode":"08523","locality":"Plauen","municipality":{"key":"14523320","name":"Plauen, Stadt","type":"Stadt"},"district":{"key":"14523","name":"Vogtlandkreis","type":"Landkreis"},"federalState":{"key":"14","name":"Sachsen"}},{"name":"Kauschwitzer Str.","postalCode":"08525","locality":"Plauen","municipality":{"key":"14523320","name":"Plauen, Stadt","type":"Stadt"},"district":{"key":"14523","name":"Vogtlandkreis","type":"Landkreis"},"federalState":{"key":"14","name":"Sachsen"}},{"name":"Kauschwitzer Weg","postalCode":"08547","locality":"Plauen","municipality":{"key":"14523320","name":"Plauen, Stadt","type":"Stadt"},"district":{"key":"14523","name":"Vogtlandkreis","type":"Landkreis"},"federalState":{"key":"14","name":"Sachsen"}},{"name":"Käuzchenweg","postalCode":"08525","locality":"Plauen","municipality":{"key":"14523320","name":"Plauen, Stadt","type":"Stadt"},"district":{"key":"14523","name":"Vogtlandkreis","type":"Landkreis"},"federalState":{"key":"14","name":"Sachsen"}},{"name":"Kemmlerblick","postalCode":"08527","locality":"Plauen","municipality":{"key":"14523320","name":"Plauen, Stadt","type":"Stadt"},"district":{"key":"14523","name":"Vogtlandkreis","type":"Landkreis"},"federalState":{"key":"14","name":"Sachsen"}},{"name":"Kemmlerstr.","postalCode":"08527","locality":"Plauen","municipality":{"key":"14523320","name":"Plauen, Stadt","type":"Stadt"},"district":{"key":"14523","name":"Vogtlandkreis","type":"Landkreis"},"federalState":{"key":"14","name":"Sachsen"}},{"name":"Keplerstr.","postalCode":"08523","locality":"Plauen","municipality":{"key":"14523320","name":"Plauen, Stadt","type":"Stadt"},"district":{"key":"14523","name":"Vogtlandkreis","type":"Landkreis"},"federalState":{"key":"14","name":"Sachsen"}},{"name":"Kirchgasse","postalCode":"08547","locality":"Plauen","municipality":{"key":"14523320","name":"Plauen, Stadt","type":"Stadt"},"district":{"key":"14523","name":"Vogtlandkreis","type":"Landkreis"},"federalState":{"key":"14","name":"Sachsen"}},{"name":"Kirchgasse","postalCode":"99338","locality":"Plaue","municipality":{"key":"16070043","name":"Plaue, Stadt","type":"Stadt"},"district":{"key":"16070","name":"Ilm-Kreis","type":"Landkreis"},"federalState":{"key":"16","name":"Thüringen"}},{"name":"Kirchplatz","postalCode":"08527","locality":"Plauen","municipality":{"key":"14523320","name":"Plauen, Stadt","type":"Stadt"},"district":{"key":"14523","name":"Vogtlandkreis","type":"Landkreis"},"federalState":{"key":"14","name":"Sachsen"}},{"name":"Kirchstr.","postalCode":"08523","locality":"Plauen","municipality":{"key":"14523320","name":"Plauen, Stadt","type":"Stadt"},"district":{"key":"14523","name":"Vogtlandkreis","type":"Landkreis"},"federalState":{"key":"14","name":"Sachsen"}},{"name":"Kirchstr.","postalCode":"99338","locality":"Plaue","municipality":{"key":"16070043","name":"Plaue, Stadt","type":"Stadt"},"district":{"key":"16070","name":"Ilm-Kreis","type":"Landkreis"},"federalState":{"key":"16","name":"Thüringen"}},{"name":"Kirchweg","postalCode":"08527","locality":"Plauen","municipality":{"key":"14523320","name":"Plauen, Stadt","type":"Stadt"},"district":{"key":"14523","name":"Vogtlandkreis","type":"Landkreis"},"federalState":{"key":"14","name":"Sachsen"}},{"name":"Kleine Feldstr.","postalCode":"99338","locality":"Plaue","municipality":{"key":"16070043","name":"Plaue, Stadt","type":"Stadt"},"district":{"key":"16070","name":"Ilm-Kreis","type":"Landkreis"},"federalState":{"key":"16","name":"Thüringen"}},{"name":"Kleinfriesener Str.","postalCode":"08529","locality":"Plauen","municipality":{"key":"14523320","name":"Plauen, Stadt","type":"Stadt"},"district":{"key":"14523","name":"Vogtlandkreis","type":"Landkreis"},"federalState":{"key":"14","name":"Sachsen"}},{"name":"Kleiststr.","postalCode":"08525","locality":"Plauen","municipality":{"key":"14523320","name":"Plauen, Stadt","type":"Stadt"},"district":{"key":"14523","name":"Vogtlandkreis","type":"Landkreis"},"federalState":{"key":"14","name":"Sachsen"}},{"name":"Klemmstr.","postalCode":"08527","locality":"Plauen","municipality":{"key":"14523320","name":"Plauen, Stadt","type":"Stadt"},"district":{"key":"14523","name":"Vogtlandkreis","type":"Landkreis"},"federalState":{"key":"14","name":"Sachsen"}},{"name":"Klopstockstr.","postalCode":"08525","locality":"Plauen","municipality":{"key":"14523320","name":"Plauen, Stadt","type":"Stadt"},"district":{"key":"14523","name":"Vogtlandkreis","type":"Landkreis"},"federalState":{"key":"14","name":"Sachsen"}},{"name":"Klösterlein","postalCode":"08523","locality":"Plauen","municipality":{"key":"14523320","name":"Plauen, Stadt","type":"Stadt"},"district":{"key":"14523","name":"Vogtlandkreis","type":"Landkreis"},"federalState":{"key":"14","name":"Sachsen"}},{"name":"Klostermarkt","postalCode":"08523","locality":"Plauen","municipality":{"key":"14523320","name":"Plauen, Stadt","type":"Stadt"},"district":{"key":"14523","name":"Vogtlandkreis","type":"Landkreis"},"federalState":{"key":"14","name":"Sachsen"}},{"name":"Klostermarkt-Passage","postalCode":"08523","locality":"Plauen","municipality":{"key":"14523320","name":"Plauen, Stadt","type":"Stadt"},"district":{"key":"14523","name":"Vogtlandkreis","type":"Landkreis"},"federalState":{"key":"14","name":"Sachsen"}},{"name":"Klosterstr.","postalCode":"08523","locality":"Plauen","municipality":{"key":"14523320","name":"Plauen, Stadt","type":"Stadt"},"district":{"key":"14523","name":"Vogtlandkreis","type":"Landkreis"},"federalState":{"key":"14","name":"Sachsen"}},{"name":"Knielohpark","postalCode":"08529","locality":"Plauen","municipality":{"key":"14523320","name":"Plauen, Stadt","type":"Stadt"},"district":{"key":"14523","name":"Vogtlandkreis","type":"Landkreis"},"federalState":{"key":"14","name":"Sachsen"}},{"name":"Knielohstr.","postalCode":"08527","locality":"Plauen","municipality":{"key":"14523320","name":"Plauen, Stadt","type":"Stadt"},"district":{"key":"14523","name":"Vogtlandkreis","type":"Landkreis"},"federalState":{"key":"14","name":"Sachsen"}},{"name":"Knieweg","postalCode":"08547","locality":"Plauen","municipality":{"key":"14523320","name":"Plauen, Stadt","type":"Stadt"},"district":{"key":"14523","name":"Vogtlandkreis","type":"Landkreis"},"federalState":{"key":"14","name":"Sachsen"}},{"name":"Kobitzschwalder Str.","postalCode":"08527","locality":"Plauen","municipality":{"key":"14523320","name":"Plauen, Stadt","type":"Stadt"},"district":{"key":"14523","name":"Vogtlandkreis","type":"Landkreis"},"federalState":{"key":"14","name":"Sachsen"}},{"name":"Komturhof","postalCode":"08527","locality":"Plauen","municipality":{"key":"14523320","name":"Plauen, Stadt","type":"Stadt"},"district":{"key":"14523","name":"Vogtlandkreis","type":"Landkreis"},"federalState":{"key":"14","name":"Sachsen"}},{"name":"Konsumweg","postalCode":"08541","locality":"Plauen","municipality":{"key":"14523320","name":"Plauen, Stadt","type":"Stadt"},"district":{"key":"14523","name":"Vogtlandkreis","type":"Landkreis"},"federalState":{"key":"14","name":"Sachsen"}},{"name":"Kopernikusstr.","postalCode":"08523","locality":"Plauen","municipality":{"key":"14523320","name":"Plauen, Stadt","type":"Stadt"},"district":{"key":"14523","name":"Vogtlandkreis","type":"Landkreis"},"federalState":{"key":"14","name":"Sachsen"}},{"name":"Körnerstr.","postalCode":"08523","locality":"Plauen","municipality":{"key":"14523320","name":"Plauen, Stadt","type":"Stadt"},"district":{"key":"14523","name":"Vogtlandkreis","type":"Landkreis"},"federalState":{"key":"14","name":"Sachsen"}},{"name":"Krähenhügelstr.","postalCode":"08525","locality":"Plauen","municipality":{"key":"14523320","name":"Plauen, Stadt","type":"Stadt"},"district":{"key":"14523","name":"Vogtlandkreis","type":"Landkreis"},"federalState":{"key":"14","name":"Sachsen"}},{"name":"Krähenwinkel","postalCode":"08527","locality":"Plauen","municipality":{"key":"14523320","name":"Plauen, Stadt","type":"Stadt"},"district":{"key":"14523","name":"Vogtlandkreis","type":"Landkreis"},"federalState":{"key":"14","name":"Sachsen"}},{"name":"Krausenstr.","postalCode":"08523","locality":"Plauen","municipality":{"key":"14523320","name":"Plauen, Stadt","type":"Stadt"},"district":{"key":"14523","name":"Vogtlandkreis","type":"Landkreis"},"federalState":{"key":"14","name":"Sachsen"}},{"name":"Kröstauer Str.","postalCode":"08527","locality":"Plauen","municipality":{"key":"14523320","name":"Plauen, Stadt","type":"Stadt"},"district":{"key":"14523","name":"Vogtlandkreis","type":"Landkreis"},"federalState":{"key":"14","name":"Sachsen"}},{"name":"Krumme Gasse","postalCode":"08547","locality":"Plauen","municipality":{"key":"14523320","name":"Plauen, Stadt","type":"Stadt"},"district":{"key":"14523","name":"Vogtlandkreis","type":"Landkreis"},"federalState":{"key":"14","name":"Sachsen"}},{"name":"Krummer Weg","postalCode":"08541","locality":"Plauen","municipality":{"key":"14523320","name":"Plauen, Stadt","type":"Stadt"},"district":{"key":"14523","name":"Vogtlandkreis","type":"Landkreis"},"federalState":{"key":"14","name":"Sachsen"}},{"name":"Kulmgasse","postalCode":"08527","locality":"Plauen","municipality":{"key":"14523320","name":"Plauen, Stadt","type":"Stadt"},"district":{"key":"14523","name":"Vogtlandkreis","type":"Landkreis"},"federalState":{"key":"14","name":"Sachsen"}},{"name":"Kuntzestr.","postalCode":"08523","locality":"Plauen","municipality":{"key":"14523320","name":"Plauen, Stadt","type":"Stadt"},"district":{"key":"14523","name":"Vogtlandkreis","type":"Landkreis"},"federalState":{"key":"14","name":"Sachsen"}},{"name":"Kürbitzer Landstr.","postalCode":"08527","locality":"Plauen","municipality":{"key":"14523320","name":"Plauen, Stadt","type":"Stadt"},"district":{"key":"14523","name":"Vogtlandkreis","type":"Landkreis"},"federalState":{"key":"14","name":"Sachsen"}},{"name":"Kürbitzer Str.","postalCode":"08527","locality":"Plauen","municipality":{"key":"14523320","name":"Plauen, Stadt","type":"Stadt"},"district":{"key":"14523","name":"Vogtlandkreis","type":"Landkreis"},"federalState":{"key":"14","name":"Sachsen"}},{"name":"Kurt-Friedrich-Weg","postalCode":"08527","locality":"Plauen","municipality":{"key":"14523320","name":"Plauen, Stadt","type":"Stadt"},"district":{"key":"14523","name":"Vogtlandkreis","type":"Landkreis"},"federalState":{"key":"14","name":"Sachsen"}},{"name":"Lädergasse","postalCode":"99338","locality":"Plaue","municipality":{"key":"16070043","name":"Plaue, Stadt","type":"Stadt"},"district":{"key":"16070","name":"Ilm-Kreis","type":"Landkreis"},"federalState":{"key":"16","name":"Thüringen"}},{"name":"Landmannstr.","postalCode":"08527","locality":"Plauen","municipality":{"key":"14523320","name":"Plauen, Stadt","type":"Stadt"},"district":{"key":"14523","name":"Vogtlandkreis","type":"Landkreis"},"federalState":{"key":"14","name":"Sachsen"}},{"name":"Lange Gasse","postalCode":"08547","locality":"Plauen","municipality":{"key":"14523320","name":"Plauen, Stadt","type":"Stadt"},"district":{"key":"14523","name":"Vogtlandkreis","type":"Landkreis"},"federalState":{"key":"14","name":"Sachsen"}},{"name":"Langenberggasse","postalCode":"08529","locality":"Plauen","municipality":{"key":"14523320","name":"Plauen, Stadt","type":"Stadt"},"district":{"key":"14523","name":"Vogtlandkreis","type":"Landkreis"},"federalState":{"key":"14","name":"Sachsen"}},{"name":"Lange Str.","postalCode":"08525","locality":"Plauen","municipality":{"key":"14523320","name":"Plauen, Stadt","type":"Stadt"},"district":{"key":"14523","name":"Vogtlandkreis","type":"Landkreis"},"federalState":{"key":"14","name":"Sachsen"}},{"name":"Leibnizstr.","postalCode":"08527","locality":"Plauen","municipality":{"key":"14523320","name":"Plauen, Stadt","type":"Stadt"},"district":{"key":"14523","name":"Vogtlandkreis","type":"Landkreis"},"federalState":{"key":"14","name":"Sachsen"}},{"name":"Leißnerstr.","postalCode":"08525","locality":"Plauen","municipality":{"key":"14523320","name":"Plauen, Stadt","type":"Stadt"},"district":{"key":"14523","name":"Vogtlandkreis","type":"Landkreis"},"federalState":{"key":"14","name":"Sachsen"}},{"name":"Lenaustr.","postalCode":"08525","locality":"Plauen","municipality":{"key":"14523320","name":"Plauen, Stadt","type":"Stadt"},"district":{"key":"14523","name":"Vogtlandkreis","type":"Landkreis"},"federalState":{"key":"14","name":"Sachsen"}},{"name":"Lessingstr.","postalCode":"08523","locality":"Plauen","municipality":{"key":"14523320","name":"Plauen, Stadt","type":"Stadt"},"district":{"key":"14523","name":"Vogtlandkreis","type":"Landkreis"},"federalState":{"key":"14","name":"Sachsen"}},{"name":"Lessingstr.","postalCode":"08525","locality":"Plauen","municipality":{"key":"14523320","name":"Plauen, Stadt","type":"Stadt"},"district":{"key":"14523","name":"Vogtlandkreis","type":"Landkreis"},"federalState":{"key":"14","name":"Sachsen"}},{"name":"Lessingstr.","postalCode":"08547","locality":"Plauen","municipality":{"key":"14523320","name":"Plauen, Stadt","type":"Stadt"},"district":{"key":"14523","name":"Vogtlandkreis","type":"Landkreis"},"federalState":{"key":"14","name":"Sachsen"}},{"name":"Lettestr.","postalCode":"08527","locality":"Plauen","municipality":{"key":"14523320","name":"Plauen, Stadt","type":"Stadt"},"district":{"key":"14523","name":"Vogtlandkreis","type":"Landkreis"},"federalState":{"key":"14","name":"Sachsen"}},{"name":"Leuchtsmühlenweg","postalCode":"08523","locality":"Plauen","municipality":{"key":"14523320","name":"Plauen, Stadt","type":"Stadt"},"district":{"key":"14523","name":"Vogtlandkreis","type":"Landkreis"},"federalState":{"key":"14","name":"Sachsen"}},{"name":"Liebensteiner Str.","postalCode":"99338","locality":"Plaue","municipality":{"key":"16070043","name":"Plaue, Stadt","type":"Stadt"},"district":{"key":"16070","name":"Ilm-Kreis","type":"Landkreis"},"federalState":{"key":"16","name":"Thüringen"}},{"name":"Liebigstr.","postalCode":"08529","locality":"Plauen","municipality":{"key":"14523320","name":"Plauen, Stadt","type":"Stadt"},"district":{"key":"14523","name":"Vogtlandkreis","type":"Landkreis"},"federalState":{"key":"14","name":"Sachsen"}},{"name":"Liebknechtstr.","postalCode":"08523","locality":"Plauen","municipality":{"key":"14523320","name":"Plauen, Stadt","type":"Stadt"},"district":{"key":"14523","name":"Vogtlandkreis","type":"Landkreis"},"federalState":{"key":"14","name":"Sachsen"}},{"name":"Lindemannstr.","postalCode":"08523","locality":"Plauen","municipality":{"key":"14523320","name":"Plauen, Stadt","type":"Stadt"},"district":{"key":"14523","name":"Vogtlandkreis","type":"Landkreis"},"federalState":{"key":"14","name":"Sachsen"}},{"name":"Lindenplatz","postalCode":"99338","locality":"Plaue","municipality":{"key":"16070043","name":"Plaue, Stadt","type":"Stadt"},"district":{"key":"16070","name":"Ilm-Kreis","type":"Landkreis"},"federalState":{"key":"16","name":"Thüringen"}},{"name":"Lindenstr.","postalCode":"08523","locality":"Plauen","municipality":{"key":"14523320","name":"Plauen, Stadt","type":"Stadt"},"district":{"key":"14523","name":"Vogtlandkreis","type":"Landkreis"},"federalState":{"key":"14","name":"Sachsen"}},{"name":"Löberingstr.","postalCode":"08529","locality":"Plauen","municipality":{"key":"14523320","name":"Plauen, Stadt","type":"Stadt"},"district":{"key":"14523","name":"Vogtlandkreis","type":"Landkreis"},"federalState":{"key":"14","name":"Sachsen"}},{"name":"Lochschänke","postalCode":"08541","locality":"Plauen","municipality":{"key":"14523320","name":"Plauen, Stadt","type":"Stadt"},"district":{"key":"14523","name":"Vogtlandkreis","type":"Landkreis"},"federalState":{"key":"14","name":"Sachsen"}},{"name":"Louis-Ferdinand-Schönherr-Str.","postalCode":"08523","locality":"Plauen","municipality":{"key":"14523320","name":"Plauen, Stadt","type":"Stadt"},"district":{"key":"14523","name":"Vogtlandkreis","type":"Landkreis"},"federalState":{"key":"14","name":"Sachsen"}},{"name":"Ludwig-Richter-Str.","postalCode":"08527","locality":"Plauen","municipality":{"key":"14523320","name":"Plauen, Stadt","type":"Stadt"},"district":{"key":"14523","name":"Vogtlandkreis","type":"Landkreis"},"federalState":{"key":"14","name":"Sachsen"}},{"name":"Luisenstr.","postalCode":"08525","locality":"Plauen","municipality":{"key":"14523320","name":"Plauen, Stadt","type":"Stadt"},"district":{"key":"14523","name":"Vogtlandkreis","type":"Landkreis"},"federalState":{"key":"14","name":"Sachsen"}},{"name":"Lutherpark","postalCode":"08523","locality":"Plauen","municipality":{"key":"14523320","name":"Plauen, Stadt","type":"Stadt"},"district":{"key":"14523","name":"Vogtlandkreis","type":"Landkreis"},"federalState":{"key":"14","name":"Sachsen"}},{"name":"Lützowstr.","postalCode":"08523","locality":"Plauen","municipality":{"key":"14523320","name":"Plauen, Stadt","type":"Stadt"},"district":{"key":"14523","name":"Vogtlandkreis","type":"Landkreis"},"federalState":{"key":"14","name":"Sachsen"}},{"name":"Mammenstr.","postalCode":"08527","locality":"Plauen","municipality":{"key":"14523320","name":"Plauen, Stadt","type":"Stadt"},"district":{"key":"14523","name":"Vogtlandkreis","type":"Landkreis"},"federalState":{"key":"14","name":"Sachsen"}},{"name":"Margarethe-Naumann-Str.","postalCode":"08527","locality":"Plauen","municipality":{"key":"14523320","name":"Plauen, Stadt","type":"Stadt"},"district":{"key":"14523","name":"Vogtlandkreis","type":"Landkreis"},"federalState":{"key":"14","name":"Sachsen"}},{"name":"Marie-Curie-Str.","postalCode":"08529","locality":"Plauen","municipality":{"key":"14523320","name":"Plauen, Stadt","type":"Stadt"},"district":{"key":"14523","name":"Vogtlandkreis","type":"Landkreis"},"federalState":{"key":"14","name":"Sachsen"}},{"name":"Marienstr.","postalCode":"08527","locality":"Plauen","municipality":{"key":"14523320","name":"Plauen, Stadt","type":"Stadt"},"district":{"key":"14523","name":"Vogtlandkreis","type":"Landkreis"},"federalState":{"key":"14","name":"Sachsen"}},{"name":"Marktstr.","postalCode":"08523","locality":"Plauen","municipality":{"key":"14523320","name":"Plauen, Stadt","type":"Stadt"},"district":{"key":"14523","name":"Vogtlandkreis","type":"Landkreis"},"federalState":{"key":"14","name":"Sachsen"}},{"name":"Markuskirchplatz","postalCode":"08525","locality":"Plauen","municipality":{"key":"14523320","name":"Plauen, Stadt","type":"Stadt"},"district":{"key":"14523","name":"Vogtlandkreis","type":"Landkreis"},"federalState":{"key":"14","name":"Sachsen"}},{"name":"Markus-Stübner-Str.","postalCode":"08523","locality":"Plauen","municipality":{"key":"14523320","name":"Plauen, Stadt","type":"Stadt"},"district":{"key":"14523","name":"Vogtlandkreis","type":"Landkreis"},"federalState":{"key":"14","name":"Sachsen"}},{"name":"Martin-Luther-Str.","postalCode":"08525","locality":"Plauen","municipality":{"key":"14523320","name":"Plauen, Stadt","type":"Stadt"},"district":{"key":"14523","name":"Vogtlandkreis","type":"Landkreis"},"federalState":{"key":"14","name":"Sachsen"}},{"name":"Massenmühle","postalCode":"99338","locality":"Plaue","municipality":{"key":"16070043","name":"Plaue, Stadt","type":"Stadt"},"district":{"key":"16070","name":"Ilm-Kreis","type":"Landkreis"},"federalState":{"key":"16","name":"Thüringen"}},{"name":"Maxim-Gorki-Str.","postalCode":"08529","locality":"Plauen","municipality":{"key":"14523320","name":"Plauen, Stadt","type":"Stadt"},"district":{"key":"14523","name":"Vogtlandkreis","type":"Landkreis"},"federalState":{"key":"14","name":"Sachsen"}},{"name":"Maximilian-Kolbe-Weg","postalCode":"08529","locality":"Plauen","municipality":{"key":"14523320","name":"Plauen, Stadt","type":"Stadt"},"district":{"key":"14523","name":"Vogtlandkreis","type":"Landkreis"},"federalState":{"key":"14","name":"Sachsen"}},{"name":"Max-Liebermann-Str.","postalCode":"08525","locality":"Plauen","municipality":{"key":"14523320","name":"Plauen, Stadt","type":"Stadt"},"district":{"key":"14523","name":"Vogtlandkreis","type":"Landkreis"},"federalState":{"key":"14","name":"Sachsen"}},{"name":"Max-Planck-Str.","postalCode":"08525","locality":"Plauen","municipality":{"key":"14523320","name":"Plauen, Stadt","type":"Stadt"},"district":{"key":"14523","name":"Vogtlandkreis","type":"Landkreis"},"federalState":{"key":"14","name":"Sachsen"}},{"name":"Melanchthonstr.","postalCode":"08523","locality":"Plauen","municipality":{"key":"14523320","name":"Plauen, Stadt","type":"Stadt"},"district":{"key":"14523","name":"Vogtlandkreis","type":"Landkreis"},"federalState":{"key":"14","name":"Sachsen"}},{"name":"Mendelsonplatz","postalCode":"08525","locality":"Plauen","municipality":{"key":"14523320","name":"Plauen, Stadt","type":"Stadt"},"district":{"key":"14523","name":"Vogtlandkreis","type":"Landkreis"},"federalState":{"key":"14","name":"Sachsen"}},{"name":"Mendelssohnstr.","postalCode":"08547","locality":"Plauen","municipality":{"key":"14523320","name":"Plauen, Stadt","type":"Stadt"},"district":{"key":"14523","name":"Vogtlandkreis","type":"Landkreis"},"federalState":{"key":"14","name":"Sachsen"}},{"name":"Merkelstr.","postalCode":"08523","locality":"Plauen","municipality":{"key":"14523320","name":"Plauen, Stadt","type":"Stadt"},"district":{"key":"14523","name":"Vogtlandkreis","type":"Landkreis"},"federalState":{"key":"14","name":"Sachsen"}},{"name":"Meßbacher Str.","postalCode":"08527","locality":"Plauen","municipality":{"key":"14523320","name":"Plauen, Stadt","type":"Stadt"},"district":{"key":"14523","name":"Vogtlandkreis","type":"Landkreis"},"federalState":{"key":"14","name":"Sachsen"}},{"name":"Meßbacher Weg","postalCode":"08527","locality":"Plauen","municipality":{"key":"14523320","name":"Plauen, Stadt","type":"Stadt"},"district":{"key":"14523","name":"Vogtlandkreis","type":"Landkreis"},"federalState":{"key":"14","name":"Sachsen"}},{"name":"Mettestr.","postalCode":"08523","locality":"Plauen","municipality":{"key":"14523320","name":"Plauen, Stadt","type":"Stadt"},"district":{"key":"14523","name":"Vogtlandkreis","type":"Landkreis"},"federalState":{"key":"14","name":"Sachsen"}},{"name":"Mittelgasse","postalCode":"08527","locality":"Plauen","municipality":{"key":"14523320","name":"Plauen, Stadt","type":"Stadt"},"district":{"key":"14523","name":"Vogtlandkreis","type":"Landkreis"},"federalState":{"key":"14","name":"Sachsen"}},{"name":"Mittelgasse","postalCode":"99338","locality":"Plaue","municipality":{"key":"16070043","name":"Plaue, Stadt","type":"Stadt"},"district":{"key":"16070","name":"Ilm-Kreis","type":"Landkreis"},"federalState":{"key":"16","name":"Thüringen"}},{"name":"Mittelstr.","postalCode":"08527","locality":"Plauen","municipality":{"key":"14523320","name":"Plauen, Stadt","type":"Stadt"},"district":{"key":"14523","name":"Vogtlandkreis","type":"Landkreis"},"federalState":{"key":"14","name":"Sachsen"}},{"name":"Mittelweg","postalCode":"08527","locality":"Plauen","municipality":{"key":"14523320","name":"Plauen, Stadt","type":"Stadt"},"district":{"key":"14523","name":"Vogtlandkreis","type":"Landkreis"},"federalState":{"key":"14","name":"Sachsen"}},{"name":"Mittlerer Tränkegarten","postalCode":"99338","locality":"Plaue","municipality":{"key":"16070043","name":"Plaue, Stadt","type":"Stadt"},"district":{"key":"16070","name":"Ilm-Kreis","type":"Landkreis"},"federalState":{"key":"16","name":"Thüringen"}},{"name":"Mohngarten","postalCode":"99338","locality":"Plaue","municipality":{"key":"16070043","name":"Plaue, Stadt","type":"Stadt"},"district":{"key":"16070","name":"Ilm-Kreis","type":"Landkreis"},"federalState":{"key":"16","name":"Thüringen"}},{"name":"Moltkestr.","postalCode":"08523","locality":"Plauen","municipality":{"key":"14523320","name":"Plauen, Stadt","type":"Stadt"},"district":{"key":"14523","name":"Vogtlandkreis","type":"Landkreis"},"federalState":{"key":"14","name":"Sachsen"}},{"name":"Mommsenstr.","postalCode":"08523","locality":"Plauen","municipality":{"key":"14523320","name":"Plauen, Stadt","type":"Stadt"},"district":{"key":"14523","name":"Vogtlandkreis","type":"Landkreis"},"federalState":{"key":"14","name":"Sachsen"}},{"name":"Moorengasse","postalCode":"08527","locality":"Plauen","municipality":{"key":"14523320","name":"Plauen, Stadt","type":"Stadt"},"district":{"key":"14523","name":"Vogtlandkreis","type":"Landkreis"},"federalState":{"key":"14","name":"Sachsen"}},{"name":"Moorstr.","postalCode":"08527","locality":"Plauen","municipality":{"key":"14523320","name":"Plauen, Stadt","type":"Stadt"},"district":{"key":"14523","name":"Vogtlandkreis","type":"Landkreis"},"federalState":{"key":"14","name":"Sachsen"}},{"name":"Morgenbergstr.","postalCode":"08525","locality":"Plauen","municipality":{"key":"14523320","name":"Plauen, Stadt","type":"Stadt"},"district":{"key":"14523","name":"Vogtlandkreis","type":"Landkreis"},"federalState":{"key":"14","name":"Sachsen"}},{"name":"Moritzstr.","postalCode":"08523","locality":"Plauen","municipality":{"key":"14523320","name":"Plauen, Stadt","type":"Stadt"},"district":{"key":"14523","name":"Vogtlandkreis","type":"Landkreis"},"federalState":{"key":"14","name":"Sachsen"}},{"name":"Möschwitzer Str.","postalCode":"08529","locality":"Plauen","municipality":{"key":"14523320","name":"Plauen, Stadt","type":"Stadt"},"district":{"key":"14523","name":"Vogtlandkreis","type":"Landkreis"},"federalState":{"key":"14","name":"Sachsen"}},{"name":"Mosenstr.","postalCode":"08523","locality":"Plauen","municipality":{"key":"14523320","name":"Plauen, Stadt","type":"Stadt"},"district":{"key":"14523","name":"Vogtlandkreis","type":"Landkreis"},"federalState":{"key":"14","name":"Sachsen"}},{"name":"Mozartstr.","postalCode":"08525","locality":"Plauen","municipality":{"key":"14523320","name":"Plauen, Stadt","type":"Stadt"},"district":{"key":"14523","name":"Vogtlandkreis","type":"Landkreis"},"federalState":{"key":"14","name":"Sachsen"}},{"name":"Mozartstr.","postalCode":"08547","locality":"Plauen","municipality":{"key":"14523320","name":"Plauen, Stadt","type":"Stadt"},"district":{"key":"14523","name":"Vogtlandkreis","type":"Landkreis"},"federalState":{"key":"14","name":"Sachsen"}},{"name":"Mückenbergerstr.","postalCode":"08523","locality":"Plauen","municipality":{"key":"14523320","name":"Plauen, Stadt","type":"Stadt"},"district":{"key":"14523","name":"Vogtlandkreis","type":"Landkreis"},"federalState":{"key":"14","name":"Sachsen"}},{"name":"Mühlberg","postalCode":"08527","locality":"Plauen","municipality":{"key":"14523320","name":"Plauen, Stadt","type":"Stadt"},"district":{"key":"14523","name":"Vogtlandkreis","type":"Landkreis"},"federalState":{"key":"14","name":"Sachsen"}},{"name":"Mühlgasse","postalCode":"08525","locality":"Plauen","municipality":{"key":"14523320","name":"Plauen, Stadt","type":"Stadt"},"district":{"key":"14523","name":"Vogtlandkreis","type":"Landkreis"},"federalState":{"key":"14","name":"Sachsen"}},{"name":"Mühlgasse","postalCode":"99338","locality":"Plaue","municipality":{"key":"16070043","name":"Plaue, Stadt","type":"Stadt"},"district":{"key":"16070","name":"Ilm-Kreis","type":"Landkreis"},"federalState":{"key":"16","name":"Thüringen"}},{"name":"Mühlstr.","postalCode":"08527","locality":"Plauen","municipality":{"key":"14523320","name":"Plauen, Stadt","type":"Stadt"},"district":{"key":"14523","name":"Vogtlandkreis","type":"Landkreis"},"federalState":{"key":"14","name":"Sachsen"}},{"name":"Myliusstr.","postalCode":"08523","locality":"Plauen","municipality":{"key":"14523320","name":"Plauen, Stadt","type":"Stadt"},"district":{"key":"14523","name":"Vogtlandkreis","type":"Landkreis"},"federalState":{"key":"14","name":"Sachsen"}},{"name":"Nach dem Bergschlößchen","postalCode":"08527","locality":"Plauen","municipality":{"key":"14523320","name":"Plauen, Stadt","type":"Stadt"},"district":{"key":"14523","name":"Vogtlandkreis","type":"Landkreis"},"federalState":{"key":"14","name":"Sachsen"}},{"name":"Nach dem Essigsteig","postalCode":"08525","locality":"Plauen","municipality":{"key":"14523320","name":"Plauen, Stadt","type":"Stadt"},"district":{"key":"14523","name":"Vogtlandkreis","type":"Landkreis"},"federalState":{"key":"14","name":"Sachsen"}},{"name":"Nach dem Seehaus","postalCode":"08523","locality":"Plauen","municipality":{"key":"14523320","name":"Plauen, Stadt","type":"Stadt"},"district":{"key":"14523","name":"Vogtlandkreis","type":"Landkreis"},"federalState":{"key":"14","name":"Sachsen"}},{"name":"Nach dem Seehaus","postalCode":"08527","locality":"Plauen","municipality":{"key":"14523320","name":"Plauen, Stadt","type":"Stadt"},"district":{"key":"14523","name":"Vogtlandkreis","type":"Landkreis"},"federalState":{"key":"14","name":"Sachsen"}},{"name":"Nach dem Taubenberg","postalCode":"08529","locality":"Plauen","municipality":{"key":"14523320","name":"Plauen, Stadt","type":"Stadt"},"district":{"key":"14523","name":"Vogtlandkreis","type":"Landkreis"},"federalState":{"key":"14","name":"Sachsen"}},{"name":"Nach dem Waldhaus","postalCode":"08529","locality":"Plauen","municipality":{"key":"14523320","name":"Plauen, Stadt","type":"Stadt"},"district":{"key":"14523","name":"Vogtlandkreis","type":"Landkreis"},"federalState":{"key":"14","name":"Sachsen"}},{"name":"Nach den Birken","postalCode":"08525","locality":"Plauen","municipality":{"key":"14523320","name":"Plauen, Stadt","type":"Stadt"},"district":{"key":"14523","name":"Vogtlandkreis","type":"Landkreis"},"federalState":{"key":"14","name":"Sachsen"}},{"name":"Nach den drei Bergen","postalCode":"08527","locality":"Plauen","municipality":{"key":"14523320","name":"Plauen, Stadt","type":"Stadt"},"district":{"key":"14523","name":"Vogtlandkreis","type":"Landkreis"},"federalState":{"key":"14","name":"Sachsen"}},{"name":"Nach den Kiefern","postalCode":"08523","locality":"Plauen","municipality":{"key":"14523320","name":"Plauen, Stadt","type":"Stadt"},"district":{"key":"14523","name":"Vogtlandkreis","type":"Landkreis"},"federalState":{"key":"14","name":"Sachsen"}},{"name":"Nach der Rehtränke","postalCode":"08527","locality":"Plauen","municipality":{"key":"14523320","name":"Plauen, Stadt","type":"Stadt"},"district":{"key":"14523","name":"Vogtlandkreis","type":"Landkreis"},"federalState":{"key":"14","name":"Sachsen"}},{"name":"Nach Waldesruh","postalCode":"08527","locality":"Plauen","municipality":{"key":"14523320","name":"Plauen, Stadt","type":"Stadt"},"district":{"key":"14523","name":"Vogtlandkreis","type":"Landkreis"},"federalState":{"key":"14","name":"Sachsen"}},{"name":"Neue Plauensche Str.","postalCode":"08527","locality":"Plauen","municipality":{"key":"14523320","name":"Plauen, Stadt","type":"Stadt"},"district":{"key":"14523","name":"Vogtlandkreis","type":"Landkreis"},"federalState":{"key":"14","name":"Sachsen"}},{"name":"Neue Str.","postalCode":"08525","locality":"Plauen","municipality":{"key":"14523320","name":"Plauen, Stadt","type":"Stadt"},"district":{"key":"14523","name":"Vogtlandkreis","type":"Landkreis"},"federalState":{"key":"14","name":"Sachsen"}},{"name":"Neundorfer Grenzweg","postalCode":"08523","locality":"Plauen","municipality":{"key":"14523320","name":"Plauen, Stadt","type":"Stadt"},"district":{"key":"14523","name":"Vogtlandkreis","type":"Landkreis"},"federalState":{"key":"14","name":"Sachsen"}},{"name":"Neundorfer Str.","postalCode":"08523","locality":"Plauen","municipality":{"key":"14523320","name":"Plauen, Stadt","type":"Stadt"},"district":{"key":"14523","name":"Vogtlandkreis","type":"Landkreis"},"federalState":{"key":"14","name":"Sachsen"}},{"name":"Neupertstr.","postalCode":"08523","locality":"Plauen","municipality":{"key":"14523320","name":"Plauen, Stadt","type":"Stadt"},"district":{"key":"14523","name":"Vogtlandkreis","type":"Landkreis"},"federalState":{"key":"14","name":"Sachsen"}},{"name":"Neusiß","postalCode":"99338","locality":"Plaue","municipality":{"key":"16070043","name":"Plaue, Stadt","type":"Stadt"},"district":{"key":"16070","name":"Ilm-Kreis","type":"Landkreis"},"federalState":{"key":"16","name":"Thüringen"}},{"name":"Neustadtgasse","postalCode":"08527","locality":"Plauen","municipality":{"key":"14523320","name":"Plauen, Stadt","type":"Stadt"},"district":{"key":"14523","name":"Vogtlandkreis","type":"Landkreis"},"federalState":{"key":"14","name":"Sachsen"}},{"name":"Neustr.","postalCode":"08523","locality":"Plauen","municipality":{"key":"14523320","name":"Plauen, Stadt","type":"Stadt"},"district":{"key":"14523","name":"Vogtlandkreis","type":"Landkreis"},"federalState":{"key":"14","name":"Sachsen"}},{"name":"Nobelstr.","postalCode":"08523","locality":"Plauen","municipality":{"key":"14523320","name":"Plauen, Stadt","type":"Stadt"},"district":{"key":"14523","name":"Vogtlandkreis","type":"Landkreis"},"federalState":{"key":"14","name":"Sachsen"}},{"name":"Nußbaumweg","postalCode":"08529","locality":"Plauen","municipality":{"key":"14523320","name":"Plauen, Stadt","type":"Stadt"},"district":{"key":"14523","name":"Vogtlandkreis","type":"Landkreis"},"federalState":{"key":"14","name":"Sachsen"}},{"name":"Nussertweg","postalCode":"08527","locality":"Plauen","municipality":{"key":"14523320","name":"Plauen, Stadt","type":"Stadt"},"district":{"key":"14523","name":"Vogtlandkreis","type":"Landkreis"},"federalState":{"key":"14","name":"Sachsen"}},{"name":"Obere Endestr.","postalCode":"08523","locality":"Plauen","municipality":{"key":"14523320","name":"Plauen, Stadt","type":"Stadt"},"district":{"key":"14523","name":"Vogtlandkreis","type":"Landkreis"},"federalState":{"key":"14","name":"Sachsen"}},{"name":"Oberer Bahnhof","postalCode":"08525","locality":"Plauen","municipality":{"key":"14523320","name":"Plauen, Stadt","type":"Stadt"},"district":{"key":"14523","name":"Vogtlandkreis","type":"Landkreis"},"federalState":{"key":"14","name":"Sachsen"}},{"name":"Oberer Graben","postalCode":"08527","locality":"Plauen","municipality":{"key":"14523320","name":"Plauen, Stadt","type":"Stadt"},"district":{"key":"14523","name":"Vogtlandkreis","type":"Landkreis"},"federalState":{"key":"14","name":"Sachsen"}},{"name":"Oberer Steinweg","postalCode":"08523","locality":"Plauen","municipality":{"key":"14523320","name":"Plauen, Stadt","type":"Stadt"},"district":{"key":"14523","name":"Vogtlandkreis","type":"Landkreis"},"federalState":{"key":"14","name":"Sachsen"}},{"name":"Oberer Tränkegarten","postalCode":"99338","locality":"Plaue","municipality":{"key":"16070043","name":"Plaue, Stadt","type":"Stadt"},"district":{"key":"16070","name":"Ilm-Kreis","type":"Landkreis"},"federalState":{"key":"16","name":"Thüringen"}},{"name":"Obergasse","postalCode":"99338","locality":"Plaue","municipality":{"key":"16070043","name":"Plaue, Stadt","type":"Stadt"},"district":{"key":"16070","name":"Ilm-Kreis","type":"Landkreis"},"federalState":{"key":"16","name":"Thüringen"}},{"name":"Oberjößnitz","postalCode":"08547","locality":"Plauen","municipality":{"key":"14523320","name":"Plauen, Stadt","type":"Stadt"},"district":{"key":"14523","name":"Vogtlandkreis","type":"Landkreis"},"federalState":{"key":"14","name":"Sachsen"}},{"name":"Oberjößnitzer Weg","postalCode":"08547","locality":"Plauen","municipality":{"key":"14523320","name":"Plauen, Stadt","type":"Stadt"},"district":{"key":"14523","name":"Vogtlandkreis","type":"Landkreis"},"federalState":{"key":"14","name":"Sachsen"}},{"name":"Oberlosaer Weg","postalCode":"08527","locality":"Plauen","municipality":{"key":"14523320","name":"Plauen, Stadt","type":"Stadt"},"district":{"key":"14523","name":"Vogtlandkreis","type":"Landkreis"},"federalState":{"key":"14","name":"Sachsen"}},{"name":"Obermarxgrüner Str.","postalCode":"08527","locality":"Plauen","municipality":{"key":"14523320","name":"Plauen, Stadt","type":"Stadt"},"district":{"key":"14523","name":"Vogtlandkreis","type":"Landkreis"},"federalState":{"key":"14","name":"Sachsen"}},{"name":"Obstgartenweg","postalCode":"08529","locality":"Plauen","municipality":{"key":"14523320","name":"Plauen, Stadt","type":"Stadt"},"district":{"key":"14523","name":"Vogtlandkreis","type":"Landkreis"},"federalState":{"key":"14","name":"Sachsen"}},{"name":"Oelsnitzer Landstr.","postalCode":"08527","locality":"Plauen","municipality":{"key":"14523320","name":"Plauen, Stadt","type":"Stadt"},"district":{"key":"14523","name":"Vogtlandkreis","type":"Landkreis"},"federalState":{"key":"14","name":"Sachsen"}},{"name":"Oelsnitzer Str.","postalCode":"08527","locality":"Plauen","municipality":{"key":"14523320","name":"Plauen, Stadt","type":"Stadt"},"district":{"key":"14523","name":"Vogtlandkreis","type":"Landkreis"},"federalState":{"key":"14","name":"Sachsen"}},{"name":"Oelweg","postalCode":"08525","locality":"Plauen","municipality":{"key":"14523320","name":"Plauen, Stadt","type":"Stadt"},"district":{"key":"14523","name":"Vogtlandkreis","type":"Landkreis"},"federalState":{"key":"14","name":"Sachsen"}},{"name":"Osseweg","postalCode":"08525","locality":"Plauen","municipality":{"key":"14523320","name":"Plauen, Stadt","type":"Stadt"},"district":{"key":"14523","name":"Vogtlandkreis","type":"Landkreis"},"federalState":{"key":"14","name":"Sachsen"}},{"name":"Ostenstr.","postalCode":"08523","locality":"Plauen","municipality":{"key":"14523320","name":"Plauen, Stadt","type":"Stadt"},"district":{"key":"14523","name":"Vogtlandkreis","type":"Landkreis"},"federalState":{"key":"14","name":"Sachsen"}},{"name":"Ostenstr.","postalCode":"08527","locality":"Plauen","municipality":{"key":"14523320","name":"Plauen, Stadt","type":"Stadt"},"district":{"key":"14523","name":"Vogtlandkreis","type":"Landkreis"},"federalState":{"key":"14","name":"Sachsen"}},{"name":"Otto-Erbert-Str.","postalCode":"08527","locality":"Plauen","municipality":{"key":"14523320","name":"Plauen, Stadt","type":"Stadt"},"district":{"key":"14523","name":"Vogtlandkreis","type":"Landkreis"},"federalState":{"key":"14","name":"Sachsen"}},{"name":"Paracelsusstr.","postalCode":"08529","locality":"Plauen","municipality":{"key":"14523320","name":"Plauen, Stadt","type":"Stadt"},"district":{"key":"14523","name":"Vogtlandkreis","type":"Landkreis"},"federalState":{"key":"14","name":"Sachsen"}},{"name":"Parkstr.","postalCode":"08525","locality":"Plauen","municipality":{"key":"14523320","name":"Plauen, Stadt","type":"Stadt"},"district":{"key":"14523","name":"Vogtlandkreis","type":"Landkreis"},"federalState":{"key":"14","name":"Sachsen"}},{"name":"Paul-Gerhardt-Str.","postalCode":"08525","locality":"Plauen","municipality":{"key":"14523320","name":"Plauen, Stadt","type":"Stadt"},"district":{"key":"14523","name":"Vogtlandkreis","type":"Landkreis"},"federalState":{"key":"14","name":"Sachsen"}},{"name":"Paul-Schneider-Str.","postalCode":"08525","locality":"Plauen","municipality":{"key":"14523320","name":"Plauen, Stadt","type":"Stadt"},"district":{"key":"14523","name":"Vogtlandkreis","type":"Landkreis"},"federalState":{"key":"14","name":"Sachsen"}},{"name":"Paul-Söllner-Str.","postalCode":"08527","locality":"Plauen","municipality":{"key":"14523320","name":"Plauen, Stadt","type":"Stadt"},"district":{"key":"14523","name":"Vogtlandkreis","type":"Landkreis"},"federalState":{"key":"14","name":"Sachsen"}},{"name":"Paul-Söllner-Str.","postalCode":"08547","locality":"Plauen","municipality":{"key":"14523320","name":"Plauen, Stadt","type":"Stadt"},"district":{"key":"14523","name":"Vogtlandkreis","type":"Landkreis"},"federalState":{"key":"14","name":"Sachsen"}},{"name":"Pausaer Str.","postalCode":"08523","locality":"Plauen","municipality":{"key":"14523320","name":"Plauen, Stadt","type":"Stadt"},"district":{"key":"14523","name":"Vogtlandkreis","type":"Landkreis"},"federalState":{"key":"14","name":"Sachsen"}},{"name":"Pausaer Str.","postalCode":"08525","locality":"Plauen","municipality":{"key":"14523320","name":"Plauen, Stadt","type":"Stadt"},"district":{"key":"14523","name":"Vogtlandkreis","type":"Landkreis"},"federalState":{"key":"14","name":"Sachsen"}},{"name":"Pawlowstr.","postalCode":"08529","locality":"Plauen","municipality":{"key":"14523320","name":"Plauen, Stadt","type":"Stadt"},"district":{"key":"14523","name":"Vogtlandkreis","type":"Landkreis"},"federalState":{"key":"14","name":"Sachsen"}},{"name":"Pestalozzistr.","postalCode":"08523","locality":"Plauen","municipality":{"key":"14523320","name":"Plauen, Stadt","type":"Stadt"},"district":{"key":"14523","name":"Vogtlandkreis","type":"Landkreis"},"federalState":{"key":"14","name":"Sachsen"}},{"name":"Pfaffenfeldstr.","postalCode":"08527","locality":"Plauen","municipality":{"key":"14523320","name":"Plauen, Stadt","type":"Stadt"},"district":{"key":"14523","name":"Vogtlandkreis","type":"Landkreis"},"federalState":{"key":"14","name":"Sachsen"}},{"name":"Pfaffengutstr.","postalCode":"08525","locality":"Plauen","municipality":{"key":"14523320","name":"Plauen, Stadt","type":"Stadt"},"district":{"key":"14523","name":"Vogtlandkreis","type":"Landkreis"},"federalState":{"key":"14","name":"Sachsen"}},{"name":"Pfarrweg","postalCode":"08547","locality":"Plauen","municipality":{"key":"14523320","name":"Plauen, Stadt","type":"Stadt"},"district":{"key":"14523","name":"Vogtlandkreis","type":"Landkreis"},"federalState":{"key":"14","name":"Sachsen"}},{"name":"Pflaumenbaumweg","postalCode":"08529","locality":"Plauen","municipality":{"key":"14523320","name":"Plauen, Stadt","type":"Stadt"},"district":{"key":"14523","name":"Vogtlandkreis","type":"Landkreis"},"federalState":{"key":"14","name":"Sachsen"}},{"name":"Pfortenstr.","postalCode":"08527","locality":"Plauen","municipality":{"key":"14523320","name":"Plauen, Stadt","type":"Stadt"},"district":{"key":"14523","name":"Vogtlandkreis","type":"Landkreis"},"federalState":{"key":"14","name":"Sachsen"}},{"name":"Philipp-Vollmer-Str.","postalCode":"08527","locality":"Plauen","municipality":{"key":"14523320","name":"Plauen, Stadt","type":"Stadt"},"district":{"key":"14523","name":"Vogtlandkreis","type":"Landkreis"},"federalState":{"key":"14","name":"Sachsen"}},{"name":"Pietzschebachweg","postalCode":"08525","locality":"Plauen","municipality":{"key":"14523320","name":"Plauen, Stadt","type":"Stadt"},"district":{"key":"14523","name":"Vogtlandkreis","type":"Landkreis"},"federalState":{"key":"14","name":"Sachsen"}},{"name":"Plauener Str.","postalCode":"08525","locality":"Plauen","municipality":{"key":"14523320","name":"Plauen, Stadt","type":"Stadt"},"district":{"key":"14523","name":"Vogtlandkreis","type":"Landkreis"},"federalState":{"key":"14","name":"Sachsen"}},{"name":"Plauener Talstr.","postalCode":"08527","locality":"Plauen","municipality":{"key":"14523320","name":"Plauen, Stadt","type":"Stadt"},"district":{"key":"14523","name":"Vogtlandkreis","type":"Landkreis"},"federalState":{"key":"14","name":"Sachsen"}},{"name":"Plauensche Str.","postalCode":"08547","locality":"Plauen","municipality":{"key":"14523320","name":"Plauen, Stadt","type":"Stadt"},"district":{"key":"14523","name":"Vogtlandkreis","type":"Landkreis"},"federalState":{"key":"14","name":"Sachsen"}},{"name":"Poeppigstr.","postalCode":"08529","locality":"Plauen","municipality":{"key":"14523320","name":"Plauen, Stadt","type":"Stadt"},"district":{"key":"14523","name":"Vogtlandkreis","type":"Landkreis"},"federalState":{"key":"14","name":"Sachsen"}},{"name":"Postplatz","postalCode":"99338","locality":"Plaue","municipality":{"key":"16070043","name":"Plaue, Stadt","type":"Stadt"},"district":{"key":"16070","name":"Ilm-Kreis","type":"Landkreis"},"federalState":{"key":"16","name":"Thüringen"}},{"name":"Raabstr.","postalCode":"08523","locality":"Plauen","municipality":{"key":"14523320","name":"Plauen, Stadt","type":"Stadt"},"district":{"key":"14523","name":"Vogtlandkreis","type":"Landkreis"},"federalState":{"key":"14","name":"Sachsen"}},{"name":"Rädelstr.","postalCode":"08523","locality":"Plauen","municipality":{"key":"14523320","name":"Plauen, Stadt","type":"Stadt"},"district":{"key":"14523","name":"Vogtlandkreis","type":"Landkreis"},"federalState":{"key":"14","name":"Sachsen"}},{"name":"Rähnisstr.","postalCode":"08523","locality":"Plauen","municipality":{"key":"14523320","name":"Plauen, Stadt","type":"Stadt"},"district":{"key":"14523","name":"Vogtlandkreis","type":"Landkreis"},"federalState":{"key":"14","name":"Sachsen"}},{"name":"Rähnisstr.","postalCode":"08525","locality":"Plauen","municipality":{"key":"14523320","name":"Plauen, Stadt","type":"Stadt"},"district":{"key":"14523","name":"Vogtlandkreis","type":"Landkreis"},"federalState":{"key":"14","name":"Sachsen"}},{"name":"Rankestr.","postalCode":"08523","locality":"Plauen","municipality":{"key":"14523320","name":"Plauen, Stadt","type":"Stadt"},"district":{"key":"14523","name":"Vogtlandkreis","type":"Landkreis"},"federalState":{"key":"14","name":"Sachsen"}},{"name":"Raschauer Weg","postalCode":"08527","locality":"Plauen","municipality":{"key":"14523320","name":"Plauen, Stadt","type":"Stadt"},"district":{"key":"14523","name":"Vogtlandkreis","type":"Landkreis"},"federalState":{"key":"14","name":"Sachsen"}},{"name":"Rathenauplatz","postalCode":"08525","locality":"Plauen","municipality":{"key":"14523320","name":"Plauen, Stadt","type":"Stadt"},"district":{"key":"14523","name":"Vogtlandkreis","type":"Landkreis"},"federalState":{"key":"14","name":"Sachsen"}},{"name":"Reichenbacher Str.","postalCode":"08527","locality":"Plauen","municipality":{"key":"14523320","name":"Plauen, Stadt","type":"Stadt"},"district":{"key":"14523","name":"Vogtlandkreis","type":"Landkreis"},"federalState":{"key":"14","name":"Sachsen"}},{"name":"Reichenbacher Str.","postalCode":"08529","locality":"Plauen","municipality":{"key":"14523320","name":"Plauen, Stadt","type":"Stadt"},"district":{"key":"14523","name":"Vogtlandkreis","type":"Landkreis"},"federalState":{"key":"14","name":"Sachsen"}},{"name":"Reichsstr.","postalCode":"08523","locality":"Plauen","municipality":{"key":"14523320","name":"Plauen, Stadt","type":"Stadt"},"district":{"key":"14523","name":"Vogtlandkreis","type":"Landkreis"},"federalState":{"key":"14","name":"Sachsen"}},{"name":"Reinsdorfer Str.","postalCode":"08527","locality":"Plauen","municipality":{"key":"14523320","name":"Plauen, Stadt","type":"Stadt"},"district":{"key":"14523","name":"Vogtlandkreis","type":"Landkreis"},"federalState":{"key":"14","name":"Sachsen"}},{"name":"Reinsfelder Weg","postalCode":"99338","locality":"Plaue","municipality":{"key":"16070043","name":"Plaue, Stadt","type":"Stadt"},"district":{"key":"16070","name":"Ilm-Kreis","type":"Landkreis"},"federalState":{"key":"16","name":"Thüringen"}},{"name":"Reißiger Gewerbering","postalCode":"08525","locality":"Plauen","municipality":{"key":"14523320","name":"Plauen, Stadt","type":"Stadt"},"district":{"key":"14523","name":"Vogtlandkreis","type":"Landkreis"},"federalState":{"key":"14","name":"Sachsen"}},{"name":"Reißiger Str.","postalCode":"08523","locality":"Plauen","municipality":{"key":"14523320","name":"Plauen, Stadt","type":"Stadt"},"district":{"key":"14523","name":"Vogtlandkreis","type":"Landkreis"},"federalState":{"key":"14","name":"Sachsen"}},{"name":"Reißiger Str.","postalCode":"08525","locality":"Plauen","municipality":{"key":"14523320","name":"Plauen, Stadt","type":"Stadt"},"district":{"key":"14523","name":"Vogtlandkreis","type":"Landkreis"},"federalState":{"key":"14","name":"Sachsen"}},{"name":"Reißiger Str.","postalCode":"08547","locality":"Plauen","municipality":{"key":"14523320","name":"Plauen, Stadt","type":"Stadt"},"district":{"key":"14523","name":"Vogtlandkreis","type":"Landkreis"},"federalState":{"key":"14","name":"Sachsen"}},{"name":"Reusaer Str.","postalCode":"08529","locality":"Plauen","municipality":{"key":"14523320","name":"Plauen, Stadt","type":"Stadt"},"district":{"key":"14523","name":"Vogtlandkreis","type":"Landkreis"},"federalState":{"key":"14","name":"Sachsen"}},{"name":"Reusaer Wald","postalCode":"08527","locality":"Plauen","municipality":{"key":"14523320","name":"Plauen, Stadt","type":"Stadt"},"district":{"key":"14523","name":"Vogtlandkreis","type":"Landkreis"},"federalState":{"key":"14","name":"Sachsen"}},{"name":"Reusaer Waldhaus","postalCode":"08529","locality":"Plauen","municipality":{"key":"14523320","name":"Plauen, Stadt","type":"Stadt"},"district":{"key":"14523","name":"Vogtlandkreis","type":"Landkreis"},"federalState":{"key":"14","name":"Sachsen"}},{"name":"Reußenländer Str.","postalCode":"08525","locality":"Plauen","municipality":{"key":"14523320","name":"Plauen, Stadt","type":"Stadt"},"district":{"key":"14523","name":"Vogtlandkreis","type":"Landkreis"},"federalState":{"key":"14","name":"Sachsen"}},{"name":"Ricarda-Huch-Str.","postalCode":"08523","locality":"Plauen","municipality":{"key":"14523320","name":"Plauen, Stadt","type":"Stadt"},"district":{"key":"14523","name":"Vogtlandkreis","type":"Landkreis"},"federalState":{"key":"14","name":"Sachsen"}},{"name":"Ricarda-Huch-Str.","postalCode":"08527","locality":"Plauen","municipality":{"key":"14523320","name":"Plauen, Stadt","type":"Stadt"},"district":{"key":"14523","name":"Vogtlandkreis","type":"Landkreis"},"federalState":{"key":"14","name":"Sachsen"}},{"name":"Richard-Hofmann-Str.","postalCode":"08523","locality":"Plauen","municipality":{"key":"14523320","name":"Plauen, Stadt","type":"Stadt"},"district":{"key":"14523","name":"Vogtlandkreis","type":"Landkreis"},"federalState":{"key":"14","name":"Sachsen"}},{"name":"Richard-Wagner-Platz","postalCode":"08525","locality":"Plauen","municipality":{"key":"14523320","name":"Plauen, Stadt","type":"Stadt"},"district":{"key":"14523","name":"Vogtlandkreis","type":"Landkreis"},"federalState":{"key":"14","name":"Sachsen"}},{"name":"Richard-Wagner-Str.","postalCode":"08547","locality":"Plauen","municipality":{"key":"14523320","name":"Plauen, Stadt","type":"Stadt"},"district":{"key":"14523","name":"Vogtlandkreis","type":"Landkreis"},"federalState":{"key":"14","name":"Sachsen"}},{"name":"Riedelstr.","postalCode":"08523","locality":"Plauen","municipality":{"key":"14523320","name":"Plauen, Stadt","type":"Stadt"},"district":{"key":"14523","name":"Vogtlandkreis","type":"Landkreis"},"federalState":{"key":"14","name":"Sachsen"}},{"name":"Riedelstr.","postalCode":"08547","locality":"Plauen","municipality":{"key":"14523320","name":"Plauen, Stadt","type":"Stadt"},"district":{"key":"14523","name":"Vogtlandkreis","type":"Landkreis"},"federalState":{"key":"14","name":"Sachsen"}},{"name":"Rilkestr.","postalCode":"08525","locality":"Plauen","municipality":{"key":"14523320","name":"Plauen, Stadt","type":"Stadt"},"district":{"key":"14523","name":"Vogtlandkreis","type":"Landkreis"},"federalState":{"key":"14","name":"Sachsen"}},{"name":"Rinnelberg","postalCode":"08527","locality":"Plauen","municipality":{"key":"14523320","name":"Plauen, Stadt","type":"Stadt"},"district":{"key":"14523","name":"Vogtlandkreis","type":"Landkreis"},"federalState":{"key":"14","name":"Sachsen"}},{"name":"Rinnelbergweg","postalCode":"08527","locality":"Plauen","municipality":{"key":"14523320","name":"Plauen, Stadt","type":"Stadt"},"district":{"key":"14523","name":"Vogtlandkreis","type":"Landkreis"},"federalState":{"key":"14","name":"Sachsen"}},{"name":"Rippersroda","postalCode":"99338","locality":"Plaue","municipality":{"key":"16070043","name":"Plaue, Stadt","type":"Stadt"},"district":{"key":"16070","name":"Ilm-Kreis","type":"Landkreis"},"federalState":{"key":"16","name":"Thüringen"}},{"name":"Rittergut","postalCode":"08527","locality":"Plauen","municipality":{"key":"14523320","name":"Plauen, Stadt","type":"Stadt"},"district":{"key":"14523","name":"Vogtlandkreis","type":"Landkreis"},"federalState":{"key":"14","name":"Sachsen"}},{"name":"Robert-Blum-Str.","postalCode":"08523","locality":"Plauen","municipality":{"key":"14523320","name":"Plauen, Stadt","type":"Stadt"},"district":{"key":"14523","name":"Vogtlandkreis","type":"Landkreis"},"federalState":{"key":"14","name":"Sachsen"}},{"name":"Robert-Koch-Str.","postalCode":"08529","locality":"Plauen","municipality":{"key":"14523320","name":"Plauen, Stadt","type":"Stadt"},"district":{"key":"14523","name":"Vogtlandkreis","type":"Landkreis"},"federalState":{"key":"14","name":"Sachsen"}},{"name":"Robert-Koch-Str.","postalCode":"08547","locality":"Plauen","municipality":{"key":"14523320","name":"Plauen, Stadt","type":"Stadt"},"district":{"key":"14523","name":"Vogtlandkreis","type":"Landkreis"},"federalState":{"key":"14","name":"Sachsen"}},{"name":"Robert-Zahn-Weg","postalCode":"08529","locality":"Plauen","municipality":{"key":"14523320","name":"Plauen, Stadt","type":"Stadt"},"district":{"key":"14523","name":"Vogtlandkreis","type":"Landkreis"},"federalState":{"key":"14","name":"Sachsen"}},{"name":"Rohrweg","postalCode":"08547","locality":"Plauen","municipality":{"key":"14523320","name":"Plauen, Stadt","type":"Stadt"},"district":{"key":"14523","name":"Vogtlandkreis","type":"Landkreis"},"federalState":{"key":"14","name":"Sachsen"}},{"name":"Röntgenstr.","postalCode":"08529","locality":"Plauen","municipality":{"key":"14523320","name":"Plauen, Stadt","type":"Stadt"},"district":{"key":"14523","name":"Vogtlandkreis","type":"Landkreis"},"federalState":{"key":"14","name":"Sachsen"}},{"name":"Rosa-Luxemburg-Platz","postalCode":"08523","locality":"Plauen","municipality":{"key":"14523320","name":"Plauen, Stadt","type":"Stadt"},"district":{"key":"14523","name":"Vogtlandkreis","type":"Landkreis"},"federalState":{"key":"14","name":"Sachsen"}},{"name":"Rosengrabenstr.","postalCode":"08525","locality":"Plauen","municipality":{"key":"14523320","name":"Plauen, Stadt","type":"Stadt"},"district":{"key":"14523","name":"Vogtlandkreis","type":"Landkreis"},"federalState":{"key":"14","name":"Sachsen"}},{"name":"Rosenweg","postalCode":"08527","locality":"Plauen","municipality":{"key":"14523320","name":"Plauen, Stadt","type":"Stadt"},"district":{"key":"14523","name":"Vogtlandkreis","type":"Landkreis"},"federalState":{"key":"14","name":"Sachsen"}},{"name":"Rotdornweg","postalCode":"08529","locality":"Plauen","municipality":{"key":"14523320","name":"Plauen, Stadt","type":"Stadt"},"district":{"key":"14523","name":"Vogtlandkreis","type":"Landkreis"},"federalState":{"key":"14","name":"Sachsen"}},{"name":"Röttis","postalCode":"08547","locality":"Plauen","municipality":{"key":"14523320","name":"Plauen, Stadt","type":"Stadt"},"district":{"key":"14523","name":"Vogtlandkreis","type":"Landkreis"},"federalState":{"key":"14","name":"Sachsen"}},{"name":"Röttiser Str.","postalCode":"08547","locality":"Plauen","municipality":{"key":"14523320","name":"Plauen, Stadt","type":"Stadt"},"district":{"key":"14523","name":"Vogtlandkreis","type":"Landkreis"},"federalState":{"key":"14","name":"Sachsen"}},{"name":"Rückertplatz","postalCode":"08525","locality":"Plauen","municipality":{"key":"14523320","name":"Plauen, Stadt","type":"Stadt"},"district":{"key":"14523","name":"Vogtlandkreis","type":"Landkreis"},"federalState":{"key":"14","name":"Sachsen"}},{"name":"Rückertstr.","postalCode":"08525","locality":"Plauen","municipality":{"key":"14523320","name":"Plauen, Stadt","type":"Stadt"},"district":{"key":"14523","name":"Vogtlandkreis","type":"Landkreis"},"federalState":{"key":"14","name":"Sachsen"}},{"name":"Rudolf-Bauer-Str.","postalCode":"08529","locality":"Plauen","municipality":{"key":"14523320","name":"Plauen, Stadt","type":"Stadt"},"district":{"key":"14523","name":"Vogtlandkreis","type":"Landkreis"},"federalState":{"key":"14","name":"Sachsen"}},{"name":"Rudolf-Friedrichs-Ring","postalCode":"08527","locality":"Plauen","municipality":{"key":"14523320","name":"Plauen, Stadt","type":"Stadt"},"district":{"key":"14523","name":"Vogtlandkreis","type":"Landkreis"},"federalState":{"key":"14","name":"Sachsen"}},{"name":"Schäfereiweg","postalCode":"08529","locality":"Plauen","municipality":{"key":"14523320","name":"Plauen, Stadt","type":"Stadt"},"district":{"key":"14523","name":"Vogtlandkreis","type":"Landkreis"},"federalState":{"key":"14","name":"Sachsen"}},{"name":"Schäferwiese","postalCode":"99338","locality":"Plaue","municipality":{"key":"16070043","name":"Plaue, Stadt","type":"Stadt"},"district":{"key":"16070","name":"Ilm-Kreis","type":"Landkreis"},"federalState":{"key":"16","name":"Thüringen"}},{"name":"Schanzenblick","postalCode":"08527","locality":"Plauen","municipality":{"key":"14523320","name":"Plauen, Stadt","type":"Stadt"},"district":{"key":"14523","name":"Vogtlandkreis","type":"Landkreis"},"federalState":{"key":"14","name":"Sachsen"}},{"name":"Scharnhorststr.","postalCode":"08523","locality":"Plauen","municipality":{"key":"14523320","name":"Plauen, Stadt","type":"Stadt"},"district":{"key":"14523","name":"Vogtlandkreis","type":"Landkreis"},"federalState":{"key":"14","name":"Sachsen"}},{"name":"Scheffelstr.","postalCode":"08525","locality":"Plauen","municipality":{"key":"14523320","name":"Plauen, Stadt","type":"Stadt"},"district":{"key":"14523","name":"Vogtlandkreis","type":"Landkreis"},"federalState":{"key":"14","name":"Sachsen"}},{"name":"Schellingstr.","postalCode":"08527","locality":"Plauen","municipality":{"key":"14523320","name":"Plauen, Stadt","type":"Stadt"},"district":{"key":"14523","name":"Vogtlandkreis","type":"Landkreis"},"federalState":{"key":"14","name":"Sachsen"}},{"name":"Schenkendorfstr.","postalCode":"08525","locality":"Plauen","municipality":{"key":"14523320","name":"Plauen, Stadt","type":"Stadt"},"district":{"key":"14523","name":"Vogtlandkreis","type":"Landkreis"},"federalState":{"key":"14","name":"Sachsen"}},{"name":"Schießberg","postalCode":"08523","locality":"Plauen","municipality":{"key":"14523320","name":"Plauen, Stadt","type":"Stadt"},"district":{"key":"14523","name":"Vogtlandkreis","type":"Landkreis"},"federalState":{"key":"14","name":"Sachsen"}},{"name":"Schildstr.","postalCode":"08523","locality":"Plauen","municipality":{"key":"14523320","name":"Plauen, Stadt","type":"Stadt"},"district":{"key":"14523","name":"Vogtlandkreis","type":"Landkreis"},"federalState":{"key":"14","name":"Sachsen"}},{"name":"Schildstr.","postalCode":"08525","locality":"Plauen","municipality":{"key":"14523320","name":"Plauen, Stadt","type":"Stadt"},"district":{"key":"14523","name":"Vogtlandkreis","type":"Landkreis"},"federalState":{"key":"14","name":"Sachsen"}},{"name":"Schillerstr.","postalCode":"08525","locality":"Plauen","municipality":{"key":"14523320","name":"Plauen, Stadt","type":"Stadt"},"district":{"key":"14523","name":"Vogtlandkreis","type":"Landkreis"},"federalState":{"key":"14","name":"Sachsen"}},{"name":"Schlachthofstr.","postalCode":"08525","locality":"Plauen","municipality":{"key":"14523320","name":"Plauen, Stadt","type":"Stadt"},"district":{"key":"14523","name":"Vogtlandkreis","type":"Landkreis"},"federalState":{"key":"14","name":"Sachsen"}},{"name":"Schloditzer Str.","postalCode":"08527","locality":"Plauen","municipality":{"key":"14523320","name":"Plauen, Stadt","type":"Stadt"},"district":{"key":"14523","name":"Vogtlandkreis","type":"Landkreis"},"federalState":{"key":"14","name":"Sachsen"}},{"name":"Schloßacker","postalCode":"08523","locality":"Plauen","municipality":{"key":"14523320","name":"Plauen, Stadt","type":"Stadt"},"district":{"key":"14523","name":"Vogtlandkreis","type":"Landkreis"},"federalState":{"key":"14","name":"Sachsen"}},{"name":"Schloßberg","postalCode":"08523","locality":"Plauen","municipality":{"key":"14523320","name":"Plauen, Stadt","type":"Stadt"},"district":{"key":"14523","name":"Vogtlandkreis","type":"Landkreis"},"federalState":{"key":"14","name":"Sachsen"}},{"name":"Schlössleweg","postalCode":"08541","locality":"Plauen","municipality":{"key":"14523320","name":"Plauen, Stadt","type":"Stadt"},"district":{"key":"14523","name":"Vogtlandkreis","type":"Landkreis"},"federalState":{"key":"14","name":"Sachsen"}},{"name":"Schloßstr.","postalCode":"08523","locality":"Plauen","municipality":{"key":"14523320","name":"Plauen, Stadt","type":"Stadt"},"district":{"key":"14523","name":"Vogtlandkreis","type":"Landkreis"},"federalState":{"key":"14","name":"Sachsen"}},{"name":"Schloßstr.","postalCode":"08547","locality":"Plauen","municipality":{"key":"14523320","name":"Plauen, Stadt","type":"Stadt"},"district":{"key":"14523","name":"Vogtlandkreis","type":"Landkreis"},"federalState":{"key":"14","name":"Sachsen"}},{"name":"Schlossterrassen","postalCode":"08523","locality":"Plauen","municipality":{"key":"14523320","name":"Plauen, Stadt","type":"Stadt"},"district":{"key":"14523","name":"Vogtlandkreis","type":"Landkreis"},"federalState":{"key":"14","name":"Sachsen"}},{"name":"Schmidstr.","postalCode":"08523","locality":"Plauen","municipality":{"key":"14523320","name":"Plauen, Stadt","type":"Stadt"},"district":{"key":"14523","name":"Vogtlandkreis","type":"Landkreis"},"federalState":{"key":"14","name":"Sachsen"}},{"name":"Schminckestr.","postalCode":"08523","locality":"Plauen","municipality":{"key":"14523320","name":"Plauen, Stadt","type":"Stadt"},"district":{"key":"14523","name":"Vogtlandkreis","type":"Landkreis"},"federalState":{"key":"14","name":"Sachsen"}},{"name":"Schneckengrüner Str.","postalCode":"08525","locality":"Plauen","municipality":{"key":"14523320","name":"Plauen, Stadt","type":"Stadt"},"district":{"key":"14523","name":"Vogtlandkreis","type":"Landkreis"},"federalState":{"key":"14","name":"Sachsen"}},{"name":"Schneckengrüner Weg","postalCode":"08527","locality":"Plauen","municipality":{"key":"14523320","name":"Plauen, Stadt","type":"Stadt"},"district":{"key":"14523","name":"Vogtlandkreis","type":"Landkreis"},"federalState":{"key":"14","name":"Sachsen"}},{"name":"Schneckengrüner Weg / \"Panzerstr.\"","postalCode":"08527","locality":"Plauen","municipality":{"key":"14523320","name":"Plauen, Stadt","type":"Stadt"},"district":{"key":"14523","name":"Vogtlandkreis","type":"Landkreis"},"federalState":{"key":"14","name":"Sachsen"}},{"name":"Scholtzestr.","postalCode":"08523","locality":"Plauen","municipality":{"key":"14523320","name":"Plauen, Stadt","type":"Stadt"},"district":{"key":"14523","name":"Vogtlandkreis","type":"Landkreis"},"federalState":{"key":"14","name":"Sachsen"}},{"name":"Schreberstr.","postalCode":"08529","locality":"Plauen","municipality":{"key":"14523320","name":"Plauen, Stadt","type":"Stadt"},"district":{"key":"14523","name":"Vogtlandkreis","type":"Landkreis"},"federalState":{"key":"14","name":"Sachsen"}},{"name":"Schrödelstr.","postalCode":"08529","locality":"Plauen","municipality":{"key":"14523320","name":"Plauen, Stadt","type":"Stadt"},"district":{"key":"14523","name":"Vogtlandkreis","type":"Landkreis"},"federalState":{"key":"14","name":"Sachsen"}},{"name":"Schröderplatz","postalCode":"08523","locality":"Plauen","municipality":{"key":"14523320","name":"Plauen, Stadt","type":"Stadt"},"district":{"key":"14523","name":"Vogtlandkreis","type":"Landkreis"},"federalState":{"key":"14","name":"Sachsen"}},{"name":"Schubertstr.","postalCode":"08525","locality":"Plauen","municipality":{"key":"14523320","name":"Plauen, Stadt","type":"Stadt"},"district":{"key":"14523","name":"Vogtlandkreis","type":"Landkreis"},"federalState":{"key":"14","name":"Sachsen"}},{"name":"Schulberg","postalCode":"08523","locality":"Plauen","municipality":{"key":"14523320","name":"Plauen, Stadt","type":"Stadt"},"district":{"key":"14523","name":"Vogtlandkreis","type":"Landkreis"},"federalState":{"key":"14","name":"Sachsen"}},{"name":"Schulstr.","postalCode":"08527","locality":"Plauen","municipality":{"key":"14523320","name":"Plauen, Stadt","type":"Stadt"},"district":{"key":"14523","name":"Vogtlandkreis","type":"Landkreis"},"federalState":{"key":"14","name":"Sachsen"}},{"name":"Schulstr.","postalCode":"99338","locality":"Plaue","municipality":{"key":"16070043","name":"Plaue, Stadt","type":"Stadt"},"district":{"key":"16070","name":"Ilm-Kreis","type":"Landkreis"},"federalState":{"key":"16","name":"Thüringen"}},{"name":"Schulweg","postalCode":"08527","locality":"Plauen","municipality":{"key":"14523320","name":"Plauen, Stadt","type":"Stadt"},"district":{"key":"14523","name":"Vogtlandkreis","type":"Landkreis"},"federalState":{"key":"14","name":"Sachsen"}},{"name":"Schulweg","postalCode":"08547","locality":"Plauen","municipality":{"key":"14523320","name":"Plauen, Stadt","type":"Stadt"},"district":{"key":"14523","name":"Vogtlandkreis","type":"Landkreis"},"federalState":{"key":"14","name":"Sachsen"}},{"name":"Schulze-Delitzsch-Str.","postalCode":"08527","locality":"Plauen","municipality":{"key":"14523320","name":"Plauen, Stadt","type":"Stadt"},"district":{"key":"14523","name":"Vogtlandkreis","type":"Landkreis"},"federalState":{"key":"14","name":"Sachsen"}},{"name":"Schumannstr.","postalCode":"08525","locality":"Plauen","municipality":{"key":"14523320","name":"Plauen, Stadt","type":"Stadt"},"district":{"key":"14523","name":"Vogtlandkreis","type":"Landkreis"},"federalState":{"key":"14","name":"Sachsen"}},{"name":"Schumannstr.","postalCode":"08547","locality":"Plauen","municipality":{"key":"14523320","name":"Plauen, Stadt","type":"Stadt"},"district":{"key":"14523","name":"Vogtlandkreis","type":"Landkreis"},"federalState":{"key":"14","name":"Sachsen"}},{"name":"Schurigstr.","postalCode":"08523","locality":"Plauen","municipality":{"key":"14523320","name":"Plauen, Stadt","type":"Stadt"},"district":{"key":"14523","name":"Vogtlandkreis","type":"Landkreis"},"federalState":{"key":"14","name":"Sachsen"}},{"name":"Schützenplatz","postalCode":"99338","locality":"Plaue","municipality":{"key":"16070043","name":"Plaue, Stadt","type":"Stadt"},"district":{"key":"16070","name":"Ilm-Kreis","type":"Landkreis"},"federalState":{"key":"16","name":"Thüringen"}},{"name":"Schützenstr.","postalCode":"99338","locality":"Plaue","municipality":{"key":"16070043","name":"Plaue, Stadt","type":"Stadt"},"district":{"key":"16070","name":"Ilm-Kreis","type":"Landkreis"},"federalState":{"key":"16","name":"Thüringen"}},{"name":"Schwalbenweg","postalCode":"08523","locality":"Plauen","municipality":{"key":"14523320","name":"Plauen, Stadt","type":"Stadt"},"district":{"key":"14523","name":"Vogtlandkreis","type":"Landkreis"},"federalState":{"key":"14","name":"Sachsen"}},{"name":"Schwarzer Steg","postalCode":"08527","locality":"Plauen","municipality":{"key":"14523320","name":"Plauen, Stadt","type":"Stadt"},"district":{"key":"14523","name":"Vogtlandkreis","type":"Landkreis"},"federalState":{"key":"14","name":"Sachsen"}},{"name":"Seestr.","postalCode":"08523","locality":"Plauen","municipality":{"key":"14523320","name":"Plauen, Stadt","type":"Stadt"},"district":{"key":"14523","name":"Vogtlandkreis","type":"Landkreis"},"federalState":{"key":"14","name":"Sachsen"}},{"name":"Seminarstr.","postalCode":"08523","locality":"Plauen","municipality":{"key":"14523320","name":"Plauen, Stadt","type":"Stadt"},"district":{"key":"14523","name":"Vogtlandkreis","type":"Landkreis"},"federalState":{"key":"14","name":"Sachsen"}},{"name":"Semmelweisstr.","postalCode":"08529","locality":"Plauen","municipality":{"key":"14523320","name":"Plauen, Stadt","type":"Stadt"},"district":{"key":"14523","name":"Vogtlandkreis","type":"Landkreis"},"federalState":{"key":"14","name":"Sachsen"}},{"name":"Senefelderstr.","postalCode":"08523","locality":"Plauen","municipality":{"key":"14523320","name":"Plauen, Stadt","type":"Stadt"},"district":{"key":"14523","name":"Vogtlandkreis","type":"Landkreis"},"federalState":{"key":"14","name":"Sachsen"}},{"name":"Seumestr.","postalCode":"08525","locality":"Plauen","municipality":{"key":"14523320","name":"Plauen, Stadt","type":"Stadt"},"district":{"key":"14523","name":"Vogtlandkreis","type":"Landkreis"},"federalState":{"key":"14","name":"Sachsen"}},{"name":"Seumestr.","postalCode":"08547","locality":"Plauen","municipality":{"key":"14523320","name":"Plauen, Stadt","type":"Stadt"},"district":{"key":"14523","name":"Vogtlandkreis","type":"Landkreis"},"federalState":{"key":"14","name":"Sachsen"}},{"name":"Siedlerstr.","postalCode":"08525","locality":"Plauen","municipality":{"key":"14523320","name":"Plauen, Stadt","type":"Stadt"},"district":{"key":"14523","name":"Vogtlandkreis","type":"Landkreis"},"federalState":{"key":"14","name":"Sachsen"}},{"name":"Siedlerweg","postalCode":"08525","locality":"Plauen","municipality":{"key":"14523320","name":"Plauen, Stadt","type":"Stadt"},"district":{"key":"14523","name":"Vogtlandkreis","type":"Landkreis"},"federalState":{"key":"14","name":"Sachsen"}},{"name":"Talstr.","postalCode":"08525","locality":"Plauen","municipality":{"key":"14523320","name":"Plauen, Stadt","type":"Stadt"},"district":{"key":"14523","name":"Vogtlandkreis","type":"Landkreis"},"federalState":{"key":"14","name":"Sachsen"}},{"name":"Talstr.","postalCode":"08547","locality":"Plauen","municipality":{"key":"14523320","name":"Plauen, Stadt","type":"Stadt"},"district":{"key":"14523","name":"Vogtlandkreis","type":"Landkreis"},"federalState":{"key":"14","name":"Sachsen"}},{"name":"Taltitzer Str.","postalCode":"08527","locality":"Plauen","municipality":{"key":"14523320","name":"Plauen, Stadt","type":"Stadt"},"district":{"key":"14523","name":"Vogtlandkreis","type":"Landkreis"},"federalState":{"key":"14","name":"Sachsen"}},{"name":"Taltitzer Weg","postalCode":"08527","locality":"Plauen","municipality":{"key":"14523320","name":"Plauen, Stadt","type":"Stadt"},"district":{"key":"14523","name":"Vogtlandkreis","type":"Landkreis"},"federalState":{"key":"14","name":"Sachsen"}},{"name":"Tannenhof","postalCode":"08525","locality":"Plauen","municipality":{"key":"14523320","name":"Plauen, Stadt","type":"Stadt"},"district":{"key":"14523","name":"Vogtlandkreis","type":"Landkreis"},"federalState":{"key":"14","name":"Sachsen"}},{"name":"Tannenhof","postalCode":"08547","locality":"Plauen","municipality":{"key":"14523320","name":"Plauen, Stadt","type":"Stadt"},"district":{"key":"14523","name":"Vogtlandkreis","type":"Landkreis"},"federalState":{"key":"14","name":"Sachsen"}},{"name":"Tauschwitz","postalCode":"08527","locality":"Plauen","municipality":{"key":"14523320","name":"Plauen, Stadt","type":"Stadt"},"district":{"key":"14523","name":"Vogtlandkreis","type":"Landkreis"},"federalState":{"key":"14","name":"Sachsen"}},{"name":"Tauschwitzer Str.","postalCode":"08529","locality":"Plauen","municipality":{"key":"14523320","name":"Plauen, Stadt","type":"Stadt"},"district":{"key":"14523","name":"Vogtlandkreis","type":"Landkreis"},"federalState":{"key":"14","name":"Sachsen"}},{"name":"Teichdamm","postalCode":"08527","locality":"Plauen","municipality":{"key":"14523320","name":"Plauen, Stadt","type":"Stadt"},"district":{"key":"14523","name":"Vogtlandkreis","type":"Landkreis"},"federalState":{"key":"14","name":"Sachsen"}},{"name":"Teichgasse","postalCode":"08523","locality":"Plauen","municipality":{"key":"14523320","name":"Plauen, Stadt","type":"Stadt"},"district":{"key":"14523","name":"Vogtlandkreis","type":"Landkreis"},"federalState":{"key":"14","name":"Sachsen"}},{"name":"Teichstr.","postalCode":"08523","locality":"Plauen","municipality":{"key":"14523320","name":"Plauen, Stadt","type":"Stadt"},"district":{"key":"14523","name":"Vogtlandkreis","type":"Landkreis"},"federalState":{"key":"14","name":"Sachsen"}},{"name":"Teichstr.","postalCode":"08527","locality":"Plauen","municipality":{"key":"14523320","name":"Plauen, Stadt","type":"Stadt"},"district":{"key":"14523","name":"Vogtlandkreis","type":"Landkreis"},"federalState":{"key":"14","name":"Sachsen"}},{"name":"Tennera","postalCode":"08525","locality":"Plauen","municipality":{"key":"14523320","name":"Plauen, Stadt","type":"Stadt"},"district":{"key":"14523","name":"Vogtlandkreis","type":"Landkreis"},"federalState":{"key":"14","name":"Sachsen"}},{"name":"Theaterstr.","postalCode":"08523","locality":"Plauen","municipality":{"key":"14523320","name":"Plauen, Stadt","type":"Stadt"},"district":{"key":"14523","name":"Vogtlandkreis","type":"Landkreis"},"federalState":{"key":"14","name":"Sachsen"}},{"name":"Theumaer Str.","postalCode":"08529","locality":"Plauen","municipality":{"key":"14523320","name":"Plauen, Stadt","type":"Stadt"},"district":{"key":"14523","name":"Vogtlandkreis","type":"Landkreis"},"federalState":{"key":"14","name":"Sachsen"}},{"name":"Theumaer Weg","postalCode":"08541","locality":"Plauen","municipality":{"key":"14523320","name":"Plauen, Stadt","type":"Stadt"},"district":{"key":"14523","name":"Vogtlandkreis","type":"Landkreis"},"federalState":{"key":"14","name":"Sachsen"}},{"name":"Thiergartner Str.","postalCode":"08527","locality":"Plauen","municipality":{"key":"14523320","name":"Plauen, Stadt","type":"Stadt"},"district":{"key":"14523","name":"Vogtlandkreis","type":"Landkreis"},"federalState":{"key":"14","name":"Sachsen"}},{"name":"Thiergartner Weg","postalCode":"08527","locality":"Plauen","municipality":{"key":"14523320","name":"Plauen, Stadt","type":"Stadt"},"district":{"key":"14523","name":"Vogtlandkreis","type":"Landkreis"},"federalState":{"key":"14","name":"Sachsen"}},{"name":"Thomas-Mann-Str.","postalCode":"08523","locality":"Plauen","municipality":{"key":"14523320","name":"Plauen, Stadt","type":"Stadt"},"district":{"key":"14523","name":"Vogtlandkreis","type":"Landkreis"},"federalState":{"key":"14","name":"Sachsen"}},{"name":"Thüringer Str.","postalCode":"08525","locality":"Plauen","municipality":{"key":"14523320","name":"Plauen, Stadt","type":"Stadt"},"district":{"key":"14523","name":"Vogtlandkreis","type":"Landkreis"},"federalState":{"key":"14","name":"Sachsen"}},{"name":"Tischendorfstr.","postalCode":"08523","locality":"Plauen","municipality":{"key":"14523320","name":"Plauen, Stadt","type":"Stadt"},"district":{"key":"14523","name":"Vogtlandkreis","type":"Landkreis"},"federalState":{"key":"14","name":"Sachsen"}},{"name":"Tischerstr.","postalCode":"08523","locality":"Plauen","municipality":{"key":"14523320","name":"Plauen, Stadt","type":"Stadt"},"district":{"key":"14523","name":"Vogtlandkreis","type":"Landkreis"},"federalState":{"key":"14","name":"Sachsen"}},{"name":"Tischerstr.","postalCode":"08525","locality":"Plauen","municipality":{"key":"14523320","name":"Plauen, Stadt","type":"Stadt"},"district":{"key":"14523","name":"Vogtlandkreis","type":"Landkreis"},"federalState":{"key":"14","name":"Sachsen"}},{"name":"Topfmarkt","postalCode":"08523","locality":"Plauen","municipality":{"key":"14523320","name":"Plauen, Stadt","type":"Stadt"},"district":{"key":"14523","name":"Vogtlandkreis","type":"Landkreis"},"federalState":{"key":"14","name":"Sachsen"}},{"name":"Treppensteig","postalCode":"08547","locality":"Plauen","municipality":{"key":"14523320","name":"Plauen, Stadt","type":"Stadt"},"district":{"key":"14523","name":"Vogtlandkreis","type":"Landkreis"},"federalState":{"key":"14","name":"Sachsen"}},{"name":"Treppe(Stauffenb.-Wildstr.)","postalCode":"08523","locality":"Plauen","municipality":{"key":"14523320","name":"Plauen, Stadt","type":"Stadt"},"district":{"key":"14523","name":"Vogtlandkreis","type":"Landkreis"},"federalState":{"key":"14","name":"Sachsen"}},{"name":"Trockentalstr.","postalCode":"08523","locality":"Plauen","municipality":{"key":"14523320","name":"Plauen, Stadt","type":"Stadt"},"district":{"key":"14523","name":"Vogtlandkreis","type":"Landkreis"},"federalState":{"key":"14","name":"Sachsen"}},{"name":"Trockentalstr.","postalCode":"08527","locality":"Plauen","municipality":{"key":"14523320","name":"Plauen, Stadt","type":"Stadt"},"district":{"key":"14523","name":"Vogtlandkreis","type":"Landkreis"},"federalState":{"key":"14","name":"Sachsen"}},{"name":"Trögerstr.","postalCode":"08527","locality":"Plauen","municipality":{"key":"14523320","name":"Plauen, Stadt","type":"Stadt"},"district":{"key":"14523","name":"Vogtlandkreis","type":"Landkreis"},"federalState":{"key":"14","name":"Sachsen"}},{"name":"Trögertreppe","postalCode":"08527","locality":"Plauen","municipality":{"key":"14523320","name":"Plauen, Stadt","type":"Stadt"},"district":{"key":"14523","name":"Vogtlandkreis","type":"Landkreis"},"federalState":{"key":"14","name":"Sachsen"}},{"name":"Trützschlerstr.","postalCode":"08527","locality":"Plauen","municipality":{"key":"14523320","name":"Plauen, Stadt","type":"Stadt"},"district":{"key":"14523","name":"Vogtlandkreis","type":"Landkreis"},"federalState":{"key":"14","name":"Sachsen"}},{"name":"Turnhallenweg","postalCode":"08527","locality":"Plauen","municipality":{"key":"14523320","name":"Plauen, Stadt","type":"Stadt"},"district":{"key":"14523","name":"Vogtlandkreis","type":"Landkreis"},"federalState":{"key":"14","name":"Sachsen"}},{"name":"Uferstr.","postalCode":"08527","locality":"Plauen","municipality":{"key":"14523320","name":"Plauen, Stadt","type":"Stadt"},"district":{"key":"14523","name":"Vogtlandkreis","type":"Landkreis"},"federalState":{"key":"14","name":"Sachsen"}},{"name":"Uferstr.","postalCode":"99338","locality":"Plaue","municipality":{"key":"16070043","name":"Plaue, Stadt","type":"Stadt"},"district":{"key":"16070","name":"Ilm-Kreis","type":"Landkreis"},"federalState":{"key":"16","name":"Thüringen"}},{"name":"Uferweg","postalCode":"08527","locality":"Plauen","municipality":{"key":"14523320","name":"Plauen, Stadt","type":"Stadt"},"district":{"key":"14523","name":"Vogtlandkreis","type":"Landkreis"},"federalState":{"key":"14","name":"Sachsen"}},{"name":"Uhlandstr.","postalCode":"08525","locality":"Plauen","municipality":{"key":"14523320","name":"Plauen, Stadt","type":"Stadt"},"district":{"key":"14523","name":"Vogtlandkreis","type":"Landkreis"},"federalState":{"key":"14","name":"Sachsen"}},{"name":"Ulrich-Otto-Str.","postalCode":"08523","locality":"Plauen","municipality":{"key":"14523320","name":"Plauen, Stadt","type":"Stadt"},"district":{"key":"14523","name":"Vogtlandkreis","type":"Landkreis"},"federalState":{"key":"14","name":"Sachsen"}},{"name":"Um die Teiche","postalCode":"08527","locality":"Plauen","municipality":{"key":"14523320","name":"Plauen, Stadt","type":"Stadt"},"district":{"key":"14523","name":"Vogtlandkreis","type":"Landkreis"},"federalState":{"key":"14","name":"Sachsen"}},{"name":"Untere Endestr.","postalCode":"08523","locality":"Plauen","municipality":{"key":"14523320","name":"Plauen, Stadt","type":"Stadt"},"district":{"key":"14523","name":"Vogtlandkreis","type":"Landkreis"},"federalState":{"key":"14","name":"Sachsen"}},{"name":"Unterer Mühlweg","postalCode":"08525","locality":"Plauen","municipality":{"key":"14523320","name":"Plauen, Stadt","type":"Stadt"},"district":{"key":"14523","name":"Vogtlandkreis","type":"Landkreis"},"federalState":{"key":"14","name":"Sachsen"}},{"name":"Unterer Steinweg","postalCode":"08523","locality":"Plauen","municipality":{"key":"14523320","name":"Plauen, Stadt","type":"Stadt"},"district":{"key":"14523","name":"Vogtlandkreis","type":"Landkreis"},"federalState":{"key":"14","name":"Sachsen"}},{"name":"Unterer Tränkegarten","postalCode":"99338","locality":"Plaue","municipality":{"key":"16070043","name":"Plaue, Stadt","type":"Stadt"},"district":{"key":"16070","name":"Ilm-Kreis","type":"Landkreis"},"federalState":{"key":"16","name":"Thüringen"}},{"name":"Unterlosaer Str.","postalCode":"08527","locality":"Plauen","municipality":{"key":"14523320","name":"Plauen, Stadt","type":"Stadt"},"district":{"key":"14523","name":"Vogtlandkreis","type":"Landkreis"},"federalState":{"key":"14","name":"Sachsen"}},{"name":"Untermarxgrüner Str.","postalCode":"08527","locality":"Plauen","municipality":{"key":"14523320","name":"Plauen, Stadt","type":"Stadt"},"district":{"key":"14523","name":"Vogtlandkreis","type":"Landkreis"},"federalState":{"key":"14","name":"Sachsen"}},{"name":"Unterm Felsenschlößchen","postalCode":"08527","locality":"Plauen","municipality":{"key":"14523320","name":"Plauen, Stadt","type":"Stadt"},"district":{"key":"14523","name":"Vogtlandkreis","type":"Landkreis"},"federalState":{"key":"14","name":"Sachsen"}},{"name":"Urlaubsweg","postalCode":"08547","locality":"Plauen","municipality":{"key":"14523320","name":"Plauen, Stadt","type":"Stadt"},"district":{"key":"14523","name":"Vogtlandkreis","type":"Landkreis"},"federalState":{"key":"14","name":"Sachsen"}},{"name":"Vettersstr.","postalCode":"08523","locality":"Plauen","municipality":{"key":"14523320","name":"Plauen, Stadt","type":"Stadt"},"district":{"key":"14523","name":"Vogtlandkreis","type":"Landkreis"},"federalState":{"key":"14","name":"Sachsen"}},{"name":"Virchowstr.","postalCode":"08529","locality":"Plauen","municipality":{"key":"14523320","name":"Plauen, Stadt","type":"Stadt"},"district":{"key":"14523","name":"Vogtlandkreis","type":"Landkreis"},"federalState":{"key":"14","name":"Sachsen"}},{"name":"Voigtsgrüner Str.","postalCode":"08529","locality":"Plauen","municipality":{"key":"14523320","name":"Plauen, Stadt","type":"Stadt"},"district":{"key":"14523","name":"Vogtlandkreis","type":"Landkreis"},"federalState":{"key":"14","name":"Sachsen"}},{"name":"Voigtsgrüner Weg","postalCode":"08529","locality":"Plauen","municipality":{"key":"14523320","name":"Plauen, Stadt","type":"Stadt"},"district":{"key":"14523","name":"Vogtlandkreis","type":"Landkreis"},"federalState":{"key":"14","name":"Sachsen"}},{"name":"Vom-Stein-Str.","postalCode":"08523","locality":"Plauen","municipality":{"key":"14523320","name":"Plauen, Stadt","type":"Stadt"},"district":{"key":"14523","name":"Vogtlandkreis","type":"Landkreis"},"federalState":{"key":"14","name":"Sachsen"}},{"name":"Vordere Gellertstr.","postalCode":"08525","locality":"Plauen","municipality":{"key":"14523320","name":"Plauen, Stadt","type":"Stadt"},"district":{"key":"14523","name":"Vogtlandkreis","type":"Landkreis"},"federalState":{"key":"14","name":"Sachsen"}},{"name":"Voßstr.","postalCode":"08525","locality":"Plauen","municipality":{"key":"14523320","name":"Plauen, Stadt","type":"Stadt"},"district":{"key":"14523","name":"Vogtlandkreis","type":"Landkreis"},"federalState":{"key":"14","name":"Sachsen"}},{"name":"Wagnerstr.","postalCode":"08523","locality":"Plauen","municipality":{"key":"14523320","name":"Plauen, Stadt","type":"Stadt"},"district":{"key":"14523","name":"Vogtlandkreis","type":"Landkreis"},"federalState":{"key":"14","name":"Sachsen"}},{"name":"Waldgrün","postalCode":"08525","locality":"Plauen","municipality":{"key":"14523320","name":"Plauen, Stadt","type":"Stadt"},"district":{"key":"14523","name":"Vogtlandkreis","type":"Landkreis"},"federalState":{"key":"14","name":"Sachsen"}},{"name":"Waldlehrpfad","postalCode":"08525","locality":"Plauen","municipality":{"key":"14523320","name":"Plauen, Stadt","type":"Stadt"},"district":{"key":"14523","name":"Vogtlandkreis","type":"Landkreis"},"federalState":{"key":"14","name":"Sachsen"}},{"name":"Waldlehrpfad","postalCode":"08547","locality":"Plauen","municipality":{"key":"14523320","name":"Plauen, Stadt","type":"Stadt"},"district":{"key":"14523","name":"Vogtlandkreis","type":"Landkreis"},"federalState":{"key":"14","name":"Sachsen"}},{"name":"Waldsiedlung","postalCode":"08525","locality":"Plauen","municipality":{"key":"14523320","name":"Plauen, Stadt","type":"Stadt"},"district":{"key":"14523","name":"Vogtlandkreis","type":"Landkreis"},"federalState":{"key":"14","name":"Sachsen"}},{"name":"Waldstr.","postalCode":"08527","locality":"Plauen","municipality":{"key":"14523320","name":"Plauen, Stadt","type":"Stadt"},"district":{"key":"14523","name":"Vogtlandkreis","type":"Landkreis"},"federalState":{"key":"14","name":"Sachsen"}},{"name":"Waldweg","postalCode":"08525","locality":"Plauen","municipality":{"key":"14523320","name":"Plauen, Stadt","type":"Stadt"},"district":{"key":"14523","name":"Vogtlandkreis","type":"Landkreis"},"federalState":{"key":"14","name":"Sachsen"}},{"name":"Waldweg","postalCode":"08527","locality":"Plauen","municipality":{"key":"14523320","name":"Plauen, Stadt","type":"Stadt"},"district":{"key":"14523","name":"Vogtlandkreis","type":"Landkreis"},"federalState":{"key":"14","name":"Sachsen"}},{"name":"Walter-Löbering-Str.","postalCode":"08547","locality":"Plauen","municipality":{"key":"14523320","name":"Plauen, Stadt","type":"Stadt"},"district":{"key":"14523","name":"Vogtlandkreis","type":"Landkreis"},"federalState":{"key":"14","name":"Sachsen"}},{"name":"Wartbergsiedlung","postalCode":"08527","locality":"Plauen","municipality":{"key":"14523320","name":"Plauen, Stadt","type":"Stadt"},"district":{"key":"14523","name":"Vogtlandkreis","type":"Landkreis"},"federalState":{"key":"14","name":"Sachsen"}},{"name":"Wartburgplatz","postalCode":"08525","locality":"Plauen","municipality":{"key":"14523320","name":"Plauen, Stadt","type":"Stadt"},"district":{"key":"14523","name":"Vogtlandkreis","type":"Landkreis"},"federalState":{"key":"14","name":"Sachsen"}},{"name":"Wartburgstr.","postalCode":"08525","locality":"Plauen","municipality":{"key":"14523320","name":"Plauen, Stadt","type":"Stadt"},"district":{"key":"14523","name":"Vogtlandkreis","type":"Landkreis"},"federalState":{"key":"14","name":"Sachsen"}},{"name":"Weg ins Grüne","postalCode":"08527","locality":"Plauen","municipality":{"key":"14523320","name":"Plauen, Stadt","type":"Stadt"},"district":{"key":"14523","name":"Vogtlandkreis","type":"Landkreis"},"federalState":{"key":"14","name":"Sachsen"}},{"name":"Weg zur Linde","postalCode":"08527","locality":"Plauen","municipality":{"key":"14523320","name":"Plauen, Stadt","type":"Stadt"},"district":{"key":"14523","name":"Vogtlandkreis","type":"Landkreis"},"federalState":{"key":"14","name":"Sachsen"}},{"name":"Weidig","postalCode":"99338","locality":"Plaue","municipality":{"key":"16070043","name":"Plaue, Stadt","type":"Stadt"},"district":{"key":"16070","name":"Ilm-Kreis","type":"Landkreis"},"federalState":{"key":"16","name":"Thüringen"}},{"name":"Weischlitzer Str.","postalCode":"08527","locality":"Plauen","municipality":{"key":"14523320","name":"Plauen, Stadt","type":"Stadt"},"district":{"key":"14523","name":"Vogtlandkreis","type":"Landkreis"},"federalState":{"key":"14","name":"Sachsen"}},{"name":"Weisestr.","postalCode":"08523","locality":"Plauen","municipality":{"key":"14523320","name":"Plauen, Stadt","type":"Stadt"},"district":{"key":"14523","name":"Vogtlandkreis","type":"Landkreis"},"federalState":{"key":"14","name":"Sachsen"}},{"name":"Weißbornbrücke","postalCode":"99338","locality":"Plaue","municipality":{"key":"16070043","name":"Plaue, Stadt","type":"Stadt"},"district":{"key":"16070","name":"Ilm-Kreis","type":"Landkreis"},"federalState":{"key":"16","name":"Thüringen"}},{"name":"Weißdornweg","postalCode":"08529","locality":"Plauen","municipality":{"key":"14523320","name":"Plauen, Stadt","type":"Stadt"},"district":{"key":"14523","name":"Vogtlandkreis","type":"Landkreis"},"federalState":{"key":"14","name":"Sachsen"}},{"name":"Weststr.","postalCode":"08523","locality":"Plauen","municipality":{"key":"14523320","name":"Plauen, Stadt","type":"Stadt"},"district":{"key":"14523","name":"Vogtlandkreis","type":"Landkreis"},"federalState":{"key":"14","name":"Sachsen"}},{"name":"Wettinstr.","postalCode":"08525","locality":"Plauen","municipality":{"key":"14523320","name":"Plauen, Stadt","type":"Stadt"},"district":{"key":"14523","name":"Vogtlandkreis","type":"Landkreis"},"federalState":{"key":"14","name":"Sachsen"}},{"name":"Wielandstr.","postalCode":"08525","locality":"Plauen","municipality":{"key":"14523320","name":"Plauen, Stadt","type":"Stadt"},"district":{"key":"14523","name":"Vogtlandkreis","type":"Landkreis"},"federalState":{"key":"14","name":"Sachsen"}},{"name":"Wieprechtstr.","postalCode":"08525","locality":"Plauen","municipality":{"key":"14523320","name":"Plauen, Stadt","type":"Stadt"},"district":{"key":"14523","name":"Vogtlandkreis","type":"Landkreis"},"federalState":{"key":"14","name":"Sachsen"}},{"name":"Wiesenstr.","postalCode":"08527","locality":"Plauen","municipality":{"key":"14523320","name":"Plauen, Stadt","type":"Stadt"},"district":{"key":"14523","name":"Vogtlandkreis","type":"Landkreis"},"federalState":{"key":"14","name":"Sachsen"}},{"name":"Wildstr.","postalCode":"08523","locality":"Plauen","municipality":{"key":"14523320","name":"Plauen, Stadt","type":"Stadt"},"district":{"key":"14523","name":"Vogtlandkreis","type":"Landkreis"},"federalState":{"key":"14","name":"Sachsen"}},{"name":"Wilhelm-Goette-Str.","postalCode":"08529","locality":"Plauen","municipality":{"key":"14523320","name":"Plauen, Stadt","type":"Stadt"},"district":{"key":"14523","name":"Vogtlandkreis","type":"Landkreis"},"federalState":{"key":"14","name":"Sachsen"}},{"name":"Wilhelm-Külz-Str.","postalCode":"08547","locality":"Plauen","municipality":{"key":"14523320","name":"Plauen, Stadt","type":"Stadt"},"district":{"key":"14523","name":"Vogtlandkreis","type":"Landkreis"},"federalState":{"key":"14","name":"Sachsen"}},{"name":"Willy-Brandt-Str.","postalCode":"08529","locality":"Plauen","municipality":{"key":"14523320","name":"Plauen, Stadt","type":"Stadt"},"district":{"key":"14523","name":"Vogtlandkreis","type":"Landkreis"},"federalState":{"key":"14","name":"Sachsen"}},{"name":"Windberg","postalCode":"08541","locality":"Plauen","municipality":{"key":"14523320","name":"Plauen, Stadt","type":"Stadt"},"district":{"key":"14523","name":"Vogtlandkreis","type":"Landkreis"},"federalState":{"key":"14","name":"Sachsen"}},{"name":"Windbergweg","postalCode":"08541","locality":"Plauen","municipality":{"key":"14523320","name":"Plauen, Stadt","type":"Stadt"},"district":{"key":"14523","name":"Vogtlandkreis","type":"Landkreis"},"federalState":{"key":"14","name":"Sachsen"}},{"name":"Windmühlenstr.","postalCode":"08523","locality":"Plauen","municipality":{"key":"14523320","name":"Plauen, Stadt","type":"Stadt"},"district":{"key":"14523","name":"Vogtlandkreis","type":"Landkreis"},"federalState":{"key":"14","name":"Sachsen"}},{"name":"Windmühlenweg","postalCode":"08523","locality":"Plauen","municipality":{"key":"14523320","name":"Plauen, Stadt","type":"Stadt"},"district":{"key":"14523","name":"Vogtlandkreis","type":"Landkreis"},"federalState":{"key":"14","name":"Sachsen"}},{"name":"Windmühlenweg","postalCode":"08527","locality":"Plauen","municipality":{"key":"14523320","name":"Plauen, Stadt","type":"Stadt"},"district":{"key":"14523","name":"Vogtlandkreis","type":"Landkreis"},"federalState":{"key":"14","name":"Sachsen"}},{"name":"Wolfsbergweg","postalCode":"08525","locality":"Plauen","municipality":{"key":"14523320","name":"Plauen, Stadt","type":"Stadt"},"district":{"key":"14523","name":"Vogtlandkreis","type":"Landkreis"},"federalState":{"key":"14","name":"Sachsen"}},{"name":"WW","postalCode":"08547","locality":"Plauen","municipality":{"key":"14523320","name":"Plauen, Stadt","type":"Stadt"},"district":{"key":"14523","name":"Vogtlandkreis","type":"Landkreis"},"federalState":{"key":"14","name":"Sachsen"}},{"name":"Yorckstr.","postalCode":"08523","locality":"Plauen","municipality":{"key":"14523320","name":"Plauen, Stadt","type":"Stadt"},"district":{"key":"14523","name":"Vogtlandkreis","type":"Landkreis"},"federalState":{"key":"14","name":"Sachsen"}},{"name":"Zaderastr.","postalCode":"08523","locality":"Plauen","municipality":{"key":"14523320","name":"Plauen, Stadt","type":"Stadt"},"district":{"key":"14523","name":"Vogtlandkreis","type":"Landkreis"},"federalState":{"key":"14","name":"Sachsen"}},{"name":"Zaderastr.","postalCode":"08527","locality":"Plauen","municipality":{"key":"14523320","name":"Plauen, Stadt","type":"Stadt"},"district":{"key":"14523","name":"Vogtlandkreis","type":"Landkreis"},"federalState":{"key":"14","name":"Sachsen"}},{"name":"Zangler","postalCode":"08527","locality":"Plauen","municipality":{"key":"14523320","name":"Plauen, Stadt","type":"Stadt"},"district":{"key":"14523","name":"Vogtlandkreis","type":"Landkreis"},"federalState":{"key":"14","name":"Sachsen"}},{"name":"Ziegelstr.","postalCode":"08523","locality":"Plauen","municipality":{"key":"14523320","name":"Plauen, Stadt","type":"Stadt"},"district":{"key":"14523","name":"Vogtlandkreis","type":"Landkreis"},"federalState":{"key":"14","name":"Sachsen"}},{"name":"Zillestr.","postalCode":"08525","locality":"Plauen","municipality":{"key":"14523320","name":"Plauen, Stadt","type":"Stadt"},"district":{"key":"14523","name":"Vogtlandkreis","type":"Landkreis"},"federalState":{"key":"14","name":"Sachsen"}},{"name":"Zilleweg","postalCode":"08547","locality":"Plauen","municipality":{"key":"14523320","name":"Plauen, Stadt","type":"Stadt"},"district":{"key":"14523","name":"Vogtlandkreis","type":"Landkreis"},"federalState":{"key":"14","name":"Sachsen"}},{"name":"Zimmertal","postalCode":"99338","locality":"Plaue","municipality":{"key":"16070043","name":"Plaue, Stadt","type":"Stadt"},"district":{"key":"16070","name":"Ilm-Kreis","type":"Landkreis"},"federalState":{"key":"16","name":"Thüringen"}},{"name":"Zolaweg","postalCode":"08529","locality":"Plauen","municipality":{"key":"14523320","name":"Plauen, Stadt","type":"Stadt"},"district":{"key":"14523","name":"Vogtlandkreis","type":"Landkreis"},"federalState":{"key":"14","name":"Sachsen"}},{"name":"Zottnerweg","postalCode":"08527","locality":"Plauen","municipality":{"key":"14523320","name":"Plauen, Stadt","type":"Stadt"},"district":{"key":"14523","name":"Vogtlandkreis","type":"Landkreis"},"federalState":{"key":"14","name":"Sachsen"}},{"name":"Zu den Lärchen","postalCode":"08547","locality":"Plauen","municipality":{"key":"14523320","name":"Plauen, Stadt","type":"Stadt"},"district":{"key":"14523","name":"Vogtlandkreis","type":"Landkreis"},"federalState":{"key":"14","name":"Sachsen"}},{"name":"Zum Buchenberg","postalCode":"08527","locality":"Plauen","municipality":{"key":"14523320","name":"Plauen, Stadt","type":"Stadt"},"district":{"key":"14523","name":"Vogtlandkreis","type":"Landkreis"},"federalState":{"key":"14","name":"Sachsen"}},{"name":"Zum Burgstättel","postalCode":"08527","locality":"Plauen","municipality":{"key":"14523320","name":"Plauen, Stadt","type":"Stadt"},"district":{"key":"14523","name":"Vogtlandkreis","type":"Landkreis"},"federalState":{"key":"14","name":"Sachsen"}},{"name":"Zum Burgteich","postalCode":"08527","locality":"Plauen","municipality":{"key":"14523320","name":"Plauen, Stadt","type":"Stadt"},"district":{"key":"14523","name":"Vogtlandkreis","type":"Landkreis"},"federalState":{"key":"14","name":"Sachsen"}},{"name":"Zum Friedhof","postalCode":"08547","locality":"Plauen","municipality":{"key":"14523320","name":"Plauen, Stadt","type":"Stadt"},"district":{"key":"14523","name":"Vogtlandkreis","type":"Landkreis"},"federalState":{"key":"14","name":"Sachsen"}},{"name":"Zum Friesental","postalCode":"08529","locality":"Plauen","municipality":{"key":"14523320","name":"Plauen, Stadt","type":"Stadt"},"district":{"key":"14523","name":"Vogtlandkreis","type":"Landkreis"},"federalState":{"key":"14","name":"Sachsen"}},{"name":"Zum Kalten Frosch","postalCode":"08541","locality":"Plauen","municipality":{"key":"14523320","name":"Plauen, Stadt","type":"Stadt"},"district":{"key":"14523","name":"Vogtlandkreis","type":"Landkreis"},"federalState":{"key":"14","name":"Sachsen"}},{"name":"Zum Plattenteich","postalCode":"08525","locality":"Plauen","municipality":{"key":"14523320","name":"Plauen, Stadt","type":"Stadt"},"district":{"key":"14523","name":"Vogtlandkreis","type":"Landkreis"},"federalState":{"key":"14","name":"Sachsen"}},{"name":"Zum Plom","postalCode":"08529","locality":"Plauen","municipality":{"key":"14523320","name":"Plauen, Stadt","type":"Stadt"},"district":{"key":"14523","name":"Vogtlandkreis","type":"Landkreis"},"federalState":{"key":"14","name":"Sachsen"}},{"name":"Zum Sportplatz","postalCode":"08527","locality":"Plauen","municipality":{"key":"14523320","name":"Plauen, Stadt","type":"Stadt"},"district":{"key":"14523","name":"Vogtlandkreis","type":"Landkreis"},"federalState":{"key":"14","name":"Sachsen"}},{"name":"Zum Wasserturm","postalCode":"08527","locality":"Plauen","municipality":{"key":"14523320","name":"Plauen, Stadt","type":"Stadt"},"district":{"key":"14523","name":"Vogtlandkreis","type":"Landkreis"},"federalState":{"key":"14","name":"Sachsen"}},{"name":"Zum Wiesengrund","postalCode":"08527","locality":"Plauen","municipality":{"key":"14523320","name":"Plauen, Stadt","type":"Stadt"},"district":{"key":"14523","name":"Vogtlandkreis","type":"Landkreis"},"federalState":{"key":"14","name":"Sachsen"}},{"name":"Zur Alm","postalCode":"08523","locality":"Plauen","municipality":{"key":"14523320","name":"Plauen, Stadt","type":"Stadt"},"district":{"key":"14523","name":"Vogtlandkreis","type":"Landkreis"},"federalState":{"key":"14","name":"Sachsen"}},{"name":"Zur alten Rennbahn","postalCode":"08525","locality":"Plauen","municipality":{"key":"14523320","name":"Plauen, Stadt","type":"Stadt"},"district":{"key":"14523","name":"Vogtlandkreis","type":"Landkreis"},"federalState":{"key":"14","name":"Sachsen"}},{"name":"Zürnerstr.","postalCode":"08527","locality":"Plauen","municipality":{"key":"14523320","name":"Plauen, Stadt","type":"Stadt"},"district":{"key":"14523","name":"Vogtlandkreis","type":"Landkreis"},"federalState":{"key":"14","name":"Sachsen"}},{"name":"Zur Platt","postalCode":"08525","locality":"Plauen","municipality":{"key":"14523320","name":"Plauen, Stadt","type":"Stadt"},"district":{"key":"14523","name":"Vogtlandkreis","type":"Landkreis"},"federalState":{"key":"14","name":"Sachsen"}},{"name":"Zur Platt","postalCode":"08547","locality":"Plauen","municipality":{"key":"14523320","name":"Plauen, Stadt","type":"Stadt"},"district":{"key":"14523","name":"Vogtlandkreis","type":"Landkreis"},"federalState":{"key":"14","name":"Sachsen"}},{"name":"Zur Ruh","postalCode":"08525","locality":"Plauen","municipality":{"key":"14523320","name":"Plauen, Stadt","type":"Stadt"},"district":{"key":"14523","name":"Vogtlandkreis","type":"Landkreis"},"federalState":{"key":"14","name":"Sachsen"}},{"name":"Zur Schaftränke","postalCode":"08529","locality":"Plauen","municipality":{"key":"14523320","name":"Plauen, Stadt","type":"Stadt"},"district":{"key":"14523","name":"Vogtlandkreis","type":"Landkreis"},"federalState":{"key":"14","name":"Sachsen"}},{"name":"Zur Schwarzen Brücke","postalCode":"08525","locality":"Plauen","municipality":{"key":"14523320","name":"Plauen, Stadt","type":"Stadt"},"district":{"key":"14523","name":"Vogtlandkreis","type":"Landkreis"},"federalState":{"key":"14","name":"Sachsen"}},{"name":"Zur Sternquell","postalCode":"08529","locality":"Plauen","municipality":{"key":"14523320","name":"Plauen, Stadt","type":"Stadt"},"district":{"key":"14523","name":"Vogtlandkreis","type":"Landkreis"},"federalState":{"key":"14","name":"Sachsen"}},{"name":"Zur Waldsiedlung","postalCode":"08527","locality":"Plauen","municipality":{"key":"14523320","name":"Plauen, Stadt","type":"Stadt"},"district":{"key":"14523","name":"Vogtlandkreis","type":"Landkreis"},"federalState":{"key":"14","name":"Sachsen"}},{"name":"Zur Wiese","postalCode":"08529","locality":"Plauen","municipality":{"key":"14523320","name":"Plauen, Stadt","type":"Stadt"},"district":{"key":"14523","name":"Vogtlandkreis","type":"Landkreis"},"federalState":{"key":"14","name":"Sachsen"}},{"name":"Zwoschwitzer Str.","postalCode":"08525","locality":"Plauen","municipality":{"key":"14523320","name":"Plauen, Stadt","type":"Stadt"},"district":{"key":"14523","name":"Vogtlandkreis","type":"Landkreis"},"federalState":{"key":"14","name":"Sachsen"}},{"name":"Zwoschwitzer Weg","postalCode":"08523","locality":"Plauen","municipality":{"key":"14523320","name":"Plauen, Stadt","type":"Stadt"},"district":{"key":"14523","name":"Vogtlandkreis","type":"Landkreis"},"federalState":{"key":"14","name":"Sachsen"}},{"name":"Äußere Reichenbacher Str.","postalCode":"08529","locality":"Plauen","municipality":{"key":"14523320","name":"Plauen, Stadt","type":"Stadt"},"district":{"key":"14523","name":"Vogtlandkreis","type":"Landkreis"},"federalState":{"key":"14","name":"Sachsen"}},]