[{"name":"Am Kirchberg","postalCode":"06618","locality":"Wethau","municipality":{"key":"15084560","name":"Wethau","type":"Kreisangehörige_Gemeinde"},"district":{"key":"15084","name":"Burgenlandkreis","type":"Landkreis"},"federalState":{"key":"15","name":"Sachsen-Anhalt"}},{"name":"Buberle MatMat Weg","postalCode":"06618","locality":"Wethau","municipality":{"key":"15084560","name":"Wethau","type":"Kreisangehörige_Gemeinde"},"district":{"key":"15084","name":"Burgenlandkreis","type":"Landkreis"},"federalState":{"key":"15","name":"Sachsen-Anhalt"}},{"name":"Elche","postalCode":"06618","locality":"Wethau","municipality":{"key":"15084560","name":"Wethau","type":"Kreisangehörige_Gemeinde"},"district":{"key":"15084","name":"Burgenlandkreis","type":"Landkreis"},"federalState":{"key":"15","name":"Sachsen-Anhalt"}},{"name":"Falkenhofstr.","postalCode":"06618","locality":"Wethau","municipality":{"key":"15084560","name":"Wethau","type":"Kreisangehörige_Gemeinde"},"district":{"key":"15084","name":"Burgenlandkreis","type":"Landkreis"},"federalState":{"key":"15","name":"Sachsen-Anhalt"}},{"name":"Friedensstr.","postalCode":"06618","locality":"Wethau","municipality":{"key":"15084560","name":"Wethau","type":"Kreisangehörige_Gemeinde"},"district":{"key":"15084","name":"Burgenlandkreis","type":"Landkreis"},"federalState":{"key":"15","name":"Sachsen-Anhalt"}},{"name":"Funkenburg","postalCode":"06618","locality":"Wethau","municipality":{"key":"15084560","name":"Wethau","type":"Kreisangehörige_Gemeinde"},"district":{"key":"15084","name":"Burgenlandkreis","type":"Landkreis"},"federalState":{"key":"15","name":"Sachsen-Anhalt"}},{"name":"Giekauer Hauptstr.","postalCode":"06618","locality":"Wethau","municipality":{"key":"15084560","name":"Wethau","type":"Kreisangehörige_Gemeinde"},"district":{"key":"15084","name":"Burgenlandkreis","type":"Landkreis"},"federalState":{"key":"15","name":"Sachsen-Anhalt"}},{"name":"Hauptstr.","postalCode":"06618","locality":"Wethau","municipality":{"key":"15084560","name":"Wethau","type":"Kreisangehörige_Gemeinde"},"district":{"key":"15084","name":"Burgenlandkreis","type":"Landkreis"},"federalState":{"key":"15","name":"Sachsen-Anhalt"}},{"name":"Hirtengraben","postalCode":"06618","locality":"Wethau","municipality":{"key":"15084560","name":"Wethau","type":"Kreisangehörige_Gemeinde"},"district":{"key":"15084","name":"Burgenlandkreis","type":"Landkreis"},"federalState":{"key":"15","name":"Sachsen-Anhalt"}},{"name":"Käseberg","postalCode":"06618","locality":"Wethau","municipality":{"key":"15084560","name":"Wethau","type":"Kreisangehörige_Gemeinde"},"district":{"key":"15084","name":"Burgenlandkreis","type":"Landkreis"},"federalState":{"key":"15","name":"Sachsen-Anhalt"}},{"name":"Kirchberg","postalCode":"06618","locality":"Wethau","municipality":{"key":"15084560","name":"Wethau","type":"Kreisangehörige_Gemeinde"},"district":{"key":"15084","name":"Burgenlandkreis","type":"Landkreis"},"federalState":{"key":"15","name":"Sachsen-Anhalt"}},{"name":"Kleine Aue","postalCode":"06618","locality":"Wethau","municipality":{"key":"15084560","name":"Wethau","type":"Kreisangehörige_Gemeinde"},"district":{"key":"15084","name":"Burgenlandkreis","type":"Landkreis"},"federalState":{"key":"15","name":"Sachsen-Anhalt"}},{"name":"Kleinwethau","postalCode":"06618","locality":"Wethau","municipality":{"key":"15084560","name":"Wethau","type":"Kreisangehörige_Gemeinde"},"district":{"key":"15084","name":"Burgenlandkreis","type":"Landkreis"},"federalState":{"key":"15","name":"Sachsen-Anhalt"}},{"name":"Landstr.","postalCode":"06618","locality":"Wethau","municipality":{"key":"15084560","name":"Wethau","type":"Kreisangehörige_Gemeinde"},"district":{"key":"15084","name":"Burgenlandkreis","type":"Landkreis"},"federalState":{"key":"15","name":"Sachsen-Anhalt"}},{"name":"Langer Berg","postalCode":"06618","locality":"Wethau","municipality":{"key":"15084560","name":"Wethau","type":"Kreisangehörige_Gemeinde"},"district":{"key":"15084","name":"Burgenlandkreis","type":"Landkreis"},"federalState":{"key":"15","name":"Sachsen-Anhalt"}},{"name":"Mühle","postalCode":"06618","locality":"Wethau","municipality":{"key":"15084560","name":"Wethau","type":"Kreisangehörige_Gemeinde"},"district":{"key":"15084","name":"Burgenlandkreis","type":"Landkreis"},"federalState":{"key":"15","name":"Sachsen-Anhalt"}},{"name":"Mulle","postalCode":"06618","locality":"Wethau","municipality":{"key":"15084560","name":"Wethau","type":"Kreisangehörige_Gemeinde"},"district":{"key":"15084","name":"Burgenlandkreis","type":"Landkreis"},"federalState":{"key":"15","name":"Sachsen-Anhalt"}},{"name":"Pohlitzer Str.","postalCode":"06618","locality":"Wethau","municipality":{"key":"15084560","name":"Wethau","type":"Kreisangehörige_Gemeinde"},"district":{"key":"15084","name":"Burgenlandkreis","type":"Landkreis"},"federalState":{"key":"15","name":"Sachsen-Anhalt"}},{"name":"Roter Berg","postalCode":"06618","locality":"Wethau","municipality":{"key":"15084560","name":"Wethau","type":"Kreisangehörige_Gemeinde"},"district":{"key":"15084","name":"Burgenlandkreis","type":"Landkreis"},"federalState":{"key":"15","name":"Sachsen-Anhalt"}},{"name":"Schulstr.","postalCode":"06618","locality":"Wethau","municipality":{"key":"15084560","name":"Wethau","type":"Kreisangehörige_Gemeinde"},"district":{"key":"15084","name":"Burgenlandkreis","type":"Landkreis"},"federalState":{"key":"15","name":"Sachsen-Anhalt"}},{"name":"Untergasse","postalCode":"06618","locality":"Wethau","municipality":{"key":"15084560","name":"Wethau","type":"Kreisangehörige_Gemeinde"},"district":{"key":"15084","name":"Burgenlandkreis","type":"Landkreis"},"federalState":{"key":"15","name":"Sachsen-Anhalt"}},{"name":"Über dem Rosental","postalCode":"06618","locality":"Wethau","municipality":{"key":"15084560","name":"Wethau","type":"Kreisangehörige_Gemeinde"},"district":{"key":"15084","name":"Burgenlandkreis","type":"Landkreis"},"federalState":{"key":"15","name":"Sachsen-Anhalt"}},]