[{"name":"Allee","postalCode":"07616","locality":"Bürgel","municipality":{"key":"16074009","name":"Bürgel, Stadt","type":"Stadt"},"district":{"key":"16074","name":"Saale-Holzland-Kreis","type":"Landkreis"},"federalState":{"key":"16","name":"Thüringen"}},{"name":"Am alten Kammergut","postalCode":"07616","locality":"Bürgel","municipality":{"key":"16074009","name":"Bürgel, Stadt","type":"Stadt"},"district":{"key":"16074","name":"Saale-Holzland-Kreis","type":"Landkreis"},"federalState":{"key":"16","name":"Thüringen"}},{"name":"Am Anger","postalCode":"07616","locality":"Bürgel","municipality":{"key":"16074009","name":"Bürgel, Stadt","type":"Stadt"},"district":{"key":"16074","name":"Saale-Holzland-Kreis","type":"Landkreis"},"federalState":{"key":"16","name":"Thüringen"}},{"name":"Am Bahndamm","postalCode":"07616","locality":"Graitschen bei Bürgel","municipality":{"key":"16074028","name":"Graitschen b. Bürgel","type":"Kreisangehörige_Gemeinde"},"district":{"key":"16074","name":"Saale-Holzland-Kreis","type":"Landkreis"},"federalState":{"key":"16","name":"Thüringen"}},{"name":"Am Bornberg","postalCode":"07616","locality":"Bürgel","municipality":{"key":"16074009","name":"Bürgel, Stadt","type":"Stadt"},"district":{"key":"16074","name":"Saale-Holzland-Kreis","type":"Landkreis"},"federalState":{"key":"16","name":"Thüringen"}},{"name":"Am Goldberg","postalCode":"07616","locality":"Bürgel","municipality":{"key":"16074009","name":"Bürgel, Stadt","type":"Stadt"},"district":{"key":"16074","name":"Saale-Holzland-Kreis","type":"Landkreis"},"federalState":{"key":"16","name":"Thüringen"}},{"name":"Am Hahn","postalCode":"07616","locality":"Bürgel","municipality":{"key":"16074009","name":"Bürgel, Stadt","type":"Stadt"},"district":{"key":"16074","name":"Saale-Holzland-Kreis","type":"Landkreis"},"federalState":{"key":"16","name":"Thüringen"}},{"name":"Am Klosterteich","postalCode":"07616","locality":"Bürgel","municipality":{"key":"16074009","name":"Bürgel, Stadt","type":"Stadt"},"district":{"key":"16074","name":"Saale-Holzland-Kreis","type":"Landkreis"},"federalState":{"key":"16","name":"Thüringen"}},{"name":"Am Lindenberg","postalCode":"07616","locality":"Bürgel","municipality":{"key":"16074009","name":"Bürgel, Stadt","type":"Stadt"},"district":{"key":"16074","name":"Saale-Holzland-Kreis","type":"Landkreis"},"federalState":{"key":"16","name":"Thüringen"}},{"name":"Am Markt","postalCode":"07616","locality":"Bürgel","municipality":{"key":"16074009","name":"Bürgel, Stadt","type":"Stadt"},"district":{"key":"16074","name":"Saale-Holzland-Kreis","type":"Landkreis"},"federalState":{"key":"16","name":"Thüringen"}},{"name":"Am Schilfteich","postalCode":"07616","locality":"Graitschen bei Bürgel","municipality":{"key":"16074028","name":"Graitschen b. Bürgel","type":"Kreisangehörige_Gemeinde"},"district":{"key":"16074","name":"Saale-Holzland-Kreis","type":"Landkreis"},"federalState":{"key":"16","name":"Thüringen"}},{"name":"Am Stadtberg","postalCode":"07616","locality":"Bürgel","municipality":{"key":"16074009","name":"Bürgel, Stadt","type":"Stadt"},"district":{"key":"16074","name":"Saale-Holzland-Kreis","type":"Landkreis"},"federalState":{"key":"16","name":"Thüringen"}},{"name":"Am Steingraben","postalCode":"07616","locality":"Bürgel","municipality":{"key":"16074009","name":"Bürgel, Stadt","type":"Stadt"},"district":{"key":"16074","name":"Saale-Holzland-Kreis","type":"Landkreis"},"federalState":{"key":"16","name":"Thüringen"}},{"name":"Am Stutenberg","postalCode":"07616","locality":"Bürgel","municipality":{"key":"16074009","name":"Bürgel, Stadt","type":"Stadt"},"district":{"key":"16074","name":"Saale-Holzland-Kreis","type":"Landkreis"},"federalState":{"key":"16","name":"Thüringen"}},{"name":"Am Wald","postalCode":"07616","locality":"Bürgel","municipality":{"key":"16074009","name":"Bürgel, Stadt","type":"Stadt"},"district":{"key":"16074","name":"Saale-Holzland-Kreis","type":"Landkreis"},"federalState":{"key":"16","name":"Thüringen"}},{"name":"Am Wasserberg","postalCode":"07616","locality":"Bürgel","municipality":{"key":"16074009","name":"Bürgel, Stadt","type":"Stadt"},"district":{"key":"16074","name":"Saale-Holzland-Kreis","type":"Landkreis"},"federalState":{"key":"16","name":"Thüringen"}},{"name":"An der Friedenseiche","postalCode":"07616","locality":"Bürgel","municipality":{"key":"16074009","name":"Bürgel, Stadt","type":"Stadt"},"district":{"key":"16074","name":"Saale-Holzland-Kreis","type":"Landkreis"},"federalState":{"key":"16","name":"Thüringen"}},{"name":"An der Kelterwiese","postalCode":"07616","locality":"Bürgel","municipality":{"key":"16074009","name":"Bürgel, Stadt","type":"Stadt"},"district":{"key":"16074","name":"Saale-Holzland-Kreis","type":"Landkreis"},"federalState":{"key":"16","name":"Thüringen"}},{"name":"An der Kirche","postalCode":"07616","locality":"Bürgel","municipality":{"key":"16074009","name":"Bürgel, Stadt","type":"Stadt"},"district":{"key":"16074","name":"Saale-Holzland-Kreis","type":"Landkreis"},"federalState":{"key":"16","name":"Thüringen"}},{"name":"An der Linde","postalCode":"07616","locality":"Bürgel","municipality":{"key":"16074009","name":"Bürgel, Stadt","type":"Stadt"},"district":{"key":"16074","name":"Saale-Holzland-Kreis","type":"Landkreis"},"federalState":{"key":"16","name":"Thüringen"}},{"name":"An der Mittelmühle","postalCode":"07616","locality":"Bürgel","municipality":{"key":"16074009","name":"Bürgel, Stadt","type":"Stadt"},"district":{"key":"16074","name":"Saale-Holzland-Kreis","type":"Landkreis"},"federalState":{"key":"16","name":"Thüringen"}},{"name":"An der Mühle","postalCode":"07616","locality":"Graitschen bei Bürgel","municipality":{"key":"16074028","name":"Graitschen b. Bürgel","type":"Kreisangehörige_Gemeinde"},"district":{"key":"16074","name":"Saale-Holzland-Kreis","type":"Landkreis"},"federalState":{"key":"16","name":"Thüringen"}},{"name":"An der Stadtmauer","postalCode":"07616","locality":"Bürgel","municipality":{"key":"16074009","name":"Bürgel, Stadt","type":"Stadt"},"district":{"key":"16074","name":"Saale-Holzland-Kreis","type":"Landkreis"},"federalState":{"key":"16","name":"Thüringen"}},{"name":"An der Wasserkunst","postalCode":"07616","locality":"Bürgel","municipality":{"key":"16074009","name":"Bürgel, Stadt","type":"Stadt"},"district":{"key":"16074","name":"Saale-Holzland-Kreis","type":"Landkreis"},"federalState":{"key":"16","name":"Thüringen"}},{"name":"Badergasse","postalCode":"07616","locality":"Bürgel","municipality":{"key":"16074009","name":"Bürgel, Stadt","type":"Stadt"},"district":{"key":"16074","name":"Saale-Holzland-Kreis","type":"Landkreis"},"federalState":{"key":"16","name":"Thüringen"}},{"name":"Bahnhofstr.","postalCode":"07616","locality":"Bürgel","municipality":{"key":"16074009","name":"Bürgel, Stadt","type":"Stadt"},"district":{"key":"16074","name":"Saale-Holzland-Kreis","type":"Landkreis"},"federalState":{"key":"16","name":"Thüringen"}},{"name":"Beulbar","postalCode":"07616","locality":"Bürgel","municipality":{"key":"16074009","name":"Bürgel, Stadt","type":"Stadt"},"district":{"key":"16074","name":"Saale-Holzland-Kreis","type":"Landkreis"},"federalState":{"key":"16","name":"Thüringen"}},{"name":"Bornberg","postalCode":"07616","locality":"Bürgel","municipality":{"key":"16074009","name":"Bürgel, Stadt","type":"Stadt"},"district":{"key":"16074","name":"Saale-Holzland-Kreis","type":"Landkreis"},"federalState":{"key":"16","name":"Thüringen"}},{"name":"Brunnengasse","postalCode":"07616","locality":"Bürgel","municipality":{"key":"16074009","name":"Bürgel, Stadt","type":"Stadt"},"district":{"key":"16074","name":"Saale-Holzland-Kreis","type":"Landkreis"},"federalState":{"key":"16","name":"Thüringen"}},{"name":"Bürgeler Str.","postalCode":"07616","locality":"Bürgel","municipality":{"key":"16074009","name":"Bürgel, Stadt","type":"Stadt"},"district":{"key":"16074","name":"Saale-Holzland-Kreis","type":"Landkreis"},"federalState":{"key":"16","name":"Thüringen"}},{"name":"Dorfplatz","postalCode":"07616","locality":"Bürgel","municipality":{"key":"16074009","name":"Bürgel, Stadt","type":"Stadt"},"district":{"key":"16074","name":"Saale-Holzland-Kreis","type":"Landkreis"},"federalState":{"key":"16","name":"Thüringen"}},{"name":"Eisenberger Str.","postalCode":"07616","locality":"Bürgel","municipality":{"key":"16074009","name":"Bürgel, Stadt","type":"Stadt"},"district":{"key":"16074","name":"Saale-Holzland-Kreis","type":"Landkreis"},"federalState":{"key":"16","name":"Thüringen"}},{"name":"Gartenstr.","postalCode":"07616","locality":"Bürgel","municipality":{"key":"16074009","name":"Bürgel, Stadt","type":"Stadt"},"district":{"key":"16074","name":"Saale-Holzland-Kreis","type":"Landkreis"},"federalState":{"key":"16","name":"Thüringen"}},{"name":"Gerega","postalCode":"07616","locality":"Bürgel","municipality":{"key":"16074009","name":"Bürgel, Stadt","type":"Stadt"},"district":{"key":"16074","name":"Saale-Holzland-Kreis","type":"Landkreis"},"federalState":{"key":"16","name":"Thüringen"}},{"name":"Hauptstr.","postalCode":"07616","locality":"Bürgel","municipality":{"key":"16074009","name":"Bürgel, Stadt","type":"Stadt"},"district":{"key":"16074","name":"Saale-Holzland-Kreis","type":"Landkreis"},"federalState":{"key":"16","name":"Thüringen"}},{"name":"Hauptstr.","postalCode":"07616","locality":"Graitschen bei Bürgel","municipality":{"key":"16074028","name":"Graitschen b. Bürgel","type":"Kreisangehörige_Gemeinde"},"district":{"key":"16074","name":"Saale-Holzland-Kreis","type":"Landkreis"},"federalState":{"key":"16","name":"Thüringen"}},{"name":"Hintergasse","postalCode":"07616","locality":"Bürgel","municipality":{"key":"16074009","name":"Bürgel, Stadt","type":"Stadt"},"district":{"key":"16074","name":"Saale-Holzland-Kreis","type":"Landkreis"},"federalState":{"key":"16","name":"Thüringen"}},{"name":"Hohendorf","postalCode":"07616","locality":"Bürgel","municipality":{"key":"16074009","name":"Bürgel, Stadt","type":"Stadt"},"district":{"key":"16074","name":"Saale-Holzland-Kreis","type":"Landkreis"},"federalState":{"key":"16","name":"Thüringen"}},{"name":"Hohlweg","postalCode":"07616","locality":"Bürgel","municipality":{"key":"16074009","name":"Bürgel, Stadt","type":"Stadt"},"district":{"key":"16074","name":"Saale-Holzland-Kreis","type":"Landkreis"},"federalState":{"key":"16","name":"Thüringen"}},{"name":"Ilmsdorf","postalCode":"07616","locality":"Bürgel","municipality":{"key":"16074009","name":"Bürgel, Stadt","type":"Stadt"},"district":{"key":"16074","name":"Saale-Holzland-Kreis","type":"Landkreis"},"federalState":{"key":"16","name":"Thüringen"}},{"name":"Im Silbertal","postalCode":"07616","locality":"Bürgel","municipality":{"key":"16074009","name":"Bürgel, Stadt","type":"Stadt"},"district":{"key":"16074","name":"Saale-Holzland-Kreis","type":"Landkreis"},"federalState":{"key":"16","name":"Thüringen"}},{"name":"In den Satteln","postalCode":"07616","locality":"Bürgel","municipality":{"key":"16074009","name":"Bürgel, Stadt","type":"Stadt"},"district":{"key":"16074","name":"Saale-Holzland-Kreis","type":"Landkreis"},"federalState":{"key":"16","name":"Thüringen"}},{"name":"Jägertal","postalCode":"07616","locality":"Graitschen bei Bürgel","municipality":{"key":"16074028","name":"Graitschen b. Bürgel","type":"Kreisangehörige_Gemeinde"},"district":{"key":"16074","name":"Saale-Holzland-Kreis","type":"Landkreis"},"federalState":{"key":"16","name":"Thüringen"}},{"name":"Jenaer Str.","postalCode":"07616","locality":"Bürgel","municipality":{"key":"16074009","name":"Bürgel, Stadt","type":"Stadt"},"district":{"key":"16074","name":"Saale-Holzland-Kreis","type":"Landkreis"},"federalState":{"key":"16","name":"Thüringen"}},{"name":"Karolinenstr.","postalCode":"07616","locality":"Bürgel","municipality":{"key":"16074009","name":"Bürgel, Stadt","type":"Stadt"},"district":{"key":"16074","name":"Saale-Holzland-Kreis","type":"Landkreis"},"federalState":{"key":"16","name":"Thüringen"}},{"name":"Kirchgasse","postalCode":"07616","locality":"Bürgel","municipality":{"key":"16074009","name":"Bürgel, Stadt","type":"Stadt"},"district":{"key":"16074","name":"Saale-Holzland-Kreis","type":"Landkreis"},"federalState":{"key":"16","name":"Thüringen"}},{"name":"Kirchplatz","postalCode":"07616","locality":"Bürgel","municipality":{"key":"16074009","name":"Bürgel, Stadt","type":"Stadt"},"district":{"key":"16074","name":"Saale-Holzland-Kreis","type":"Landkreis"},"federalState":{"key":"16","name":"Thüringen"}},{"name":"Kirchweg","postalCode":"07616","locality":"Bürgel","municipality":{"key":"16074009","name":"Bürgel, Stadt","type":"Stadt"},"district":{"key":"16074","name":"Saale-Holzland-Kreis","type":"Landkreis"},"federalState":{"key":"16","name":"Thüringen"}},{"name":"Klosterstr.","postalCode":"07616","locality":"Bürgel","municipality":{"key":"16074009","name":"Bürgel, Stadt","type":"Stadt"},"district":{"key":"16074","name":"Saale-Holzland-Kreis","type":"Landkreis"},"federalState":{"key":"16","name":"Thüringen"}},{"name":"Krakelgrund","postalCode":"07616","locality":"Bürgel","municipality":{"key":"16074009","name":"Bürgel, Stadt","type":"Stadt"},"district":{"key":"16074","name":"Saale-Holzland-Kreis","type":"Landkreis"},"federalState":{"key":"16","name":"Thüringen"}},{"name":"Kreuzgasse","postalCode":"07616","locality":"Bürgel","municipality":{"key":"16074009","name":"Bürgel, Stadt","type":"Stadt"},"district":{"key":"16074","name":"Saale-Holzland-Kreis","type":"Landkreis"},"federalState":{"key":"16","name":"Thüringen"}},{"name":"Lindenstr.","postalCode":"07616","locality":"Bürgel","municipality":{"key":"16074009","name":"Bürgel, Stadt","type":"Stadt"},"district":{"key":"16074","name":"Saale-Holzland-Kreis","type":"Landkreis"},"federalState":{"key":"16","name":"Thüringen"}},{"name":"Mühlweg","postalCode":"07616","locality":"Bürgel","municipality":{"key":"16074009","name":"Bürgel, Stadt","type":"Stadt"},"district":{"key":"16074","name":"Saale-Holzland-Kreis","type":"Landkreis"},"federalState":{"key":"16","name":"Thüringen"}},{"name":"Naumburger Str.","postalCode":"07616","locality":"Bürgel","municipality":{"key":"16074009","name":"Bürgel, Stadt","type":"Stadt"},"district":{"key":"16074","name":"Saale-Holzland-Kreis","type":"Landkreis"},"federalState":{"key":"16","name":"Thüringen"}},{"name":"Neugasse","postalCode":"07616","locality":"Bürgel","municipality":{"key":"16074009","name":"Bürgel, Stadt","type":"Stadt"},"district":{"key":"16074","name":"Saale-Holzland-Kreis","type":"Landkreis"},"federalState":{"key":"16","name":"Thüringen"}},{"name":"Nischwitz","postalCode":"07616","locality":"Bürgel","municipality":{"key":"16074009","name":"Bürgel, Stadt","type":"Stadt"},"district":{"key":"16074","name":"Saale-Holzland-Kreis","type":"Landkreis"},"federalState":{"key":"16","name":"Thüringen"}},{"name":"Nordstr.","postalCode":"07616","locality":"Bürgel","municipality":{"key":"16074009","name":"Bürgel, Stadt","type":"Stadt"},"district":{"key":"16074","name":"Saale-Holzland-Kreis","type":"Landkreis"},"federalState":{"key":"16","name":"Thüringen"}},{"name":"Obere Zense","postalCode":"07616","locality":"Bürgel","municipality":{"key":"16074009","name":"Bürgel, Stadt","type":"Stadt"},"district":{"key":"16074","name":"Saale-Holzland-Kreis","type":"Landkreis"},"federalState":{"key":"16","name":"Thüringen"}},{"name":"Ortsstr.","postalCode":"07616","locality":"Graitschen bei Bürgel","municipality":{"key":"16074028","name":"Graitschen b. Bürgel","type":"Kreisangehörige_Gemeinde"},"district":{"key":"16074","name":"Saale-Holzland-Kreis","type":"Landkreis"},"federalState":{"key":"16","name":"Thüringen"}},{"name":"Oststr.","postalCode":"07616","locality":"Bürgel","municipality":{"key":"16074009","name":"Bürgel, Stadt","type":"Stadt"},"district":{"key":"16074","name":"Saale-Holzland-Kreis","type":"Landkreis"},"federalState":{"key":"16","name":"Thüringen"}},{"name":"Park am Kriegsdenkmal in Bürgel","postalCode":"07616","locality":"Bürgel","municipality":{"key":"16074009","name":"Bürgel, Stadt","type":"Stadt"},"district":{"key":"16074","name":"Saale-Holzland-Kreis","type":"Landkreis"},"federalState":{"key":"16","name":"Thüringen"}},{"name":"Poststr.","postalCode":"07616","locality":"Bürgel","municipality":{"key":"16074009","name":"Bürgel, Stadt","type":"Stadt"},"district":{"key":"16074","name":"Saale-Holzland-Kreis","type":"Landkreis"},"federalState":{"key":"16","name":"Thüringen"}},{"name":"Poxdorfer Str.","postalCode":"07616","locality":"Graitschen bei Bürgel","municipality":{"key":"16074028","name":"Graitschen b. Bürgel","type":"Kreisangehörige_Gemeinde"},"district":{"key":"16074","name":"Saale-Holzland-Kreis","type":"Landkreis"},"federalState":{"key":"16","name":"Thüringen"}},{"name":"Poxdorfer Weg","postalCode":"07616","locality":"Bürgel","municipality":{"key":"16074009","name":"Bürgel, Stadt","type":"Stadt"},"district":{"key":"16074","name":"Saale-Holzland-Kreis","type":"Landkreis"},"federalState":{"key":"16","name":"Thüringen"}},{"name":"Rodigaster Str.","postalCode":"07616","locality":"Bürgel","municipality":{"key":"16074009","name":"Bürgel, Stadt","type":"Stadt"},"district":{"key":"16074","name":"Saale-Holzland-Kreis","type":"Landkreis"},"federalState":{"key":"16","name":"Thüringen"}},{"name":"Scherke-Weg","postalCode":"07616","locality":"Bürgel","municipality":{"key":"16074009","name":"Bürgel, Stadt","type":"Stadt"},"district":{"key":"16074","name":"Saale-Holzland-Kreis","type":"Landkreis"},"federalState":{"key":"16","name":"Thüringen"}},{"name":"Schöngleinaer Weg","postalCode":"07616","locality":"Bürgel","municipality":{"key":"16074009","name":"Bürgel, Stadt","type":"Stadt"},"district":{"key":"16074","name":"Saale-Holzland-Kreis","type":"Landkreis"},"federalState":{"key":"16","name":"Thüringen"}},{"name":"Schulstr.","postalCode":"07616","locality":"Bürgel","municipality":{"key":"16074009","name":"Bürgel, Stadt","type":"Stadt"},"district":{"key":"16074","name":"Saale-Holzland-Kreis","type":"Landkreis"},"federalState":{"key":"16","name":"Thüringen"}},{"name":"Schulweg","postalCode":"07616","locality":"Bürgel","municipality":{"key":"16074009","name":"Bürgel, Stadt","type":"Stadt"},"district":{"key":"16074","name":"Saale-Holzland-Kreis","type":"Landkreis"},"federalState":{"key":"16","name":"Thüringen"}},{"name":"Siedlung","postalCode":"07616","locality":"Graitschen bei Bürgel","municipality":{"key":"16074028","name":"Graitschen b. Bürgel","type":"Kreisangehörige_Gemeinde"},"district":{"key":"16074","name":"Saale-Holzland-Kreis","type":"Landkreis"},"federalState":{"key":"16","name":"Thüringen"}},{"name":"Südstr.","postalCode":"07616","locality":"Bürgel","municipality":{"key":"16074009","name":"Bürgel, Stadt","type":"Stadt"},"district":{"key":"16074","name":"Saale-Holzland-Kreis","type":"Landkreis"},"federalState":{"key":"16","name":"Thüringen"}},{"name":"Teichgasse","postalCode":"07616","locality":"Bürgel","municipality":{"key":"16074009","name":"Bürgel, Stadt","type":"Stadt"},"district":{"key":"16074","name":"Saale-Holzland-Kreis","type":"Landkreis"},"federalState":{"key":"16","name":"Thüringen"}},{"name":"Töpfergasse","postalCode":"07616","locality":"Bürgel","municipality":{"key":"16074009","name":"Bürgel, Stadt","type":"Stadt"},"district":{"key":"16074","name":"Saale-Holzland-Kreis","type":"Landkreis"},"federalState":{"key":"16","name":"Thüringen"}},{"name":"Untere Zense","postalCode":"07616","locality":"Bürgel","municipality":{"key":"16074009","name":"Bürgel, Stadt","type":"Stadt"},"district":{"key":"16074","name":"Saale-Holzland-Kreis","type":"Landkreis"},"federalState":{"key":"16","name":"Thüringen"}},{"name":"Waldecker Str.","postalCode":"07616","locality":"Bürgel","municipality":{"key":"16074009","name":"Bürgel, Stadt","type":"Stadt"},"district":{"key":"16074","name":"Saale-Holzland-Kreis","type":"Landkreis"},"federalState":{"key":"16","name":"Thüringen"}},{"name":"Weiherstr.","postalCode":"07616","locality":"Bürgel","municipality":{"key":"16074009","name":"Bürgel, Stadt","type":"Stadt"},"district":{"key":"16074","name":"Saale-Holzland-Kreis","type":"Landkreis"},"federalState":{"key":"16","name":"Thüringen"}},{"name":"Wiesenweg","postalCode":"07616","locality":"Bürgel","municipality":{"key":"16074009","name":"Bürgel, Stadt","type":"Stadt"},"district":{"key":"16074","name":"Saale-Holzland-Kreis","type":"Landkreis"},"federalState":{"key":"16","name":"Thüringen"}},{"name":"Zensenweg","postalCode":"07616","locality":"Bürgel","municipality":{"key":"16074009","name":"Bürgel, Stadt","type":"Stadt"},"district":{"key":"16074","name":"Saale-Holzland-Kreis","type":"Landkreis"},"federalState":{"key":"16","name":"Thüringen"}},{"name":"Zur Feldscheune","postalCode":"07616","locality":"Bürgel","municipality":{"key":"16074009","name":"Bürgel, Stadt","type":"Stadt"},"district":{"key":"16074","name":"Saale-Holzland-Kreis","type":"Landkreis"},"federalState":{"key":"16","name":"Thüringen"}},{"name":"Zur Hirtenhohle","postalCode":"07616","locality":"Bürgel","municipality":{"key":"16074009","name":"Bürgel, Stadt","type":"Stadt"},"district":{"key":"16074","name":"Saale-Holzland-Kreis","type":"Landkreis"},"federalState":{"key":"16","name":"Thüringen"}},]