[{"name":"Am Mühlengraben","postalCode":"55270","locality":"Engelstadt","municipality":{"key":"07339016","name":"Engelstadt","type":"Kreisangehörige_Gemeinde"},"district":{"key":"07339","name":"Mainz-Bingen","type":"Landkreis"},"federalState":{"key":"07","name":"Rheinland-Pfalz"}},{"name":"Am Mühlgraben","postalCode":"55270","locality":"Engelstadt","municipality":{"key":"07339016","name":"Engelstadt","type":"Kreisangehörige_Gemeinde"},"district":{"key":"07339","name":"Mainz-Bingen","type":"Landkreis"},"federalState":{"key":"07","name":"Rheinland-Pfalz"}},{"name":"Am Pfortenacker","postalCode":"55270","locality":"Engelstadt","municipality":{"key":"07339016","name":"Engelstadt","type":"Kreisangehörige_Gemeinde"},"district":{"key":"07339","name":"Mainz-Bingen","type":"Landkreis"},"federalState":{"key":"07","name":"Rheinland-Pfalz"}},{"name":"Am Römer","postalCode":"55270","locality":"Engelstadt","municipality":{"key":"07339016","name":"Engelstadt","type":"Kreisangehörige_Gemeinde"},"district":{"key":"07339","name":"Mainz-Bingen","type":"Landkreis"},"federalState":{"key":"07","name":"Rheinland-Pfalz"}},{"name":"Am Sportfeld","postalCode":"55270","locality":"Engelstadt","municipality":{"key":"07339016","name":"Engelstadt","type":"Kreisangehörige_Gemeinde"},"district":{"key":"07339","name":"Mainz-Bingen","type":"Landkreis"},"federalState":{"key":"07","name":"Rheinland-Pfalz"}},{"name":"An der Kirchpforte","postalCode":"55270","locality":"Engelstadt","municipality":{"key":"07339016","name":"Engelstadt","type":"Kreisangehörige_Gemeinde"},"district":{"key":"07339","name":"Mainz-Bingen","type":"Landkreis"},"federalState":{"key":"07","name":"Rheinland-Pfalz"}},{"name":"Backhausgasse","postalCode":"55270","locality":"Engelstadt","municipality":{"key":"07339016","name":"Engelstadt","type":"Kreisangehörige_Gemeinde"},"district":{"key":"07339","name":"Mainz-Bingen","type":"Landkreis"},"federalState":{"key":"07","name":"Rheinland-Pfalz"}},{"name":"Bismarckstr.","postalCode":"55270","locality":"Engelstadt","municipality":{"key":"07339016","name":"Engelstadt","type":"Kreisangehörige_Gemeinde"},"district":{"key":"07339","name":"Mainz-Bingen","type":"Landkreis"},"federalState":{"key":"07","name":"Rheinland-Pfalz"}},{"name":"Brunnenweg","postalCode":"55270","locality":"Engelstadt","municipality":{"key":"07339016","name":"Engelstadt","type":"Kreisangehörige_Gemeinde"},"district":{"key":"07339","name":"Mainz-Bingen","type":"Landkreis"},"federalState":{"key":"07","name":"Rheinland-Pfalz"}},{"name":"Bubenheimer Str.","postalCode":"55270","locality":"Engelstadt","municipality":{"key":"07339016","name":"Engelstadt","type":"Kreisangehörige_Gemeinde"},"district":{"key":"07339","name":"Mainz-Bingen","type":"Landkreis"},"federalState":{"key":"07","name":"Rheinland-Pfalz"}},{"name":"Gartenstr.","postalCode":"55270","locality":"Engelstadt","municipality":{"key":"07339016","name":"Engelstadt","type":"Kreisangehörige_Gemeinde"},"district":{"key":"07339","name":"Mainz-Bingen","type":"Landkreis"},"federalState":{"key":"07","name":"Rheinland-Pfalz"}},{"name":"Grabengasse","postalCode":"55270","locality":"Engelstadt","municipality":{"key":"07339016","name":"Engelstadt","type":"Kreisangehörige_Gemeinde"},"district":{"key":"07339","name":"Mainz-Bingen","type":"Landkreis"},"federalState":{"key":"07","name":"Rheinland-Pfalz"}},{"name":"Hauptstr.","postalCode":"55270","locality":"Engelstadt","municipality":{"key":"07339016","name":"Engelstadt","type":"Kreisangehörige_Gemeinde"},"district":{"key":"07339","name":"Mainz-Bingen","type":"Landkreis"},"federalState":{"key":"07","name":"Rheinland-Pfalz"}},{"name":"Hausener Str.","postalCode":"55270","locality":"Engelstadt","municipality":{"key":"07339016","name":"Engelstadt","type":"Kreisangehörige_Gemeinde"},"district":{"key":"07339","name":"Mainz-Bingen","type":"Landkreis"},"federalState":{"key":"07","name":"Rheinland-Pfalz"}},{"name":"Hochstr.","postalCode":"55270","locality":"Engelstadt","municipality":{"key":"07339016","name":"Engelstadt","type":"Kreisangehörige_Gemeinde"},"district":{"key":"07339","name":"Mainz-Bingen","type":"Landkreis"},"federalState":{"key":"07","name":"Rheinland-Pfalz"}},{"name":"Im Dorfgraben","postalCode":"55270","locality":"Engelstadt","municipality":{"key":"07339016","name":"Engelstadt","type":"Kreisangehörige_Gemeinde"},"district":{"key":"07339","name":"Mainz-Bingen","type":"Landkreis"},"federalState":{"key":"07","name":"Rheinland-Pfalz"}},{"name":"Im Kelterhaus","postalCode":"55270","locality":"Engelstadt","municipality":{"key":"07339016","name":"Engelstadt","type":"Kreisangehörige_Gemeinde"},"district":{"key":"07339","name":"Mainz-Bingen","type":"Landkreis"},"federalState":{"key":"07","name":"Rheinland-Pfalz"}},{"name":"Im Mittel","postalCode":"55270","locality":"Engelstadt","municipality":{"key":"07339016","name":"Engelstadt","type":"Kreisangehörige_Gemeinde"},"district":{"key":"07339","name":"Mainz-Bingen","type":"Landkreis"},"federalState":{"key":"07","name":"Rheinland-Pfalz"}},{"name":"Jugenheimer Str.","postalCode":"55270","locality":"Engelstadt","municipality":{"key":"07339016","name":"Engelstadt","type":"Kreisangehörige_Gemeinde"},"district":{"key":"07339","name":"Mainz-Bingen","type":"Landkreis"},"federalState":{"key":"07","name":"Rheinland-Pfalz"}},{"name":"Kirchgasse","postalCode":"55270","locality":"Engelstadt","municipality":{"key":"07339016","name":"Engelstadt","type":"Kreisangehörige_Gemeinde"},"district":{"key":"07339","name":"Mainz-Bingen","type":"Landkreis"},"federalState":{"key":"07","name":"Rheinland-Pfalz"}},{"name":"Nieder-Hilbersheimer-Str.","postalCode":"55270","locality":"Engelstadt","municipality":{"key":"07339016","name":"Engelstadt","type":"Kreisangehörige_Gemeinde"},"district":{"key":"07339","name":"Mainz-Bingen","type":"Landkreis"},"federalState":{"key":"07","name":"Rheinland-Pfalz"}},{"name":"Raiffeisenstr.","postalCode":"55270","locality":"Engelstadt","municipality":{"key":"07339016","name":"Engelstadt","type":"Kreisangehörige_Gemeinde"},"district":{"key":"07339","name":"Mainz-Bingen","type":"Landkreis"},"federalState":{"key":"07","name":"Rheinland-Pfalz"}},{"name":"Schillerstr.","postalCode":"55270","locality":"Engelstadt","municipality":{"key":"07339016","name":"Engelstadt","type":"Kreisangehörige_Gemeinde"},"district":{"key":"07339","name":"Mainz-Bingen","type":"Landkreis"},"federalState":{"key":"07","name":"Rheinland-Pfalz"}},{"name":"Schmittpforte","postalCode":"55270","locality":"Engelstadt","municipality":{"key":"07339016","name":"Engelstadt","type":"Kreisangehörige_Gemeinde"},"district":{"key":"07339","name":"Mainz-Bingen","type":"Landkreis"},"federalState":{"key":"07","name":"Rheinland-Pfalz"}},{"name":"Untergasse","postalCode":"55270","locality":"Engelstadt","municipality":{"key":"07339016","name":"Engelstadt","type":"Kreisangehörige_Gemeinde"},"district":{"key":"07339","name":"Mainz-Bingen","type":"Landkreis"},"federalState":{"key":"07","name":"Rheinland-Pfalz"}},{"name":"Weinbergstr.","postalCode":"55270","locality":"Engelstadt","municipality":{"key":"07339016","name":"Engelstadt","type":"Kreisangehörige_Gemeinde"},"district":{"key":"07339","name":"Mainz-Bingen","type":"Landkreis"},"federalState":{"key":"07","name":"Rheinland-Pfalz"}},]