[{"name":"Alter Weg","postalCode":"56422","locality":"Wirges","municipality":{"key":"07143081","name":"Wirges, Stadt","type":"Stadt"},"district":{"key":"07143","name":"Westerwaldkreis","type":"Landkreis"},"federalState":{"key":"07","name":"Rheinland-Pfalz"}},{"name":"Am Bahndamm","postalCode":"56422","locality":"Wirges","municipality":{"key":"07143081","name":"Wirges, Stadt","type":"Stadt"},"district":{"key":"07143","name":"Westerwaldkreis","type":"Landkreis"},"federalState":{"key":"07","name":"Rheinland-Pfalz"}},{"name":"Am Eschenacker","postalCode":"56422","locality":"Wirges","municipality":{"key":"07143081","name":"Wirges, Stadt","type":"Stadt"},"district":{"key":"07143","name":"Westerwaldkreis","type":"Landkreis"},"federalState":{"key":"07","name":"Rheinland-Pfalz"}},{"name":"Am Massenberg","postalCode":"56422","locality":"Wirges","municipality":{"key":"07143081","name":"Wirges, Stadt","type":"Stadt"},"district":{"key":"07143","name":"Westerwaldkreis","type":"Landkreis"},"federalState":{"key":"07","name":"Rheinland-Pfalz"}},{"name":"Am Merzenborn","postalCode":"56422","locality":"Wirges","municipality":{"key":"07143081","name":"Wirges, Stadt","type":"Stadt"},"district":{"key":"07143","name":"Westerwaldkreis","type":"Landkreis"},"federalState":{"key":"07","name":"Rheinland-Pfalz"}},{"name":"Am Mühlgraben","postalCode":"56422","locality":"Wirges","municipality":{"key":"07143081","name":"Wirges, Stadt","type":"Stadt"},"district":{"key":"07143","name":"Westerwaldkreis","type":"Landkreis"},"federalState":{"key":"07","name":"Rheinland-Pfalz"}},{"name":"Am Walde","postalCode":"56422","locality":"Wirges","municipality":{"key":"07143081","name":"Wirges, Stadt","type":"Stadt"},"district":{"key":"07143","name":"Westerwaldkreis","type":"Landkreis"},"federalState":{"key":"07","name":"Rheinland-Pfalz"}},{"name":"Auf der Tränk","postalCode":"56422","locality":"Wirges","municipality":{"key":"07143081","name":"Wirges, Stadt","type":"Stadt"},"district":{"key":"07143","name":"Westerwaldkreis","type":"Landkreis"},"federalState":{"key":"07","name":"Rheinland-Pfalz"}},{"name":"Bachaue","postalCode":"56422","locality":"Wirges","municipality":{"key":"07143081","name":"Wirges, Stadt","type":"Stadt"},"district":{"key":"07143","name":"Westerwaldkreis","type":"Landkreis"},"federalState":{"key":"07","name":"Rheinland-Pfalz"}},{"name":"Bachstr.","postalCode":"56422","locality":"Wirges","municipality":{"key":"07143081","name":"Wirges, Stadt","type":"Stadt"},"district":{"key":"07143","name":"Westerwaldkreis","type":"Landkreis"},"federalState":{"key":"07","name":"Rheinland-Pfalz"}},{"name":"Bahnhofstr.","postalCode":"56422","locality":"Wirges","municipality":{"key":"07143081","name":"Wirges, Stadt","type":"Stadt"},"district":{"key":"07143","name":"Westerwaldkreis","type":"Landkreis"},"federalState":{"key":"07","name":"Rheinland-Pfalz"}},{"name":"Baustr.","postalCode":"56422","locality":"Wirges","municipality":{"key":"07143081","name":"Wirges, Stadt","type":"Stadt"},"district":{"key":"07143","name":"Westerwaldkreis","type":"Landkreis"},"federalState":{"key":"07","name":"Rheinland-Pfalz"}},{"name":"Beethovenstr.","postalCode":"56422","locality":"Wirges","municipality":{"key":"07143081","name":"Wirges, Stadt","type":"Stadt"},"district":{"key":"07143","name":"Westerwaldkreis","type":"Landkreis"},"federalState":{"key":"07","name":"Rheinland-Pfalz"}},{"name":"Bergstr.","postalCode":"56422","locality":"Wirges","municipality":{"key":"07143081","name":"Wirges, Stadt","type":"Stadt"},"district":{"key":"07143","name":"Westerwaldkreis","type":"Landkreis"},"federalState":{"key":"07","name":"Rheinland-Pfalz"}},{"name":"Berliner Str.","postalCode":"56422","locality":"Wirges","municipality":{"key":"07143081","name":"Wirges, Stadt","type":"Stadt"},"district":{"key":"07143","name":"Westerwaldkreis","type":"Landkreis"},"federalState":{"key":"07","name":"Rheinland-Pfalz"}},{"name":"Birkenweg","postalCode":"56422","locality":"Wirges","municipality":{"key":"07143081","name":"Wirges, Stadt","type":"Stadt"},"district":{"key":"07143","name":"Westerwaldkreis","type":"Landkreis"},"federalState":{"key":"07","name":"Rheinland-Pfalz"}},{"name":"Bitzenweg","postalCode":"56422","locality":"Wirges","municipality":{"key":"07143081","name":"Wirges, Stadt","type":"Stadt"},"district":{"key":"07143","name":"Westerwaldkreis","type":"Landkreis"},"federalState":{"key":"07","name":"Rheinland-Pfalz"}},{"name":"Breslauer Str.","postalCode":"56422","locality":"Wirges","municipality":{"key":"07143081","name":"Wirges, Stadt","type":"Stadt"},"district":{"key":"07143","name":"Westerwaldkreis","type":"Landkreis"},"federalState":{"key":"07","name":"Rheinland-Pfalz"}},{"name":"Brückenstr.","postalCode":"56422","locality":"Wirges","municipality":{"key":"07143081","name":"Wirges, Stadt","type":"Stadt"},"district":{"key":"07143","name":"Westerwaldkreis","type":"Landkreis"},"federalState":{"key":"07","name":"Rheinland-Pfalz"}},{"name":"Burgstr.","postalCode":"56422","locality":"Wirges","municipality":{"key":"07143081","name":"Wirges, Stadt","type":"Stadt"},"district":{"key":"07143","name":"Westerwaldkreis","type":"Landkreis"},"federalState":{"key":"07","name":"Rheinland-Pfalz"}},{"name":"Christian-Heibel-Str.","postalCode":"56422","locality":"Wirges","municipality":{"key":"07143081","name":"Wirges, Stadt","type":"Stadt"},"district":{"key":"07143","name":"Westerwaldkreis","type":"Landkreis"},"federalState":{"key":"07","name":"Rheinland-Pfalz"}},{"name":"Daimlerstr.","postalCode":"56422","locality":"Wirges","municipality":{"key":"07143081","name":"Wirges, Stadt","type":"Stadt"},"district":{"key":"07143","name":"Westerwaldkreis","type":"Landkreis"},"federalState":{"key":"07","name":"Rheinland-Pfalz"}},{"name":"Dresdener Str.","postalCode":"56422","locality":"Wirges","municipality":{"key":"07143081","name":"Wirges, Stadt","type":"Stadt"},"district":{"key":"07143","name":"Westerwaldkreis","type":"Landkreis"},"federalState":{"key":"07","name":"Rheinland-Pfalz"}},{"name":"Dr.-Luschberger-Str.","postalCode":"56422","locality":"Wirges","municipality":{"key":"07143081","name":"Wirges, Stadt","type":"Stadt"},"district":{"key":"07143","name":"Westerwaldkreis","type":"Landkreis"},"federalState":{"key":"07","name":"Rheinland-Pfalz"}},{"name":"Dr.-Wodrich-Str.","postalCode":"56422","locality":"Wirges","municipality":{"key":"07143081","name":"Wirges, Stadt","type":"Stadt"},"district":{"key":"07143","name":"Westerwaldkreis","type":"Landkreis"},"federalState":{"key":"07","name":"Rheinland-Pfalz"}},{"name":"Elisabethenstr.","postalCode":"56422","locality":"Wirges","municipality":{"key":"07143081","name":"Wirges, Stadt","type":"Stadt"},"district":{"key":"07143","name":"Westerwaldkreis","type":"Landkreis"},"federalState":{"key":"07","name":"Rheinland-Pfalz"}},{"name":"Friedensstr.","postalCode":"56422","locality":"Wirges","municipality":{"key":"07143081","name":"Wirges, Stadt","type":"Stadt"},"district":{"key":"07143","name":"Westerwaldkreis","type":"Landkreis"},"federalState":{"key":"07","name":"Rheinland-Pfalz"}},{"name":"Friedrichstr.","postalCode":"56422","locality":"Wirges","municipality":{"key":"07143081","name":"Wirges, Stadt","type":"Stadt"},"district":{"key":"07143","name":"Westerwaldkreis","type":"Landkreis"},"federalState":{"key":"07","name":"Rheinland-Pfalz"}},{"name":"Gartenstr.","postalCode":"56422","locality":"Wirges","municipality":{"key":"07143081","name":"Wirges, Stadt","type":"Stadt"},"district":{"key":"07143","name":"Westerwaldkreis","type":"Landkreis"},"federalState":{"key":"07","name":"Rheinland-Pfalz"}},{"name":"Goethestr.","postalCode":"56422","locality":"Wirges","municipality":{"key":"07143081","name":"Wirges, Stadt","type":"Stadt"},"district":{"key":"07143","name":"Westerwaldkreis","type":"Landkreis"},"federalState":{"key":"07","name":"Rheinland-Pfalz"}},{"name":"Grenzweg","postalCode":"56422","locality":"Wirges","municipality":{"key":"07143081","name":"Wirges, Stadt","type":"Stadt"},"district":{"key":"07143","name":"Westerwaldkreis","type":"Landkreis"},"federalState":{"key":"07","name":"Rheinland-Pfalz"}},{"name":"Gutenbergstr.","postalCode":"56422","locality":"Wirges","municipality":{"key":"07143081","name":"Wirges, Stadt","type":"Stadt"},"district":{"key":"07143","name":"Westerwaldkreis","type":"Landkreis"},"federalState":{"key":"07","name":"Rheinland-Pfalz"}},{"name":"Hans-Böckler-Str.","postalCode":"56422","locality":"Wirges","municipality":{"key":"07143081","name":"Wirges, Stadt","type":"Stadt"},"district":{"key":"07143","name":"Westerwaldkreis","type":"Landkreis"},"federalState":{"key":"07","name":"Rheinland-Pfalz"}},{"name":"Hirschgraben","postalCode":"56422","locality":"Wirges","municipality":{"key":"07143081","name":"Wirges, Stadt","type":"Stadt"},"district":{"key":"07143","name":"Westerwaldkreis","type":"Landkreis"},"federalState":{"key":"07","name":"Rheinland-Pfalz"}},{"name":"Hochstr.","postalCode":"56422","locality":"Wirges","municipality":{"key":"07143081","name":"Wirges, Stadt","type":"Stadt"},"district":{"key":"07143","name":"Westerwaldkreis","type":"Landkreis"},"federalState":{"key":"07","name":"Rheinland-Pfalz"}},{"name":"Im Urbelshals","postalCode":"56422","locality":"Wirges","municipality":{"key":"07143081","name":"Wirges, Stadt","type":"Stadt"},"district":{"key":"07143","name":"Westerwaldkreis","type":"Landkreis"},"federalState":{"key":"07","name":"Rheinland-Pfalz"}},{"name":"In der Grub","postalCode":"56422","locality":"Wirges","municipality":{"key":"07143081","name":"Wirges, Stadt","type":"Stadt"},"district":{"key":"07143","name":"Westerwaldkreis","type":"Landkreis"},"federalState":{"key":"07","name":"Rheinland-Pfalz"}},{"name":"Jahnstr.","postalCode":"56422","locality":"Wirges","municipality":{"key":"07143081","name":"Wirges, Stadt","type":"Stadt"},"district":{"key":"07143","name":"Westerwaldkreis","type":"Landkreis"},"federalState":{"key":"07","name":"Rheinland-Pfalz"}},{"name":"Kannenbäckerweg","postalCode":"56422","locality":"Wirges","municipality":{"key":"07143081","name":"Wirges, Stadt","type":"Stadt"},"district":{"key":"07143","name":"Westerwaldkreis","type":"Landkreis"},"federalState":{"key":"07","name":"Rheinland-Pfalz"}},{"name":"Kantstr.","postalCode":"56422","locality":"Wirges","municipality":{"key":"07143081","name":"Wirges, Stadt","type":"Stadt"},"district":{"key":"07143","name":"Westerwaldkreis","type":"Landkreis"},"federalState":{"key":"07","name":"Rheinland-Pfalz"}},{"name":"Kapellenstr.","postalCode":"56422","locality":"Wirges","municipality":{"key":"07143081","name":"Wirges, Stadt","type":"Stadt"},"district":{"key":"07143","name":"Westerwaldkreis","type":"Landkreis"},"federalState":{"key":"07","name":"Rheinland-Pfalz"}},{"name":"Keltenstr.","postalCode":"56422","locality":"Wirges","municipality":{"key":"07143081","name":"Wirges, Stadt","type":"Stadt"},"district":{"key":"07143","name":"Westerwaldkreis","type":"Landkreis"},"federalState":{"key":"07","name":"Rheinland-Pfalz"}},{"name":"Kirchstr.","postalCode":"56422","locality":"Wirges","municipality":{"key":"07143081","name":"Wirges, Stadt","type":"Stadt"},"district":{"key":"07143","name":"Westerwaldkreis","type":"Landkreis"},"federalState":{"key":"07","name":"Rheinland-Pfalz"}},{"name":"Kolpingstr.","postalCode":"56422","locality":"Wirges","municipality":{"key":"07143081","name":"Wirges, Stadt","type":"Stadt"},"district":{"key":"07143","name":"Westerwaldkreis","type":"Landkreis"},"federalState":{"key":"07","name":"Rheinland-Pfalz"}},{"name":"Krümmelstr.","postalCode":"56422","locality":"Wirges","municipality":{"key":"07143081","name":"Wirges, Stadt","type":"Stadt"},"district":{"key":"07143","name":"Westerwaldkreis","type":"Landkreis"},"federalState":{"key":"07","name":"Rheinland-Pfalz"}},{"name":"Kurtrierer Str.","postalCode":"56422","locality":"Wirges","municipality":{"key":"07143081","name":"Wirges, Stadt","type":"Stadt"},"district":{"key":"07143","name":"Westerwaldkreis","type":"Landkreis"},"federalState":{"key":"07","name":"Rheinland-Pfalz"}},{"name":"Lahnweg","postalCode":"56422","locality":"Wirges","municipality":{"key":"07143081","name":"Wirges, Stadt","type":"Stadt"},"district":{"key":"07143","name":"Westerwaldkreis","type":"Landkreis"},"federalState":{"key":"07","name":"Rheinland-Pfalz"}},{"name":"Leipziger Str.","postalCode":"56422","locality":"Wirges","municipality":{"key":"07143081","name":"Wirges, Stadt","type":"Stadt"},"district":{"key":"07143","name":"Westerwaldkreis","type":"Landkreis"},"federalState":{"key":"07","name":"Rheinland-Pfalz"}},{"name":"Lindenstr.","postalCode":"56422","locality":"Wirges","municipality":{"key":"07143081","name":"Wirges, Stadt","type":"Stadt"},"district":{"key":"07143","name":"Westerwaldkreis","type":"Landkreis"},"federalState":{"key":"07","name":"Rheinland-Pfalz"}},{"name":"Lohmühlenstr.","postalCode":"56422","locality":"Wirges","municipality":{"key":"07143081","name":"Wirges, Stadt","type":"Stadt"},"district":{"key":"07143","name":"Westerwaldkreis","type":"Landkreis"},"federalState":{"key":"07","name":"Rheinland-Pfalz"}},{"name":"Martin-Luther-Str.","postalCode":"56422","locality":"Wirges","municipality":{"key":"07143081","name":"Wirges, Stadt","type":"Stadt"},"district":{"key":"07143","name":"Westerwaldkreis","type":"Landkreis"},"federalState":{"key":"07","name":"Rheinland-Pfalz"}},{"name":"Max-Planck-Str.","postalCode":"56422","locality":"Wirges","municipality":{"key":"07143081","name":"Wirges, Stadt","type":"Stadt"},"district":{"key":"07143","name":"Westerwaldkreis","type":"Landkreis"},"federalState":{"key":"07","name":"Rheinland-Pfalz"}},{"name":"Mengweide","postalCode":"56422","locality":"Wirges","municipality":{"key":"07143081","name":"Wirges, Stadt","type":"Stadt"},"district":{"key":"07143","name":"Westerwaldkreis","type":"Landkreis"},"federalState":{"key":"07","name":"Rheinland-Pfalz"}},{"name":"Mittelstr.","postalCode":"56422","locality":"Wirges","municipality":{"key":"07143081","name":"Wirges, Stadt","type":"Stadt"},"district":{"key":"07143","name":"Westerwaldkreis","type":"Landkreis"},"federalState":{"key":"07","name":"Rheinland-Pfalz"}},{"name":"Montchaninstr.","postalCode":"56422","locality":"Wirges","municipality":{"key":"07143081","name":"Wirges, Stadt","type":"Stadt"},"district":{"key":"07143","name":"Westerwaldkreis","type":"Landkreis"},"federalState":{"key":"07","name":"Rheinland-Pfalz"}},{"name":"Moselweg","postalCode":"56422","locality":"Wirges","municipality":{"key":"07143081","name":"Wirges, Stadt","type":"Stadt"},"district":{"key":"07143","name":"Westerwaldkreis","type":"Landkreis"},"federalState":{"key":"07","name":"Rheinland-Pfalz"}},{"name":"Mozartstr.","postalCode":"56422","locality":"Wirges","municipality":{"key":"07143081","name":"Wirges, Stadt","type":"Stadt"},"district":{"key":"07143","name":"Westerwaldkreis","type":"Landkreis"},"federalState":{"key":"07","name":"Rheinland-Pfalz"}},{"name":"Mühlwiese","postalCode":"56422","locality":"Wirges","municipality":{"key":"07143081","name":"Wirges, Stadt","type":"Stadt"},"district":{"key":"07143","name":"Westerwaldkreis","type":"Landkreis"},"federalState":{"key":"07","name":"Rheinland-Pfalz"}},{"name":"Nassauer Ring","postalCode":"56422","locality":"Wirges","municipality":{"key":"07143081","name":"Wirges, Stadt","type":"Stadt"},"district":{"key":"07143","name":"Westerwaldkreis","type":"Landkreis"},"federalState":{"key":"07","name":"Rheinland-Pfalz"}},{"name":"Neue Str.","postalCode":"56422","locality":"Wirges","municipality":{"key":"07143081","name":"Wirges, Stadt","type":"Stadt"},"district":{"key":"07143","name":"Westerwaldkreis","type":"Landkreis"},"federalState":{"key":"07","name":"Rheinland-Pfalz"}},{"name":"Nikolausstr.","postalCode":"56422","locality":"Wirges","municipality":{"key":"07143081","name":"Wirges, Stadt","type":"Stadt"},"district":{"key":"07143","name":"Westerwaldkreis","type":"Landkreis"},"federalState":{"key":"07","name":"Rheinland-Pfalz"}},{"name":"Nordstr.","postalCode":"56422","locality":"Wirges","municipality":{"key":"07143081","name":"Wirges, Stadt","type":"Stadt"},"district":{"key":"07143","name":"Westerwaldkreis","type":"Landkreis"},"federalState":{"key":"07","name":"Rheinland-Pfalz"}},{"name":"Pfarrstr.","postalCode":"56422","locality":"Wirges","municipality":{"key":"07143081","name":"Wirges, Stadt","type":"Stadt"},"district":{"key":"07143","name":"Westerwaldkreis","type":"Landkreis"},"federalState":{"key":"07","name":"Rheinland-Pfalz"}},{"name":"Reginlindenpark","postalCode":"56422","locality":"Wirges","municipality":{"key":"07143081","name":"Wirges, Stadt","type":"Stadt"},"district":{"key":"07143","name":"Westerwaldkreis","type":"Landkreis"},"federalState":{"key":"07","name":"Rheinland-Pfalz"}},{"name":"Robert-Koch-Str.","postalCode":"56422","locality":"Wirges","municipality":{"key":"07143081","name":"Wirges, Stadt","type":"Stadt"},"district":{"key":"07143","name":"Westerwaldkreis","type":"Landkreis"},"federalState":{"key":"07","name":"Rheinland-Pfalz"}},{"name":"Rolandstr.","postalCode":"56422","locality":"Wirges","municipality":{"key":"07143081","name":"Wirges, Stadt","type":"Stadt"},"district":{"key":"07143","name":"Westerwaldkreis","type":"Landkreis"},"federalState":{"key":"07","name":"Rheinland-Pfalz"}},{"name":"Römerstr.","postalCode":"56422","locality":"Wirges","municipality":{"key":"07143081","name":"Wirges, Stadt","type":"Stadt"},"district":{"key":"07143","name":"Westerwaldkreis","type":"Landkreis"},"federalState":{"key":"07","name":"Rheinland-Pfalz"}},{"name":"Samoborstr.","postalCode":"56422","locality":"Wirges","municipality":{"key":"07143081","name":"Wirges, Stadt","type":"Stadt"},"district":{"key":"07143","name":"Westerwaldkreis","type":"Landkreis"},"federalState":{"key":"07","name":"Rheinland-Pfalz"}},{"name":"Schillerstr.","postalCode":"56422","locality":"Wirges","municipality":{"key":"07143081","name":"Wirges, Stadt","type":"Stadt"},"district":{"key":"07143","name":"Westerwaldkreis","type":"Landkreis"},"federalState":{"key":"07","name":"Rheinland-Pfalz"}},{"name":"Schlesische Str.","postalCode":"56422","locality":"Wirges","municipality":{"key":"07143081","name":"Wirges, Stadt","type":"Stadt"},"district":{"key":"07143","name":"Westerwaldkreis","type":"Landkreis"},"federalState":{"key":"07","name":"Rheinland-Pfalz"}},{"name":"Siemensstr.","postalCode":"56422","locality":"Wirges","municipality":{"key":"07143081","name":"Wirges, Stadt","type":"Stadt"},"district":{"key":"07143","name":"Westerwaldkreis","type":"Landkreis"},"federalState":{"key":"07","name":"Rheinland-Pfalz"}},{"name":"Steinerne Brücke","postalCode":"56422","locality":"Wirges","municipality":{"key":"07143081","name":"Wirges, Stadt","type":"Stadt"},"district":{"key":"07143","name":"Westerwaldkreis","type":"Landkreis"},"federalState":{"key":"07","name":"Rheinland-Pfalz"}},{"name":"Südstr.","postalCode":"56422","locality":"Wirges","municipality":{"key":"07143081","name":"Wirges, Stadt","type":"Stadt"},"district":{"key":"07143","name":"Westerwaldkreis","type":"Landkreis"},"federalState":{"key":"07","name":"Rheinland-Pfalz"}},{"name":"Theodor-Heuss-Ring","postalCode":"56422","locality":"Wirges","municipality":{"key":"07143081","name":"Wirges, Stadt","type":"Stadt"},"district":{"key":"07143","name":"Westerwaldkreis","type":"Landkreis"},"federalState":{"key":"07","name":"Rheinland-Pfalz"}},{"name":"Walter-Liebig-Str.","postalCode":"56422","locality":"Wirges","municipality":{"key":"07143081","name":"Wirges, Stadt","type":"Stadt"},"district":{"key":"07143","name":"Westerwaldkreis","type":"Landkreis"},"federalState":{"key":"07","name":"Rheinland-Pfalz"}},{"name":"Wehrstr.","postalCode":"56422","locality":"Wirges","municipality":{"key":"07143081","name":"Wirges, Stadt","type":"Stadt"},"district":{"key":"07143","name":"Westerwaldkreis","type":"Landkreis"},"federalState":{"key":"07","name":"Rheinland-Pfalz"}},{"name":"Weiherstr.","postalCode":"56422","locality":"Wirges","municipality":{"key":"07143081","name":"Wirges, Stadt","type":"Stadt"},"district":{"key":"07143","name":"Westerwaldkreis","type":"Landkreis"},"federalState":{"key":"07","name":"Rheinland-Pfalz"}},{"name":"Westerwaldstr.","postalCode":"56422","locality":"Wirges","municipality":{"key":"07143081","name":"Wirges, Stadt","type":"Stadt"},"district":{"key":"07143","name":"Westerwaldkreis","type":"Landkreis"},"federalState":{"key":"07","name":"Rheinland-Pfalz"}},{"name":"Wiesenstr.","postalCode":"56422","locality":"Wirges","municipality":{"key":"07143081","name":"Wirges, Stadt","type":"Stadt"},"district":{"key":"07143","name":"Westerwaldkreis","type":"Landkreis"},"federalState":{"key":"07","name":"Rheinland-Pfalz"}},{"name":"Wirgeser Weg","postalCode":"56422","locality":"Wirges","municipality":{"key":"07143081","name":"Wirges, Stadt","type":"Stadt"},"district":{"key":"07143","name":"Westerwaldkreis","type":"Landkreis"},"federalState":{"key":"07","name":"Rheinland-Pfalz"}},]