[{"name":"Auf der Schwefelsburg","postalCode":"56244","locality":"Wölferlingen","municipality":{"key":"07143085","name":"Wölferlingen","type":"Kreisangehörige_Gemeinde"},"district":{"key":"07143","name":"Westerwaldkreis","type":"Landkreis"},"federalState":{"key":"07","name":"Rheinland-Pfalz"}},{"name":"Bachstr.","postalCode":"56244","locality":"Wölferlingen","municipality":{"key":"07143085","name":"Wölferlingen","type":"Kreisangehörige_Gemeinde"},"district":{"key":"07143","name":"Westerwaldkreis","type":"Landkreis"},"federalState":{"key":"07","name":"Rheinland-Pfalz"}},{"name":"Düringer Str.","postalCode":"56244","locality":"Wölferlingen","municipality":{"key":"07143085","name":"Wölferlingen","type":"Kreisangehörige_Gemeinde"},"district":{"key":"07143","name":"Westerwaldkreis","type":"Landkreis"},"federalState":{"key":"07","name":"Rheinland-Pfalz"}},{"name":"Feldwiesenstr.","postalCode":"56244","locality":"Wölferlingen","municipality":{"key":"07143085","name":"Wölferlingen","type":"Kreisangehörige_Gemeinde"},"district":{"key":"07143","name":"Westerwaldkreis","type":"Landkreis"},"federalState":{"key":"07","name":"Rheinland-Pfalz"}},{"name":"Freilinger Str.","postalCode":"56244","locality":"Wölferlingen","municipality":{"key":"07143085","name":"Wölferlingen","type":"Kreisangehörige_Gemeinde"},"district":{"key":"07143","name":"Westerwaldkreis","type":"Landkreis"},"federalState":{"key":"07","name":"Rheinland-Pfalz"}},{"name":"Hannesfellerstr.","postalCode":"56244","locality":"Wölferlingen","municipality":{"key":"07143085","name":"Wölferlingen","type":"Kreisangehörige_Gemeinde"},"district":{"key":"07143","name":"Westerwaldkreis","type":"Landkreis"},"federalState":{"key":"07","name":"Rheinland-Pfalz"}},{"name":"Hauptstr.","postalCode":"56244","locality":"Wölferlingen","municipality":{"key":"07143085","name":"Wölferlingen","type":"Kreisangehörige_Gemeinde"},"district":{"key":"07143","name":"Westerwaldkreis","type":"Landkreis"},"federalState":{"key":"07","name":"Rheinland-Pfalz"}},{"name":"Heidestr.","postalCode":"56244","locality":"Wölferlingen","municipality":{"key":"07143085","name":"Wölferlingen","type":"Kreisangehörige_Gemeinde"},"district":{"key":"07143","name":"Westerwaldkreis","type":"Landkreis"},"federalState":{"key":"07","name":"Rheinland-Pfalz"}},{"name":"Kaulstr.","postalCode":"56244","locality":"Wölferlingen","municipality":{"key":"07143085","name":"Wölferlingen","type":"Kreisangehörige_Gemeinde"},"district":{"key":"07143","name":"Westerwaldkreis","type":"Landkreis"},"federalState":{"key":"07","name":"Rheinland-Pfalz"}},{"name":"Obere Gondorf","postalCode":"56244","locality":"Wölferlingen","municipality":{"key":"07143085","name":"Wölferlingen","type":"Kreisangehörige_Gemeinde"},"district":{"key":"07143","name":"Westerwaldkreis","type":"Landkreis"},"federalState":{"key":"07","name":"Rheinland-Pfalz"}},{"name":"Poststr.","postalCode":"56244","locality":"Wölferlingen","municipality":{"key":"07143085","name":"Wölferlingen","type":"Kreisangehörige_Gemeinde"},"district":{"key":"07143","name":"Westerwaldkreis","type":"Landkreis"},"federalState":{"key":"07","name":"Rheinland-Pfalz"}},{"name":"Rotenhainer Str.","postalCode":"56244","locality":"Wölferlingen","municipality":{"key":"07143085","name":"Wölferlingen","type":"Kreisangehörige_Gemeinde"},"district":{"key":"07143","name":"Westerwaldkreis","type":"Landkreis"},"federalState":{"key":"07","name":"Rheinland-Pfalz"}},{"name":"Schulstr.","postalCode":"56244","locality":"Wölferlingen","municipality":{"key":"07143085","name":"Wölferlingen","type":"Kreisangehörige_Gemeinde"},"district":{"key":"07143","name":"Westerwaldkreis","type":"Landkreis"},"federalState":{"key":"07","name":"Rheinland-Pfalz"}},{"name":"Unterdorfstr.","postalCode":"56244","locality":"Wölferlingen","municipality":{"key":"07143085","name":"Wölferlingen","type":"Kreisangehörige_Gemeinde"},"district":{"key":"07143","name":"Westerwaldkreis","type":"Landkreis"},"federalState":{"key":"07","name":"Rheinland-Pfalz"}},{"name":"Untere Gondorf","postalCode":"56244","locality":"Wölferlingen","municipality":{"key":"07143085","name":"Wölferlingen","type":"Kreisangehörige_Gemeinde"},"district":{"key":"07143","name":"Westerwaldkreis","type":"Landkreis"},"federalState":{"key":"07","name":"Rheinland-Pfalz"}},{"name":"Weidenhahner Str.","postalCode":"56244","locality":"Wölferlingen","municipality":{"key":"07143085","name":"Wölferlingen","type":"Kreisangehörige_Gemeinde"},"district":{"key":"07143","name":"Westerwaldkreis","type":"Landkreis"},"federalState":{"key":"07","name":"Rheinland-Pfalz"}},]