[{"key":"10093105","name":"Alte Landstrasse","postalCode":"5465","locality":"Mellikon","commune":{"key":"4314","name":"Mellikon","shortName":"Mellikon"},"district":{"key":"1911","name":"Bezirk Zurzach"},"canton":{"key":"19","code":"AG","name":"Aargau"},"status":"Real"},{"key":"10190272","name":"Ankerainli","postalCode":"5465","locality":"Mellikon","commune":{"key":"4314","name":"Mellikon","shortName":"Mellikon"},"district":{"key":"1911","name":"Bezirk Zurzach"},"canton":{"key":"19","code":"AG","name":"Aargau"},"status":"Real"},{"key":"10167743","name":"Berghofstrasse","postalCode":"5465","locality":"Mellikon","commune":{"key":"4314","name":"Mellikon","shortName":"Mellikon"},"district":{"key":"1911","name":"Bezirk Zurzach"},"canton":{"key":"19","code":"AG","name":"Aargau"},"status":"Real"},{"key":"10072246","name":"Bünt","postalCode":"5465","locality":"Mellikon","commune":{"key":"4314","name":"Mellikon","shortName":"Mellikon"},"district":{"key":"1911","name":"Bezirk Zurzach"},"canton":{"key":"19","code":"AG","name":"Aargau"},"status":"Real"},{"key":"10028395","name":"Dorfstrasse","postalCode":"5465","locality":"Mellikon","commune":{"key":"4314","name":"Mellikon","shortName":"Mellikon"},"district":{"key":"1911","name":"Bezirk Zurzach"},"canton":{"key":"19","code":"AG","name":"Aargau"},"status":"Real"},{"key":"10028396","name":"Holgasse","postalCode":"5465","locality":"Mellikon","commune":{"key":"4314","name":"Mellikon","shortName":"Mellikon"},"district":{"key":"1911","name":"Bezirk Zurzach"},"canton":{"key":"19","code":"AG","name":"Aargau"},"status":"Real"},{"key":"10072247","name":"Hueb","postalCode":"5465","locality":"Mellikon","commune":{"key":"4314","name":"Mellikon","shortName":"Mellikon"},"district":{"key":"1911","name":"Bezirk Zurzach"},"canton":{"key":"19","code":"AG","name":"Aargau"},"status":"Real"},{"key":"10028397","name":"Im Strick","postalCode":"5465","locality":"Mellikon","commune":{"key":"4314","name":"Mellikon","shortName":"Mellikon"},"district":{"key":"1911","name":"Bezirk Zurzach"},"canton":{"key":"19","code":"AG","name":"Aargau"},"status":"Real"},{"key":"10093106","name":"Im Winkel","postalCode":"5465","locality":"Mellikon","commune":{"key":"4314","name":"Mellikon","shortName":"Mellikon"},"district":{"key":"1911","name":"Bezirk Zurzach"},"canton":{"key":"19","code":"AG","name":"Aargau"},"status":"Real"},{"key":"10072248","name":"Kraftwerkstrasse","postalCode":"5465","locality":"Mellikon","commune":{"key":"4314","name":"Mellikon","shortName":"Mellikon"},"district":{"key":"1911","name":"Bezirk Zurzach"},"canton":{"key":"19","code":"AG","name":"Aargau"},"status":"Real"},{"key":"10183791","name":"Nackthof","postalCode":"5465","locality":"Mellikon","commune":{"key":"4314","name":"Mellikon","shortName":"Mellikon"},"district":{"key":"1911","name":"Bezirk Zurzach"},"canton":{"key":"19","code":"AG","name":"Aargau"},"status":"Real"},{"key":"10239835","name":"Ortsverbindung","postalCode":"5465","locality":"Mellikon","commune":{"key":"4314","name":"Mellikon","shortName":"Mellikon"},"district":{"key":"1911","name":"Bezirk Zurzach"},"canton":{"key":"19","code":"AG","name":"Aargau"},"status":"Real"},{"key":"10049894","name":"Ostzelg","postalCode":"5465","locality":"Mellikon","commune":{"key":"4314","name":"Mellikon","shortName":"Mellikon"},"district":{"key":"1911","name":"Bezirk Zurzach"},"canton":{"key":"19","code":"AG","name":"Aargau"},"status":"Real"},{"key":"10028398","name":"Postweg","postalCode":"5465","locality":"Mellikon","commune":{"key":"4314","name":"Mellikon","shortName":"Mellikon"},"district":{"key":"1911","name":"Bezirk Zurzach"},"canton":{"key":"19","code":"AG","name":"Aargau"},"status":"Real"},{"key":"10239839","name":"Rheintalstrasse","postalCode":"5465","locality":"Mellikon","commune":{"key":"4314","name":"Mellikon","shortName":"Mellikon"},"district":{"key":"1911","name":"Bezirk Zurzach"},"canton":{"key":"19","code":"AG","name":"Aargau"},"status":"Real"},{"key":"10093107","name":"Rooswisstrasse","postalCode":"5465","locality":"Mellikon","commune":{"key":"4314","name":"Mellikon","shortName":"Mellikon"},"district":{"key":"1911","name":"Bezirk Zurzach"},"canton":{"key":"19","code":"AG","name":"Aargau"},"status":"Real"},{"key":"10124408","name":"Rüchi","postalCode":"5465","locality":"Mellikon","commune":{"key":"4314","name":"Mellikon","shortName":"Mellikon"},"district":{"key":"1911","name":"Bezirk Zurzach"},"canton":{"key":"19","code":"AG","name":"Aargau"},"status":"Real"},{"key":"10107078","name":"Schulstrasse","postalCode":"5465","locality":"Mellikon","commune":{"key":"4314","name":"Mellikon","shortName":"Mellikon"},"district":{"key":"1911","name":"Bezirk Zurzach"},"canton":{"key":"19","code":"AG","name":"Aargau"},"status":"Real"},{"key":"10130026","name":"Steinbruch","postalCode":"5465","locality":"Mellikon","commune":{"key":"4314","name":"Mellikon","shortName":"Mellikon"},"district":{"key":"1911","name":"Bezirk Zurzach"},"canton":{"key":"19","code":"AG","name":"Aargau"},"status":"Real"},{"key":"10190273","name":"Steinbruchweg","postalCode":"5465","locality":"Mellikon","commune":{"key":"4314","name":"Mellikon","shortName":"Mellikon"},"district":{"key":"1911","name":"Bezirk Zurzach"},"canton":{"key":"19","code":"AG","name":"Aargau"},"status":"Real"},{"key":"10093108","name":"Unterer Berghof","postalCode":"5465","locality":"Mellikon","commune":{"key":"4314","name":"Mellikon","shortName":"Mellikon"},"district":{"key":"1911","name":"Bezirk Zurzach"},"canton":{"key":"19","code":"AG","name":"Aargau"},"status":"Real"},{"key":"10174240","name":"Von Roll Weg","postalCode":"5465","locality":"Mellikon","commune":{"key":"4314","name":"Mellikon","shortName":"Mellikon"},"district":{"key":"1911","name":"Bezirk Zurzach"},"canton":{"key":"19","code":"AG","name":"Aargau"},"status":"Real"},{"key":"10189190","name":"Zilistude","postalCode":"5465","locality":"Mellikon","commune":{"key":"4314","name":"Mellikon","shortName":"Mellikon"},"district":{"key":"1911","name":"Bezirk Zurzach"},"canton":{"key":"19","code":"AG","name":"Aargau"},"status":"Real"},]