[{"name":"Ahornweg","postalCode":"94569","locality":"Stephansposching","municipality":{"key":"09271151","name":"Stephansposching","type":"Kreisangehörige_Gemeinde"},"district":{"key":"09271","name":"Deggendorf","type":"Landkreis"},"federalState":{"key":"09","name":"Bayern"}},{"name":"Altenbucher Weg","postalCode":"94569","locality":"Stephansposching","municipality":{"key":"09271151","name":"Stephansposching","type":"Kreisangehörige_Gemeinde"},"district":{"key":"09271","name":"Deggendorf","type":"Landkreis"},"federalState":{"key":"09","name":"Bayern"}},{"name":"Altenmarkweg","postalCode":"94569","locality":"Stephansposching","municipality":{"key":"09271151","name":"Stephansposching","type":"Kreisangehörige_Gemeinde"},"district":{"key":"09271","name":"Deggendorf","type":"Landkreis"},"federalState":{"key":"09","name":"Bayern"}},{"name":"Alte Schulgasse","postalCode":"94569","locality":"Stephansposching","municipality":{"key":"09271151","name":"Stephansposching","type":"Kreisangehörige_Gemeinde"},"district":{"key":"09271","name":"Deggendorf","type":"Landkreis"},"federalState":{"key":"09","name":"Bayern"}},{"name":"Am Hohlweg","postalCode":"94569","locality":"Stephansposching","municipality":{"key":"09271151","name":"Stephansposching","type":"Kreisangehörige_Gemeinde"},"district":{"key":"09271","name":"Deggendorf","type":"Landkreis"},"federalState":{"key":"09","name":"Bayern"}},{"name":"Am Otzinger Weg","postalCode":"94569","locality":"Stephansposching","municipality":{"key":"09271151","name":"Stephansposching","type":"Kreisangehörige_Gemeinde"},"district":{"key":"09271","name":"Deggendorf","type":"Landkreis"},"federalState":{"key":"09","name":"Bayern"}},{"name":"Amselweg","postalCode":"94569","locality":"Stephansposching","municipality":{"key":"09271151","name":"Stephansposching","type":"Kreisangehörige_Gemeinde"},"district":{"key":"09271","name":"Deggendorf","type":"Landkreis"},"federalState":{"key":"09","name":"Bayern"}},{"name":"Angerweg","postalCode":"94569","locality":"Stephansposching","municipality":{"key":"09271151","name":"Stephansposching","type":"Kreisangehörige_Gemeinde"},"district":{"key":"09271","name":"Deggendorf","type":"Landkreis"},"federalState":{"key":"09","name":"Bayern"}},{"name":"Bachstr.","postalCode":"94569","locality":"Stephansposching","municipality":{"key":"09271151","name":"Stephansposching","type":"Kreisangehörige_Gemeinde"},"district":{"key":"09271","name":"Deggendorf","type":"Landkreis"},"federalState":{"key":"09","name":"Bayern"}},{"name":"Bahnhofstr.","postalCode":"94569","locality":"Stephansposching","municipality":{"key":"09271151","name":"Stephansposching","type":"Kreisangehörige_Gemeinde"},"district":{"key":"09271","name":"Deggendorf","type":"Landkreis"},"federalState":{"key":"09","name":"Bayern"}},{"name":"Bahnweg","postalCode":"94569","locality":"Stephansposching","municipality":{"key":"09271151","name":"Stephansposching","type":"Kreisangehörige_Gemeinde"},"district":{"key":"09271","name":"Deggendorf","type":"Landkreis"},"federalState":{"key":"09","name":"Bayern"}},{"name":"Benediktinerring","postalCode":"94569","locality":"Stephansposching","municipality":{"key":"09271151","name":"Stephansposching","type":"Kreisangehörige_Gemeinde"},"district":{"key":"09271","name":"Deggendorf","type":"Landkreis"},"federalState":{"key":"09","name":"Bayern"}},{"name":"Birkenweg","postalCode":"94569","locality":"Stephansposching","municipality":{"key":"09271151","name":"Stephansposching","type":"Kreisangehörige_Gemeinde"},"district":{"key":"09271","name":"Deggendorf","type":"Landkreis"},"federalState":{"key":"09","name":"Bayern"}},{"name":"Blumenweg","postalCode":"94569","locality":"Stephansposching","municipality":{"key":"09271151","name":"Stephansposching","type":"Kreisangehörige_Gemeinde"},"district":{"key":"09271","name":"Deggendorf","type":"Landkreis"},"federalState":{"key":"09","name":"Bayern"}},{"name":"Buchenweg","postalCode":"94569","locality":"Stephansposching","municipality":{"key":"09271151","name":"Stephansposching","type":"Kreisangehörige_Gemeinde"},"district":{"key":"09271","name":"Deggendorf","type":"Landkreis"},"federalState":{"key":"09","name":"Bayern"}},{"name":"Christian-Winck-Weg","postalCode":"94469","locality":"Deggendorf","municipality":{"key":"09271119","name":"Deggendorf, GKSt","type":"Große_Kreisstadt"},"district":{"key":"09271","name":"Deggendorf","type":"Landkreis"},"federalState":{"key":"09","name":"Bayern"}},{"name":"Cölestin-Maier-Weg","postalCode":"94469","locality":"Deggendorf","municipality":{"key":"09271119","name":"Deggendorf, GKSt","type":"Große_Kreisstadt"},"district":{"key":"09271","name":"Deggendorf","type":"Landkreis"},"federalState":{"key":"09","name":"Bayern"}},{"name":"Crusila Passage","postalCode":"94469","locality":"Deggendorf","municipality":{"key":"09271119","name":"Deggendorf, GKSt","type":"Große_Kreisstadt"},"district":{"key":"09271","name":"Deggendorf","type":"Landkreis"},"federalState":{"key":"09","name":"Bayern"}},{"name":"Deggendorfer Str.","postalCode":"94569","locality":"Stephansposching","municipality":{"key":"09271151","name":"Stephansposching","type":"Kreisangehörige_Gemeinde"},"district":{"key":"09271","name":"Deggendorf","type":"Landkreis"},"federalState":{"key":"09","name":"Bayern"}},{"name":"Dorfstr.","postalCode":"94569","locality":"Stephansposching","municipality":{"key":"09271151","name":"Stephansposching","type":"Kreisangehörige_Gemeinde"},"district":{"key":"09271","name":"Deggendorf","type":"Landkreis"},"federalState":{"key":"09","name":"Bayern"}},{"name":"Edenhofer Str.","postalCode":"94469","locality":"Deggendorf","municipality":{"key":"09271119","name":"Deggendorf, GKSt","type":"Große_Kreisstadt"},"district":{"key":"09271","name":"Deggendorf","type":"Landkreis"},"federalState":{"key":"09","name":"Bayern"}},{"name":"Edlmairstr.","postalCode":"94469","locality":"Deggendorf","municipality":{"key":"09271119","name":"Deggendorf, GKSt","type":"Große_Kreisstadt"},"district":{"key":"09271","name":"Deggendorf","type":"Landkreis"},"federalState":{"key":"09","name":"Bayern"}},{"name":"Egger Str.","postalCode":"94469","locality":"Deggendorf","municipality":{"key":"09271119","name":"Deggendorf, GKSt","type":"Große_Kreisstadt"},"district":{"key":"09271","name":"Deggendorf","type":"Landkreis"},"federalState":{"key":"09","name":"Bayern"}},{"name":"Eginger Str.","postalCode":"94469","locality":"Deggendorf","municipality":{"key":"09271119","name":"Deggendorf, GKSt","type":"Große_Kreisstadt"},"district":{"key":"09271","name":"Deggendorf","type":"Landkreis"},"federalState":{"key":"09","name":"Bayern"}},{"name":"Eiberg","postalCode":"94469","locality":"Deggendorf","municipality":{"key":"09271119","name":"Deggendorf, GKSt","type":"Große_Kreisstadt"},"district":{"key":"09271","name":"Deggendorf","type":"Landkreis"},"federalState":{"key":"09","name":"Bayern"}},{"name":"Eichenstr.","postalCode":"94469","locality":"Deggendorf","municipality":{"key":"09271119","name":"Deggendorf, GKSt","type":"Große_Kreisstadt"},"district":{"key":"09271","name":"Deggendorf","type":"Landkreis"},"federalState":{"key":"09","name":"Bayern"}},{"name":"Eichthalstr.","postalCode":"94469","locality":"Deggendorf","municipality":{"key":"09271119","name":"Deggendorf, GKSt","type":"Große_Kreisstadt"},"district":{"key":"09271","name":"Deggendorf","type":"Landkreis"},"federalState":{"key":"09","name":"Bayern"}},{"name":"Einkind","postalCode":"94469","locality":"Deggendorf","municipality":{"key":"09271119","name":"Deggendorf, GKSt","type":"Große_Kreisstadt"},"district":{"key":"09271","name":"Deggendorf","type":"Landkreis"},"federalState":{"key":"09","name":"Bayern"}},{"name":"Elserstr.","postalCode":"94469","locality":"Deggendorf","municipality":{"key":"09271119","name":"Deggendorf, GKSt","type":"Große_Kreisstadt"},"district":{"key":"09271","name":"Deggendorf","type":"Landkreis"},"federalState":{"key":"09","name":"Bayern"}},{"name":"Emil-Simstisch-Weg","postalCode":"94469","locality":"Deggendorf","municipality":{"key":"09271119","name":"Deggendorf, GKSt","type":"Große_Kreisstadt"},"district":{"key":"09271","name":"Deggendorf","type":"Landkreis"},"federalState":{"key":"09","name":"Bayern"}},{"name":"Erlenstr.","postalCode":"94469","locality":"Deggendorf","municipality":{"key":"09271119","name":"Deggendorf, GKSt","type":"Große_Kreisstadt"},"district":{"key":"09271","name":"Deggendorf","type":"Landkreis"},"federalState":{"key":"09","name":"Bayern"}},{"name":"Esterbachstr.","postalCode":"94469","locality":"Deggendorf","municipality":{"key":"09271119","name":"Deggendorf, GKSt","type":"Große_Kreisstadt"},"district":{"key":"09271","name":"Deggendorf","type":"Landkreis"},"federalState":{"key":"09","name":"Bayern"}},{"name":"Fabianstr.","postalCode":"94569","locality":"Stephansposching","municipality":{"key":"09271151","name":"Stephansposching","type":"Kreisangehörige_Gemeinde"},"district":{"key":"09271","name":"Deggendorf","type":"Landkreis"},"federalState":{"key":"09","name":"Bayern"}},{"name":"Ferdinand-Porsche-Str.","postalCode":"94569","locality":"Stephansposching","municipality":{"key":"09271151","name":"Stephansposching","type":"Kreisangehörige_Gemeinde"},"district":{"key":"09271","name":"Deggendorf","type":"Landkreis"},"federalState":{"key":"09","name":"Bayern"}},{"name":"Finkenweg","postalCode":"94569","locality":"Stephansposching","municipality":{"key":"09271151","name":"Stephansposching","type":"Kreisangehörige_Gemeinde"},"district":{"key":"09271","name":"Deggendorf","type":"Landkreis"},"federalState":{"key":"09","name":"Bayern"}},{"name":"Firststr.","postalCode":"94569","locality":"Stephansposching","municipality":{"key":"09271151","name":"Stephansposching","type":"Kreisangehörige_Gemeinde"},"district":{"key":"09271","name":"Deggendorf","type":"Landkreis"},"federalState":{"key":"09","name":"Bayern"}},{"name":"Flurweg","postalCode":"94569","locality":"Stephansposching","municipality":{"key":"09271151","name":"Stephansposching","type":"Kreisangehörige_Gemeinde"},"district":{"key":"09271","name":"Deggendorf","type":"Landkreis"},"federalState":{"key":"09","name":"Bayern"}},{"name":"Föhrenweg","postalCode":"94569","locality":"Stephansposching","municipality":{"key":"09271151","name":"Stephansposching","type":"Kreisangehörige_Gemeinde"},"district":{"key":"09271","name":"Deggendorf","type":"Landkreis"},"federalState":{"key":"09","name":"Bayern"}},{"name":"Forellenweg","postalCode":"94569","locality":"Stephansposching","municipality":{"key":"09271151","name":"Stephansposching","type":"Kreisangehörige_Gemeinde"},"district":{"key":"09271","name":"Deggendorf","type":"Landkreis"},"federalState":{"key":"09","name":"Bayern"}},{"name":"Freundorfer Str.","postalCode":"94569","locality":"Stephansposching","municipality":{"key":"09271151","name":"Stephansposching","type":"Kreisangehörige_Gemeinde"},"district":{"key":"09271","name":"Deggendorf","type":"Landkreis"},"federalState":{"key":"09","name":"Bayern"}},{"name":"Freundorf-Süd","postalCode":"94569","locality":"Stephansposching","municipality":{"key":"09271151","name":"Stephansposching","type":"Kreisangehörige_Gemeinde"},"district":{"key":"09271","name":"Deggendorf","type":"Landkreis"},"federalState":{"key":"09","name":"Bayern"}},{"name":"Frühlingsstr.","postalCode":"94569","locality":"Stephansposching","municipality":{"key":"09271151","name":"Stephansposching","type":"Kreisangehörige_Gemeinde"},"district":{"key":"09271","name":"Deggendorf","type":"Landkreis"},"federalState":{"key":"09","name":"Bayern"}},{"name":"Gartenweg","postalCode":"94569","locality":"Stephansposching","municipality":{"key":"09271151","name":"Stephansposching","type":"Kreisangehörige_Gemeinde"},"district":{"key":"09271","name":"Deggendorf","type":"Landkreis"},"federalState":{"key":"09","name":"Bayern"}},{"name":"Glaubitzer Str.","postalCode":"94569","locality":"Stephansposching","municipality":{"key":"09271151","name":"Stephansposching","type":"Kreisangehörige_Gemeinde"},"district":{"key":"09271","name":"Deggendorf","type":"Landkreis"},"federalState":{"key":"09","name":"Bayern"}},{"name":"Hausgärtenweg","postalCode":"94569","locality":"Stephansposching","municipality":{"key":"09271151","name":"Stephansposching","type":"Kreisangehörige_Gemeinde"},"district":{"key":"09271","name":"Deggendorf","type":"Landkreis"},"federalState":{"key":"09","name":"Bayern"}},{"name":"Heckenweg","postalCode":"94569","locality":"Stephansposching","municipality":{"key":"09271151","name":"Stephansposching","type":"Kreisangehörige_Gemeinde"},"district":{"key":"09271","name":"Deggendorf","type":"Landkreis"},"federalState":{"key":"09","name":"Bayern"}},{"name":"Heideweg","postalCode":"94569","locality":"Stephansposching","municipality":{"key":"09271151","name":"Stephansposching","type":"Kreisangehörige_Gemeinde"},"district":{"key":"09271","name":"Deggendorf","type":"Landkreis"},"federalState":{"key":"09","name":"Bayern"}},{"name":"Höhenrainerweg","postalCode":"94569","locality":"Stephansposching","municipality":{"key":"09271151","name":"Stephansposching","type":"Kreisangehörige_Gemeinde"},"district":{"key":"09271","name":"Deggendorf","type":"Landkreis"},"federalState":{"key":"09","name":"Bayern"}},{"name":"Im Urdorf","postalCode":"94569","locality":"Stephansposching","municipality":{"key":"09271151","name":"Stephansposching","type":"Kreisangehörige_Gemeinde"},"district":{"key":"09271","name":"Deggendorf","type":"Landkreis"},"federalState":{"key":"09","name":"Bayern"}},{"name":"Irlbacher Str.","postalCode":"94569","locality":"Stephansposching","municipality":{"key":"09271151","name":"Stephansposching","type":"Kreisangehörige_Gemeinde"},"district":{"key":"09271","name":"Deggendorf","type":"Landkreis"},"federalState":{"key":"09","name":"Bayern"}},{"name":"Jägerweg","postalCode":"94569","locality":"Stephansposching","municipality":{"key":"09271151","name":"Stephansposching","type":"Kreisangehörige_Gemeinde"},"district":{"key":"09271","name":"Deggendorf","type":"Landkreis"},"federalState":{"key":"09","name":"Bayern"}},{"name":"Kapellenweg","postalCode":"94569","locality":"Stephansposching","municipality":{"key":"09271151","name":"Stephansposching","type":"Kreisangehörige_Gemeinde"},"district":{"key":"09271","name":"Deggendorf","type":"Landkreis"},"federalState":{"key":"09","name":"Bayern"}},{"name":"Karl-Geislinger-Str.","postalCode":"94569","locality":"Stephansposching","municipality":{"key":"09271151","name":"Stephansposching","type":"Kreisangehörige_Gemeinde"},"district":{"key":"09271","name":"Deggendorf","type":"Landkreis"},"federalState":{"key":"09","name":"Bayern"}},{"name":"Kirchenweg","postalCode":"94569","locality":"Stephansposching","municipality":{"key":"09271151","name":"Stephansposching","type":"Kreisangehörige_Gemeinde"},"district":{"key":"09271","name":"Deggendorf","type":"Landkreis"},"federalState":{"key":"09","name":"Bayern"}},{"name":"Kräuterweg","postalCode":"94569","locality":"Stephansposching","municipality":{"key":"09271151","name":"Stephansposching","type":"Kreisangehörige_Gemeinde"},"district":{"key":"09271","name":"Deggendorf","type":"Landkreis"},"federalState":{"key":"09","name":"Bayern"}},{"name":"Langwiesweg","postalCode":"94569","locality":"Stephansposching","municipality":{"key":"09271151","name":"Stephansposching","type":"Kreisangehörige_Gemeinde"},"district":{"key":"09271","name":"Deggendorf","type":"Landkreis"},"federalState":{"key":"09","name":"Bayern"}},{"name":"Laurentiusweg","postalCode":"94569","locality":"Stephansposching","municipality":{"key":"09271151","name":"Stephansposching","type":"Kreisangehörige_Gemeinde"},"district":{"key":"09271","name":"Deggendorf","type":"Landkreis"},"federalState":{"key":"09","name":"Bayern"}},{"name":"Lindenanger","postalCode":"94569","locality":"Stephansposching","municipality":{"key":"09271151","name":"Stephansposching","type":"Kreisangehörige_Gemeinde"},"district":{"key":"09271","name":"Deggendorf","type":"Landkreis"},"federalState":{"key":"09","name":"Bayern"}},{"name":"Lindenstr.","postalCode":"94569","locality":"Stephansposching","municipality":{"key":"09271151","name":"Stephansposching","type":"Kreisangehörige_Gemeinde"},"district":{"key":"09271","name":"Deggendorf","type":"Landkreis"},"federalState":{"key":"09","name":"Bayern"}},{"name":"Makofener Str.","postalCode":"94569","locality":"Stephansposching","municipality":{"key":"09271151","name":"Stephansposching","type":"Kreisangehörige_Gemeinde"},"district":{"key":"09271","name":"Deggendorf","type":"Landkreis"},"federalState":{"key":"09","name":"Bayern"}},{"name":"Marienstr.","postalCode":"94569","locality":"Stephansposching","municipality":{"key":"09271151","name":"Stephansposching","type":"Kreisangehörige_Gemeinde"},"district":{"key":"09271","name":"Deggendorf","type":"Landkreis"},"federalState":{"key":"09","name":"Bayern"}},{"name":"Meisenweg","postalCode":"94569","locality":"Stephansposching","municipality":{"key":"09271151","name":"Stephansposching","type":"Kreisangehörige_Gemeinde"},"district":{"key":"09271","name":"Deggendorf","type":"Landkreis"},"federalState":{"key":"09","name":"Bayern"}},{"name":"Michaelsbucher Str.","postalCode":"94569","locality":"Stephansposching","municipality":{"key":"09271151","name":"Stephansposching","type":"Kreisangehörige_Gemeinde"},"district":{"key":"09271","name":"Deggendorf","type":"Landkreis"},"federalState":{"key":"09","name":"Bayern"}},{"name":"Mohnweg","postalCode":"94569","locality":"Stephansposching","municipality":{"key":"09271151","name":"Stephansposching","type":"Kreisangehörige_Gemeinde"},"district":{"key":"09271","name":"Deggendorf","type":"Landkreis"},"federalState":{"key":"09","name":"Bayern"}},{"name":"Mühlenweg","postalCode":"94569","locality":"Stephansposching","municipality":{"key":"09271151","name":"Stephansposching","type":"Kreisangehörige_Gemeinde"},"district":{"key":"09271","name":"Deggendorf","type":"Landkreis"},"federalState":{"key":"09","name":"Bayern"}},{"name":"Münchshöfener Weg","postalCode":"94569","locality":"Stephansposching","municipality":{"key":"09271151","name":"Stephansposching","type":"Kreisangehörige_Gemeinde"},"district":{"key":"09271","name":"Deggendorf","type":"Landkreis"},"federalState":{"key":"09","name":"Bayern"}},{"name":"Natternberger Str.","postalCode":"94469","locality":"Deggendorf","municipality":{"key":"09271119","name":"Deggendorf, GKSt","type":"Große_Kreisstadt"},"district":{"key":"09271","name":"Deggendorf","type":"Landkreis"},"federalState":{"key":"09","name":"Bayern"}},{"name":"Nelkenstr.","postalCode":"94469","locality":"Deggendorf","municipality":{"key":"09271119","name":"Deggendorf, GKSt","type":"Große_Kreisstadt"},"district":{"key":"09271","name":"Deggendorf","type":"Landkreis"},"federalState":{"key":"09","name":"Bayern"}},{"name":"Neusiedler Str.","postalCode":"94469","locality":"Deggendorf","municipality":{"key":"09271119","name":"Deggendorf, GKSt","type":"Große_Kreisstadt"},"district":{"key":"09271","name":"Deggendorf","type":"Landkreis"},"federalState":{"key":"09","name":"Bayern"}},{"name":"Niederkandelbach","postalCode":"94469","locality":"Deggendorf","municipality":{"key":"09271119","name":"Deggendorf, GKSt","type":"Große_Kreisstadt"},"district":{"key":"09271","name":"Deggendorf","type":"Landkreis"},"federalState":{"key":"09","name":"Bayern"}},{"name":"Nördlicher Stadtgraben","postalCode":"94469","locality":"Deggendorf","municipality":{"key":"09271119","name":"Deggendorf, GKSt","type":"Große_Kreisstadt"},"district":{"key":"09271","name":"Deggendorf","type":"Landkreis"},"federalState":{"key":"09","name":"Bayern"}},{"name":"Nordweg","postalCode":"94469","locality":"Deggendorf","municipality":{"key":"09271119","name":"Deggendorf, GKSt","type":"Große_Kreisstadt"},"district":{"key":"09271","name":"Deggendorf","type":"Landkreis"},"federalState":{"key":"09","name":"Bayern"}},{"name":"Nörerstr.","postalCode":"94469","locality":"Deggendorf","municipality":{"key":"09271119","name":"Deggendorf, GKSt","type":"Große_Kreisstadt"},"district":{"key":"09271","name":"Deggendorf","type":"Landkreis"},"federalState":{"key":"09","name":"Bayern"}},{"name":"Notburgaweg","postalCode":"94469","locality":"Deggendorf","municipality":{"key":"09271119","name":"Deggendorf, GKSt","type":"Große_Kreisstadt"},"district":{"key":"09271","name":"Deggendorf","type":"Landkreis"},"federalState":{"key":"09","name":"Bayern"}},{"name":"Orffstr.","postalCode":"94569","locality":"Stephansposching","municipality":{"key":"09271151","name":"Stephansposching","type":"Kreisangehörige_Gemeinde"},"district":{"key":"09271","name":"Deggendorf","type":"Landkreis"},"federalState":{"key":"09","name":"Bayern"}},{"name":"Plattlinger Weg","postalCode":"94569","locality":"Stephansposching","municipality":{"key":"09271151","name":"Stephansposching","type":"Kreisangehörige_Gemeinde"},"district":{"key":"09271","name":"Deggendorf","type":"Landkreis"},"federalState":{"key":"09","name":"Bayern"}},{"name":"Pointweg","postalCode":"94569","locality":"Stephansposching","municipality":{"key":"09271151","name":"Stephansposching","type":"Kreisangehörige_Gemeinde"},"district":{"key":"09271","name":"Deggendorf","type":"Landkreis"},"federalState":{"key":"09","name":"Bayern"}},{"name":"Quellenweg","postalCode":"94469","locality":"Deggendorf","municipality":{"key":"09271119","name":"Deggendorf, GKSt","type":"Große_Kreisstadt"},"district":{"key":"09271","name":"Deggendorf","type":"Landkreis"},"federalState":{"key":"09","name":"Bayern"}},{"name":"Rainweg","postalCode":"94569","locality":"Stephansposching","municipality":{"key":"09271151","name":"Stephansposching","type":"Kreisangehörige_Gemeinde"},"district":{"key":"09271","name":"Deggendorf","type":"Landkreis"},"federalState":{"key":"09","name":"Bayern"}},{"name":"Römerstr.","postalCode":"94569","locality":"Stephansposching","municipality":{"key":"09271151","name":"Stephansposching","type":"Kreisangehörige_Gemeinde"},"district":{"key":"09271","name":"Deggendorf","type":"Landkreis"},"federalState":{"key":"09","name":"Bayern"}},{"name":"Rottenmann","postalCode":"94569","locality":"Stephansposching","municipality":{"key":"09271151","name":"Stephansposching","type":"Kreisangehörige_Gemeinde"},"district":{"key":"09271","name":"Deggendorf","type":"Landkreis"},"federalState":{"key":"09","name":"Bayern"}},{"name":"Rottersdorfer Str.","postalCode":"94569","locality":"Stephansposching","municipality":{"key":"09271151","name":"Stephansposching","type":"Kreisangehörige_Gemeinde"},"district":{"key":"09271","name":"Deggendorf","type":"Landkreis"},"federalState":{"key":"09","name":"Bayern"}},{"name":"Schaidhamer Weg","postalCode":"94569","locality":"Stephansposching","municipality":{"key":"09271151","name":"Stephansposching","type":"Kreisangehörige_Gemeinde"},"district":{"key":"09271","name":"Deggendorf","type":"Landkreis"},"federalState":{"key":"09","name":"Bayern"}},{"name":"Schulstr.","postalCode":"94569","locality":"Stephansposching","municipality":{"key":"09271151","name":"Stephansposching","type":"Kreisangehörige_Gemeinde"},"district":{"key":"09271","name":"Deggendorf","type":"Landkreis"},"federalState":{"key":"09","name":"Bayern"}},{"name":"Sebastianring","postalCode":"94569","locality":"Stephansposching","municipality":{"key":"09271151","name":"Stephansposching","type":"Kreisangehörige_Gemeinde"},"district":{"key":"09271","name":"Deggendorf","type":"Landkreis"},"federalState":{"key":"09","name":"Bayern"}},{"name":"Siedlungsstr.","postalCode":"94569","locality":"Stephansposching","municipality":{"key":"09271151","name":"Stephansposching","type":"Kreisangehörige_Gemeinde"},"district":{"key":"09271","name":"Deggendorf","type":"Landkreis"},"federalState":{"key":"09","name":"Bayern"}},{"name":"Sommerfeldweg","postalCode":"94569","locality":"Stephansposching","municipality":{"key":"09271151","name":"Stephansposching","type":"Kreisangehörige_Gemeinde"},"district":{"key":"09271","name":"Deggendorf","type":"Landkreis"},"federalState":{"key":"09","name":"Bayern"}},{"name":"Sportplatzweg","postalCode":"94569","locality":"Stephansposching","municipality":{"key":"09271151","name":"Stephansposching","type":"Kreisangehörige_Gemeinde"},"district":{"key":"09271","name":"Deggendorf","type":"Landkreis"},"federalState":{"key":"09","name":"Bayern"}},{"name":"Steinkirchner Str.","postalCode":"94569","locality":"Stephansposching","municipality":{"key":"09271151","name":"Stephansposching","type":"Kreisangehörige_Gemeinde"},"district":{"key":"09271","name":"Deggendorf","type":"Landkreis"},"federalState":{"key":"09","name":"Bayern"}},{"name":"Steinweg","postalCode":"94569","locality":"Stephansposching","municipality":{"key":"09271151","name":"Stephansposching","type":"Kreisangehörige_Gemeinde"},"district":{"key":"09271","name":"Deggendorf","type":"Landkreis"},"federalState":{"key":"09","name":"Bayern"}},{"name":"St.-Michaels-Platz","postalCode":"94569","locality":"Stephansposching","municipality":{"key":"09271151","name":"Stephansposching","type":"Kreisangehörige_Gemeinde"},"district":{"key":"09271","name":"Deggendorf","type":"Landkreis"},"federalState":{"key":"09","name":"Bayern"}},{"name":"Straßkirchener Weg","postalCode":"94569","locality":"Stephansposching","municipality":{"key":"09271151","name":"Stephansposching","type":"Kreisangehörige_Gemeinde"},"district":{"key":"09271","name":"Deggendorf","type":"Landkreis"},"federalState":{"key":"09","name":"Bayern"}},{"name":"Straubinger Str.","postalCode":"94569","locality":"Stephansposching","municipality":{"key":"09271151","name":"Stephansposching","type":"Kreisangehörige_Gemeinde"},"district":{"key":"09271","name":"Deggendorf","type":"Landkreis"},"federalState":{"key":"09","name":"Bayern"}},{"name":"Straussstr.","postalCode":"94569","locality":"Stephansposching","municipality":{"key":"09271151","name":"Stephansposching","type":"Kreisangehörige_Gemeinde"},"district":{"key":"09271","name":"Deggendorf","type":"Landkreis"},"federalState":{"key":"09","name":"Bayern"}},{"name":"Tannenstr.","postalCode":"94469","locality":"Deggendorf","municipality":{"key":"09271119","name":"Deggendorf, GKSt","type":"Große_Kreisstadt"},"district":{"key":"09271","name":"Deggendorf","type":"Landkreis"},"federalState":{"key":"09","name":"Bayern"}},{"name":"Tattenberg","postalCode":"94469","locality":"Deggendorf","municipality":{"key":"09271119","name":"Deggendorf, GKSt","type":"Große_Kreisstadt"},"district":{"key":"09271","name":"Deggendorf","type":"Landkreis"},"federalState":{"key":"09","name":"Bayern"}},{"name":"Tegelbergstr.","postalCode":"94469","locality":"Deggendorf","municipality":{"key":"09271119","name":"Deggendorf, GKSt","type":"Große_Kreisstadt"},"district":{"key":"09271","name":"Deggendorf","type":"Landkreis"},"federalState":{"key":"09","name":"Bayern"}},{"name":"Thannbergstr.","postalCode":"94469","locality":"Deggendorf","municipality":{"key":"09271119","name":"Deggendorf, GKSt","type":"Große_Kreisstadt"},"district":{"key":"09271","name":"Deggendorf","type":"Landkreis"},"federalState":{"key":"09","name":"Bayern"}},{"name":"Theodor-Eckert-Str.","postalCode":"94469","locality":"Deggendorf","municipality":{"key":"09271119","name":"Deggendorf, GKSt","type":"Große_Kreisstadt"},"district":{"key":"09271","name":"Deggendorf","type":"Landkreis"},"federalState":{"key":"09","name":"Bayern"}},{"name":"Theodor-Steininger-Str.","postalCode":"94469","locality":"Deggendorf","municipality":{"key":"09271119","name":"Deggendorf, GKSt","type":"Große_Kreisstadt"},"district":{"key":"09271","name":"Deggendorf","type":"Landkreis"},"federalState":{"key":"09","name":"Bayern"}},{"name":"Tilsiter Str.","postalCode":"94469","locality":"Deggendorf","municipality":{"key":"09271119","name":"Deggendorf, GKSt","type":"Große_Kreisstadt"},"district":{"key":"09271","name":"Deggendorf","type":"Landkreis"},"federalState":{"key":"09","name":"Bayern"}},{"name":"Tradtfeld","postalCode":"94469","locality":"Deggendorf","municipality":{"key":"09271119","name":"Deggendorf, GKSt","type":"Große_Kreisstadt"},"district":{"key":"09271","name":"Deggendorf","type":"Landkreis"},"federalState":{"key":"09","name":"Bayern"}},{"name":"Trat","postalCode":"94469","locality":"Deggendorf","municipality":{"key":"09271119","name":"Deggendorf, GKSt","type":"Große_Kreisstadt"},"district":{"key":"09271","name":"Deggendorf","type":"Landkreis"},"federalState":{"key":"09","name":"Bayern"}},{"name":"Troststr.","postalCode":"94469","locality":"Deggendorf","municipality":{"key":"09271119","name":"Deggendorf, GKSt","type":"Große_Kreisstadt"},"district":{"key":"09271","name":"Deggendorf","type":"Landkreis"},"federalState":{"key":"09","name":"Bayern"}},{"name":"Tulpenstr.","postalCode":"94469","locality":"Deggendorf","municipality":{"key":"09271119","name":"Deggendorf, GKSt","type":"Große_Kreisstadt"},"district":{"key":"09271","name":"Deggendorf","type":"Landkreis"},"federalState":{"key":"09","name":"Bayern"}},{"name":"Uferstr.","postalCode":"94569","locality":"Stephansposching","municipality":{"key":"09271151","name":"Stephansposching","type":"Kreisangehörige_Gemeinde"},"district":{"key":"09271","name":"Deggendorf","type":"Landkreis"},"federalState":{"key":"09","name":"Bayern"}},{"name":"Uttenkofen","postalCode":"94569","locality":"Stephansposching","municipality":{"key":"09271151","name":"Stephansposching","type":"Kreisangehörige_Gemeinde"},"district":{"key":"09271","name":"Deggendorf","type":"Landkreis"},"federalState":{"key":"09","name":"Bayern"}},{"name":"Uttogasse","postalCode":"94569","locality":"Stephansposching","municipality":{"key":"09271151","name":"Stephansposching","type":"Kreisangehörige_Gemeinde"},"district":{"key":"09271","name":"Deggendorf","type":"Landkreis"},"federalState":{"key":"09","name":"Bayern"}},{"name":"Veilchengasse","postalCode":"94469","locality":"Deggendorf","municipality":{"key":"09271119","name":"Deggendorf, GKSt","type":"Große_Kreisstadt"},"district":{"key":"09271","name":"Deggendorf","type":"Landkreis"},"federalState":{"key":"09","name":"Bayern"}},{"name":"Vinzenz-Goller-Str.","postalCode":"94469","locality":"Deggendorf","municipality":{"key":"09271119","name":"Deggendorf, GKSt","type":"Große_Kreisstadt"},"district":{"key":"09271","name":"Deggendorf","type":"Landkreis"},"federalState":{"key":"09","name":"Bayern"}},{"name":"Vogelsangstr.","postalCode":"94469","locality":"Deggendorf","municipality":{"key":"09271119","name":"Deggendorf, GKSt","type":"Große_Kreisstadt"},"district":{"key":"09271","name":"Deggendorf","type":"Landkreis"},"federalState":{"key":"09","name":"Bayern"}},{"name":"Wagnerstr.","postalCode":"94569","locality":"Stephansposching","municipality":{"key":"09271151","name":"Stephansposching","type":"Kreisangehörige_Gemeinde"},"district":{"key":"09271","name":"Deggendorf","type":"Landkreis"},"federalState":{"key":"09","name":"Bayern"}},{"name":"Werner-von-Siemens-Str.","postalCode":"94569","locality":"Stephansposching","municipality":{"key":"09271151","name":"Stephansposching","type":"Kreisangehörige_Gemeinde"},"district":{"key":"09271","name":"Deggendorf","type":"Landkreis"},"federalState":{"key":"09","name":"Bayern"}},{"name":"Wiesenweg","postalCode":"94569","locality":"Stephansposching","municipality":{"key":"09271151","name":"Stephansposching","type":"Kreisangehörige_Gemeinde"},"district":{"key":"09271","name":"Deggendorf","type":"Landkreis"},"federalState":{"key":"09","name":"Bayern"}},{"name":"Xaver-Friedl-Str.","postalCode":"94469","locality":"Deggendorf","municipality":{"key":"09271119","name":"Deggendorf, GKSt","type":"Große_Kreisstadt"},"district":{"key":"09271","name":"Deggendorf","type":"Landkreis"},"federalState":{"key":"09","name":"Bayern"}},{"name":"Zieglerstr.","postalCode":"94469","locality":"Deggendorf","municipality":{"key":"09271119","name":"Deggendorf, GKSt","type":"Große_Kreisstadt"},"district":{"key":"09271","name":"Deggendorf","type":"Landkreis"},"federalState":{"key":"09","name":"Bayern"}},{"name":"Ziererstr.","postalCode":"94469","locality":"Deggendorf","municipality":{"key":"09271119","name":"Deggendorf, GKSt","type":"Große_Kreisstadt"},"district":{"key":"09271","name":"Deggendorf","type":"Landkreis"},"federalState":{"key":"09","name":"Bayern"}},{"name":"Zum Hochholz","postalCode":"94469","locality":"Deggendorf","municipality":{"key":"09271119","name":"Deggendorf, GKSt","type":"Große_Kreisstadt"},"district":{"key":"09271","name":"Deggendorf","type":"Landkreis"},"federalState":{"key":"09","name":"Bayern"}},{"name":"Zwieslerbruck","postalCode":"94469","locality":"Deggendorf","municipality":{"key":"09271119","name":"Deggendorf, GKSt","type":"Große_Kreisstadt"},"district":{"key":"09271","name":"Deggendorf","type":"Landkreis"},"federalState":{"key":"09","name":"Bayern"}},{"name":"Ölschlagweg","postalCode":"94469","locality":"Deggendorf","municipality":{"key":"09271119","name":"Deggendorf, GKSt","type":"Große_Kreisstadt"},"district":{"key":"09271","name":"Deggendorf","type":"Landkreis"},"federalState":{"key":"09","name":"Bayern"}},{"name":"Östlicher Stadtgraben","postalCode":"94469","locality":"Deggendorf","municipality":{"key":"09271119","name":"Deggendorf, GKSt","type":"Große_Kreisstadt"},"district":{"key":"09271","name":"Deggendorf","type":"Landkreis"},"federalState":{"key":"09","name":"Bayern"}},{"name":"Östliche Zwingergasse","postalCode":"94469","locality":"Deggendorf","municipality":{"key":"09271119","name":"Deggendorf, GKSt","type":"Große_Kreisstadt"},"district":{"key":"09271","name":"Deggendorf","type":"Landkreis"},"federalState":{"key":"09","name":"Bayern"}},]