[{"name":"Ahornweg","postalCode":"34260","locality":"Kaufungen","municipality":{"key":"06633015","name":"Kaufungen","type":"Kreisangehörige_Gemeinde"},"district":{"key":"06633","name":"Kassel","type":"Landkreis"},"federalState":{"key":"06","name":"Hessen"}},{"name":"Akazienweg","postalCode":"34260","locality":"Kaufungen","municipality":{"key":"06633015","name":"Kaufungen","type":"Kreisangehörige_Gemeinde"},"district":{"key":"06633","name":"Kassel","type":"Landkreis"},"federalState":{"key":"06","name":"Hessen"}},{"name":"Albert-Schweitzer-Str.","postalCode":"34260","locality":"Kaufungen","municipality":{"key":"06633015","name":"Kaufungen","type":"Kreisangehörige_Gemeinde"},"district":{"key":"06633","name":"Kassel","type":"Landkreis"},"federalState":{"key":"06","name":"Hessen"}},{"name":"Alexander-Fleming-Weg","postalCode":"34260","locality":"Kaufungen","municipality":{"key":"06633015","name":"Kaufungen","type":"Kreisangehörige_Gemeinde"},"district":{"key":"06633","name":"Kassel","type":"Landkreis"},"federalState":{"key":"06","name":"Hessen"}},{"name":"Allendorfer Str.","postalCode":"34260","locality":"Kaufungen","municipality":{"key":"06633015","name":"Kaufungen","type":"Kreisangehörige_Gemeinde"},"district":{"key":"06633","name":"Kassel","type":"Landkreis"},"federalState":{"key":"06","name":"Hessen"}},{"name":"Almut-Weingart-Weg","postalCode":"34260","locality":"Kaufungen","municipality":{"key":"06633015","name":"Kaufungen","type":"Kreisangehörige_Gemeinde"},"district":{"key":"06633","name":"Kassel","type":"Landkreis"},"federalState":{"key":"06","name":"Hessen"}},{"name":"Alte Ziegelei","postalCode":"34260","locality":"Kaufungen","municipality":{"key":"06633015","name":"Kaufungen","type":"Kreisangehörige_Gemeinde"},"district":{"key":"06633","name":"Kassel","type":"Landkreis"},"federalState":{"key":"06","name":"Hessen"}},{"name":"Am alten Schwimmbad","postalCode":"34260","locality":"Kaufungen","municipality":{"key":"06633015","name":"Kaufungen","type":"Kreisangehörige_Gemeinde"},"district":{"key":"06633","name":"Kassel","type":"Landkreis"},"federalState":{"key":"06","name":"Hessen"}},{"name":"Am Bahnhof","postalCode":"34260","locality":"Kaufungen","municipality":{"key":"06633015","name":"Kaufungen","type":"Kreisangehörige_Gemeinde"},"district":{"key":"06633","name":"Kassel","type":"Landkreis"},"federalState":{"key":"06","name":"Hessen"}},{"name":"Am Brauplatz","postalCode":"34260","locality":"Kaufungen","municipality":{"key":"06633015","name":"Kaufungen","type":"Kreisangehörige_Gemeinde"},"district":{"key":"06633","name":"Kassel","type":"Landkreis"},"federalState":{"key":"06","name":"Hessen"}},{"name":"Am Füllengarten","postalCode":"34260","locality":"Kaufungen","municipality":{"key":"06633015","name":"Kaufungen","type":"Kreisangehörige_Gemeinde"},"district":{"key":"06633","name":"Kassel","type":"Landkreis"},"federalState":{"key":"06","name":"Hessen"}},{"name":"Am Galgengraben","postalCode":"34260","locality":"Kaufungen","municipality":{"key":"06633015","name":"Kaufungen","type":"Kreisangehörige_Gemeinde"},"district":{"key":"06633","name":"Kassel","type":"Landkreis"},"federalState":{"key":"06","name":"Hessen"}},{"name":"Am Gelben Berg","postalCode":"34260","locality":"Kaufungen","municipality":{"key":"06633015","name":"Kaufungen","type":"Kreisangehörige_Gemeinde"},"district":{"key":"06633","name":"Kassel","type":"Landkreis"},"federalState":{"key":"06","name":"Hessen"}},{"name":"Am Gelinde","postalCode":"34260","locality":"Kaufungen","municipality":{"key":"06633015","name":"Kaufungen","type":"Kreisangehörige_Gemeinde"},"district":{"key":"06633","name":"Kassel","type":"Landkreis"},"federalState":{"key":"06","name":"Hessen"}},{"name":"Am Haferbach","postalCode":"34260","locality":"Kaufungen","municipality":{"key":"06633015","name":"Kaufungen","type":"Kreisangehörige_Gemeinde"},"district":{"key":"06633","name":"Kassel","type":"Landkreis"},"federalState":{"key":"06","name":"Hessen"}},{"name":"Am Hang","postalCode":"34260","locality":"Kaufungen","municipality":{"key":"06633015","name":"Kaufungen","type":"Kreisangehörige_Gemeinde"},"district":{"key":"06633","name":"Kassel","type":"Landkreis"},"federalState":{"key":"06","name":"Hessen"}},{"name":"Am Höhberg","postalCode":"34260","locality":"Kaufungen","municipality":{"key":"06633015","name":"Kaufungen","type":"Kreisangehörige_Gemeinde"},"district":{"key":"06633","name":"Kassel","type":"Landkreis"},"federalState":{"key":"06","name":"Hessen"}},{"name":"Am Kuhborn","postalCode":"34260","locality":"Kaufungen","municipality":{"key":"06633015","name":"Kaufungen","type":"Kreisangehörige_Gemeinde"},"district":{"key":"06633","name":"Kassel","type":"Landkreis"},"federalState":{"key":"06","name":"Hessen"}},{"name":"Am Lindenberg","postalCode":"34260","locality":"Kaufungen","municipality":{"key":"06633015","name":"Kaufungen","type":"Kreisangehörige_Gemeinde"},"district":{"key":"06633","name":"Kassel","type":"Landkreis"},"federalState":{"key":"06","name":"Hessen"}},{"name":"Am Mühlenplatz","postalCode":"34260","locality":"Kaufungen","municipality":{"key":"06633015","name":"Kaufungen","type":"Kreisangehörige_Gemeinde"},"district":{"key":"06633","name":"Kassel","type":"Landkreis"},"federalState":{"key":"06","name":"Hessen"}},{"name":"Am Rain","postalCode":"34260","locality":"Kaufungen","municipality":{"key":"06633015","name":"Kaufungen","type":"Kreisangehörige_Gemeinde"},"district":{"key":"06633","name":"Kassel","type":"Landkreis"},"federalState":{"key":"06","name":"Hessen"}},{"name":"Am Rosengarten","postalCode":"34260","locality":"Kaufungen","municipality":{"key":"06633015","name":"Kaufungen","type":"Kreisangehörige_Gemeinde"},"district":{"key":"06633","name":"Kassel","type":"Landkreis"},"federalState":{"key":"06","name":"Hessen"}},{"name":"Am Roßgang","postalCode":"34260","locality":"Kaufungen","municipality":{"key":"06633015","name":"Kaufungen","type":"Kreisangehörige_Gemeinde"},"district":{"key":"06633","name":"Kassel","type":"Landkreis"},"federalState":{"key":"06","name":"Hessen"}},{"name":"Amselweg","postalCode":"34260","locality":"Kaufungen","municipality":{"key":"06633015","name":"Kaufungen","type":"Kreisangehörige_Gemeinde"},"district":{"key":"06633","name":"Kassel","type":"Landkreis"},"federalState":{"key":"06","name":"Hessen"}},{"name":"Am Setzebach","postalCode":"34260","locality":"Kaufungen","municipality":{"key":"06633015","name":"Kaufungen","type":"Kreisangehörige_Gemeinde"},"district":{"key":"06633","name":"Kassel","type":"Landkreis"},"federalState":{"key":"06","name":"Hessen"}},{"name":"Am Sonnenberg","postalCode":"34260","locality":"Kaufungen","municipality":{"key":"06633015","name":"Kaufungen","type":"Kreisangehörige_Gemeinde"},"district":{"key":"06633","name":"Kassel","type":"Landkreis"},"federalState":{"key":"06","name":"Hessen"}},{"name":"Am Stadion","postalCode":"34260","locality":"Kaufungen","municipality":{"key":"06633015","name":"Kaufungen","type":"Kreisangehörige_Gemeinde"},"district":{"key":"06633","name":"Kassel","type":"Landkreis"},"federalState":{"key":"06","name":"Hessen"}},{"name":"Am Stechkopf","postalCode":"34260","locality":"Kaufungen","municipality":{"key":"06633015","name":"Kaufungen","type":"Kreisangehörige_Gemeinde"},"district":{"key":"06633","name":"Kassel","type":"Landkreis"},"federalState":{"key":"06","name":"Hessen"}},{"name":"Am Steinertsee","postalCode":"34260","locality":"Kaufungen","municipality":{"key":"06633015","name":"Kaufungen","type":"Kreisangehörige_Gemeinde"},"district":{"key":"06633","name":"Kassel","type":"Landkreis"},"federalState":{"key":"06","name":"Hessen"}},{"name":"Am Weinberg","postalCode":"34260","locality":"Kaufungen","municipality":{"key":"06633015","name":"Kaufungen","type":"Kreisangehörige_Gemeinde"},"district":{"key":"06633","name":"Kassel","type":"Landkreis"},"federalState":{"key":"06","name":"Hessen"}},{"name":"Am Weißen Berg","postalCode":"34260","locality":"Kaufungen","municipality":{"key":"06633015","name":"Kaufungen","type":"Kreisangehörige_Gemeinde"},"district":{"key":"06633","name":"Kassel","type":"Landkreis"},"federalState":{"key":"06","name":"Hessen"}},{"name":"Am Wolfsberg","postalCode":"34260","locality":"Kaufungen","municipality":{"key":"06633015","name":"Kaufungen","type":"Kreisangehörige_Gemeinde"},"district":{"key":"06633","name":"Kassel","type":"Landkreis"},"federalState":{"key":"06","name":"Hessen"}},{"name":"An der Losse","postalCode":"34260","locality":"Kaufungen","municipality":{"key":"06633015","name":"Kaufungen","type":"Kreisangehörige_Gemeinde"},"district":{"key":"06633","name":"Kassel","type":"Landkreis"},"federalState":{"key":"06","name":"Hessen"}},{"name":"An der Schwarzburg","postalCode":"34260","locality":"Kaufungen","municipality":{"key":"06633015","name":"Kaufungen","type":"Kreisangehörige_Gemeinde"},"district":{"key":"06633","name":"Kassel","type":"Landkreis"},"federalState":{"key":"06","name":"Hessen"}},{"name":"Anja-Niedringhaus-Str.","postalCode":"34260","locality":"Kaufungen","municipality":{"key":"06633015","name":"Kaufungen","type":"Kreisangehörige_Gemeinde"},"district":{"key":"06633","name":"Kassel","type":"Landkreis"},"federalState":{"key":"06","name":"Hessen"}},{"name":"Auering","postalCode":"34260","locality":"Kaufungen","municipality":{"key":"06633015","name":"Kaufungen","type":"Kreisangehörige_Gemeinde"},"district":{"key":"06633","name":"Kassel","type":"Landkreis"},"federalState":{"key":"06","name":"Hessen"}},{"name":"Auestr.","postalCode":"34260","locality":"Kaufungen","municipality":{"key":"06633015","name":"Kaufungen","type":"Kreisangehörige_Gemeinde"},"district":{"key":"06633","name":"Kassel","type":"Landkreis"},"federalState":{"key":"06","name":"Hessen"}},{"name":"Auf dem Kampe","postalCode":"34260","locality":"Kaufungen","municipality":{"key":"06633015","name":"Kaufungen","type":"Kreisangehörige_Gemeinde"},"district":{"key":"06633","name":"Kassel","type":"Landkreis"},"federalState":{"key":"06","name":"Hessen"}},{"name":"Auf der Freiheit","postalCode":"34260","locality":"Kaufungen","municipality":{"key":"06633015","name":"Kaufungen","type":"Kreisangehörige_Gemeinde"},"district":{"key":"06633","name":"Kassel","type":"Landkreis"},"federalState":{"key":"06","name":"Hessen"}},{"name":"Bachstr.","postalCode":"34260","locality":"Kaufungen","municipality":{"key":"06633015","name":"Kaufungen","type":"Kreisangehörige_Gemeinde"},"district":{"key":"06633","name":"Kassel","type":"Landkreis"},"federalState":{"key":"06","name":"Hessen"}},{"name":"Bahnhofssiedlung","postalCode":"34260","locality":"Kaufungen","municipality":{"key":"06633015","name":"Kaufungen","type":"Kreisangehörige_Gemeinde"},"district":{"key":"06633","name":"Kassel","type":"Landkreis"},"federalState":{"key":"06","name":"Hessen"}},{"name":"Bahnhofstr.","postalCode":"34260","locality":"Kaufungen","municipality":{"key":"06633015","name":"Kaufungen","type":"Kreisangehörige_Gemeinde"},"district":{"key":"06633","name":"Kassel","type":"Landkreis"},"federalState":{"key":"06","name":"Hessen"}},{"name":"Baumgarten","postalCode":"34260","locality":"Kaufungen","municipality":{"key":"06633015","name":"Kaufungen","type":"Kreisangehörige_Gemeinde"},"district":{"key":"06633","name":"Kassel","type":"Landkreis"},"federalState":{"key":"06","name":"Hessen"}},{"name":"Baumschulenstr.","postalCode":"34260","locality":"Kaufungen","municipality":{"key":"06633015","name":"Kaufungen","type":"Kreisangehörige_Gemeinde"},"district":{"key":"06633","name":"Kassel","type":"Landkreis"},"federalState":{"key":"06","name":"Hessen"}},{"name":"Beethovenstr.","postalCode":"34260","locality":"Kaufungen","municipality":{"key":"06633015","name":"Kaufungen","type":"Kreisangehörige_Gemeinde"},"district":{"key":"06633","name":"Kassel","type":"Landkreis"},"federalState":{"key":"06","name":"Hessen"}},{"name":"Belgerkopfgraben","postalCode":"34260","locality":"Kaufungen","municipality":{"key":"06633015","name":"Kaufungen","type":"Kreisangehörige_Gemeinde"},"district":{"key":"06633","name":"Kassel","type":"Landkreis"},"federalState":{"key":"06","name":"Hessen"}},{"name":"Bergstr.","postalCode":"34260","locality":"Kaufungen","municipality":{"key":"06633015","name":"Kaufungen","type":"Kreisangehörige_Gemeinde"},"district":{"key":"06633","name":"Kassel","type":"Landkreis"},"federalState":{"key":"06","name":"Hessen"}},{"name":"Besenmarkt","postalCode":"34260","locality":"Kaufungen","municipality":{"key":"06633015","name":"Kaufungen","type":"Kreisangehörige_Gemeinde"},"district":{"key":"06633","name":"Kassel","type":"Landkreis"},"federalState":{"key":"06","name":"Hessen"}},{"name":"Bettenhäuser Weg","postalCode":"34260","locality":"Kaufungen","municipality":{"key":"06633015","name":"Kaufungen","type":"Kreisangehörige_Gemeinde"},"district":{"key":"06633","name":"Kassel","type":"Landkreis"},"federalState":{"key":"06","name":"Hessen"}},{"name":"Bilsteinstr.","postalCode":"34260","locality":"Kaufungen","municipality":{"key":"06633015","name":"Kaufungen","type":"Kreisangehörige_Gemeinde"},"district":{"key":"06633","name":"Kassel","type":"Landkreis"},"federalState":{"key":"06","name":"Hessen"}},{"name":"Birkengrund","postalCode":"34260","locality":"Kaufungen","municipality":{"key":"06633015","name":"Kaufungen","type":"Kreisangehörige_Gemeinde"},"district":{"key":"06633","name":"Kassel","type":"Landkreis"},"federalState":{"key":"06","name":"Hessen"}},{"name":"Birkenweg","postalCode":"34260","locality":"Kaufungen","municipality":{"key":"06633015","name":"Kaufungen","type":"Kreisangehörige_Gemeinde"},"district":{"key":"06633","name":"Kassel","type":"Landkreis"},"federalState":{"key":"06","name":"Hessen"}},{"name":"Bodelschwinghstr.","postalCode":"34260","locality":"Kaufungen","municipality":{"key":"06633015","name":"Kaufungen","type":"Kreisangehörige_Gemeinde"},"district":{"key":"06633","name":"Kassel","type":"Landkreis"},"federalState":{"key":"06","name":"Hessen"}},{"name":"Brandenburger Str.","postalCode":"34260","locality":"Kaufungen","municipality":{"key":"06633015","name":"Kaufungen","type":"Kreisangehörige_Gemeinde"},"district":{"key":"06633","name":"Kassel","type":"Landkreis"},"federalState":{"key":"06","name":"Hessen"}},{"name":"Brückebach","postalCode":"34260","locality":"Kaufungen","municipality":{"key":"06633015","name":"Kaufungen","type":"Kreisangehörige_Gemeinde"},"district":{"key":"06633","name":"Kassel","type":"Landkreis"},"federalState":{"key":"06","name":"Hessen"}},{"name":"Buchenweg","postalCode":"34260","locality":"Kaufungen","municipality":{"key":"06633015","name":"Kaufungen","type":"Kreisangehörige_Gemeinde"},"district":{"key":"06633","name":"Kassel","type":"Landkreis"},"federalState":{"key":"06","name":"Hessen"}},{"name":"Büchnerstr.","postalCode":"34260","locality":"Kaufungen","municipality":{"key":"06633015","name":"Kaufungen","type":"Kreisangehörige_Gemeinde"},"district":{"key":"06633","name":"Kassel","type":"Landkreis"},"federalState":{"key":"06","name":"Hessen"}},{"name":"Buschbreite","postalCode":"34260","locality":"Kaufungen","municipality":{"key":"06633015","name":"Kaufungen","type":"Kreisangehörige_Gemeinde"},"district":{"key":"06633","name":"Kassel","type":"Landkreis"},"federalState":{"key":"06","name":"Hessen"}},{"name":"Clara Schumann Weg","postalCode":"34260","locality":"Kaufungen","municipality":{"key":"06633015","name":"Kaufungen","type":"Kreisangehörige_Gemeinde"},"district":{"key":"06633","name":"Kassel","type":"Landkreis"},"federalState":{"key":"06","name":"Hessen"}},{"name":"Crumbacher Weg","postalCode":"34260","locality":"Kaufungen","municipality":{"key":"06633015","name":"Kaufungen","type":"Kreisangehörige_Gemeinde"},"district":{"key":"06633","name":"Kassel","type":"Landkreis"},"federalState":{"key":"06","name":"Hessen"}},{"name":"Danziger Str.","postalCode":"34260","locality":"Kaufungen","municipality":{"key":"06633015","name":"Kaufungen","type":"Kreisangehörige_Gemeinde"},"district":{"key":"06633","name":"Kassel","type":"Landkreis"},"federalState":{"key":"06","name":"Hessen"}},{"name":"Dautenbachstr.","postalCode":"34260","locality":"Kaufungen","municipality":{"key":"06633015","name":"Kaufungen","type":"Kreisangehörige_Gemeinde"},"district":{"key":"06633","name":"Kassel","type":"Landkreis"},"federalState":{"key":"06","name":"Hessen"}},{"name":"Dorfstr.","postalCode":"34260","locality":"Kaufungen","municipality":{"key":"06633015","name":"Kaufungen","type":"Kreisangehörige_Gemeinde"},"district":{"key":"06633","name":"Kassel","type":"Landkreis"},"federalState":{"key":"06","name":"Hessen"}},{"name":"Dr.-Horst-Schmidt-Str.","postalCode":"34260","locality":"Kaufungen","municipality":{"key":"06633015","name":"Kaufungen","type":"Kreisangehörige_Gemeinde"},"district":{"key":"06633","name":"Kassel","type":"Landkreis"},"federalState":{"key":"06","name":"Hessen"}},{"name":"Drosselweg","postalCode":"34260","locality":"Kaufungen","municipality":{"key":"06633015","name":"Kaufungen","type":"Kreisangehörige_Gemeinde"},"district":{"key":"06633","name":"Kassel","type":"Landkreis"},"federalState":{"key":"06","name":"Hessen"}},{"name":"Egerländer Str.","postalCode":"34260","locality":"Kaufungen","municipality":{"key":"06633015","name":"Kaufungen","type":"Kreisangehörige_Gemeinde"},"district":{"key":"06633","name":"Kassel","type":"Landkreis"},"federalState":{"key":"06","name":"Hessen"}},{"name":"Eichendorffstr.","postalCode":"34260","locality":"Kaufungen","municipality":{"key":"06633015","name":"Kaufungen","type":"Kreisangehörige_Gemeinde"},"district":{"key":"06633","name":"Kassel","type":"Landkreis"},"federalState":{"key":"06","name":"Hessen"}},{"name":"Elbeweg","postalCode":"34260","locality":"Kaufungen","municipality":{"key":"06633015","name":"Kaufungen","type":"Kreisangehörige_Gemeinde"},"district":{"key":"06633","name":"Kassel","type":"Landkreis"},"federalState":{"key":"06","name":"Hessen"}},{"name":"Erlenweg","postalCode":"34260","locality":"Kaufungen","municipality":{"key":"06633015","name":"Kaufungen","type":"Kreisangehörige_Gemeinde"},"district":{"key":"06633","name":"Kassel","type":"Landkreis"},"federalState":{"key":"06","name":"Hessen"}},{"name":"Erngäßchen","postalCode":"34260","locality":"Kaufungen","municipality":{"key":"06633015","name":"Kaufungen","type":"Kreisangehörige_Gemeinde"},"district":{"key":"06633","name":"Kassel","type":"Landkreis"},"federalState":{"key":"06","name":"Hessen"}},{"name":"Ernst-Abbe-Str.","postalCode":"34260","locality":"Kaufungen","municipality":{"key":"06633015","name":"Kaufungen","type":"Kreisangehörige_Gemeinde"},"district":{"key":"06633","name":"Kassel","type":"Landkreis"},"federalState":{"key":"06","name":"Hessen"}},{"name":"Eschenstruther Str.","postalCode":"34260","locality":"Kaufungen","municipality":{"key":"06633015","name":"Kaufungen","type":"Kreisangehörige_Gemeinde"},"district":{"key":"06633","name":"Kassel","type":"Landkreis"},"federalState":{"key":"06","name":"Hessen"}},{"name":"Eschenstruther Weg","postalCode":"34260","locality":"Kaufungen","municipality":{"key":"06633015","name":"Kaufungen","type":"Kreisangehörige_Gemeinde"},"district":{"key":"06633","name":"Kassel","type":"Landkreis"},"federalState":{"key":"06","name":"Hessen"}},{"name":"Eschweger Str.","postalCode":"34260","locality":"Kaufungen","municipality":{"key":"06633015","name":"Kaufungen","type":"Kreisangehörige_Gemeinde"},"district":{"key":"06633","name":"Kassel","type":"Landkreis"},"federalState":{"key":"06","name":"Hessen"}},{"name":"Farmerweg","postalCode":"34260","locality":"Kaufungen","municipality":{"key":"06633015","name":"Kaufungen","type":"Kreisangehörige_Gemeinde"},"district":{"key":"06633","name":"Kassel","type":"Landkreis"},"federalState":{"key":"06","name":"Hessen"}},{"name":"Fichtenweg","postalCode":"34260","locality":"Kaufungen","municipality":{"key":"06633015","name":"Kaufungen","type":"Kreisangehörige_Gemeinde"},"district":{"key":"06633","name":"Kassel","type":"Landkreis"},"federalState":{"key":"06","name":"Hessen"}},{"name":"Fontanestr.","postalCode":"34260","locality":"Kaufungen","municipality":{"key":"06633015","name":"Kaufungen","type":"Kreisangehörige_Gemeinde"},"district":{"key":"06633","name":"Kassel","type":"Landkreis"},"federalState":{"key":"06","name":"Hessen"}},{"name":"Franz-Schubert-Weg","postalCode":"34260","locality":"Kaufungen","municipality":{"key":"06633015","name":"Kaufungen","type":"Kreisangehörige_Gemeinde"},"district":{"key":"06633","name":"Kassel","type":"Landkreis"},"federalState":{"key":"06","name":"Hessen"}},{"name":"Freiheiter Str.","postalCode":"34260","locality":"Kaufungen","municipality":{"key":"06633015","name":"Kaufungen","type":"Kreisangehörige_Gemeinde"},"district":{"key":"06633","name":"Kassel","type":"Landkreis"},"federalState":{"key":"06","name":"Hessen"}},{"name":"Freiherr-vom-Stein-Str.","postalCode":"34260","locality":"Kaufungen","municipality":{"key":"06633015","name":"Kaufungen","type":"Kreisangehörige_Gemeinde"},"district":{"key":"06633","name":"Kassel","type":"Landkreis"},"federalState":{"key":"06","name":"Hessen"}},{"name":"Freudentalstr.","postalCode":"34260","locality":"Kaufungen","municipality":{"key":"06633015","name":"Kaufungen","type":"Kreisangehörige_Gemeinde"},"district":{"key":"06633","name":"Kassel","type":"Landkreis"},"federalState":{"key":"06","name":"Hessen"}},{"name":"Friedrich-Ebert-Str.","postalCode":"34260","locality":"Kaufungen","municipality":{"key":"06633015","name":"Kaufungen","type":"Kreisangehörige_Gemeinde"},"district":{"key":"06633","name":"Kassel","type":"Landkreis"},"federalState":{"key":"06","name":"Hessen"}},{"name":"Fröbelstr.","postalCode":"34260","locality":"Kaufungen","municipality":{"key":"06633015","name":"Kaufungen","type":"Kreisangehörige_Gemeinde"},"district":{"key":"06633","name":"Kassel","type":"Landkreis"},"federalState":{"key":"06","name":"Hessen"}},{"name":"Fünffensterstr.","postalCode":"34260","locality":"Kaufungen","municipality":{"key":"06633015","name":"Kaufungen","type":"Kreisangehörige_Gemeinde"},"district":{"key":"06633","name":"Kassel","type":"Landkreis"},"federalState":{"key":"06","name":"Hessen"}},{"name":"Gängelchen","postalCode":"34260","locality":"Kaufungen","municipality":{"key":"06633015","name":"Kaufungen","type":"Kreisangehörige_Gemeinde"},"district":{"key":"06633","name":"Kassel","type":"Landkreis"},"federalState":{"key":"06","name":"Hessen"}},{"name":"Gartenstr.","postalCode":"34260","locality":"Kaufungen","municipality":{"key":"06633015","name":"Kaufungen","type":"Kreisangehörige_Gemeinde"},"district":{"key":"06633","name":"Kassel","type":"Landkreis"},"federalState":{"key":"06","name":"Hessen"}},{"name":"Gebinger Weg","postalCode":"34260","locality":"Kaufungen","municipality":{"key":"06633015","name":"Kaufungen","type":"Kreisangehörige_Gemeinde"},"district":{"key":"06633","name":"Kassel","type":"Landkreis"},"federalState":{"key":"06","name":"Hessen"}},{"name":"Gerhart-Hauptmann-Str.","postalCode":"34260","locality":"Kaufungen","municipality":{"key":"06633015","name":"Kaufungen","type":"Kreisangehörige_Gemeinde"},"district":{"key":"06633","name":"Kassel","type":"Landkreis"},"federalState":{"key":"06","name":"Hessen"}},{"name":"Goethestr.","postalCode":"34260","locality":"Kaufungen","municipality":{"key":"06633015","name":"Kaufungen","type":"Kreisangehörige_Gemeinde"},"district":{"key":"06633","name":"Kassel","type":"Landkreis"},"federalState":{"key":"06","name":"Hessen"}},{"name":"Großer Kirchberg","postalCode":"34260","locality":"Kaufungen","municipality":{"key":"06633015","name":"Kaufungen","type":"Kreisangehörige_Gemeinde"},"district":{"key":"06633","name":"Kassel","type":"Landkreis"},"federalState":{"key":"06","name":"Hessen"}},{"name":"Grüner Weg","postalCode":"34260","locality":"Kaufungen","municipality":{"key":"06633015","name":"Kaufungen","type":"Kreisangehörige_Gemeinde"},"district":{"key":"06633","name":"Kassel","type":"Landkreis"},"federalState":{"key":"06","name":"Hessen"}},{"name":"Gudensberger Str.","postalCode":"34260","locality":"Kaufungen","municipality":{"key":"06633015","name":"Kaufungen","type":"Kreisangehörige_Gemeinde"},"district":{"key":"06633","name":"Kassel","type":"Landkreis"},"federalState":{"key":"06","name":"Hessen"}},{"name":"Gustav-Heinemann-Str.","postalCode":"34260","locality":"Kaufungen","municipality":{"key":"06633015","name":"Kaufungen","type":"Kreisangehörige_Gemeinde"},"district":{"key":"06633","name":"Kassel","type":"Landkreis"},"federalState":{"key":"06","name":"Hessen"}},{"name":"Gustav-Mahler-Weg","postalCode":"34260","locality":"Kaufungen","municipality":{"key":"06633015","name":"Kaufungen","type":"Kreisangehörige_Gemeinde"},"district":{"key":"06633","name":"Kassel","type":"Landkreis"},"federalState":{"key":"06","name":"Hessen"}},{"name":"Habichtswaldstr.","postalCode":"34260","locality":"Kaufungen","municipality":{"key":"06633015","name":"Kaufungen","type":"Kreisangehörige_Gemeinde"},"district":{"key":"06633","name":"Kassel","type":"Landkreis"},"federalState":{"key":"06","name":"Hessen"}},{"name":"Heiligenröder Weg","postalCode":"34260","locality":"Kaufungen","municipality":{"key":"06633015","name":"Kaufungen","type":"Kreisangehörige_Gemeinde"},"district":{"key":"06633","name":"Kassel","type":"Landkreis"},"federalState":{"key":"06","name":"Hessen"}},{"name":"Heinrich-Heine-Str.","postalCode":"34260","locality":"Kaufungen","municipality":{"key":"06633015","name":"Kaufungen","type":"Kreisangehörige_Gemeinde"},"district":{"key":"06633","name":"Kassel","type":"Landkreis"},"federalState":{"key":"06","name":"Hessen"}},{"name":"Heinrichstr.","postalCode":"34260","locality":"Kaufungen","municipality":{"key":"06633015","name":"Kaufungen","type":"Kreisangehörige_Gemeinde"},"district":{"key":"06633","name":"Kassel","type":"Landkreis"},"federalState":{"key":"06","name":"Hessen"}},{"name":"Herkulesstr.","postalCode":"34260","locality":"Kaufungen","municipality":{"key":"06633015","name":"Kaufungen","type":"Kreisangehörige_Gemeinde"},"district":{"key":"06633","name":"Kassel","type":"Landkreis"},"federalState":{"key":"06","name":"Hessen"}},{"name":"Herleshäuser Str.","postalCode":"34260","locality":"Kaufungen","municipality":{"key":"06633015","name":"Kaufungen","type":"Kreisangehörige_Gemeinde"},"district":{"key":"06633","name":"Kassel","type":"Landkreis"},"federalState":{"key":"06","name":"Hessen"}},{"name":"Hessenring","postalCode":"34260","locality":"Kaufungen","municipality":{"key":"06633015","name":"Kaufungen","type":"Kreisangehörige_Gemeinde"},"district":{"key":"06633","name":"Kassel","type":"Landkreis"},"federalState":{"key":"06","name":"Hessen"}},{"name":"Hexenberg","postalCode":"34260","locality":"Kaufungen","municipality":{"key":"06633015","name":"Kaufungen","type":"Kreisangehörige_Gemeinde"},"district":{"key":"06633","name":"Kassel","type":"Landkreis"},"federalState":{"key":"06","name":"Hessen"}},{"name":"Hinter dem neuen Kirchhof","postalCode":"34260","locality":"Kaufungen","municipality":{"key":"06633015","name":"Kaufungen","type":"Kreisangehörige_Gemeinde"},"district":{"key":"06633","name":"Kassel","type":"Landkreis"},"federalState":{"key":"06","name":"Hessen"}},{"name":"Hinter der Schule","postalCode":"34260","locality":"Kaufungen","municipality":{"key":"06633015","name":"Kaufungen","type":"Kreisangehörige_Gemeinde"},"district":{"key":"06633","name":"Kassel","type":"Landkreis"},"federalState":{"key":"06","name":"Hessen"}},{"name":"Hirtengasse","postalCode":"34260","locality":"Kaufungen","municipality":{"key":"06633015","name":"Kaufungen","type":"Kreisangehörige_Gemeinde"},"district":{"key":"06633","name":"Kassel","type":"Landkreis"},"federalState":{"key":"06","name":"Hessen"}},{"name":"Hofgarten","postalCode":"34260","locality":"Kaufungen","municipality":{"key":"06633015","name":"Kaufungen","type":"Kreisangehörige_Gemeinde"},"district":{"key":"06633","name":"Kassel","type":"Landkreis"},"federalState":{"key":"06","name":"Hessen"}},{"name":"Hof Schellrode","postalCode":"34260","locality":"Kaufungen","municipality":{"key":"06633015","name":"Kaufungen","type":"Kreisangehörige_Gemeinde"},"district":{"key":"06633","name":"Kassel","type":"Landkreis"},"federalState":{"key":"06","name":"Hessen"}},{"name":"Höhenweg","postalCode":"34260","locality":"Kaufungen","municipality":{"key":"06633015","name":"Kaufungen","type":"Kreisangehörige_Gemeinde"},"district":{"key":"06633","name":"Kassel","type":"Landkreis"},"federalState":{"key":"06","name":"Hessen"}},{"name":"Hopfenbreite","postalCode":"34260","locality":"Kaufungen","municipality":{"key":"06633015","name":"Kaufungen","type":"Kreisangehörige_Gemeinde"},"district":{"key":"06633","name":"Kassel","type":"Landkreis"},"federalState":{"key":"06","name":"Hessen"}},{"name":"Hopfenweg","postalCode":"34260","locality":"Kaufungen","municipality":{"key":"06633015","name":"Kaufungen","type":"Kreisangehörige_Gemeinde"},"district":{"key":"06633","name":"Kassel","type":"Landkreis"},"federalState":{"key":"06","name":"Hessen"}},{"name":"Hundeberg","postalCode":"34260","locality":"Kaufungen","municipality":{"key":"06633015","name":"Kaufungen","type":"Kreisangehörige_Gemeinde"},"district":{"key":"06633","name":"Kassel","type":"Landkreis"},"federalState":{"key":"06","name":"Hessen"}},{"name":"Hüttenhof","postalCode":"34260","locality":"Kaufungen","municipality":{"key":"06633015","name":"Kaufungen","type":"Kreisangehörige_Gemeinde"},"district":{"key":"06633","name":"Kassel","type":"Landkreis"},"federalState":{"key":"06","name":"Hessen"}},{"name":"Im Bruche","postalCode":"34260","locality":"Kaufungen","municipality":{"key":"06633015","name":"Kaufungen","type":"Kreisangehörige_Gemeinde"},"district":{"key":"06633","name":"Kassel","type":"Landkreis"},"federalState":{"key":"06","name":"Hessen"}},{"name":"Im Feldhof","postalCode":"34260","locality":"Kaufungen","municipality":{"key":"06633015","name":"Kaufungen","type":"Kreisangehörige_Gemeinde"},"district":{"key":"06633","name":"Kassel","type":"Landkreis"},"federalState":{"key":"06","name":"Hessen"}},{"name":"Im Hain","postalCode":"34260","locality":"Kaufungen","municipality":{"key":"06633015","name":"Kaufungen","type":"Kreisangehörige_Gemeinde"},"district":{"key":"06633","name":"Kassel","type":"Landkreis"},"federalState":{"key":"06","name":"Hessen"}},{"name":"Im Jagdgrund","postalCode":"34260","locality":"Kaufungen","municipality":{"key":"06633015","name":"Kaufungen","type":"Kreisangehörige_Gemeinde"},"district":{"key":"06633","name":"Kassel","type":"Landkreis"},"federalState":{"key":"06","name":"Hessen"}},{"name":"Im Lossegrund","postalCode":"34260","locality":"Kaufungen","municipality":{"key":"06633015","name":"Kaufungen","type":"Kreisangehörige_Gemeinde"},"district":{"key":"06633","name":"Kassel","type":"Landkreis"},"federalState":{"key":"06","name":"Hessen"}},{"name":"Im Wiesengrund","postalCode":"34260","locality":"Kaufungen","municipality":{"key":"06633015","name":"Kaufungen","type":"Kreisangehörige_Gemeinde"},"district":{"key":"06633","name":"Kassel","type":"Landkreis"},"federalState":{"key":"06","name":"Hessen"}},{"name":"In der Baumschule","postalCode":"34260","locality":"Kaufungen","municipality":{"key":"06633015","name":"Kaufungen","type":"Kreisangehörige_Gemeinde"},"district":{"key":"06633","name":"Kassel","type":"Landkreis"},"federalState":{"key":"06","name":"Hessen"}},{"name":"In der Gewehr","postalCode":"34260","locality":"Kaufungen","municipality":{"key":"06633015","name":"Kaufungen","type":"Kreisangehörige_Gemeinde"},"district":{"key":"06633","name":"Kassel","type":"Landkreis"},"federalState":{"key":"06","name":"Hessen"}},{"name":"In der Klaust","postalCode":"34260","locality":"Kaufungen","municipality":{"key":"06633015","name":"Kaufungen","type":"Kreisangehörige_Gemeinde"},"district":{"key":"06633","name":"Kassel","type":"Landkreis"},"federalState":{"key":"06","name":"Hessen"}},{"name":"In der Rose","postalCode":"34260","locality":"Kaufungen","municipality":{"key":"06633015","name":"Kaufungen","type":"Kreisangehörige_Gemeinde"},"district":{"key":"06633","name":"Kassel","type":"Landkreis"},"federalState":{"key":"06","name":"Hessen"}},{"name":"Industriestr.","postalCode":"34260","locality":"Kaufungen","municipality":{"key":"06633015","name":"Kaufungen","type":"Kreisangehörige_Gemeinde"},"district":{"key":"06633","name":"Kassel","type":"Landkreis"},"federalState":{"key":"06","name":"Hessen"}},{"name":"Inselweg","postalCode":"34260","locality":"Kaufungen","municipality":{"key":"06633015","name":"Kaufungen","type":"Kreisangehörige_Gemeinde"},"district":{"key":"06633","name":"Kassel","type":"Landkreis"},"federalState":{"key":"06","name":"Hessen"}},{"name":"Iskenrutsche","postalCode":"34260","locality":"Kaufungen","municipality":{"key":"06633015","name":"Kaufungen","type":"Kreisangehörige_Gemeinde"},"district":{"key":"06633","name":"Kassel","type":"Landkreis"},"federalState":{"key":"06","name":"Hessen"}},{"name":"Jakobstr.","postalCode":"34260","locality":"Kaufungen","municipality":{"key":"06633015","name":"Kaufungen","type":"Kreisangehörige_Gemeinde"},"district":{"key":"06633","name":"Kassel","type":"Landkreis"},"federalState":{"key":"06","name":"Hessen"}},{"name":"Johannes-Brahms-Weg","postalCode":"34260","locality":"Kaufungen","municipality":{"key":"06633015","name":"Kaufungen","type":"Kreisangehörige_Gemeinde"},"district":{"key":"06633","name":"Kassel","type":"Landkreis"},"federalState":{"key":"06","name":"Hessen"}},{"name":"Kasseler Str.","postalCode":"34260","locality":"Kaufungen","municipality":{"key":"06633015","name":"Kaufungen","type":"Kreisangehörige_Gemeinde"},"district":{"key":"06633","name":"Kassel","type":"Landkreis"},"federalState":{"key":"06","name":"Hessen"}},{"name":"Käthe-Kollwitz-Str.","postalCode":"34260","locality":"Kaufungen","municipality":{"key":"06633015","name":"Kaufungen","type":"Kreisangehörige_Gemeinde"},"district":{"key":"06633","name":"Kassel","type":"Landkreis"},"federalState":{"key":"06","name":"Hessen"}},{"name":"Kaufungen-Niederkaufungen Bahnhof","postalCode":"34260","locality":"Kaufungen","municipality":{"key":"06633015","name":"Kaufungen","type":"Kreisangehörige_Gemeinde"},"district":{"key":"06633","name":"Kassel","type":"Landkreis"},"federalState":{"key":"06","name":"Hessen"}},{"name":"Kaufunger Weg","postalCode":"34260","locality":"Kaufungen","municipality":{"key":"06633015","name":"Kaufungen","type":"Kreisangehörige_Gemeinde"},"district":{"key":"06633","name":"Kassel","type":"Landkreis"},"federalState":{"key":"06","name":"Hessen"}},{"name":"Kiefernweg","postalCode":"34260","locality":"Kaufungen","municipality":{"key":"06633015","name":"Kaufungen","type":"Kreisangehörige_Gemeinde"},"district":{"key":"06633","name":"Kassel","type":"Landkreis"},"federalState":{"key":"06","name":"Hessen"}},{"name":"Kirchplatz","postalCode":"34260","locality":"Kaufungen","municipality":{"key":"06633015","name":"Kaufungen","type":"Kreisangehörige_Gemeinde"},"district":{"key":"06633","name":"Kassel","type":"Landkreis"},"federalState":{"key":"06","name":"Hessen"}},{"name":"Kirchweg","postalCode":"34260","locality":"Kaufungen","municipality":{"key":"06633015","name":"Kaufungen","type":"Kreisangehörige_Gemeinde"},"district":{"key":"06633","name":"Kassel","type":"Landkreis"},"federalState":{"key":"06","name":"Hessen"}},{"name":"Kleine Kulle","postalCode":"34260","locality":"Kaufungen","municipality":{"key":"06633015","name":"Kaufungen","type":"Kreisangehörige_Gemeinde"},"district":{"key":"06633","name":"Kassel","type":"Landkreis"},"federalState":{"key":"06","name":"Hessen"}},{"name":"Kleiner Kirchberg","postalCode":"34260","locality":"Kaufungen","municipality":{"key":"06633015","name":"Kaufungen","type":"Kreisangehörige_Gemeinde"},"district":{"key":"06633","name":"Kassel","type":"Landkreis"},"federalState":{"key":"06","name":"Hessen"}},{"name":"Knappenweg","postalCode":"34260","locality":"Kaufungen","municipality":{"key":"06633015","name":"Kaufungen","type":"Kreisangehörige_Gemeinde"},"district":{"key":"06633","name":"Kassel","type":"Landkreis"},"federalState":{"key":"06","name":"Hessen"}},{"name":"Kohlenstr.","postalCode":"34260","locality":"Kaufungen","municipality":{"key":"06633015","name":"Kaufungen","type":"Kreisangehörige_Gemeinde"},"district":{"key":"06633","name":"Kassel","type":"Landkreis"},"federalState":{"key":"06","name":"Hessen"}},{"name":"Kunigundenstr.","postalCode":"34260","locality":"Kaufungen","municipality":{"key":"06633015","name":"Kaufungen","type":"Kreisangehörige_Gemeinde"},"district":{"key":"06633","name":"Kassel","type":"Landkreis"},"federalState":{"key":"06","name":"Hessen"}},{"name":"Kurze Str.","postalCode":"34260","locality":"Kaufungen","municipality":{"key":"06633015","name":"Kaufungen","type":"Kreisangehörige_Gemeinde"},"district":{"key":"06633","name":"Kassel","type":"Landkreis"},"federalState":{"key":"06","name":"Hessen"}},{"name":"Langer Heinrich","postalCode":"34260","locality":"Kaufungen","municipality":{"key":"06633015","name":"Kaufungen","type":"Kreisangehörige_Gemeinde"},"district":{"key":"06633","name":"Kassel","type":"Landkreis"},"federalState":{"key":"06","name":"Hessen"}},{"name":"Lange Str.","postalCode":"34260","locality":"Kaufungen","municipality":{"key":"06633015","name":"Kaufungen","type":"Kreisangehörige_Gemeinde"},"district":{"key":"06633","name":"Kassel","type":"Landkreis"},"federalState":{"key":"06","name":"Hessen"}},{"name":"Lausitzer Str.","postalCode":"34260","locality":"Kaufungen","municipality":{"key":"06633015","name":"Kaufungen","type":"Kreisangehörige_Gemeinde"},"district":{"key":"06633","name":"Kassel","type":"Landkreis"},"federalState":{"key":"06","name":"Hessen"}},{"name":"Leipziger Str.","postalCode":"34260","locality":"Kaufungen","municipality":{"key":"06633015","name":"Kaufungen","type":"Kreisangehörige_Gemeinde"},"district":{"key":"06633","name":"Kassel","type":"Landkreis"},"federalState":{"key":"06","name":"Hessen"}},{"name":"Lindenweg","postalCode":"34260","locality":"Kaufungen","municipality":{"key":"06633015","name":"Kaufungen","type":"Kreisangehörige_Gemeinde"},"district":{"key":"06633","name":"Kassel","type":"Landkreis"},"federalState":{"key":"06","name":"Hessen"}},{"name":"Lohfeldener Weg","postalCode":"34260","locality":"Kaufungen","municipality":{"key":"06633015","name":"Kaufungen","type":"Kreisangehörige_Gemeinde"},"district":{"key":"06633","name":"Kassel","type":"Landkreis"},"federalState":{"key":"06","name":"Hessen"}},{"name":"Ludwigstr.","postalCode":"34260","locality":"Kaufungen","municipality":{"key":"06633015","name":"Kaufungen","type":"Kreisangehörige_Gemeinde"},"district":{"key":"06633","name":"Kassel","type":"Landkreis"},"federalState":{"key":"06","name":"Hessen"}},{"name":"Meißnerstr.","postalCode":"34260","locality":"Kaufungen","municipality":{"key":"06633015","name":"Kaufungen","type":"Kreisangehörige_Gemeinde"},"district":{"key":"06633","name":"Kassel","type":"Landkreis"},"federalState":{"key":"06","name":"Hessen"}},{"name":"Mittelstr.","postalCode":"34260","locality":"Kaufungen","municipality":{"key":"06633015","name":"Kaufungen","type":"Kreisangehörige_Gemeinde"},"district":{"key":"06633","name":"Kassel","type":"Landkreis"},"federalState":{"key":"06","name":"Hessen"}},{"name":"Mörikestr.","postalCode":"34260","locality":"Kaufungen","municipality":{"key":"06633015","name":"Kaufungen","type":"Kreisangehörige_Gemeinde"},"district":{"key":"06633","name":"Kassel","type":"Landkreis"},"federalState":{"key":"06","name":"Hessen"}},{"name":"Mühlenstr.","postalCode":"34260","locality":"Kaufungen","municipality":{"key":"06633015","name":"Kaufungen","type":"Kreisangehörige_Gemeinde"},"district":{"key":"06633","name":"Kassel","type":"Landkreis"},"federalState":{"key":"06","name":"Hessen"}},{"name":"Mühlenweg","postalCode":"34260","locality":"Kaufungen","municipality":{"key":"06633015","name":"Kaufungen","type":"Kreisangehörige_Gemeinde"},"district":{"key":"06633","name":"Kassel","type":"Landkreis"},"federalState":{"key":"06","name":"Hessen"}},{"name":"Neißeweg","postalCode":"34260","locality":"Kaufungen","municipality":{"key":"06633015","name":"Kaufungen","type":"Kreisangehörige_Gemeinde"},"district":{"key":"06633","name":"Kassel","type":"Landkreis"},"federalState":{"key":"06","name":"Hessen"}},{"name":"Neuer Hof","postalCode":"34260","locality":"Kaufungen","municipality":{"key":"06633015","name":"Kaufungen","type":"Kreisangehörige_Gemeinde"},"district":{"key":"06633","name":"Kassel","type":"Landkreis"},"federalState":{"key":"06","name":"Hessen"}},{"name":"Neuer Weg","postalCode":"34260","locality":"Kaufungen","municipality":{"key":"06633015","name":"Kaufungen","type":"Kreisangehörige_Gemeinde"},"district":{"key":"06633","name":"Kassel","type":"Landkreis"},"federalState":{"key":"06","name":"Hessen"}},{"name":"Neue Str.","postalCode":"34260","locality":"Kaufungen","municipality":{"key":"06633015","name":"Kaufungen","type":"Kreisangehörige_Gemeinde"},"district":{"key":"06633","name":"Kassel","type":"Landkreis"},"federalState":{"key":"06","name":"Hessen"}},{"name":"Niester Str.","postalCode":"34260","locality":"Kaufungen","municipality":{"key":"06633015","name":"Kaufungen","type":"Kreisangehörige_Gemeinde"},"district":{"key":"06633","name":"Kassel","type":"Landkreis"},"federalState":{"key":"06","name":"Hessen"}},{"name":"Oberer Struthweg","postalCode":"34260","locality":"Kaufungen","municipality":{"key":"06633015","name":"Kaufungen","type":"Kreisangehörige_Gemeinde"},"district":{"key":"06633","name":"Kassel","type":"Landkreis"},"federalState":{"key":"06","name":"Hessen"}},{"name":"Ochshäuser Weg","postalCode":"34260","locality":"Kaufungen","municipality":{"key":"06633015","name":"Kaufungen","type":"Kreisangehörige_Gemeinde"},"district":{"key":"06633","name":"Kassel","type":"Landkreis"},"federalState":{"key":"06","name":"Hessen"}},{"name":"Oderweg","postalCode":"34260","locality":"Kaufungen","municipality":{"key":"06633015","name":"Kaufungen","type":"Kreisangehörige_Gemeinde"},"district":{"key":"06633","name":"Kassel","type":"Landkreis"},"federalState":{"key":"06","name":"Hessen"}},{"name":"Ostpreußenstr.","postalCode":"34260","locality":"Kaufungen","municipality":{"key":"06633015","name":"Kaufungen","type":"Kreisangehörige_Gemeinde"},"district":{"key":"06633","name":"Kassel","type":"Landkreis"},"federalState":{"key":"06","name":"Hessen"}},{"name":"Paul-Ehrlich-Str.","postalCode":"34260","locality":"Kaufungen","municipality":{"key":"06633015","name":"Kaufungen","type":"Kreisangehörige_Gemeinde"},"district":{"key":"06633","name":"Kassel","type":"Landkreis"},"federalState":{"key":"06","name":"Hessen"}},{"name":"Pestalozzistr.","postalCode":"34260","locality":"Kaufungen","municipality":{"key":"06633015","name":"Kaufungen","type":"Kreisangehörige_Gemeinde"},"district":{"key":"06633","name":"Kassel","type":"Landkreis"},"federalState":{"key":"06","name":"Hessen"}},{"name":"Pettenkoferstr.","postalCode":"34260","locality":"Kaufungen","municipality":{"key":"06633015","name":"Kaufungen","type":"Kreisangehörige_Gemeinde"},"district":{"key":"06633","name":"Kassel","type":"Landkreis"},"federalState":{"key":"06","name":"Hessen"}},{"name":"Pfalzstr.","postalCode":"34260","locality":"Kaufungen","municipality":{"key":"06633015","name":"Kaufungen","type":"Kreisangehörige_Gemeinde"},"district":{"key":"06633","name":"Kassel","type":"Landkreis"},"federalState":{"key":"06","name":"Hessen"}},{"name":"Pfannkuchweg","postalCode":"34260","locality":"Kaufungen","municipality":{"key":"06633015","name":"Kaufungen","type":"Kreisangehörige_Gemeinde"},"district":{"key":"06633","name":"Kassel","type":"Landkreis"},"federalState":{"key":"06","name":"Hessen"}},{"name":"Pommernstr.","postalCode":"34260","locality":"Kaufungen","municipality":{"key":"06633015","name":"Kaufungen","type":"Kreisangehörige_Gemeinde"},"district":{"key":"06633","name":"Kassel","type":"Landkreis"},"federalState":{"key":"06","name":"Hessen"}},{"name":"Querstr.","postalCode":"34260","locality":"Kaufungen","municipality":{"key":"06633015","name":"Kaufungen","type":"Kreisangehörige_Gemeinde"},"district":{"key":"06633","name":"Kassel","type":"Landkreis"},"federalState":{"key":"06","name":"Hessen"}},{"name":"Raabestr.","postalCode":"34260","locality":"Kaufungen","municipality":{"key":"06633015","name":"Kaufungen","type":"Kreisangehörige_Gemeinde"},"district":{"key":"06633","name":"Kassel","type":"Landkreis"},"federalState":{"key":"06","name":"Hessen"}},{"name":"Raiffeisenstr.","postalCode":"34260","locality":"Kaufungen","municipality":{"key":"06633015","name":"Kaufungen","type":"Kreisangehörige_Gemeinde"},"district":{"key":"06633","name":"Kassel","type":"Landkreis"},"federalState":{"key":"06","name":"Hessen"}},{"name":"Rehheckenweg","postalCode":"34260","locality":"Kaufungen","municipality":{"key":"06633015","name":"Kaufungen","type":"Kreisangehörige_Gemeinde"},"district":{"key":"06633","name":"Kassel","type":"Landkreis"},"federalState":{"key":"06","name":"Hessen"}},{"name":"Rennwiesen","postalCode":"34260","locality":"Kaufungen","municipality":{"key":"06633015","name":"Kaufungen","type":"Kreisangehörige_Gemeinde"},"district":{"key":"06633","name":"Kassel","type":"Landkreis"},"federalState":{"key":"06","name":"Hessen"}},{"name":"Richard-von-Weizsäcker-Str.","postalCode":"34260","locality":"Kaufungen","municipality":{"key":"06633015","name":"Kaufungen","type":"Kreisangehörige_Gemeinde"},"district":{"key":"06633","name":"Kassel","type":"Landkreis"},"federalState":{"key":"06","name":"Hessen"}},{"name":"Rieckswiesen","postalCode":"34260","locality":"Kaufungen","municipality":{"key":"06633015","name":"Kaufungen","type":"Kreisangehörige_Gemeinde"},"district":{"key":"06633","name":"Kassel","type":"Landkreis"},"federalState":{"key":"06","name":"Hessen"}},{"name":"Robert-Koch-Str.","postalCode":"34260","locality":"Kaufungen","municipality":{"key":"06633015","name":"Kaufungen","type":"Kreisangehörige_Gemeinde"},"district":{"key":"06633","name":"Kassel","type":"Landkreis"},"federalState":{"key":"06","name":"Hessen"}},{"name":"Rohrweg","postalCode":"34260","locality":"Kaufungen","municipality":{"key":"06633015","name":"Kaufungen","type":"Kreisangehörige_Gemeinde"},"district":{"key":"06633","name":"Kassel","type":"Landkreis"},"federalState":{"key":"06","name":"Hessen"}},{"name":"Röntgenweg","postalCode":"34260","locality":"Kaufungen","municipality":{"key":"06633015","name":"Kaufungen","type":"Kreisangehörige_Gemeinde"},"district":{"key":"06633","name":"Kassel","type":"Landkreis"},"federalState":{"key":"06","name":"Hessen"}},{"name":"Rotenburger Str.","postalCode":"34260","locality":"Kaufungen","municipality":{"key":"06633015","name":"Kaufungen","type":"Kreisangehörige_Gemeinde"},"district":{"key":"06633","name":"Kassel","type":"Landkreis"},"federalState":{"key":"06","name":"Hessen"}},{"name":"Rottebachweg","postalCode":"34260","locality":"Kaufungen","municipality":{"key":"06633015","name":"Kaufungen","type":"Kreisangehörige_Gemeinde"},"district":{"key":"06633","name":"Kassel","type":"Landkreis"},"federalState":{"key":"06","name":"Hessen"}},{"name":"Saalestr.","postalCode":"34260","locality":"Kaufungen","municipality":{"key":"06633015","name":"Kaufungen","type":"Kreisangehörige_Gemeinde"},"district":{"key":"06633","name":"Kassel","type":"Landkreis"},"federalState":{"key":"06","name":"Hessen"}},{"name":"Sandweg","postalCode":"34260","locality":"Kaufungen","municipality":{"key":"06633015","name":"Kaufungen","type":"Kreisangehörige_Gemeinde"},"district":{"key":"06633","name":"Kassel","type":"Landkreis"},"federalState":{"key":"06","name":"Hessen"}},{"name":"Schillerstr.","postalCode":"34260","locality":"Kaufungen","municipality":{"key":"06633015","name":"Kaufungen","type":"Kreisangehörige_Gemeinde"},"district":{"key":"06633","name":"Kassel","type":"Landkreis"},"federalState":{"key":"06","name":"Hessen"}},{"name":"Schlesierstr.","postalCode":"34260","locality":"Kaufungen","municipality":{"key":"06633015","name":"Kaufungen","type":"Kreisangehörige_Gemeinde"},"district":{"key":"06633","name":"Kassel","type":"Landkreis"},"federalState":{"key":"06","name":"Hessen"}},{"name":"Schmaler Fußweg","postalCode":"34260","locality":"Kaufungen","municipality":{"key":"06633015","name":"Kaufungen","type":"Kreisangehörige_Gemeinde"},"district":{"key":"06633","name":"Kassel","type":"Landkreis"},"federalState":{"key":"06","name":"Hessen"}},{"name":"Schoppenbergweg","postalCode":"34260","locality":"Kaufungen","municipality":{"key":"06633015","name":"Kaufungen","type":"Kreisangehörige_Gemeinde"},"district":{"key":"06633","name":"Kassel","type":"Landkreis"},"federalState":{"key":"06","name":"Hessen"}},{"name":"Schulstr.","postalCode":"34260","locality":"Kaufungen","municipality":{"key":"06633015","name":"Kaufungen","type":"Kreisangehörige_Gemeinde"},"district":{"key":"06633","name":"Kassel","type":"Landkreis"},"federalState":{"key":"06","name":"Hessen"}},{"name":"Schwarze Breite","postalCode":"34260","locality":"Kaufungen","municipality":{"key":"06633015","name":"Kaufungen","type":"Kreisangehörige_Gemeinde"},"district":{"key":"06633","name":"Kassel","type":"Landkreis"},"federalState":{"key":"06","name":"Hessen"}},{"name":"Schwarzer Weg","postalCode":"34260","locality":"Kaufungen","municipality":{"key":"06633015","name":"Kaufungen","type":"Kreisangehörige_Gemeinde"},"district":{"key":"06633","name":"Kassel","type":"Landkreis"},"federalState":{"key":"06","name":"Hessen"}},{"name":"Sensensteinstr.","postalCode":"34260","locality":"Kaufungen","municipality":{"key":"06633015","name":"Kaufungen","type":"Kreisangehörige_Gemeinde"},"district":{"key":"06633","name":"Kassel","type":"Landkreis"},"federalState":{"key":"06","name":"Hessen"}},{"name":"Setzebachgrund","postalCode":"34260","locality":"Kaufungen","municipality":{"key":"06633015","name":"Kaufungen","type":"Kreisangehörige_Gemeinde"},"district":{"key":"06633","name":"Kassel","type":"Landkreis"},"federalState":{"key":"06","name":"Hessen"}},{"name":"Siedlerweg","postalCode":"34260","locality":"Kaufungen","municipality":{"key":"06633015","name":"Kaufungen","type":"Kreisangehörige_Gemeinde"},"district":{"key":"06633","name":"Kassel","type":"Landkreis"},"federalState":{"key":"06","name":"Hessen"}},{"name":"Singletrail","postalCode":"34260","locality":"Kaufungen","municipality":{"key":"06633015","name":"Kaufungen","type":"Kreisangehörige_Gemeinde"},"district":{"key":"06633","name":"Kassel","type":"Landkreis"},"federalState":{"key":"06","name":"Hessen"}},{"name":"Söhrestr.","postalCode":"34260","locality":"Kaufungen","municipality":{"key":"06633015","name":"Kaufungen","type":"Kreisangehörige_Gemeinde"},"district":{"key":"06633","name":"Kassel","type":"Landkreis"},"federalState":{"key":"06","name":"Hessen"}},{"name":"Sonnenweg","postalCode":"34260","locality":"Kaufungen","municipality":{"key":"06633015","name":"Kaufungen","type":"Kreisangehörige_Gemeinde"},"district":{"key":"06633","name":"Kassel","type":"Landkreis"},"federalState":{"key":"06","name":"Hessen"}},{"name":"Sophie-Henschel-Weg","postalCode":"34260","locality":"Kaufungen","municipality":{"key":"06633015","name":"Kaufungen","type":"Kreisangehörige_Gemeinde"},"district":{"key":"06633","name":"Kassel","type":"Landkreis"},"federalState":{"key":"06","name":"Hessen"}},{"name":"Steinkulle","postalCode":"34260","locality":"Kaufungen","municipality":{"key":"06633015","name":"Kaufungen","type":"Kreisangehörige_Gemeinde"},"district":{"key":"06633","name":"Kassel","type":"Landkreis"},"federalState":{"key":"06","name":"Hessen"}},{"name":"Steinweg","postalCode":"34260","locality":"Kaufungen","municipality":{"key":"06633015","name":"Kaufungen","type":"Kreisangehörige_Gemeinde"},"district":{"key":"06633","name":"Kassel","type":"Landkreis"},"federalState":{"key":"06","name":"Hessen"}},{"name":"Stephanusstr.","postalCode":"34260","locality":"Kaufungen","municipality":{"key":"06633015","name":"Kaufungen","type":"Kreisangehörige_Gemeinde"},"district":{"key":"06633","name":"Kassel","type":"Landkreis"},"federalState":{"key":"06","name":"Hessen"}},{"name":"Stiftstr.","postalCode":"34260","locality":"Kaufungen","municipality":{"key":"06633015","name":"Kaufungen","type":"Kreisangehörige_Gemeinde"},"district":{"key":"06633","name":"Kassel","type":"Landkreis"},"federalState":{"key":"06","name":"Hessen"}},{"name":"Struthberg","postalCode":"34260","locality":"Kaufungen","municipality":{"key":"06633015","name":"Kaufungen","type":"Kreisangehörige_Gemeinde"},"district":{"key":"06633","name":"Kassel","type":"Landkreis"},"federalState":{"key":"06","name":"Hessen"}},{"name":"Struthweg","postalCode":"34260","locality":"Kaufungen","municipality":{"key":"06633015","name":"Kaufungen","type":"Kreisangehörige_Gemeinde"},"district":{"key":"06633","name":"Kassel","type":"Landkreis"},"federalState":{"key":"06","name":"Hessen"}},{"name":"Sudetenstr.","postalCode":"34260","locality":"Kaufungen","municipality":{"key":"06633015","name":"Kaufungen","type":"Kreisangehörige_Gemeinde"},"district":{"key":"06633","name":"Kassel","type":"Landkreis"},"federalState":{"key":"06","name":"Hessen"}},{"name":"Tannenweg","postalCode":"34260","locality":"Kaufungen","municipality":{"key":"06633015","name":"Kaufungen","type":"Kreisangehörige_Gemeinde"},"district":{"key":"06633","name":"Kassel","type":"Landkreis"},"federalState":{"key":"06","name":"Hessen"}},{"name":"Teich","postalCode":"34260","locality":"Kaufungen","municipality":{"key":"06633015","name":"Kaufungen","type":"Kreisangehörige_Gemeinde"},"district":{"key":"06633","name":"Kassel","type":"Landkreis"},"federalState":{"key":"06","name":"Hessen"}},{"name":"Teichstr.","postalCode":"34260","locality":"Kaufungen","municipality":{"key":"06633015","name":"Kaufungen","type":"Kreisangehörige_Gemeinde"},"district":{"key":"06633","name":"Kassel","type":"Landkreis"},"federalState":{"key":"06","name":"Hessen"}},{"name":"Theodor-Heuss-Str.","postalCode":"34260","locality":"Kaufungen","municipality":{"key":"06633015","name":"Kaufungen","type":"Kreisangehörige_Gemeinde"},"district":{"key":"06633","name":"Kassel","type":"Landkreis"},"federalState":{"key":"06","name":"Hessen"}},{"name":"Thüringer Str.","postalCode":"34260","locality":"Kaufungen","municipality":{"key":"06633015","name":"Kaufungen","type":"Kreisangehörige_Gemeinde"},"district":{"key":"06633","name":"Kassel","type":"Landkreis"},"federalState":{"key":"06","name":"Hessen"}},{"name":"Töpferweg","postalCode":"34260","locality":"Kaufungen","municipality":{"key":"06633015","name":"Kaufungen","type":"Kreisangehörige_Gemeinde"},"district":{"key":"06633","name":"Kassel","type":"Landkreis"},"federalState":{"key":"06","name":"Hessen"}},{"name":"Tränkegasse","postalCode":"34260","locality":"Kaufungen","municipality":{"key":"06633015","name":"Kaufungen","type":"Kreisangehörige_Gemeinde"},"district":{"key":"06633","name":"Kassel","type":"Landkreis"},"federalState":{"key":"06","name":"Hessen"}},{"name":"Triftstr.","postalCode":"34260","locality":"Kaufungen","municipality":{"key":"06633015","name":"Kaufungen","type":"Kreisangehörige_Gemeinde"},"district":{"key":"06633","name":"Kassel","type":"Landkreis"},"federalState":{"key":"06","name":"Hessen"}},{"name":"Uhlandstr.","postalCode":"34260","locality":"Kaufungen","municipality":{"key":"06633015","name":"Kaufungen","type":"Kreisangehörige_Gemeinde"},"district":{"key":"06633","name":"Kassel","type":"Landkreis"},"federalState":{"key":"06","name":"Hessen"}},{"name":"Ulmenstr.","postalCode":"34260","locality":"Kaufungen","municipality":{"key":"06633015","name":"Kaufungen","type":"Kreisangehörige_Gemeinde"},"district":{"key":"06633","name":"Kassel","type":"Landkreis"},"federalState":{"key":"06","name":"Hessen"}},{"name":"Unter den Eichen","postalCode":"34260","locality":"Kaufungen","municipality":{"key":"06633015","name":"Kaufungen","type":"Kreisangehörige_Gemeinde"},"district":{"key":"06633","name":"Kassel","type":"Landkreis"},"federalState":{"key":"06","name":"Hessen"}},{"name":"Unter der Höhe","postalCode":"34260","locality":"Kaufungen","municipality":{"key":"06633015","name":"Kaufungen","type":"Kreisangehörige_Gemeinde"},"district":{"key":"06633","name":"Kassel","type":"Landkreis"},"federalState":{"key":"06","name":"Hessen"}},{"name":"Unter der Klinik","postalCode":"34260","locality":"Kaufungen","municipality":{"key":"06633015","name":"Kaufungen","type":"Kreisangehörige_Gemeinde"},"district":{"key":"06633","name":"Kassel","type":"Landkreis"},"federalState":{"key":"06","name":"Hessen"}},{"name":"Unterer Struthweg","postalCode":"34260","locality":"Kaufungen","municipality":{"key":"06633015","name":"Kaufungen","type":"Kreisangehörige_Gemeinde"},"district":{"key":"06633","name":"Kassel","type":"Landkreis"},"federalState":{"key":"06","name":"Hessen"}},{"name":"Virchowstr.","postalCode":"34260","locality":"Kaufungen","municipality":{"key":"06633015","name":"Kaufungen","type":"Kreisangehörige_Gemeinde"},"district":{"key":"06633","name":"Kassel","type":"Landkreis"},"federalState":{"key":"06","name":"Hessen"}},{"name":"Vollmarshäuser Str.","postalCode":"34260","locality":"Kaufungen","municipality":{"key":"06633015","name":"Kaufungen","type":"Kreisangehörige_Gemeinde"},"district":{"key":"06633","name":"Kassel","type":"Landkreis"},"federalState":{"key":"06","name":"Hessen"}},{"name":"Von-Behring-Str.","postalCode":"34260","locality":"Kaufungen","municipality":{"key":"06633015","name":"Kaufungen","type":"Kreisangehörige_Gemeinde"},"district":{"key":"06633","name":"Kassel","type":"Landkreis"},"federalState":{"key":"06","name":"Hessen"}},{"name":"Walburger Str.","postalCode":"34260","locality":"Kaufungen","municipality":{"key":"06633015","name":"Kaufungen","type":"Kreisangehörige_Gemeinde"},"district":{"key":"06633","name":"Kassel","type":"Landkreis"},"federalState":{"key":"06","name":"Hessen"}},{"name":"Welleröder Str.","postalCode":"34260","locality":"Kaufungen","municipality":{"key":"06633015","name":"Kaufungen","type":"Kreisangehörige_Gemeinde"},"district":{"key":"06633","name":"Kassel","type":"Landkreis"},"federalState":{"key":"06","name":"Hessen"}},{"name":"Werraweg","postalCode":"34260","locality":"Kaufungen","municipality":{"key":"06633015","name":"Kaufungen","type":"Kreisangehörige_Gemeinde"},"district":{"key":"06633","name":"Kassel","type":"Landkreis"},"federalState":{"key":"06","name":"Hessen"}},{"name":"Wickenröder Str.","postalCode":"34260","locality":"Kaufungen","municipality":{"key":"06633015","name":"Kaufungen","type":"Kreisangehörige_Gemeinde"},"district":{"key":"06633","name":"Kassel","type":"Landkreis"},"federalState":{"key":"06","name":"Hessen"}},{"name":"Wilhelmstr.","postalCode":"34260","locality":"Kaufungen","municipality":{"key":"06633015","name":"Kaufungen","type":"Kreisangehörige_Gemeinde"},"district":{"key":"06633","name":"Kassel","type":"Landkreis"},"federalState":{"key":"06","name":"Hessen"}},{"name":"Windhäuser Str.","postalCode":"34260","locality":"Kaufungen","municipality":{"key":"06633015","name":"Kaufungen","type":"Kreisangehörige_Gemeinde"},"district":{"key":"06633","name":"Kassel","type":"Landkreis"},"federalState":{"key":"06","name":"Hessen"}},{"name":"Witzenhäuser Str.","postalCode":"34260","locality":"Kaufungen","municipality":{"key":"06633015","name":"Kaufungen","type":"Kreisangehörige_Gemeinde"},"district":{"key":"06633","name":"Kassel","type":"Landkreis"},"federalState":{"key":"06","name":"Hessen"}},{"name":"Yorckstr.","postalCode":"34123","locality":"Kassel","municipality":{"key":"06611000","name":"Kassel, documenta-Stadt","type":"Kreisfreie_Stadt"},"district":{"key":"06611","name":"Kassel, documenta-Stadt","type":"Kreisfreie_Stadt"},"federalState":{"key":"06","name":"Hessen"}},{"name":"Ysenburgstr.","postalCode":"34125","locality":"Kassel","municipality":{"key":"06611000","name":"Kassel, documenta-Stadt","type":"Kreisfreie_Stadt"},"district":{"key":"06611","name":"Kassel, documenta-Stadt","type":"Kreisfreie_Stadt"},"federalState":{"key":"06","name":"Hessen"}},{"name":"Zechenplatz","postalCode":"34260","locality":"Kaufungen","municipality":{"key":"06633015","name":"Kaufungen","type":"Kreisangehörige_Gemeinde"},"district":{"key":"06633","name":"Kassel","type":"Landkreis"},"federalState":{"key":"06","name":"Hessen"}},{"name":"Ziegeleiweg","postalCode":"34260","locality":"Kaufungen","municipality":{"key":"06633015","name":"Kaufungen","type":"Kreisangehörige_Gemeinde"},"district":{"key":"06633","name":"Kassel","type":"Landkreis"},"federalState":{"key":"06","name":"Hessen"}},{"name":"Ziegelhütte","postalCode":"34260","locality":"Kaufungen","municipality":{"key":"06633015","name":"Kaufungen","type":"Kreisangehörige_Gemeinde"},"district":{"key":"06633","name":"Kassel","type":"Landkreis"},"federalState":{"key":"06","name":"Hessen"}},{"name":"Zierenberger Str.","postalCode":"34260","locality":"Kaufungen","municipality":{"key":"06633015","name":"Kaufungen","type":"Kreisangehörige_Gemeinde"},"district":{"key":"06633","name":"Kassel","type":"Landkreis"},"federalState":{"key":"06","name":"Hessen"}},{"name":"Zum Kirchberg","postalCode":"34260","locality":"Kaufungen","municipality":{"key":"06633015","name":"Kaufungen","type":"Kreisangehörige_Gemeinde"},"district":{"key":"06633","name":"Kassel","type":"Landkreis"},"federalState":{"key":"06","name":"Hessen"}},{"name":"Zum Mühlenweg","postalCode":"34260","locality":"Kaufungen","municipality":{"key":"06633015","name":"Kaufungen","type":"Kreisangehörige_Gemeinde"},"district":{"key":"06633","name":"Kassel","type":"Landkreis"},"federalState":{"key":"06","name":"Hessen"}},{"name":"Zum Stollengang","postalCode":"34260","locality":"Kaufungen","municipality":{"key":"06633015","name":"Kaufungen","type":"Kreisangehörige_Gemeinde"},"district":{"key":"06633","name":"Kassel","type":"Landkreis"},"federalState":{"key":"06","name":"Hessen"}},{"name":"Zur Kunstmühle","postalCode":"34260","locality":"Kaufungen","municipality":{"key":"06633015","name":"Kaufungen","type":"Kreisangehörige_Gemeinde"},"district":{"key":"06633","name":"Kassel","type":"Landkreis"},"federalState":{"key":"06","name":"Hessen"}},{"name":"Zur Schönen Aussicht","postalCode":"34260","locality":"Kaufungen","municipality":{"key":"06633015","name":"Kaufungen","type":"Kreisangehörige_Gemeinde"},"district":{"key":"06633","name":"Kassel","type":"Landkreis"},"federalState":{"key":"06","name":"Hessen"}},{"name":"Öderaner Str.","postalCode":"34123","locality":"Kassel","municipality":{"key":"06611000","name":"Kassel, documenta-Stadt","type":"Kreisfreie_Stadt"},"district":{"key":"06611","name":"Kassel, documenta-Stadt","type":"Kreisfreie_Stadt"},"federalState":{"key":"06","name":"Hessen"}},{"name":"Ölbergweg","postalCode":"53859","locality":"Niederkassel","municipality":{"key":"05382044","name":"Niederkassel, Stadt","type":"Stadt"},"district":{"key":"05382","name":"Rhein-Sieg-Kreis","type":"Kreis"},"federalState":{"key":"05","name":"Nordrhein-Westfalen"}},{"name":"Ölmühlenweg","postalCode":"34123","locality":"Kassel","municipality":{"key":"06611000","name":"Kassel, documenta-Stadt","type":"Kreisfreie_Stadt"},"district":{"key":"06611","name":"Kassel, documenta-Stadt","type":"Kreisfreie_Stadt"},"federalState":{"key":"06","name":"Hessen"}},]