[{"name":"Aichelauer Str.","postalCode":"72539","locality":"Pfronstetten","municipality":{"key":"08415058","name":"Pfronstetten","type":"Kreisangehörige_Gemeinde"},"district":{"key":"08415","name":"Reutlingen","type":"Landkreis"},"federalState":{"key":"08","name":"Baden-Württemberg"}},{"name":"Aichstetter Str.","postalCode":"72539","locality":"Pfronstetten","municipality":{"key":"08415058","name":"Pfronstetten","type":"Kreisangehörige_Gemeinde"},"district":{"key":"08415","name":"Reutlingen","type":"Landkreis"},"federalState":{"key":"08","name":"Baden-Württemberg"}},{"name":"Albblick","postalCode":"72539","locality":"Pfronstetten","municipality":{"key":"08415058","name":"Pfronstetten","type":"Kreisangehörige_Gemeinde"},"district":{"key":"08415","name":"Reutlingen","type":"Landkreis"},"federalState":{"key":"08","name":"Baden-Württemberg"}},{"name":"Amselweg","postalCode":"72539","locality":"Pfronstetten","municipality":{"key":"08415058","name":"Pfronstetten","type":"Kreisangehörige_Gemeinde"},"district":{"key":"08415","name":"Reutlingen","type":"Landkreis"},"federalState":{"key":"08","name":"Baden-Württemberg"}},{"name":"Bergstr.","postalCode":"72539","locality":"Pfronstetten","municipality":{"key":"08415058","name":"Pfronstetten","type":"Kreisangehörige_Gemeinde"},"district":{"key":"08415","name":"Reutlingen","type":"Landkreis"},"federalState":{"key":"08","name":"Baden-Württemberg"}},{"name":"Birkenweg","postalCode":"72539","locality":"Pfronstetten","municipality":{"key":"08415058","name":"Pfronstetten","type":"Kreisangehörige_Gemeinde"},"district":{"key":"08415","name":"Reutlingen","type":"Landkreis"},"federalState":{"key":"08","name":"Baden-Württemberg"}},{"name":"Breite","postalCode":"72539","locality":"Pfronstetten","municipality":{"key":"08415058","name":"Pfronstetten","type":"Kreisangehörige_Gemeinde"},"district":{"key":"08415","name":"Reutlingen","type":"Landkreis"},"federalState":{"key":"08","name":"Baden-Württemberg"}},{"name":"Buchenweg","postalCode":"72539","locality":"Pfronstetten","municipality":{"key":"08415058","name":"Pfronstetten","type":"Kreisangehörige_Gemeinde"},"district":{"key":"08415","name":"Reutlingen","type":"Landkreis"},"federalState":{"key":"08","name":"Baden-Württemberg"}},{"name":"Carl-Diem-Str.","postalCode":"72760","locality":"Reutlingen","municipality":{"key":"08415061","name":"Reutlingen, Stadt","type":"Große_Kreisstadt"},"district":{"key":"08415","name":"Reutlingen","type":"Landkreis"},"federalState":{"key":"08","name":"Baden-Württemberg"}},{"name":"Carl-Zeiss-Str.","postalCode":"72770","locality":"Reutlingen","municipality":{"key":"08415061","name":"Reutlingen, Stadt","type":"Große_Kreisstadt"},"district":{"key":"08415","name":"Reutlingen","type":"Landkreis"},"federalState":{"key":"08","name":"Baden-Württemberg"}},{"name":"Carmenstr.","postalCode":"72768","locality":"Reutlingen","municipality":{"key":"08415061","name":"Reutlingen, Stadt","type":"Große_Kreisstadt"},"district":{"key":"08415","name":"Reutlingen","type":"Landkreis"},"federalState":{"key":"08","name":"Baden-Württemberg"}},{"name":"Charlottenstr.","postalCode":"72764","locality":"Reutlingen","municipality":{"key":"08415061","name":"Reutlingen, Stadt","type":"Große_Kreisstadt"},"district":{"key":"08415","name":"Reutlingen","type":"Landkreis"},"federalState":{"key":"08","name":"Baden-Württemberg"}},{"name":"Charlottenstr.","postalCode":"72766","locality":"Reutlingen","municipality":{"key":"08415061","name":"Reutlingen, Stadt","type":"Große_Kreisstadt"},"district":{"key":"08415","name":"Reutlingen","type":"Landkreis"},"federalState":{"key":"08","name":"Baden-Württemberg"}},{"name":"Christian-Fauser-Str.","postalCode":"72770","locality":"Reutlingen","municipality":{"key":"08415061","name":"Reutlingen, Stadt","type":"Große_Kreisstadt"},"district":{"key":"08415","name":"Reutlingen","type":"Landkreis"},"federalState":{"key":"08","name":"Baden-Württemberg"}},{"name":"Christoph-Schnurr-Weg","postalCode":"72766","locality":"Reutlingen","municipality":{"key":"08415061","name":"Reutlingen, Stadt","type":"Große_Kreisstadt"},"district":{"key":"08415","name":"Reutlingen","type":"Landkreis"},"federalState":{"key":"08","name":"Baden-Württemberg"}},{"name":"Christophstr.","postalCode":"72760","locality":"Reutlingen","municipality":{"key":"08415061","name":"Reutlingen, Stadt","type":"Große_Kreisstadt"},"district":{"key":"08415","name":"Reutlingen","type":"Landkreis"},"federalState":{"key":"08","name":"Baden-Württemberg"}},{"name":"Clemensstr.","postalCode":"72768","locality":"Reutlingen","municipality":{"key":"08415061","name":"Reutlingen, Stadt","type":"Große_Kreisstadt"},"district":{"key":"08415","name":"Reutlingen","type":"Landkreis"},"federalState":{"key":"08","name":"Baden-Württemberg"}},{"name":"Corinthstr.","postalCode":"72768","locality":"Reutlingen","municipality":{"key":"08415061","name":"Reutlingen, Stadt","type":"Große_Kreisstadt"},"district":{"key":"08415","name":"Reutlingen","type":"Landkreis"},"federalState":{"key":"08","name":"Baden-Württemberg"}},{"name":"Crailsheimer Str.","postalCode":"72760","locality":"Reutlingen","municipality":{"key":"08415061","name":"Reutlingen, Stadt","type":"Große_Kreisstadt"},"district":{"key":"08415","name":"Reutlingen","type":"Landkreis"},"federalState":{"key":"08","name":"Baden-Württemberg"}},{"name":"Cranachstr.","postalCode":"72768","locality":"Reutlingen","municipality":{"key":"08415061","name":"Reutlingen, Stadt","type":"Große_Kreisstadt"},"district":{"key":"08415","name":"Reutlingen","type":"Landkreis"},"federalState":{"key":"08","name":"Baden-Württemberg"}},{"name":"Drosselweg","postalCode":"72539","locality":"Pfronstetten","municipality":{"key":"08415058","name":"Pfronstetten","type":"Kreisangehörige_Gemeinde"},"district":{"key":"08415","name":"Reutlingen","type":"Landkreis"},"federalState":{"key":"08","name":"Baden-Württemberg"}},{"name":"Ehestetter Str.","postalCode":"72539","locality":"Pfronstetten","municipality":{"key":"08415058","name":"Pfronstetten","type":"Kreisangehörige_Gemeinde"},"district":{"key":"08415","name":"Reutlingen","type":"Landkreis"},"federalState":{"key":"08","name":"Baden-Württemberg"}},{"name":"Elsternweg","postalCode":"72539","locality":"Pfronstetten","municipality":{"key":"08415058","name":"Pfronstetten","type":"Kreisangehörige_Gemeinde"},"district":{"key":"08415","name":"Reutlingen","type":"Landkreis"},"federalState":{"key":"08","name":"Baden-Württemberg"}},{"name":"Eschenweg","postalCode":"72539","locality":"Pfronstetten","municipality":{"key":"08415058","name":"Pfronstetten","type":"Kreisangehörige_Gemeinde"},"district":{"key":"08415","name":"Reutlingen","type":"Landkreis"},"federalState":{"key":"08","name":"Baden-Württemberg"}},{"name":"Finkenweg","postalCode":"72539","locality":"Pfronstetten","municipality":{"key":"08415058","name":"Pfronstetten","type":"Kreisangehörige_Gemeinde"},"district":{"key":"08415","name":"Reutlingen","type":"Landkreis"},"federalState":{"key":"08","name":"Baden-Württemberg"}},{"name":"Franz-Arnold-Str.","postalCode":"72539","locality":"Pfronstetten","municipality":{"key":"08415058","name":"Pfronstetten","type":"Kreisangehörige_Gemeinde"},"district":{"key":"08415","name":"Reutlingen","type":"Landkreis"},"federalState":{"key":"08","name":"Baden-Württemberg"}},{"name":"Franz-Pfeifer-Weg","postalCode":"72539","locality":"Pfronstetten","municipality":{"key":"08415058","name":"Pfronstetten","type":"Kreisangehörige_Gemeinde"},"district":{"key":"08415","name":"Reutlingen","type":"Landkreis"},"federalState":{"key":"08","name":"Baden-Württemberg"}},{"name":"Friedhofgasse","postalCode":"72539","locality":"Pfronstetten","municipality":{"key":"08415058","name":"Pfronstetten","type":"Kreisangehörige_Gemeinde"},"district":{"key":"08415","name":"Reutlingen","type":"Landkreis"},"federalState":{"key":"08","name":"Baden-Württemberg"}},{"name":"Gartenstr.","postalCode":"72539","locality":"Pfronstetten","municipality":{"key":"08415058","name":"Pfronstetten","type":"Kreisangehörige_Gemeinde"},"district":{"key":"08415","name":"Reutlingen","type":"Landkreis"},"federalState":{"key":"08","name":"Baden-Württemberg"}},{"name":"Glastalstr.","postalCode":"72539","locality":"Pfronstetten","municipality":{"key":"08415058","name":"Pfronstetten","type":"Kreisangehörige_Gemeinde"},"district":{"key":"08415","name":"Reutlingen","type":"Landkreis"},"federalState":{"key":"08","name":"Baden-Württemberg"}},{"name":"Hans-Kürner-Weg","postalCode":"72539","locality":"Pfronstetten","municipality":{"key":"08415058","name":"Pfronstetten","type":"Kreisangehörige_Gemeinde"},"district":{"key":"08415","name":"Reutlingen","type":"Landkreis"},"federalState":{"key":"08","name":"Baden-Württemberg"}},{"name":"Hartweg","postalCode":"72539","locality":"Pfronstetten","municipality":{"key":"08415058","name":"Pfronstetten","type":"Kreisangehörige_Gemeinde"},"district":{"key":"08415","name":"Reutlingen","type":"Landkreis"},"federalState":{"key":"08","name":"Baden-Württemberg"}},{"name":"Hartwiesen","postalCode":"72539","locality":"Pfronstetten","municipality":{"key":"08415058","name":"Pfronstetten","type":"Kreisangehörige_Gemeinde"},"district":{"key":"08415","name":"Reutlingen","type":"Landkreis"},"federalState":{"key":"08","name":"Baden-Württemberg"}},{"name":"Hasenweg","postalCode":"72539","locality":"Pfronstetten","municipality":{"key":"08415058","name":"Pfronstetten","type":"Kreisangehörige_Gemeinde"},"district":{"key":"08415","name":"Reutlingen","type":"Landkreis"},"federalState":{"key":"08","name":"Baden-Württemberg"}},{"name":"Hauptstr.","postalCode":"72539","locality":"Pfronstetten","municipality":{"key":"08415058","name":"Pfronstetten","type":"Kreisangehörige_Gemeinde"},"district":{"key":"08415","name":"Reutlingen","type":"Landkreis"},"federalState":{"key":"08","name":"Baden-Württemberg"}},{"name":"Hayinger Str.","postalCode":"72539","locality":"Pfronstetten","municipality":{"key":"08415058","name":"Pfronstetten","type":"Kreisangehörige_Gemeinde"},"district":{"key":"08415","name":"Reutlingen","type":"Landkreis"},"federalState":{"key":"08","name":"Baden-Württemberg"}},{"name":"Heuweg","postalCode":"72539","locality":"Pfronstetten","municipality":{"key":"08415058","name":"Pfronstetten","type":"Kreisangehörige_Gemeinde"},"district":{"key":"08415","name":"Reutlingen","type":"Landkreis"},"federalState":{"key":"08","name":"Baden-Württemberg"}},{"name":"Hofäcker","postalCode":"72539","locality":"Pfronstetten","municipality":{"key":"08415058","name":"Pfronstetten","type":"Kreisangehörige_Gemeinde"},"district":{"key":"08415","name":"Reutlingen","type":"Landkreis"},"federalState":{"key":"08","name":"Baden-Württemberg"}},{"name":"Hülengasse","postalCode":"72539","locality":"Pfronstetten","municipality":{"key":"08415058","name":"Pfronstetten","type":"Kreisangehörige_Gemeinde"},"district":{"key":"08415","name":"Reutlingen","type":"Landkreis"},"federalState":{"key":"08","name":"Baden-Württemberg"}},{"name":"Im Brünnle","postalCode":"72539","locality":"Pfronstetten","municipality":{"key":"08415058","name":"Pfronstetten","type":"Kreisangehörige_Gemeinde"},"district":{"key":"08415","name":"Reutlingen","type":"Landkreis"},"federalState":{"key":"08","name":"Baden-Württemberg"}},{"name":"Im Bühl","postalCode":"72539","locality":"Pfronstetten","municipality":{"key":"08415058","name":"Pfronstetten","type":"Kreisangehörige_Gemeinde"},"district":{"key":"08415","name":"Reutlingen","type":"Landkreis"},"federalState":{"key":"08","name":"Baden-Württemberg"}},{"name":"Im Öschle","postalCode":"72539","locality":"Pfronstetten","municipality":{"key":"08415058","name":"Pfronstetten","type":"Kreisangehörige_Gemeinde"},"district":{"key":"08415","name":"Reutlingen","type":"Landkreis"},"federalState":{"key":"08","name":"Baden-Württemberg"}},{"name":"In den Wadenwiesen","postalCode":"72539","locality":"Pfronstetten","municipality":{"key":"08415058","name":"Pfronstetten","type":"Kreisangehörige_Gemeinde"},"district":{"key":"08415","name":"Reutlingen","type":"Landkreis"},"federalState":{"key":"08","name":"Baden-Württemberg"}},{"name":"Jägerweg","postalCode":"72766","locality":"Reutlingen","municipality":{"key":"08415061","name":"Reutlingen, Stadt","type":"Große_Kreisstadt"},"district":{"key":"08415","name":"Reutlingen","type":"Landkreis"},"federalState":{"key":"08","name":"Baden-Württemberg"}},{"name":"Jahnstr.","postalCode":"72762","locality":"Reutlingen","municipality":{"key":"08415061","name":"Reutlingen, Stadt","type":"Große_Kreisstadt"},"district":{"key":"08415","name":"Reutlingen","type":"Landkreis"},"federalState":{"key":"08","name":"Baden-Württemberg"}},{"name":"Jakob-Degen-Str.","postalCode":"72768","locality":"Reutlingen","municipality":{"key":"08415061","name":"Reutlingen, Stadt","type":"Große_Kreisstadt"},"district":{"key":"08415","name":"Reutlingen","type":"Landkreis"},"federalState":{"key":"08","name":"Baden-Württemberg"}},{"name":"Jakob-Fetzer-Str.","postalCode":"72764","locality":"Reutlingen","municipality":{"key":"08415061","name":"Reutlingen, Stadt","type":"Große_Kreisstadt"},"district":{"key":"08415","name":"Reutlingen","type":"Landkreis"},"federalState":{"key":"08","name":"Baden-Württemberg"}},{"name":"Jakob-Keck-Str.","postalCode":"72770","locality":"Reutlingen","municipality":{"key":"08415061","name":"Reutlingen, Stadt","type":"Große_Kreisstadt"},"district":{"key":"08415","name":"Reutlingen","type":"Landkreis"},"federalState":{"key":"08","name":"Baden-Württemberg"}},{"name":"Jakob-Kurz-Str.","postalCode":"72760","locality":"Reutlingen","municipality":{"key":"08415061","name":"Reutlingen, Stadt","type":"Große_Kreisstadt"},"district":{"key":"08415","name":"Reutlingen","type":"Landkreis"},"federalState":{"key":"08","name":"Baden-Württemberg"}},{"name":"Jakobstr.","postalCode":"72760","locality":"Reutlingen","municipality":{"key":"08415061","name":"Reutlingen, Stadt","type":"Große_Kreisstadt"},"district":{"key":"08415","name":"Reutlingen","type":"Landkreis"},"federalState":{"key":"08","name":"Baden-Württemberg"}},{"name":"Janusz-Korczak-Str.","postalCode":"72762","locality":"Reutlingen","municipality":{"key":"08415061","name":"Reutlingen, Stadt","type":"Große_Kreisstadt"},"district":{"key":"08415","name":"Reutlingen","type":"Landkreis"},"federalState":{"key":"08","name":"Baden-Württemberg"}},{"name":"Jean-Paul-Weg","postalCode":"72770","locality":"Reutlingen","municipality":{"key":"08415061","name":"Reutlingen, Stadt","type":"Große_Kreisstadt"},"district":{"key":"08415","name":"Reutlingen","type":"Landkreis"},"federalState":{"key":"08","name":"Baden-Württemberg"}},{"name":"Jerg-Wurster-Str.","postalCode":"72768","locality":"Reutlingen","municipality":{"key":"08415061","name":"Reutlingen, Stadt","type":"Große_Kreisstadt"},"district":{"key":"08415","name":"Reutlingen","type":"Landkreis"},"federalState":{"key":"08","name":"Baden-Württemberg"}},{"name":"Jettenburger Str.","postalCode":"72770","locality":"Reutlingen","municipality":{"key":"08415061","name":"Reutlingen, Stadt","type":"Große_Kreisstadt"},"district":{"key":"08415","name":"Reutlingen","type":"Landkreis"},"federalState":{"key":"08","name":"Baden-Württemberg"}},{"name":"Johannes-Eisenlohr-Str.","postalCode":"72760","locality":"Reutlingen","municipality":{"key":"08415061","name":"Reutlingen, Stadt","type":"Große_Kreisstadt"},"district":{"key":"08415","name":"Reutlingen","type":"Landkreis"},"federalState":{"key":"08","name":"Baden-Württemberg"}},{"name":"Johannesstr.","postalCode":"72770","locality":"Reutlingen","municipality":{"key":"08415061","name":"Reutlingen, Stadt","type":"Große_Kreisstadt"},"district":{"key":"08415","name":"Reutlingen","type":"Landkreis"},"federalState":{"key":"08","name":"Baden-Württemberg"}},{"name":"Johann-Sebastian-Bach-Str.","postalCode":"72766","locality":"Reutlingen","municipality":{"key":"08415061","name":"Reutlingen, Stadt","type":"Große_Kreisstadt"},"district":{"key":"08415","name":"Reutlingen","type":"Landkreis"},"federalState":{"key":"08","name":"Baden-Württemberg"}},{"name":"Josef-Lanner-Weg","postalCode":"72766","locality":"Reutlingen","municipality":{"key":"08415061","name":"Reutlingen, Stadt","type":"Große_Kreisstadt"},"district":{"key":"08415","name":"Reutlingen","type":"Landkreis"},"federalState":{"key":"08","name":"Baden-Württemberg"}},{"name":"Julianenweg","postalCode":"72770","locality":"Reutlingen","municipality":{"key":"08415061","name":"Reutlingen, Stadt","type":"Große_Kreisstadt"},"district":{"key":"08415","name":"Reutlingen","type":"Landkreis"},"federalState":{"key":"08","name":"Baden-Württemberg"}},{"name":"Julius-Kemmler-Str.","postalCode":"72770","locality":"Reutlingen","municipality":{"key":"08415061","name":"Reutlingen, Stadt","type":"Große_Kreisstadt"},"district":{"key":"08415","name":"Reutlingen","type":"Landkreis"},"federalState":{"key":"08","name":"Baden-Württemberg"}},{"name":"Jungholzweg","postalCode":"72770","locality":"Reutlingen","municipality":{"key":"08415061","name":"Reutlingen, Stadt","type":"Große_Kreisstadt"},"district":{"key":"08415","name":"Reutlingen","type":"Landkreis"},"federalState":{"key":"08","name":"Baden-Württemberg"}},{"name":"Junkersstr.","postalCode":"72770","locality":"Reutlingen","municipality":{"key":"08415061","name":"Reutlingen, Stadt","type":"Große_Kreisstadt"},"district":{"key":"08415","name":"Reutlingen","type":"Landkreis"},"federalState":{"key":"08","name":"Baden-Württemberg"}},{"name":"Jurastr.","postalCode":"72770","locality":"Reutlingen","municipality":{"key":"08415061","name":"Reutlingen, Stadt","type":"Große_Kreisstadt"},"district":{"key":"08415","name":"Reutlingen","type":"Landkreis"},"federalState":{"key":"08","name":"Baden-Württemberg"}},{"name":"Jusistr.","postalCode":"72766","locality":"Reutlingen","municipality":{"key":"08415061","name":"Reutlingen, Stadt","type":"Große_Kreisstadt"},"district":{"key":"08415","name":"Reutlingen","type":"Landkreis"},"federalState":{"key":"08","name":"Baden-Württemberg"}},{"name":"Justinus-Kerner-Str.","postalCode":"72760","locality":"Reutlingen","municipality":{"key":"08415061","name":"Reutlingen, Stadt","type":"Große_Kreisstadt"},"district":{"key":"08415","name":"Reutlingen","type":"Landkreis"},"federalState":{"key":"08","name":"Baden-Württemberg"}},{"name":"Justus-von-Liebig-Str.","postalCode":"72770","locality":"Reutlingen","municipality":{"key":"08415061","name":"Reutlingen, Stadt","type":"Große_Kreisstadt"},"district":{"key":"08415","name":"Reutlingen","type":"Landkreis"},"federalState":{"key":"08","name":"Baden-Württemberg"}},{"name":"Kapellenweg","postalCode":"72539","locality":"Pfronstetten","municipality":{"key":"08415058","name":"Pfronstetten","type":"Kreisangehörige_Gemeinde"},"district":{"key":"08415","name":"Reutlingen","type":"Landkreis"},"federalState":{"key":"08","name":"Baden-Württemberg"}},{"name":"Kettenacker Str.","postalCode":"72539","locality":"Pfronstetten","municipality":{"key":"08415058","name":"Pfronstetten","type":"Kreisangehörige_Gemeinde"},"district":{"key":"08415","name":"Reutlingen","type":"Landkreis"},"federalState":{"key":"08","name":"Baden-Württemberg"}},{"name":"Kirchstr.","postalCode":"72539","locality":"Pfronstetten","municipality":{"key":"08415058","name":"Pfronstetten","type":"Kreisangehörige_Gemeinde"},"district":{"key":"08415","name":"Reutlingen","type":"Landkreis"},"federalState":{"key":"08","name":"Baden-Württemberg"}},{"name":"Lerchenweg","postalCode":"72539","locality":"Pfronstetten","municipality":{"key":"08415058","name":"Pfronstetten","type":"Kreisangehörige_Gemeinde"},"district":{"key":"08415","name":"Reutlingen","type":"Landkreis"},"federalState":{"key":"08","name":"Baden-Württemberg"}},{"name":"Lindenstr.","postalCode":"72539","locality":"Pfronstetten","municipality":{"key":"08415058","name":"Pfronstetten","type":"Kreisangehörige_Gemeinde"},"district":{"key":"08415","name":"Reutlingen","type":"Landkreis"},"federalState":{"key":"08","name":"Baden-Württemberg"}},{"name":"Marktweg","postalCode":"72539","locality":"Pfronstetten","municipality":{"key":"08415058","name":"Pfronstetten","type":"Kreisangehörige_Gemeinde"},"district":{"key":"08415","name":"Reutlingen","type":"Landkreis"},"federalState":{"key":"08","name":"Baden-Württemberg"}},{"name":"Maueräcker","postalCode":"72539","locality":"Pfronstetten","municipality":{"key":"08415058","name":"Pfronstetten","type":"Kreisangehörige_Gemeinde"},"district":{"key":"08415","name":"Reutlingen","type":"Landkreis"},"federalState":{"key":"08","name":"Baden-Württemberg"}},{"name":"Mauerweg","postalCode":"72539","locality":"Pfronstetten","municipality":{"key":"08415058","name":"Pfronstetten","type":"Kreisangehörige_Gemeinde"},"district":{"key":"08415","name":"Reutlingen","type":"Landkreis"},"federalState":{"key":"08","name":"Baden-Württemberg"}},{"name":"Meisenweg","postalCode":"72539","locality":"Pfronstetten","municipality":{"key":"08415058","name":"Pfronstetten","type":"Kreisangehörige_Gemeinde"},"district":{"key":"08415","name":"Reutlingen","type":"Landkreis"},"federalState":{"key":"08","name":"Baden-Württemberg"}},{"name":"Nägelesäcker","postalCode":"72770","locality":"Reutlingen","municipality":{"key":"08415061","name":"Reutlingen, Stadt","type":"Große_Kreisstadt"},"district":{"key":"08415","name":"Reutlingen","type":"Landkreis"},"federalState":{"key":"08","name":"Baden-Württemberg"}},{"name":"Nägelestr.","postalCode":"72770","locality":"Reutlingen","municipality":{"key":"08415061","name":"Reutlingen, Stadt","type":"Große_Kreisstadt"},"district":{"key":"08415","name":"Reutlingen","type":"Landkreis"},"federalState":{"key":"08","name":"Baden-Württemberg"}},{"name":"Nahestr.","postalCode":"72768","locality":"Reutlingen","municipality":{"key":"08415061","name":"Reutlingen, Stadt","type":"Große_Kreisstadt"},"district":{"key":"08415","name":"Reutlingen","type":"Landkreis"},"federalState":{"key":"08","name":"Baden-Württemberg"}},{"name":"Narzissenweg","postalCode":"72770","locality":"Reutlingen","municipality":{"key":"08415061","name":"Reutlingen, Stadt","type":"Große_Kreisstadt"},"district":{"key":"08415","name":"Reutlingen","type":"Landkreis"},"federalState":{"key":"08","name":"Baden-Württemberg"}},{"name":"Neckarstr.","postalCode":"72768","locality":"Reutlingen","municipality":{"key":"08415061","name":"Reutlingen, Stadt","type":"Große_Kreisstadt"},"district":{"key":"08415","name":"Reutlingen","type":"Landkreis"},"federalState":{"key":"08","name":"Baden-Württemberg"}},{"name":"Neckartal-Radweg","postalCode":"72768","locality":"Reutlingen","municipality":{"key":"08415061","name":"Reutlingen, Stadt","type":"Große_Kreisstadt"},"district":{"key":"08415","name":"Reutlingen","type":"Landkreis"},"federalState":{"key":"08","name":"Baden-Württemberg"}},{"name":"Neckartalstr.","postalCode":"72768","locality":"Reutlingen","municipality":{"key":"08415061","name":"Reutlingen, Stadt","type":"Große_Kreisstadt"},"district":{"key":"08415","name":"Reutlingen","type":"Landkreis"},"federalState":{"key":"08","name":"Baden-Württemberg"}},{"name":"Neckartenzlinger Str.","postalCode":"72766","locality":"Reutlingen","municipality":{"key":"08415061","name":"Reutlingen, Stadt","type":"Große_Kreisstadt"},"district":{"key":"08415","name":"Reutlingen","type":"Landkreis"},"federalState":{"key":"08","name":"Baden-Württemberg"}},{"name":"Negelerstr.","postalCode":"72762","locality":"Reutlingen","municipality":{"key":"08415061","name":"Reutlingen, Stadt","type":"Große_Kreisstadt"},"district":{"key":"08415","name":"Reutlingen","type":"Landkreis"},"federalState":{"key":"08","name":"Baden-Württemberg"}},{"name":"Nelkenstr.","postalCode":"72764","locality":"Reutlingen","municipality":{"key":"08415061","name":"Reutlingen, Stadt","type":"Große_Kreisstadt"},"district":{"key":"08415","name":"Reutlingen","type":"Landkreis"},"federalState":{"key":"08","name":"Baden-Württemberg"}},{"name":"Nerzweg","postalCode":"72768","locality":"Reutlingen","municipality":{"key":"08415061","name":"Reutlingen, Stadt","type":"Große_Kreisstadt"},"district":{"key":"08415","name":"Reutlingen","type":"Landkreis"},"federalState":{"key":"08","name":"Baden-Württemberg"}},{"name":"Neue Str.","postalCode":"72770","locality":"Reutlingen","municipality":{"key":"08415061","name":"Reutlingen, Stadt","type":"Große_Kreisstadt"},"district":{"key":"08415","name":"Reutlingen","type":"Landkreis"},"federalState":{"key":"08","name":"Baden-Württemberg"}},{"name":"Neuffenweg","postalCode":"72766","locality":"Reutlingen","municipality":{"key":"08415061","name":"Reutlingen, Stadt","type":"Große_Kreisstadt"},"district":{"key":"08415","name":"Reutlingen","type":"Landkreis"},"federalState":{"key":"08","name":"Baden-Württemberg"}},{"name":"Nibelungenstr.","postalCode":"72768","locality":"Reutlingen","municipality":{"key":"08415061","name":"Reutlingen, Stadt","type":"Große_Kreisstadt"},"district":{"key":"08415","name":"Reutlingen","type":"Landkreis"},"federalState":{"key":"08","name":"Baden-Württemberg"}},{"name":"Nikolausstr.","postalCode":"72768","locality":"Reutlingen","municipality":{"key":"08415061","name":"Reutlingen, Stadt","type":"Große_Kreisstadt"},"district":{"key":"08415","name":"Reutlingen","type":"Landkreis"},"federalState":{"key":"08","name":"Baden-Württemberg"}},{"name":"Nonnenwasenstr.","postalCode":"72766","locality":"Reutlingen","municipality":{"key":"08415061","name":"Reutlingen, Stadt","type":"Große_Kreisstadt"},"district":{"key":"08415","name":"Reutlingen","type":"Landkreis"},"federalState":{"key":"08","name":"Baden-Württemberg"}},{"name":"Nördlinger Str.","postalCode":"72760","locality":"Reutlingen","municipality":{"key":"08415061","name":"Reutlingen, Stadt","type":"Große_Kreisstadt"},"district":{"key":"08415","name":"Reutlingen","type":"Landkreis"},"federalState":{"key":"08","name":"Baden-Württemberg"}},{"name":"Novalisweg","postalCode":"72770","locality":"Reutlingen","municipality":{"key":"08415061","name":"Reutlingen, Stadt","type":"Große_Kreisstadt"},"district":{"key":"08415","name":"Reutlingen","type":"Landkreis"},"federalState":{"key":"08","name":"Baden-Württemberg"}},{"name":"Nürnberger Str.","postalCode":"72760","locality":"Reutlingen","municipality":{"key":"08415061","name":"Reutlingen, Stadt","type":"Große_Kreisstadt"},"district":{"key":"08415","name":"Reutlingen","type":"Landkreis"},"federalState":{"key":"08","name":"Baden-Württemberg"}},{"name":"Nürtingerhofstr.","postalCode":"72764","locality":"Reutlingen","municipality":{"key":"08415061","name":"Reutlingen, Stadt","type":"Große_Kreisstadt"},"district":{"key":"08415","name":"Reutlingen","type":"Landkreis"},"federalState":{"key":"08","name":"Baden-Württemberg"}},{"name":"Obere Gasse","postalCode":"72539","locality":"Pfronstetten","municipality":{"key":"08415058","name":"Pfronstetten","type":"Kreisangehörige_Gemeinde"},"district":{"key":"08415","name":"Reutlingen","type":"Landkreis"},"federalState":{"key":"08","name":"Baden-Württemberg"}},{"name":"Obere Wiesen","postalCode":"72539","locality":"Pfronstetten","municipality":{"key":"08415058","name":"Pfronstetten","type":"Kreisangehörige_Gemeinde"},"district":{"key":"08415","name":"Reutlingen","type":"Landkreis"},"federalState":{"key":"08","name":"Baden-Württemberg"}},{"name":"Oberstetter Str.","postalCode":"72539","locality":"Pfronstetten","municipality":{"key":"08415058","name":"Pfronstetten","type":"Kreisangehörige_Gemeinde"},"district":{"key":"08415","name":"Reutlingen","type":"Landkreis"},"federalState":{"key":"08","name":"Baden-Württemberg"}},{"name":"Ohnhülber Weg","postalCode":"72539","locality":"Pfronstetten","municipality":{"key":"08415058","name":"Pfronstetten","type":"Kreisangehörige_Gemeinde"},"district":{"key":"08415","name":"Reutlingen","type":"Landkreis"},"federalState":{"key":"08","name":"Baden-Württemberg"}},{"name":"Otto-Gauß-Str.","postalCode":"72539","locality":"Pfronstetten","municipality":{"key":"08415058","name":"Pfronstetten","type":"Kreisangehörige_Gemeinde"},"district":{"key":"08415","name":"Reutlingen","type":"Landkreis"},"federalState":{"key":"08","name":"Baden-Württemberg"}},{"name":"Panoramaweg","postalCode":"72539","locality":"Pfronstetten","municipality":{"key":"08415058","name":"Pfronstetten","type":"Kreisangehörige_Gemeinde"},"district":{"key":"08415","name":"Reutlingen","type":"Landkreis"},"federalState":{"key":"08","name":"Baden-Württemberg"}},{"name":"Paravanstr.","postalCode":"72539","locality":"Pfronstetten","municipality":{"key":"08415058","name":"Pfronstetten","type":"Kreisangehörige_Gemeinde"},"district":{"key":"08415","name":"Reutlingen","type":"Landkreis"},"federalState":{"key":"08","name":"Baden-Württemberg"}},{"name":"Pfarrgasse","postalCode":"72539","locality":"Pfronstetten","municipality":{"key":"08415058","name":"Pfronstetten","type":"Kreisangehörige_Gemeinde"},"district":{"key":"08415","name":"Reutlingen","type":"Landkreis"},"federalState":{"key":"08","name":"Baden-Württemberg"}},{"name":"Phänopfad","postalCode":"72539","locality":"Pfronstetten","municipality":{"key":"08415058","name":"Pfronstetten","type":"Kreisangehörige_Gemeinde"},"district":{"key":"08415","name":"Reutlingen","type":"Landkreis"},"federalState":{"key":"08","name":"Baden-Württemberg"}},{"name":"Quellenstr.","postalCode":"72770","locality":"Reutlingen","municipality":{"key":"08415061","name":"Reutlingen, Stadt","type":"Große_Kreisstadt"},"district":{"key":"08415","name":"Reutlingen","type":"Landkreis"},"federalState":{"key":"08","name":"Baden-Württemberg"}},{"name":"Riegelishalde","postalCode":"72539","locality":"Pfronstetten","municipality":{"key":"08415058","name":"Pfronstetten","type":"Kreisangehörige_Gemeinde"},"district":{"key":"08415","name":"Reutlingen","type":"Landkreis"},"federalState":{"key":"08","name":"Baden-Württemberg"}},{"name":"Ringstr.","postalCode":"72539","locality":"Pfronstetten","municipality":{"key":"08415058","name":"Pfronstetten","type":"Kreisangehörige_Gemeinde"},"district":{"key":"08415","name":"Reutlingen","type":"Landkreis"},"federalState":{"key":"08","name":"Baden-Württemberg"}},{"name":"Schäferweg","postalCode":"72539","locality":"Pfronstetten","municipality":{"key":"08415058","name":"Pfronstetten","type":"Kreisangehörige_Gemeinde"},"district":{"key":"08415","name":"Reutlingen","type":"Landkreis"},"federalState":{"key":"08","name":"Baden-Württemberg"}},{"name":"Schelmenwasen","postalCode":"72539","locality":"Pfronstetten","municipality":{"key":"08415058","name":"Pfronstetten","type":"Kreisangehörige_Gemeinde"},"district":{"key":"08415","name":"Reutlingen","type":"Landkreis"},"federalState":{"key":"08","name":"Baden-Württemberg"}},{"name":"Schlossergasse","postalCode":"72539","locality":"Pfronstetten","municipality":{"key":"08415058","name":"Pfronstetten","type":"Kreisangehörige_Gemeinde"},"district":{"key":"08415","name":"Reutlingen","type":"Landkreis"},"federalState":{"key":"08","name":"Baden-Württemberg"}},{"name":"Schulstr.","postalCode":"72539","locality":"Pfronstetten","municipality":{"key":"08415058","name":"Pfronstetten","type":"Kreisangehörige_Gemeinde"},"district":{"key":"08415","name":"Reutlingen","type":"Landkreis"},"federalState":{"key":"08","name":"Baden-Württemberg"}},{"name":"Sonnenrain","postalCode":"72539","locality":"Pfronstetten","municipality":{"key":"08415058","name":"Pfronstetten","type":"Kreisangehörige_Gemeinde"},"district":{"key":"08415","name":"Reutlingen","type":"Landkreis"},"federalState":{"key":"08","name":"Baden-Württemberg"}},{"name":"Starenweg","postalCode":"72539","locality":"Pfronstetten","municipality":{"key":"08415058","name":"Pfronstetten","type":"Kreisangehörige_Gemeinde"},"district":{"key":"08415","name":"Reutlingen","type":"Landkreis"},"federalState":{"key":"08","name":"Baden-Württemberg"}},{"name":"Steinigen","postalCode":"72539","locality":"Pfronstetten","municipality":{"key":"08415058","name":"Pfronstetten","type":"Kreisangehörige_Gemeinde"},"district":{"key":"08415","name":"Reutlingen","type":"Landkreis"},"federalState":{"key":"08","name":"Baden-Württemberg"}},{"name":"St. Georgenhof","postalCode":"72539","locality":"Pfronstetten","municipality":{"key":"08415058","name":"Pfronstetten","type":"Kreisangehörige_Gemeinde"},"district":{"key":"08415","name":"Reutlingen","type":"Landkreis"},"federalState":{"key":"08","name":"Baden-Württemberg"}},{"name":"Tiefental","postalCode":"72539","locality":"Pfronstetten","municipality":{"key":"08415058","name":"Pfronstetten","type":"Kreisangehörige_Gemeinde"},"district":{"key":"08415","name":"Reutlingen","type":"Landkreis"},"federalState":{"key":"08","name":"Baden-Württemberg"}},{"name":"Uhlandstr.","postalCode":"72764","locality":"Reutlingen","municipality":{"key":"08415061","name":"Reutlingen, Stadt","type":"Große_Kreisstadt"},"district":{"key":"08415","name":"Reutlingen","type":"Landkreis"},"federalState":{"key":"08","name":"Baden-Württemberg"}},{"name":"Ulmenweg","postalCode":"72770","locality":"Reutlingen","municipality":{"key":"08415061","name":"Reutlingen, Stadt","type":"Große_Kreisstadt"},"district":{"key":"08415","name":"Reutlingen","type":"Landkreis"},"federalState":{"key":"08","name":"Baden-Württemberg"}},{"name":"Ulmer Str.","postalCode":"72760","locality":"Reutlingen","municipality":{"key":"08415061","name":"Reutlingen, Stadt","type":"Große_Kreisstadt"},"district":{"key":"08415","name":"Reutlingen","type":"Landkreis"},"federalState":{"key":"08","name":"Baden-Württemberg"}},{"name":"Ulrichstr.","postalCode":"72764","locality":"Reutlingen","municipality":{"key":"08415061","name":"Reutlingen, Stadt","type":"Große_Kreisstadt"},"district":{"key":"08415","name":"Reutlingen","type":"Landkreis"},"federalState":{"key":"08","name":"Baden-Württemberg"}},{"name":"Ungerhalde","postalCode":"72768","locality":"Reutlingen","municipality":{"key":"08415061","name":"Reutlingen, Stadt","type":"Große_Kreisstadt"},"district":{"key":"08415","name":"Reutlingen","type":"Landkreis"},"federalState":{"key":"08","name":"Baden-Württemberg"}},{"name":"Unhaldestr.","postalCode":"72770","locality":"Reutlingen","municipality":{"key":"08415061","name":"Reutlingen, Stadt","type":"Große_Kreisstadt"},"district":{"key":"08415","name":"Reutlingen","type":"Landkreis"},"federalState":{"key":"08","name":"Baden-Württemberg"}},{"name":"Unter den Linden","postalCode":"72762","locality":"Reutlingen","municipality":{"key":"08415061","name":"Reutlingen, Stadt","type":"Große_Kreisstadt"},"district":{"key":"08415","name":"Reutlingen","type":"Landkreis"},"federalState":{"key":"08","name":"Baden-Württemberg"}},{"name":"Untere Gerberstr.","postalCode":"72764","locality":"Reutlingen","municipality":{"key":"08415061","name":"Reutlingen, Stadt","type":"Große_Kreisstadt"},"district":{"key":"08415","name":"Reutlingen","type":"Landkreis"},"federalState":{"key":"08","name":"Baden-Württemberg"}},{"name":"Unterer Haldenweg","postalCode":"72768","locality":"Reutlingen","municipality":{"key":"08415061","name":"Reutlingen, Stadt","type":"Große_Kreisstadt"},"district":{"key":"08415","name":"Reutlingen","type":"Landkreis"},"federalState":{"key":"08","name":"Baden-Württemberg"}},{"name":"Unterer Stichweg","postalCode":"72770","locality":"Reutlingen","municipality":{"key":"08415061","name":"Reutlingen, Stadt","type":"Große_Kreisstadt"},"district":{"key":"08415","name":"Reutlingen","type":"Landkreis"},"federalState":{"key":"08","name":"Baden-Württemberg"}},{"name":"Untere Steigstr.","postalCode":"72770","locality":"Reutlingen","municipality":{"key":"08415061","name":"Reutlingen, Stadt","type":"Große_Kreisstadt"},"district":{"key":"08415","name":"Reutlingen","type":"Landkreis"},"federalState":{"key":"08","name":"Baden-Württemberg"}},{"name":"Unterlauhernweg","postalCode":"72770","locality":"Reutlingen","municipality":{"key":"08415061","name":"Reutlingen, Stadt","type":"Große_Kreisstadt"},"district":{"key":"08415","name":"Reutlingen","type":"Landkreis"},"federalState":{"key":"08","name":"Baden-Württemberg"}},{"name":"Unterm Georgenberg","postalCode":"72762","locality":"Reutlingen","municipality":{"key":"08415061","name":"Reutlingen, Stadt","type":"Große_Kreisstadt"},"district":{"key":"08415","name":"Reutlingen","type":"Landkreis"},"federalState":{"key":"08","name":"Baden-Württemberg"}},{"name":"Uracher Str.","postalCode":"72766","locality":"Reutlingen","municipality":{"key":"08415061","name":"Reutlingen, Stadt","type":"Große_Kreisstadt"},"district":{"key":"08415","name":"Reutlingen","type":"Landkreis"},"federalState":{"key":"08","name":"Baden-Württemberg"}},{"name":"Urbanstr.","postalCode":"72764","locality":"Reutlingen","municipality":{"key":"08415061","name":"Reutlingen, Stadt","type":"Große_Kreisstadt"},"district":{"key":"08415","name":"Reutlingen","type":"Landkreis"},"federalState":{"key":"08","name":"Baden-Württemberg"}},{"name":"Veilchenweg","postalCode":"72764","locality":"Reutlingen","municipality":{"key":"08415061","name":"Reutlingen, Stadt","type":"Große_Kreisstadt"},"district":{"key":"08415","name":"Reutlingen","type":"Landkreis"},"federalState":{"key":"08","name":"Baden-Württemberg"}},{"name":"Veit-Stoß-Str.","postalCode":"72768","locality":"Reutlingen","municipality":{"key":"08415061","name":"Reutlingen, Stadt","type":"Große_Kreisstadt"},"district":{"key":"08415","name":"Reutlingen","type":"Landkreis"},"federalState":{"key":"08","name":"Baden-Württemberg"}},{"name":"Verbindungsweg","postalCode":"72770","locality":"Reutlingen","municipality":{"key":"08415061","name":"Reutlingen, Stadt","type":"Große_Kreisstadt"},"district":{"key":"08415","name":"Reutlingen","type":"Landkreis"},"federalState":{"key":"08","name":"Baden-Württemberg"}},{"name":"Verdistr.","postalCode":"72768","locality":"Reutlingen","municipality":{"key":"08415061","name":"Reutlingen, Stadt","type":"Große_Kreisstadt"},"district":{"key":"08415","name":"Reutlingen","type":"Landkreis"},"federalState":{"key":"08","name":"Baden-Württemberg"}},{"name":"Vier Länder","postalCode":"72768","locality":"Reutlingen","municipality":{"key":"08415061","name":"Reutlingen, Stadt","type":"Große_Kreisstadt"},"district":{"key":"08415","name":"Reutlingen","type":"Landkreis"},"federalState":{"key":"08","name":"Baden-Württemberg"}},{"name":"Villastr.","postalCode":"72770","locality":"Reutlingen","municipality":{"key":"08415061","name":"Reutlingen, Stadt","type":"Große_Kreisstadt"},"district":{"key":"08415","name":"Reutlingen","type":"Landkreis"},"federalState":{"key":"08","name":"Baden-Württemberg"}},{"name":"Vischerstr.","postalCode":"72764","locality":"Reutlingen","municipality":{"key":"08415061","name":"Reutlingen, Stadt","type":"Große_Kreisstadt"},"district":{"key":"08415","name":"Reutlingen","type":"Landkreis"},"federalState":{"key":"08","name":"Baden-Württemberg"}},{"name":"Vochezenholzstr.","postalCode":"72762","locality":"Reutlingen","municipality":{"key":"08415061","name":"Reutlingen, Stadt","type":"Große_Kreisstadt"},"district":{"key":"08415","name":"Reutlingen","type":"Landkreis"},"federalState":{"key":"08","name":"Baden-Württemberg"}},{"name":"Vogelsangstr.","postalCode":"72770","locality":"Reutlingen","municipality":{"key":"08415061","name":"Reutlingen, Stadt","type":"Große_Kreisstadt"},"district":{"key":"08415","name":"Reutlingen","type":"Landkreis"},"federalState":{"key":"08","name":"Baden-Württemberg"}},{"name":"Vogelsbergstr.","postalCode":"72766","locality":"Reutlingen","municipality":{"key":"08415061","name":"Reutlingen, Stadt","type":"Große_Kreisstadt"},"district":{"key":"08415","name":"Reutlingen","type":"Landkreis"},"federalState":{"key":"08","name":"Baden-Württemberg"}},{"name":"Volker-Ammann-Weg","postalCode":"72770","locality":"Reutlingen","municipality":{"key":"08415061","name":"Reutlingen, Stadt","type":"Große_Kreisstadt"},"district":{"key":"08415","name":"Reutlingen","type":"Landkreis"},"federalState":{"key":"08","name":"Baden-Württemberg"}},{"name":"Volkspark","postalCode":"72762","locality":"Reutlingen","municipality":{"key":"08415061","name":"Reutlingen, Stadt","type":"Große_Kreisstadt"},"district":{"key":"08415","name":"Reutlingen","type":"Landkreis"},"federalState":{"key":"08","name":"Baden-Württemberg"}},{"name":"Vorderer Schönrain","postalCode":"72766","locality":"Reutlingen","municipality":{"key":"08415061","name":"Reutlingen, Stadt","type":"Große_Kreisstadt"},"district":{"key":"08415","name":"Reutlingen","type":"Landkreis"},"federalState":{"key":"08","name":"Baden-Württemberg"}},{"name":"Walter-Frick-Str.","postalCode":"72539","locality":"Pfronstetten","municipality":{"key":"08415058","name":"Pfronstetten","type":"Kreisangehörige_Gemeinde"},"district":{"key":"08415","name":"Reutlingen","type":"Landkreis"},"federalState":{"key":"08","name":"Baden-Württemberg"}},{"name":"Weißgässle","postalCode":"72539","locality":"Pfronstetten","municipality":{"key":"08415058","name":"Pfronstetten","type":"Kreisangehörige_Gemeinde"},"district":{"key":"08415","name":"Reutlingen","type":"Landkreis"},"federalState":{"key":"08","name":"Baden-Württemberg"}},{"name":"Wendelinusweg","postalCode":"72539","locality":"Pfronstetten","municipality":{"key":"08415058","name":"Pfronstetten","type":"Kreisangehörige_Gemeinde"},"district":{"key":"08415","name":"Reutlingen","type":"Landkreis"},"federalState":{"key":"08","name":"Baden-Württemberg"}},{"name":"Wilsinger Str.","postalCode":"72539","locality":"Pfronstetten","municipality":{"key":"08415058","name":"Pfronstetten","type":"Kreisangehörige_Gemeinde"},"district":{"key":"08415","name":"Reutlingen","type":"Landkreis"},"federalState":{"key":"08","name":"Baden-Württemberg"}},{"name":"Wolfswiesen","postalCode":"72539","locality":"Pfronstetten","municipality":{"key":"08415058","name":"Pfronstetten","type":"Kreisangehörige_Gemeinde"},"district":{"key":"08415","name":"Reutlingen","type":"Landkreis"},"federalState":{"key":"08","name":"Baden-Württemberg"}},{"name":"Zwiefalter Str.","postalCode":"72539","locality":"Pfronstetten","municipality":{"key":"08415058","name":"Pfronstetten","type":"Kreisangehörige_Gemeinde"},"district":{"key":"08415","name":"Reutlingen","type":"Landkreis"},"federalState":{"key":"08","name":"Baden-Württemberg"}},{"name":"Äußere Kelterstr.","postalCode":"72764","locality":"Reutlingen","municipality":{"key":"08415061","name":"Reutlingen, Stadt","type":"Große_Kreisstadt"},"district":{"key":"08415","name":"Reutlingen","type":"Landkreis"},"federalState":{"key":"08","name":"Baden-Württemberg"}},{"name":"Öläckerweg","postalCode":"72770","locality":"Reutlingen","municipality":{"key":"08415061","name":"Reutlingen, Stadt","type":"Große_Kreisstadt"},"district":{"key":"08415","name":"Reutlingen","type":"Landkreis"},"federalState":{"key":"08","name":"Baden-Württemberg"}},{"name":"Öschbergweg","postalCode":"72766","locality":"Reutlingen","municipality":{"key":"08415061","name":"Reutlingen, Stadt","type":"Große_Kreisstadt"},"district":{"key":"08415","name":"Reutlingen","type":"Landkreis"},"federalState":{"key":"08","name":"Baden-Württemberg"}},{"name":"Öschinger Str.","postalCode":"72770","locality":"Reutlingen","municipality":{"key":"08415061","name":"Reutlingen, Stadt","type":"Große_Kreisstadt"},"district":{"key":"08415","name":"Reutlingen","type":"Landkreis"},"federalState":{"key":"08","name":"Baden-Württemberg"}},{"name":"Über den Halden","postalCode":"72768","locality":"Reutlingen","municipality":{"key":"08415061","name":"Reutlingen, Stadt","type":"Große_Kreisstadt"},"district":{"key":"08415","name":"Reutlingen","type":"Landkreis"},"federalState":{"key":"08","name":"Baden-Württemberg"}},{"name":"Überm Neckar","postalCode":"72768","locality":"Reutlingen","municipality":{"key":"08415061","name":"Reutlingen, Stadt","type":"Große_Kreisstadt"},"district":{"key":"08415","name":"Reutlingen","type":"Landkreis"},"federalState":{"key":"08","name":"Baden-Württemberg"}},]