[{"name":"Ahornweg","postalCode":"84335","locality":"Mitterskirchen","municipality":{"key":"09277134","name":"Mitterskirchen","type":"Kreisangehörige_Gemeinde"},"district":{"key":"09277","name":"Rottal-Inn","type":"Landkreis"},"federalState":{"key":"09","name":"Bayern"}},{"name":"Am Gerafeld","postalCode":"84335","locality":"Mitterskirchen","municipality":{"key":"09277134","name":"Mitterskirchen","type":"Kreisangehörige_Gemeinde"},"district":{"key":"09277","name":"Rottal-Inn","type":"Landkreis"},"federalState":{"key":"09","name":"Bayern"}},{"name":"Am Gewerbegebiet","postalCode":"84335","locality":"Mitterskirchen","municipality":{"key":"09277134","name":"Mitterskirchen","type":"Kreisangehörige_Gemeinde"},"district":{"key":"09277","name":"Rottal-Inn","type":"Landkreis"},"federalState":{"key":"09","name":"Bayern"}},{"name":"Am Sonnenhang","postalCode":"84335","locality":"Mitterskirchen","municipality":{"key":"09277134","name":"Mitterskirchen","type":"Kreisangehörige_Gemeinde"},"district":{"key":"09277","name":"Rottal-Inn","type":"Landkreis"},"federalState":{"key":"09","name":"Bayern"}},{"name":"Am Wassergarten","postalCode":"84335","locality":"Mitterskirchen","municipality":{"key":"09277134","name":"Mitterskirchen","type":"Kreisangehörige_Gemeinde"},"district":{"key":"09277","name":"Rottal-Inn","type":"Landkreis"},"federalState":{"key":"09","name":"Bayern"}},{"name":"Atzberg","postalCode":"84335","locality":"Mitterskirchen","municipality":{"key":"09277134","name":"Mitterskirchen","type":"Kreisangehörige_Gemeinde"},"district":{"key":"09277","name":"Rottal-Inn","type":"Landkreis"},"federalState":{"key":"09","name":"Bayern"}},{"name":"Bergstr.","postalCode":"84335","locality":"Mitterskirchen","municipality":{"key":"09277134","name":"Mitterskirchen","type":"Kreisangehörige_Gemeinde"},"district":{"key":"09277","name":"Rottal-Inn","type":"Landkreis"},"federalState":{"key":"09","name":"Bayern"}},{"name":"Büchel","postalCode":"84335","locality":"Mitterskirchen","municipality":{"key":"09277134","name":"Mitterskirchen","type":"Kreisangehörige_Gemeinde"},"district":{"key":"09277","name":"Rottal-Inn","type":"Landkreis"},"federalState":{"key":"09","name":"Bayern"}},{"name":"Buchenweg","postalCode":"84335","locality":"Mitterskirchen","municipality":{"key":"09277134","name":"Mitterskirchen","type":"Kreisangehörige_Gemeinde"},"district":{"key":"09277","name":"Rottal-Inn","type":"Landkreis"},"federalState":{"key":"09","name":"Bayern"}},{"name":"Eggersbach","postalCode":"84335","locality":"Mitterskirchen","municipality":{"key":"09277134","name":"Mitterskirchen","type":"Kreisangehörige_Gemeinde"},"district":{"key":"09277","name":"Rottal-Inn","type":"Landkreis"},"federalState":{"key":"09","name":"Bayern"}},{"name":"Eichenweg","postalCode":"84335","locality":"Mitterskirchen","municipality":{"key":"09277134","name":"Mitterskirchen","type":"Kreisangehörige_Gemeinde"},"district":{"key":"09277","name":"Rottal-Inn","type":"Landkreis"},"federalState":{"key":"09","name":"Bayern"}},{"name":"Erlenweg","postalCode":"84335","locality":"Mitterskirchen","municipality":{"key":"09277134","name":"Mitterskirchen","type":"Kreisangehörige_Gemeinde"},"district":{"key":"09277","name":"Rottal-Inn","type":"Landkreis"},"federalState":{"key":"09","name":"Bayern"}},{"name":"Flurstr.","postalCode":"84335","locality":"Mitterskirchen","municipality":{"key":"09277134","name":"Mitterskirchen","type":"Kreisangehörige_Gemeinde"},"district":{"key":"09277","name":"Rottal-Inn","type":"Landkreis"},"federalState":{"key":"09","name":"Bayern"}},{"name":"Fraundorf","postalCode":"84335","locality":"Mitterskirchen","municipality":{"key":"09277134","name":"Mitterskirchen","type":"Kreisangehörige_Gemeinde"},"district":{"key":"09277","name":"Rottal-Inn","type":"Landkreis"},"federalState":{"key":"09","name":"Bayern"}},{"name":"Gerastr.","postalCode":"84335","locality":"Mitterskirchen","municipality":{"key":"09277134","name":"Mitterskirchen","type":"Kreisangehörige_Gemeinde"},"district":{"key":"09277","name":"Rottal-Inn","type":"Landkreis"},"federalState":{"key":"09","name":"Bayern"}},{"name":"Hauptstr.","postalCode":"84335","locality":"Mitterskirchen","municipality":{"key":"09277134","name":"Mitterskirchen","type":"Kreisangehörige_Gemeinde"},"district":{"key":"09277","name":"Rottal-Inn","type":"Landkreis"},"federalState":{"key":"09","name":"Bayern"}},{"name":"Hirtl","postalCode":"84335","locality":"Mitterskirchen","municipality":{"key":"09277134","name":"Mitterskirchen","type":"Kreisangehörige_Gemeinde"},"district":{"key":"09277","name":"Rottal-Inn","type":"Landkreis"},"federalState":{"key":"09","name":"Bayern"}},{"name":"Hofmarkstr.","postalCode":"84335","locality":"Mitterskirchen","municipality":{"key":"09277134","name":"Mitterskirchen","type":"Kreisangehörige_Gemeinde"},"district":{"key":"09277","name":"Rottal-Inn","type":"Landkreis"},"federalState":{"key":"09","name":"Bayern"}},{"name":"Holzhamer Str.","postalCode":"84335","locality":"Mitterskirchen","municipality":{"key":"09277134","name":"Mitterskirchen","type":"Kreisangehörige_Gemeinde"},"district":{"key":"09277","name":"Rottal-Inn","type":"Landkreis"},"federalState":{"key":"09","name":"Bayern"}},{"name":"Kirchholzner Feld","postalCode":"84335","locality":"Mitterskirchen","municipality":{"key":"09277134","name":"Mitterskirchen","type":"Kreisangehörige_Gemeinde"},"district":{"key":"09277","name":"Rottal-Inn","type":"Landkreis"},"federalState":{"key":"09","name":"Bayern"}},{"name":"Lindenstr.","postalCode":"84335","locality":"Mitterskirchen","municipality":{"key":"09277134","name":"Mitterskirchen","type":"Kreisangehörige_Gemeinde"},"district":{"key":"09277","name":"Rottal-Inn","type":"Landkreis"},"federalState":{"key":"09","name":"Bayern"}},{"name":"Mühlbachstr.","postalCode":"84335","locality":"Mitterskirchen","municipality":{"key":"09277134","name":"Mitterskirchen","type":"Kreisangehörige_Gemeinde"},"district":{"key":"09277","name":"Rottal-Inn","type":"Landkreis"},"federalState":{"key":"09","name":"Bayern"}},{"name":"Oberham","postalCode":"84335","locality":"Mitterskirchen","municipality":{"key":"09277134","name":"Mitterskirchen","type":"Kreisangehörige_Gemeinde"},"district":{"key":"09277","name":"Rottal-Inn","type":"Landkreis"},"federalState":{"key":"09","name":"Bayern"}},{"name":"Rothneichnerstr.","postalCode":"84335","locality":"Mitterskirchen","municipality":{"key":"09277134","name":"Mitterskirchen","type":"Kreisangehörige_Gemeinde"},"district":{"key":"09277","name":"Rottal-Inn","type":"Landkreis"},"federalState":{"key":"09","name":"Bayern"}},{"name":"Sauersberg","postalCode":"84335","locality":"Mitterskirchen","municipality":{"key":"09277134","name":"Mitterskirchen","type":"Kreisangehörige_Gemeinde"},"district":{"key":"09277","name":"Rottal-Inn","type":"Landkreis"},"federalState":{"key":"09","name":"Bayern"}},{"name":"Schulstr.","postalCode":"84335","locality":"Mitterskirchen","municipality":{"key":"09277134","name":"Mitterskirchen","type":"Kreisangehörige_Gemeinde"},"district":{"key":"09277","name":"Rottal-Inn","type":"Landkreis"},"federalState":{"key":"09","name":"Bayern"}},{"name":"Sonnengarten","postalCode":"84335","locality":"Mitterskirchen","municipality":{"key":"09277134","name":"Mitterskirchen","type":"Kreisangehörige_Gemeinde"},"district":{"key":"09277","name":"Rottal-Inn","type":"Landkreis"},"federalState":{"key":"09","name":"Bayern"}},{"name":"Stiftungsstr.","postalCode":"84335","locality":"Mitterskirchen","municipality":{"key":"09277134","name":"Mitterskirchen","type":"Kreisangehörige_Gemeinde"},"district":{"key":"09277","name":"Rottal-Inn","type":"Landkreis"},"federalState":{"key":"09","name":"Bayern"}},{"name":"Winiham","postalCode":"84335","locality":"Mitterskirchen","municipality":{"key":"09277134","name":"Mitterskirchen","type":"Kreisangehörige_Gemeinde"},"district":{"key":"09277","name":"Rottal-Inn","type":"Landkreis"},"federalState":{"key":"09","name":"Bayern"}},]