[{"key":"10081418","name":"Bahnhofstrasse","postalCode":"3237","locality":"Brüttelen","commune":{"key":"491","name":"Brüttelen","shortName":"Brüttelen"},"district":{"key":"243","name":"Verwaltungskreis Seeland"},"canton":{"key":"2","code":"BE","name":"Bern / Berne"},"status":"Real"},{"key":"10124923","name":"Bielstrasse","postalCode":"3237","locality":"Brüttelen","commune":{"key":"491","name":"Brüttelen","shortName":"Brüttelen"},"district":{"key":"243","name":"Verwaltungskreis Seeland"},"canton":{"key":"2","code":"BE","name":"Bern / Berne"},"status":"Real"},{"key":"10169703","name":"Eichhof","postalCode":"3237","locality":"Brüttelen","commune":{"key":"491","name":"Brüttelen","shortName":"Brüttelen"},"district":{"key":"243","name":"Verwaltungskreis Seeland"},"canton":{"key":"2","code":"BE","name":"Bern / Berne"},"status":"Real"},{"key":"10009437","name":"Einschlag","postalCode":"3237","locality":"Brüttelen","commune":{"key":"491","name":"Brüttelen","shortName":"Brüttelen"},"district":{"key":"243","name":"Verwaltungskreis Seeland"},"canton":{"key":"2","code":"BE","name":"Bern / Berne"},"status":"Real"},{"key":"10220166","name":"Fäggematte","postalCode":"3237","locality":"Brüttelen","commune":{"key":"491","name":"Brüttelen","shortName":"Brüttelen"},"district":{"key":"243","name":"Verwaltungskreis Seeland"},"canton":{"key":"2","code":"BE","name":"Bern / Berne"},"status":"Real"},{"key":"10179071","name":"Fluhweg","postalCode":"3237","locality":"Brüttelen","commune":{"key":"491","name":"Brüttelen","shortName":"Brüttelen"},"district":{"key":"243","name":"Verwaltungskreis Seeland"},"canton":{"key":"2","code":"BE","name":"Bern / Berne"},"status":"Real"},{"key":"10066252","name":"Gallsteinweg","postalCode":"3237","locality":"Brüttelen","commune":{"key":"491","name":"Brüttelen","shortName":"Brüttelen"},"district":{"key":"243","name":"Verwaltungskreis Seeland"},"canton":{"key":"2","code":"BE","name":"Bern / Berne"},"status":"Real"},{"key":"10009438","name":"Gäserz","postalCode":"3237","locality":"Brüttelen","commune":{"key":"491","name":"Brüttelen","shortName":"Brüttelen"},"district":{"key":"243","name":"Verwaltungskreis Seeland"},"canton":{"key":"2","code":"BE","name":"Bern / Berne"},"status":"Real"},{"key":"10081419","name":"Gautschetenweg","postalCode":"3237","locality":"Brüttelen","commune":{"key":"491","name":"Brüttelen","shortName":"Brüttelen"},"district":{"key":"243","name":"Verwaltungskreis Seeland"},"canton":{"key":"2","code":"BE","name":"Bern / Berne"},"status":"Real"},{"key":"10249577","name":"Graberäbe","postalCode":"3237","locality":"Brüttelen","commune":{"key":"491","name":"Brüttelen","shortName":"Brüttelen"},"district":{"key":"243","name":"Verwaltungskreis Seeland"},"canton":{"key":"2","code":"BE","name":"Bern / Berne"},"status":"Real"},{"key":"10009439","name":"Hünigengasse","postalCode":"3237","locality":"Brüttelen","commune":{"key":"491","name":"Brüttelen","shortName":"Brüttelen"},"district":{"key":"243","name":"Verwaltungskreis Seeland"},"canton":{"key":"2","code":"BE","name":"Bern / Berne"},"status":"Real"},{"key":"10249580","name":"Im Hierz","postalCode":"3237","locality":"Brüttelen","commune":{"key":"491","name":"Brüttelen","shortName":"Brüttelen"},"district":{"key":"243","name":"Verwaltungskreis Seeland"},"canton":{"key":"2","code":"BE","name":"Bern / Berne"},"status":"Real"},{"key":"10009440","name":"Insstrasse","postalCode":"3237","locality":"Brüttelen","commune":{"key":"491","name":"Brüttelen","shortName":"Brüttelen"},"district":{"key":"243","name":"Verwaltungskreis Seeland"},"canton":{"key":"2","code":"BE","name":"Bern / Berne"},"status":"Real"},{"key":"10103926","name":"Kesslergasse","postalCode":"3237","locality":"Brüttelen","commune":{"key":"491","name":"Brüttelen","shortName":"Brüttelen"},"district":{"key":"243","name":"Verwaltungskreis Seeland"},"canton":{"key":"2","code":"BE","name":"Bern / Berne"},"status":"Real"},{"key":"10009441","name":"Lindengasse","postalCode":"3237","locality":"Brüttelen","commune":{"key":"491","name":"Brüttelen","shortName":"Brüttelen"},"district":{"key":"243","name":"Verwaltungskreis Seeland"},"canton":{"key":"2","code":"BE","name":"Bern / Berne"},"status":"Real"},{"key":"10114506","name":"Mühlegasse","postalCode":"3237","locality":"Brüttelen","commune":{"key":"491","name":"Brüttelen","shortName":"Brüttelen"},"district":{"key":"243","name":"Verwaltungskreis Seeland"},"canton":{"key":"2","code":"BE","name":"Bern / Berne"},"status":"Real"},{"key":"10250818","name":"Murräbe","postalCode":"3237","locality":"Brüttelen","commune":{"key":"491","name":"Brüttelen","shortName":"Brüttelen"},"district":{"key":"243","name":"Verwaltungskreis Seeland"},"canton":{"key":"2","code":"BE","name":"Bern / Berne"},"status":"Real"},{"key":"10220169","name":"Niderhölzli","postalCode":"3237","locality":"Brüttelen","commune":{"key":"491","name":"Brüttelen","shortName":"Brüttelen"},"district":{"key":"243","name":"Verwaltungskreis Seeland"},"canton":{"key":"2","code":"BE","name":"Bern / Berne"},"status":"Real"},{"key":"10179072","name":"Rebacherweg","postalCode":"3237","locality":"Brüttelen","commune":{"key":"491","name":"Brüttelen","shortName":"Brüttelen"},"district":{"key":"243","name":"Verwaltungskreis Seeland"},"canton":{"key":"2","code":"BE","name":"Bern / Berne"},"status":"Real"},{"key":"10045573","name":"Riedli","postalCode":"3237","locality":"Brüttelen","commune":{"key":"491","name":"Brüttelen","shortName":"Brüttelen"},"district":{"key":"243","name":"Verwaltungskreis Seeland"},"canton":{"key":"2","code":"BE","name":"Bern / Berne"},"status":"Real"},{"key":"10220173","name":"Rollismatte","postalCode":"3237","locality":"Brüttelen","commune":{"key":"491","name":"Brüttelen","shortName":"Brüttelen"},"district":{"key":"243","name":"Verwaltungskreis Seeland"},"canton":{"key":"2","code":"BE","name":"Bern / Berne"},"status":"Real"},{"key":"10009442","name":"Ruhlweg","postalCode":"3237","locality":"Brüttelen","commune":{"key":"491","name":"Brüttelen","shortName":"Brüttelen"},"district":{"key":"243","name":"Verwaltungskreis Seeland"},"canton":{"key":"2","code":"BE","name":"Bern / Berne"},"status":"Real"},{"key":"10220177","name":"Spismatte","postalCode":"3237","locality":"Brüttelen","commune":{"key":"491","name":"Brüttelen","shortName":"Brüttelen"},"district":{"key":"243","name":"Verwaltungskreis Seeland"},"canton":{"key":"2","code":"BE","name":"Bern / Berne"},"status":"Real"},{"key":"10220181","name":"Stockematte","postalCode":"3237","locality":"Brüttelen","commune":{"key":"491","name":"Brüttelen","shortName":"Brüttelen"},"district":{"key":"243","name":"Verwaltungskreis Seeland"},"canton":{"key":"2","code":"BE","name":"Bern / Berne"},"status":"Real"},{"key":"10066253","name":"Treitenstrasse","postalCode":"3237","locality":"Brüttelen","commune":{"key":"491","name":"Brüttelen","shortName":"Brüttelen"},"district":{"key":"243","name":"Verwaltungskreis Seeland"},"canton":{"key":"2","code":"BE","name":"Bern / Berne"},"status":"Real"},{"key":"10249567","name":"Weierräbe","postalCode":"3237","locality":"Brüttelen","commune":{"key":"491","name":"Brüttelen","shortName":"Brüttelen"},"district":{"key":"243","name":"Verwaltungskreis Seeland"},"canton":{"key":"2","code":"BE","name":"Bern / Berne"},"status":"Real"},]