[{"name":"Adalbert-Stifter-Str.","postalCode":"75365","locality":"Calw","municipality":{"key":"08235085","name":"Calw, Stadt","type":"Große_Kreisstadt"},"district":{"key":"08235","name":"Calw","type":"Landkreis"},"federalState":{"key":"08","name":"Baden-Württemberg"}},{"name":"Adlerweg","postalCode":"75365","locality":"Calw","municipality":{"key":"08235085","name":"Calw, Stadt","type":"Große_Kreisstadt"},"district":{"key":"08235","name":"Calw","type":"Landkreis"},"federalState":{"key":"08","name":"Baden-Württemberg"}},{"name":"Aischbachweg","postalCode":"75365","locality":"Calw","municipality":{"key":"08235085","name":"Calw, Stadt","type":"Große_Kreisstadt"},"district":{"key":"08235","name":"Calw","type":"Landkreis"},"federalState":{"key":"08","name":"Baden-Württemberg"}},{"name":"Albblickstr.","postalCode":"75365","locality":"Calw","municipality":{"key":"08235085","name":"Calw, Stadt","type":"Große_Kreisstadt"},"district":{"key":"08235","name":"Calw","type":"Landkreis"},"federalState":{"key":"08","name":"Baden-Württemberg"}},{"name":"Albert-Hofele-Weg","postalCode":"75365","locality":"Calw","municipality":{"key":"08235085","name":"Calw, Stadt","type":"Große_Kreisstadt"},"district":{"key":"08235","name":"Calw","type":"Landkreis"},"federalState":{"key":"08","name":"Baden-Württemberg"}},{"name":"Alemannenweg","postalCode":"75365","locality":"Calw","municipality":{"key":"08235085","name":"Calw, Stadt","type":"Große_Kreisstadt"},"district":{"key":"08235","name":"Calw","type":"Landkreis"},"federalState":{"key":"08","name":"Baden-Württemberg"}},{"name":"Allemannenweg","postalCode":"75365","locality":"Calw","municipality":{"key":"08235085","name":"Calw, Stadt","type":"Große_Kreisstadt"},"district":{"key":"08235","name":"Calw","type":"Landkreis"},"federalState":{"key":"08","name":"Baden-Württemberg"}},{"name":"Allmandweg","postalCode":"75365","locality":"Calw","municipality":{"key":"08235085","name":"Calw, Stadt","type":"Große_Kreisstadt"},"district":{"key":"08235","name":"Calw","type":"Landkreis"},"federalState":{"key":"08","name":"Baden-Württemberg"}},{"name":"Altburger Steige","postalCode":"75365","locality":"Calw","municipality":{"key":"08235085","name":"Calw, Stadt","type":"Große_Kreisstadt"},"district":{"key":"08235","name":"Calw","type":"Landkreis"},"federalState":{"key":"08","name":"Baden-Württemberg"}},{"name":"Altburger Str.","postalCode":"75365","locality":"Calw","municipality":{"key":"08235085","name":"Calw, Stadt","type":"Große_Kreisstadt"},"district":{"key":"08235","name":"Calw","type":"Landkreis"},"federalState":{"key":"08","name":"Baden-Württemberg"}},{"name":"Altburger Weg","postalCode":"75365","locality":"Calw","municipality":{"key":"08235085","name":"Calw, Stadt","type":"Große_Kreisstadt"},"district":{"key":"08235","name":"Calw","type":"Landkreis"},"federalState":{"key":"08","name":"Baden-Württemberg"}},{"name":"Alte Badstr.","postalCode":"75365","locality":"Calw","municipality":{"key":"08235085","name":"Calw, Stadt","type":"Große_Kreisstadt"},"district":{"key":"08235","name":"Calw","type":"Landkreis"},"federalState":{"key":"08","name":"Baden-Württemberg"}},{"name":"Alte Kuranlagen","postalCode":"75365","locality":"Calw","municipality":{"key":"08235085","name":"Calw, Stadt","type":"Große_Kreisstadt"},"district":{"key":"08235","name":"Calw","type":"Landkreis"},"federalState":{"key":"08","name":"Baden-Württemberg"}},{"name":"Alzenberger Weg","postalCode":"75365","locality":"Calw","municipality":{"key":"08235085","name":"Calw, Stadt","type":"Große_Kreisstadt"},"district":{"key":"08235","name":"Calw","type":"Landkreis"},"federalState":{"key":"08","name":"Baden-Württemberg"}},{"name":"Alzenbrunnenplanie","postalCode":"75365","locality":"Calw","municipality":{"key":"08235085","name":"Calw, Stadt","type":"Große_Kreisstadt"},"district":{"key":"08235","name":"Calw","type":"Landkreis"},"federalState":{"key":"08","name":"Baden-Württemberg"}},{"name":"Am Hof","postalCode":"75365","locality":"Calw","municipality":{"key":"08235085","name":"Calw, Stadt","type":"Große_Kreisstadt"},"district":{"key":"08235","name":"Calw","type":"Landkreis"},"federalState":{"key":"08","name":"Baden-Württemberg"}},{"name":"Am Kapellenberg","postalCode":"75365","locality":"Calw","municipality":{"key":"08235085","name":"Calw, Stadt","type":"Große_Kreisstadt"},"district":{"key":"08235","name":"Calw","type":"Landkreis"},"federalState":{"key":"08","name":"Baden-Württemberg"}},{"name":"Am Röhrlesbrunnen","postalCode":"75365","locality":"Calw","municipality":{"key":"08235085","name":"Calw, Stadt","type":"Große_Kreisstadt"},"district":{"key":"08235","name":"Calw","type":"Landkreis"},"federalState":{"key":"08","name":"Baden-Württemberg"}},{"name":"Am Rollgraben","postalCode":"75365","locality":"Calw","municipality":{"key":"08235085","name":"Calw, Stadt","type":"Große_Kreisstadt"},"district":{"key":"08235","name":"Calw","type":"Landkreis"},"federalState":{"key":"08","name":"Baden-Württemberg"}},{"name":"Am Rudersberg","postalCode":"75365","locality":"Calw","municipality":{"key":"08235085","name":"Calw, Stadt","type":"Große_Kreisstadt"},"district":{"key":"08235","name":"Calw","type":"Landkreis"},"federalState":{"key":"08","name":"Baden-Württemberg"}},{"name":"Am Schießberg","postalCode":"75365","locality":"Calw","municipality":{"key":"08235085","name":"Calw, Stadt","type":"Große_Kreisstadt"},"district":{"key":"08235","name":"Calw","type":"Landkreis"},"federalState":{"key":"08","name":"Baden-Württemberg"}},{"name":"Am Schillerwäldle","postalCode":"75365","locality":"Calw","municipality":{"key":"08235085","name":"Calw, Stadt","type":"Große_Kreisstadt"},"district":{"key":"08235","name":"Calw","type":"Landkreis"},"federalState":{"key":"08","name":"Baden-Württemberg"}},{"name":"Amselweg","postalCode":"75365","locality":"Calw","municipality":{"key":"08235085","name":"Calw, Stadt","type":"Große_Kreisstadt"},"district":{"key":"08235","name":"Calw","type":"Landkreis"},"federalState":{"key":"08","name":"Baden-Württemberg"}},{"name":"Am Spechtswald","postalCode":"75365","locality":"Calw","municipality":{"key":"08235085","name":"Calw, Stadt","type":"Große_Kreisstadt"},"district":{"key":"08235","name":"Calw","type":"Landkreis"},"federalState":{"key":"08","name":"Baden-Württemberg"}},{"name":"Am Tälesbach","postalCode":"75365","locality":"Calw","municipality":{"key":"08235085","name":"Calw, Stadt","type":"Große_Kreisstadt"},"district":{"key":"08235","name":"Calw","type":"Landkreis"},"federalState":{"key":"08","name":"Baden-Württemberg"}},{"name":"Am Windhof","postalCode":"75365","locality":"Calw","municipality":{"key":"08235085","name":"Calw, Stadt","type":"Große_Kreisstadt"},"district":{"key":"08235","name":"Calw","type":"Landkreis"},"federalState":{"key":"08","name":"Baden-Württemberg"}},{"name":"An der Mark","postalCode":"75365","locality":"Calw","municipality":{"key":"08235085","name":"Calw, Stadt","type":"Große_Kreisstadt"},"district":{"key":"08235","name":"Calw","type":"Landkreis"},"federalState":{"key":"08","name":"Baden-Württemberg"}},{"name":"Andreäweg","postalCode":"75365","locality":"Calw","municipality":{"key":"08235085","name":"Calw, Stadt","type":"Große_Kreisstadt"},"district":{"key":"08235","name":"Calw","type":"Landkreis"},"federalState":{"key":"08","name":"Baden-Württemberg"}},{"name":"Asternweg","postalCode":"75365","locality":"Calw","municipality":{"key":"08235085","name":"Calw, Stadt","type":"Große_Kreisstadt"},"district":{"key":"08235","name":"Calw","type":"Landkreis"},"federalState":{"key":"08","name":"Baden-Württemberg"}},{"name":"Auf dem Brühl","postalCode":"75365","locality":"Calw","municipality":{"key":"08235085","name":"Calw, Stadt","type":"Große_Kreisstadt"},"district":{"key":"08235","name":"Calw","type":"Landkreis"},"federalState":{"key":"08","name":"Baden-Württemberg"}},{"name":"Auf dem Hohen Fels","postalCode":"75365","locality":"Calw","municipality":{"key":"08235085","name":"Calw, Stadt","type":"Große_Kreisstadt"},"district":{"key":"08235","name":"Calw","type":"Landkreis"},"federalState":{"key":"08","name":"Baden-Württemberg"}},{"name":"Auguste-Supper-Str.","postalCode":"75365","locality":"Calw","municipality":{"key":"08235085","name":"Calw, Stadt","type":"Große_Kreisstadt"},"district":{"key":"08235","name":"Calw","type":"Landkreis"},"federalState":{"key":"08","name":"Baden-Württemberg"}},{"name":"August-Lämmle-Str.","postalCode":"75365","locality":"Calw","municipality":{"key":"08235085","name":"Calw, Stadt","type":"Große_Kreisstadt"},"district":{"key":"08235","name":"Calw","type":"Landkreis"},"federalState":{"key":"08","name":"Baden-Württemberg"}},{"name":"Aureliusplatz","postalCode":"75365","locality":"Calw","municipality":{"key":"08235085","name":"Calw, Stadt","type":"Große_Kreisstadt"},"district":{"key":"08235","name":"Calw","type":"Landkreis"},"federalState":{"key":"08","name":"Baden-Württemberg"}},{"name":"Bachstelzenweg","postalCode":"75365","locality":"Calw","municipality":{"key":"08235085","name":"Calw, Stadt","type":"Große_Kreisstadt"},"district":{"key":"08235","name":"Calw","type":"Landkreis"},"federalState":{"key":"08","name":"Baden-Württemberg"}},{"name":"Bäckergäßle","postalCode":"75365","locality":"Calw","municipality":{"key":"08235085","name":"Calw, Stadt","type":"Große_Kreisstadt"},"district":{"key":"08235","name":"Calw","type":"Landkreis"},"federalState":{"key":"08","name":"Baden-Württemberg"}},{"name":"Badstr.","postalCode":"75365","locality":"Calw","municipality":{"key":"08235085","name":"Calw, Stadt","type":"Große_Kreisstadt"},"district":{"key":"08235","name":"Calw","type":"Landkreis"},"federalState":{"key":"08","name":"Baden-Württemberg"}},{"name":"Bahnhofstr.","postalCode":"75365","locality":"Calw","municipality":{"key":"08235085","name":"Calw, Stadt","type":"Große_Kreisstadt"},"district":{"key":"08235","name":"Calw","type":"Landkreis"},"federalState":{"key":"08","name":"Baden-Württemberg"}},{"name":"Baiersbachweg","postalCode":"75365","locality":"Calw","municipality":{"key":"08235085","name":"Calw, Stadt","type":"Große_Kreisstadt"},"district":{"key":"08235","name":"Calw","type":"Landkreis"},"federalState":{"key":"08","name":"Baden-Württemberg"}},{"name":"Baiersbachwiesenweg","postalCode":"75365","locality":"Calw","municipality":{"key":"08235085","name":"Calw, Stadt","type":"Große_Kreisstadt"},"district":{"key":"08235","name":"Calw","type":"Landkreis"},"federalState":{"key":"08","name":"Baden-Württemberg"}},{"name":"Bannstr.","postalCode":"75365","locality":"Calw","municipality":{"key":"08235085","name":"Calw, Stadt","type":"Große_Kreisstadt"},"district":{"key":"08235","name":"Calw","type":"Landkreis"},"federalState":{"key":"08","name":"Baden-Württemberg"}},{"name":"Bannweg","postalCode":"75365","locality":"Calw","municipality":{"key":"08235085","name":"Calw, Stadt","type":"Große_Kreisstadt"},"district":{"key":"08235","name":"Calw","type":"Landkreis"},"federalState":{"key":"08","name":"Baden-Württemberg"}},{"name":"Bärengasse","postalCode":"75365","locality":"Calw","municipality":{"key":"08235085","name":"Calw, Stadt","type":"Große_Kreisstadt"},"district":{"key":"08235","name":"Calw","type":"Landkreis"},"federalState":{"key":"08","name":"Baden-Württemberg"}},{"name":"Bärental","postalCode":"75365","locality":"Calw","municipality":{"key":"08235085","name":"Calw, Stadt","type":"Große_Kreisstadt"},"district":{"key":"08235","name":"Calw","type":"Landkreis"},"federalState":{"key":"08","name":"Baden-Württemberg"}},{"name":"Beethovenstr.","postalCode":"75365","locality":"Calw","municipality":{"key":"08235085","name":"Calw, Stadt","type":"Große_Kreisstadt"},"district":{"key":"08235","name":"Calw","type":"Landkreis"},"federalState":{"key":"08","name":"Baden-Württemberg"}},{"name":"Bei den Eichen","postalCode":"75365","locality":"Calw","municipality":{"key":"08235085","name":"Calw, Stadt","type":"Große_Kreisstadt"},"district":{"key":"08235","name":"Calw","type":"Landkreis"},"federalState":{"key":"08","name":"Baden-Württemberg"}},{"name":"Beim Schafweg","postalCode":"75365","locality":"Calw","municipality":{"key":"08235085","name":"Calw, Stadt","type":"Große_Kreisstadt"},"district":{"key":"08235","name":"Calw","type":"Landkreis"},"federalState":{"key":"08","name":"Baden-Württemberg"}},{"name":"Bergstr.","postalCode":"75365","locality":"Calw","municipality":{"key":"08235085","name":"Calw, Stadt","type":"Große_Kreisstadt"},"district":{"key":"08235","name":"Calw","type":"Landkreis"},"federalState":{"key":"08","name":"Baden-Württemberg"}},{"name":"Berliner Weg","postalCode":"75365","locality":"Calw","municipality":{"key":"08235085","name":"Calw, Stadt","type":"Große_Kreisstadt"},"district":{"key":"08235","name":"Calw","type":"Landkreis"},"federalState":{"key":"08","name":"Baden-Württemberg"}},{"name":"Birkachweg","postalCode":"75365","locality":"Calw","municipality":{"key":"08235085","name":"Calw, Stadt","type":"Große_Kreisstadt"},"district":{"key":"08235","name":"Calw","type":"Landkreis"},"federalState":{"key":"08","name":"Baden-Württemberg"}},{"name":"Birkenwaldstr.","postalCode":"75365","locality":"Calw","municipality":{"key":"08235085","name":"Calw, Stadt","type":"Große_Kreisstadt"},"district":{"key":"08235","name":"Calw","type":"Landkreis"},"federalState":{"key":"08","name":"Baden-Württemberg"}},{"name":"Birkenweg","postalCode":"75365","locality":"Calw","municipality":{"key":"08235085","name":"Calw, Stadt","type":"Große_Kreisstadt"},"district":{"key":"08235","name":"Calw","type":"Landkreis"},"federalState":{"key":"08","name":"Baden-Württemberg"}},{"name":"Bischofstr.","postalCode":"75365","locality":"Calw","municipality":{"key":"08235085","name":"Calw, Stadt","type":"Große_Kreisstadt"},"district":{"key":"08235","name":"Calw","type":"Landkreis"},"federalState":{"key":"08","name":"Baden-Württemberg"}},{"name":"Bleiche","postalCode":"75365","locality":"Calw","municipality":{"key":"08235085","name":"Calw, Stadt","type":"Große_Kreisstadt"},"district":{"key":"08235","name":"Calw","type":"Landkreis"},"federalState":{"key":"08","name":"Baden-Württemberg"}},{"name":"Blumenstr.","postalCode":"75365","locality":"Calw","municipality":{"key":"08235085","name":"Calw, Stadt","type":"Große_Kreisstadt"},"district":{"key":"08235","name":"Calw","type":"Landkreis"},"federalState":{"key":"08","name":"Baden-Württemberg"}},{"name":"Bohnenbergerweg","postalCode":"75365","locality":"Calw","municipality":{"key":"08235085","name":"Calw, Stadt","type":"Große_Kreisstadt"},"district":{"key":"08235","name":"Calw","type":"Landkreis"},"federalState":{"key":"08","name":"Baden-Württemberg"}},{"name":"Bouwinghausenstr.","postalCode":"75365","locality":"Calw","municipality":{"key":"08235085","name":"Calw, Stadt","type":"Große_Kreisstadt"},"district":{"key":"08235","name":"Calw","type":"Landkreis"},"federalState":{"key":"08","name":"Baden-Württemberg"}},{"name":"Bozener Str.","postalCode":"75365","locality":"Calw","municipality":{"key":"08235085","name":"Calw, Stadt","type":"Große_Kreisstadt"},"district":{"key":"08235","name":"Calw","type":"Landkreis"},"federalState":{"key":"08","name":"Baden-Württemberg"}},{"name":"Brandhaldenweg","postalCode":"75365","locality":"Calw","municipality":{"key":"08235085","name":"Calw, Stadt","type":"Große_Kreisstadt"},"district":{"key":"08235","name":"Calw","type":"Landkreis"},"federalState":{"key":"08","name":"Baden-Württemberg"}},{"name":"Brandstättweg","postalCode":"75365","locality":"Calw","municipality":{"key":"08235085","name":"Calw, Stadt","type":"Große_Kreisstadt"},"district":{"key":"08235","name":"Calw","type":"Landkreis"},"federalState":{"key":"08","name":"Baden-Württemberg"}},{"name":"Brandwegle","postalCode":"75365","locality":"Calw","municipality":{"key":"08235085","name":"Calw, Stadt","type":"Große_Kreisstadt"},"district":{"key":"08235","name":"Calw","type":"Landkreis"},"federalState":{"key":"08","name":"Baden-Württemberg"}},{"name":"Breitackerweg","postalCode":"75365","locality":"Calw","municipality":{"key":"08235085","name":"Calw, Stadt","type":"Große_Kreisstadt"},"district":{"key":"08235","name":"Calw","type":"Landkreis"},"federalState":{"key":"08","name":"Baden-Württemberg"}},{"name":"Breite Heerstr.","postalCode":"75365","locality":"Calw","municipality":{"key":"08235085","name":"Calw, Stadt","type":"Große_Kreisstadt"},"district":{"key":"08235","name":"Calw","type":"Landkreis"},"federalState":{"key":"08","name":"Baden-Württemberg"}},{"name":"Breslauer Str.","postalCode":"75365","locality":"Calw","municipality":{"key":"08235085","name":"Calw, Stadt","type":"Große_Kreisstadt"},"district":{"key":"08235","name":"Calw","type":"Landkreis"},"federalState":{"key":"08","name":"Baden-Württemberg"}},{"name":"Brixener Weg","postalCode":"75365","locality":"Calw","municipality":{"key":"08235085","name":"Calw, Stadt","type":"Große_Kreisstadt"},"district":{"key":"08235","name":"Calw","type":"Landkreis"},"federalState":{"key":"08","name":"Baden-Württemberg"}},{"name":"Brombachweg","postalCode":"75365","locality":"Calw","municipality":{"key":"08235085","name":"Calw, Stadt","type":"Große_Kreisstadt"},"district":{"key":"08235","name":"Calw","type":"Landkreis"},"federalState":{"key":"08","name":"Baden-Württemberg"}},{"name":"Brudersteige","postalCode":"75365","locality":"Calw","municipality":{"key":"08235085","name":"Calw, Stadt","type":"Große_Kreisstadt"},"district":{"key":"08235","name":"Calw","type":"Landkreis"},"federalState":{"key":"08","name":"Baden-Württemberg"}},{"name":"Brühläckerle","postalCode":"75365","locality":"Calw","municipality":{"key":"08235085","name":"Calw, Stadt","type":"Große_Kreisstadt"},"district":{"key":"08235","name":"Calw","type":"Landkreis"},"federalState":{"key":"08","name":"Baden-Württemberg"}},{"name":"Brühlweg","postalCode":"75365","locality":"Calw","municipality":{"key":"08235085","name":"Calw, Stadt","type":"Große_Kreisstadt"},"district":{"key":"08235","name":"Calw","type":"Landkreis"},"federalState":{"key":"08","name":"Baden-Württemberg"}},{"name":"Brunnenbuschweg","postalCode":"75365","locality":"Calw","municipality":{"key":"08235085","name":"Calw, Stadt","type":"Große_Kreisstadt"},"district":{"key":"08235","name":"Calw","type":"Landkreis"},"federalState":{"key":"08","name":"Baden-Württemberg"}},{"name":"Brunnenstr.","postalCode":"75365","locality":"Calw","municipality":{"key":"08235085","name":"Calw, Stadt","type":"Große_Kreisstadt"},"district":{"key":"08235","name":"Calw","type":"Landkreis"},"federalState":{"key":"08","name":"Baden-Württemberg"}},{"name":"Büchach","postalCode":"75365","locality":"Calw","municipality":{"key":"08235085","name":"Calw, Stadt","type":"Große_Kreisstadt"},"district":{"key":"08235","name":"Calw","type":"Landkreis"},"federalState":{"key":"08","name":"Baden-Württemberg"}},{"name":"Buchau-Sackweg","postalCode":"75365","locality":"Calw","municipality":{"key":"08235085","name":"Calw, Stadt","type":"Große_Kreisstadt"},"district":{"key":"08235","name":"Calw","type":"Landkreis"},"federalState":{"key":"08","name":"Baden-Württemberg"}},{"name":"Buchgässle","postalCode":"75365","locality":"Calw","municipality":{"key":"08235085","name":"Calw, Stadt","type":"Große_Kreisstadt"},"district":{"key":"08235","name":"Calw","type":"Landkreis"},"federalState":{"key":"08","name":"Baden-Württemberg"}},{"name":"Bühlwiesenweg","postalCode":"75365","locality":"Calw","municipality":{"key":"08235085","name":"Calw, Stadt","type":"Große_Kreisstadt"},"district":{"key":"08235","name":"Calw","type":"Landkreis"},"federalState":{"key":"08","name":"Baden-Württemberg"}},{"name":"Burgäckerstr.","postalCode":"75365","locality":"Calw","municipality":{"key":"08235085","name":"Calw, Stadt","type":"Große_Kreisstadt"},"district":{"key":"08235","name":"Calw","type":"Landkreis"},"federalState":{"key":"08","name":"Baden-Württemberg"}},{"name":"Burggasse","postalCode":"75365","locality":"Calw","municipality":{"key":"08235085","name":"Calw, Stadt","type":"Große_Kreisstadt"},"district":{"key":"08235","name":"Calw","type":"Landkreis"},"federalState":{"key":"08","name":"Baden-Württemberg"}},{"name":"Burggraben","postalCode":"75365","locality":"Calw","municipality":{"key":"08235085","name":"Calw, Stadt","type":"Große_Kreisstadt"},"district":{"key":"08235","name":"Calw","type":"Landkreis"},"federalState":{"key":"08","name":"Baden-Württemberg"}},{"name":"Burgsteige","postalCode":"75365","locality":"Calw","municipality":{"key":"08235085","name":"Calw, Stadt","type":"Große_Kreisstadt"},"district":{"key":"08235","name":"Calw","type":"Landkreis"},"federalState":{"key":"08","name":"Baden-Württemberg"}},{"name":"Burgstr.","postalCode":"75365","locality":"Calw","municipality":{"key":"08235085","name":"Calw, Stadt","type":"Große_Kreisstadt"},"district":{"key":"08235","name":"Calw","type":"Landkreis"},"federalState":{"key":"08","name":"Baden-Württemberg"}},{"name":"Burgunderweg","postalCode":"75365","locality":"Calw","municipality":{"key":"08235085","name":"Calw, Stadt","type":"Große_Kreisstadt"},"district":{"key":"08235","name":"Calw","type":"Landkreis"},"federalState":{"key":"08","name":"Baden-Württemberg"}},{"name":"Burgwiesen","postalCode":"75365","locality":"Calw","municipality":{"key":"08235085","name":"Calw, Stadt","type":"Große_Kreisstadt"},"district":{"key":"08235","name":"Calw","type":"Landkreis"},"federalState":{"key":"08","name":"Baden-Württemberg"}},{"name":"Buschweg","postalCode":"75365","locality":"Calw","municipality":{"key":"08235085","name":"Calw, Stadt","type":"Große_Kreisstadt"},"district":{"key":"08235","name":"Calw","type":"Landkreis"},"federalState":{"key":"08","name":"Baden-Württemberg"}},{"name":"Bushaltebereich 1","postalCode":"75365","locality":"Calw","municipality":{"key":"08235085","name":"Calw, Stadt","type":"Große_Kreisstadt"},"district":{"key":"08235","name":"Calw","type":"Landkreis"},"federalState":{"key":"08","name":"Baden-Württemberg"}},{"name":"Calmbacher Weg","postalCode":"75365","locality":"Calw","municipality":{"key":"08235085","name":"Calw, Stadt","type":"Große_Kreisstadt"},"district":{"key":"08235","name":"Calw","type":"Landkreis"},"federalState":{"key":"08","name":"Baden-Württemberg"}},{"name":"Calwer Str.","postalCode":"75365","locality":"Calw","municipality":{"key":"08235085","name":"Calw, Stadt","type":"Große_Kreisstadt"},"district":{"key":"08235","name":"Calw","type":"Landkreis"},"federalState":{"key":"08","name":"Baden-Württemberg"}},{"name":"Calwer Weg","postalCode":"75365","locality":"Calw","municipality":{"key":"08235085","name":"Calw, Stadt","type":"Große_Kreisstadt"},"district":{"key":"08235","name":"Calw","type":"Landkreis"},"federalState":{"key":"08","name":"Baden-Württemberg"}},{"name":"Candidusstr.","postalCode":"75365","locality":"Calw","municipality":{"key":"08235085","name":"Calw, Stadt","type":"Große_Kreisstadt"},"district":{"key":"08235","name":"Calw","type":"Landkreis"},"federalState":{"key":"08","name":"Baden-Württemberg"}},{"name":"Carl-Benz-Str.","postalCode":"75365","locality":"Calw","municipality":{"key":"08235085","name":"Calw, Stadt","type":"Große_Kreisstadt"},"district":{"key":"08235","name":"Calw","type":"Landkreis"},"federalState":{"key":"08","name":"Baden-Württemberg"}},{"name":"Charlottenweg","postalCode":"75365","locality":"Calw","municipality":{"key":"08235085","name":"Calw, Stadt","type":"Große_Kreisstadt"},"district":{"key":"08235","name":"Calw","type":"Landkreis"},"federalState":{"key":"08","name":"Baden-Württemberg"}},{"name":"Christian-Barth-Str.","postalCode":"75365","locality":"Calw","municipality":{"key":"08235085","name":"Calw, Stadt","type":"Große_Kreisstadt"},"district":{"key":"08235","name":"Calw","type":"Landkreis"},"federalState":{"key":"08","name":"Baden-Württemberg"}},{"name":"Clemens-Rüdinger Weg","postalCode":"75365","locality":"Calw","municipality":{"key":"08235085","name":"Calw, Stadt","type":"Große_Kreisstadt"},"district":{"key":"08235","name":"Calw","type":"Landkreis"},"federalState":{"key":"08","name":"Baden-Württemberg"}},{"name":"Conventrain","postalCode":"75365","locality":"Calw","municipality":{"key":"08235085","name":"Calw, Stadt","type":"Große_Kreisstadt"},"district":{"key":"08235","name":"Calw","type":"Landkreis"},"federalState":{"key":"08","name":"Baden-Württemberg"}},{"name":"Demmlerweg","postalCode":"75365","locality":"Calw","municipality":{"key":"08235085","name":"Calw, Stadt","type":"Große_Kreisstadt"},"district":{"key":"08235","name":"Calw","type":"Landkreis"},"federalState":{"key":"08","name":"Baden-Württemberg"}},{"name":"Distelweg","postalCode":"75365","locality":"Calw","municipality":{"key":"08235085","name":"Calw, Stadt","type":"Große_Kreisstadt"},"district":{"key":"08235","name":"Calw","type":"Landkreis"},"federalState":{"key":"08","name":"Baden-Württemberg"}},{"name":"Dolwiesenweg","postalCode":"75365","locality":"Calw","municipality":{"key":"08235085","name":"Calw, Stadt","type":"Große_Kreisstadt"},"district":{"key":"08235","name":"Calw","type":"Landkreis"},"federalState":{"key":"08","name":"Baden-Württemberg"}},{"name":"Domaweg","postalCode":"75365","locality":"Calw","municipality":{"key":"08235085","name":"Calw, Stadt","type":"Große_Kreisstadt"},"district":{"key":"08235","name":"Calw","type":"Landkreis"},"federalState":{"key":"08","name":"Baden-Württemberg"}},{"name":"Dompfaffweg","postalCode":"75365","locality":"Calw","municipality":{"key":"08235085","name":"Calw, Stadt","type":"Große_Kreisstadt"},"district":{"key":"08235","name":"Calw","type":"Landkreis"},"federalState":{"key":"08","name":"Baden-Württemberg"}},{"name":"Dr.-Barth-Str.","postalCode":"75365","locality":"Calw","municipality":{"key":"08235085","name":"Calw, Stadt","type":"Große_Kreisstadt"},"district":{"key":"08235","name":"Calw","type":"Landkreis"},"federalState":{"key":"08","name":"Baden-Württemberg"}},{"name":"Drosselweg","postalCode":"75365","locality":"Calw","municipality":{"key":"08235085","name":"Calw, Stadt","type":"Große_Kreisstadt"},"district":{"key":"08235","name":"Calw","type":"Landkreis"},"federalState":{"key":"08","name":"Baden-Württemberg"}},{"name":"Eberspielerweg","postalCode":"75365","locality":"Calw","municipality":{"key":"08235085","name":"Calw, Stadt","type":"Große_Kreisstadt"},"district":{"key":"08235","name":"Calw","type":"Landkreis"},"federalState":{"key":"08","name":"Baden-Württemberg"}},{"name":"Eduard-Conz-Str.","postalCode":"75365","locality":"Calw","municipality":{"key":"08235085","name":"Calw, Stadt","type":"Große_Kreisstadt"},"district":{"key":"08235","name":"Calw","type":"Landkreis"},"federalState":{"key":"08","name":"Baden-Württemberg"}},{"name":"Egertstr.","postalCode":"75365","locality":"Calw","municipality":{"key":"08235085","name":"Calw, Stadt","type":"Große_Kreisstadt"},"district":{"key":"08235","name":"Calw","type":"Landkreis"},"federalState":{"key":"08","name":"Baden-Württemberg"}},{"name":"Eichendorffstr.","postalCode":"75365","locality":"Calw","municipality":{"key":"08235085","name":"Calw, Stadt","type":"Große_Kreisstadt"},"district":{"key":"08235","name":"Calw","type":"Landkreis"},"federalState":{"key":"08","name":"Baden-Württemberg"}},{"name":"Eichertstr.","postalCode":"75365","locality":"Calw","municipality":{"key":"08235085","name":"Calw, Stadt","type":"Große_Kreisstadt"},"district":{"key":"08235","name":"Calw","type":"Landkreis"},"federalState":{"key":"08","name":"Baden-Württemberg"}},{"name":"Eichhaldenweg","postalCode":"75365","locality":"Calw","municipality":{"key":"08235085","name":"Calw, Stadt","type":"Große_Kreisstadt"},"district":{"key":"08235","name":"Calw","type":"Landkreis"},"federalState":{"key":"08","name":"Baden-Württemberg"}},{"name":"Eisenstahlsteige","postalCode":"75365","locality":"Calw","municipality":{"key":"08235085","name":"Calw, Stadt","type":"Große_Kreisstadt"},"district":{"key":"08235","name":"Calw","type":"Landkreis"},"federalState":{"key":"08","name":"Baden-Württemberg"}},{"name":"Elbenweg","postalCode":"75365","locality":"Calw","municipality":{"key":"08235085","name":"Calw, Stadt","type":"Große_Kreisstadt"},"district":{"key":"08235","name":"Calw","type":"Landkreis"},"federalState":{"key":"08","name":"Baden-Württemberg"}},{"name":"Enges Gäßle","postalCode":"75365","locality":"Calw","municipality":{"key":"08235085","name":"Calw, Stadt","type":"Große_Kreisstadt"},"district":{"key":"08235","name":"Calw","type":"Landkreis"},"federalState":{"key":"08","name":"Baden-Württemberg"}},{"name":"Erfurter Str.","postalCode":"75365","locality":"Calw","municipality":{"key":"08235085","name":"Calw, Stadt","type":"Große_Kreisstadt"},"district":{"key":"08235","name":"Calw","type":"Landkreis"},"federalState":{"key":"08","name":"Baden-Württemberg"}},{"name":"Erich-Kästner-Str.","postalCode":"75365","locality":"Calw","municipality":{"key":"08235085","name":"Calw, Stadt","type":"Große_Kreisstadt"},"district":{"key":"08235","name":"Calw","type":"Landkreis"},"federalState":{"key":"08","name":"Baden-Württemberg"}},{"name":"Ernstmühler Weg","postalCode":"75365","locality":"Calw","municipality":{"key":"08235085","name":"Calw, Stadt","type":"Große_Kreisstadt"},"district":{"key":"08235","name":"Calw","type":"Landkreis"},"federalState":{"key":"08","name":"Baden-Württemberg"}},{"name":"Ernst-Rheinwald-Str.","postalCode":"75365","locality":"Calw","municipality":{"key":"08235085","name":"Calw, Stadt","type":"Große_Kreisstadt"},"district":{"key":"08235","name":"Calw","type":"Landkreis"},"federalState":{"key":"08","name":"Baden-Württemberg"}},{"name":"Eschenweg","postalCode":"75365","locality":"Calw","municipality":{"key":"08235085","name":"Calw, Stadt","type":"Große_Kreisstadt"},"district":{"key":"08235","name":"Calw","type":"Landkreis"},"federalState":{"key":"08","name":"Baden-Württemberg"}},{"name":"Eulenweg","postalCode":"75365","locality":"Calw","municipality":{"key":"08235085","name":"Calw, Stadt","type":"Große_Kreisstadt"},"district":{"key":"08235","name":"Calw","type":"Landkreis"},"federalState":{"key":"08","name":"Baden-Württemberg"}},{"name":"Falkenstr.","postalCode":"75365","locality":"Calw","municipality":{"key":"08235085","name":"Calw, Stadt","type":"Große_Kreisstadt"},"district":{"key":"08235","name":"Calw","type":"Landkreis"},"federalState":{"key":"08","name":"Baden-Württemberg"}},{"name":"Fallschirmjägerweg","postalCode":"75365","locality":"Calw","municipality":{"key":"08235085","name":"Calw, Stadt","type":"Große_Kreisstadt"},"district":{"key":"08235","name":"Calw","type":"Landkreis"},"federalState":{"key":"08","name":"Baden-Württemberg"}},{"name":"Fasanenstr.","postalCode":"75365","locality":"Calw","municipality":{"key":"08235085","name":"Calw, Stadt","type":"Große_Kreisstadt"},"district":{"key":"08235","name":"Calw","type":"Landkreis"},"federalState":{"key":"08","name":"Baden-Württemberg"}},{"name":"Felsenweg","postalCode":"75365","locality":"Calw","municipality":{"key":"08235085","name":"Calw, Stadt","type":"Große_Kreisstadt"},"district":{"key":"08235","name":"Calw","type":"Landkreis"},"federalState":{"key":"08","name":"Baden-Württemberg"}},{"name":"Ferdinand-von-Steinbeis-Str.","postalCode":"75365","locality":"Calw","municipality":{"key":"08235085","name":"Calw, Stadt","type":"Große_Kreisstadt"},"district":{"key":"08235","name":"Calw","type":"Landkreis"},"federalState":{"key":"08","name":"Baden-Württemberg"}},{"name":"Feuergasse","postalCode":"75365","locality":"Calw","municipality":{"key":"08235085","name":"Calw, Stadt","type":"Große_Kreisstadt"},"district":{"key":"08235","name":"Calw","type":"Landkreis"},"federalState":{"key":"08","name":"Baden-Württemberg"}},{"name":"Finkenweg","postalCode":"75365","locality":"Calw","municipality":{"key":"08235085","name":"Calw, Stadt","type":"Große_Kreisstadt"},"district":{"key":"08235","name":"Calw","type":"Landkreis"},"federalState":{"key":"08","name":"Baden-Württemberg"}},{"name":"Florsackallee","postalCode":"75365","locality":"Calw","municipality":{"key":"08235085","name":"Calw, Stadt","type":"Große_Kreisstadt"},"district":{"key":"08235","name":"Calw","type":"Landkreis"},"federalState":{"key":"08","name":"Baden-Württemberg"}},{"name":"Forchenweg","postalCode":"75365","locality":"Calw","municipality":{"key":"08235085","name":"Calw, Stadt","type":"Große_Kreisstadt"},"district":{"key":"08235","name":"Calw","type":"Landkreis"},"federalState":{"key":"08","name":"Baden-Württemberg"}},{"name":"Forstweg","postalCode":"75365","locality":"Calw","municipality":{"key":"08235085","name":"Calw, Stadt","type":"Große_Kreisstadt"},"district":{"key":"08235","name":"Calw","type":"Landkreis"},"federalState":{"key":"08","name":"Baden-Württemberg"}},{"name":"Frankenweg","postalCode":"75365","locality":"Calw","municipality":{"key":"08235085","name":"Calw, Stadt","type":"Große_Kreisstadt"},"district":{"key":"08235","name":"Calw","type":"Landkreis"},"federalState":{"key":"08","name":"Baden-Württemberg"}},{"name":"Frauenwaldstr.","postalCode":"75365","locality":"Calw","municipality":{"key":"08235085","name":"Calw, Stadt","type":"Große_Kreisstadt"},"district":{"key":"08235","name":"Calw","type":"Landkreis"},"federalState":{"key":"08","name":"Baden-Württemberg"}},{"name":"Freiberger Weg","postalCode":"75365","locality":"Calw","municipality":{"key":"08235085","name":"Calw, Stadt","type":"Große_Kreisstadt"},"district":{"key":"08235","name":"Calw","type":"Landkreis"},"federalState":{"key":"08","name":"Baden-Württemberg"}},{"name":"Freiherr-von-Palm-Weg","postalCode":"75365","locality":"Calw","municipality":{"key":"08235085","name":"Calw, Stadt","type":"Große_Kreisstadt"},"district":{"key":"08235","name":"Calw","type":"Landkreis"},"federalState":{"key":"08","name":"Baden-Württemberg"}},{"name":"Friedensstr.","postalCode":"75365","locality":"Calw","municipality":{"key":"08235085","name":"Calw, Stadt","type":"Große_Kreisstadt"},"district":{"key":"08235","name":"Calw","type":"Landkreis"},"federalState":{"key":"08","name":"Baden-Württemberg"}},{"name":"Friedhofstr.","postalCode":"75365","locality":"Calw","municipality":{"key":"08235085","name":"Calw, Stadt","type":"Große_Kreisstadt"},"district":{"key":"08235","name":"Calw","type":"Landkreis"},"federalState":{"key":"08","name":"Baden-Württemberg"}},{"name":"Friedrich-von-Gärtner-Str.","postalCode":"75365","locality":"Calw","municipality":{"key":"08235085","name":"Calw, Stadt","type":"Große_Kreisstadt"},"district":{"key":"08235","name":"Calw","type":"Landkreis"},"federalState":{"key":"08","name":"Baden-Württemberg"}},{"name":"Fronrot","postalCode":"75365","locality":"Calw","municipality":{"key":"08235085","name":"Calw, Stadt","type":"Große_Kreisstadt"},"district":{"key":"08235","name":"Calw","type":"Landkreis"},"federalState":{"key":"08","name":"Baden-Württemberg"}},{"name":"Fuchsbauweg","postalCode":"75365","locality":"Calw","municipality":{"key":"08235085","name":"Calw, Stadt","type":"Große_Kreisstadt"},"district":{"key":"08235","name":"Calw","type":"Landkreis"},"federalState":{"key":"08","name":"Baden-Württemberg"}},{"name":"Galgenbergsteige","postalCode":"75365","locality":"Calw","municipality":{"key":"08235085","name":"Calw, Stadt","type":"Große_Kreisstadt"},"district":{"key":"08235","name":"Calw","type":"Landkreis"},"federalState":{"key":"08","name":"Baden-Württemberg"}},{"name":"Galgenbergweg","postalCode":"75365","locality":"Calw","municipality":{"key":"08235085","name":"Calw, Stadt","type":"Große_Kreisstadt"},"district":{"key":"08235","name":"Calw","type":"Landkreis"},"federalState":{"key":"08","name":"Baden-Württemberg"}},{"name":"Gänsäckerstr.","postalCode":"75365","locality":"Calw","municipality":{"key":"08235085","name":"Calw, Stadt","type":"Große_Kreisstadt"},"district":{"key":"08235","name":"Calw","type":"Landkreis"},"federalState":{"key":"08","name":"Baden-Württemberg"}},{"name":"Gartenstr.","postalCode":"75365","locality":"Calw","municipality":{"key":"08235085","name":"Calw, Stadt","type":"Große_Kreisstadt"},"district":{"key":"08235","name":"Calw","type":"Landkreis"},"federalState":{"key":"08","name":"Baden-Württemberg"}},{"name":"Gartenweg","postalCode":"75365","locality":"Calw","municipality":{"key":"08235085","name":"Calw, Stadt","type":"Große_Kreisstadt"},"district":{"key":"08235","name":"Calw","type":"Landkreis"},"federalState":{"key":"08","name":"Baden-Württemberg"}},{"name":"Gechinger Str.","postalCode":"75365","locality":"Calw","municipality":{"key":"08235085","name":"Calw, Stadt","type":"Große_Kreisstadt"},"district":{"key":"08235","name":"Calw","type":"Landkreis"},"federalState":{"key":"08","name":"Baden-Württemberg"}},{"name":"Gehwege Maria-von-Linden-Gymnasium","postalCode":"75365","locality":"Calw","municipality":{"key":"08235085","name":"Calw, Stadt","type":"Große_Kreisstadt"},"district":{"key":"08235","name":"Calw","type":"Landkreis"},"federalState":{"key":"08","name":"Baden-Württemberg"}},{"name":"Georg-Baumann-Str.","postalCode":"75365","locality":"Calw","municipality":{"key":"08235085","name":"Calw, Stadt","type":"Große_Kreisstadt"},"district":{"key":"08235","name":"Calw","type":"Landkreis"},"federalState":{"key":"08","name":"Baden-Württemberg"}},{"name":"Georg-Dörtenbach-Weg","postalCode":"75365","locality":"Calw","municipality":{"key":"08235085","name":"Calw, Stadt","type":"Große_Kreisstadt"},"district":{"key":"08235","name":"Calw","type":"Landkreis"},"federalState":{"key":"08","name":"Baden-Württemberg"}},{"name":"Georgii-von-Georgenau-Str.","postalCode":"75365","locality":"Calw","municipality":{"key":"08235085","name":"Calw, Stadt","type":"Große_Kreisstadt"},"district":{"key":"08235","name":"Calw","type":"Landkreis"},"federalState":{"key":"08","name":"Baden-Württemberg"}},{"name":"Gerhart-Hauptmann-Str.","postalCode":"75365","locality":"Calw","municipality":{"key":"08235085","name":"Calw, Stadt","type":"Große_Kreisstadt"},"district":{"key":"08235","name":"Calw","type":"Landkreis"},"federalState":{"key":"08","name":"Baden-Württemberg"}},{"name":"Germanenstr.","postalCode":"75365","locality":"Calw","municipality":{"key":"08235085","name":"Calw, Stadt","type":"Große_Kreisstadt"},"district":{"key":"08235","name":"Calw","type":"Landkreis"},"federalState":{"key":"08","name":"Baden-Württemberg"}},{"name":"Glattsteige","postalCode":"75365","locality":"Calw","municipality":{"key":"08235085","name":"Calw, Stadt","type":"Große_Kreisstadt"},"district":{"key":"08235","name":"Calw","type":"Landkreis"},"federalState":{"key":"08","name":"Baden-Württemberg"}},{"name":"Goethestr.","postalCode":"75365","locality":"Calw","municipality":{"key":"08235085","name":"Calw, Stadt","type":"Große_Kreisstadt"},"district":{"key":"08235","name":"Calw","type":"Landkreis"},"federalState":{"key":"08","name":"Baden-Württemberg"}},{"name":"Goetheweg","postalCode":"75365","locality":"Calw","municipality":{"key":"08235085","name":"Calw, Stadt","type":"Große_Kreisstadt"},"district":{"key":"08235","name":"Calw","type":"Landkreis"},"federalState":{"key":"08","name":"Baden-Württemberg"}},{"name":"Goldammernweg","postalCode":"75365","locality":"Calw","municipality":{"key":"08235085","name":"Calw, Stadt","type":"Große_Kreisstadt"},"district":{"key":"08235","name":"Calw","type":"Landkreis"},"federalState":{"key":"08","name":"Baden-Württemberg"}},{"name":"Gottlob-Bauknecht-Str.","postalCode":"75365","locality":"Calw","municipality":{"key":"08235085","name":"Calw, Stadt","type":"Große_Kreisstadt"},"district":{"key":"08235","name":"Calw","type":"Landkreis"},"federalState":{"key":"08","name":"Baden-Württemberg"}},{"name":"Graf-Zeppelin-Str.","postalCode":"75365","locality":"Calw","municipality":{"key":"08235085","name":"Calw, Stadt","type":"Große_Kreisstadt"},"district":{"key":"08235","name":"Calw","type":"Landkreis"},"federalState":{"key":"08","name":"Baden-Württemberg"}},{"name":"Grasmückenweg","postalCode":"75365","locality":"Calw","municipality":{"key":"08235085","name":"Calw, Stadt","type":"Große_Kreisstadt"},"district":{"key":"08235","name":"Calw","type":"Landkreis"},"federalState":{"key":"08","name":"Baden-Württemberg"}},{"name":"Grund","postalCode":"75365","locality":"Calw","municipality":{"key":"08235085","name":"Calw, Stadt","type":"Große_Kreisstadt"},"district":{"key":"08235","name":"Calw","type":"Landkreis"},"federalState":{"key":"08","name":"Baden-Württemberg"}},{"name":"Gründleweg","postalCode":"75365","locality":"Calw","municipality":{"key":"08235085","name":"Calw, Stadt","type":"Große_Kreisstadt"},"district":{"key":"08235","name":"Calw","type":"Landkreis"},"federalState":{"key":"08","name":"Baden-Württemberg"}},{"name":"Grüner Weg","postalCode":"75365","locality":"Calw","municipality":{"key":"08235085","name":"Calw, Stadt","type":"Große_Kreisstadt"},"district":{"key":"08235","name":"Calw","type":"Landkreis"},"federalState":{"key":"08","name":"Baden-Württemberg"}},{"name":"Grünplattweg","postalCode":"75365","locality":"Calw","municipality":{"key":"08235085","name":"Calw, Stadt","type":"Große_Kreisstadt"},"district":{"key":"08235","name":"Calw","type":"Landkreis"},"federalState":{"key":"08","name":"Baden-Württemberg"}},{"name":"Gugelerweg","postalCode":"75365","locality":"Calw","municipality":{"key":"08235085","name":"Calw, Stadt","type":"Große_Kreisstadt"},"district":{"key":"08235","name":"Calw","type":"Landkreis"},"federalState":{"key":"08","name":"Baden-Württemberg"}},{"name":"Gültlinger Str.","postalCode":"75365","locality":"Calw","municipality":{"key":"08235085","name":"Calw, Stadt","type":"Große_Kreisstadt"},"district":{"key":"08235","name":"Calw","type":"Landkreis"},"federalState":{"key":"08","name":"Baden-Württemberg"}},{"name":"Gundertweg","postalCode":"75365","locality":"Calw","municipality":{"key":"08235085","name":"Calw, Stadt","type":"Große_Kreisstadt"},"district":{"key":"08235","name":"Calw","type":"Landkreis"},"federalState":{"key":"08","name":"Baden-Württemberg"}},{"name":"Gunter-Böhmer-Weg","postalCode":"75365","locality":"Calw","municipality":{"key":"08235085","name":"Calw, Stadt","type":"Große_Kreisstadt"},"district":{"key":"08235","name":"Calw","type":"Landkreis"},"federalState":{"key":"08","name":"Baden-Württemberg"}},{"name":"Haarlemer Str.","postalCode":"75365","locality":"Calw","municipality":{"key":"08235085","name":"Calw, Stadt","type":"Große_Kreisstadt"},"district":{"key":"08235","name":"Calw","type":"Landkreis"},"federalState":{"key":"08","name":"Baden-Württemberg"}},{"name":"Habererd","postalCode":"75365","locality":"Calw","municipality":{"key":"08235085","name":"Calw, Stadt","type":"Große_Kreisstadt"},"district":{"key":"08235","name":"Calw","type":"Landkreis"},"federalState":{"key":"08","name":"Baden-Württemberg"}},{"name":"Habichtweg","postalCode":"75365","locality":"Calw","municipality":{"key":"08235085","name":"Calw, Stadt","type":"Große_Kreisstadt"},"district":{"key":"08235","name":"Calw","type":"Landkreis"},"federalState":{"key":"08","name":"Baden-Württemberg"}},{"name":"Hafnerweg","postalCode":"75365","locality":"Calw","municipality":{"key":"08235085","name":"Calw, Stadt","type":"Große_Kreisstadt"},"district":{"key":"08235","name":"Calw","type":"Landkreis"},"federalState":{"key":"08","name":"Baden-Württemberg"}},{"name":"Hagebuttenweg","postalCode":"75365","locality":"Calw","municipality":{"key":"08235085","name":"Calw, Stadt","type":"Große_Kreisstadt"},"district":{"key":"08235","name":"Calw","type":"Landkreis"},"federalState":{"key":"08","name":"Baden-Württemberg"}},{"name":"Haggasse","postalCode":"75365","locality":"Calw","municipality":{"key":"08235085","name":"Calw, Stadt","type":"Große_Kreisstadt"},"district":{"key":"08235","name":"Calw","type":"Landkreis"},"federalState":{"key":"08","name":"Baden-Württemberg"}},{"name":"Hagsweg","postalCode":"75365","locality":"Calw","municipality":{"key":"08235085","name":"Calw, Stadt","type":"Große_Kreisstadt"},"district":{"key":"08235","name":"Calw","type":"Landkreis"},"federalState":{"key":"08","name":"Baden-Württemberg"}},{"name":"Hartweg","postalCode":"75365","locality":"Calw","municipality":{"key":"08235085","name":"Calw, Stadt","type":"Große_Kreisstadt"},"district":{"key":"08235","name":"Calw","type":"Landkreis"},"federalState":{"key":"08","name":"Baden-Württemberg"}},{"name":"Hasenweg","postalCode":"75365","locality":"Calw","municipality":{"key":"08235085","name":"Calw, Stadt","type":"Große_Kreisstadt"},"district":{"key":"08235","name":"Calw","type":"Landkreis"},"federalState":{"key":"08","name":"Baden-Württemberg"}},{"name":"Hauptstr.","postalCode":"75365","locality":"Calw","municipality":{"key":"08235085","name":"Calw, Stadt","type":"Große_Kreisstadt"},"district":{"key":"08235","name":"Calw","type":"Landkreis"},"federalState":{"key":"08","name":"Baden-Württemberg"}},{"name":"Hausackerweg","postalCode":"75365","locality":"Calw","municipality":{"key":"08235085","name":"Calw, Stadt","type":"Große_Kreisstadt"},"district":{"key":"08235","name":"Calw","type":"Landkreis"},"federalState":{"key":"08","name":"Baden-Württemberg"}},{"name":"Hausäckerweg","postalCode":"75365","locality":"Calw","municipality":{"key":"08235085","name":"Calw, Stadt","type":"Große_Kreisstadt"},"district":{"key":"08235","name":"Calw","type":"Landkreis"},"federalState":{"key":"08","name":"Baden-Württemberg"}},{"name":"Hauswiesenweg","postalCode":"75365","locality":"Calw","municipality":{"key":"08235085","name":"Calw, Stadt","type":"Große_Kreisstadt"},"district":{"key":"08235","name":"Calw","type":"Landkreis"},"federalState":{"key":"08","name":"Baden-Württemberg"}},{"name":"Heckenackerstr.","postalCode":"75365","locality":"Calw","municipality":{"key":"08235085","name":"Calw, Stadt","type":"Große_Kreisstadt"},"district":{"key":"08235","name":"Calw","type":"Landkreis"},"federalState":{"key":"08","name":"Baden-Württemberg"}},{"name":"Heerweg","postalCode":"75365","locality":"Calw","municipality":{"key":"08235085","name":"Calw, Stadt","type":"Große_Kreisstadt"},"district":{"key":"08235","name":"Calw","type":"Landkreis"},"federalState":{"key":"08","name":"Baden-Württemberg"}},{"name":"Heiligenwiesenstr.","postalCode":"75365","locality":"Calw","municipality":{"key":"08235085","name":"Calw, Stadt","type":"Große_Kreisstadt"},"district":{"key":"08235","name":"Calw","type":"Landkreis"},"federalState":{"key":"08","name":"Baden-Württemberg"}},{"name":"Heinz-Schnaufer-Str.","postalCode":"75365","locality":"Calw","municipality":{"key":"08235085","name":"Calw, Stadt","type":"Große_Kreisstadt"},"district":{"key":"08235","name":"Calw","type":"Landkreis"},"federalState":{"key":"08","name":"Baden-Württemberg"}},{"name":"Hengstetter Gäßle","postalCode":"75365","locality":"Calw","municipality":{"key":"08235085","name":"Calw, Stadt","type":"Große_Kreisstadt"},"district":{"key":"08235","name":"Calw","type":"Landkreis"},"federalState":{"key":"08","name":"Baden-Württemberg"}},{"name":"Hengstetter Steige","postalCode":"75365","locality":"Calw","municipality":{"key":"08235085","name":"Calw, Stadt","type":"Große_Kreisstadt"},"district":{"key":"08235","name":"Calw","type":"Landkreis"},"federalState":{"key":"08","name":"Baden-Württemberg"}},{"name":"Hengstetter Steigle","postalCode":"75365","locality":"Calw","municipality":{"key":"08235085","name":"Calw, Stadt","type":"Große_Kreisstadt"},"district":{"key":"08235","name":"Calw","type":"Landkreis"},"federalState":{"key":"08","name":"Baden-Württemberg"}},{"name":"Herdgäßle","postalCode":"75365","locality":"Calw","municipality":{"key":"08235085","name":"Calw, Stadt","type":"Große_Kreisstadt"},"district":{"key":"08235","name":"Calw","type":"Landkreis"},"federalState":{"key":"08","name":"Baden-Württemberg"}},{"name":"Hermann-Haffner-Str.","postalCode":"75365","locality":"Calw","municipality":{"key":"08235085","name":"Calw, Stadt","type":"Große_Kreisstadt"},"district":{"key":"08235","name":"Calw","type":"Landkreis"},"federalState":{"key":"08","name":"Baden-Württemberg"}},{"name":"Hermann-Löns-Str.","postalCode":"75365","locality":"Calw","municipality":{"key":"08235085","name":"Calw, Stadt","type":"Große_Kreisstadt"},"district":{"key":"08235","name":"Calw","type":"Landkreis"},"federalState":{"key":"08","name":"Baden-Württemberg"}},{"name":"Hermann-Löns-Weg","postalCode":"75365","locality":"Calw","municipality":{"key":"08235085","name":"Calw, Stadt","type":"Große_Kreisstadt"},"district":{"key":"08235","name":"Calw","type":"Landkreis"},"federalState":{"key":"08","name":"Baden-Württemberg"}},{"name":"Hermannstr.","postalCode":"75365","locality":"Calw","municipality":{"key":"08235085","name":"Calw, Stadt","type":"Große_Kreisstadt"},"district":{"key":"08235","name":"Calw","type":"Landkreis"},"federalState":{"key":"08","name":"Baden-Württemberg"}},{"name":"Herrenberger Str.","postalCode":"75365","locality":"Calw","municipality":{"key":"08235085","name":"Calw, Stadt","type":"Große_Kreisstadt"},"district":{"key":"08235","name":"Calw","type":"Landkreis"},"federalState":{"key":"08","name":"Baden-Württemberg"}},{"name":"Herrengarten","postalCode":"75365","locality":"Calw","municipality":{"key":"08235085","name":"Calw, Stadt","type":"Große_Kreisstadt"},"district":{"key":"08235","name":"Calw","type":"Landkreis"},"federalState":{"key":"08","name":"Baden-Württemberg"}},{"name":"Herrenweg","postalCode":"75365","locality":"Calw","municipality":{"key":"08235085","name":"Calw, Stadt","type":"Große_Kreisstadt"},"district":{"key":"08235","name":"Calw","type":"Landkreis"},"federalState":{"key":"08","name":"Baden-Württemberg"}},{"name":"Heuweg","postalCode":"75365","locality":"Calw","municipality":{"key":"08235085","name":"Calw, Stadt","type":"Große_Kreisstadt"},"district":{"key":"08235","name":"Calw","type":"Landkreis"},"federalState":{"key":"08","name":"Baden-Württemberg"}},{"name":"Hindenburgstr.","postalCode":"75365","locality":"Calw","municipality":{"key":"08235085","name":"Calw, Stadt","type":"Große_Kreisstadt"},"district":{"key":"08235","name":"Calw","type":"Landkreis"},"federalState":{"key":"08","name":"Baden-Württemberg"}},{"name":"Hirsauer Str.","postalCode":"75365","locality":"Calw","municipality":{"key":"08235085","name":"Calw, Stadt","type":"Große_Kreisstadt"},"district":{"key":"08235","name":"Calw","type":"Landkreis"},"federalState":{"key":"08","name":"Baden-Württemberg"}},{"name":"Hirsauer Wiesenweg","postalCode":"75365","locality":"Calw","municipality":{"key":"08235085","name":"Calw, Stadt","type":"Große_Kreisstadt"},"district":{"key":"08235","name":"Calw","type":"Landkreis"},"federalState":{"key":"08","name":"Baden-Württemberg"}},{"name":"Hirschlochweg","postalCode":"75365","locality":"Calw","municipality":{"key":"08235085","name":"Calw, Stadt","type":"Große_Kreisstadt"},"district":{"key":"08235","name":"Calw","type":"Landkreis"},"federalState":{"key":"08","name":"Baden-Württemberg"}},{"name":"Hochacker","postalCode":"75365","locality":"Calw","municipality":{"key":"08235085","name":"Calw, Stadt","type":"Große_Kreisstadt"},"district":{"key":"08235","name":"Calw","type":"Landkreis"},"federalState":{"key":"08","name":"Baden-Württemberg"}},{"name":"Hohbühlweg","postalCode":"75365","locality":"Calw","municipality":{"key":"08235085","name":"Calw, Stadt","type":"Große_Kreisstadt"},"district":{"key":"08235","name":"Calw","type":"Landkreis"},"federalState":{"key":"08","name":"Baden-Württemberg"}},{"name":"Hohe Klinge","postalCode":"75365","locality":"Calw","municipality":{"key":"08235085","name":"Calw, Stadt","type":"Große_Kreisstadt"},"district":{"key":"08235","name":"Calw","type":"Landkreis"},"federalState":{"key":"08","name":"Baden-Württemberg"}},{"name":"Höhenring","postalCode":"75365","locality":"Calw","municipality":{"key":"08235085","name":"Calw, Stadt","type":"Große_Kreisstadt"},"district":{"key":"08235","name":"Calw","type":"Landkreis"},"federalState":{"key":"08","name":"Baden-Württemberg"}},{"name":"Hoher Marksteinweg","postalCode":"75365","locality":"Calw","municipality":{"key":"08235085","name":"Calw, Stadt","type":"Große_Kreisstadt"},"district":{"key":"08235","name":"Calw","type":"Landkreis"},"federalState":{"key":"08","name":"Baden-Württemberg"}},{"name":"Hohe Str.","postalCode":"75365","locality":"Calw","municipality":{"key":"08235085","name":"Calw, Stadt","type":"Große_Kreisstadt"},"district":{"key":"08235","name":"Calw","type":"Landkreis"},"federalState":{"key":"08","name":"Baden-Württemberg"}},{"name":"Hohrißweg","postalCode":"75365","locality":"Calw","municipality":{"key":"08235085","name":"Calw, Stadt","type":"Große_Kreisstadt"},"district":{"key":"08235","name":"Calw","type":"Landkreis"},"federalState":{"key":"08","name":"Baden-Württemberg"}},{"name":"Hölderlinstr.","postalCode":"75365","locality":"Calw","municipality":{"key":"08235085","name":"Calw, Stadt","type":"Große_Kreisstadt"},"district":{"key":"08235","name":"Calw","type":"Landkreis"},"federalState":{"key":"08","name":"Baden-Württemberg"}},{"name":"Hölderlinweg","postalCode":"75365","locality":"Calw","municipality":{"key":"08235085","name":"Calw, Stadt","type":"Große_Kreisstadt"},"district":{"key":"08235","name":"Calw","type":"Landkreis"},"federalState":{"key":"08","name":"Baden-Württemberg"}},{"name":"Holderweg","postalCode":"75365","locality":"Calw","municipality":{"key":"08235085","name":"Calw, Stadt","type":"Große_Kreisstadt"},"district":{"key":"08235","name":"Calw","type":"Landkreis"},"federalState":{"key":"08","name":"Baden-Württemberg"}},{"name":"Holunderweg","postalCode":"75365","locality":"Calw","municipality":{"key":"08235085","name":"Calw, Stadt","type":"Große_Kreisstadt"},"district":{"key":"08235","name":"Calw","type":"Landkreis"},"federalState":{"key":"08","name":"Baden-Württemberg"}},{"name":"Holzbronner Str.","postalCode":"75365","locality":"Calw","municipality":{"key":"08235085","name":"Calw, Stadt","type":"Große_Kreisstadt"},"district":{"key":"08235","name":"Calw","type":"Landkreis"},"federalState":{"key":"08","name":"Baden-Württemberg"}},{"name":"Holzwasenweg","postalCode":"75365","locality":"Calw","municipality":{"key":"08235085","name":"Calw, Stadt","type":"Große_Kreisstadt"},"district":{"key":"08235","name":"Calw","type":"Landkreis"},"federalState":{"key":"08","name":"Baden-Württemberg"}},{"name":"Hummelbergweg","postalCode":"75365","locality":"Calw","municipality":{"key":"08235085","name":"Calw, Stadt","type":"Große_Kreisstadt"},"district":{"key":"08235","name":"Calw","type":"Landkreis"},"federalState":{"key":"08","name":"Baden-Württemberg"}},{"name":"Hummelswiese","postalCode":"75365","locality":"Calw","municipality":{"key":"08235085","name":"Calw, Stadt","type":"Große_Kreisstadt"},"district":{"key":"08235","name":"Calw","type":"Landkreis"},"federalState":{"key":"08","name":"Baden-Württemberg"}},{"name":"Im Entenschnabel","postalCode":"75365","locality":"Calw","municipality":{"key":"08235085","name":"Calw, Stadt","type":"Große_Kreisstadt"},"district":{"key":"08235","name":"Calw","type":"Landkreis"},"federalState":{"key":"08","name":"Baden-Württemberg"}},{"name":"Im Feldle","postalCode":"75365","locality":"Calw","municipality":{"key":"08235085","name":"Calw, Stadt","type":"Große_Kreisstadt"},"district":{"key":"08235","name":"Calw","type":"Landkreis"},"federalState":{"key":"08","name":"Baden-Württemberg"}},{"name":"Im Gäßle","postalCode":"75365","locality":"Calw","municipality":{"key":"08235085","name":"Calw, Stadt","type":"Große_Kreisstadt"},"district":{"key":"08235","name":"Calw","type":"Landkreis"},"federalState":{"key":"08","name":"Baden-Württemberg"}},{"name":"Im Grafeneck","postalCode":"75365","locality":"Calw","municipality":{"key":"08235085","name":"Calw, Stadt","type":"Große_Kreisstadt"},"district":{"key":"08235","name":"Calw","type":"Landkreis"},"federalState":{"key":"08","name":"Baden-Württemberg"}},{"name":"Im Gütle","postalCode":"75365","locality":"Calw","municipality":{"key":"08235085","name":"Calw, Stadt","type":"Große_Kreisstadt"},"district":{"key":"08235","name":"Calw","type":"Landkreis"},"federalState":{"key":"08","name":"Baden-Württemberg"}},{"name":"Im Häslich","postalCode":"75365","locality":"Calw","municipality":{"key":"08235085","name":"Calw, Stadt","type":"Große_Kreisstadt"},"district":{"key":"08235","name":"Calw","type":"Landkreis"},"federalState":{"key":"08","name":"Baden-Württemberg"}},{"name":"Im Hau","postalCode":"75365","locality":"Calw","municipality":{"key":"08235085","name":"Calw, Stadt","type":"Große_Kreisstadt"},"district":{"key":"08235","name":"Calw","type":"Landkreis"},"federalState":{"key":"08","name":"Baden-Württemberg"}},{"name":"Im Interkom","postalCode":"75365","locality":"Calw","municipality":{"key":"08235085","name":"Calw, Stadt","type":"Große_Kreisstadt"},"district":{"key":"08235","name":"Calw","type":"Landkreis"},"federalState":{"key":"08","name":"Baden-Württemberg"}},{"name":"Im Keltenhof","postalCode":"75365","locality":"Calw","municipality":{"key":"08235085","name":"Calw, Stadt","type":"Große_Kreisstadt"},"district":{"key":"08235","name":"Calw","type":"Landkreis"},"federalState":{"key":"08","name":"Baden-Württemberg"}},{"name":"Im Klösterle","postalCode":"75365","locality":"Calw","municipality":{"key":"08235085","name":"Calw, Stadt","type":"Große_Kreisstadt"},"district":{"key":"08235","name":"Calw","type":"Landkreis"},"federalState":{"key":"08","name":"Baden-Württemberg"}},{"name":"Im Krappen","postalCode":"75365","locality":"Calw","municipality":{"key":"08235085","name":"Calw, Stadt","type":"Große_Kreisstadt"},"district":{"key":"08235","name":"Calw","type":"Landkreis"},"federalState":{"key":"08","name":"Baden-Württemberg"}},{"name":"Im Küllenfeld","postalCode":"75365","locality":"Calw","municipality":{"key":"08235085","name":"Calw, Stadt","type":"Große_Kreisstadt"},"district":{"key":"08235","name":"Calw","type":"Landkreis"},"federalState":{"key":"08","name":"Baden-Württemberg"}},{"name":"Im Pfad","postalCode":"75365","locality":"Calw","municipality":{"key":"08235085","name":"Calw, Stadt","type":"Große_Kreisstadt"},"district":{"key":"08235","name":"Calw","type":"Landkreis"},"federalState":{"key":"08","name":"Baden-Württemberg"}},{"name":"Im Schelmenwasen","postalCode":"75365","locality":"Calw","municipality":{"key":"08235085","name":"Calw, Stadt","type":"Große_Kreisstadt"},"district":{"key":"08235","name":"Calw","type":"Landkreis"},"federalState":{"key":"08","name":"Baden-Württemberg"}},{"name":"Im Scherwäldle","postalCode":"75365","locality":"Calw","municipality":{"key":"08235085","name":"Calw, Stadt","type":"Große_Kreisstadt"},"district":{"key":"08235","name":"Calw","type":"Landkreis"},"federalState":{"key":"08","name":"Baden-Württemberg"}},{"name":"Im Schlößle","postalCode":"75365","locality":"Calw","municipality":{"key":"08235085","name":"Calw, Stadt","type":"Große_Kreisstadt"},"district":{"key":"08235","name":"Calw","type":"Landkreis"},"federalState":{"key":"08","name":"Baden-Württemberg"}},{"name":"Im Seitzental","postalCode":"75365","locality":"Calw","municipality":{"key":"08235085","name":"Calw, Stadt","type":"Große_Kreisstadt"},"district":{"key":"08235","name":"Calw","type":"Landkreis"},"federalState":{"key":"08","name":"Baden-Württemberg"}},{"name":"Im Steckenäckerle","postalCode":"75365","locality":"Calw","municipality":{"key":"08235085","name":"Calw, Stadt","type":"Große_Kreisstadt"},"district":{"key":"08235","name":"Calw","type":"Landkreis"},"federalState":{"key":"08","name":"Baden-Württemberg"}},{"name":"Im Stöckle","postalCode":"75365","locality":"Calw","municipality":{"key":"08235085","name":"Calw, Stadt","type":"Große_Kreisstadt"},"district":{"key":"08235","name":"Calw","type":"Landkreis"},"federalState":{"key":"08","name":"Baden-Württemberg"}},{"name":"Im Vogelsang","postalCode":"75365","locality":"Calw","municipality":{"key":"08235085","name":"Calw, Stadt","type":"Große_Kreisstadt"},"district":{"key":"08235","name":"Calw","type":"Landkreis"},"federalState":{"key":"08","name":"Baden-Württemberg"}},{"name":"Im Zwinger","postalCode":"75365","locality":"Calw","municipality":{"key":"08235085","name":"Calw, Stadt","type":"Große_Kreisstadt"},"district":{"key":"08235","name":"Calw","type":"Landkreis"},"federalState":{"key":"08","name":"Baden-Württemberg"}},{"name":"In den Lunkteilen","postalCode":"75365","locality":"Calw","municipality":{"key":"08235085","name":"Calw, Stadt","type":"Große_Kreisstadt"},"district":{"key":"08235","name":"Calw","type":"Landkreis"},"federalState":{"key":"08","name":"Baden-Württemberg"}},{"name":"In den Wiesen","postalCode":"75365","locality":"Calw","municipality":{"key":"08235085","name":"Calw, Stadt","type":"Große_Kreisstadt"},"district":{"key":"08235","name":"Calw","type":"Landkreis"},"federalState":{"key":"08","name":"Baden-Württemberg"}},{"name":"In den Ziegeläckern","postalCode":"75365","locality":"Calw","municipality":{"key":"08235085","name":"Calw, Stadt","type":"Große_Kreisstadt"},"district":{"key":"08235","name":"Calw","type":"Landkreis"},"federalState":{"key":"08","name":"Baden-Württemberg"}},{"name":"In der Eiselstätt","postalCode":"75365","locality":"Calw","municipality":{"key":"08235085","name":"Calw, Stadt","type":"Große_Kreisstadt"},"district":{"key":"08235","name":"Calw","type":"Landkreis"},"federalState":{"key":"08","name":"Baden-Württemberg"}},{"name":"In der Halde","postalCode":"75365","locality":"Calw","municipality":{"key":"08235085","name":"Calw, Stadt","type":"Große_Kreisstadt"},"district":{"key":"08235","name":"Calw","type":"Landkreis"},"federalState":{"key":"08","name":"Baden-Württemberg"}},{"name":"Infoweg über Calwer Tradition","postalCode":"75365","locality":"Calw","municipality":{"key":"08235085","name":"Calw, Stadt","type":"Große_Kreisstadt"},"district":{"key":"08235","name":"Calw","type":"Landkreis"},"federalState":{"key":"08","name":"Baden-Württemberg"}},{"name":"Inselgasse","postalCode":"75365","locality":"Calw","municipality":{"key":"08235085","name":"Calw, Stadt","type":"Große_Kreisstadt"},"district":{"key":"08235","name":"Calw","type":"Landkreis"},"federalState":{"key":"08","name":"Baden-Württemberg"}},{"name":"Isolde-Kurz-Weg","postalCode":"75365","locality":"Calw","municipality":{"key":"08235085","name":"Calw, Stadt","type":"Große_Kreisstadt"},"district":{"key":"08235","name":"Calw","type":"Landkreis"},"federalState":{"key":"08","name":"Baden-Württemberg"}},{"name":"Jägerweg","postalCode":"75365","locality":"Calw","municipality":{"key":"08235085","name":"Calw, Stadt","type":"Große_Kreisstadt"},"district":{"key":"08235","name":"Calw","type":"Landkreis"},"federalState":{"key":"08","name":"Baden-Württemberg"}},{"name":"Jahnstr.","postalCode":"75365","locality":"Calw","municipality":{"key":"08235085","name":"Calw, Stadt","type":"Große_Kreisstadt"},"district":{"key":"08235","name":"Calw","type":"Landkreis"},"federalState":{"key":"08","name":"Baden-Württemberg"}},{"name":"Jahnweg","postalCode":"75365","locality":"Calw","municipality":{"key":"08235085","name":"Calw, Stadt","type":"Große_Kreisstadt"},"district":{"key":"08235","name":"Calw","type":"Landkreis"},"federalState":{"key":"08","name":"Baden-Württemberg"}},{"name":"Jakob-Alber-Str.","postalCode":"75365","locality":"Calw","municipality":{"key":"08235085","name":"Calw, Stadt","type":"Große_Kreisstadt"},"district":{"key":"08235","name":"Calw","type":"Landkreis"},"federalState":{"key":"08","name":"Baden-Württemberg"}},{"name":"Johannes-Brenz-Platz","postalCode":"75365","locality":"Calw","municipality":{"key":"08235085","name":"Calw, Stadt","type":"Große_Kreisstadt"},"district":{"key":"08235","name":"Calw","type":"Landkreis"},"federalState":{"key":"08","name":"Baden-Württemberg"}},{"name":"Johannes-Kepler-Str.","postalCode":"75365","locality":"Calw","municipality":{"key":"08235085","name":"Calw, Stadt","type":"Große_Kreisstadt"},"district":{"key":"08235","name":"Calw","type":"Landkreis"},"federalState":{"key":"08","name":"Baden-Württemberg"}},{"name":"Johannes-Nothacker-Weg","postalCode":"75365","locality":"Calw","municipality":{"key":"08235085","name":"Calw, Stadt","type":"Große_Kreisstadt"},"district":{"key":"08235","name":"Calw","type":"Landkreis"},"federalState":{"key":"08","name":"Baden-Württemberg"}},{"name":"Justinus-Kerner-Str.","postalCode":"75365","locality":"Calw","municipality":{"key":"08235085","name":"Calw, Stadt","type":"Große_Kreisstadt"},"district":{"key":"08235","name":"Calw","type":"Landkreis"},"federalState":{"key":"08","name":"Baden-Württemberg"}},{"name":"Karl-Beutler-Weg","postalCode":"75365","locality":"Calw","municipality":{"key":"08235085","name":"Calw, Stadt","type":"Große_Kreisstadt"},"district":{"key":"08235","name":"Calw","type":"Landkreis"},"federalState":{"key":"08","name":"Baden-Württemberg"}},{"name":"Karl-Greiner-Str.","postalCode":"75365","locality":"Calw","municipality":{"key":"08235085","name":"Calw, Stadt","type":"Große_Kreisstadt"},"district":{"key":"08235","name":"Calw","type":"Landkreis"},"federalState":{"key":"08","name":"Baden-Württemberg"}},{"name":"Karl-Schneider-Str.","postalCode":"75365","locality":"Calw","municipality":{"key":"08235085","name":"Calw, Stadt","type":"Große_Kreisstadt"},"district":{"key":"08235","name":"Calw","type":"Landkreis"},"federalState":{"key":"08","name":"Baden-Württemberg"}},{"name":"Kentheimer Hangweg","postalCode":"75365","locality":"Calw","municipality":{"key":"08235085","name":"Calw, Stadt","type":"Große_Kreisstadt"},"district":{"key":"08235","name":"Calw","type":"Landkreis"},"federalState":{"key":"08","name":"Baden-Württemberg"}},{"name":"Kimmichwiesen","postalCode":"75365","locality":"Calw","municipality":{"key":"08235085","name":"Calw, Stadt","type":"Große_Kreisstadt"},"district":{"key":"08235","name":"Calw","type":"Landkreis"},"federalState":{"key":"08","name":"Baden-Württemberg"}},{"name":"Kinderdorfstr.","postalCode":"75365","locality":"Calw","municipality":{"key":"08235085","name":"Calw, Stadt","type":"Große_Kreisstadt"},"district":{"key":"08235","name":"Calw","type":"Landkreis"},"federalState":{"key":"08","name":"Baden-Württemberg"}},{"name":"Kirchplatz","postalCode":"75365","locality":"Calw","municipality":{"key":"08235085","name":"Calw, Stadt","type":"Große_Kreisstadt"},"district":{"key":"08235","name":"Calw","type":"Landkreis"},"federalState":{"key":"08","name":"Baden-Württemberg"}},{"name":"Kirchweg","postalCode":"75365","locality":"Calw","municipality":{"key":"08235085","name":"Calw, Stadt","type":"Große_Kreisstadt"},"district":{"key":"08235","name":"Calw","type":"Landkreis"},"federalState":{"key":"08","name":"Baden-Württemberg"}},{"name":"Kirschweg","postalCode":"75365","locality":"Calw","municipality":{"key":"08235085","name":"Calw, Stadt","type":"Große_Kreisstadt"},"district":{"key":"08235","name":"Calw","type":"Landkreis"},"federalState":{"key":"08","name":"Baden-Württemberg"}},{"name":"Klaiberweg","postalCode":"75365","locality":"Calw","municipality":{"key":"08235085","name":"Calw, Stadt","type":"Große_Kreisstadt"},"district":{"key":"08235","name":"Calw","type":"Landkreis"},"federalState":{"key":"08","name":"Baden-Württemberg"}},{"name":"Klasbergebeneweg","postalCode":"75365","locality":"Calw","municipality":{"key":"08235085","name":"Calw, Stadt","type":"Große_Kreisstadt"},"district":{"key":"08235","name":"Calw","type":"Landkreis"},"federalState":{"key":"08","name":"Baden-Württemberg"}},{"name":"Klösterle","postalCode":"75365","locality":"Calw","municipality":{"key":"08235085","name":"Calw, Stadt","type":"Große_Kreisstadt"},"district":{"key":"08235","name":"Calw","type":"Landkreis"},"federalState":{"key":"08","name":"Baden-Württemberg"}},{"name":"Kohlackerweg","postalCode":"75365","locality":"Calw","municipality":{"key":"08235085","name":"Calw, Stadt","type":"Große_Kreisstadt"},"district":{"key":"08235","name":"Calw","type":"Landkreis"},"federalState":{"key":"08","name":"Baden-Württemberg"}},{"name":"Kohlerstr.","postalCode":"75365","locality":"Calw","municipality":{"key":"08235085","name":"Calw, Stadt","type":"Große_Kreisstadt"},"district":{"key":"08235","name":"Calw","type":"Landkreis"},"federalState":{"key":"08","name":"Baden-Württemberg"}},{"name":"Kohlsteigle","postalCode":"75365","locality":"Calw","municipality":{"key":"08235085","name":"Calw, Stadt","type":"Große_Kreisstadt"},"district":{"key":"08235","name":"Calw","type":"Landkreis"},"federalState":{"key":"08","name":"Baden-Württemberg"}},{"name":"Kollbachweg","postalCode":"75365","locality":"Calw","municipality":{"key":"08235085","name":"Calw, Stadt","type":"Große_Kreisstadt"},"district":{"key":"08235","name":"Calw","type":"Landkreis"},"federalState":{"key":"08","name":"Baden-Württemberg"}},{"name":"Kreuzweg","postalCode":"75365","locality":"Calw","municipality":{"key":"08235085","name":"Calw, Stadt","type":"Große_Kreisstadt"},"district":{"key":"08235","name":"Calw","type":"Landkreis"},"federalState":{"key":"08","name":"Baden-Württemberg"}},{"name":"Krokusstr.","postalCode":"75365","locality":"Calw","municipality":{"key":"08235085","name":"Calw, Stadt","type":"Große_Kreisstadt"},"district":{"key":"08235","name":"Calw","type":"Landkreis"},"federalState":{"key":"08","name":"Baden-Württemberg"}},{"name":"Kuckuckweg","postalCode":"75365","locality":"Calw","municipality":{"key":"08235085","name":"Calw, Stadt","type":"Große_Kreisstadt"},"district":{"key":"08235","name":"Calw","type":"Landkreis"},"federalState":{"key":"08","name":"Baden-Württemberg"}},{"name":"Kuhwaldweg","postalCode":"75365","locality":"Calw","municipality":{"key":"08235085","name":"Calw, Stadt","type":"Große_Kreisstadt"},"district":{"key":"08235","name":"Calw","type":"Landkreis"},"federalState":{"key":"08","name":"Baden-Württemberg"}},{"name":"Kurpark","postalCode":"75365","locality":"Calw","municipality":{"key":"08235085","name":"Calw, Stadt","type":"Große_Kreisstadt"},"district":{"key":"08235","name":"Calw","type":"Landkreis"},"federalState":{"key":"08","name":"Baden-Württemberg"}},{"name":"Kurwaldweg","postalCode":"75365","locality":"Calw","municipality":{"key":"08235085","name":"Calw, Stadt","type":"Große_Kreisstadt"},"district":{"key":"08235","name":"Calw","type":"Landkreis"},"federalState":{"key":"08","name":"Baden-Württemberg"}},{"name":"Kurze Str.","postalCode":"75365","locality":"Calw","municipality":{"key":"08235085","name":"Calw, Stadt","type":"Große_Kreisstadt"},"district":{"key":"08235","name":"Calw","type":"Landkreis"},"federalState":{"key":"08","name":"Baden-Württemberg"}},{"name":"Länderweg","postalCode":"75365","locality":"Calw","municipality":{"key":"08235085","name":"Calw, Stadt","type":"Große_Kreisstadt"},"district":{"key":"08235","name":"Calw","type":"Landkreis"},"federalState":{"key":"08","name":"Baden-Württemberg"}},{"name":"Lange Planie","postalCode":"75365","locality":"Calw","municipality":{"key":"08235085","name":"Calw, Stadt","type":"Große_Kreisstadt"},"district":{"key":"08235","name":"Calw","type":"Landkreis"},"federalState":{"key":"08","name":"Baden-Württemberg"}},{"name":"Lange Steige","postalCode":"75365","locality":"Calw","municipality":{"key":"08235085","name":"Calw, Stadt","type":"Große_Kreisstadt"},"district":{"key":"08235","name":"Calw","type":"Landkreis"},"federalState":{"key":"08","name":"Baden-Württemberg"}},{"name":"Langrißweg","postalCode":"75365","locality":"Calw","municipality":{"key":"08235085","name":"Calw, Stadt","type":"Große_Kreisstadt"},"district":{"key":"08235","name":"Calw","type":"Landkreis"},"federalState":{"key":"08","name":"Baden-Württemberg"}},{"name":"Latscher Str.","postalCode":"75365","locality":"Calw","municipality":{"key":"08235085","name":"Calw, Stadt","type":"Große_Kreisstadt"},"district":{"key":"08235","name":"Calw","type":"Landkreis"},"federalState":{"key":"08","name":"Baden-Württemberg"}},{"name":"Lauchweg","postalCode":"75365","locality":"Calw","municipality":{"key":"08235085","name":"Calw, Stadt","type":"Große_Kreisstadt"},"district":{"key":"08235","name":"Calw","type":"Landkreis"},"federalState":{"key":"08","name":"Baden-Württemberg"}},{"name":"Lederstr.","postalCode":"75365","locality":"Calw","municipality":{"key":"08235085","name":"Calw, Stadt","type":"Große_Kreisstadt"},"district":{"key":"08235","name":"Calw","type":"Landkreis"},"federalState":{"key":"08","name":"Baden-Württemberg"}},{"name":"Lehengasse","postalCode":"75365","locality":"Calw","municipality":{"key":"08235085","name":"Calw, Stadt","type":"Große_Kreisstadt"},"district":{"key":"08235","name":"Calw","type":"Landkreis"},"federalState":{"key":"08","name":"Baden-Württemberg"}},{"name":"Leibnizstr.","postalCode":"75365","locality":"Calw","municipality":{"key":"08235085","name":"Calw, Stadt","type":"Große_Kreisstadt"},"district":{"key":"08235","name":"Calw","type":"Landkreis"},"federalState":{"key":"08","name":"Baden-Württemberg"}},{"name":"Leipziger Str.","postalCode":"75365","locality":"Calw","municipality":{"key":"08235085","name":"Calw, Stadt","type":"Große_Kreisstadt"},"district":{"key":"08235","name":"Calw","type":"Landkreis"},"federalState":{"key":"08","name":"Baden-Württemberg"}},{"name":"Lerchenstr.","postalCode":"75365","locality":"Calw","municipality":{"key":"08235085","name":"Calw, Stadt","type":"Große_Kreisstadt"},"district":{"key":"08235","name":"Calw","type":"Landkreis"},"federalState":{"key":"08","name":"Baden-Württemberg"}},{"name":"Lessingstr.","postalCode":"75365","locality":"Calw","municipality":{"key":"08235085","name":"Calw, Stadt","type":"Große_Kreisstadt"},"district":{"key":"08235","name":"Calw","type":"Landkreis"},"federalState":{"key":"08","name":"Baden-Württemberg"}},{"name":"Lettenweg","postalCode":"75365","locality":"Calw","municipality":{"key":"08235085","name":"Calw, Stadt","type":"Große_Kreisstadt"},"district":{"key":"08235","name":"Calw","type":"Landkreis"},"federalState":{"key":"08","name":"Baden-Württemberg"}},{"name":"Liebenzeller Str.","postalCode":"75365","locality":"Calw","municipality":{"key":"08235085","name":"Calw, Stadt","type":"Große_Kreisstadt"},"district":{"key":"08235","name":"Calw","type":"Landkreis"},"federalState":{"key":"08","name":"Baden-Württemberg"}},{"name":"Liebenzeller Weg","postalCode":"75365","locality":"Calw","municipality":{"key":"08235085","name":"Calw, Stadt","type":"Große_Kreisstadt"},"district":{"key":"08235","name":"Calw","type":"Landkreis"},"federalState":{"key":"08","name":"Baden-Württemberg"}},{"name":"Lilienstr.","postalCode":"75365","locality":"Calw","municipality":{"key":"08235085","name":"Calw, Stadt","type":"Große_Kreisstadt"},"district":{"key":"08235","name":"Calw","type":"Landkreis"},"federalState":{"key":"08","name":"Baden-Württemberg"}},{"name":"Lindachhof","postalCode":"75365","locality":"Calw","municipality":{"key":"08235085","name":"Calw, Stadt","type":"Große_Kreisstadt"},"district":{"key":"08235","name":"Calw","type":"Landkreis"},"federalState":{"key":"08","name":"Baden-Württemberg"}},{"name":"Lindenplatz","postalCode":"75365","locality":"Calw","municipality":{"key":"08235085","name":"Calw, Stadt","type":"Große_Kreisstadt"},"district":{"key":"08235","name":"Calw","type":"Landkreis"},"federalState":{"key":"08","name":"Baden-Württemberg"}},{"name":"Lindenrainweg","postalCode":"75365","locality":"Calw","municipality":{"key":"08235085","name":"Calw, Stadt","type":"Große_Kreisstadt"},"district":{"key":"08235","name":"Calw","type":"Landkreis"},"federalState":{"key":"08","name":"Baden-Württemberg"}},{"name":"Lindenstr.","postalCode":"75365","locality":"Calw","municipality":{"key":"08235085","name":"Calw, Stadt","type":"Große_Kreisstadt"},"district":{"key":"08235","name":"Calw","type":"Landkreis"},"federalState":{"key":"08","name":"Baden-Württemberg"}},{"name":"Listweg","postalCode":"75365","locality":"Calw","municipality":{"key":"08235085","name":"Calw, Stadt","type":"Große_Kreisstadt"},"district":{"key":"08235","name":"Calw","type":"Landkreis"},"federalState":{"key":"08","name":"Baden-Württemberg"}},{"name":"Literaturgarten Calw","postalCode":"75365","locality":"Calw","municipality":{"key":"08235085","name":"Calw, Stadt","type":"Große_Kreisstadt"},"district":{"key":"08235","name":"Calw","type":"Landkreis"},"federalState":{"key":"08","name":"Baden-Württemberg"}},{"name":"Lörchergäßle","postalCode":"75365","locality":"Calw","municipality":{"key":"08235085","name":"Calw, Stadt","type":"Große_Kreisstadt"},"district":{"key":"08235","name":"Calw","type":"Landkreis"},"federalState":{"key":"08","name":"Baden-Württemberg"}},{"name":"Mädigweg","postalCode":"75365","locality":"Calw","municipality":{"key":"08235085","name":"Calw, Stadt","type":"Große_Kreisstadt"},"district":{"key":"08235","name":"Calw","type":"Landkreis"},"federalState":{"key":"08","name":"Baden-Württemberg"}},{"name":"Mähderweg","postalCode":"75365","locality":"Calw","municipality":{"key":"08235085","name":"Calw, Stadt","type":"Große_Kreisstadt"},"district":{"key":"08235","name":"Calw","type":"Landkreis"},"federalState":{"key":"08","name":"Baden-Württemberg"}},{"name":"Mahdwiesenweg","postalCode":"75365","locality":"Calw","municipality":{"key":"08235085","name":"Calw, Stadt","type":"Große_Kreisstadt"},"district":{"key":"08235","name":"Calw","type":"Landkreis"},"federalState":{"key":"08","name":"Baden-Württemberg"}},{"name":"Markgrafenweg","postalCode":"75365","locality":"Calw","municipality":{"key":"08235085","name":"Calw, Stadt","type":"Große_Kreisstadt"},"district":{"key":"08235","name":"Calw","type":"Landkreis"},"federalState":{"key":"08","name":"Baden-Württemberg"}},{"name":"Markhaulinie","postalCode":"75365","locality":"Calw","municipality":{"key":"08235085","name":"Calw, Stadt","type":"Große_Kreisstadt"},"district":{"key":"08235","name":"Calw","type":"Landkreis"},"federalState":{"key":"08","name":"Baden-Württemberg"}},{"name":"Marktbrücke","postalCode":"75365","locality":"Calw","municipality":{"key":"08235085","name":"Calw, Stadt","type":"Große_Kreisstadt"},"district":{"key":"08235","name":"Calw","type":"Landkreis"},"federalState":{"key":"08","name":"Baden-Württemberg"}},{"name":"Marktplatz","postalCode":"75365","locality":"Calw","municipality":{"key":"08235085","name":"Calw, Stadt","type":"Große_Kreisstadt"},"district":{"key":"08235","name":"Calw","type":"Landkreis"},"federalState":{"key":"08","name":"Baden-Württemberg"}},{"name":"Marktstr.","postalCode":"75365","locality":"Calw","municipality":{"key":"08235085","name":"Calw, Stadt","type":"Große_Kreisstadt"},"district":{"key":"08235","name":"Calw","type":"Landkreis"},"federalState":{"key":"08","name":"Baden-Württemberg"}},{"name":"Martin-Luther-Str.","postalCode":"75365","locality":"Calw","municipality":{"key":"08235085","name":"Calw, Stadt","type":"Große_Kreisstadt"},"district":{"key":"08235","name":"Calw","type":"Landkreis"},"federalState":{"key":"08","name":"Baden-Württemberg"}},{"name":"Mausäcker","postalCode":"75365","locality":"Calw","municipality":{"key":"08235085","name":"Calw, Stadt","type":"Große_Kreisstadt"},"district":{"key":"08235","name":"Calw","type":"Landkreis"},"federalState":{"key":"08","name":"Baden-Württemberg"}},{"name":"Mauswiesenweg","postalCode":"75365","locality":"Calw","municipality":{"key":"08235085","name":"Calw, Stadt","type":"Große_Kreisstadt"},"district":{"key":"08235","name":"Calw","type":"Landkreis"},"federalState":{"key":"08","name":"Baden-Württemberg"}},{"name":"Max-Planck-Str.","postalCode":"75365","locality":"Calw","municipality":{"key":"08235085","name":"Calw, Stadt","type":"Große_Kreisstadt"},"district":{"key":"08235","name":"Calw","type":"Landkreis"},"federalState":{"key":"08","name":"Baden-Württemberg"}},{"name":"Meisenweg","postalCode":"75365","locality":"Calw","municipality":{"key":"08235085","name":"Calw, Stadt","type":"Große_Kreisstadt"},"district":{"key":"08235","name":"Calw","type":"Landkreis"},"federalState":{"key":"08","name":"Baden-Württemberg"}},{"name":"Meisterbergweg","postalCode":"75365","locality":"Calw","municipality":{"key":"08235085","name":"Calw, Stadt","type":"Große_Kreisstadt"},"district":{"key":"08235","name":"Calw","type":"Landkreis"},"federalState":{"key":"08","name":"Baden-Württemberg"}},{"name":"Meraner Weg","postalCode":"75365","locality":"Calw","municipality":{"key":"08235085","name":"Calw, Stadt","type":"Große_Kreisstadt"},"district":{"key":"08235","name":"Calw","type":"Landkreis"},"federalState":{"key":"08","name":"Baden-Württemberg"}},{"name":"Metzgergasse","postalCode":"75365","locality":"Calw","municipality":{"key":"08235085","name":"Calw, Stadt","type":"Große_Kreisstadt"},"district":{"key":"08235","name":"Calw","type":"Landkreis"},"federalState":{"key":"08","name":"Baden-Württemberg"}},{"name":"Mildre-Scheel-Str.","postalCode":"75365","locality":"Calw","municipality":{"key":"08235085","name":"Calw, Stadt","type":"Große_Kreisstadt"},"district":{"key":"08235","name":"Calw","type":"Landkreis"},"federalState":{"key":"08","name":"Baden-Württemberg"}},{"name":"Mittelweg","postalCode":"75365","locality":"Calw","municipality":{"key":"08235085","name":"Calw, Stadt","type":"Große_Kreisstadt"},"district":{"key":"08235","name":"Calw","type":"Landkreis"},"federalState":{"key":"08","name":"Baden-Württemberg"}},{"name":"Mittlerer Ottenbronner Hangweg","postalCode":"75365","locality":"Calw","municipality":{"key":"08235085","name":"Calw, Stadt","type":"Große_Kreisstadt"},"district":{"key":"08235","name":"Calw","type":"Landkreis"},"federalState":{"key":"08","name":"Baden-Württemberg"}},{"name":"Mittlerer Schafweg","postalCode":"75365","locality":"Calw","municipality":{"key":"08235085","name":"Calw, Stadt","type":"Große_Kreisstadt"},"district":{"key":"08235","name":"Calw","type":"Landkreis"},"federalState":{"key":"08","name":"Baden-Württemberg"}},{"name":"Mittlerer Weg","postalCode":"75365","locality":"Calw","municipality":{"key":"08235085","name":"Calw, Stadt","type":"Große_Kreisstadt"},"district":{"key":"08235","name":"Calw","type":"Landkreis"},"federalState":{"key":"08","name":"Baden-Württemberg"}},{"name":"Molkereistr.","postalCode":"75365","locality":"Calw","municipality":{"key":"08235085","name":"Calw, Stadt","type":"Große_Kreisstadt"},"district":{"key":"08235","name":"Calw","type":"Landkreis"},"federalState":{"key":"08","name":"Baden-Württemberg"}},{"name":"Mörikestr.","postalCode":"75365","locality":"Calw","municipality":{"key":"08235085","name":"Calw, Stadt","type":"Große_Kreisstadt"},"district":{"key":"08235","name":"Calw","type":"Landkreis"},"federalState":{"key":"08","name":"Baden-Württemberg"}},{"name":"Mörikeweg","postalCode":"75365","locality":"Calw","municipality":{"key":"08235085","name":"Calw, Stadt","type":"Große_Kreisstadt"},"district":{"key":"08235","name":"Calw","type":"Landkreis"},"federalState":{"key":"08","name":"Baden-Württemberg"}},{"name":"Mozartstr.","postalCode":"75365","locality":"Calw","municipality":{"key":"08235085","name":"Calw, Stadt","type":"Große_Kreisstadt"},"district":{"key":"08235","name":"Calw","type":"Landkreis"},"federalState":{"key":"08","name":"Baden-Württemberg"}},{"name":"Mühläckerstr.","postalCode":"75365","locality":"Calw","municipality":{"key":"08235085","name":"Calw, Stadt","type":"Große_Kreisstadt"},"district":{"key":"08235","name":"Calw","type":"Landkreis"},"federalState":{"key":"08","name":"Baden-Württemberg"}},{"name":"Mühlgäßle","postalCode":"75365","locality":"Calw","municipality":{"key":"08235085","name":"Calw, Stadt","type":"Große_Kreisstadt"},"district":{"key":"08235","name":"Calw","type":"Landkreis"},"federalState":{"key":"08","name":"Baden-Württemberg"}},{"name":"Mühlradweg","postalCode":"75365","locality":"Calw","municipality":{"key":"08235085","name":"Calw, Stadt","type":"Große_Kreisstadt"},"district":{"key":"08235","name":"Calw","type":"Landkreis"},"federalState":{"key":"08","name":"Baden-Württemberg"}},{"name":"Mühlweg","postalCode":"75365","locality":"Calw","municipality":{"key":"08235085","name":"Calw, Stadt","type":"Große_Kreisstadt"},"district":{"key":"08235","name":"Calw","type":"Landkreis"},"federalState":{"key":"08","name":"Baden-Württemberg"}},{"name":"Müllergäßle","postalCode":"75365","locality":"Calw","municipality":{"key":"08235085","name":"Calw, Stadt","type":"Große_Kreisstadt"},"district":{"key":"08235","name":"Calw","type":"Landkreis"},"federalState":{"key":"08","name":"Baden-Württemberg"}},{"name":"Nachtigallweg","postalCode":"75365","locality":"Calw","municipality":{"key":"08235085","name":"Calw, Stadt","type":"Große_Kreisstadt"},"district":{"key":"08235","name":"Calw","type":"Landkreis"},"federalState":{"key":"08","name":"Baden-Württemberg"}},{"name":"Nagoldweg","postalCode":"75365","locality":"Calw","municipality":{"key":"08235085","name":"Calw, Stadt","type":"Große_Kreisstadt"},"district":{"key":"08235","name":"Calw","type":"Landkreis"},"federalState":{"key":"08","name":"Baden-Württemberg"}},{"name":"Nelkenstr.","postalCode":"75365","locality":"Calw","municipality":{"key":"08235085","name":"Calw, Stadt","type":"Große_Kreisstadt"},"district":{"key":"08235","name":"Calw","type":"Landkreis"},"federalState":{"key":"08","name":"Baden-Württemberg"}},{"name":"Neroberg","postalCode":"75365","locality":"Calw","municipality":{"key":"08235085","name":"Calw, Stadt","type":"Große_Kreisstadt"},"district":{"key":"08235","name":"Calw","type":"Landkreis"},"federalState":{"key":"08","name":"Baden-Württemberg"}},{"name":"Neue Brücke","postalCode":"75365","locality":"Calw","municipality":{"key":"08235085","name":"Calw, Stadt","type":"Große_Kreisstadt"},"district":{"key":"08235","name":"Calw","type":"Landkreis"},"federalState":{"key":"08","name":"Baden-Württemberg"}},{"name":"Neuer Ottenbronner Weg","postalCode":"75365","locality":"Calw","municipality":{"key":"08235085","name":"Calw, Stadt","type":"Große_Kreisstadt"},"district":{"key":"08235","name":"Calw","type":"Landkreis"},"federalState":{"key":"08","name":"Baden-Württemberg"}},{"name":"Neuer Weg","postalCode":"75365","locality":"Calw","municipality":{"key":"08235085","name":"Calw, Stadt","type":"Große_Kreisstadt"},"district":{"key":"08235","name":"Calw","type":"Landkreis"},"federalState":{"key":"08","name":"Baden-Württemberg"}},{"name":"Nilleweg","postalCode":"75365","locality":"Calw","municipality":{"key":"08235085","name":"Calw, Stadt","type":"Große_Kreisstadt"},"district":{"key":"08235","name":"Calw","type":"Landkreis"},"federalState":{"key":"08","name":"Baden-Württemberg"}},{"name":"Nonnengasse","postalCode":"75365","locality":"Calw","municipality":{"key":"08235085","name":"Calw, Stadt","type":"Große_Kreisstadt"},"district":{"key":"08235","name":"Calw","type":"Landkreis"},"federalState":{"key":"08","name":"Baden-Württemberg"}},{"name":"Obere Altburger Steige","postalCode":"75365","locality":"Calw","municipality":{"key":"08235085","name":"Calw, Stadt","type":"Große_Kreisstadt"},"district":{"key":"08235","name":"Calw","type":"Landkreis"},"federalState":{"key":"08","name":"Baden-Württemberg"}},{"name":"Obere Linie","postalCode":"75365","locality":"Calw","municipality":{"key":"08235085","name":"Calw, Stadt","type":"Große_Kreisstadt"},"district":{"key":"08235","name":"Calw","type":"Landkreis"},"federalState":{"key":"08","name":"Baden-Württemberg"}},{"name":"Oberer Bruderbergweg","postalCode":"75365","locality":"Calw","municipality":{"key":"08235085","name":"Calw, Stadt","type":"Große_Kreisstadt"},"district":{"key":"08235","name":"Calw","type":"Landkreis"},"federalState":{"key":"08","name":"Baden-Württemberg"}},{"name":"Oberer Calwer Weg","postalCode":"75365","locality":"Calw","municipality":{"key":"08235085","name":"Calw, Stadt","type":"Große_Kreisstadt"},"district":{"key":"08235","name":"Calw","type":"Landkreis"},"federalState":{"key":"08","name":"Baden-Württemberg"}},{"name":"Oberer Grüner Weg","postalCode":"75365","locality":"Calw","municipality":{"key":"08235085","name":"Calw, Stadt","type":"Große_Kreisstadt"},"district":{"key":"08235","name":"Calw","type":"Landkreis"},"federalState":{"key":"08","name":"Baden-Württemberg"}},{"name":"Oberer Kohlbergweg","postalCode":"75365","locality":"Calw","municipality":{"key":"08235085","name":"Calw, Stadt","type":"Große_Kreisstadt"},"district":{"key":"08235","name":"Calw","type":"Landkreis"},"federalState":{"key":"08","name":"Baden-Württemberg"}},{"name":"oberer Steinbruchweg","postalCode":"75365","locality":"Calw","municipality":{"key":"08235085","name":"Calw, Stadt","type":"Große_Kreisstadt"},"district":{"key":"08235","name":"Calw","type":"Landkreis"},"federalState":{"key":"08","name":"Baden-Württemberg"}},{"name":"Oberer Zwtschgenweg","postalCode":"75365","locality":"Calw","municipality":{"key":"08235085","name":"Calw, Stadt","type":"Große_Kreisstadt"},"district":{"key":"08235","name":"Calw","type":"Landkreis"},"federalState":{"key":"08","name":"Baden-Württemberg"}},{"name":"Oberes Lauch","postalCode":"75365","locality":"Calw","municipality":{"key":"08235085","name":"Calw, Stadt","type":"Große_Kreisstadt"},"district":{"key":"08235","name":"Calw","type":"Landkreis"},"federalState":{"key":"08","name":"Baden-Württemberg"}},{"name":"Oberholzweg","postalCode":"75365","locality":"Calw","municipality":{"key":"08235085","name":"Calw, Stadt","type":"Große_Kreisstadt"},"district":{"key":"08235","name":"Calw","type":"Landkreis"},"federalState":{"key":"08","name":"Baden-Württemberg"}},{"name":"Oberriedter Str.","postalCode":"75365","locality":"Calw","municipality":{"key":"08235085","name":"Calw, Stadt","type":"Große_Kreisstadt"},"district":{"key":"08235","name":"Calw","type":"Landkreis"},"federalState":{"key":"08","name":"Baden-Württemberg"}},{"name":"Ochsenäckerstr.","postalCode":"75365","locality":"Calw","municipality":{"key":"08235085","name":"Calw, Stadt","type":"Große_Kreisstadt"},"district":{"key":"08235","name":"Calw","type":"Landkreis"},"federalState":{"key":"08","name":"Baden-Württemberg"}},{"name":"Ofenackerstr.","postalCode":"75365","locality":"Calw","municipality":{"key":"08235085","name":"Calw, Stadt","type":"Große_Kreisstadt"},"district":{"key":"08235","name":"Calw","type":"Landkreis"},"federalState":{"key":"08","name":"Baden-Württemberg"}},{"name":"Ortsstr.","postalCode":"75365","locality":"Calw","municipality":{"key":"08235085","name":"Calw, Stadt","type":"Große_Kreisstadt"},"district":{"key":"08235","name":"Calw","type":"Landkreis"},"federalState":{"key":"08","name":"Baden-Württemberg"}},{"name":"Ostlandstr.","postalCode":"75365","locality":"Calw","municipality":{"key":"08235085","name":"Calw, Stadt","type":"Große_Kreisstadt"},"district":{"key":"08235","name":"Calw","type":"Landkreis"},"federalState":{"key":"08","name":"Baden-Württemberg"}},{"name":"Otto-Göhner-Str.","postalCode":"75365","locality":"Calw","municipality":{"key":"08235085","name":"Calw, Stadt","type":"Große_Kreisstadt"},"district":{"key":"08235","name":"Calw","type":"Landkreis"},"federalState":{"key":"08","name":"Baden-Württemberg"}},{"name":"Panoramastr.","postalCode":"75365","locality":"Calw","municipality":{"key":"08235085","name":"Calw, Stadt","type":"Große_Kreisstadt"},"district":{"key":"08235","name":"Calw","type":"Landkreis"},"federalState":{"key":"08","name":"Baden-Württemberg"}},{"name":"Paul-Gerhardt-Str.","postalCode":"75365","locality":"Calw","municipality":{"key":"08235085","name":"Calw, Stadt","type":"Große_Kreisstadt"},"district":{"key":"08235","name":"Calw","type":"Landkreis"},"federalState":{"key":"08","name":"Baden-Württemberg"}},{"name":"Pestalozzistr.","postalCode":"75365","locality":"Calw","municipality":{"key":"08235085","name":"Calw, Stadt","type":"Große_Kreisstadt"},"district":{"key":"08235","name":"Calw","type":"Landkreis"},"federalState":{"key":"08","name":"Baden-Württemberg"}},{"name":"Pfarrgäßle","postalCode":"75365","locality":"Calw","municipality":{"key":"08235085","name":"Calw, Stadt","type":"Große_Kreisstadt"},"district":{"key":"08235","name":"Calw","type":"Landkreis"},"federalState":{"key":"08","name":"Baden-Württemberg"}},{"name":"Pforzheimer Str.","postalCode":"75365","locality":"Calw","municipality":{"key":"08235085","name":"Calw, Stadt","type":"Große_Kreisstadt"},"district":{"key":"08235","name":"Calw","type":"Landkreis"},"federalState":{"key":"08","name":"Baden-Württemberg"}},{"name":"Pletschenau","postalCode":"75365","locality":"Calw","municipality":{"key":"08235085","name":"Calw, Stadt","type":"Große_Kreisstadt"},"district":{"key":"08235","name":"Calw","type":"Landkreis"},"federalState":{"key":"08","name":"Baden-Württemberg"}},{"name":"Postackerweg","postalCode":"75365","locality":"Calw","municipality":{"key":"08235085","name":"Calw, Stadt","type":"Große_Kreisstadt"},"district":{"key":"08235","name":"Calw","type":"Landkreis"},"federalState":{"key":"08","name":"Baden-Württemberg"}},{"name":"Postgasse","postalCode":"75365","locality":"Calw","municipality":{"key":"08235085","name":"Calw, Stadt","type":"Große_Kreisstadt"},"district":{"key":"08235","name":"Calw","type":"Landkreis"},"federalState":{"key":"08","name":"Baden-Württemberg"}},{"name":"Raiffeisenstr.","postalCode":"75365","locality":"Calw","municipality":{"key":"08235085","name":"Calw, Stadt","type":"Große_Kreisstadt"},"district":{"key":"08235","name":"Calw","type":"Landkreis"},"federalState":{"key":"08","name":"Baden-Württemberg"}},{"name":"Rathausgasse","postalCode":"75365","locality":"Calw","municipality":{"key":"08235085","name":"Calw, Stadt","type":"Große_Kreisstadt"},"district":{"key":"08235","name":"Calw","type":"Landkreis"},"federalState":{"key":"08","name":"Baden-Württemberg"}},{"name":"Rathausstr.","postalCode":"75365","locality":"Calw","municipality":{"key":"08235085","name":"Calw, Stadt","type":"Große_Kreisstadt"},"district":{"key":"08235","name":"Calw","type":"Landkreis"},"federalState":{"key":"08","name":"Baden-Württemberg"}},{"name":"Rebhuhnweg","postalCode":"75365","locality":"Calw","municipality":{"key":"08235085","name":"Calw, Stadt","type":"Große_Kreisstadt"},"district":{"key":"08235","name":"Calw","type":"Landkreis"},"federalState":{"key":"08","name":"Baden-Württemberg"}},{"name":"Rehhüttenweg","postalCode":"75365","locality":"Calw","municipality":{"key":"08235085","name":"Calw, Stadt","type":"Große_Kreisstadt"},"district":{"key":"08235","name":"Calw","type":"Landkreis"},"federalState":{"key":"08","name":"Baden-Württemberg"}},{"name":"Reichertsmahd-Planie","postalCode":"75365","locality":"Calw","municipality":{"key":"08235085","name":"Calw, Stadt","type":"Große_Kreisstadt"},"district":{"key":"08235","name":"Calw","type":"Landkreis"},"federalState":{"key":"08","name":"Baden-Württemberg"}},{"name":"Reiherweg","postalCode":"75365","locality":"Calw","municipality":{"key":"08235085","name":"Calw, Stadt","type":"Große_Kreisstadt"},"district":{"key":"08235","name":"Calw","type":"Landkreis"},"federalState":{"key":"08","name":"Baden-Württemberg"}},{"name":"Reizengasse","postalCode":"75365","locality":"Calw","municipality":{"key":"08235085","name":"Calw, Stadt","type":"Große_Kreisstadt"},"district":{"key":"08235","name":"Calw","type":"Landkreis"},"federalState":{"key":"08","name":"Baden-Württemberg"}},{"name":"Reutäcker","postalCode":"75365","locality":"Calw","municipality":{"key":"08235085","name":"Calw, Stadt","type":"Große_Kreisstadt"},"district":{"key":"08235","name":"Calw","type":"Landkreis"},"federalState":{"key":"08","name":"Baden-Württemberg"}},{"name":"Reuteweg","postalCode":"75365","locality":"Calw","municipality":{"key":"08235085","name":"Calw, Stadt","type":"Große_Kreisstadt"},"district":{"key":"08235","name":"Calw","type":"Landkreis"},"federalState":{"key":"08","name":"Baden-Württemberg"}},{"name":"Richard-Ziegler-Weg","postalCode":"75365","locality":"Calw","municipality":{"key":"08235085","name":"Calw, Stadt","type":"Große_Kreisstadt"},"district":{"key":"08235","name":"Calw","type":"Landkreis"},"federalState":{"key":"08","name":"Baden-Württemberg"}},{"name":"Riegeläckerstr.","postalCode":"75365","locality":"Calw","municipality":{"key":"08235085","name":"Calw, Stadt","type":"Große_Kreisstadt"},"district":{"key":"08235","name":"Calw","type":"Landkreis"},"federalState":{"key":"08","name":"Baden-Württemberg"}},{"name":"Riemenwiesenweg","postalCode":"75365","locality":"Calw","municipality":{"key":"08235085","name":"Calw, Stadt","type":"Große_Kreisstadt"},"district":{"key":"08235","name":"Calw","type":"Landkreis"},"federalState":{"key":"08","name":"Baden-Württemberg"}},{"name":"Rilkestr.","postalCode":"75365","locality":"Calw","municipality":{"key":"08235085","name":"Calw, Stadt","type":"Große_Kreisstadt"},"district":{"key":"08235","name":"Calw","type":"Landkreis"},"federalState":{"key":"08","name":"Baden-Württemberg"}},{"name":"Robert-Bosch-Str.","postalCode":"75365","locality":"Calw","municipality":{"key":"08235085","name":"Calw, Stadt","type":"Große_Kreisstadt"},"district":{"key":"08235","name":"Calw","type":"Landkreis"},"federalState":{"key":"08","name":"Baden-Württemberg"}},{"name":"Rohrbrunnenstr.","postalCode":"75365","locality":"Calw","municipality":{"key":"08235085","name":"Calw, Stadt","type":"Große_Kreisstadt"},"district":{"key":"08235","name":"Calw","type":"Landkreis"},"federalState":{"key":"08","name":"Baden-Württemberg"}},{"name":"Römerweg","postalCode":"75365","locality":"Calw","municipality":{"key":"08235085","name":"Calw, Stadt","type":"Große_Kreisstadt"},"district":{"key":"08235","name":"Calw","type":"Landkreis"},"federalState":{"key":"08","name":"Baden-Württemberg"}},{"name":"Roseggerstr.","postalCode":"75365","locality":"Calw","municipality":{"key":"08235085","name":"Calw, Stadt","type":"Große_Kreisstadt"},"district":{"key":"08235","name":"Calw","type":"Landkreis"},"federalState":{"key":"08","name":"Baden-Württemberg"}},{"name":"Rosenhain","postalCode":"75365","locality":"Calw","municipality":{"key":"08235085","name":"Calw, Stadt","type":"Große_Kreisstadt"},"district":{"key":"08235","name":"Calw","type":"Landkreis"},"federalState":{"key":"08","name":"Baden-Württemberg"}},{"name":"Rosenstr.","postalCode":"75365","locality":"Calw","municipality":{"key":"08235085","name":"Calw, Stadt","type":"Große_Kreisstadt"},"district":{"key":"08235","name":"Calw","type":"Landkreis"},"federalState":{"key":"08","name":"Baden-Württemberg"}},{"name":"Rosenweg","postalCode":"75365","locality":"Calw","municipality":{"key":"08235085","name":"Calw, Stadt","type":"Große_Kreisstadt"},"district":{"key":"08235","name":"Calw","type":"Landkreis"},"federalState":{"key":"08","name":"Baden-Württemberg"}},{"name":"Rotbuchenstr.","postalCode":"75365","locality":"Calw","municipality":{"key":"08235085","name":"Calw, Stadt","type":"Große_Kreisstadt"},"district":{"key":"08235","name":"Calw","type":"Landkreis"},"federalState":{"key":"08","name":"Baden-Württemberg"}},{"name":"Rötelbachstr.","postalCode":"75365","locality":"Calw","municipality":{"key":"08235085","name":"Calw, Stadt","type":"Große_Kreisstadt"},"district":{"key":"08235","name":"Calw","type":"Landkreis"},"federalState":{"key":"08","name":"Baden-Württemberg"}},{"name":"Rötelbachweg","postalCode":"75365","locality":"Calw","municipality":{"key":"08235085","name":"Calw, Stadt","type":"Große_Kreisstadt"},"district":{"key":"08235","name":"Calw","type":"Landkreis"},"federalState":{"key":"08","name":"Baden-Württemberg"}},{"name":"Rudolf-Diesel-Str.","postalCode":"75365","locality":"Calw","municipality":{"key":"08235085","name":"Calw, Stadt","type":"Große_Kreisstadt"},"district":{"key":"08235","name":"Calw","type":"Landkreis"},"federalState":{"key":"08","name":"Baden-Württemberg"}},{"name":"Rühlinstr.","postalCode":"75365","locality":"Calw","municipality":{"key":"08235085","name":"Calw, Stadt","type":"Große_Kreisstadt"},"district":{"key":"08235","name":"Calw","type":"Landkreis"},"federalState":{"key":"08","name":"Baden-Württemberg"}},{"name":"Saatschulweg","postalCode":"75365","locality":"Calw","municipality":{"key":"08235085","name":"Calw, Stadt","type":"Große_Kreisstadt"},"district":{"key":"08235","name":"Calw","type":"Landkreis"},"federalState":{"key":"08","name":"Baden-Württemberg"}},{"name":"Sackweg","postalCode":"75365","locality":"Calw","municipality":{"key":"08235085","name":"Calw, Stadt","type":"Große_Kreisstadt"},"district":{"key":"08235","name":"Calw","type":"Landkreis"},"federalState":{"key":"08","name":"Baden-Württemberg"}},{"name":"Salzgasse","postalCode":"75365","locality":"Calw","municipality":{"key":"08235085","name":"Calw, Stadt","type":"Große_Kreisstadt"},"district":{"key":"08235","name":"Calw","type":"Landkreis"},"federalState":{"key":"08","name":"Baden-Württemberg"}},{"name":"Salzschöfflerweg","postalCode":"75365","locality":"Calw","municipality":{"key":"08235085","name":"Calw, Stadt","type":"Große_Kreisstadt"},"district":{"key":"08235","name":"Calw","type":"Landkreis"},"federalState":{"key":"08","name":"Baden-Württemberg"}},{"name":"Sankt-Wendel-Str.","postalCode":"75365","locality":"Calw","municipality":{"key":"08235085","name":"Calw, Stadt","type":"Große_Kreisstadt"},"district":{"key":"08235","name":"Calw","type":"Landkreis"},"federalState":{"key":"08","name":"Baden-Württemberg"}},{"name":"Schafackerweg","postalCode":"75365","locality":"Calw","municipality":{"key":"08235085","name":"Calw, Stadt","type":"Große_Kreisstadt"},"district":{"key":"08235","name":"Calw","type":"Landkreis"},"federalState":{"key":"08","name":"Baden-Württemberg"}},{"name":"Schäferweg","postalCode":"75365","locality":"Calw","municipality":{"key":"08235085","name":"Calw, Stadt","type":"Große_Kreisstadt"},"district":{"key":"08235","name":"Calw","type":"Landkreis"},"federalState":{"key":"08","name":"Baden-Württemberg"}},{"name":"Schafottweg","postalCode":"75365","locality":"Calw","municipality":{"key":"08235085","name":"Calw, Stadt","type":"Große_Kreisstadt"},"district":{"key":"08235","name":"Calw","type":"Landkreis"},"federalState":{"key":"08","name":"Baden-Württemberg"}},{"name":"Schafsweg","postalCode":"75365","locality":"Calw","municipality":{"key":"08235085","name":"Calw, Stadt","type":"Große_Kreisstadt"},"district":{"key":"08235","name":"Calw","type":"Landkreis"},"federalState":{"key":"08","name":"Baden-Württemberg"}},{"name":"Schatzweg","postalCode":"75365","locality":"Calw","municipality":{"key":"08235085","name":"Calw, Stadt","type":"Große_Kreisstadt"},"district":{"key":"08235","name":"Calw","type":"Landkreis"},"federalState":{"key":"08","name":"Baden-Württemberg"}},{"name":"Schauberweg","postalCode":"75365","locality":"Calw","municipality":{"key":"08235085","name":"Calw, Stadt","type":"Große_Kreisstadt"},"district":{"key":"08235","name":"Calw","type":"Landkreis"},"federalState":{"key":"08","name":"Baden-Württemberg"}},{"name":"Scheffelweg","postalCode":"75365","locality":"Calw","municipality":{"key":"08235085","name":"Calw, Stadt","type":"Große_Kreisstadt"},"district":{"key":"08235","name":"Calw","type":"Landkreis"},"federalState":{"key":"08","name":"Baden-Württemberg"}},{"name":"Schickhardtweg","postalCode":"75365","locality":"Calw","municipality":{"key":"08235085","name":"Calw, Stadt","type":"Große_Kreisstadt"},"district":{"key":"08235","name":"Calw","type":"Landkreis"},"federalState":{"key":"08","name":"Baden-Württemberg"}},{"name":"Schießstandweg","postalCode":"75365","locality":"Calw","municipality":{"key":"08235085","name":"Calw, Stadt","type":"Große_Kreisstadt"},"district":{"key":"08235","name":"Calw","type":"Landkreis"},"federalState":{"key":"08","name":"Baden-Württemberg"}},{"name":"Schillerstr.","postalCode":"75365","locality":"Calw","municipality":{"key":"08235085","name":"Calw, Stadt","type":"Große_Kreisstadt"},"district":{"key":"08235","name":"Calw","type":"Landkreis"},"federalState":{"key":"08","name":"Baden-Württemberg"}},{"name":"Schillerweg","postalCode":"75365","locality":"Calw","municipality":{"key":"08235085","name":"Calw, Stadt","type":"Große_Kreisstadt"},"district":{"key":"08235","name":"Calw","type":"Landkreis"},"federalState":{"key":"08","name":"Baden-Württemberg"}},{"name":"Schillweg","postalCode":"75365","locality":"Calw","municipality":{"key":"08235085","name":"Calw, Stadt","type":"Große_Kreisstadt"},"district":{"key":"08235","name":"Calw","type":"Landkreis"},"federalState":{"key":"08","name":"Baden-Württemberg"}},{"name":"Schindelbergweg","postalCode":"75365","locality":"Calw","municipality":{"key":"08235085","name":"Calw, Stadt","type":"Große_Kreisstadt"},"district":{"key":"08235","name":"Calw","type":"Landkreis"},"federalState":{"key":"08","name":"Baden-Württemberg"}},{"name":"Schlehenweg","postalCode":"75365","locality":"Calw","municipality":{"key":"08235085","name":"Calw, Stadt","type":"Große_Kreisstadt"},"district":{"key":"08235","name":"Calw","type":"Landkreis"},"federalState":{"key":"08","name":"Baden-Württemberg"}},{"name":"Schleiftalweg","postalCode":"75365","locality":"Calw","municipality":{"key":"08235085","name":"Calw, Stadt","type":"Große_Kreisstadt"},"district":{"key":"08235","name":"Calw","type":"Landkreis"},"federalState":{"key":"08","name":"Baden-Württemberg"}},{"name":"Schlittenbachweg","postalCode":"75365","locality":"Calw","municipality":{"key":"08235085","name":"Calw, Stadt","type":"Große_Kreisstadt"},"district":{"key":"08235","name":"Calw","type":"Landkreis"},"federalState":{"key":"08","name":"Baden-Württemberg"}},{"name":"Schloßberg","postalCode":"75365","locality":"Calw","municipality":{"key":"08235085","name":"Calw, Stadt","type":"Große_Kreisstadt"},"district":{"key":"08235","name":"Calw","type":"Landkreis"},"federalState":{"key":"08","name":"Baden-Württemberg"}},{"name":"Schloßstr.","postalCode":"75365","locality":"Calw","municipality":{"key":"08235085","name":"Calw, Stadt","type":"Große_Kreisstadt"},"district":{"key":"08235","name":"Calw","type":"Landkreis"},"federalState":{"key":"08","name":"Baden-Württemberg"}},{"name":"Schloßwiesenweg","postalCode":"75365","locality":"Calw","municipality":{"key":"08235085","name":"Calw, Stadt","type":"Große_Kreisstadt"},"district":{"key":"08235","name":"Calw","type":"Landkreis"},"federalState":{"key":"08","name":"Baden-Württemberg"}},{"name":"Schnurweg","postalCode":"75365","locality":"Calw","municipality":{"key":"08235085","name":"Calw, Stadt","type":"Große_Kreisstadt"},"district":{"key":"08235","name":"Calw","type":"Landkreis"},"federalState":{"key":"08","name":"Baden-Württemberg"}},{"name":"Schönbühl-Traufweg","postalCode":"75365","locality":"Calw","municipality":{"key":"08235085","name":"Calw, Stadt","type":"Große_Kreisstadt"},"district":{"key":"08235","name":"Calw","type":"Landkreis"},"federalState":{"key":"08","name":"Baden-Württemberg"}},{"name":"Schubartweg","postalCode":"75365","locality":"Calw","municipality":{"key":"08235085","name":"Calw, Stadt","type":"Große_Kreisstadt"},"district":{"key":"08235","name":"Calw","type":"Landkreis"},"federalState":{"key":"08","name":"Baden-Württemberg"}},{"name":"Schubertstr.","postalCode":"75365","locality":"Calw","municipality":{"key":"08235085","name":"Calw, Stadt","type":"Große_Kreisstadt"},"district":{"key":"08235","name":"Calw","type":"Landkreis"},"federalState":{"key":"08","name":"Baden-Württemberg"}},{"name":"Schulweg","postalCode":"75365","locality":"Calw","municipality":{"key":"08235085","name":"Calw, Stadt","type":"Große_Kreisstadt"},"district":{"key":"08235","name":"Calw","type":"Landkreis"},"federalState":{"key":"08","name":"Baden-Württemberg"}},{"name":"Schulzenbuchweg","postalCode":"75365","locality":"Calw","municipality":{"key":"08235085","name":"Calw, Stadt","type":"Große_Kreisstadt"},"district":{"key":"08235","name":"Calw","type":"Landkreis"},"federalState":{"key":"08","name":"Baden-Württemberg"}},{"name":"Schulzengäßle","postalCode":"75365","locality":"Calw","municipality":{"key":"08235085","name":"Calw, Stadt","type":"Große_Kreisstadt"},"district":{"key":"08235","name":"Calw","type":"Landkreis"},"federalState":{"key":"08","name":"Baden-Württemberg"}},{"name":"Schützenstr.","postalCode":"75365","locality":"Calw","municipality":{"key":"08235085","name":"Calw, Stadt","type":"Große_Kreisstadt"},"district":{"key":"08235","name":"Calw","type":"Landkreis"},"federalState":{"key":"08","name":"Baden-Württemberg"}},{"name":"Schwalbenweg","postalCode":"75365","locality":"Calw","municipality":{"key":"08235085","name":"Calw, Stadt","type":"Große_Kreisstadt"},"district":{"key":"08235","name":"Calw","type":"Landkreis"},"federalState":{"key":"08","name":"Baden-Württemberg"}},{"name":"Schwarzwaldstr.","postalCode":"75365","locality":"Calw","municipality":{"key":"08235085","name":"Calw, Stadt","type":"Große_Kreisstadt"},"district":{"key":"08235","name":"Calw","type":"Landkreis"},"federalState":{"key":"08","name":"Baden-Württemberg"}},{"name":"Schweinbachtal Planie","postalCode":"75365","locality":"Calw","municipality":{"key":"08235085","name":"Calw, Stadt","type":"Große_Kreisstadt"},"district":{"key":"08235","name":"Calw","type":"Landkreis"},"federalState":{"key":"08","name":"Baden-Württemberg"}},{"name":"Sebastian-Blau-Str.","postalCode":"75365","locality":"Calw","municipality":{"key":"08235085","name":"Calw, Stadt","type":"Große_Kreisstadt"},"district":{"key":"08235","name":"Calw","type":"Landkreis"},"federalState":{"key":"08","name":"Baden-Württemberg"}},{"name":"Siedlungsstr.","postalCode":"75365","locality":"Calw","municipality":{"key":"08235085","name":"Calw, Stadt","type":"Große_Kreisstadt"},"district":{"key":"08235","name":"Calw","type":"Landkreis"},"federalState":{"key":"08","name":"Baden-Württemberg"}},{"name":"Silcherstr.","postalCode":"75365","locality":"Calw","municipality":{"key":"08235085","name":"Calw, Stadt","type":"Große_Kreisstadt"},"district":{"key":"08235","name":"Calw","type":"Landkreis"},"federalState":{"key":"08","name":"Baden-Württemberg"}},{"name":"Sommenhardter Str.","postalCode":"75365","locality":"Calw","municipality":{"key":"08235085","name":"Calw, Stadt","type":"Große_Kreisstadt"},"district":{"key":"08235","name":"Calw","type":"Landkreis"},"federalState":{"key":"08","name":"Baden-Württemberg"}},{"name":"Sommenhardter Weg","postalCode":"75365","locality":"Calw","municipality":{"key":"08235085","name":"Calw, Stadt","type":"Große_Kreisstadt"},"district":{"key":"08235","name":"Calw","type":"Landkreis"},"federalState":{"key":"08","name":"Baden-Württemberg"}},{"name":"Sonnenhalde","postalCode":"75365","locality":"Calw","municipality":{"key":"08235085","name":"Calw, Stadt","type":"Große_Kreisstadt"},"district":{"key":"08235","name":"Calw","type":"Landkreis"},"federalState":{"key":"08","name":"Baden-Württemberg"}},{"name":"Sonnenhangweg","postalCode":"75365","locality":"Calw","municipality":{"key":"08235085","name":"Calw, Stadt","type":"Große_Kreisstadt"},"district":{"key":"08235","name":"Calw","type":"Landkreis"},"federalState":{"key":"08","name":"Baden-Württemberg"}},{"name":"Sonnenrain","postalCode":"75365","locality":"Calw","municipality":{"key":"08235085","name":"Calw, Stadt","type":"Große_Kreisstadt"},"district":{"key":"08235","name":"Calw","type":"Landkreis"},"federalState":{"key":"08","name":"Baden-Württemberg"}},{"name":"Sparkassenplatz","postalCode":"75365","locality":"Calw","municipality":{"key":"08235085","name":"Calw, Stadt","type":"Große_Kreisstadt"},"district":{"key":"08235","name":"Calw","type":"Landkreis"},"federalState":{"key":"08","name":"Baden-Württemberg"}},{"name":"Sperberstr.","postalCode":"75365","locality":"Calw","municipality":{"key":"08235085","name":"Calw, Stadt","type":"Große_Kreisstadt"},"district":{"key":"08235","name":"Calw","type":"Landkreis"},"federalState":{"key":"08","name":"Baden-Württemberg"}},{"name":"Sperlingweg","postalCode":"75365","locality":"Calw","municipality":{"key":"08235085","name":"Calw, Stadt","type":"Große_Kreisstadt"},"district":{"key":"08235","name":"Calw","type":"Landkreis"},"federalState":{"key":"08","name":"Baden-Württemberg"}},{"name":"Spesshardtermauerweg","postalCode":"75365","locality":"Calw","municipality":{"key":"08235085","name":"Calw, Stadt","type":"Große_Kreisstadt"},"district":{"key":"08235","name":"Calw","type":"Landkreis"},"federalState":{"key":"08","name":"Baden-Württemberg"}},{"name":"Speßhardter Str.","postalCode":"75365","locality":"Calw","municipality":{"key":"08235085","name":"Calw, Stadt","type":"Große_Kreisstadt"},"district":{"key":"08235","name":"Calw","type":"Landkreis"},"federalState":{"key":"08","name":"Baden-Württemberg"}},{"name":"Speßhardter Weg","postalCode":"75365","locality":"Calw","municipality":{"key":"08235085","name":"Calw, Stadt","type":"Große_Kreisstadt"},"district":{"key":"08235","name":"Calw","type":"Landkreis"},"federalState":{"key":"08","name":"Baden-Württemberg"}},{"name":"Spindlershofstr.","postalCode":"75365","locality":"Calw","municipality":{"key":"08235085","name":"Calw, Stadt","type":"Große_Kreisstadt"},"district":{"key":"08235","name":"Calw","type":"Landkreis"},"federalState":{"key":"08","name":"Baden-Württemberg"}},{"name":"Talblickweg","postalCode":"75365","locality":"Calw","municipality":{"key":"08235085","name":"Calw, Stadt","type":"Große_Kreisstadt"},"district":{"key":"08235","name":"Calw","type":"Landkreis"},"federalState":{"key":"08","name":"Baden-Württemberg"}},{"name":"Tälesbachweg","postalCode":"75365","locality":"Calw","municipality":{"key":"08235085","name":"Calw, Stadt","type":"Große_Kreisstadt"},"district":{"key":"08235","name":"Calw","type":"Landkreis"},"federalState":{"key":"08","name":"Baden-Württemberg"}},{"name":"Talstr.","postalCode":"75365","locality":"Calw","municipality":{"key":"08235085","name":"Calw, Stadt","type":"Große_Kreisstadt"},"district":{"key":"08235","name":"Calw","type":"Landkreis"},"federalState":{"key":"08","name":"Baden-Württemberg"}},{"name":"Tannenbusch","postalCode":"75365","locality":"Calw","municipality":{"key":"08235085","name":"Calw, Stadt","type":"Große_Kreisstadt"},"district":{"key":"08235","name":"Calw","type":"Landkreis"},"federalState":{"key":"08","name":"Baden-Württemberg"}},{"name":"Tanneneck","postalCode":"75365","locality":"Calw","municipality":{"key":"08235085","name":"Calw, Stadt","type":"Große_Kreisstadt"},"district":{"key":"08235","name":"Calw","type":"Landkreis"},"federalState":{"key":"08","name":"Baden-Württemberg"}},{"name":"Tannenweg","postalCode":"75365","locality":"Calw","municipality":{"key":"08235085","name":"Calw, Stadt","type":"Große_Kreisstadt"},"district":{"key":"08235","name":"Calw","type":"Landkreis"},"federalState":{"key":"08","name":"Baden-Württemberg"}},{"name":"Tannweg","postalCode":"75365","locality":"Calw","municipality":{"key":"08235085","name":"Calw, Stadt","type":"Große_Kreisstadt"},"district":{"key":"08235","name":"Calw","type":"Landkreis"},"federalState":{"key":"08","name":"Baden-Württemberg"}},{"name":"Taubenstr.","postalCode":"75365","locality":"Calw","municipality":{"key":"08235085","name":"Calw, Stadt","type":"Große_Kreisstadt"},"district":{"key":"08235","name":"Calw","type":"Landkreis"},"federalState":{"key":"08","name":"Baden-Württemberg"}},{"name":"Teuchelweg","postalCode":"75365","locality":"Calw","municipality":{"key":"08235085","name":"Calw, Stadt","type":"Große_Kreisstadt"},"district":{"key":"08235","name":"Calw","type":"Landkreis"},"federalState":{"key":"08","name":"Baden-Württemberg"}},{"name":"Theodor-Dierlamm-Str.","postalCode":"75365","locality":"Calw","municipality":{"key":"08235085","name":"Calw, Stadt","type":"Große_Kreisstadt"},"district":{"key":"08235","name":"Calw","type":"Landkreis"},"federalState":{"key":"08","name":"Baden-Württemberg"}},{"name":"Theodor-Heuss-Str.","postalCode":"75365","locality":"Calw","municipality":{"key":"08235085","name":"Calw, Stadt","type":"Große_Kreisstadt"},"district":{"key":"08235","name":"Calw","type":"Landkreis"},"federalState":{"key":"08","name":"Baden-Württemberg"}},{"name":"Theodor-Seybold-Str.","postalCode":"75365","locality":"Calw","municipality":{"key":"08235085","name":"Calw, Stadt","type":"Große_Kreisstadt"},"district":{"key":"08235","name":"Calw","type":"Landkreis"},"federalState":{"key":"08","name":"Baden-Württemberg"}},{"name":"Theurersweg","postalCode":"75365","locality":"Calw","municipality":{"key":"08235085","name":"Calw, Stadt","type":"Große_Kreisstadt"},"district":{"key":"08235","name":"Calw","type":"Landkreis"},"federalState":{"key":"08","name":"Baden-Württemberg"}},{"name":"Tiroler Weg","postalCode":"75365","locality":"Calw","municipality":{"key":"08235085","name":"Calw, Stadt","type":"Große_Kreisstadt"},"district":{"key":"08235","name":"Calw","type":"Landkreis"},"federalState":{"key":"08","name":"Baden-Württemberg"}},{"name":"Torgasse","postalCode":"75365","locality":"Calw","municipality":{"key":"08235085","name":"Calw, Stadt","type":"Große_Kreisstadt"},"district":{"key":"08235","name":"Calw","type":"Landkreis"},"federalState":{"key":"08","name":"Baden-Württemberg"}},{"name":"Totenweg","postalCode":"75365","locality":"Calw","municipality":{"key":"08235085","name":"Calw, Stadt","type":"Große_Kreisstadt"},"district":{"key":"08235","name":"Calw","type":"Landkreis"},"federalState":{"key":"08","name":"Baden-Württemberg"}},{"name":"Tübinger Str.","postalCode":"75365","locality":"Calw","municipality":{"key":"08235085","name":"Calw, Stadt","type":"Große_Kreisstadt"},"district":{"key":"08235","name":"Calw","type":"Landkreis"},"federalState":{"key":"08","name":"Baden-Württemberg"}},{"name":"Tulpenstr.","postalCode":"75365","locality":"Calw","municipality":{"key":"08235085","name":"Calw, Stadt","type":"Große_Kreisstadt"},"district":{"key":"08235","name":"Calw","type":"Landkreis"},"federalState":{"key":"08","name":"Baden-Württemberg"}},{"name":"Turnstr.","postalCode":"75365","locality":"Calw","municipality":{"key":"08235085","name":"Calw, Stadt","type":"Große_Kreisstadt"},"district":{"key":"08235","name":"Calw","type":"Landkreis"},"federalState":{"key":"08","name":"Baden-Württemberg"}},{"name":"Ueberzwercherweg","postalCode":"75365","locality":"Calw","municipality":{"key":"08235085","name":"Calw, Stadt","type":"Große_Kreisstadt"},"district":{"key":"08235","name":"Calw","type":"Landkreis"},"federalState":{"key":"08","name":"Baden-Württemberg"}},{"name":"Uhlandshöhe","postalCode":"75365","locality":"Calw","municipality":{"key":"08235085","name":"Calw, Stadt","type":"Große_Kreisstadt"},"district":{"key":"08235","name":"Calw","type":"Landkreis"},"federalState":{"key":"08","name":"Baden-Württemberg"}},{"name":"Uhlandstr.","postalCode":"75365","locality":"Calw","municipality":{"key":"08235085","name":"Calw, Stadt","type":"Große_Kreisstadt"},"district":{"key":"08235","name":"Calw","type":"Landkreis"},"federalState":{"key":"08","name":"Baden-Württemberg"}},{"name":"Untere Brücke","postalCode":"75365","locality":"Calw","municipality":{"key":"08235085","name":"Calw, Stadt","type":"Große_Kreisstadt"},"district":{"key":"08235","name":"Calw","type":"Landkreis"},"federalState":{"key":"08","name":"Baden-Württemberg"}},{"name":"Untere Linie","postalCode":"75365","locality":"Calw","municipality":{"key":"08235085","name":"Calw, Stadt","type":"Große_Kreisstadt"},"district":{"key":"08235","name":"Calw","type":"Landkreis"},"federalState":{"key":"08","name":"Baden-Württemberg"}},{"name":"Unterer Breitackerweg","postalCode":"75365","locality":"Calw","municipality":{"key":"08235085","name":"Calw, Stadt","type":"Große_Kreisstadt"},"district":{"key":"08235","name":"Calw","type":"Landkreis"},"federalState":{"key":"08","name":"Baden-Württemberg"}},{"name":"Unterer Conventrain","postalCode":"75365","locality":"Calw","municipality":{"key":"08235085","name":"Calw, Stadt","type":"Große_Kreisstadt"},"district":{"key":"08235","name":"Calw","type":"Landkreis"},"federalState":{"key":"08","name":"Baden-Württemberg"}},{"name":"Unterer Grüner Weg","postalCode":"75365","locality":"Calw","municipality":{"key":"08235085","name":"Calw, Stadt","type":"Große_Kreisstadt"},"district":{"key":"08235","name":"Calw","type":"Landkreis"},"federalState":{"key":"08","name":"Baden-Württemberg"}},{"name":"Unterer Welzberg","postalCode":"75365","locality":"Calw","municipality":{"key":"08235085","name":"Calw, Stadt","type":"Große_Kreisstadt"},"district":{"key":"08235","name":"Calw","type":"Landkreis"},"federalState":{"key":"08","name":"Baden-Württemberg"}},{"name":"Unterer Zwetschgenweg","postalCode":"75365","locality":"Calw","municipality":{"key":"08235085","name":"Calw, Stadt","type":"Große_Kreisstadt"},"district":{"key":"08235","name":"Calw","type":"Landkreis"},"federalState":{"key":"08","name":"Baden-Württemberg"}},{"name":"Unterkohlbergweg","postalCode":"75365","locality":"Calw","municipality":{"key":"08235085","name":"Calw, Stadt","type":"Große_Kreisstadt"},"district":{"key":"08235","name":"Calw","type":"Landkreis"},"federalState":{"key":"08","name":"Baden-Württemberg"}},{"name":"Viehtriebweg","postalCode":"75365","locality":"Calw","municipality":{"key":"08235085","name":"Calw, Stadt","type":"Große_Kreisstadt"},"district":{"key":"08235","name":"Calw","type":"Landkreis"},"federalState":{"key":"08","name":"Baden-Württemberg"}},{"name":"Vischerweg","postalCode":"75365","locality":"Calw","municipality":{"key":"08235085","name":"Calw, Stadt","type":"Große_Kreisstadt"},"district":{"key":"08235","name":"Calw","type":"Landkreis"},"federalState":{"key":"08","name":"Baden-Württemberg"}},{"name":"Vogteistr.","postalCode":"75365","locality":"Calw","municipality":{"key":"08235085","name":"Calw, Stadt","type":"Große_Kreisstadt"},"district":{"key":"08235","name":"Calw","type":"Landkreis"},"federalState":{"key":"08","name":"Baden-Württemberg"}},{"name":"Vorstadtweg","postalCode":"75365","locality":"Calw","municipality":{"key":"08235085","name":"Calw, Stadt","type":"Große_Kreisstadt"},"district":{"key":"08235","name":"Calw","type":"Landkreis"},"federalState":{"key":"08","name":"Baden-Württemberg"}},{"name":"Wachtelweg","postalCode":"75365","locality":"Calw","municipality":{"key":"08235085","name":"Calw, Stadt","type":"Große_Kreisstadt"},"district":{"key":"08235","name":"Calw","type":"Landkreis"},"federalState":{"key":"08","name":"Baden-Württemberg"}},{"name":"Wackelsteinweg","postalCode":"75365","locality":"Calw","municipality":{"key":"08235085","name":"Calw, Stadt","type":"Große_Kreisstadt"},"district":{"key":"08235","name":"Calw","type":"Landkreis"},"federalState":{"key":"08","name":"Baden-Württemberg"}},{"name":"Wagnerstr.","postalCode":"75365","locality":"Calw","municipality":{"key":"08235085","name":"Calw, Stadt","type":"Große_Kreisstadt"},"district":{"key":"08235","name":"Calw","type":"Landkreis"},"federalState":{"key":"08","name":"Baden-Württemberg"}},{"name":"Waldackerweg","postalCode":"75365","locality":"Calw","municipality":{"key":"08235085","name":"Calw, Stadt","type":"Große_Kreisstadt"},"district":{"key":"08235","name":"Calw","type":"Landkreis"},"federalState":{"key":"08","name":"Baden-Württemberg"}},{"name":"Waldeckenbergweg","postalCode":"75365","locality":"Calw","municipality":{"key":"08235085","name":"Calw, Stadt","type":"Große_Kreisstadt"},"district":{"key":"08235","name":"Calw","type":"Landkreis"},"federalState":{"key":"08","name":"Baden-Württemberg"}},{"name":"Waldeckweg","postalCode":"75365","locality":"Calw","municipality":{"key":"08235085","name":"Calw, Stadt","type":"Große_Kreisstadt"},"district":{"key":"08235","name":"Calw","type":"Landkreis"},"federalState":{"key":"08","name":"Baden-Württemberg"}},{"name":"Waldenserstr.","postalCode":"75365","locality":"Calw","municipality":{"key":"08235085","name":"Calw, Stadt","type":"Große_Kreisstadt"},"district":{"key":"08235","name":"Calw","type":"Landkreis"},"federalState":{"key":"08","name":"Baden-Württemberg"}},{"name":"Waldrandweg","postalCode":"75365","locality":"Calw","municipality":{"key":"08235085","name":"Calw, Stadt","type":"Große_Kreisstadt"},"district":{"key":"08235","name":"Calw","type":"Landkreis"},"federalState":{"key":"08","name":"Baden-Württemberg"}},{"name":"Waldsteige","postalCode":"75365","locality":"Calw","municipality":{"key":"08235085","name":"Calw, Stadt","type":"Große_Kreisstadt"},"district":{"key":"08235","name":"Calw","type":"Landkreis"},"federalState":{"key":"08","name":"Baden-Württemberg"}},{"name":"Waldstr.","postalCode":"75365","locality":"Calw","municipality":{"key":"08235085","name":"Calw, Stadt","type":"Große_Kreisstadt"},"district":{"key":"08235","name":"Calw","type":"Landkreis"},"federalState":{"key":"08","name":"Baden-Württemberg"}},{"name":"Walkmühleweg","postalCode":"75365","locality":"Calw","municipality":{"key":"08235085","name":"Calw, Stadt","type":"Große_Kreisstadt"},"district":{"key":"08235","name":"Calw","type":"Landkreis"},"federalState":{"key":"08","name":"Baden-Württemberg"}},{"name":"Wanderweg","postalCode":"75365","locality":"Calw","municipality":{"key":"08235085","name":"Calw, Stadt","type":"Große_Kreisstadt"},"district":{"key":"08235","name":"Calw","type":"Landkreis"},"federalState":{"key":"08","name":"Baden-Württemberg"}},{"name":"Wannenweg","postalCode":"75365","locality":"Calw","municipality":{"key":"08235085","name":"Calw, Stadt","type":"Große_Kreisstadt"},"district":{"key":"08235","name":"Calw","type":"Landkreis"},"federalState":{"key":"08","name":"Baden-Württemberg"}},{"name":"Wasserweg","postalCode":"75365","locality":"Calw","municipality":{"key":"08235085","name":"Calw, Stadt","type":"Große_Kreisstadt"},"district":{"key":"08235","name":"Calw","type":"Landkreis"},"federalState":{"key":"08","name":"Baden-Württemberg"}},{"name":"Weidaer Str.","postalCode":"75365","locality":"Calw","municipality":{"key":"08235085","name":"Calw, Stadt","type":"Große_Kreisstadt"},"district":{"key":"08235","name":"Calw","type":"Landkreis"},"federalState":{"key":"08","name":"Baden-Württemberg"}},{"name":"Weidensteige","postalCode":"75365","locality":"Calw","municipality":{"key":"08235085","name":"Calw, Stadt","type":"Große_Kreisstadt"},"district":{"key":"08235","name":"Calw","type":"Landkreis"},"federalState":{"key":"08","name":"Baden-Württemberg"}},{"name":"Weiherstr.","postalCode":"75365","locality":"Calw","municipality":{"key":"08235085","name":"Calw, Stadt","type":"Große_Kreisstadt"},"district":{"key":"08235","name":"Calw","type":"Landkreis"},"federalState":{"key":"08","name":"Baden-Württemberg"}},{"name":"Weilerhangweg","postalCode":"75365","locality":"Calw","municipality":{"key":"08235085","name":"Calw, Stadt","type":"Große_Kreisstadt"},"district":{"key":"08235","name":"Calw","type":"Landkreis"},"federalState":{"key":"08","name":"Baden-Württemberg"}},{"name":"Weinholdweg","postalCode":"75365","locality":"Calw","municipality":{"key":"08235085","name":"Calw, Stadt","type":"Große_Kreisstadt"},"district":{"key":"08235","name":"Calw","type":"Landkreis"},"federalState":{"key":"08","name":"Baden-Württemberg"}},{"name":"Weinstr.","postalCode":"75365","locality":"Calw","municipality":{"key":"08235085","name":"Calw, Stadt","type":"Große_Kreisstadt"},"district":{"key":"08235","name":"Calw","type":"Landkreis"},"federalState":{"key":"08","name":"Baden-Württemberg"}},{"name":"Weißdornweg","postalCode":"75365","locality":"Calw","municipality":{"key":"08235085","name":"Calw, Stadt","type":"Große_Kreisstadt"},"district":{"key":"08235","name":"Calw","type":"Landkreis"},"federalState":{"key":"08","name":"Baden-Württemberg"}},{"name":"Weißtannenstr.","postalCode":"75365","locality":"Calw","municipality":{"key":"08235085","name":"Calw, Stadt","type":"Große_Kreisstadt"},"district":{"key":"08235","name":"Calw","type":"Landkreis"},"federalState":{"key":"08","name":"Baden-Württemberg"}},{"name":"Welzbergsteige","postalCode":"75365","locality":"Calw","municipality":{"key":"08235085","name":"Calw, Stadt","type":"Große_Kreisstadt"},"district":{"key":"08235","name":"Calw","type":"Landkreis"},"federalState":{"key":"08","name":"Baden-Württemberg"}},{"name":"Welzbergweg","postalCode":"75365","locality":"Calw","municipality":{"key":"08235085","name":"Calw, Stadt","type":"Große_Kreisstadt"},"district":{"key":"08235","name":"Calw","type":"Landkreis"},"federalState":{"key":"08","name":"Baden-Württemberg"}},{"name":"Werner-Pfrommer-Weg","postalCode":"75365","locality":"Calw","municipality":{"key":"08235085","name":"Calw, Stadt","type":"Große_Kreisstadt"},"district":{"key":"08235","name":"Calw","type":"Landkreis"},"federalState":{"key":"08","name":"Baden-Württemberg"}},{"name":"Widdumgasse","postalCode":"75365","locality":"Calw","municipality":{"key":"08235085","name":"Calw, Stadt","type":"Große_Kreisstadt"},"district":{"key":"08235","name":"Calw","type":"Landkreis"},"federalState":{"key":"08","name":"Baden-Württemberg"}},{"name":"Wielandstr.","postalCode":"75365","locality":"Calw","municipality":{"key":"08235085","name":"Calw, Stadt","type":"Große_Kreisstadt"},"district":{"key":"08235","name":"Calw","type":"Landkreis"},"federalState":{"key":"08","name":"Baden-Württemberg"}},{"name":"Wiener Weg","postalCode":"75365","locality":"Calw","municipality":{"key":"08235085","name":"Calw, Stadt","type":"Große_Kreisstadt"},"district":{"key":"08235","name":"Calw","type":"Landkreis"},"federalState":{"key":"08","name":"Baden-Württemberg"}},{"name":"Wiesentürle","postalCode":"75365","locality":"Calw","municipality":{"key":"08235085","name":"Calw, Stadt","type":"Große_Kreisstadt"},"district":{"key":"08235","name":"Calw","type":"Landkreis"},"federalState":{"key":"08","name":"Baden-Württemberg"}},{"name":"Wildbader Str.","postalCode":"75365","locality":"Calw","municipality":{"key":"08235085","name":"Calw, Stadt","type":"Große_Kreisstadt"},"district":{"key":"08235","name":"Calw","type":"Landkreis"},"federalState":{"key":"08","name":"Baden-Württemberg"}},{"name":"Wildschweingehege","postalCode":"75365","locality":"Calw","municipality":{"key":"08235085","name":"Calw, Stadt","type":"Große_Kreisstadt"},"district":{"key":"08235","name":"Calw","type":"Landkreis"},"federalState":{"key":"08","name":"Baden-Württemberg"}},{"name":"Wilhelm-Hauff-Str.","postalCode":"75365","locality":"Calw","municipality":{"key":"08235085","name":"Calw, Stadt","type":"Große_Kreisstadt"},"district":{"key":"08235","name":"Calw","type":"Landkreis"},"federalState":{"key":"08","name":"Baden-Württemberg"}},{"name":"Willy-Reichert-Str.","postalCode":"75365","locality":"Calw","municipality":{"key":"08235085","name":"Calw, Stadt","type":"Große_Kreisstadt"},"district":{"key":"08235","name":"Calw","type":"Landkreis"},"federalState":{"key":"08","name":"Baden-Württemberg"}},{"name":"Wimbergweg","postalCode":"75365","locality":"Calw","municipality":{"key":"08235085","name":"Calw, Stadt","type":"Große_Kreisstadt"},"district":{"key":"08235","name":"Calw","type":"Landkreis"},"federalState":{"key":"08","name":"Baden-Württemberg"}},{"name":"Wölflesweg","postalCode":"75365","locality":"Calw","municipality":{"key":"08235085","name":"Calw, Stadt","type":"Große_Kreisstadt"},"district":{"key":"08235","name":"Calw","type":"Landkreis"},"federalState":{"key":"08","name":"Baden-Württemberg"}},{"name":"Wolfsschluchtpfad","postalCode":"75365","locality":"Calw","municipality":{"key":"08235085","name":"Calw, Stadt","type":"Große_Kreisstadt"},"district":{"key":"08235","name":"Calw","type":"Landkreis"},"federalState":{"key":"08","name":"Baden-Württemberg"}},{"name":"Wolfsweg","postalCode":"75365","locality":"Calw","municipality":{"key":"08235085","name":"Calw, Stadt","type":"Große_Kreisstadt"},"district":{"key":"08235","name":"Calw","type":"Landkreis"},"federalState":{"key":"08","name":"Baden-Württemberg"}},{"name":"Zainenerweg","postalCode":"75365","locality":"Calw","municipality":{"key":"08235085","name":"Calw, Stadt","type":"Große_Kreisstadt"},"district":{"key":"08235","name":"Calw","type":"Landkreis"},"federalState":{"key":"08","name":"Baden-Württemberg"}},{"name":"Zaunkönigweg","postalCode":"75365","locality":"Calw","municipality":{"key":"08235085","name":"Calw, Stadt","type":"Große_Kreisstadt"},"district":{"key":"08235","name":"Calw","type":"Landkreis"},"federalState":{"key":"08","name":"Baden-Württemberg"}},{"name":"Zavelsteiner Str.","postalCode":"75365","locality":"Calw","municipality":{"key":"08235085","name":"Calw, Stadt","type":"Große_Kreisstadt"},"district":{"key":"08235","name":"Calw","type":"Landkreis"},"federalState":{"key":"08","name":"Baden-Württemberg"}},{"name":"Zeller-Kopf-Weg","postalCode":"75365","locality":"Calw","municipality":{"key":"08235085","name":"Calw, Stadt","type":"Große_Kreisstadt"},"district":{"key":"08235","name":"Calw","type":"Landkreis"},"federalState":{"key":"08","name":"Baden-Württemberg"}},{"name":"Zettelbergweg","postalCode":"75365","locality":"Calw","municipality":{"key":"08235085","name":"Calw, Stadt","type":"Große_Kreisstadt"},"district":{"key":"08235","name":"Calw","type":"Landkreis"},"federalState":{"key":"08","name":"Baden-Württemberg"}},{"name":"Ziegelweg","postalCode":"75365","locality":"Calw","municipality":{"key":"08235085","name":"Calw, Stadt","type":"Große_Kreisstadt"},"district":{"key":"08235","name":"Calw","type":"Landkreis"},"federalState":{"key":"08","name":"Baden-Württemberg"}},{"name":"Zwetschgenweg","postalCode":"75365","locality":"Calw","municipality":{"key":"08235085","name":"Calw, Stadt","type":"Große_Kreisstadt"},"district":{"key":"08235","name":"Calw","type":"Landkreis"},"federalState":{"key":"08","name":"Baden-Württemberg"}},{"name":"Öländerle","postalCode":"75365","locality":"Calw","municipality":{"key":"08235085","name":"Calw, Stadt","type":"Große_Kreisstadt"},"district":{"key":"08235","name":"Calw","type":"Landkreis"},"federalState":{"key":"08","name":"Baden-Württemberg"}},]