[{"name":"Ahornweg","postalCode":"73486","locality":"Adelmannsfelden","municipality":{"key":"08136003","name":"Adelmannsfelden","type":"Kreisangehörige_Gemeinde"},"district":{"key":"08136","name":"Ostalbkreis","type":"Landkreis"},"federalState":{"key":"08","name":"Baden-Württemberg"}},{"name":"altes Eiwaldsträßchen","postalCode":"73486","locality":"Adelmannsfelden","municipality":{"key":"08136003","name":"Adelmannsfelden","type":"Kreisangehörige_Gemeinde"},"district":{"key":"08136","name":"Ostalbkreis","type":"Landkreis"},"federalState":{"key":"08","name":"Baden-Württemberg"}},{"name":"Amselweg","postalCode":"73486","locality":"Adelmannsfelden","municipality":{"key":"08136003","name":"Adelmannsfelden","type":"Kreisangehörige_Gemeinde"},"district":{"key":"08136","name":"Ostalbkreis","type":"Landkreis"},"federalState":{"key":"08","name":"Baden-Württemberg"}},{"name":"Badgasse","postalCode":"73486","locality":"Adelmannsfelden","municipality":{"key":"08136003","name":"Adelmannsfelden","type":"Kreisangehörige_Gemeinde"},"district":{"key":"08136","name":"Ostalbkreis","type":"Landkreis"},"federalState":{"key":"08","name":"Baden-Württemberg"}},{"name":"Birkenweg","postalCode":"73486","locality":"Adelmannsfelden","municipality":{"key":"08136003","name":"Adelmannsfelden","type":"Kreisangehörige_Gemeinde"},"district":{"key":"08136","name":"Ostalbkreis","type":"Landkreis"},"federalState":{"key":"08","name":"Baden-Württemberg"}},{"name":"Blumenstr.","postalCode":"73486","locality":"Adelmannsfelden","municipality":{"key":"08136003","name":"Adelmannsfelden","type":"Kreisangehörige_Gemeinde"},"district":{"key":"08136","name":"Ostalbkreis","type":"Landkreis"},"federalState":{"key":"08","name":"Baden-Württemberg"}},{"name":"Buchenhain","postalCode":"73486","locality":"Adelmannsfelden","municipality":{"key":"08136003","name":"Adelmannsfelden","type":"Kreisangehörige_Gemeinde"},"district":{"key":"08136","name":"Ostalbkreis","type":"Landkreis"},"federalState":{"key":"08","name":"Baden-Württemberg"}},{"name":"Drosselweg","postalCode":"73486","locality":"Adelmannsfelden","municipality":{"key":"08136003","name":"Adelmannsfelden","type":"Kreisangehörige_Gemeinde"},"district":{"key":"08136","name":"Ostalbkreis","type":"Landkreis"},"federalState":{"key":"08","name":"Baden-Württemberg"}},{"name":"Edelstrut","postalCode":"73486","locality":"Adelmannsfelden","municipality":{"key":"08136003","name":"Adelmannsfelden","type":"Kreisangehörige_Gemeinde"},"district":{"key":"08136","name":"Ostalbkreis","type":"Landkreis"},"federalState":{"key":"08","name":"Baden-Württemberg"}},{"name":"Eichenstr.","postalCode":"73486","locality":"Adelmannsfelden","municipality":{"key":"08136003","name":"Adelmannsfelden","type":"Kreisangehörige_Gemeinde"},"district":{"key":"08136","name":"Ostalbkreis","type":"Landkreis"},"federalState":{"key":"08","name":"Baden-Württemberg"}},{"name":"Eiwaldsträßchen","postalCode":"73486","locality":"Adelmannsfelden","municipality":{"key":"08136003","name":"Adelmannsfelden","type":"Kreisangehörige_Gemeinde"},"district":{"key":"08136","name":"Ostalbkreis","type":"Landkreis"},"federalState":{"key":"08","name":"Baden-Württemberg"}},{"name":"Erlenstr.","postalCode":"73486","locality":"Adelmannsfelden","municipality":{"key":"08136003","name":"Adelmannsfelden","type":"Kreisangehörige_Gemeinde"},"district":{"key":"08136","name":"Ostalbkreis","type":"Landkreis"},"federalState":{"key":"08","name":"Baden-Württemberg"}},{"name":"Eschenweg","postalCode":"73486","locality":"Adelmannsfelden","municipality":{"key":"08136003","name":"Adelmannsfelden","type":"Kreisangehörige_Gemeinde"},"district":{"key":"08136","name":"Ostalbkreis","type":"Landkreis"},"federalState":{"key":"08","name":"Baden-Württemberg"}},{"name":"Falkenstr.","postalCode":"73486","locality":"Adelmannsfelden","municipality":{"key":"08136003","name":"Adelmannsfelden","type":"Kreisangehörige_Gemeinde"},"district":{"key":"08136","name":"Ostalbkreis","type":"Landkreis"},"federalState":{"key":"08","name":"Baden-Württemberg"}},{"name":"Fasanenweg","postalCode":"73486","locality":"Adelmannsfelden","municipality":{"key":"08136003","name":"Adelmannsfelden","type":"Kreisangehörige_Gemeinde"},"district":{"key":"08136","name":"Ostalbkreis","type":"Landkreis"},"federalState":{"key":"08","name":"Baden-Württemberg"}},{"name":"Fichtenweg","postalCode":"73486","locality":"Adelmannsfelden","municipality":{"key":"08136003","name":"Adelmannsfelden","type":"Kreisangehörige_Gemeinde"},"district":{"key":"08136","name":"Ostalbkreis","type":"Landkreis"},"federalState":{"key":"08","name":"Baden-Württemberg"}},{"name":"Finkenstr.","postalCode":"73486","locality":"Adelmannsfelden","municipality":{"key":"08136003","name":"Adelmannsfelden","type":"Kreisangehörige_Gemeinde"},"district":{"key":"08136","name":"Ostalbkreis","type":"Landkreis"},"federalState":{"key":"08","name":"Baden-Württemberg"}},{"name":"Gaisbachweg","postalCode":"73486","locality":"Adelmannsfelden","municipality":{"key":"08136003","name":"Adelmannsfelden","type":"Kreisangehörige_Gemeinde"},"district":{"key":"08136","name":"Ostalbkreis","type":"Landkreis"},"federalState":{"key":"08","name":"Baden-Württemberg"}},{"name":"Goethestr.","postalCode":"73486","locality":"Adelmannsfelden","municipality":{"key":"08136003","name":"Adelmannsfelden","type":"Kreisangehörige_Gemeinde"},"district":{"key":"08136","name":"Ostalbkreis","type":"Landkreis"},"federalState":{"key":"08","name":"Baden-Württemberg"}},{"name":"Hauptstr.","postalCode":"73486","locality":"Adelmannsfelden","municipality":{"key":"08136003","name":"Adelmannsfelden","type":"Kreisangehörige_Gemeinde"},"district":{"key":"08136","name":"Ostalbkreis","type":"Landkreis"},"federalState":{"key":"08","name":"Baden-Württemberg"}},{"name":"Hölderlinstr.","postalCode":"73486","locality":"Adelmannsfelden","municipality":{"key":"08136003","name":"Adelmannsfelden","type":"Kreisangehörige_Gemeinde"},"district":{"key":"08136","name":"Ostalbkreis","type":"Landkreis"},"federalState":{"key":"08","name":"Baden-Württemberg"}},{"name":"Jägerackerhangweg","postalCode":"73486","locality":"Adelmannsfelden","municipality":{"key":"08136003","name":"Adelmannsfelden","type":"Kreisangehörige_Gemeinde"},"district":{"key":"08136","name":"Ostalbkreis","type":"Landkreis"},"federalState":{"key":"08","name":"Baden-Württemberg"}},{"name":"Jägerackerstr.","postalCode":"73486","locality":"Adelmannsfelden","municipality":{"key":"08136003","name":"Adelmannsfelden","type":"Kreisangehörige_Gemeinde"},"district":{"key":"08136","name":"Ostalbkreis","type":"Landkreis"},"federalState":{"key":"08","name":"Baden-Württemberg"}},{"name":"Jägerackerweg","postalCode":"73486","locality":"Adelmannsfelden","municipality":{"key":"08136003","name":"Adelmannsfelden","type":"Kreisangehörige_Gemeinde"},"district":{"key":"08136","name":"Ostalbkreis","type":"Landkreis"},"federalState":{"key":"08","name":"Baden-Württemberg"}},{"name":"Kappelberg","postalCode":"73486","locality":"Adelmannsfelden","municipality":{"key":"08136003","name":"Adelmannsfelden","type":"Kreisangehörige_Gemeinde"},"district":{"key":"08136","name":"Ostalbkreis","type":"Landkreis"},"federalState":{"key":"08","name":"Baden-Württemberg"}},{"name":"Kastanienweg","postalCode":"73486","locality":"Adelmannsfelden","municipality":{"key":"08136003","name":"Adelmannsfelden","type":"Kreisangehörige_Gemeinde"},"district":{"key":"08136","name":"Ostalbkreis","type":"Landkreis"},"federalState":{"key":"08","name":"Baden-Württemberg"}},{"name":"Katzenschwanzweg","postalCode":"73486","locality":"Adelmannsfelden","municipality":{"key":"08136003","name":"Adelmannsfelden","type":"Kreisangehörige_Gemeinde"},"district":{"key":"08136","name":"Ostalbkreis","type":"Landkreis"},"federalState":{"key":"08","name":"Baden-Württemberg"}},{"name":"Kiefernweg","postalCode":"73486","locality":"Adelmannsfelden","municipality":{"key":"08136003","name":"Adelmannsfelden","type":"Kreisangehörige_Gemeinde"},"district":{"key":"08136","name":"Ostalbkreis","type":"Landkreis"},"federalState":{"key":"08","name":"Baden-Württemberg"}},{"name":"Lerchenstr.","postalCode":"73486","locality":"Adelmannsfelden","municipality":{"key":"08136003","name":"Adelmannsfelden","type":"Kreisangehörige_Gemeinde"},"district":{"key":"08136","name":"Ostalbkreis","type":"Landkreis"},"federalState":{"key":"08","name":"Baden-Württemberg"}},{"name":"Lessingstr.","postalCode":"73486","locality":"Adelmannsfelden","municipality":{"key":"08136003","name":"Adelmannsfelden","type":"Kreisangehörige_Gemeinde"},"district":{"key":"08136","name":"Ostalbkreis","type":"Landkreis"},"federalState":{"key":"08","name":"Baden-Württemberg"}},{"name":"Lettengasse","postalCode":"73486","locality":"Adelmannsfelden","municipality":{"key":"08136003","name":"Adelmannsfelden","type":"Kreisangehörige_Gemeinde"},"district":{"key":"08136","name":"Ostalbkreis","type":"Landkreis"},"federalState":{"key":"08","name":"Baden-Württemberg"}},{"name":"Lindenstr.","postalCode":"73486","locality":"Adelmannsfelden","municipality":{"key":"08136003","name":"Adelmannsfelden","type":"Kreisangehörige_Gemeinde"},"district":{"key":"08136","name":"Ostalbkreis","type":"Landkreis"},"federalState":{"key":"08","name":"Baden-Württemberg"}},{"name":"Mäderplanie","postalCode":"73486","locality":"Adelmannsfelden","municipality":{"key":"08136003","name":"Adelmannsfelden","type":"Kreisangehörige_Gemeinde"},"district":{"key":"08136","name":"Ostalbkreis","type":"Landkreis"},"federalState":{"key":"08","name":"Baden-Württemberg"}},{"name":"Mäderstr.","postalCode":"73486","locality":"Adelmannsfelden","municipality":{"key":"08136003","name":"Adelmannsfelden","type":"Kreisangehörige_Gemeinde"},"district":{"key":"08136","name":"Ostalbkreis","type":"Landkreis"},"federalState":{"key":"08","name":"Baden-Württemberg"}},{"name":"Meisenstr.","postalCode":"73486","locality":"Adelmannsfelden","municipality":{"key":"08136003","name":"Adelmannsfelden","type":"Kreisangehörige_Gemeinde"},"district":{"key":"08136","name":"Ostalbkreis","type":"Landkreis"},"federalState":{"key":"08","name":"Baden-Württemberg"}},{"name":"Mörikestr.","postalCode":"73486","locality":"Adelmannsfelden","municipality":{"key":"08136003","name":"Adelmannsfelden","type":"Kreisangehörige_Gemeinde"},"district":{"key":"08136","name":"Ostalbkreis","type":"Landkreis"},"federalState":{"key":"08","name":"Baden-Württemberg"}},{"name":"Nelkenweg","postalCode":"73486","locality":"Adelmannsfelden","municipality":{"key":"08136003","name":"Adelmannsfelden","type":"Kreisangehörige_Gemeinde"},"district":{"key":"08136","name":"Ostalbkreis","type":"Landkreis"},"federalState":{"key":"08","name":"Baden-Württemberg"}},{"name":"Rottalsträßchen","postalCode":"73486","locality":"Adelmannsfelden","municipality":{"key":"08136003","name":"Adelmannsfelden","type":"Kreisangehörige_Gemeinde"},"district":{"key":"08136","name":"Ostalbkreis","type":"Landkreis"},"federalState":{"key":"08","name":"Baden-Württemberg"}},{"name":"Schillerstr.","postalCode":"73486","locality":"Adelmannsfelden","municipality":{"key":"08136003","name":"Adelmannsfelden","type":"Kreisangehörige_Gemeinde"},"district":{"key":"08136","name":"Ostalbkreis","type":"Landkreis"},"federalState":{"key":"08","name":"Baden-Württemberg"}},{"name":"Schloßstr.","postalCode":"73486","locality":"Adelmannsfelden","municipality":{"key":"08136003","name":"Adelmannsfelden","type":"Kreisangehörige_Gemeinde"},"district":{"key":"08136","name":"Ostalbkreis","type":"Landkreis"},"federalState":{"key":"08","name":"Baden-Württemberg"}},{"name":"Schwalbenstr.","postalCode":"73486","locality":"Adelmannsfelden","municipality":{"key":"08136003","name":"Adelmannsfelden","type":"Kreisangehörige_Gemeinde"},"district":{"key":"08136","name":"Ostalbkreis","type":"Landkreis"},"federalState":{"key":"08","name":"Baden-Württemberg"}},{"name":"Schwarzlachplanie","postalCode":"73486","locality":"Adelmannsfelden","municipality":{"key":"08136003","name":"Adelmannsfelden","type":"Kreisangehörige_Gemeinde"},"district":{"key":"08136","name":"Ostalbkreis","type":"Landkreis"},"federalState":{"key":"08","name":"Baden-Württemberg"}},{"name":"Steinbassweg","postalCode":"73486","locality":"Adelmannsfelden","municipality":{"key":"08136003","name":"Adelmannsfelden","type":"Kreisangehörige_Gemeinde"},"district":{"key":"08136","name":"Ostalbkreis","type":"Landkreis"},"federalState":{"key":"08","name":"Baden-Württemberg"}},{"name":"Steinklingenweg","postalCode":"73486","locality":"Adelmannsfelden","municipality":{"key":"08136003","name":"Adelmannsfelden","type":"Kreisangehörige_Gemeinde"},"district":{"key":"08136","name":"Ostalbkreis","type":"Landkreis"},"federalState":{"key":"08","name":"Baden-Württemberg"}},{"name":"Tannenweg","postalCode":"73486","locality":"Adelmannsfelden","municipality":{"key":"08136003","name":"Adelmannsfelden","type":"Kreisangehörige_Gemeinde"},"district":{"key":"08136","name":"Ostalbkreis","type":"Landkreis"},"federalState":{"key":"08","name":"Baden-Württemberg"}},{"name":"Tulpenweg","postalCode":"73486","locality":"Adelmannsfelden","municipality":{"key":"08136003","name":"Adelmannsfelden","type":"Kreisangehörige_Gemeinde"},"district":{"key":"08136","name":"Ostalbkreis","type":"Landkreis"},"federalState":{"key":"08","name":"Baden-Württemberg"}},{"name":"Uhlandstr.","postalCode":"73486","locality":"Adelmannsfelden","municipality":{"key":"08136003","name":"Adelmannsfelden","type":"Kreisangehörige_Gemeinde"},"district":{"key":"08136","name":"Ostalbkreis","type":"Landkreis"},"federalState":{"key":"08","name":"Baden-Württemberg"}},{"name":"Ulmenstr.","postalCode":"73486","locality":"Adelmannsfelden","municipality":{"key":"08136003","name":"Adelmannsfelden","type":"Kreisangehörige_Gemeinde"},"district":{"key":"08136","name":"Ostalbkreis","type":"Landkreis"},"federalState":{"key":"08","name":"Baden-Württemberg"}},{"name":"Virngrundstr.","postalCode":"73486","locality":"Adelmannsfelden","municipality":{"key":"08136003","name":"Adelmannsfelden","type":"Kreisangehörige_Gemeinde"},"district":{"key":"08136","name":"Ostalbkreis","type":"Landkreis"},"federalState":{"key":"08","name":"Baden-Württemberg"}},{"name":"Vorhardsweilerweg","postalCode":"73486","locality":"Adelmannsfelden","municipality":{"key":"08136003","name":"Adelmannsfelden","type":"Kreisangehörige_Gemeinde"},"district":{"key":"08136","name":"Ostalbkreis","type":"Landkreis"},"federalState":{"key":"08","name":"Baden-Württemberg"}},]