[{"name":"Bachstr.","postalCode":"54455","locality":"Serrig","municipality":{"key":"07235126","name":"Serrig","type":"Kreisangehörige_Gemeinde"},"district":{"key":"07235","name":"Trier-Saarburg","type":"Landkreis"},"federalState":{"key":"07","name":"Rheinland-Pfalz"}},{"name":"Bahnhofstr.","postalCode":"54455","locality":"Serrig","municipality":{"key":"07235126","name":"Serrig","type":"Kreisangehörige_Gemeinde"},"district":{"key":"07235","name":"Trier-Saarburg","type":"Landkreis"},"federalState":{"key":"07","name":"Rheinland-Pfalz"}},{"name":"Charbuoyer Str.","postalCode":"54455","locality":"Serrig","municipality":{"key":"07235126","name":"Serrig","type":"Kreisangehörige_Gemeinde"},"district":{"key":"07235","name":"Trier-Saarburg","type":"Landkreis"},"federalState":{"key":"07","name":"Rheinland-Pfalz"}},{"name":"Domänenstr.","postalCode":"54455","locality":"Serrig","municipality":{"key":"07235126","name":"Serrig","type":"Kreisangehörige_Gemeinde"},"district":{"key":"07235","name":"Trier-Saarburg","type":"Landkreis"},"federalState":{"key":"07","name":"Rheinland-Pfalz"}},{"name":"Hauptstr.","postalCode":"54455","locality":"Serrig","municipality":{"key":"07235126","name":"Serrig","type":"Kreisangehörige_Gemeinde"},"district":{"key":"07235","name":"Trier-Saarburg","type":"Landkreis"},"federalState":{"key":"07","name":"Rheinland-Pfalz"}},{"name":"Hinter Erl","postalCode":"54455","locality":"Serrig","municipality":{"key":"07235126","name":"Serrig","type":"Kreisangehörige_Gemeinde"},"district":{"key":"07235","name":"Trier-Saarburg","type":"Landkreis"},"federalState":{"key":"07","name":"Rheinland-Pfalz"}},{"name":"Im Erlenbungert","postalCode":"54455","locality":"Serrig","municipality":{"key":"07235126","name":"Serrig","type":"Kreisangehörige_Gemeinde"},"district":{"key":"07235","name":"Trier-Saarburg","type":"Landkreis"},"federalState":{"key":"07","name":"Rheinland-Pfalz"}},{"name":"Im Siebenborn","postalCode":"54455","locality":"Serrig","municipality":{"key":"07235126","name":"Serrig","type":"Kreisangehörige_Gemeinde"},"district":{"key":"07235","name":"Trier-Saarburg","type":"Landkreis"},"federalState":{"key":"07","name":"Rheinland-Pfalz"}},{"name":"In den Dörrwiesen","postalCode":"54455","locality":"Serrig","municipality":{"key":"07235126","name":"Serrig","type":"Kreisangehörige_Gemeinde"},"district":{"key":"07235","name":"Trier-Saarburg","type":"Landkreis"},"federalState":{"key":"07","name":"Rheinland-Pfalz"}},{"name":"In der Langfuhr","postalCode":"54455","locality":"Serrig","municipality":{"key":"07235126","name":"Serrig","type":"Kreisangehörige_Gemeinde"},"district":{"key":"07235","name":"Trier-Saarburg","type":"Landkreis"},"federalState":{"key":"07","name":"Rheinland-Pfalz"}},{"name":"Losheimerstr.","postalCode":"54455","locality":"Serrig","municipality":{"key":"07235126","name":"Serrig","type":"Kreisangehörige_Gemeinde"},"district":{"key":"07235","name":"Trier-Saarburg","type":"Landkreis"},"federalState":{"key":"07","name":"Rheinland-Pfalz"}},{"name":"Martinusstr.","postalCode":"54455","locality":"Serrig","municipality":{"key":"07235126","name":"Serrig","type":"Kreisangehörige_Gemeinde"},"district":{"key":"07235","name":"Trier-Saarburg","type":"Landkreis"},"federalState":{"key":"07","name":"Rheinland-Pfalz"}},{"name":"Preetzer Weg","postalCode":"54455","locality":"Serrig","municipality":{"key":"07235126","name":"Serrig","type":"Kreisangehörige_Gemeinde"},"district":{"key":"07235","name":"Trier-Saarburg","type":"Landkreis"},"federalState":{"key":"07","name":"Rheinland-Pfalz"}},{"name":"Römerstr.","postalCode":"54455","locality":"Serrig","municipality":{"key":"07235126","name":"Serrig","type":"Kreisangehörige_Gemeinde"},"district":{"key":"07235","name":"Trier-Saarburg","type":"Landkreis"},"federalState":{"key":"07","name":"Rheinland-Pfalz"}},{"name":"Saarsteinstr.","postalCode":"54455","locality":"Serrig","municipality":{"key":"07235126","name":"Serrig","type":"Kreisangehörige_Gemeinde"},"district":{"key":"07235","name":"Trier-Saarburg","type":"Landkreis"},"federalState":{"key":"07","name":"Rheinland-Pfalz"}},{"name":"Saarstr.","postalCode":"54455","locality":"Serrig","municipality":{"key":"07235126","name":"Serrig","type":"Kreisangehörige_Gemeinde"},"district":{"key":"07235","name":"Trier-Saarburg","type":"Landkreis"},"federalState":{"key":"07","name":"Rheinland-Pfalz"}},{"name":"Seiftweg","postalCode":"54455","locality":"Serrig","municipality":{"key":"07235126","name":"Serrig","type":"Kreisangehörige_Gemeinde"},"district":{"key":"07235","name":"Trier-Saarburg","type":"Landkreis"},"federalState":{"key":"07","name":"Rheinland-Pfalz"}},{"name":"Vorm Würzberg","postalCode":"54455","locality":"Serrig","municipality":{"key":"07235126","name":"Serrig","type":"Kreisangehörige_Gemeinde"},"district":{"key":"07235","name":"Trier-Saarburg","type":"Landkreis"},"federalState":{"key":"07","name":"Rheinland-Pfalz"}},]