[{"name":"Adolf-Kolping-Weg","postalCode":"37191","locality":"Katlenburg-Lindau","municipality":{"key":"03155007","name":"Katlenburg-Lindau","type":"Kreisangehörige_Gemeinde"},"district":{"key":"03155","name":"Northeim","type":"Landkreis"},"federalState":{"key":"03","name":"Niedersachsen"}},{"name":"Ahnewende","postalCode":"37191","locality":"Katlenburg-Lindau","municipality":{"key":"03155007","name":"Katlenburg-Lindau","type":"Kreisangehörige_Gemeinde"},"district":{"key":"03155","name":"Northeim","type":"Landkreis"},"federalState":{"key":"03","name":"Niedersachsen"}},{"name":"Albert-Einstein-Str.","postalCode":"37191","locality":"Katlenburg-Lindau","municipality":{"key":"03155007","name":"Katlenburg-Lindau","type":"Kreisangehörige_Gemeinde"},"district":{"key":"03155","name":"Northeim","type":"Landkreis"},"federalState":{"key":"03","name":"Niedersachsen"}},{"name":"Albrechtshausen","postalCode":"37191","locality":"Katlenburg-Lindau","municipality":{"key":"03155007","name":"Katlenburg-Lindau","type":"Kreisangehörige_Gemeinde"},"district":{"key":"03155","name":"Northeim","type":"Landkreis"},"federalState":{"key":"03","name":"Niedersachsen"}},{"name":"Alte Feuerwache","postalCode":"37191","locality":"Katlenburg-Lindau","municipality":{"key":"03155007","name":"Katlenburg-Lindau","type":"Kreisangehörige_Gemeinde"},"district":{"key":"03155","name":"Northeim","type":"Landkreis"},"federalState":{"key":"03","name":"Niedersachsen"}},{"name":"Altes Feld","postalCode":"37191","locality":"Katlenburg-Lindau","municipality":{"key":"03155007","name":"Katlenburg-Lindau","type":"Kreisangehörige_Gemeinde"},"district":{"key":"03155","name":"Northeim","type":"Landkreis"},"federalState":{"key":"03","name":"Niedersachsen"}},{"name":"Am Anger","postalCode":"37191","locality":"Katlenburg-Lindau","municipality":{"key":"03155007","name":"Katlenburg-Lindau","type":"Kreisangehörige_Gemeinde"},"district":{"key":"03155","name":"Northeim","type":"Landkreis"},"federalState":{"key":"03","name":"Niedersachsen"}},{"name":"Am Bahndamm","postalCode":"37191","locality":"Katlenburg-Lindau","municipality":{"key":"03155007","name":"Katlenburg-Lindau","type":"Kreisangehörige_Gemeinde"},"district":{"key":"03155","name":"Northeim","type":"Landkreis"},"federalState":{"key":"03","name":"Niedersachsen"}},{"name":"Am Bruche","postalCode":"37191","locality":"Katlenburg-Lindau","municipality":{"key":"03155007","name":"Katlenburg-Lindau","type":"Kreisangehörige_Gemeinde"},"district":{"key":"03155","name":"Northeim","type":"Landkreis"},"federalState":{"key":"03","name":"Niedersachsen"}},{"name":"Am Eichenstieg","postalCode":"37191","locality":"Katlenburg-Lindau","municipality":{"key":"03155007","name":"Katlenburg-Lindau","type":"Kreisangehörige_Gemeinde"},"district":{"key":"03155","name":"Northeim","type":"Landkreis"},"federalState":{"key":"03","name":"Niedersachsen"}},{"name":"Am Feuerwehrhaus","postalCode":"37191","locality":"Katlenburg-Lindau","municipality":{"key":"03155007","name":"Katlenburg-Lindau","type":"Kreisangehörige_Gemeinde"},"district":{"key":"03155","name":"Northeim","type":"Landkreis"},"federalState":{"key":"03","name":"Niedersachsen"}},{"name":"Am Hagen","postalCode":"37191","locality":"Katlenburg-Lindau","municipality":{"key":"03155007","name":"Katlenburg-Lindau","type":"Kreisangehörige_Gemeinde"},"district":{"key":"03155","name":"Northeim","type":"Landkreis"},"federalState":{"key":"03","name":"Niedersachsen"}},{"name":"Am Heidberg","postalCode":"37191","locality":"Katlenburg-Lindau","municipality":{"key":"03155007","name":"Katlenburg-Lindau","type":"Kreisangehörige_Gemeinde"},"district":{"key":"03155","name":"Northeim","type":"Landkreis"},"federalState":{"key":"03","name":"Niedersachsen"}},{"name":"Am Hungerberg","postalCode":"37191","locality":"Katlenburg-Lindau","municipality":{"key":"03155007","name":"Katlenburg-Lindau","type":"Kreisangehörige_Gemeinde"},"district":{"key":"03155","name":"Northeim","type":"Landkreis"},"federalState":{"key":"03","name":"Niedersachsen"}},{"name":"Am Katelberg","postalCode":"37191","locality":"Katlenburg-Lindau","municipality":{"key":"03155007","name":"Katlenburg-Lindau","type":"Kreisangehörige_Gemeinde"},"district":{"key":"03155","name":"Northeim","type":"Landkreis"},"federalState":{"key":"03","name":"Niedersachsen"}},{"name":"Am Kirchberg","postalCode":"37191","locality":"Katlenburg-Lindau","municipality":{"key":"03155007","name":"Katlenburg-Lindau","type":"Kreisangehörige_Gemeinde"},"district":{"key":"03155","name":"Northeim","type":"Landkreis"},"federalState":{"key":"03","name":"Niedersachsen"}},{"name":"Am Kreuzberg","postalCode":"37191","locality":"Katlenburg-Lindau","municipality":{"key":"03155007","name":"Katlenburg-Lindau","type":"Kreisangehörige_Gemeinde"},"district":{"key":"03155","name":"Northeim","type":"Landkreis"},"federalState":{"key":"03","name":"Niedersachsen"}},{"name":"Am Mühlengraben","postalCode":"37191","locality":"Katlenburg-Lindau","municipality":{"key":"03155007","name":"Katlenburg-Lindau","type":"Kreisangehörige_Gemeinde"},"district":{"key":"03155","name":"Northeim","type":"Landkreis"},"federalState":{"key":"03","name":"Niedersachsen"}},{"name":"Am Rhumeanger","postalCode":"37191","locality":"Katlenburg-Lindau","municipality":{"key":"03155007","name":"Katlenburg-Lindau","type":"Kreisangehörige_Gemeinde"},"district":{"key":"03155","name":"Northeim","type":"Landkreis"},"federalState":{"key":"03","name":"Niedersachsen"}},{"name":"Am Rhumedamm","postalCode":"37191","locality":"Katlenburg-Lindau","municipality":{"key":"03155007","name":"Katlenburg-Lindau","type":"Kreisangehörige_Gemeinde"},"district":{"key":"03155","name":"Northeim","type":"Landkreis"},"federalState":{"key":"03","name":"Niedersachsen"}},{"name":"Am Roten Ufer","postalCode":"37191","locality":"Katlenburg-Lindau","municipality":{"key":"03155007","name":"Katlenburg-Lindau","type":"Kreisangehörige_Gemeinde"},"district":{"key":"03155","name":"Northeim","type":"Landkreis"},"federalState":{"key":"03","name":"Niedersachsen"}},{"name":"Am Schiefen Berg","postalCode":"37191","locality":"Katlenburg-Lindau","municipality":{"key":"03155007","name":"Katlenburg-Lindau","type":"Kreisangehörige_Gemeinde"},"district":{"key":"03155","name":"Northeim","type":"Landkreis"},"federalState":{"key":"03","name":"Niedersachsen"}},{"name":"Am Sportheim","postalCode":"37191","locality":"Katlenburg-Lindau","municipality":{"key":"03155007","name":"Katlenburg-Lindau","type":"Kreisangehörige_Gemeinde"},"district":{"key":"03155","name":"Northeim","type":"Landkreis"},"federalState":{"key":"03","name":"Niedersachsen"}},{"name":"Am Sportplatz","postalCode":"37191","locality":"Katlenburg-Lindau","municipality":{"key":"03155007","name":"Katlenburg-Lindau","type":"Kreisangehörige_Gemeinde"},"district":{"key":"03155","name":"Northeim","type":"Landkreis"},"federalState":{"key":"03","name":"Niedersachsen"}},{"name":"Am Sterthagen","postalCode":"37191","locality":"Katlenburg-Lindau","municipality":{"key":"03155007","name":"Katlenburg-Lindau","type":"Kreisangehörige_Gemeinde"},"district":{"key":"03155","name":"Northeim","type":"Landkreis"},"federalState":{"key":"03","name":"Niedersachsen"}},{"name":"Am Tannhof","postalCode":"37191","locality":"Katlenburg-Lindau","municipality":{"key":"03155007","name":"Katlenburg-Lindau","type":"Kreisangehörige_Gemeinde"},"district":{"key":"03155","name":"Northeim","type":"Landkreis"},"federalState":{"key":"03","name":"Niedersachsen"}},{"name":"Am Thie","postalCode":"37191","locality":"Katlenburg-Lindau","municipality":{"key":"03155007","name":"Katlenburg-Lindau","type":"Kreisangehörige_Gemeinde"},"district":{"key":"03155","name":"Northeim","type":"Landkreis"},"federalState":{"key":"03","name":"Niedersachsen"}},{"name":"Amtshof","postalCode":"37191","locality":"Katlenburg-Lindau","municipality":{"key":"03155007","name":"Katlenburg-Lindau","type":"Kreisangehörige_Gemeinde"},"district":{"key":"03155","name":"Northeim","type":"Landkreis"},"federalState":{"key":"03","name":"Niedersachsen"}},{"name":"Am Umspannwerk","postalCode":"37191","locality":"Katlenburg-Lindau","municipality":{"key":"03155007","name":"Katlenburg-Lindau","type":"Kreisangehörige_Gemeinde"},"district":{"key":"03155","name":"Northeim","type":"Landkreis"},"federalState":{"key":"03","name":"Niedersachsen"}},{"name":"Am Wehberg","postalCode":"37191","locality":"Katlenburg-Lindau","municipality":{"key":"03155007","name":"Katlenburg-Lindau","type":"Kreisangehörige_Gemeinde"},"district":{"key":"03155","name":"Northeim","type":"Landkreis"},"federalState":{"key":"03","name":"Niedersachsen"}},{"name":"Am Weinberg","postalCode":"37191","locality":"Katlenburg-Lindau","municipality":{"key":"03155007","name":"Katlenburg-Lindau","type":"Kreisangehörige_Gemeinde"},"district":{"key":"03155","name":"Northeim","type":"Landkreis"},"federalState":{"key":"03","name":"Niedersachsen"}},{"name":"Am Zimmerplatz","postalCode":"37191","locality":"Katlenburg-Lindau","municipality":{"key":"03155007","name":"Katlenburg-Lindau","type":"Kreisangehörige_Gemeinde"},"district":{"key":"03155","name":"Northeim","type":"Landkreis"},"federalState":{"key":"03","name":"Niedersachsen"}},{"name":"An der Rhume","postalCode":"37191","locality":"Katlenburg-Lindau","municipality":{"key":"03155007","name":"Katlenburg-Lindau","type":"Kreisangehörige_Gemeinde"},"district":{"key":"03155","name":"Northeim","type":"Landkreis"},"federalState":{"key":"03","name":"Niedersachsen"}},{"name":"Angerweg","postalCode":"37191","locality":"Katlenburg-Lindau","municipality":{"key":"03155007","name":"Katlenburg-Lindau","type":"Kreisangehörige_Gemeinde"},"district":{"key":"03155","name":"Northeim","type":"Landkreis"},"federalState":{"key":"03","name":"Niedersachsen"}},{"name":"Aspeweg","postalCode":"37191","locality":"Katlenburg-Lindau","municipality":{"key":"03155007","name":"Katlenburg-Lindau","type":"Kreisangehörige_Gemeinde"},"district":{"key":"03155","name":"Northeim","type":"Landkreis"},"federalState":{"key":"03","name":"Niedersachsen"}},{"name":"Asternstr.","postalCode":"37191","locality":"Katlenburg-Lindau","municipality":{"key":"03155007","name":"Katlenburg-Lindau","type":"Kreisangehörige_Gemeinde"},"district":{"key":"03155","name":"Northeim","type":"Landkreis"},"federalState":{"key":"03","name":"Niedersachsen"}},{"name":"Auf den Steinen","postalCode":"37191","locality":"Katlenburg-Lindau","municipality":{"key":"03155007","name":"Katlenburg-Lindau","type":"Kreisangehörige_Gemeinde"},"district":{"key":"03155","name":"Northeim","type":"Landkreis"},"federalState":{"key":"03","name":"Niedersachsen"}},{"name":"Auf der Kruk","postalCode":"37191","locality":"Katlenburg-Lindau","municipality":{"key":"03155007","name":"Katlenburg-Lindau","type":"Kreisangehörige_Gemeinde"},"district":{"key":"03155","name":"Northeim","type":"Landkreis"},"federalState":{"key":"03","name":"Niedersachsen"}},{"name":"Bahnhofsdamm","postalCode":"37191","locality":"Katlenburg-Lindau","municipality":{"key":"03155007","name":"Katlenburg-Lindau","type":"Kreisangehörige_Gemeinde"},"district":{"key":"03155","name":"Northeim","type":"Landkreis"},"federalState":{"key":"03","name":"Niedersachsen"}},{"name":"Bahnhofstr.","postalCode":"37191","locality":"Katlenburg-Lindau","municipality":{"key":"03155007","name":"Katlenburg-Lindau","type":"Kreisangehörige_Gemeinde"},"district":{"key":"03155","name":"Northeim","type":"Landkreis"},"federalState":{"key":"03","name":"Niedersachsen"}},{"name":"Bärengrundweg","postalCode":"37191","locality":"Katlenburg-Lindau","municipality":{"key":"03155007","name":"Katlenburg-Lindau","type":"Kreisangehörige_Gemeinde"},"district":{"key":"03155","name":"Northeim","type":"Landkreis"},"federalState":{"key":"03","name":"Niedersachsen"}},{"name":"Bergstr.","postalCode":"37191","locality":"Katlenburg-Lindau","municipality":{"key":"03155007","name":"Katlenburg-Lindau","type":"Kreisangehörige_Gemeinde"},"district":{"key":"03155","name":"Northeim","type":"Landkreis"},"federalState":{"key":"03","name":"Niedersachsen"}},{"name":"Bethegasse","postalCode":"37191","locality":"Katlenburg-Lindau","municipality":{"key":"03155007","name":"Katlenburg-Lindau","type":"Kreisangehörige_Gemeinde"},"district":{"key":"03155","name":"Northeim","type":"Landkreis"},"federalState":{"key":"03","name":"Niedersachsen"}},{"name":"Binauer Str.","postalCode":"37191","locality":"Katlenburg-Lindau","municipality":{"key":"03155007","name":"Katlenburg-Lindau","type":"Kreisangehörige_Gemeinde"},"district":{"key":"03155","name":"Northeim","type":"Landkreis"},"federalState":{"key":"03","name":"Niedersachsen"}},{"name":"Birkenweg","postalCode":"37191","locality":"Katlenburg-Lindau","municipality":{"key":"03155007","name":"Katlenburg-Lindau","type":"Kreisangehörige_Gemeinde"},"district":{"key":"03155","name":"Northeim","type":"Landkreis"},"federalState":{"key":"03","name":"Niedersachsen"}},{"name":"Bischof-Diederich-Platz","postalCode":"37191","locality":"Katlenburg-Lindau","municipality":{"key":"03155007","name":"Katlenburg-Lindau","type":"Kreisangehörige_Gemeinde"},"district":{"key":"03155","name":"Northeim","type":"Landkreis"},"federalState":{"key":"03","name":"Niedersachsen"}},{"name":"Bornstr.","postalCode":"37191","locality":"Katlenburg-Lindau","municipality":{"key":"03155007","name":"Katlenburg-Lindau","type":"Kreisangehörige_Gemeinde"},"district":{"key":"03155","name":"Northeim","type":"Landkreis"},"federalState":{"key":"03","name":"Niedersachsen"}},{"name":"Brandisbreite","postalCode":"37191","locality":"Katlenburg-Lindau","municipality":{"key":"03155007","name":"Katlenburg-Lindau","type":"Kreisangehörige_Gemeinde"},"district":{"key":"03155","name":"Northeim","type":"Landkreis"},"federalState":{"key":"03","name":"Niedersachsen"}},{"name":"Breslauer Str.","postalCode":"37191","locality":"Katlenburg-Lindau","municipality":{"key":"03155007","name":"Katlenburg-Lindau","type":"Kreisangehörige_Gemeinde"},"district":{"key":"03155","name":"Northeim","type":"Landkreis"},"federalState":{"key":"03","name":"Niedersachsen"}},{"name":"Brockenblick","postalCode":"37191","locality":"Katlenburg-Lindau","municipality":{"key":"03155007","name":"Katlenburg-Lindau","type":"Kreisangehörige_Gemeinde"},"district":{"key":"03155","name":"Northeim","type":"Landkreis"},"federalState":{"key":"03","name":"Niedersachsen"}},{"name":"Brückenstr.","postalCode":"37191","locality":"Katlenburg-Lindau","municipality":{"key":"03155007","name":"Katlenburg-Lindau","type":"Kreisangehörige_Gemeinde"},"district":{"key":"03155","name":"Northeim","type":"Landkreis"},"federalState":{"key":"03","name":"Niedersachsen"}},{"name":"Buchenweg","postalCode":"37191","locality":"Katlenburg-Lindau","municipality":{"key":"03155007","name":"Katlenburg-Lindau","type":"Kreisangehörige_Gemeinde"},"district":{"key":"03155","name":"Northeim","type":"Landkreis"},"federalState":{"key":"03","name":"Niedersachsen"}},{"name":"Bundesstr.","postalCode":"37191","locality":"Katlenburg-Lindau","municipality":{"key":"03155007","name":"Katlenburg-Lindau","type":"Kreisangehörige_Gemeinde"},"district":{"key":"03155","name":"Northeim","type":"Landkreis"},"federalState":{"key":"03","name":"Niedersachsen"}},{"name":"Burgberg","postalCode":"37191","locality":"Katlenburg-Lindau","municipality":{"key":"03155007","name":"Katlenburg-Lindau","type":"Kreisangehörige_Gemeinde"},"district":{"key":"03155","name":"Northeim","type":"Landkreis"},"federalState":{"key":"03","name":"Niedersachsen"}},{"name":"Burgbergschule","postalCode":"37191","locality":"Katlenburg-Lindau","municipality":{"key":"03155007","name":"Katlenburg-Lindau","type":"Kreisangehörige_Gemeinde"},"district":{"key":"03155","name":"Northeim","type":"Landkreis"},"federalState":{"key":"03","name":"Niedersachsen"}},{"name":"Burgstr.","postalCode":"37191","locality":"Katlenburg-Lindau","municipality":{"key":"03155007","name":"Katlenburg-Lindau","type":"Kreisangehörige_Gemeinde"},"district":{"key":"03155","name":"Northeim","type":"Landkreis"},"federalState":{"key":"03","name":"Niedersachsen"}},{"name":"Burgweg","postalCode":"37191","locality":"Katlenburg-Lindau","municipality":{"key":"03155007","name":"Katlenburg-Lindau","type":"Kreisangehörige_Gemeinde"},"district":{"key":"03155","name":"Northeim","type":"Landkreis"},"federalState":{"key":"03","name":"Niedersachsen"}},{"name":"Buschgarten","postalCode":"37191","locality":"Katlenburg-Lindau","municipality":{"key":"03155007","name":"Katlenburg-Lindau","type":"Kreisangehörige_Gemeinde"},"district":{"key":"03155","name":"Northeim","type":"Landkreis"},"federalState":{"key":"03","name":"Niedersachsen"}},{"name":"Carl-Loewe-Weg","postalCode":"37154","locality":"Northeim","municipality":{"key":"03155011","name":"Northeim, Stadt","type":"Stadt"},"district":{"key":"03155","name":"Northeim","type":"Landkreis"},"federalState":{"key":"03","name":"Niedersachsen"}},{"name":"Carl-Orff-Weg","postalCode":"37154","locality":"Northeim","municipality":{"key":"03155011","name":"Northeim, Stadt","type":"Stadt"},"district":{"key":"03155","name":"Northeim","type":"Landkreis"},"federalState":{"key":"03","name":"Niedersachsen"}},{"name":"Carl-Querfurt-Str.","postalCode":"37154","locality":"Northeim","municipality":{"key":"03155011","name":"Northeim, Stadt","type":"Stadt"},"district":{"key":"03155","name":"Northeim","type":"Landkreis"},"federalState":{"key":"03","name":"Niedersachsen"}},{"name":"Chopinweg","postalCode":"37154","locality":"Northeim","municipality":{"key":"03155011","name":"Northeim, Stadt","type":"Stadt"},"district":{"key":"03155","name":"Northeim","type":"Landkreis"},"federalState":{"key":"03","name":"Niedersachsen"}},{"name":"Christoph-Friese-Str.","postalCode":"37154","locality":"Northeim","municipality":{"key":"03155011","name":"Northeim, Stadt","type":"Stadt"},"district":{"key":"03155","name":"Northeim","type":"Landkreis"},"federalState":{"key":"03","name":"Niedersachsen"}},{"name":"Danziger Str.","postalCode":"37191","locality":"Katlenburg-Lindau","municipality":{"key":"03155007","name":"Katlenburg-Lindau","type":"Kreisangehörige_Gemeinde"},"district":{"key":"03155","name":"Northeim","type":"Landkreis"},"federalState":{"key":"03","name":"Niedersachsen"}},{"name":"Dechant-Kasten-Ring","postalCode":"37191","locality":"Katlenburg-Lindau","municipality":{"key":"03155007","name":"Katlenburg-Lindau","type":"Kreisangehörige_Gemeinde"},"district":{"key":"03155","name":"Northeim","type":"Landkreis"},"federalState":{"key":"03","name":"Niedersachsen"}},{"name":"Dechant-Ohsefort-Str.","postalCode":"37191","locality":"Katlenburg-Lindau","municipality":{"key":"03155007","name":"Katlenburg-Lindau","type":"Kreisangehörige_Gemeinde"},"district":{"key":"03155","name":"Northeim","type":"Landkreis"},"federalState":{"key":"03","name":"Niedersachsen"}},{"name":"Diekhof","postalCode":"37191","locality":"Katlenburg-Lindau","municipality":{"key":"03155007","name":"Katlenburg-Lindau","type":"Kreisangehörige_Gemeinde"},"district":{"key":"03155","name":"Northeim","type":"Landkreis"},"federalState":{"key":"03","name":"Niedersachsen"}},{"name":"Dorfstr.","postalCode":"37191","locality":"Katlenburg-Lindau","municipality":{"key":"03155007","name":"Katlenburg-Lindau","type":"Kreisangehörige_Gemeinde"},"district":{"key":"03155","name":"Northeim","type":"Landkreis"},"federalState":{"key":"03","name":"Niedersachsen"}},{"name":"Dorfwinkel","postalCode":"37191","locality":"Katlenburg-Lindau","municipality":{"key":"03155007","name":"Katlenburg-Lindau","type":"Kreisangehörige_Gemeinde"},"district":{"key":"03155","name":"Northeim","type":"Landkreis"},"federalState":{"key":"03","name":"Niedersachsen"}},{"name":"Duhmblick","postalCode":"37191","locality":"Katlenburg-Lindau","municipality":{"key":"03155007","name":"Katlenburg-Lindau","type":"Kreisangehörige_Gemeinde"},"district":{"key":"03155","name":"Northeim","type":"Landkreis"},"federalState":{"key":"03","name":"Niedersachsen"}},{"name":"Eichengrund","postalCode":"37191","locality":"Katlenburg-Lindau","municipality":{"key":"03155007","name":"Katlenburg-Lindau","type":"Kreisangehörige_Gemeinde"},"district":{"key":"03155","name":"Northeim","type":"Landkreis"},"federalState":{"key":"03","name":"Niedersachsen"}},{"name":"Eichholzweg","postalCode":"37191","locality":"Katlenburg-Lindau","municipality":{"key":"03155007","name":"Katlenburg-Lindau","type":"Kreisangehörige_Gemeinde"},"district":{"key":"03155","name":"Northeim","type":"Landkreis"},"federalState":{"key":"03","name":"Niedersachsen"}},{"name":"Eichsfeldstr.","postalCode":"37191","locality":"Katlenburg-Lindau","municipality":{"key":"03155007","name":"Katlenburg-Lindau","type":"Kreisangehörige_Gemeinde"},"district":{"key":"03155","name":"Northeim","type":"Landkreis"},"federalState":{"key":"03","name":"Niedersachsen"}},{"name":"Emil-Koch-Str.","postalCode":"37191","locality":"Katlenburg-Lindau","municipality":{"key":"03155007","name":"Katlenburg-Lindau","type":"Kreisangehörige_Gemeinde"},"district":{"key":"03155","name":"Northeim","type":"Landkreis"},"federalState":{"key":"03","name":"Niedersachsen"}},{"name":"Erlenweg","postalCode":"37191","locality":"Katlenburg-Lindau","municipality":{"key":"03155007","name":"Katlenburg-Lindau","type":"Kreisangehörige_Gemeinde"},"district":{"key":"03155","name":"Northeim","type":"Landkreis"},"federalState":{"key":"03","name":"Niedersachsen"}},{"name":"Eulenburgsweg","postalCode":"37191","locality":"Katlenburg-Lindau","municipality":{"key":"03155007","name":"Katlenburg-Lindau","type":"Kreisangehörige_Gemeinde"},"district":{"key":"03155","name":"Northeim","type":"Landkreis"},"federalState":{"key":"03","name":"Niedersachsen"}},{"name":"Evershäuser Str.","postalCode":"37191","locality":"Katlenburg-Lindau","municipality":{"key":"03155007","name":"Katlenburg-Lindau","type":"Kreisangehörige_Gemeinde"},"district":{"key":"03155","name":"Northeim","type":"Landkreis"},"federalState":{"key":"03","name":"Niedersachsen"}},{"name":"Feldstr.","postalCode":"37191","locality":"Katlenburg-Lindau","municipality":{"key":"03155007","name":"Katlenburg-Lindau","type":"Kreisangehörige_Gemeinde"},"district":{"key":"03155","name":"Northeim","type":"Landkreis"},"federalState":{"key":"03","name":"Niedersachsen"}},{"name":"Fleckenstr.","postalCode":"37191","locality":"Katlenburg-Lindau","municipality":{"key":"03155007","name":"Katlenburg-Lindau","type":"Kreisangehörige_Gemeinde"},"district":{"key":"03155","name":"Northeim","type":"Landkreis"},"federalState":{"key":"03","name":"Niedersachsen"}},{"name":"Fliederstr.","postalCode":"37191","locality":"Katlenburg-Lindau","municipality":{"key":"03155007","name":"Katlenburg-Lindau","type":"Kreisangehörige_Gemeinde"},"district":{"key":"03155","name":"Northeim","type":"Landkreis"},"federalState":{"key":"03","name":"Niedersachsen"}},{"name":"Friedhofsweg","postalCode":"37191","locality":"Katlenburg-Lindau","municipality":{"key":"03155007","name":"Katlenburg-Lindau","type":"Kreisangehörige_Gemeinde"},"district":{"key":"03155","name":"Northeim","type":"Landkreis"},"federalState":{"key":"03","name":"Niedersachsen"}},{"name":"Friedlandweg","postalCode":"37191","locality":"Katlenburg-Lindau","municipality":{"key":"03155007","name":"Katlenburg-Lindau","type":"Kreisangehörige_Gemeinde"},"district":{"key":"03155","name":"Northeim","type":"Landkreis"},"federalState":{"key":"03","name":"Niedersachsen"}},{"name":"Friedrich-Ebert-Str.","postalCode":"37191","locality":"Katlenburg-Lindau","municipality":{"key":"03155007","name":"Katlenburg-Lindau","type":"Kreisangehörige_Gemeinde"},"district":{"key":"03155","name":"Northeim","type":"Landkreis"},"federalState":{"key":"03","name":"Niedersachsen"}},{"name":"Gänsewinkel","postalCode":"37191","locality":"Katlenburg-Lindau","municipality":{"key":"03155007","name":"Katlenburg-Lindau","type":"Kreisangehörige_Gemeinde"},"district":{"key":"03155","name":"Northeim","type":"Landkreis"},"federalState":{"key":"03","name":"Niedersachsen"}},{"name":"Gartenstr.","postalCode":"37191","locality":"Katlenburg-Lindau","municipality":{"key":"03155007","name":"Katlenburg-Lindau","type":"Kreisangehörige_Gemeinde"},"district":{"key":"03155","name":"Northeim","type":"Landkreis"},"federalState":{"key":"03","name":"Niedersachsen"}},{"name":"Georg-Greve-Weg","postalCode":"37191","locality":"Katlenburg-Lindau","municipality":{"key":"03155007","name":"Katlenburg-Lindau","type":"Kreisangehörige_Gemeinde"},"district":{"key":"03155","name":"Northeim","type":"Landkreis"},"federalState":{"key":"03","name":"Niedersachsen"}},{"name":"Glockenberg","postalCode":"37191","locality":"Katlenburg-Lindau","municipality":{"key":"03155007","name":"Katlenburg-Lindau","type":"Kreisangehörige_Gemeinde"},"district":{"key":"03155","name":"Northeim","type":"Landkreis"},"federalState":{"key":"03","name":"Niedersachsen"}},{"name":"Graf-Dietrich-Ring","postalCode":"37191","locality":"Katlenburg-Lindau","municipality":{"key":"03155007","name":"Katlenburg-Lindau","type":"Kreisangehörige_Gemeinde"},"district":{"key":"03155","name":"Northeim","type":"Landkreis"},"federalState":{"key":"03","name":"Niedersachsen"}},{"name":"Gräfin-Adela-Weg","postalCode":"37191","locality":"Katlenburg-Lindau","municipality":{"key":"03155007","name":"Katlenburg-Lindau","type":"Kreisangehörige_Gemeinde"},"district":{"key":"03155","name":"Northeim","type":"Landkreis"},"federalState":{"key":"03","name":"Niedersachsen"}},{"name":"Grasweg","postalCode":"37191","locality":"Katlenburg-Lindau","municipality":{"key":"03155007","name":"Katlenburg-Lindau","type":"Kreisangehörige_Gemeinde"},"district":{"key":"03155","name":"Northeim","type":"Landkreis"},"federalState":{"key":"03","name":"Niedersachsen"}},{"name":"Große Gasse","postalCode":"37191","locality":"Katlenburg-Lindau","municipality":{"key":"03155007","name":"Katlenburg-Lindau","type":"Kreisangehörige_Gemeinde"},"district":{"key":"03155","name":"Northeim","type":"Landkreis"},"federalState":{"key":"03","name":"Niedersachsen"}},{"name":"Grüner Weg","postalCode":"37191","locality":"Katlenburg-Lindau","municipality":{"key":"03155007","name":"Katlenburg-Lindau","type":"Kreisangehörige_Gemeinde"},"district":{"key":"03155","name":"Northeim","type":"Landkreis"},"federalState":{"key":"03","name":"Niedersachsen"}},{"name":"Hagenstieg","postalCode":"37191","locality":"Katlenburg-Lindau","municipality":{"key":"03155007","name":"Katlenburg-Lindau","type":"Kreisangehörige_Gemeinde"},"district":{"key":"03155","name":"Northeim","type":"Landkreis"},"federalState":{"key":"03","name":"Niedersachsen"}},{"name":"Hammeltrift","postalCode":"37191","locality":"Katlenburg-Lindau","municipality":{"key":"03155007","name":"Katlenburg-Lindau","type":"Kreisangehörige_Gemeinde"},"district":{"key":"03155","name":"Northeim","type":"Landkreis"},"federalState":{"key":"03","name":"Niedersachsen"}},{"name":"Hardenbergswinkel","postalCode":"37191","locality":"Katlenburg-Lindau","municipality":{"key":"03155007","name":"Katlenburg-Lindau","type":"Kreisangehörige_Gemeinde"},"district":{"key":"03155","name":"Northeim","type":"Landkreis"},"federalState":{"key":"03","name":"Niedersachsen"}},{"name":"Harzstr.","postalCode":"37191","locality":"Katlenburg-Lindau","municipality":{"key":"03155007","name":"Katlenburg-Lindau","type":"Kreisangehörige_Gemeinde"},"district":{"key":"03155","name":"Northeim","type":"Landkreis"},"federalState":{"key":"03","name":"Niedersachsen"}},{"name":"Harztor","postalCode":"37191","locality":"Katlenburg-Lindau","municipality":{"key":"03155007","name":"Katlenburg-Lindau","type":"Kreisangehörige_Gemeinde"},"district":{"key":"03155","name":"Northeim","type":"Landkreis"},"federalState":{"key":"03","name":"Niedersachsen"}},{"name":"Hauptstr.","postalCode":"37191","locality":"Katlenburg-Lindau","municipality":{"key":"03155007","name":"Katlenburg-Lindau","type":"Kreisangehörige_Gemeinde"},"district":{"key":"03155","name":"Northeim","type":"Landkreis"},"federalState":{"key":"03","name":"Niedersachsen"}},{"name":"Helmoldsgasse","postalCode":"37191","locality":"Katlenburg-Lindau","municipality":{"key":"03155007","name":"Katlenburg-Lindau","type":"Kreisangehörige_Gemeinde"},"district":{"key":"03155","name":"Northeim","type":"Landkreis"},"federalState":{"key":"03","name":"Niedersachsen"}},{"name":"Helmut-Krüger-Str.","postalCode":"37191","locality":"Katlenburg-Lindau","municipality":{"key":"03155007","name":"Katlenburg-Lindau","type":"Kreisangehörige_Gemeinde"},"district":{"key":"03155","name":"Northeim","type":"Landkreis"},"federalState":{"key":"03","name":"Niedersachsen"}},{"name":"Herzberger Str.","postalCode":"37191","locality":"Katlenburg-Lindau","municipality":{"key":"03155007","name":"Katlenburg-Lindau","type":"Kreisangehörige_Gemeinde"},"district":{"key":"03155","name":"Northeim","type":"Landkreis"},"federalState":{"key":"03","name":"Niedersachsen"}},{"name":"Hinter den Tannhöfen","postalCode":"37191","locality":"Katlenburg-Lindau","municipality":{"key":"03155007","name":"Katlenburg-Lindau","type":"Kreisangehörige_Gemeinde"},"district":{"key":"03155","name":"Northeim","type":"Landkreis"},"federalState":{"key":"03","name":"Niedersachsen"}},{"name":"Hirtengasse","postalCode":"37191","locality":"Katlenburg-Lindau","municipality":{"key":"03155007","name":"Katlenburg-Lindau","type":"Kreisangehörige_Gemeinde"},"district":{"key":"03155","name":"Northeim","type":"Landkreis"},"federalState":{"key":"03","name":"Niedersachsen"}},{"name":"Höhenweg","postalCode":"37191","locality":"Katlenburg-Lindau","municipality":{"key":"03155007","name":"Katlenburg-Lindau","type":"Kreisangehörige_Gemeinde"},"district":{"key":"03155","name":"Northeim","type":"Landkreis"},"federalState":{"key":"03","name":"Niedersachsen"}},{"name":"Hopfenbergstr.","postalCode":"37191","locality":"Katlenburg-Lindau","municipality":{"key":"03155007","name":"Katlenburg-Lindau","type":"Kreisangehörige_Gemeinde"},"district":{"key":"03155","name":"Northeim","type":"Landkreis"},"federalState":{"key":"03","name":"Niedersachsen"}},{"name":"Hunnengasse","postalCode":"37191","locality":"Katlenburg-Lindau","municipality":{"key":"03155007","name":"Katlenburg-Lindau","type":"Kreisangehörige_Gemeinde"},"district":{"key":"03155","name":"Northeim","type":"Landkreis"},"federalState":{"key":"03","name":"Niedersachsen"}},{"name":"Im Büh","postalCode":"37191","locality":"Katlenburg-Lindau","municipality":{"key":"03155007","name":"Katlenburg-Lindau","type":"Kreisangehörige_Gemeinde"},"district":{"key":"03155","name":"Northeim","type":"Landkreis"},"federalState":{"key":"03","name":"Niedersachsen"}},{"name":"Im Dorfwinkel","postalCode":"37191","locality":"Katlenburg-Lindau","municipality":{"key":"03155007","name":"Katlenburg-Lindau","type":"Kreisangehörige_Gemeinde"},"district":{"key":"03155","name":"Northeim","type":"Landkreis"},"federalState":{"key":"03","name":"Niedersachsen"}},{"name":"Im Fuchstal","postalCode":"37191","locality":"Katlenburg-Lindau","municipality":{"key":"03155007","name":"Katlenburg-Lindau","type":"Kreisangehörige_Gemeinde"},"district":{"key":"03155","name":"Northeim","type":"Landkreis"},"federalState":{"key":"03","name":"Niedersachsen"}},{"name":"Im Kaspump","postalCode":"37191","locality":"Katlenburg-Lindau","municipality":{"key":"03155007","name":"Katlenburg-Lindau","type":"Kreisangehörige_Gemeinde"},"district":{"key":"03155","name":"Northeim","type":"Landkreis"},"federalState":{"key":"03","name":"Niedersachsen"}},{"name":"Im Siechenanger","postalCode":"37191","locality":"Katlenburg-Lindau","municipality":{"key":"03155007","name":"Katlenburg-Lindau","type":"Kreisangehörige_Gemeinde"},"district":{"key":"03155","name":"Northeim","type":"Landkreis"},"federalState":{"key":"03","name":"Niedersachsen"}},{"name":"Im Siek","postalCode":"37191","locality":"Katlenburg-Lindau","municipality":{"key":"03155007","name":"Katlenburg-Lindau","type":"Kreisangehörige_Gemeinde"},"district":{"key":"03155","name":"Northeim","type":"Landkreis"},"federalState":{"key":"03","name":"Niedersachsen"}},{"name":"Im Teiche","postalCode":"37191","locality":"Katlenburg-Lindau","municipality":{"key":"03155007","name":"Katlenburg-Lindau","type":"Kreisangehörige_Gemeinde"},"district":{"key":"03155","name":"Northeim","type":"Landkreis"},"federalState":{"key":"03","name":"Niedersachsen"}},{"name":"Judenstr.","postalCode":"37191","locality":"Katlenburg-Lindau","municipality":{"key":"03155007","name":"Katlenburg-Lindau","type":"Kreisangehörige_Gemeinde"},"district":{"key":"03155","name":"Northeim","type":"Landkreis"},"federalState":{"key":"03","name":"Niedersachsen"}},{"name":"Kalbertal","postalCode":"37191","locality":"Katlenburg-Lindau","municipality":{"key":"03155007","name":"Katlenburg-Lindau","type":"Kreisangehörige_Gemeinde"},"district":{"key":"03155","name":"Northeim","type":"Landkreis"},"federalState":{"key":"03","name":"Niedersachsen"}},{"name":"Kampweg","postalCode":"37191","locality":"Katlenburg-Lindau","municipality":{"key":"03155007","name":"Katlenburg-Lindau","type":"Kreisangehörige_Gemeinde"},"district":{"key":"03155","name":"Northeim","type":"Landkreis"},"federalState":{"key":"03","name":"Niedersachsen"}},{"name":"Kapellenberg","postalCode":"37191","locality":"Katlenburg-Lindau","municipality":{"key":"03155007","name":"Katlenburg-Lindau","type":"Kreisangehörige_Gemeinde"},"district":{"key":"03155","name":"Northeim","type":"Landkreis"},"federalState":{"key":"03","name":"Niedersachsen"}},{"name":"Kappel","postalCode":"37191","locality":"Katlenburg-Lindau","municipality":{"key":"03155007","name":"Katlenburg-Lindau","type":"Kreisangehörige_Gemeinde"},"district":{"key":"03155","name":"Northeim","type":"Landkreis"},"federalState":{"key":"03","name":"Niedersachsen"}},{"name":"Karlstr.","postalCode":"37191","locality":"Katlenburg-Lindau","municipality":{"key":"03155007","name":"Katlenburg-Lindau","type":"Kreisangehörige_Gemeinde"},"district":{"key":"03155","name":"Northeim","type":"Landkreis"},"federalState":{"key":"03","name":"Niedersachsen"}},{"name":"Kiefernweg","postalCode":"37191","locality":"Katlenburg-Lindau","municipality":{"key":"03155007","name":"Katlenburg-Lindau","type":"Kreisangehörige_Gemeinde"},"district":{"key":"03155","name":"Northeim","type":"Landkreis"},"federalState":{"key":"03","name":"Niedersachsen"}},{"name":"Kirchplatz","postalCode":"37191","locality":"Katlenburg-Lindau","municipality":{"key":"03155007","name":"Katlenburg-Lindau","type":"Kreisangehörige_Gemeinde"},"district":{"key":"03155","name":"Northeim","type":"Landkreis"},"federalState":{"key":"03","name":"Niedersachsen"}},{"name":"Kirchstr.","postalCode":"37191","locality":"Katlenburg-Lindau","municipality":{"key":"03155007","name":"Katlenburg-Lindau","type":"Kreisangehörige_Gemeinde"},"district":{"key":"03155","name":"Northeim","type":"Landkreis"},"federalState":{"key":"03","name":"Niedersachsen"}},{"name":"Kirchweg","postalCode":"37191","locality":"Katlenburg-Lindau","municipality":{"key":"03155007","name":"Katlenburg-Lindau","type":"Kreisangehörige_Gemeinde"},"district":{"key":"03155","name":"Northeim","type":"Landkreis"},"federalState":{"key":"03","name":"Niedersachsen"}},{"name":"Klageshof","postalCode":"37191","locality":"Katlenburg-Lindau","municipality":{"key":"03155007","name":"Katlenburg-Lindau","type":"Kreisangehörige_Gemeinde"},"district":{"key":"03155","name":"Northeim","type":"Landkreis"},"federalState":{"key":"03","name":"Niedersachsen"}},{"name":"Kleine Grund","postalCode":"37191","locality":"Katlenburg-Lindau","municipality":{"key":"03155007","name":"Katlenburg-Lindau","type":"Kreisangehörige_Gemeinde"},"district":{"key":"03155","name":"Northeim","type":"Landkreis"},"federalState":{"key":"03","name":"Niedersachsen"}},{"name":"Klingenberg","postalCode":"37191","locality":"Katlenburg-Lindau","municipality":{"key":"03155007","name":"Katlenburg-Lindau","type":"Kreisangehörige_Gemeinde"},"district":{"key":"03155","name":"Northeim","type":"Landkreis"},"federalState":{"key":"03","name":"Niedersachsen"}},{"name":"Klosterhof","postalCode":"37191","locality":"Katlenburg-Lindau","municipality":{"key":"03155007","name":"Katlenburg-Lindau","type":"Kreisangehörige_Gemeinde"},"district":{"key":"03155","name":"Northeim","type":"Landkreis"},"federalState":{"key":"03","name":"Niedersachsen"}},{"name":"Knickfeld","postalCode":"37191","locality":"Katlenburg-Lindau","municipality":{"key":"03155007","name":"Katlenburg-Lindau","type":"Kreisangehörige_Gemeinde"},"district":{"key":"03155","name":"Northeim","type":"Landkreis"},"federalState":{"key":"03","name":"Niedersachsen"}},{"name":"Königsberger Str.","postalCode":"37191","locality":"Katlenburg-Lindau","municipality":{"key":"03155007","name":"Katlenburg-Lindau","type":"Kreisangehörige_Gemeinde"},"district":{"key":"03155","name":"Northeim","type":"Landkreis"},"federalState":{"key":"03","name":"Niedersachsen"}},{"name":"Koppelweg","postalCode":"37191","locality":"Katlenburg-Lindau","municipality":{"key":"03155007","name":"Katlenburg-Lindau","type":"Kreisangehörige_Gemeinde"},"district":{"key":"03155","name":"Northeim","type":"Landkreis"},"federalState":{"key":"03","name":"Niedersachsen"}},{"name":"Kornfeld","postalCode":"37191","locality":"Katlenburg-Lindau","municipality":{"key":"03155007","name":"Katlenburg-Lindau","type":"Kreisangehörige_Gemeinde"},"district":{"key":"03155","name":"Northeim","type":"Landkreis"},"federalState":{"key":"03","name":"Niedersachsen"}},{"name":"Kreuzkirchenstr.","postalCode":"37191","locality":"Katlenburg-Lindau","municipality":{"key":"03155007","name":"Katlenburg-Lindau","type":"Kreisangehörige_Gemeinde"},"district":{"key":"03155","name":"Northeim","type":"Landkreis"},"federalState":{"key":"03","name":"Niedersachsen"}},{"name":"Kruganger","postalCode":"37191","locality":"Katlenburg-Lindau","municipality":{"key":"03155007","name":"Katlenburg-Lindau","type":"Kreisangehörige_Gemeinde"},"district":{"key":"03155","name":"Northeim","type":"Landkreis"},"federalState":{"key":"03","name":"Niedersachsen"}},{"name":"Kurze Str.","postalCode":"37191","locality":"Katlenburg-Lindau","municipality":{"key":"03155007","name":"Katlenburg-Lindau","type":"Kreisangehörige_Gemeinde"},"district":{"key":"03155","name":"Northeim","type":"Landkreis"},"federalState":{"key":"03","name":"Niedersachsen"}},{"name":"Landrat-Diedrich-Str.","postalCode":"37191","locality":"Katlenburg-Lindau","municipality":{"key":"03155007","name":"Katlenburg-Lindau","type":"Kreisangehörige_Gemeinde"},"district":{"key":"03155","name":"Northeim","type":"Landkreis"},"federalState":{"key":"03","name":"Niedersachsen"}},{"name":"Landstr.","postalCode":"37191","locality":"Katlenburg-Lindau","municipality":{"key":"03155007","name":"Katlenburg-Lindau","type":"Kreisangehörige_Gemeinde"},"district":{"key":"03155","name":"Northeim","type":"Landkreis"},"federalState":{"key":"03","name":"Niedersachsen"}},{"name":"Landwehrstr.","postalCode":"37191","locality":"Katlenburg-Lindau","municipality":{"key":"03155007","name":"Katlenburg-Lindau","type":"Kreisangehörige_Gemeinde"},"district":{"key":"03155","name":"Northeim","type":"Landkreis"},"federalState":{"key":"03","name":"Niedersachsen"}},{"name":"Lange Reihe","postalCode":"37191","locality":"Katlenburg-Lindau","municipality":{"key":"03155007","name":"Katlenburg-Lindau","type":"Kreisangehörige_Gemeinde"},"district":{"key":"03155","name":"Northeim","type":"Landkreis"},"federalState":{"key":"03","name":"Niedersachsen"}},{"name":"Lehmkuhle","postalCode":"37191","locality":"Katlenburg-Lindau","municipality":{"key":"03155007","name":"Katlenburg-Lindau","type":"Kreisangehörige_Gemeinde"},"district":{"key":"03155","name":"Northeim","type":"Landkreis"},"federalState":{"key":"03","name":"Niedersachsen"}},{"name":"Levershäuserweg","postalCode":"37191","locality":"Katlenburg-Lindau","municipality":{"key":"03155007","name":"Katlenburg-Lindau","type":"Kreisangehörige_Gemeinde"},"district":{"key":"03155","name":"Northeim","type":"Landkreis"},"federalState":{"key":"03","name":"Niedersachsen"}},{"name":"Lilienstr.","postalCode":"37191","locality":"Katlenburg-Lindau","municipality":{"key":"03155007","name":"Katlenburg-Lindau","type":"Kreisangehörige_Gemeinde"},"district":{"key":"03155","name":"Northeim","type":"Landkreis"},"federalState":{"key":"03","name":"Niedersachsen"}},{"name":"Lindauer Str.","postalCode":"37191","locality":"Katlenburg-Lindau","municipality":{"key":"03155007","name":"Katlenburg-Lindau","type":"Kreisangehörige_Gemeinde"},"district":{"key":"03155","name":"Northeim","type":"Landkreis"},"federalState":{"key":"03","name":"Niedersachsen"}},{"name":"Lindauer Weg","postalCode":"37191","locality":"Katlenburg-Lindau","municipality":{"key":"03155007","name":"Katlenburg-Lindau","type":"Kreisangehörige_Gemeinde"},"district":{"key":"03155","name":"Northeim","type":"Landkreis"},"federalState":{"key":"03","name":"Niedersachsen"}},{"name":"Lindenstr.","postalCode":"37191","locality":"Katlenburg-Lindau","municipality":{"key":"03155007","name":"Katlenburg-Lindau","type":"Kreisangehörige_Gemeinde"},"district":{"key":"03155","name":"Northeim","type":"Landkreis"},"federalState":{"key":"03","name":"Niedersachsen"}},{"name":"Mahntestr.","postalCode":"37191","locality":"Katlenburg-Lindau","municipality":{"key":"03155007","name":"Katlenburg-Lindau","type":"Kreisangehörige_Gemeinde"},"district":{"key":"03155","name":"Northeim","type":"Landkreis"},"federalState":{"key":"03","name":"Niedersachsen"}},{"name":"Mandelbecker Str.","postalCode":"37191","locality":"Katlenburg-Lindau","municipality":{"key":"03155007","name":"Katlenburg-Lindau","type":"Kreisangehörige_Gemeinde"},"district":{"key":"03155","name":"Northeim","type":"Landkreis"},"federalState":{"key":"03","name":"Niedersachsen"}},{"name":"Marienplatz","postalCode":"37191","locality":"Katlenburg-Lindau","municipality":{"key":"03155007","name":"Katlenburg-Lindau","type":"Kreisangehörige_Gemeinde"},"district":{"key":"03155","name":"Northeim","type":"Landkreis"},"federalState":{"key":"03","name":"Niedersachsen"}},{"name":"Marienstr.","postalCode":"37191","locality":"Katlenburg-Lindau","municipality":{"key":"03155007","name":"Katlenburg-Lindau","type":"Kreisangehörige_Gemeinde"},"district":{"key":"03155","name":"Northeim","type":"Landkreis"},"federalState":{"key":"03","name":"Niedersachsen"}},{"name":"Markt","postalCode":"37191","locality":"Katlenburg-Lindau","municipality":{"key":"03155007","name":"Katlenburg-Lindau","type":"Kreisangehörige_Gemeinde"},"district":{"key":"03155","name":"Northeim","type":"Landkreis"},"federalState":{"key":"03","name":"Niedersachsen"}},{"name":"Marktstr.","postalCode":"37191","locality":"Katlenburg-Lindau","municipality":{"key":"03155007","name":"Katlenburg-Lindau","type":"Kreisangehörige_Gemeinde"},"district":{"key":"03155","name":"Northeim","type":"Landkreis"},"federalState":{"key":"03","name":"Niedersachsen"}},{"name":"Max-Planck-Str.","postalCode":"37191","locality":"Katlenburg-Lindau","municipality":{"key":"03155007","name":"Katlenburg-Lindau","type":"Kreisangehörige_Gemeinde"},"district":{"key":"03155","name":"Northeim","type":"Landkreis"},"federalState":{"key":"03","name":"Niedersachsen"}},{"name":"Meisterfeld","postalCode":"37191","locality":"Katlenburg-Lindau","municipality":{"key":"03155007","name":"Katlenburg-Lindau","type":"Kreisangehörige_Gemeinde"},"district":{"key":"03155","name":"Northeim","type":"Landkreis"},"federalState":{"key":"03","name":"Niedersachsen"}},{"name":"Mordmühle","postalCode":"37191","locality":"Katlenburg-Lindau","municipality":{"key":"03155007","name":"Katlenburg-Lindau","type":"Kreisangehörige_Gemeinde"},"district":{"key":"03155","name":"Northeim","type":"Landkreis"},"federalState":{"key":"03","name":"Niedersachsen"}},{"name":"Mühlengasse","postalCode":"37191","locality":"Katlenburg-Lindau","municipality":{"key":"03155007","name":"Katlenburg-Lindau","type":"Kreisangehörige_Gemeinde"},"district":{"key":"03155","name":"Northeim","type":"Landkreis"},"federalState":{"key":"03","name":"Niedersachsen"}},{"name":"Mühlenwiese","postalCode":"37191","locality":"Katlenburg-Lindau","municipality":{"key":"03155007","name":"Katlenburg-Lindau","type":"Kreisangehörige_Gemeinde"},"district":{"key":"03155","name":"Northeim","type":"Landkreis"},"federalState":{"key":"03","name":"Niedersachsen"}},{"name":"Nelkenstr.","postalCode":"37191","locality":"Katlenburg-Lindau","municipality":{"key":"03155007","name":"Katlenburg-Lindau","type":"Kreisangehörige_Gemeinde"},"district":{"key":"03155","name":"Northeim","type":"Landkreis"},"federalState":{"key":"03","name":"Niedersachsen"}},{"name":"Neue Str.","postalCode":"37191","locality":"Katlenburg-Lindau","municipality":{"key":"03155007","name":"Katlenburg-Lindau","type":"Kreisangehörige_Gemeinde"},"district":{"key":"03155","name":"Northeim","type":"Landkreis"},"federalState":{"key":"03","name":"Niedersachsen"}},{"name":"Northeimer Stieg","postalCode":"37191","locality":"Katlenburg-Lindau","municipality":{"key":"03155007","name":"Katlenburg-Lindau","type":"Kreisangehörige_Gemeinde"},"district":{"key":"03155","name":"Northeim","type":"Landkreis"},"federalState":{"key":"03","name":"Niedersachsen"}},{"name":"Northeimer Str.","postalCode":"37191","locality":"Katlenburg-Lindau","municipality":{"key":"03155007","name":"Katlenburg-Lindau","type":"Kreisangehörige_Gemeinde"},"district":{"key":"03155","name":"Northeim","type":"Landkreis"},"federalState":{"key":"03","name":"Niedersachsen"}},{"name":"Oberdorfstr.","postalCode":"37191","locality":"Katlenburg-Lindau","municipality":{"key":"03155007","name":"Katlenburg-Lindau","type":"Kreisangehörige_Gemeinde"},"district":{"key":"03155","name":"Northeim","type":"Landkreis"},"federalState":{"key":"03","name":"Niedersachsen"}},{"name":"Obere Str.","postalCode":"37191","locality":"Katlenburg-Lindau","municipality":{"key":"03155007","name":"Katlenburg-Lindau","type":"Kreisangehörige_Gemeinde"},"district":{"key":"03155","name":"Northeim","type":"Landkreis"},"federalState":{"key":"03","name":"Niedersachsen"}},{"name":"Obere Wiesenstr.","postalCode":"37191","locality":"Katlenburg-Lindau","municipality":{"key":"03155007","name":"Katlenburg-Lindau","type":"Kreisangehörige_Gemeinde"},"district":{"key":"03155","name":"Northeim","type":"Landkreis"},"federalState":{"key":"03","name":"Niedersachsen"}},{"name":"Oderstr.","postalCode":"37191","locality":"Katlenburg-Lindau","municipality":{"key":"03155007","name":"Katlenburg-Lindau","type":"Kreisangehörige_Gemeinde"},"district":{"key":"03155","name":"Northeim","type":"Landkreis"},"federalState":{"key":"03","name":"Niedersachsen"}},{"name":"Ohnewende","postalCode":"37191","locality":"Katlenburg-Lindau","municipality":{"key":"03155007","name":"Katlenburg-Lindau","type":"Kreisangehörige_Gemeinde"},"district":{"key":"03155","name":"Northeim","type":"Landkreis"},"federalState":{"key":"03","name":"Niedersachsen"}},{"name":"Osteroder Str.","postalCode":"37191","locality":"Katlenburg-Lindau","municipality":{"key":"03155007","name":"Katlenburg-Lindau","type":"Kreisangehörige_Gemeinde"},"district":{"key":"03155","name":"Northeim","type":"Landkreis"},"federalState":{"key":"03","name":"Niedersachsen"}},{"name":"Osterstr.","postalCode":"37191","locality":"Katlenburg-Lindau","municipality":{"key":"03155007","name":"Katlenburg-Lindau","type":"Kreisangehörige_Gemeinde"},"district":{"key":"03155","name":"Northeim","type":"Landkreis"},"federalState":{"key":"03","name":"Niedersachsen"}},{"name":"Osterweg","postalCode":"37191","locality":"Katlenburg-Lindau","municipality":{"key":"03155007","name":"Katlenburg-Lindau","type":"Kreisangehörige_Gemeinde"},"district":{"key":"03155","name":"Northeim","type":"Landkreis"},"federalState":{"key":"03","name":"Niedersachsen"}},{"name":"Ostlandstr.","postalCode":"37191","locality":"Katlenburg-Lindau","municipality":{"key":"03155007","name":"Katlenburg-Lindau","type":"Kreisangehörige_Gemeinde"},"district":{"key":"03155","name":"Northeim","type":"Landkreis"},"federalState":{"key":"03","name":"Niedersachsen"}},{"name":"Pechhütten","postalCode":"37191","locality":"Katlenburg-Lindau","municipality":{"key":"03155007","name":"Katlenburg-Lindau","type":"Kreisangehörige_Gemeinde"},"district":{"key":"03155","name":"Northeim","type":"Landkreis"},"federalState":{"key":"03","name":"Niedersachsen"}},{"name":"Pfarrgasse","postalCode":"37191","locality":"Katlenburg-Lindau","municipality":{"key":"03155007","name":"Katlenburg-Lindau","type":"Kreisangehörige_Gemeinde"},"district":{"key":"03155","name":"Northeim","type":"Landkreis"},"federalState":{"key":"03","name":"Niedersachsen"}},{"name":"Quellengrund","postalCode":"37154","locality":"Northeim","municipality":{"key":"03155011","name":"Northeim, Stadt","type":"Stadt"},"district":{"key":"03155","name":"Northeim","type":"Landkreis"},"federalState":{"key":"03","name":"Niedersachsen"}},{"name":"Rhumestr.","postalCode":"37191","locality":"Katlenburg-Lindau","municipality":{"key":"03155007","name":"Katlenburg-Lindau","type":"Kreisangehörige_Gemeinde"},"district":{"key":"03155","name":"Northeim","type":"Landkreis"},"federalState":{"key":"03","name":"Niedersachsen"}},{"name":"Riensberg","postalCode":"37191","locality":"Katlenburg-Lindau","municipality":{"key":"03155007","name":"Katlenburg-Lindau","type":"Kreisangehörige_Gemeinde"},"district":{"key":"03155","name":"Northeim","type":"Landkreis"},"federalState":{"key":"03","name":"Niedersachsen"}},{"name":"Rosenstr.","postalCode":"37191","locality":"Katlenburg-Lindau","municipality":{"key":"03155007","name":"Katlenburg-Lindau","type":"Kreisangehörige_Gemeinde"},"district":{"key":"03155","name":"Northeim","type":"Landkreis"},"federalState":{"key":"03","name":"Niedersachsen"}},{"name":"Ruinenweg","postalCode":"37191","locality":"Katlenburg-Lindau","municipality":{"key":"03155007","name":"Katlenburg-Lindau","type":"Kreisangehörige_Gemeinde"},"district":{"key":"03155","name":"Northeim","type":"Landkreis"},"federalState":{"key":"03","name":"Niedersachsen"}},{"name":"Sackstr.","postalCode":"37191","locality":"Katlenburg-Lindau","municipality":{"key":"03155007","name":"Katlenburg-Lindau","type":"Kreisangehörige_Gemeinde"},"district":{"key":"03155","name":"Northeim","type":"Landkreis"},"federalState":{"key":"03","name":"Niedersachsen"}},{"name":"Schäferei","postalCode":"37191","locality":"Katlenburg-Lindau","municipality":{"key":"03155007","name":"Katlenburg-Lindau","type":"Kreisangehörige_Gemeinde"},"district":{"key":"03155","name":"Northeim","type":"Landkreis"},"federalState":{"key":"03","name":"Niedersachsen"}},{"name":"Schlachtstr.","postalCode":"37191","locality":"Katlenburg-Lindau","municipality":{"key":"03155007","name":"Katlenburg-Lindau","type":"Kreisangehörige_Gemeinde"},"district":{"key":"03155","name":"Northeim","type":"Landkreis"},"federalState":{"key":"03","name":"Niedersachsen"}},{"name":"Schulstr.","postalCode":"37191","locality":"Katlenburg-Lindau","municipality":{"key":"03155007","name":"Katlenburg-Lindau","type":"Kreisangehörige_Gemeinde"},"district":{"key":"03155","name":"Northeim","type":"Landkreis"},"federalState":{"key":"03","name":"Niedersachsen"}},{"name":"Schüttewall","postalCode":"37191","locality":"Katlenburg-Lindau","municipality":{"key":"03155007","name":"Katlenburg-Lindau","type":"Kreisangehörige_Gemeinde"},"district":{"key":"03155","name":"Northeim","type":"Landkreis"},"federalState":{"key":"03","name":"Niedersachsen"}},{"name":"Schützenallee","postalCode":"37191","locality":"Katlenburg-Lindau","municipality":{"key":"03155007","name":"Katlenburg-Lindau","type":"Kreisangehörige_Gemeinde"},"district":{"key":"03155","name":"Northeim","type":"Landkreis"},"federalState":{"key":"03","name":"Niedersachsen"}},{"name":"Siedlungsweg","postalCode":"37191","locality":"Katlenburg-Lindau","municipality":{"key":"03155007","name":"Katlenburg-Lindau","type":"Kreisangehörige_Gemeinde"},"district":{"key":"03155","name":"Northeim","type":"Landkreis"},"federalState":{"key":"03","name":"Niedersachsen"}},{"name":"Siekgasse","postalCode":"37191","locality":"Katlenburg-Lindau","municipality":{"key":"03155007","name":"Katlenburg-Lindau","type":"Kreisangehörige_Gemeinde"},"district":{"key":"03155","name":"Northeim","type":"Landkreis"},"federalState":{"key":"03","name":"Niedersachsen"}},{"name":"Steinbreite","postalCode":"37191","locality":"Katlenburg-Lindau","municipality":{"key":"03155007","name":"Katlenburg-Lindau","type":"Kreisangehörige_Gemeinde"},"district":{"key":"03155","name":"Northeim","type":"Landkreis"},"federalState":{"key":"03","name":"Niedersachsen"}},{"name":"Steinweg","postalCode":"37191","locality":"Katlenburg-Lindau","municipality":{"key":"03155007","name":"Katlenburg-Lindau","type":"Kreisangehörige_Gemeinde"},"district":{"key":"03155","name":"Northeim","type":"Landkreis"},"federalState":{"key":"03","name":"Niedersachsen"}},{"name":"Südharzstrecke","postalCode":"37191","locality":"Katlenburg-Lindau","municipality":{"key":"03155007","name":"Katlenburg-Lindau","type":"Kreisangehörige_Gemeinde"},"district":{"key":"03155","name":"Northeim","type":"Landkreis"},"federalState":{"key":"03","name":"Niedersachsen"}},{"name":"Suteroder Str.","postalCode":"37191","locality":"Katlenburg-Lindau","municipality":{"key":"03155007","name":"Katlenburg-Lindau","type":"Kreisangehörige_Gemeinde"},"district":{"key":"03155","name":"Northeim","type":"Landkreis"},"federalState":{"key":"03","name":"Niedersachsen"}},{"name":"Taake","postalCode":"37191","locality":"Katlenburg-Lindau","municipality":{"key":"03155007","name":"Katlenburg-Lindau","type":"Kreisangehörige_Gemeinde"},"district":{"key":"03155","name":"Northeim","type":"Landkreis"},"federalState":{"key":"03","name":"Niedersachsen"}},{"name":"Talberg","postalCode":"37191","locality":"Katlenburg-Lindau","municipality":{"key":"03155007","name":"Katlenburg-Lindau","type":"Kreisangehörige_Gemeinde"},"district":{"key":"03155","name":"Northeim","type":"Landkreis"},"federalState":{"key":"03","name":"Niedersachsen"}},{"name":"Talrandweg","postalCode":"37191","locality":"Katlenburg-Lindau","municipality":{"key":"03155007","name":"Katlenburg-Lindau","type":"Kreisangehörige_Gemeinde"},"district":{"key":"03155","name":"Northeim","type":"Landkreis"},"federalState":{"key":"03","name":"Niedersachsen"}},{"name":"Thiehofsfeld","postalCode":"37191","locality":"Katlenburg-Lindau","municipality":{"key":"03155007","name":"Katlenburg-Lindau","type":"Kreisangehörige_Gemeinde"},"district":{"key":"03155","name":"Northeim","type":"Landkreis"},"federalState":{"key":"03","name":"Niedersachsen"}},{"name":"Thiestr.","postalCode":"37191","locality":"Katlenburg-Lindau","municipality":{"key":"03155007","name":"Katlenburg-Lindau","type":"Kreisangehörige_Gemeinde"},"district":{"key":"03155","name":"Northeim","type":"Landkreis"},"federalState":{"key":"03","name":"Niedersachsen"}},{"name":"Torstr.","postalCode":"37191","locality":"Katlenburg-Lindau","municipality":{"key":"03155007","name":"Katlenburg-Lindau","type":"Kreisangehörige_Gemeinde"},"district":{"key":"03155","name":"Northeim","type":"Landkreis"},"federalState":{"key":"03","name":"Niedersachsen"}},{"name":"Tränke","postalCode":"37191","locality":"Katlenburg-Lindau","municipality":{"key":"03155007","name":"Katlenburg-Lindau","type":"Kreisangehörige_Gemeinde"},"district":{"key":"03155","name":"Northeim","type":"Landkreis"},"federalState":{"key":"03","name":"Niedersachsen"}},{"name":"Tulpenstr.","postalCode":"37191","locality":"Katlenburg-Lindau","municipality":{"key":"03155007","name":"Katlenburg-Lindau","type":"Kreisangehörige_Gemeinde"},"district":{"key":"03155","name":"Northeim","type":"Landkreis"},"federalState":{"key":"03","name":"Niedersachsen"}},{"name":"Twegtje","postalCode":"37191","locality":"Katlenburg-Lindau","municipality":{"key":"03155007","name":"Katlenburg-Lindau","type":"Kreisangehörige_Gemeinde"},"district":{"key":"03155","name":"Northeim","type":"Landkreis"},"federalState":{"key":"03","name":"Niedersachsen"}},{"name":"Unterdorf","postalCode":"37191","locality":"Katlenburg-Lindau","municipality":{"key":"03155007","name":"Katlenburg-Lindau","type":"Kreisangehörige_Gemeinde"},"district":{"key":"03155","name":"Northeim","type":"Landkreis"},"federalState":{"key":"03","name":"Niedersachsen"}},{"name":"Untere Siedlung","postalCode":"37191","locality":"Katlenburg-Lindau","municipality":{"key":"03155007","name":"Katlenburg-Lindau","type":"Kreisangehörige_Gemeinde"},"district":{"key":"03155","name":"Northeim","type":"Landkreis"},"federalState":{"key":"03","name":"Niedersachsen"}},{"name":"Untere Str.","postalCode":"37191","locality":"Katlenburg-Lindau","municipality":{"key":"03155007","name":"Katlenburg-Lindau","type":"Kreisangehörige_Gemeinde"},"district":{"key":"03155","name":"Northeim","type":"Landkreis"},"federalState":{"key":"03","name":"Niedersachsen"}},{"name":"Vennigerholzstr.","postalCode":"37154","locality":"Northeim","municipality":{"key":"03155011","name":"Northeim, Stadt","type":"Stadt"},"district":{"key":"03155","name":"Northeim","type":"Landkreis"},"federalState":{"key":"03","name":"Niedersachsen"}},{"name":"Verdistr.","postalCode":"37154","locality":"Northeim","municipality":{"key":"03155011","name":"Northeim, Stadt","type":"Stadt"},"district":{"key":"03155","name":"Northeim","type":"Landkreis"},"federalState":{"key":"03","name":"Niedersachsen"}},{"name":"Victoria-Luise-Str.","postalCode":"37154","locality":"Northeim","municipality":{"key":"03155011","name":"Northeim, Stadt","type":"Stadt"},"district":{"key":"03155","name":"Northeim","type":"Landkreis"},"federalState":{"key":"03","name":"Niedersachsen"}},{"name":"Vivaldistr.","postalCode":"37154","locality":"Northeim","municipality":{"key":"03155011","name":"Northeim, Stadt","type":"Stadt"},"district":{"key":"03155","name":"Northeim","type":"Landkreis"},"federalState":{"key":"03","name":"Niedersachsen"}},{"name":"Vogts Teich","postalCode":"37154","locality":"Northeim","municipality":{"key":"03155011","name":"Northeim, Stadt","type":"Stadt"},"district":{"key":"03155","name":"Northeim","type":"Landkreis"},"federalState":{"key":"03","name":"Niedersachsen"}},{"name":"Von-Humboldt-Str.","postalCode":"37154","locality":"Northeim","municipality":{"key":"03155011","name":"Northeim, Stadt","type":"Stadt"},"district":{"key":"03155","name":"Northeim","type":"Landkreis"},"federalState":{"key":"03","name":"Niedersachsen"}},{"name":"Von-Menzel-Str.","postalCode":"37154","locality":"Northeim","municipality":{"key":"03155011","name":"Northeim, Stadt","type":"Stadt"},"district":{"key":"03155","name":"Northeim","type":"Landkreis"},"federalState":{"key":"03","name":"Niedersachsen"}},{"name":"Von-Schwind-Weg","postalCode":"37154","locality":"Northeim","municipality":{"key":"03155011","name":"Northeim, Stadt","type":"Stadt"},"district":{"key":"03155","name":"Northeim","type":"Landkreis"},"federalState":{"key":"03","name":"Niedersachsen"}},{"name":"Von-Weber-Str.","postalCode":"37154","locality":"Northeim","municipality":{"key":"03155011","name":"Northeim, Stadt","type":"Stadt"},"district":{"key":"03155","name":"Northeim","type":"Landkreis"},"federalState":{"key":"03","name":"Niedersachsen"}},{"name":"Vor der Bülte","postalCode":"37154","locality":"Northeim","municipality":{"key":"03155011","name":"Northeim, Stadt","type":"Stadt"},"district":{"key":"03155","name":"Northeim","type":"Landkreis"},"federalState":{"key":"03","name":"Niedersachsen"}},{"name":"Vorderer Mäusebergweg","postalCode":"37154","locality":"Northeim","municipality":{"key":"03155011","name":"Northeim, Stadt","type":"Stadt"},"district":{"key":"03155","name":"Northeim","type":"Landkreis"},"federalState":{"key":"03","name":"Niedersachsen"}},{"name":"Wachenhäuser Str.","postalCode":"37191","locality":"Katlenburg-Lindau","municipality":{"key":"03155007","name":"Katlenburg-Lindau","type":"Kreisangehörige_Gemeinde"},"district":{"key":"03155","name":"Northeim","type":"Landkreis"},"federalState":{"key":"03","name":"Niedersachsen"}},{"name":"Walthausenstr.","postalCode":"37191","locality":"Katlenburg-Lindau","municipality":{"key":"03155007","name":"Katlenburg-Lindau","type":"Kreisangehörige_Gemeinde"},"district":{"key":"03155","name":"Northeim","type":"Landkreis"},"federalState":{"key":"03","name":"Niedersachsen"}},{"name":"Weingarten","postalCode":"37191","locality":"Katlenburg-Lindau","municipality":{"key":"03155007","name":"Katlenburg-Lindau","type":"Kreisangehörige_Gemeinde"},"district":{"key":"03155","name":"Northeim","type":"Landkreis"},"federalState":{"key":"03","name":"Niedersachsen"}},{"name":"Zimmerplatz","postalCode":"37191","locality":"Katlenburg-Lindau","municipality":{"key":"03155007","name":"Katlenburg-Lindau","type":"Kreisangehörige_Gemeinde"},"district":{"key":"03155","name":"Northeim","type":"Landkreis"},"federalState":{"key":"03","name":"Niedersachsen"}},{"name":"Zum Rhumetor","postalCode":"37191","locality":"Katlenburg-Lindau","municipality":{"key":"03155007","name":"Katlenburg-Lindau","type":"Kreisangehörige_Gemeinde"},"district":{"key":"03155","name":"Northeim","type":"Landkreis"},"federalState":{"key":"03","name":"Niedersachsen"}},{"name":"Zum Stöntor","postalCode":"37191","locality":"Katlenburg-Lindau","municipality":{"key":"03155007","name":"Katlenburg-Lindau","type":"Kreisangehörige_Gemeinde"},"district":{"key":"03155","name":"Northeim","type":"Landkreis"},"federalState":{"key":"03","name":"Niedersachsen"}},{"name":"Zwischen den Häusern","postalCode":"37191","locality":"Katlenburg-Lindau","municipality":{"key":"03155007","name":"Katlenburg-Lindau","type":"Kreisangehörige_Gemeinde"},"district":{"key":"03155","name":"Northeim","type":"Landkreis"},"federalState":{"key":"03","name":"Niedersachsen"}},{"name":"Über dem Dorfe","postalCode":"37154","locality":"Northeim","municipality":{"key":"03155011","name":"Northeim, Stadt","type":"Stadt"},"district":{"key":"03155","name":"Northeim","type":"Landkreis"},"federalState":{"key":"03","name":"Niedersachsen"}},{"name":"Über dem Hellewege","postalCode":"37154","locality":"Northeim","municipality":{"key":"03155011","name":"Northeim, Stadt","type":"Stadt"},"district":{"key":"03155","name":"Northeim","type":"Landkreis"},"federalState":{"key":"03","name":"Niedersachsen"}},{"name":"Über dem Papenbüh","postalCode":"37154","locality":"Northeim","municipality":{"key":"03155011","name":"Northeim, Stadt","type":"Stadt"},"district":{"key":"03155","name":"Northeim","type":"Landkreis"},"federalState":{"key":"03","name":"Niedersachsen"}},]