[{"name":"Adalbert-Stifter-Str.","postalCode":"61231","locality":"Bad Nauheim","municipality":{"key":"06440002","name":"Bad Nauheim, Stadt","type":"Stadt"},"district":{"key":"06440","name":"Wetteraukreis","type":"Landkreis"},"federalState":{"key":"06","name":"Hessen"}},{"name":"Adlerweg","postalCode":"61231","locality":"Bad Nauheim","municipality":{"key":"06440002","name":"Bad Nauheim, Stadt","type":"Stadt"},"district":{"key":"06440","name":"Wetteraukreis","type":"Landkreis"},"federalState":{"key":"06","name":"Hessen"}},{"name":"Adolf-Kolping-Str.","postalCode":"64569","locality":"Nauheim","municipality":{"key":"06433009","name":"Nauheim","type":"Kreisangehörige_Gemeinde"},"district":{"key":"06433","name":"Groß-Gerau","type":"Landkreis"},"federalState":{"key":"06","name":"Hessen"}},{"name":"Ahornweg","postalCode":"61231","locality":"Bad Nauheim","municipality":{"key":"06440002","name":"Bad Nauheim, Stadt","type":"Stadt"},"district":{"key":"06440","name":"Wetteraukreis","type":"Landkreis"},"federalState":{"key":"06","name":"Hessen"}},{"name":"Ahornweg","postalCode":"64569","locality":"Nauheim","municipality":{"key":"06433009","name":"Nauheim","type":"Kreisangehörige_Gemeinde"},"district":{"key":"06433","name":"Groß-Gerau","type":"Landkreis"},"federalState":{"key":"06","name":"Hessen"}},{"name":"Albert-Einstein-Str.","postalCode":"61231","locality":"Bad Nauheim","municipality":{"key":"06440002","name":"Bad Nauheim, Stadt","type":"Stadt"},"district":{"key":"06440","name":"Wetteraukreis","type":"Landkreis"},"federalState":{"key":"06","name":"Hessen"}},{"name":"Albert-Einstein-Str.","postalCode":"64569","locality":"Nauheim","municipality":{"key":"06433009","name":"Nauheim","type":"Kreisangehörige_Gemeinde"},"district":{"key":"06433","name":"Groß-Gerau","type":"Landkreis"},"federalState":{"key":"06","name":"Hessen"}},{"name":"Alexej-Maltzew-Gäßchen","postalCode":"61231","locality":"Bad Nauheim","municipality":{"key":"06440002","name":"Bad Nauheim, Stadt","type":"Stadt"},"district":{"key":"06440","name":"Wetteraukreis","type":"Landkreis"},"federalState":{"key":"06","name":"Hessen"}},{"name":"Alfred-Martin-Str.","postalCode":"61231","locality":"Bad Nauheim","municipality":{"key":"06440002","name":"Bad Nauheim, Stadt","type":"Stadt"},"district":{"key":"06440","name":"Wetteraukreis","type":"Landkreis"},"federalState":{"key":"06","name":"Hessen"}},{"name":"Alte Mainzer Str.","postalCode":"64569","locality":"Nauheim","municipality":{"key":"06433009","name":"Nauheim","type":"Kreisangehörige_Gemeinde"},"district":{"key":"06433","name":"Groß-Gerau","type":"Landkreis"},"federalState":{"key":"06","name":"Hessen"}},{"name":"Alter Friedhof","postalCode":"61231","locality":"Bad Nauheim","municipality":{"key":"06440002","name":"Bad Nauheim, Stadt","type":"Stadt"},"district":{"key":"06440","name":"Wetteraukreis","type":"Landkreis"},"federalState":{"key":"06","name":"Hessen"}},{"name":"Alte Schulstr.","postalCode":"61231","locality":"Bad Nauheim","municipality":{"key":"06440002","name":"Bad Nauheim, Stadt","type":"Stadt"},"district":{"key":"06440","name":"Wetteraukreis","type":"Landkreis"},"federalState":{"key":"06","name":"Hessen"}},{"name":"Altvaterstr.","postalCode":"61231","locality":"Bad Nauheim","municipality":{"key":"06440002","name":"Bad Nauheim, Stadt","type":"Stadt"},"district":{"key":"06440","name":"Wetteraukreis","type":"Landkreis"},"federalState":{"key":"06","name":"Hessen"}},{"name":"Am Alzenköppel","postalCode":"61231","locality":"Bad Nauheim","municipality":{"key":"06440002","name":"Bad Nauheim, Stadt","type":"Stadt"},"district":{"key":"06440","name":"Wetteraukreis","type":"Landkreis"},"federalState":{"key":"06","name":"Hessen"}},{"name":"Am Atzelhorst","postalCode":"64569","locality":"Nauheim","municipality":{"key":"06433009","name":"Nauheim","type":"Kreisangehörige_Gemeinde"},"district":{"key":"06433","name":"Groß-Gerau","type":"Landkreis"},"federalState":{"key":"06","name":"Hessen"}},{"name":"Am Auweg","postalCode":"61231","locality":"Bad Nauheim","municipality":{"key":"06440002","name":"Bad Nauheim, Stadt","type":"Stadt"},"district":{"key":"06440","name":"Wetteraukreis","type":"Landkreis"},"federalState":{"key":"06","name":"Hessen"}},{"name":"Am Bahndamm","postalCode":"61231","locality":"Bad Nauheim","municipality":{"key":"06440002","name":"Bad Nauheim, Stadt","type":"Stadt"},"district":{"key":"06440","name":"Wetteraukreis","type":"Landkreis"},"federalState":{"key":"06","name":"Hessen"}},{"name":"Am Bahnhof","postalCode":"64569","locality":"Nauheim","municipality":{"key":"06433009","name":"Nauheim","type":"Kreisangehörige_Gemeinde"},"district":{"key":"06433","name":"Groß-Gerau","type":"Landkreis"},"federalState":{"key":"06","name":"Hessen"}},{"name":"Am Berg","postalCode":"61231","locality":"Bad Nauheim","municipality":{"key":"06440002","name":"Bad Nauheim, Stadt","type":"Stadt"},"district":{"key":"06440","name":"Wetteraukreis","type":"Landkreis"},"federalState":{"key":"06","name":"Hessen"}},{"name":"Am Bornacker","postalCode":"61231","locality":"Bad Nauheim","municipality":{"key":"06440002","name":"Bad Nauheim, Stadt","type":"Stadt"},"district":{"key":"06440","name":"Wetteraukreis","type":"Landkreis"},"federalState":{"key":"06","name":"Hessen"}},{"name":"Am Deutergraben","postalCode":"61231","locality":"Bad Nauheim","municipality":{"key":"06440002","name":"Bad Nauheim, Stadt","type":"Stadt"},"district":{"key":"06440","name":"Wetteraukreis","type":"Landkreis"},"federalState":{"key":"06","name":"Hessen"}},{"name":"Am Dorngraben","postalCode":"61231","locality":"Bad Nauheim","municipality":{"key":"06440002","name":"Bad Nauheim, Stadt","type":"Stadt"},"district":{"key":"06440","name":"Wetteraukreis","type":"Landkreis"},"federalState":{"key":"06","name":"Hessen"}},{"name":"Am Eichberg","postalCode":"61231","locality":"Bad Nauheim","municipality":{"key":"06440002","name":"Bad Nauheim, Stadt","type":"Stadt"},"district":{"key":"06440","name":"Wetteraukreis","type":"Landkreis"},"federalState":{"key":"06","name":"Hessen"}},{"name":"Am Eichwald","postalCode":"61231","locality":"Bad Nauheim","municipality":{"key":"06440002","name":"Bad Nauheim, Stadt","type":"Stadt"},"district":{"key":"06440","name":"Wetteraukreis","type":"Landkreis"},"federalState":{"key":"06","name":"Hessen"}},{"name":"Am Ellenberg","postalCode":"61231","locality":"Bad Nauheim","municipality":{"key":"06440002","name":"Bad Nauheim, Stadt","type":"Stadt"},"district":{"key":"06440","name":"Wetteraukreis","type":"Landkreis"},"federalState":{"key":"06","name":"Hessen"}},{"name":"Am Erlensteg","postalCode":"61231","locality":"Bad Nauheim","municipality":{"key":"06440002","name":"Bad Nauheim, Stadt","type":"Stadt"},"district":{"key":"06440","name":"Wetteraukreis","type":"Landkreis"},"federalState":{"key":"06","name":"Hessen"}},{"name":"Am Gänsberg","postalCode":"61231","locality":"Bad Nauheim","municipality":{"key":"06440002","name":"Bad Nauheim, Stadt","type":"Stadt"},"district":{"key":"06440","name":"Wetteraukreis","type":"Landkreis"},"federalState":{"key":"06","name":"Hessen"}},{"name":"Am Goldstein","postalCode":"61231","locality":"Bad Nauheim","municipality":{"key":"06440002","name":"Bad Nauheim, Stadt","type":"Stadt"},"district":{"key":"06440","name":"Wetteraukreis","type":"Landkreis"},"federalState":{"key":"06","name":"Hessen"}},{"name":"Am Gradierwerk","postalCode":"61231","locality":"Bad Nauheim","municipality":{"key":"06440002","name":"Bad Nauheim, Stadt","type":"Stadt"},"district":{"key":"06440","name":"Wetteraukreis","type":"Landkreis"},"federalState":{"key":"06","name":"Hessen"}},{"name":"Am Haingraben","postalCode":"61231","locality":"Bad Nauheim","municipality":{"key":"06440002","name":"Bad Nauheim, Stadt","type":"Stadt"},"district":{"key":"06440","name":"Wetteraukreis","type":"Landkreis"},"federalState":{"key":"06","name":"Hessen"}},{"name":"Am Hang","postalCode":"61231","locality":"Bad Nauheim","municipality":{"key":"06440002","name":"Bad Nauheim, Stadt","type":"Stadt"},"district":{"key":"06440","name":"Wetteraukreis","type":"Landkreis"},"federalState":{"key":"06","name":"Hessen"}},{"name":"Am Hegbachsee","postalCode":"64569","locality":"Nauheim","municipality":{"key":"06433009","name":"Nauheim","type":"Kreisangehörige_Gemeinde"},"district":{"key":"06433","name":"Groß-Gerau","type":"Landkreis"},"federalState":{"key":"06","name":"Hessen"}},{"name":"Am Heiligenstock","postalCode":"61231","locality":"Bad Nauheim","municipality":{"key":"06440002","name":"Bad Nauheim, Stadt","type":"Stadt"},"district":{"key":"06440","name":"Wetteraukreis","type":"Landkreis"},"federalState":{"key":"06","name":"Hessen"}},{"name":"Am Kaiserberg","postalCode":"61231","locality":"Bad Nauheim","municipality":{"key":"06440002","name":"Bad Nauheim, Stadt","type":"Stadt"},"district":{"key":"06440","name":"Wetteraukreis","type":"Landkreis"},"federalState":{"key":"06","name":"Hessen"}},{"name":"Am kleinen Feld","postalCode":"61231","locality":"Bad Nauheim","municipality":{"key":"06440002","name":"Bad Nauheim, Stadt","type":"Stadt"},"district":{"key":"06440","name":"Wetteraukreis","type":"Landkreis"},"federalState":{"key":"06","name":"Hessen"}},{"name":"Am Nauheimer Bach","postalCode":"61231","locality":"Bad Nauheim","municipality":{"key":"06440002","name":"Bad Nauheim, Stadt","type":"Stadt"},"district":{"key":"06440","name":"Wetteraukreis","type":"Landkreis"},"federalState":{"key":"06","name":"Hessen"}},{"name":"Am Obertor","postalCode":"61231","locality":"Bad Nauheim","municipality":{"key":"06440002","name":"Bad Nauheim, Stadt","type":"Stadt"},"district":{"key":"06440","name":"Wetteraukreis","type":"Landkreis"},"federalState":{"key":"06","name":"Hessen"}},{"name":"Am Ölberg","postalCode":"61231","locality":"Bad Nauheim","municipality":{"key":"06440002","name":"Bad Nauheim, Stadt","type":"Stadt"},"district":{"key":"06440","name":"Wetteraukreis","type":"Landkreis"},"federalState":{"key":"06","name":"Hessen"}},{"name":"Am Promenadenweg","postalCode":"61231","locality":"Bad Nauheim","municipality":{"key":"06440002","name":"Bad Nauheim, Stadt","type":"Stadt"},"district":{"key":"06440","name":"Wetteraukreis","type":"Landkreis"},"federalState":{"key":"06","name":"Hessen"}},{"name":"Am Rad","postalCode":"61231","locality":"Bad Nauheim","municipality":{"key":"06440002","name":"Bad Nauheim, Stadt","type":"Stadt"},"district":{"key":"06440","name":"Wetteraukreis","type":"Landkreis"},"federalState":{"key":"06","name":"Hessen"}},{"name":"Am Römerkastell","postalCode":"61231","locality":"Bad Nauheim","municipality":{"key":"06440002","name":"Bad Nauheim, Stadt","type":"Stadt"},"district":{"key":"06440","name":"Wetteraukreis","type":"Landkreis"},"federalState":{"key":"06","name":"Hessen"}},{"name":"Am Rosenhof","postalCode":"61231","locality":"Bad Nauheim","municipality":{"key":"06440002","name":"Bad Nauheim, Stadt","type":"Stadt"},"district":{"key":"06440","name":"Wetteraukreis","type":"Landkreis"},"federalState":{"key":"06","name":"Hessen"}},{"name":"Am Sauerbrunnen","postalCode":"61231","locality":"Bad Nauheim","municipality":{"key":"06440002","name":"Bad Nauheim, Stadt","type":"Stadt"},"district":{"key":"06440","name":"Wetteraukreis","type":"Landkreis"},"federalState":{"key":"06","name":"Hessen"}},{"name":"Am Schafsteg","postalCode":"64569","locality":"Nauheim","municipality":{"key":"06433009","name":"Nauheim","type":"Kreisangehörige_Gemeinde"},"district":{"key":"06433","name":"Groß-Gerau","type":"Landkreis"},"federalState":{"key":"06","name":"Hessen"}},{"name":"Am Skulpturenpark","postalCode":"61231","locality":"Bad Nauheim","municipality":{"key":"06440002","name":"Bad Nauheim, Stadt","type":"Stadt"},"district":{"key":"06440","name":"Wetteraukreis","type":"Landkreis"},"federalState":{"key":"06","name":"Hessen"}},{"name":"Am Sodenweg","postalCode":"61231","locality":"Bad Nauheim","municipality":{"key":"06440002","name":"Bad Nauheim, Stadt","type":"Stadt"},"district":{"key":"06440","name":"Wetteraukreis","type":"Landkreis"},"federalState":{"key":"06","name":"Hessen"}},{"name":"Am Solgraben","postalCode":"61231","locality":"Bad Nauheim","municipality":{"key":"06440002","name":"Bad Nauheim, Stadt","type":"Stadt"},"district":{"key":"06440","name":"Wetteraukreis","type":"Landkreis"},"federalState":{"key":"06","name":"Hessen"}},{"name":"Am Speckrain","postalCode":"61231","locality":"Bad Nauheim","municipality":{"key":"06440002","name":"Bad Nauheim, Stadt","type":"Stadt"},"district":{"key":"06440","name":"Wetteraukreis","type":"Landkreis"},"federalState":{"key":"06","name":"Hessen"}},{"name":"Am Sportfeld","postalCode":"61231","locality":"Bad Nauheim","municipality":{"key":"06440002","name":"Bad Nauheim, Stadt","type":"Stadt"},"district":{"key":"06440","name":"Wetteraukreis","type":"Landkreis"},"federalState":{"key":"06","name":"Hessen"}},{"name":"Am Sportfeld","postalCode":"64569","locality":"Nauheim","municipality":{"key":"06433009","name":"Nauheim","type":"Kreisangehörige_Gemeinde"},"district":{"key":"06433","name":"Groß-Gerau","type":"Landkreis"},"federalState":{"key":"06","name":"Hessen"}},{"name":"Bachgasse","postalCode":"64569","locality":"Nauheim","municipality":{"key":"06433009","name":"Nauheim","type":"Kreisangehörige_Gemeinde"},"district":{"key":"06433","name":"Groß-Gerau","type":"Landkreis"},"federalState":{"key":"06","name":"Hessen"}},{"name":"Bachschneise","postalCode":"64569","locality":"Nauheim","municipality":{"key":"06433009","name":"Nauheim","type":"Kreisangehörige_Gemeinde"},"district":{"key":"06433","name":"Groß-Gerau","type":"Landkreis"},"federalState":{"key":"06","name":"Hessen"}},{"name":"Bachstr.","postalCode":"61231","locality":"Bad Nauheim","municipality":{"key":"06440002","name":"Bad Nauheim, Stadt","type":"Stadt"},"district":{"key":"06440","name":"Wetteraukreis","type":"Landkreis"},"federalState":{"key":"06","name":"Hessen"}},{"name":"Bad Langesalza-Platz","postalCode":"61231","locality":"Bad Nauheim","municipality":{"key":"06440002","name":"Bad Nauheim, Stadt","type":"Stadt"},"district":{"key":"06440","name":"Wetteraukreis","type":"Landkreis"},"federalState":{"key":"06","name":"Hessen"}},{"name":"Bad Nauheimer Str.","postalCode":"61231","locality":"Bad Nauheim","municipality":{"key":"06440002","name":"Bad Nauheim, Stadt","type":"Stadt"},"district":{"key":"06440","name":"Wetteraukreis","type":"Landkreis"},"federalState":{"key":"06","name":"Hessen"}},{"name":"Bad Nauheimer Weg","postalCode":"61231","locality":"Bad Nauheim","municipality":{"key":"06440002","name":"Bad Nauheim, Stadt","type":"Stadt"},"district":{"key":"06440","name":"Wetteraukreis","type":"Landkreis"},"federalState":{"key":"06","name":"Hessen"}},{"name":"Bahnhofsallee","postalCode":"61231","locality":"Bad Nauheim","municipality":{"key":"06440002","name":"Bad Nauheim, Stadt","type":"Stadt"},"district":{"key":"06440","name":"Wetteraukreis","type":"Landkreis"},"federalState":{"key":"06","name":"Hessen"}},{"name":"Bahnhofstr.","postalCode":"64569","locality":"Nauheim","municipality":{"key":"06433009","name":"Nauheim","type":"Kreisangehörige_Gemeinde"},"district":{"key":"06433","name":"Groß-Gerau","type":"Landkreis"},"federalState":{"key":"06","name":"Hessen"}},{"name":"Barbarastr.","postalCode":"61231","locality":"Bad Nauheim","municipality":{"key":"06440002","name":"Bad Nauheim, Stadt","type":"Stadt"},"district":{"key":"06440","name":"Wetteraukreis","type":"Landkreis"},"federalState":{"key":"06","name":"Hessen"}},{"name":"Beethovenstr.","postalCode":"61231","locality":"Bad Nauheim","municipality":{"key":"06440002","name":"Bad Nauheim, Stadt","type":"Stadt"},"district":{"key":"06440","name":"Wetteraukreis","type":"Landkreis"},"federalState":{"key":"06","name":"Hessen"}},{"name":"Beethovenstr.","postalCode":"64569","locality":"Nauheim","municipality":{"key":"06433009","name":"Nauheim","type":"Kreisangehörige_Gemeinde"},"district":{"key":"06433","name":"Groß-Gerau","type":"Landkreis"},"federalState":{"key":"06","name":"Hessen"}},{"name":"Benekestr.","postalCode":"61231","locality":"Bad Nauheim","municipality":{"key":"06440002","name":"Bad Nauheim, Stadt","type":"Stadt"},"district":{"key":"06440","name":"Wetteraukreis","type":"Landkreis"},"federalState":{"key":"06","name":"Hessen"}},{"name":"Bergstr.","postalCode":"61231","locality":"Bad Nauheim","municipality":{"key":"06440002","name":"Bad Nauheim, Stadt","type":"Stadt"},"district":{"key":"06440","name":"Wetteraukreis","type":"Landkreis"},"federalState":{"key":"06","name":"Hessen"}},{"name":"Bergweg","postalCode":"61231","locality":"Bad Nauheim","municipality":{"key":"06440002","name":"Bad Nauheim, Stadt","type":"Stadt"},"district":{"key":"06440","name":"Wetteraukreis","type":"Landkreis"},"federalState":{"key":"06","name":"Hessen"}},{"name":"Berliner Platz","postalCode":"64569","locality":"Nauheim","municipality":{"key":"06433009","name":"Nauheim","type":"Kreisangehörige_Gemeinde"},"district":{"key":"06433","name":"Groß-Gerau","type":"Landkreis"},"federalState":{"key":"06","name":"Hessen"}},{"name":"Berliner Str.","postalCode":"61231","locality":"Bad Nauheim","municipality":{"key":"06440002","name":"Bad Nauheim, Stadt","type":"Stadt"},"district":{"key":"06440","name":"Wetteraukreis","type":"Landkreis"},"federalState":{"key":"06","name":"Hessen"}},{"name":"Berzallee","postalCode":"64569","locality":"Nauheim","municipality":{"key":"06433009","name":"Nauheim","type":"Kreisangehörige_Gemeinde"},"district":{"key":"06433","name":"Groß-Gerau","type":"Landkreis"},"federalState":{"key":"06","name":"Hessen"}},{"name":"Birkenstr.","postalCode":"64569","locality":"Nauheim","municipality":{"key":"06433009","name":"Nauheim","type":"Kreisangehörige_Gemeinde"},"district":{"key":"06433","name":"Groß-Gerau","type":"Landkreis"},"federalState":{"key":"06","name":"Hessen"}},{"name":"Birkenweg","postalCode":"61231","locality":"Bad Nauheim","municipality":{"key":"06440002","name":"Bad Nauheim, Stadt","type":"Stadt"},"district":{"key":"06440","name":"Wetteraukreis","type":"Landkreis"},"federalState":{"key":"06","name":"Hessen"}},{"name":"Blechschneise","postalCode":"64569","locality":"Nauheim","municipality":{"key":"06433009","name":"Nauheim","type":"Kreisangehörige_Gemeinde"},"district":{"key":"06433","name":"Groß-Gerau","type":"Landkreis"},"federalState":{"key":"06","name":"Hessen"}},{"name":"Bleichstr.","postalCode":"64569","locality":"Nauheim","municipality":{"key":"06433009","name":"Nauheim","type":"Kreisangehörige_Gemeinde"},"district":{"key":"06433","name":"Groß-Gerau","type":"Landkreis"},"federalState":{"key":"06","name":"Hessen"}},{"name":"Blücherstr.","postalCode":"61231","locality":"Bad Nauheim","municipality":{"key":"06440002","name":"Bad Nauheim, Stadt","type":"Stadt"},"district":{"key":"06440","name":"Wetteraukreis","type":"Landkreis"},"federalState":{"key":"06","name":"Hessen"}},{"name":"Blumenstr.","postalCode":"61231","locality":"Bad Nauheim","municipality":{"key":"06440002","name":"Bad Nauheim, Stadt","type":"Stadt"},"district":{"key":"06440","name":"Wetteraukreis","type":"Landkreis"},"federalState":{"key":"06","name":"Hessen"}},{"name":"Bodestr.","postalCode":"61231","locality":"Bad Nauheim","municipality":{"key":"06440002","name":"Bad Nauheim, Stadt","type":"Stadt"},"district":{"key":"06440","name":"Wetteraukreis","type":"Landkreis"},"federalState":{"key":"06","name":"Hessen"}},{"name":"Bogenschneise","postalCode":"64569","locality":"Nauheim","municipality":{"key":"06433009","name":"Nauheim","type":"Kreisangehörige_Gemeinde"},"district":{"key":"06433","name":"Groß-Gerau","type":"Landkreis"},"federalState":{"key":"06","name":"Hessen"}},{"name":"Borner Str.","postalCode":"64569","locality":"Nauheim","municipality":{"key":"06433009","name":"Nauheim","type":"Kreisangehörige_Gemeinde"},"district":{"key":"06433","name":"Groß-Gerau","type":"Landkreis"},"federalState":{"key":"06","name":"Hessen"}},{"name":"Bornstr.","postalCode":"61231","locality":"Bad Nauheim","municipality":{"key":"06440002","name":"Bad Nauheim, Stadt","type":"Stadt"},"district":{"key":"06440","name":"Wetteraukreis","type":"Landkreis"},"federalState":{"key":"06","name":"Hessen"}},{"name":"Brahmsweg","postalCode":"61231","locality":"Bad Nauheim","municipality":{"key":"06440002","name":"Bad Nauheim, Stadt","type":"Stadt"},"district":{"key":"06440","name":"Wetteraukreis","type":"Landkreis"},"federalState":{"key":"06","name":"Hessen"}},{"name":"Brandseeschneise","postalCode":"64569","locality":"Nauheim","municipality":{"key":"06433009","name":"Nauheim","type":"Kreisangehörige_Gemeinde"},"district":{"key":"06433","name":"Groß-Gerau","type":"Landkreis"},"federalState":{"key":"06","name":"Hessen"}},{"name":"Breslauer Str.","postalCode":"61231","locality":"Bad Nauheim","municipality":{"key":"06440002","name":"Bad Nauheim, Stadt","type":"Stadt"},"district":{"key":"06440","name":"Wetteraukreis","type":"Landkreis"},"federalState":{"key":"06","name":"Hessen"}},{"name":"Brückenstr.","postalCode":"61231","locality":"Bad Nauheim","municipality":{"key":"06440002","name":"Bad Nauheim, Stadt","type":"Stadt"},"district":{"key":"06440","name":"Wetteraukreis","type":"Landkreis"},"federalState":{"key":"06","name":"Hessen"}},{"name":"Brückgartenweg","postalCode":"61231","locality":"Bad Nauheim","municipality":{"key":"06440002","name":"Bad Nauheim, Stadt","type":"Stadt"},"district":{"key":"06440","name":"Wetteraukreis","type":"Landkreis"},"federalState":{"key":"06","name":"Hessen"}},{"name":"Brunnenstr.","postalCode":"61231","locality":"Bad Nauheim","municipality":{"key":"06440002","name":"Bad Nauheim, Stadt","type":"Stadt"},"district":{"key":"06440","name":"Wetteraukreis","type":"Landkreis"},"federalState":{"key":"06","name":"Hessen"}},{"name":"Brunnenweg","postalCode":"61231","locality":"Bad Nauheim","municipality":{"key":"06440002","name":"Bad Nauheim, Stadt","type":"Stadt"},"district":{"key":"06440","name":"Wetteraukreis","type":"Landkreis"},"federalState":{"key":"06","name":"Hessen"}},{"name":"Buchenweg","postalCode":"61231","locality":"Bad Nauheim","municipality":{"key":"06440002","name":"Bad Nauheim, Stadt","type":"Stadt"},"district":{"key":"06440","name":"Wetteraukreis","type":"Landkreis"},"federalState":{"key":"06","name":"Hessen"}},{"name":"Burgallee","postalCode":"61231","locality":"Bad Nauheim","municipality":{"key":"06440002","name":"Bad Nauheim, Stadt","type":"Stadt"},"district":{"key":"06440","name":"Wetteraukreis","type":"Landkreis"},"federalState":{"key":"06","name":"Hessen"}},{"name":"Burgpforte","postalCode":"61231","locality":"Bad Nauheim","municipality":{"key":"06440002","name":"Bad Nauheim, Stadt","type":"Stadt"},"district":{"key":"06440","name":"Wetteraukreis","type":"Landkreis"},"federalState":{"key":"06","name":"Hessen"}},{"name":"Burgstr.","postalCode":"61231","locality":"Bad Nauheim","municipality":{"key":"06440002","name":"Bad Nauheim, Stadt","type":"Stadt"},"district":{"key":"06440","name":"Wetteraukreis","type":"Landkreis"},"federalState":{"key":"06","name":"Hessen"}},{"name":"Bussardweg","postalCode":"61231","locality":"Bad Nauheim","municipality":{"key":"06440002","name":"Bad Nauheim, Stadt","type":"Stadt"},"district":{"key":"06440","name":"Wetteraukreis","type":"Landkreis"},"federalState":{"key":"06","name":"Hessen"}},{"name":"Buxton-Platz","postalCode":"61231","locality":"Bad Nauheim","municipality":{"key":"06440002","name":"Bad Nauheim, Stadt","type":"Stadt"},"district":{"key":"06440","name":"Wetteraukreis","type":"Landkreis"},"federalState":{"key":"06","name":"Hessen"}},{"name":"Carl-Oelemann-Weg","postalCode":"61231","locality":"Bad Nauheim","municipality":{"key":"06440002","name":"Bad Nauheim, Stadt","type":"Stadt"},"district":{"key":"06440","name":"Wetteraukreis","type":"Landkreis"},"federalState":{"key":"06","name":"Hessen"}},{"name":"Carlo-Mierendorff-Str.","postalCode":"64569","locality":"Nauheim","municipality":{"key":"06433009","name":"Nauheim","type":"Kreisangehörige_Gemeinde"},"district":{"key":"06433","name":"Groß-Gerau","type":"Landkreis"},"federalState":{"key":"06","name":"Hessen"}},{"name":"Charvieu-Chavagneux-Platz","postalCode":"64569","locality":"Nauheim","municipality":{"key":"06433009","name":"Nauheim","type":"Kreisangehörige_Gemeinde"},"district":{"key":"06433","name":"Groß-Gerau","type":"Landkreis"},"federalState":{"key":"06","name":"Hessen"}},{"name":"Chattenweg","postalCode":"61231","locality":"Bad Nauheim","municipality":{"key":"06440002","name":"Bad Nauheim, Stadt","type":"Stadt"},"district":{"key":"06440","name":"Wetteraukreis","type":"Landkreis"},"federalState":{"key":"06","name":"Hessen"}},{"name":"Chaumontplatz","postalCode":"61231","locality":"Bad Nauheim","municipality":{"key":"06440002","name":"Bad Nauheim, Stadt","type":"Stadt"},"district":{"key":"06440","name":"Wetteraukreis","type":"Landkreis"},"federalState":{"key":"06","name":"Hessen"}},{"name":"Dachspfad","postalCode":"61231","locality":"Bad Nauheim","municipality":{"key":"06440002","name":"Bad Nauheim, Stadt","type":"Stadt"},"district":{"key":"06440","name":"Wetteraukreis","type":"Landkreis"},"federalState":{"key":"06","name":"Hessen"}},{"name":"Danziger Str.","postalCode":"61231","locality":"Bad Nauheim","municipality":{"key":"06440002","name":"Bad Nauheim, Stadt","type":"Stadt"},"district":{"key":"06440","name":"Wetteraukreis","type":"Landkreis"},"federalState":{"key":"06","name":"Hessen"}},{"name":"Darmstädter Landstr.","postalCode":"64569","locality":"Nauheim","municipality":{"key":"06433009","name":"Nauheim","type":"Kreisangehörige_Gemeinde"},"district":{"key":"06433","name":"Groß-Gerau","type":"Landkreis"},"federalState":{"key":"06","name":"Hessen"}},{"name":"Dieselstr.","postalCode":"61231","locality":"Bad Nauheim","municipality":{"key":"06440002","name":"Bad Nauheim, Stadt","type":"Stadt"},"district":{"key":"06440","name":"Wetteraukreis","type":"Landkreis"},"federalState":{"key":"06","name":"Hessen"}},{"name":"Dietersbrücke","postalCode":"61231","locality":"Bad Nauheim","municipality":{"key":"06440002","name":"Bad Nauheim, Stadt","type":"Stadt"},"district":{"key":"06440","name":"Wetteraukreis","type":"Landkreis"},"federalState":{"key":"06","name":"Hessen"}},{"name":"Dorheimer Str.","postalCode":"61231","locality":"Bad Nauheim","municipality":{"key":"06440002","name":"Bad Nauheim, Stadt","type":"Stadt"},"district":{"key":"06440","name":"Wetteraukreis","type":"Landkreis"},"federalState":{"key":"06","name":"Hessen"}},{"name":"Dresdener Str.","postalCode":"64569","locality":"Nauheim","municipality":{"key":"06433009","name":"Nauheim","type":"Kreisangehörige_Gemeinde"},"district":{"key":"06433","name":"Groß-Gerau","type":"Landkreis"},"federalState":{"key":"06","name":"Hessen"}},{"name":"Dunkerstr.","postalCode":"61231","locality":"Bad Nauheim","municipality":{"key":"06440002","name":"Bad Nauheim, Stadt","type":"Stadt"},"district":{"key":"06440","name":"Wetteraukreis","type":"Landkreis"},"federalState":{"key":"06","name":"Hessen"}},{"name":"Dürerstr.","postalCode":"61231","locality":"Bad Nauheim","municipality":{"key":"06440002","name":"Bad Nauheim, Stadt","type":"Stadt"},"district":{"key":"06440","name":"Wetteraukreis","type":"Landkreis"},"federalState":{"key":"06","name":"Hessen"}},{"name":"Edelweißstr.","postalCode":"61231","locality":"Bad Nauheim","municipality":{"key":"06440002","name":"Bad Nauheim, Stadt","type":"Stadt"},"district":{"key":"06440","name":"Wetteraukreis","type":"Landkreis"},"federalState":{"key":"06","name":"Hessen"}},{"name":"Egerlandstr.","postalCode":"61231","locality":"Bad Nauheim","municipality":{"key":"06440002","name":"Bad Nauheim, Stadt","type":"Stadt"},"district":{"key":"06440","name":"Wetteraukreis","type":"Landkreis"},"federalState":{"key":"06","name":"Hessen"}},{"name":"Eibenweg","postalCode":"61231","locality":"Bad Nauheim","municipality":{"key":"06440002","name":"Bad Nauheim, Stadt","type":"Stadt"},"district":{"key":"06440","name":"Wetteraukreis","type":"Landkreis"},"federalState":{"key":"06","name":"Hessen"}},{"name":"Eibenweg","postalCode":"64569","locality":"Nauheim","municipality":{"key":"06433009","name":"Nauheim","type":"Kreisangehörige_Gemeinde"},"district":{"key":"06433","name":"Groß-Gerau","type":"Landkreis"},"federalState":{"key":"06","name":"Hessen"}},{"name":"Eichbergstr.","postalCode":"61231","locality":"Bad Nauheim","municipality":{"key":"06440002","name":"Bad Nauheim, Stadt","type":"Stadt"},"district":{"key":"06440","name":"Wetteraukreis","type":"Landkreis"},"federalState":{"key":"06","name":"Hessen"}},{"name":"Eichendorffstr.","postalCode":"61231","locality":"Bad Nauheim","municipality":{"key":"06440002","name":"Bad Nauheim, Stadt","type":"Stadt"},"district":{"key":"06440","name":"Wetteraukreis","type":"Landkreis"},"federalState":{"key":"06","name":"Hessen"}},{"name":"Eichenweg","postalCode":"61231","locality":"Bad Nauheim","municipality":{"key":"06440002","name":"Bad Nauheim, Stadt","type":"Stadt"},"district":{"key":"06440","name":"Wetteraukreis","type":"Landkreis"},"federalState":{"key":"06","name":"Hessen"}},{"name":"Elbestr.","postalCode":"64569","locality":"Nauheim","municipality":{"key":"06433009","name":"Nauheim","type":"Kreisangehörige_Gemeinde"},"district":{"key":"06433","name":"Groß-Gerau","type":"Landkreis"},"federalState":{"key":"06","name":"Hessen"}},{"name":"Eleonorenring","postalCode":"61231","locality":"Bad Nauheim","municipality":{"key":"06440002","name":"Bad Nauheim, Stadt","type":"Stadt"},"district":{"key":"06440","name":"Wetteraukreis","type":"Landkreis"},"federalState":{"key":"06","name":"Hessen"}},{"name":"Elisabethenstr.","postalCode":"61231","locality":"Bad Nauheim","municipality":{"key":"06440002","name":"Bad Nauheim, Stadt","type":"Stadt"},"district":{"key":"06440","name":"Wetteraukreis","type":"Landkreis"},"federalState":{"key":"06","name":"Hessen"}},{"name":"Elisabeth-Ring","postalCode":"61231","locality":"Bad Nauheim","municipality":{"key":"06440002","name":"Bad Nauheim, Stadt","type":"Stadt"},"district":{"key":"06440","name":"Wetteraukreis","type":"Landkreis"},"federalState":{"key":"06","name":"Hessen"}},{"name":"Ellenbogen-Schneise","postalCode":"61231","locality":"Bad Nauheim","municipality":{"key":"06440002","name":"Bad Nauheim, Stadt","type":"Stadt"},"district":{"key":"06440","name":"Wetteraukreis","type":"Landkreis"},"federalState":{"key":"06","name":"Hessen"}},{"name":"Elvis-Presley-Platz","postalCode":"61231","locality":"Bad Nauheim","municipality":{"key":"06440002","name":"Bad Nauheim, Stadt","type":"Stadt"},"district":{"key":"06440","name":"Wetteraukreis","type":"Landkreis"},"federalState":{"key":"06","name":"Hessen"}},{"name":"Emil-von-Behring-Str.","postalCode":"64569","locality":"Nauheim","municipality":{"key":"06433009","name":"Nauheim","type":"Kreisangehörige_Gemeinde"},"district":{"key":"06433","name":"Groß-Gerau","type":"Landkreis"},"federalState":{"key":"06","name":"Hessen"}},{"name":"Entenstr.","postalCode":"64569","locality":"Nauheim","municipality":{"key":"06433009","name":"Nauheim","type":"Kreisangehörige_Gemeinde"},"district":{"key":"06433","name":"Groß-Gerau","type":"Landkreis"},"federalState":{"key":"06","name":"Hessen"}},{"name":"Erlenweg","postalCode":"64569","locality":"Nauheim","municipality":{"key":"06433009","name":"Nauheim","type":"Kreisangehörige_Gemeinde"},"district":{"key":"06433","name":"Groß-Gerau","type":"Landkreis"},"federalState":{"key":"06","name":"Hessen"}},{"name":"Ernst-Ludwig-Ring","postalCode":"61231","locality":"Bad Nauheim","municipality":{"key":"06440002","name":"Bad Nauheim, Stadt","type":"Stadt"},"district":{"key":"06440","name":"Wetteraukreis","type":"Landkreis"},"federalState":{"key":"06","name":"Hessen"}},{"name":"Ernst-Ludwig-Weg","postalCode":"61231","locality":"Bad Nauheim","municipality":{"key":"06440002","name":"Bad Nauheim, Stadt","type":"Stadt"},"district":{"key":"06440","name":"Wetteraukreis","type":"Landkreis"},"federalState":{"key":"06","name":"Hessen"}},{"name":"Ernst-Moritz-Arndt-Str.","postalCode":"61231","locality":"Bad Nauheim","municipality":{"key":"06440002","name":"Bad Nauheim, Stadt","type":"Stadt"},"district":{"key":"06440","name":"Wetteraukreis","type":"Landkreis"},"federalState":{"key":"06","name":"Hessen"}},{"name":"Europastr.","postalCode":"64569","locality":"Nauheim","municipality":{"key":"06433009","name":"Nauheim","type":"Kreisangehörige_Gemeinde"},"district":{"key":"06433","name":"Groß-Gerau","type":"Landkreis"},"federalState":{"key":"06","name":"Hessen"}},{"name":"Falkenweg","postalCode":"61231","locality":"Bad Nauheim","municipality":{"key":"06440002","name":"Bad Nauheim, Stadt","type":"Stadt"},"district":{"key":"06440","name":"Wetteraukreis","type":"Landkreis"},"federalState":{"key":"06","name":"Hessen"}},{"name":"Fasanen-Schneise","postalCode":"61231","locality":"Bad Nauheim","municipality":{"key":"06440002","name":"Bad Nauheim, Stadt","type":"Stadt"},"district":{"key":"06440","name":"Wetteraukreis","type":"Landkreis"},"federalState":{"key":"06","name":"Hessen"}},{"name":"Fasanenweg","postalCode":"61231","locality":"Bad Nauheim","municipality":{"key":"06440002","name":"Bad Nauheim, Stadt","type":"Stadt"},"district":{"key":"06440","name":"Wetteraukreis","type":"Landkreis"},"federalState":{"key":"06","name":"Hessen"}},{"name":"Feetness-Parcours","postalCode":"61231","locality":"Bad Nauheim","municipality":{"key":"06440002","name":"Bad Nauheim, Stadt","type":"Stadt"},"district":{"key":"06440","name":"Wetteraukreis","type":"Landkreis"},"federalState":{"key":"06","name":"Hessen"}},{"name":"Feldbergstr.","postalCode":"61231","locality":"Bad Nauheim","municipality":{"key":"06440002","name":"Bad Nauheim, Stadt","type":"Stadt"},"district":{"key":"06440","name":"Wetteraukreis","type":"Landkreis"},"federalState":{"key":"06","name":"Hessen"}},{"name":"Feldgartenstr.","postalCode":"61231","locality":"Bad Nauheim","municipality":{"key":"06440002","name":"Bad Nauheim, Stadt","type":"Stadt"},"district":{"key":"06440","name":"Wetteraukreis","type":"Landkreis"},"federalState":{"key":"06","name":"Hessen"}},{"name":"Feldstr.","postalCode":"64569","locality":"Nauheim","municipality":{"key":"06433009","name":"Nauheim","type":"Kreisangehörige_Gemeinde"},"district":{"key":"06433","name":"Groß-Gerau","type":"Landkreis"},"federalState":{"key":"06","name":"Hessen"}},{"name":"Fichtenweg","postalCode":"61231","locality":"Bad Nauheim","municipality":{"key":"06440002","name":"Bad Nauheim, Stadt","type":"Stadt"},"district":{"key":"06440","name":"Wetteraukreis","type":"Landkreis"},"federalState":{"key":"06","name":"Hessen"}},{"name":"Fliederweg","postalCode":"61231","locality":"Bad Nauheim","municipality":{"key":"06440002","name":"Bad Nauheim, Stadt","type":"Stadt"},"district":{"key":"06440","name":"Wetteraukreis","type":"Landkreis"},"federalState":{"key":"06","name":"Hessen"}},{"name":"Forsthausstr.","postalCode":"61231","locality":"Bad Nauheim","municipality":{"key":"06440002","name":"Bad Nauheim, Stadt","type":"Stadt"},"district":{"key":"06440","name":"Wetteraukreis","type":"Landkreis"},"federalState":{"key":"06","name":"Hessen"}},{"name":"Forsthausweg","postalCode":"64569","locality":"Nauheim","municipality":{"key":"06433009","name":"Nauheim","type":"Kreisangehörige_Gemeinde"},"district":{"key":"06433","name":"Groß-Gerau","type":"Landkreis"},"federalState":{"key":"06","name":"Hessen"}},{"name":"Frankenstr.","postalCode":"61231","locality":"Bad Nauheim","municipality":{"key":"06440002","name":"Bad Nauheim, Stadt","type":"Stadt"},"district":{"key":"06440","name":"Wetteraukreis","type":"Landkreis"},"federalState":{"key":"06","name":"Hessen"}},{"name":"Frankfurter Landstr.","postalCode":"61231","locality":"Bad Nauheim","municipality":{"key":"06440002","name":"Bad Nauheim, Stadt","type":"Stadt"},"district":{"key":"06440","name":"Wetteraukreis","type":"Landkreis"},"federalState":{"key":"06","name":"Hessen"}},{"name":"Frankfurter Str.","postalCode":"61231","locality":"Bad Nauheim","municipality":{"key":"06440002","name":"Bad Nauheim, Stadt","type":"Stadt"},"district":{"key":"06440","name":"Wetteraukreis","type":"Landkreis"},"federalState":{"key":"06","name":"Hessen"}},{"name":"Franz-Groedel-Str.","postalCode":"61231","locality":"Bad Nauheim","municipality":{"key":"06440002","name":"Bad Nauheim, Stadt","type":"Stadt"},"district":{"key":"06440","name":"Wetteraukreis","type":"Landkreis"},"federalState":{"key":"06","name":"Hessen"}},{"name":"Frauenwaldstr.","postalCode":"61231","locality":"Bad Nauheim","municipality":{"key":"06440002","name":"Bad Nauheim, Stadt","type":"Stadt"},"district":{"key":"06440","name":"Wetteraukreis","type":"Landkreis"},"federalState":{"key":"06","name":"Hessen"}},{"name":"Freiherr vom Stein Str.","postalCode":"61231","locality":"Bad Nauheim","municipality":{"key":"06440002","name":"Bad Nauheim, Stadt","type":"Stadt"},"district":{"key":"06440","name":"Wetteraukreis","type":"Landkreis"},"federalState":{"key":"06","name":"Hessen"}},{"name":"Friedberger Str.","postalCode":"61231","locality":"Bad Nauheim","municipality":{"key":"06440002","name":"Bad Nauheim, Stadt","type":"Stadt"},"district":{"key":"06440","name":"Wetteraukreis","type":"Landkreis"},"federalState":{"key":"06","name":"Hessen"}},{"name":"Friedensplatz","postalCode":"64569","locality":"Nauheim","municipality":{"key":"06433009","name":"Nauheim","type":"Kreisangehörige_Gemeinde"},"district":{"key":"06433","name":"Groß-Gerau","type":"Landkreis"},"federalState":{"key":"06","name":"Hessen"}},{"name":"Friedensstr.","postalCode":"61231","locality":"Bad Nauheim","municipality":{"key":"06440002","name":"Bad Nauheim, Stadt","type":"Stadt"},"district":{"key":"06440","name":"Wetteraukreis","type":"Landkreis"},"federalState":{"key":"06","name":"Hessen"}},{"name":"Friedhofstr.","postalCode":"61231","locality":"Bad Nauheim","municipality":{"key":"06440002","name":"Bad Nauheim, Stadt","type":"Stadt"},"district":{"key":"06440","name":"Wetteraukreis","type":"Landkreis"},"federalState":{"key":"06","name":"Hessen"}},{"name":"Friedhofsweg","postalCode":"64569","locality":"Nauheim","municipality":{"key":"06433009","name":"Nauheim","type":"Kreisangehörige_Gemeinde"},"district":{"key":"06433","name":"Groß-Gerau","type":"Landkreis"},"federalState":{"key":"06","name":"Hessen"}},{"name":"Friedrich-Ebert-Platz","postalCode":"61231","locality":"Bad Nauheim","municipality":{"key":"06440002","name":"Bad Nauheim, Stadt","type":"Stadt"},"district":{"key":"06440","name":"Wetteraukreis","type":"Landkreis"},"federalState":{"key":"06","name":"Hessen"}},{"name":"Friedrich-Stoll-Str.","postalCode":"61231","locality":"Bad Nauheim","municipality":{"key":"06440002","name":"Bad Nauheim, Stadt","type":"Stadt"},"district":{"key":"06440","name":"Wetteraukreis","type":"Landkreis"},"federalState":{"key":"06","name":"Hessen"}},{"name":"Friedrichstr.","postalCode":"61231","locality":"Bad Nauheim","municipality":{"key":"06440002","name":"Bad Nauheim, Stadt","type":"Stadt"},"district":{"key":"06440","name":"Wetteraukreis","type":"Landkreis"},"federalState":{"key":"06","name":"Hessen"}},{"name":"Fröbelstr.","postalCode":"61231","locality":"Bad Nauheim","municipality":{"key":"06440002","name":"Bad Nauheim, Stadt","type":"Stadt"},"district":{"key":"06440","name":"Wetteraukreis","type":"Landkreis"},"federalState":{"key":"06","name":"Hessen"}},{"name":"Fußgasse","postalCode":"61231","locality":"Bad Nauheim","municipality":{"key":"06440002","name":"Bad Nauheim, Stadt","type":"Stadt"},"district":{"key":"06440","name":"Wetteraukreis","type":"Landkreis"},"federalState":{"key":"06","name":"Hessen"}},{"name":"Gabelsbergerstr.","postalCode":"61231","locality":"Bad Nauheim","municipality":{"key":"06440002","name":"Bad Nauheim, Stadt","type":"Stadt"},"district":{"key":"06440","name":"Wetteraukreis","type":"Landkreis"},"federalState":{"key":"06","name":"Hessen"}},{"name":"Gänsweide","postalCode":"64569","locality":"Nauheim","municipality":{"key":"06433009","name":"Nauheim","type":"Kreisangehörige_Gemeinde"},"district":{"key":"06433","name":"Groß-Gerau","type":"Landkreis"},"federalState":{"key":"06","name":"Hessen"}},{"name":"Garnschneise","postalCode":"64569","locality":"Nauheim","municipality":{"key":"06433009","name":"Nauheim","type":"Kreisangehörige_Gemeinde"},"district":{"key":"06433","name":"Groß-Gerau","type":"Landkreis"},"federalState":{"key":"06","name":"Hessen"}},{"name":"Gartenfeldstr.","postalCode":"61231","locality":"Bad Nauheim","municipality":{"key":"06440002","name":"Bad Nauheim, Stadt","type":"Stadt"},"district":{"key":"06440","name":"Wetteraukreis","type":"Landkreis"},"federalState":{"key":"06","name":"Hessen"}},{"name":"Gartenstr.","postalCode":"64569","locality":"Nauheim","municipality":{"key":"06433009","name":"Nauheim","type":"Kreisangehörige_Gemeinde"},"district":{"key":"06433","name":"Groß-Gerau","type":"Landkreis"},"federalState":{"key":"06","name":"Hessen"}},{"name":"Gartenweg","postalCode":"61231","locality":"Bad Nauheim","municipality":{"key":"06440002","name":"Bad Nauheim, Stadt","type":"Stadt"},"district":{"key":"06440","name":"Wetteraukreis","type":"Landkreis"},"federalState":{"key":"06","name":"Hessen"}},{"name":"Gärtnerweg","postalCode":"61231","locality":"Bad Nauheim","municipality":{"key":"06440002","name":"Bad Nauheim, Stadt","type":"Stadt"},"district":{"key":"06440","name":"Wetteraukreis","type":"Landkreis"},"federalState":{"key":"06","name":"Hessen"}},{"name":"Gelber Weg","postalCode":"61231","locality":"Bad Nauheim","municipality":{"key":"06440002","name":"Bad Nauheim, Stadt","type":"Stadt"},"district":{"key":"06440","name":"Wetteraukreis","type":"Landkreis"},"federalState":{"key":"06","name":"Hessen"}},{"name":"Geologischer Lehrgarten","postalCode":"61231","locality":"Bad Nauheim","municipality":{"key":"06440002","name":"Bad Nauheim, Stadt","type":"Stadt"},"district":{"key":"06440","name":"Wetteraukreis","type":"Landkreis"},"federalState":{"key":"06","name":"Hessen"}},{"name":"Georg-Diehl-Str.","postalCode":"64569","locality":"Nauheim","municipality":{"key":"06433009","name":"Nauheim","type":"Kreisangehörige_Gemeinde"},"district":{"key":"06433","name":"Groß-Gerau","type":"Landkreis"},"federalState":{"key":"06","name":"Hessen"}},{"name":"Georgenstr.","postalCode":"61231","locality":"Bad Nauheim","municipality":{"key":"06440002","name":"Bad Nauheim, Stadt","type":"Stadt"},"district":{"key":"06440","name":"Wetteraukreis","type":"Landkreis"},"federalState":{"key":"06","name":"Hessen"}},{"name":"Georg-Mischlich-Platz","postalCode":"64569","locality":"Nauheim","municipality":{"key":"06433009","name":"Nauheim","type":"Kreisangehörige_Gemeinde"},"district":{"key":"06433","name":"Groß-Gerau","type":"Landkreis"},"federalState":{"key":"06","name":"Hessen"}},{"name":"Georg-Scheller-Str.","postalCode":"61231","locality":"Bad Nauheim","municipality":{"key":"06440002","name":"Bad Nauheim, Stadt","type":"Stadt"},"district":{"key":"06440","name":"Wetteraukreis","type":"Landkreis"},"federalState":{"key":"06","name":"Hessen"}},{"name":"Gesundheitsgarten","postalCode":"61231","locality":"Bad Nauheim","municipality":{"key":"06440002","name":"Bad Nauheim, Stadt","type":"Stadt"},"district":{"key":"06440","name":"Wetteraukreis","type":"Landkreis"},"federalState":{"key":"06","name":"Hessen"}},{"name":"Ginsterweg","postalCode":"61231","locality":"Bad Nauheim","municipality":{"key":"06440002","name":"Bad Nauheim, Stadt","type":"Stadt"},"district":{"key":"06440","name":"Wetteraukreis","type":"Landkreis"},"federalState":{"key":"06","name":"Hessen"}},{"name":"Goethestr.","postalCode":"61231","locality":"Bad Nauheim","municipality":{"key":"06440002","name":"Bad Nauheim, Stadt","type":"Stadt"},"district":{"key":"06440","name":"Wetteraukreis","type":"Landkreis"},"federalState":{"key":"06","name":"Hessen"}},{"name":"Goethestr.","postalCode":"64569","locality":"Nauheim","municipality":{"key":"06433009","name":"Nauheim","type":"Kreisangehörige_Gemeinde"},"district":{"key":"06433","name":"Groß-Gerau","type":"Landkreis"},"federalState":{"key":"06","name":"Hessen"}},{"name":"Goldschmiedstr.","postalCode":"61231","locality":"Bad Nauheim","municipality":{"key":"06440002","name":"Bad Nauheim, Stadt","type":"Stadt"},"district":{"key":"06440","name":"Wetteraukreis","type":"Landkreis"},"federalState":{"key":"06","name":"Hessen"}},{"name":"Goldsteinpark","postalCode":"61231","locality":"Bad Nauheim","municipality":{"key":"06440002","name":"Bad Nauheim, Stadt","type":"Stadt"},"district":{"key":"06440","name":"Wetteraukreis","type":"Landkreis"},"federalState":{"key":"06","name":"Hessen"}},{"name":"Goldsteinstr.","postalCode":"61231","locality":"Bad Nauheim","municipality":{"key":"06440002","name":"Bad Nauheim, Stadt","type":"Stadt"},"district":{"key":"06440","name":"Wetteraukreis","type":"Landkreis"},"federalState":{"key":"06","name":"Hessen"}},{"name":"Gottlieb-Daimler-Str.","postalCode":"64569","locality":"Nauheim","municipality":{"key":"06433009","name":"Nauheim","type":"Kreisangehörige_Gemeinde"},"district":{"key":"06433","name":"Groß-Gerau","type":"Landkreis"},"federalState":{"key":"06","name":"Hessen"}},{"name":"Grabenstr.","postalCode":"61231","locality":"Bad Nauheim","municipality":{"key":"06440002","name":"Bad Nauheim, Stadt","type":"Stadt"},"district":{"key":"06440","name":"Wetteraukreis","type":"Landkreis"},"federalState":{"key":"06","name":"Hessen"}},{"name":"Graslitzer Str.","postalCode":"64569","locality":"Nauheim","municipality":{"key":"06433009","name":"Nauheim","type":"Kreisangehörige_Gemeinde"},"district":{"key":"06433","name":"Groß-Gerau","type":"Landkreis"},"federalState":{"key":"06","name":"Hessen"}},{"name":"Grasweg","postalCode":"61231","locality":"Bad Nauheim","municipality":{"key":"06440002","name":"Bad Nauheim, Stadt","type":"Stadt"},"district":{"key":"06440","name":"Wetteraukreis","type":"Landkreis"},"federalState":{"key":"06","name":"Hessen"}},{"name":"Großen Hundeschneise","postalCode":"64569","locality":"Nauheim","municipality":{"key":"06433009","name":"Nauheim","type":"Kreisangehörige_Gemeinde"},"district":{"key":"06433","name":"Groß-Gerau","type":"Landkreis"},"federalState":{"key":"06","name":"Hessen"}},{"name":"Groß-Gerauer Str.","postalCode":"64569","locality":"Nauheim","municipality":{"key":"06433009","name":"Nauheim","type":"Kreisangehörige_Gemeinde"},"district":{"key":"06433","name":"Groß-Gerau","type":"Landkreis"},"federalState":{"key":"06","name":"Hessen"}},{"name":"Grüner Weg","postalCode":"61231","locality":"Bad Nauheim","municipality":{"key":"06440002","name":"Bad Nauheim, Stadt","type":"Stadt"},"district":{"key":"06440","name":"Wetteraukreis","type":"Landkreis"},"federalState":{"key":"06","name":"Hessen"}},{"name":"Grünfläche Schwarzbach","postalCode":"64569","locality":"Nauheim","municipality":{"key":"06433009","name":"Nauheim","type":"Kreisangehörige_Gemeinde"},"district":{"key":"06433","name":"Groß-Gerau","type":"Landkreis"},"federalState":{"key":"06","name":"Hessen"}},{"name":"Gustav-Kayser-Str.","postalCode":"61231","locality":"Bad Nauheim","municipality":{"key":"06440002","name":"Bad Nauheim, Stadt","type":"Stadt"},"district":{"key":"06440","name":"Wetteraukreis","type":"Landkreis"},"federalState":{"key":"06","name":"Hessen"}},{"name":"Gustav-Stresemann-Str.","postalCode":"64569","locality":"Nauheim","municipality":{"key":"06433009","name":"Nauheim","type":"Kreisangehörige_Gemeinde"},"district":{"key":"06433","name":"Groß-Gerau","type":"Landkreis"},"federalState":{"key":"06","name":"Hessen"}},{"name":"Gutenbergstr.","postalCode":"61231","locality":"Bad Nauheim","municipality":{"key":"06440002","name":"Bad Nauheim, Stadt","type":"Stadt"},"district":{"key":"06440","name":"Wetteraukreis","type":"Landkreis"},"federalState":{"key":"06","name":"Hessen"}},{"name":"Gutermannweg","postalCode":"61231","locality":"Bad Nauheim","municipality":{"key":"06440002","name":"Bad Nauheim, Stadt","type":"Stadt"},"district":{"key":"06440","name":"Wetteraukreis","type":"Landkreis"},"federalState":{"key":"06","name":"Hessen"}},{"name":"Haagweg","postalCode":"61231","locality":"Bad Nauheim","municipality":{"key":"06440002","name":"Bad Nauheim, Stadt","type":"Stadt"},"district":{"key":"06440","name":"Wetteraukreis","type":"Landkreis"},"federalState":{"key":"06","name":"Hessen"}},{"name":"Habichtweg","postalCode":"61231","locality":"Bad Nauheim","municipality":{"key":"06440002","name":"Bad Nauheim, Stadt","type":"Stadt"},"district":{"key":"06440","name":"Wetteraukreis","type":"Landkreis"},"federalState":{"key":"06","name":"Hessen"}},{"name":"Hagebuttenweg","postalCode":"61231","locality":"Bad Nauheim","municipality":{"key":"06440002","name":"Bad Nauheim, Stadt","type":"Stadt"},"district":{"key":"06440","name":"Wetteraukreis","type":"Landkreis"},"federalState":{"key":"06","name":"Hessen"}},{"name":"Hainschneise","postalCode":"64569","locality":"Nauheim","municipality":{"key":"06433009","name":"Nauheim","type":"Kreisangehörige_Gemeinde"},"district":{"key":"06433","name":"Groß-Gerau","type":"Landkreis"},"federalState":{"key":"06","name":"Hessen"}},{"name":"Haselnußweg","postalCode":"61231","locality":"Bad Nauheim","municipality":{"key":"06440002","name":"Bad Nauheim, Stadt","type":"Stadt"},"district":{"key":"06440","name":"Wetteraukreis","type":"Landkreis"},"federalState":{"key":"06","name":"Hessen"}},{"name":"Hauptstr.","postalCode":"61231","locality":"Bad Nauheim","municipality":{"key":"06440002","name":"Bad Nauheim, Stadt","type":"Stadt"},"district":{"key":"06440","name":"Wetteraukreis","type":"Landkreis"},"federalState":{"key":"06","name":"Hessen"}},{"name":"Hausbergstr.","postalCode":"61231","locality":"Bad Nauheim","municipality":{"key":"06440002","name":"Bad Nauheim, Stadt","type":"Stadt"},"district":{"key":"06440","name":"Wetteraukreis","type":"Landkreis"},"federalState":{"key":"06","name":"Hessen"}},{"name":"Häusereckschneise","postalCode":"64569","locality":"Nauheim","municipality":{"key":"06433009","name":"Nauheim","type":"Kreisangehörige_Gemeinde"},"district":{"key":"06433","name":"Groß-Gerau","type":"Landkreis"},"federalState":{"key":"06","name":"Hessen"}},{"name":"Heinrich-Franz-Möbs-Str.","postalCode":"61231","locality":"Bad Nauheim","municipality":{"key":"06440002","name":"Bad Nauheim, Stadt","type":"Stadt"},"district":{"key":"06440","name":"Wetteraukreis","type":"Landkreis"},"federalState":{"key":"06","name":"Hessen"}},{"name":"Heinrich-Heine-Str.","postalCode":"64569","locality":"Nauheim","municipality":{"key":"06433009","name":"Nauheim","type":"Kreisangehörige_Gemeinde"},"district":{"key":"06433","name":"Groß-Gerau","type":"Landkreis"},"federalState":{"key":"06","name":"Hessen"}},{"name":"Heinrich-Jobst-Weg","postalCode":"61231","locality":"Bad Nauheim","municipality":{"key":"06440002","name":"Bad Nauheim, Stadt","type":"Stadt"},"district":{"key":"06440","name":"Wetteraukreis","type":"Landkreis"},"federalState":{"key":"06","name":"Hessen"}},{"name":"Heinrich-Kaul-Platz","postalCode":"64569","locality":"Nauheim","municipality":{"key":"06433009","name":"Nauheim","type":"Kreisangehörige_Gemeinde"},"district":{"key":"06433","name":"Groß-Gerau","type":"Landkreis"},"federalState":{"key":"06","name":"Hessen"}},{"name":"Heinrichstr.","postalCode":"61231","locality":"Bad Nauheim","municipality":{"key":"06440002","name":"Bad Nauheim, Stadt","type":"Stadt"},"district":{"key":"06440","name":"Wetteraukreis","type":"Landkreis"},"federalState":{"key":"06","name":"Hessen"}},{"name":"Heinrich-Zille-Str.","postalCode":"64569","locality":"Nauheim","municipality":{"key":"06433009","name":"Nauheim","type":"Kreisangehörige_Gemeinde"},"district":{"key":"06433","name":"Groß-Gerau","type":"Landkreis"},"federalState":{"key":"06","name":"Hessen"}},{"name":"Hermann-Ehlers-Str.","postalCode":"61231","locality":"Bad Nauheim","municipality":{"key":"06440002","name":"Bad Nauheim, Stadt","type":"Stadt"},"district":{"key":"06440","name":"Wetteraukreis","type":"Landkreis"},"federalState":{"key":"06","name":"Hessen"}},{"name":"Hermann-Löns-Str.","postalCode":"64569","locality":"Nauheim","municipality":{"key":"06433009","name":"Nauheim","type":"Kreisangehörige_Gemeinde"},"district":{"key":"06433","name":"Groß-Gerau","type":"Landkreis"},"federalState":{"key":"06","name":"Hessen"}},{"name":"Hermannstr.","postalCode":"61231","locality":"Bad Nauheim","municipality":{"key":"06440002","name":"Bad Nauheim, Stadt","type":"Stadt"},"district":{"key":"06440","name":"Wetteraukreis","type":"Landkreis"},"federalState":{"key":"06","name":"Hessen"}},{"name":"Hermelinweg","postalCode":"61231","locality":"Bad Nauheim","municipality":{"key":"06440002","name":"Bad Nauheim, Stadt","type":"Stadt"},"district":{"key":"06440","name":"Wetteraukreis","type":"Landkreis"},"federalState":{"key":"06","name":"Hessen"}},{"name":"Hildegardstr.","postalCode":"61231","locality":"Bad Nauheim","municipality":{"key":"06440002","name":"Bad Nauheim, Stadt","type":"Stadt"},"district":{"key":"06440","name":"Wetteraukreis","type":"Landkreis"},"federalState":{"key":"06","name":"Hessen"}},{"name":"Hindenburgstr.","postalCode":"61231","locality":"Bad Nauheim","municipality":{"key":"06440002","name":"Bad Nauheim, Stadt","type":"Stadt"},"district":{"key":"06440","name":"Wetteraukreis","type":"Landkreis"},"federalState":{"key":"06","name":"Hessen"}},{"name":"Hintergasse","postalCode":"61231","locality":"Bad Nauheim","municipality":{"key":"06440002","name":"Bad Nauheim, Stadt","type":"Stadt"},"district":{"key":"06440","name":"Wetteraukreis","type":"Landkreis"},"federalState":{"key":"06","name":"Hessen"}},{"name":"Hintergasse","postalCode":"64569","locality":"Nauheim","municipality":{"key":"06433009","name":"Nauheim","type":"Kreisangehörige_Gemeinde"},"district":{"key":"06433","name":"Groß-Gerau","type":"Landkreis"},"federalState":{"key":"06","name":"Hessen"}},{"name":"Hirtenhäuserschneise","postalCode":"64569","locality":"Nauheim","municipality":{"key":"06433009","name":"Nauheim","type":"Kreisangehörige_Gemeinde"},"district":{"key":"06433","name":"Groß-Gerau","type":"Landkreis"},"federalState":{"key":"06","name":"Hessen"}},{"name":"Hochwaldstr.","postalCode":"61231","locality":"Bad Nauheim","municipality":{"key":"06440002","name":"Bad Nauheim, Stadt","type":"Stadt"},"district":{"key":"06440","name":"Wetteraukreis","type":"Landkreis"},"federalState":{"key":"06","name":"Hessen"}},{"name":"Hofgut Löwenthal","postalCode":"61231","locality":"Bad Nauheim","municipality":{"key":"06440002","name":"Bad Nauheim, Stadt","type":"Stadt"},"district":{"key":"06440","name":"Wetteraukreis","type":"Landkreis"},"federalState":{"key":"06","name":"Hessen"}},{"name":"Höhenstr.","postalCode":"61231","locality":"Bad Nauheim","municipality":{"key":"06440002","name":"Bad Nauheim, Stadt","type":"Stadt"},"district":{"key":"06440","name":"Wetteraukreis","type":"Landkreis"},"federalState":{"key":"06","name":"Hessen"}},{"name":"Höhenweg","postalCode":"61231","locality":"Bad Nauheim","municipality":{"key":"06440002","name":"Bad Nauheim, Stadt","type":"Stadt"},"district":{"key":"06440","name":"Wetteraukreis","type":"Landkreis"},"federalState":{"key":"06","name":"Hessen"}},{"name":"Hohe Str.","postalCode":"61231","locality":"Bad Nauheim","municipality":{"key":"06440002","name":"Bad Nauheim, Stadt","type":"Stadt"},"district":{"key":"06440","name":"Wetteraukreis","type":"Landkreis"},"federalState":{"key":"06","name":"Hessen"}},{"name":"Holunderweg","postalCode":"61231","locality":"Bad Nauheim","municipality":{"key":"06440002","name":"Bad Nauheim, Stadt","type":"Stadt"},"district":{"key":"06440","name":"Wetteraukreis","type":"Landkreis"},"federalState":{"key":"06","name":"Hessen"}},{"name":"Homburger Str.","postalCode":"61231","locality":"Bad Nauheim","municipality":{"key":"06440002","name":"Bad Nauheim, Stadt","type":"Stadt"},"district":{"key":"06440","name":"Wetteraukreis","type":"Landkreis"},"federalState":{"key":"06","name":"Hessen"}},{"name":"Hubert-Vergölst-Str.","postalCode":"61231","locality":"Bad Nauheim","municipality":{"key":"06440002","name":"Bad Nauheim, Stadt","type":"Stadt"},"district":{"key":"06440","name":"Wetteraukreis","type":"Landkreis"},"federalState":{"key":"06","name":"Hessen"}},{"name":"Hügelstr.","postalCode":"61231","locality":"Bad Nauheim","municipality":{"key":"06440002","name":"Bad Nauheim, Stadt","type":"Stadt"},"district":{"key":"06440","name":"Wetteraukreis","type":"Landkreis"},"federalState":{"key":"06","name":"Hessen"}},{"name":"Hügelstr.","postalCode":"64569","locality":"Nauheim","municipality":{"key":"06433009","name":"Nauheim","type":"Kreisangehörige_Gemeinde"},"district":{"key":"06433","name":"Groß-Gerau","type":"Landkreis"},"federalState":{"key":"06","name":"Hessen"}},{"name":"Hühnerschneise","postalCode":"61231","locality":"Bad Nauheim","municipality":{"key":"06440002","name":"Bad Nauheim, Stadt","type":"Stadt"},"district":{"key":"06440","name":"Wetteraukreis","type":"Landkreis"},"federalState":{"key":"06","name":"Hessen"}},{"name":"Im Amselfeld","postalCode":"61231","locality":"Bad Nauheim","municipality":{"key":"06440002","name":"Bad Nauheim, Stadt","type":"Stadt"},"district":{"key":"06440","name":"Wetteraukreis","type":"Landkreis"},"federalState":{"key":"06","name":"Hessen"}},{"name":"Im Fischersee","postalCode":"64569","locality":"Nauheim","municipality":{"key":"06433009","name":"Nauheim","type":"Kreisangehörige_Gemeinde"},"district":{"key":"06433","name":"Groß-Gerau","type":"Landkreis"},"federalState":{"key":"06","name":"Hessen"}},{"name":"Im Gehren","postalCode":"64569","locality":"Nauheim","municipality":{"key":"06433009","name":"Nauheim","type":"Kreisangehörige_Gemeinde"},"district":{"key":"06433","name":"Groß-Gerau","type":"Landkreis"},"federalState":{"key":"06","name":"Hessen"}},{"name":"Im Hopfengarten","postalCode":"61231","locality":"Bad Nauheim","municipality":{"key":"06440002","name":"Bad Nauheim, Stadt","type":"Stadt"},"district":{"key":"06440","name":"Wetteraukreis","type":"Landkreis"},"federalState":{"key":"06","name":"Hessen"}},{"name":"Im Kirchfeld","postalCode":"61231","locality":"Bad Nauheim","municipality":{"key":"06440002","name":"Bad Nauheim, Stadt","type":"Stadt"},"district":{"key":"06440","name":"Wetteraukreis","type":"Landkreis"},"federalState":{"key":"06","name":"Hessen"}},{"name":"Im Kirschgarten","postalCode":"61231","locality":"Bad Nauheim","municipality":{"key":"06440002","name":"Bad Nauheim, Stadt","type":"Stadt"},"district":{"key":"06440","name":"Wetteraukreis","type":"Landkreis"},"federalState":{"key":"06","name":"Hessen"}},{"name":"Im Litzel","postalCode":"61231","locality":"Bad Nauheim","municipality":{"key":"06440002","name":"Bad Nauheim, Stadt","type":"Stadt"},"district":{"key":"06440","name":"Wetteraukreis","type":"Landkreis"},"federalState":{"key":"06","name":"Hessen"}},{"name":"Im Neurod","postalCode":"64569","locality":"Nauheim","municipality":{"key":"06433009","name":"Nauheim","type":"Kreisangehörige_Gemeinde"},"district":{"key":"06433","name":"Groß-Gerau","type":"Landkreis"},"federalState":{"key":"06","name":"Hessen"}},{"name":"Im Rod","postalCode":"64569","locality":"Nauheim","municipality":{"key":"06433009","name":"Nauheim","type":"Kreisangehörige_Gemeinde"},"district":{"key":"06433","name":"Groß-Gerau","type":"Landkreis"},"federalState":{"key":"06","name":"Hessen"}},{"name":"Im Rosental","postalCode":"61231","locality":"Bad Nauheim","municipality":{"key":"06440002","name":"Bad Nauheim, Stadt","type":"Stadt"},"district":{"key":"06440","name":"Wetteraukreis","type":"Landkreis"},"federalState":{"key":"06","name":"Hessen"}},{"name":"Im Seegarten","postalCode":"61231","locality":"Bad Nauheim","municipality":{"key":"06440002","name":"Bad Nauheim, Stadt","type":"Stadt"},"district":{"key":"06440","name":"Wetteraukreis","type":"Landkreis"},"federalState":{"key":"06","name":"Hessen"}},{"name":"Im Setzling","postalCode":"61231","locality":"Bad Nauheim","municipality":{"key":"06440002","name":"Bad Nauheim, Stadt","type":"Stadt"},"district":{"key":"06440","name":"Wetteraukreis","type":"Landkreis"},"federalState":{"key":"06","name":"Hessen"}},{"name":"Im Sichler","postalCode":"61231","locality":"Bad Nauheim","municipality":{"key":"06440002","name":"Bad Nauheim, Stadt","type":"Stadt"},"district":{"key":"06440","name":"Wetteraukreis","type":"Landkreis"},"federalState":{"key":"06","name":"Hessen"}},{"name":"Im Staudenfeld","postalCode":"64569","locality":"Nauheim","municipality":{"key":"06433009","name":"Nauheim","type":"Kreisangehörige_Gemeinde"},"district":{"key":"06433","name":"Groß-Gerau","type":"Landkreis"},"federalState":{"key":"06","name":"Hessen"}},{"name":"Im Steckgarten","postalCode":"61231","locality":"Bad Nauheim","municipality":{"key":"06440002","name":"Bad Nauheim, Stadt","type":"Stadt"},"district":{"key":"06440","name":"Wetteraukreis","type":"Landkreis"},"federalState":{"key":"06","name":"Hessen"}},{"name":"Im Steingarten","postalCode":"61231","locality":"Bad Nauheim","municipality":{"key":"06440002","name":"Bad Nauheim, Stadt","type":"Stadt"},"district":{"key":"06440","name":"Wetteraukreis","type":"Landkreis"},"federalState":{"key":"06","name":"Hessen"}},{"name":"Im Teich","postalCode":"64569","locality":"Nauheim","municipality":{"key":"06433009","name":"Nauheim","type":"Kreisangehörige_Gemeinde"},"district":{"key":"06433","name":"Groß-Gerau","type":"Landkreis"},"federalState":{"key":"06","name":"Hessen"}},{"name":"Im Vogelsang","postalCode":"61231","locality":"Bad Nauheim","municipality":{"key":"06440002","name":"Bad Nauheim, Stadt","type":"Stadt"},"district":{"key":"06440","name":"Wetteraukreis","type":"Landkreis"},"federalState":{"key":"06","name":"Hessen"}},{"name":"Im Waldfeld","postalCode":"64569","locality":"Nauheim","municipality":{"key":"06433009","name":"Nauheim","type":"Kreisangehörige_Gemeinde"},"district":{"key":"06433","name":"Groß-Gerau","type":"Landkreis"},"federalState":{"key":"06","name":"Hessen"}},{"name":"Im Warthfeld","postalCode":"61231","locality":"Bad Nauheim","municipality":{"key":"06440002","name":"Bad Nauheim, Stadt","type":"Stadt"},"district":{"key":"06440","name":"Wetteraukreis","type":"Landkreis"},"federalState":{"key":"06","name":"Hessen"}},{"name":"In den Kolonnaden","postalCode":"61231","locality":"Bad Nauheim","municipality":{"key":"06440002","name":"Bad Nauheim, Stadt","type":"Stadt"},"district":{"key":"06440","name":"Wetteraukreis","type":"Landkreis"},"federalState":{"key":"06","name":"Hessen"}},{"name":"In den Niederwiesenäckern","postalCode":"64569","locality":"Nauheim","municipality":{"key":"06433009","name":"Nauheim","type":"Kreisangehörige_Gemeinde"},"district":{"key":"06433","name":"Groß-Gerau","type":"Landkreis"},"federalState":{"key":"06","name":"Hessen"}},{"name":"In den Nußgärten","postalCode":"61231","locality":"Bad Nauheim","municipality":{"key":"06440002","name":"Bad Nauheim, Stadt","type":"Stadt"},"district":{"key":"06440","name":"Wetteraukreis","type":"Landkreis"},"federalState":{"key":"06","name":"Hessen"}},{"name":"In der Au","postalCode":"61231","locality":"Bad Nauheim","municipality":{"key":"06440002","name":"Bad Nauheim, Stadt","type":"Stadt"},"district":{"key":"06440","name":"Wetteraukreis","type":"Landkreis"},"federalState":{"key":"06","name":"Hessen"}},{"name":"In der Hiesbach","postalCode":"61231","locality":"Bad Nauheim","municipality":{"key":"06440002","name":"Bad Nauheim, Stadt","type":"Stadt"},"district":{"key":"06440","name":"Wetteraukreis","type":"Landkreis"},"federalState":{"key":"06","name":"Hessen"}},{"name":"In der Hub","postalCode":"61231","locality":"Bad Nauheim","municipality":{"key":"06440002","name":"Bad Nauheim, Stadt","type":"Stadt"},"district":{"key":"06440","name":"Wetteraukreis","type":"Landkreis"},"federalState":{"key":"06","name":"Hessen"}},{"name":"In der Weed","postalCode":"61231","locality":"Bad Nauheim","municipality":{"key":"06440002","name":"Bad Nauheim, Stadt","type":"Stadt"},"district":{"key":"06440","name":"Wetteraukreis","type":"Landkreis"},"federalState":{"key":"06","name":"Hessen"}},{"name":"Industriestr.","postalCode":"64569","locality":"Nauheim","municipality":{"key":"06433009","name":"Nauheim","type":"Kreisangehörige_Gemeinde"},"district":{"key":"06433","name":"Groß-Gerau","type":"Landkreis"},"federalState":{"key":"06","name":"Hessen"}},{"name":"Jahnstr.","postalCode":"61231","locality":"Bad Nauheim","municipality":{"key":"06440002","name":"Bad Nauheim, Stadt","type":"Stadt"},"district":{"key":"06440","name":"Wetteraukreis","type":"Landkreis"},"federalState":{"key":"06","name":"Hessen"}},{"name":"Jahnstr.","postalCode":"64569","locality":"Nauheim","municipality":{"key":"06433009","name":"Nauheim","type":"Kreisangehörige_Gemeinde"},"district":{"key":"06433","name":"Groß-Gerau","type":"Landkreis"},"federalState":{"key":"06","name":"Hessen"}},{"name":"Jakob-Heil-Str.","postalCode":"61231","locality":"Bad Nauheim","municipality":{"key":"06440002","name":"Bad Nauheim, Stadt","type":"Stadt"},"district":{"key":"06440","name":"Wetteraukreis","type":"Landkreis"},"federalState":{"key":"06","name":"Hessen"}},{"name":"Johann-Alois-Zimmer-Str.","postalCode":"61231","locality":"Bad Nauheim","municipality":{"key":"06440002","name":"Bad Nauheim, Stadt","type":"Stadt"},"district":{"key":"06440","name":"Wetteraukreis","type":"Landkreis"},"federalState":{"key":"06","name":"Hessen"}},{"name":"Johann-Heinrich-Pestalozzi-Weg","postalCode":"64569","locality":"Nauheim","municipality":{"key":"06433009","name":"Nauheim","type":"Kreisangehörige_Gemeinde"},"district":{"key":"06433","name":"Groß-Gerau","type":"Landkreis"},"federalState":{"key":"06","name":"Hessen"}},{"name":"Johannisberg","postalCode":"61231","locality":"Bad Nauheim","municipality":{"key":"06440002","name":"Bad Nauheim, Stadt","type":"Stadt"},"district":{"key":"06440","name":"Wetteraukreis","type":"Landkreis"},"federalState":{"key":"06","name":"Hessen"}},{"name":"Johannisstr.","postalCode":"61231","locality":"Bad Nauheim","municipality":{"key":"06440002","name":"Bad Nauheim, Stadt","type":"Stadt"},"district":{"key":"06440","name":"Wetteraukreis","type":"Landkreis"},"federalState":{"key":"06","name":"Hessen"}},{"name":"Johann-Philipp-Huth-Str.","postalCode":"61231","locality":"Bad Nauheim","municipality":{"key":"06440002","name":"Bad Nauheim, Stadt","type":"Stadt"},"district":{"key":"06440","name":"Wetteraukreis","type":"Landkreis"},"federalState":{"key":"06","name":"Hessen"}},{"name":"Justus-Liebig-Str.","postalCode":"64569","locality":"Nauheim","municipality":{"key":"06433009","name":"Nauheim","type":"Kreisangehörige_Gemeinde"},"district":{"key":"06433","name":"Groß-Gerau","type":"Landkreis"},"federalState":{"key":"06","name":"Hessen"}},{"name":"Karlsbader Str.","postalCode":"61231","locality":"Bad Nauheim","municipality":{"key":"06440002","name":"Bad Nauheim, Stadt","type":"Stadt"},"district":{"key":"06440","name":"Wetteraukreis","type":"Landkreis"},"federalState":{"key":"06","name":"Hessen"}},{"name":"Karlsbrunnenplatz","postalCode":"61231","locality":"Bad Nauheim","municipality":{"key":"06440002","name":"Bad Nauheim, Stadt","type":"Stadt"},"district":{"key":"06440","name":"Wetteraukreis","type":"Landkreis"},"federalState":{"key":"06","name":"Hessen"}},{"name":"Karlstr.","postalCode":"61231","locality":"Bad Nauheim","municipality":{"key":"06440002","name":"Bad Nauheim, Stadt","type":"Stadt"},"district":{"key":"06440","name":"Wetteraukreis","type":"Landkreis"},"federalState":{"key":"06","name":"Hessen"}},{"name":"Kastanienrondell","postalCode":"61231","locality":"Bad Nauheim","municipality":{"key":"06440002","name":"Bad Nauheim, Stadt","type":"Stadt"},"district":{"key":"06440","name":"Wetteraukreis","type":"Landkreis"},"federalState":{"key":"06","name":"Hessen"}},{"name":"Katharinenstr.","postalCode":"61231","locality":"Bad Nauheim","municipality":{"key":"06440002","name":"Bad Nauheim, Stadt","type":"Stadt"},"district":{"key":"06440","name":"Wetteraukreis","type":"Landkreis"},"federalState":{"key":"06","name":"Hessen"}},{"name":"Käthe-Kollwitz-Str.","postalCode":"64569","locality":"Nauheim","municipality":{"key":"06433009","name":"Nauheim","type":"Kreisangehörige_Gemeinde"},"district":{"key":"06433","name":"Groß-Gerau","type":"Landkreis"},"federalState":{"key":"06","name":"Hessen"}},{"name":"Kehresackerschneise","postalCode":"64569","locality":"Nauheim","municipality":{"key":"06433009","name":"Nauheim","type":"Kreisangehörige_Gemeinde"},"district":{"key":"06433","name":"Groß-Gerau","type":"Landkreis"},"federalState":{"key":"06","name":"Hessen"}},{"name":"Kellereigasse","postalCode":"61231","locality":"Bad Nauheim","municipality":{"key":"06440002","name":"Bad Nauheim, Stadt","type":"Stadt"},"district":{"key":"06440","name":"Wetteraukreis","type":"Landkreis"},"federalState":{"key":"06","name":"Hessen"}},{"name":"Keltenweg","postalCode":"61231","locality":"Bad Nauheim","municipality":{"key":"06440002","name":"Bad Nauheim, Stadt","type":"Stadt"},"district":{"key":"06440","name":"Wetteraukreis","type":"Landkreis"},"federalState":{"key":"06","name":"Hessen"}},{"name":"Kettelerstr.","postalCode":"61231","locality":"Bad Nauheim","municipality":{"key":"06440002","name":"Bad Nauheim, Stadt","type":"Stadt"},"district":{"key":"06440","name":"Wetteraukreis","type":"Landkreis"},"federalState":{"key":"06","name":"Hessen"}},{"name":"Kiefernweg","postalCode":"61231","locality":"Bad Nauheim","municipality":{"key":"06440002","name":"Bad Nauheim, Stadt","type":"Stadt"},"district":{"key":"06440","name":"Wetteraukreis","type":"Landkreis"},"federalState":{"key":"06","name":"Hessen"}},{"name":"Kiefernweg","postalCode":"64569","locality":"Nauheim","municipality":{"key":"06433009","name":"Nauheim","type":"Kreisangehörige_Gemeinde"},"district":{"key":"06433","name":"Groß-Gerau","type":"Landkreis"},"federalState":{"key":"06","name":"Hessen"}},{"name":"Kirchpfad","postalCode":"64569","locality":"Nauheim","municipality":{"key":"06433009","name":"Nauheim","type":"Kreisangehörige_Gemeinde"},"district":{"key":"06433","name":"Groß-Gerau","type":"Landkreis"},"federalState":{"key":"06","name":"Hessen"}},{"name":"Kirchstr.","postalCode":"61231","locality":"Bad Nauheim","municipality":{"key":"06440002","name":"Bad Nauheim, Stadt","type":"Stadt"},"district":{"key":"06440","name":"Wetteraukreis","type":"Landkreis"},"federalState":{"key":"06","name":"Hessen"}},{"name":"Kirchstr.","postalCode":"64569","locality":"Nauheim","municipality":{"key":"06433009","name":"Nauheim","type":"Kreisangehörige_Gemeinde"},"district":{"key":"06433","name":"Groß-Gerau","type":"Landkreis"},"federalState":{"key":"06","name":"Hessen"}},{"name":"Kleine Hundschneise","postalCode":"64569","locality":"Nauheim","municipality":{"key":"06433009","name":"Nauheim","type":"Kreisangehörige_Gemeinde"},"district":{"key":"06433","name":"Groß-Gerau","type":"Landkreis"},"federalState":{"key":"06","name":"Hessen"}},{"name":"Klötzenhornweg","postalCode":"64569","locality":"Nauheim","municipality":{"key":"06433009","name":"Nauheim","type":"Kreisangehörige_Gemeinde"},"district":{"key":"06433","name":"Groß-Gerau","type":"Landkreis"},"federalState":{"key":"06","name":"Hessen"}},{"name":"Kochstr.","postalCode":"61231","locality":"Bad Nauheim","municipality":{"key":"06440002","name":"Bad Nauheim, Stadt","type":"Stadt"},"district":{"key":"06440","name":"Wetteraukreis","type":"Landkreis"},"federalState":{"key":"06","name":"Hessen"}},{"name":"Kolpingweg","postalCode":"61231","locality":"Bad Nauheim","municipality":{"key":"06440002","name":"Bad Nauheim, Stadt","type":"Stadt"},"district":{"key":"06440","name":"Wetteraukreis","type":"Landkreis"},"federalState":{"key":"06","name":"Hessen"}},{"name":"Königsberger Str.","postalCode":"61231","locality":"Bad Nauheim","municipality":{"key":"06440002","name":"Bad Nauheim, Stadt","type":"Stadt"},"district":{"key":"06440","name":"Wetteraukreis","type":"Landkreis"},"federalState":{"key":"06","name":"Hessen"}},{"name":"Königstädter Str.","postalCode":"64569","locality":"Nauheim","municipality":{"key":"06433009","name":"Nauheim","type":"Kreisangehörige_Gemeinde"},"district":{"key":"06433","name":"Groß-Gerau","type":"Landkreis"},"federalState":{"key":"06","name":"Hessen"}},{"name":"Konitzkyweg","postalCode":"61231","locality":"Bad Nauheim","municipality":{"key":"06440002","name":"Bad Nauheim, Stadt","type":"Stadt"},"district":{"key":"06440","name":"Wetteraukreis","type":"Landkreis"},"federalState":{"key":"06","name":"Hessen"}},{"name":"Konrad-Adenauer-Allee","postalCode":"64569","locality":"Nauheim","municipality":{"key":"06433009","name":"Nauheim","type":"Kreisangehörige_Gemeinde"},"district":{"key":"06433","name":"Groß-Gerau","type":"Landkreis"},"federalState":{"key":"06","name":"Hessen"}},{"name":"Kornblumenweg","postalCode":"61231","locality":"Bad Nauheim","municipality":{"key":"06440002","name":"Bad Nauheim, Stadt","type":"Stadt"},"district":{"key":"06440","name":"Wetteraukreis","type":"Landkreis"},"federalState":{"key":"06","name":"Hessen"}},{"name":"Kranichstr.","postalCode":"64569","locality":"Nauheim","municipality":{"key":"06433009","name":"Nauheim","type":"Kreisangehörige_Gemeinde"},"district":{"key":"06433","name":"Groß-Gerau","type":"Landkreis"},"federalState":{"key":"06","name":"Hessen"}},{"name":"Kronseeschneise","postalCode":"64569","locality":"Nauheim","municipality":{"key":"06433009","name":"Nauheim","type":"Kreisangehörige_Gemeinde"},"district":{"key":"06433","name":"Groß-Gerau","type":"Landkreis"},"federalState":{"key":"06","name":"Hessen"}},{"name":"Küchlerstr.","postalCode":"61231","locality":"Bad Nauheim","municipality":{"key":"06440002","name":"Bad Nauheim, Stadt","type":"Stadt"},"district":{"key":"06440","name":"Wetteraukreis","type":"Landkreis"},"federalState":{"key":"06","name":"Hessen"}},{"name":"Kurpark","postalCode":"61231","locality":"Bad Nauheim","municipality":{"key":"06440002","name":"Bad Nauheim, Stadt","type":"Stadt"},"district":{"key":"06440","name":"Wetteraukreis","type":"Landkreis"},"federalState":{"key":"06","name":"Hessen"}},{"name":"Kurstr.","postalCode":"61231","locality":"Bad Nauheim","municipality":{"key":"06440002","name":"Bad Nauheim, Stadt","type":"Stadt"},"district":{"key":"06440","name":"Wetteraukreis","type":"Landkreis"},"federalState":{"key":"06","name":"Hessen"}},{"name":"Kurt-Schumacher-Str.","postalCode":"64569","locality":"Nauheim","municipality":{"key":"06433009","name":"Nauheim","type":"Kreisangehörige_Gemeinde"},"district":{"key":"06433","name":"Groß-Gerau","type":"Landkreis"},"federalState":{"key":"06","name":"Hessen"}},{"name":"Landgrafenstr.","postalCode":"61231","locality":"Bad Nauheim","municipality":{"key":"06440002","name":"Bad Nauheim, Stadt","type":"Stadt"},"district":{"key":"06440","name":"Wetteraukreis","type":"Landkreis"},"federalState":{"key":"06","name":"Hessen"}},{"name":"Lange Schneise","postalCode":"64569","locality":"Nauheim","municipality":{"key":"06433009","name":"Nauheim","type":"Kreisangehörige_Gemeinde"},"district":{"key":"06433","name":"Groß-Gerau","type":"Landkreis"},"federalState":{"key":"06","name":"Hessen"}},{"name":"Langsdorffstr.","postalCode":"61231","locality":"Bad Nauheim","municipality":{"key":"06440002","name":"Bad Nauheim, Stadt","type":"Stadt"},"district":{"key":"06440","name":"Wetteraukreis","type":"Landkreis"},"federalState":{"key":"06","name":"Hessen"}},{"name":"Lärchen-Schneise","postalCode":"61231","locality":"Bad Nauheim","municipality":{"key":"06440002","name":"Bad Nauheim, Stadt","type":"Stadt"},"district":{"key":"06440","name":"Wetteraukreis","type":"Landkreis"},"federalState":{"key":"06","name":"Hessen"}},{"name":"Lärchenweg","postalCode":"61231","locality":"Bad Nauheim","municipality":{"key":"06440002","name":"Bad Nauheim, Stadt","type":"Stadt"},"district":{"key":"06440","name":"Wetteraukreis","type":"Landkreis"},"federalState":{"key":"06","name":"Hessen"}},{"name":"Lärchenweg","postalCode":"64569","locality":"Nauheim","municipality":{"key":"06433009","name":"Nauheim","type":"Kreisangehörige_Gemeinde"},"district":{"key":"06433","name":"Groß-Gerau","type":"Landkreis"},"federalState":{"key":"06","name":"Hessen"}},{"name":"Lassallestr.","postalCode":"61231","locality":"Bad Nauheim","municipality":{"key":"06440002","name":"Bad Nauheim, Stadt","type":"Stadt"},"district":{"key":"06440","name":"Wetteraukreis","type":"Landkreis"},"federalState":{"key":"06","name":"Hessen"}},{"name":"Laufflügelschneise","postalCode":"64569","locality":"Nauheim","municipality":{"key":"06433009","name":"Nauheim","type":"Kreisangehörige_Gemeinde"},"district":{"key":"06433","name":"Groß-Gerau","type":"Landkreis"},"federalState":{"key":"06","name":"Hessen"}},{"name":"Lee Boulevard","postalCode":"61231","locality":"Bad Nauheim","municipality":{"key":"06440002","name":"Bad Nauheim, Stadt","type":"Stadt"},"district":{"key":"06440","name":"Wetteraukreis","type":"Landkreis"},"federalState":{"key":"06","name":"Hessen"}},{"name":"Lessingstr.","postalCode":"61231","locality":"Bad Nauheim","municipality":{"key":"06440002","name":"Bad Nauheim, Stadt","type":"Stadt"},"district":{"key":"06440","name":"Wetteraukreis","type":"Landkreis"},"federalState":{"key":"06","name":"Hessen"}},{"name":"Liebigstr.","postalCode":"61231","locality":"Bad Nauheim","municipality":{"key":"06440002","name":"Bad Nauheim, Stadt","type":"Stadt"},"district":{"key":"06440","name":"Wetteraukreis","type":"Landkreis"},"federalState":{"key":"06","name":"Hessen"}},{"name":"Lindenstr.","postalCode":"61231","locality":"Bad Nauheim","municipality":{"key":"06440002","name":"Bad Nauheim, Stadt","type":"Stadt"},"district":{"key":"06440","name":"Wetteraukreis","type":"Landkreis"},"federalState":{"key":"06","name":"Hessen"}},{"name":"Lindenweg","postalCode":"61231","locality":"Bad Nauheim","municipality":{"key":"06440002","name":"Bad Nauheim, Stadt","type":"Stadt"},"district":{"key":"06440","name":"Wetteraukreis","type":"Landkreis"},"federalState":{"key":"06","name":"Hessen"}},{"name":"Lorenz-Dey-Str.","postalCode":"61231","locality":"Bad Nauheim","municipality":{"key":"06440002","name":"Bad Nauheim, Stadt","type":"Stadt"},"district":{"key":"06440","name":"Wetteraukreis","type":"Landkreis"},"federalState":{"key":"06","name":"Hessen"}},{"name":"Löwenthalstr.","postalCode":"61231","locality":"Bad Nauheim","municipality":{"key":"06440002","name":"Bad Nauheim, Stadt","type":"Stadt"},"district":{"key":"06440","name":"Wetteraukreis","type":"Landkreis"},"federalState":{"key":"06","name":"Hessen"}},{"name":"Ludwigstr.","postalCode":"61231","locality":"Bad Nauheim","municipality":{"key":"06440002","name":"Bad Nauheim, Stadt","type":"Stadt"},"district":{"key":"06440","name":"Wetteraukreis","type":"Landkreis"},"federalState":{"key":"06","name":"Hessen"}},{"name":"Luise-Frey-Str.","postalCode":"61231","locality":"Bad Nauheim","municipality":{"key":"06440002","name":"Bad Nauheim, Stadt","type":"Stadt"},"district":{"key":"06440","name":"Wetteraukreis","type":"Landkreis"},"federalState":{"key":"06","name":"Hessen"}},{"name":"Luisenstr.","postalCode":"61231","locality":"Bad Nauheim","municipality":{"key":"06440002","name":"Bad Nauheim, Stadt","type":"Stadt"},"district":{"key":"06440","name":"Wetteraukreis","type":"Landkreis"},"federalState":{"key":"06","name":"Hessen"}},{"name":"Lutherstr.","postalCode":"61231","locality":"Bad Nauheim","municipality":{"key":"06440002","name":"Bad Nauheim, Stadt","type":"Stadt"},"district":{"key":"06440","name":"Wetteraukreis","type":"Landkreis"},"federalState":{"key":"06","name":"Hessen"}},{"name":"Mainstr.","postalCode":"64569","locality":"Nauheim","municipality":{"key":"06433009","name":"Nauheim","type":"Kreisangehörige_Gemeinde"},"district":{"key":"06433","name":"Groß-Gerau","type":"Landkreis"},"federalState":{"key":"06","name":"Hessen"}},{"name":"Mainzer Landstr.","postalCode":"64569","locality":"Nauheim","municipality":{"key":"06433009","name":"Nauheim","type":"Kreisangehörige_Gemeinde"},"district":{"key":"06433","name":"Groß-Gerau","type":"Landkreis"},"federalState":{"key":"06","name":"Hessen"}},{"name":"Margarethenstr.","postalCode":"61231","locality":"Bad Nauheim","municipality":{"key":"06440002","name":"Bad Nauheim, Stadt","type":"Stadt"},"district":{"key":"06440","name":"Wetteraukreis","type":"Landkreis"},"federalState":{"key":"06","name":"Hessen"}},{"name":"Marie-Curie-Str.","postalCode":"64569","locality":"Nauheim","municipality":{"key":"06433009","name":"Nauheim","type":"Kreisangehörige_Gemeinde"},"district":{"key":"06433","name":"Groß-Gerau","type":"Landkreis"},"federalState":{"key":"06","name":"Hessen"}},{"name":"Marienstr.","postalCode":"61231","locality":"Bad Nauheim","municipality":{"key":"06440002","name":"Bad Nauheim, Stadt","type":"Stadt"},"district":{"key":"06440","name":"Wetteraukreis","type":"Landkreis"},"federalState":{"key":"06","name":"Hessen"}},{"name":"Martha-Lesse-Str.","postalCode":"61231","locality":"Bad Nauheim","municipality":{"key":"06440002","name":"Bad Nauheim, Stadt","type":"Stadt"},"district":{"key":"06440","name":"Wetteraukreis","type":"Landkreis"},"federalState":{"key":"06","name":"Hessen"}},{"name":"Martinusstr.","postalCode":"61231","locality":"Bad Nauheim","municipality":{"key":"06440002","name":"Bad Nauheim, Stadt","type":"Stadt"},"district":{"key":"06440","name":"Wetteraukreis","type":"Landkreis"},"federalState":{"key":"06","name":"Hessen"}},{"name":"Max-Liebermann-Str.","postalCode":"64569","locality":"Nauheim","municipality":{"key":"06433009","name":"Nauheim","type":"Kreisangehörige_Gemeinde"},"district":{"key":"06433","name":"Groß-Gerau","type":"Landkreis"},"federalState":{"key":"06","name":"Hessen"}},{"name":"Max-Planck-Str.","postalCode":"61231","locality":"Bad Nauheim","municipality":{"key":"06440002","name":"Bad Nauheim, Stadt","type":"Stadt"},"district":{"key":"06440","name":"Wetteraukreis","type":"Landkreis"},"federalState":{"key":"06","name":"Hessen"}},{"name":"Max-Planck-Str.","postalCode":"64569","locality":"Nauheim","municipality":{"key":"06433009","name":"Nauheim","type":"Kreisangehörige_Gemeinde"},"district":{"key":"06433","name":"Groß-Gerau","type":"Landkreis"},"federalState":{"key":"06","name":"Hessen"}},{"name":"Melbacher Weg","postalCode":"61231","locality":"Bad Nauheim","municipality":{"key":"06440002","name":"Bad Nauheim, Stadt","type":"Stadt"},"district":{"key":"06440","name":"Wetteraukreis","type":"Landkreis"},"federalState":{"key":"06","name":"Hessen"}},{"name":"Merlinweg","postalCode":"61231","locality":"Bad Nauheim","municipality":{"key":"06440002","name":"Bad Nauheim, Stadt","type":"Stadt"},"district":{"key":"06440","name":"Wetteraukreis","type":"Landkreis"},"federalState":{"key":"06","name":"Hessen"}},{"name":"Milanweg","postalCode":"61231","locality":"Bad Nauheim","municipality":{"key":"06440002","name":"Bad Nauheim, Stadt","type":"Stadt"},"district":{"key":"06440","name":"Wetteraukreis","type":"Landkreis"},"federalState":{"key":"06","name":"Hessen"}},{"name":"Mittelschneise","postalCode":"61231","locality":"Bad Nauheim","municipality":{"key":"06440002","name":"Bad Nauheim, Stadt","type":"Stadt"},"district":{"key":"06440","name":"Wetteraukreis","type":"Landkreis"},"federalState":{"key":"06","name":"Hessen"}},{"name":"Mittelstr.","postalCode":"61231","locality":"Bad Nauheim","municipality":{"key":"06440002","name":"Bad Nauheim, Stadt","type":"Stadt"},"district":{"key":"06440","name":"Wetteraukreis","type":"Landkreis"},"federalState":{"key":"06","name":"Hessen"}},{"name":"Mönchbruchpfad","postalCode":"64569","locality":"Nauheim","municipality":{"key":"06433009","name":"Nauheim","type":"Kreisangehörige_Gemeinde"},"district":{"key":"06433","name":"Groß-Gerau","type":"Landkreis"},"federalState":{"key":"06","name":"Hessen"}},{"name":"Mönchbruchweg","postalCode":"64569","locality":"Nauheim","municipality":{"key":"06433009","name":"Nauheim","type":"Kreisangehörige_Gemeinde"},"district":{"key":"06433","name":"Groß-Gerau","type":"Landkreis"},"federalState":{"key":"06","name":"Hessen"}},{"name":"Mondorfstr.","postalCode":"61231","locality":"Bad Nauheim","municipality":{"key":"06440002","name":"Bad Nauheim, Stadt","type":"Stadt"},"district":{"key":"06440","name":"Wetteraukreis","type":"Landkreis"},"federalState":{"key":"06","name":"Hessen"}},{"name":"Mörfelder Weg","postalCode":"64569","locality":"Nauheim","municipality":{"key":"06433009","name":"Nauheim","type":"Kreisangehörige_Gemeinde"},"district":{"key":"06433","name":"Groß-Gerau","type":"Landkreis"},"federalState":{"key":"06","name":"Hessen"}},{"name":"Mörler Grund","postalCode":"61231","locality":"Bad Nauheim","municipality":{"key":"06440002","name":"Bad Nauheim, Stadt","type":"Stadt"},"district":{"key":"06440","name":"Wetteraukreis","type":"Landkreis"},"federalState":{"key":"06","name":"Hessen"}},{"name":"Moselstr.","postalCode":"64569","locality":"Nauheim","municipality":{"key":"06433009","name":"Nauheim","type":"Kreisangehörige_Gemeinde"},"district":{"key":"06433","name":"Groß-Gerau","type":"Landkreis"},"federalState":{"key":"06","name":"Hessen"}},{"name":"Mozartstr.","postalCode":"61231","locality":"Bad Nauheim","municipality":{"key":"06440002","name":"Bad Nauheim, Stadt","type":"Stadt"},"district":{"key":"06440","name":"Wetteraukreis","type":"Landkreis"},"federalState":{"key":"06","name":"Hessen"}},{"name":"Mozartstr.","postalCode":"64569","locality":"Nauheim","municipality":{"key":"06433009","name":"Nauheim","type":"Kreisangehörige_Gemeinde"},"district":{"key":"06433","name":"Groß-Gerau","type":"Landkreis"},"federalState":{"key":"06","name":"Hessen"}},{"name":"Mühlgasse","postalCode":"61231","locality":"Bad Nauheim","municipality":{"key":"06440002","name":"Bad Nauheim, Stadt","type":"Stadt"},"district":{"key":"06440","name":"Wetteraukreis","type":"Landkreis"},"federalState":{"key":"06","name":"Hessen"}},{"name":"Mühlstr.","postalCode":"64569","locality":"Nauheim","municipality":{"key":"06433009","name":"Nauheim","type":"Kreisangehörige_Gemeinde"},"district":{"key":"06433","name":"Groß-Gerau","type":"Landkreis"},"federalState":{"key":"06","name":"Hessen"}},{"name":"Nachtweide","postalCode":"64569","locality":"Nauheim","municipality":{"key":"06433009","name":"Nauheim","type":"Kreisangehörige_Gemeinde"},"district":{"key":"06433","name":"Groß-Gerau","type":"Landkreis"},"federalState":{"key":"06","name":"Hessen"}},{"name":"Nauheimer Str.","postalCode":"64569","locality":"Nauheim","municipality":{"key":"06433009","name":"Nauheim","type":"Kreisangehörige_Gemeinde"},"district":{"key":"06433","name":"Groß-Gerau","type":"Landkreis"},"federalState":{"key":"06","name":"Hessen"}},{"name":"Nebenstr.","postalCode":"61231","locality":"Bad Nauheim","municipality":{"key":"06440002","name":"Bad Nauheim, Stadt","type":"Stadt"},"district":{"key":"06440","name":"Wetteraukreis","type":"Landkreis"},"federalState":{"key":"06","name":"Hessen"}},{"name":"Neckarstr.","postalCode":"64569","locality":"Nauheim","municipality":{"key":"06433009","name":"Nauheim","type":"Kreisangehörige_Gemeinde"},"district":{"key":"06433","name":"Groß-Gerau","type":"Landkreis"},"federalState":{"key":"06","name":"Hessen"}},{"name":"Neue Str.","postalCode":"61231","locality":"Bad Nauheim","municipality":{"key":"06440002","name":"Bad Nauheim, Stadt","type":"Stadt"},"district":{"key":"06440","name":"Wetteraukreis","type":"Landkreis"},"federalState":{"key":"06","name":"Hessen"}},{"name":"Neugasse","postalCode":"61231","locality":"Bad Nauheim","municipality":{"key":"06440002","name":"Bad Nauheim, Stadt","type":"Stadt"},"district":{"key":"06440","name":"Wetteraukreis","type":"Landkreis"},"federalState":{"key":"06","name":"Hessen"}},{"name":"Nieder-Mörler-Str.","postalCode":"61231","locality":"Bad Nauheim","municipality":{"key":"06440002","name":"Bad Nauheim, Stadt","type":"Stadt"},"district":{"key":"06440","name":"Wetteraukreis","type":"Landkreis"},"federalState":{"key":"06","name":"Hessen"}},{"name":"Nördlicher Park","postalCode":"61231","locality":"Bad Nauheim","municipality":{"key":"06440002","name":"Bad Nauheim, Stadt","type":"Stadt"},"district":{"key":"06440","name":"Wetteraukreis","type":"Landkreis"},"federalState":{"key":"06","name":"Hessen"}},{"name":"Obermörler Weg","postalCode":"61231","locality":"Bad Nauheim","municipality":{"key":"06440002","name":"Bad Nauheim, Stadt","type":"Stadt"},"district":{"key":"06440","name":"Wetteraukreis","type":"Landkreis"},"federalState":{"key":"06","name":"Hessen"}},{"name":"Ober Mörler Weg","postalCode":"61231","locality":"Bad Nauheim","municipality":{"key":"06440002","name":"Bad Nauheim, Stadt","type":"Stadt"},"district":{"key":"06440","name":"Wetteraukreis","type":"Landkreis"},"federalState":{"key":"06","name":"Hessen"}},{"name":"Oberpforte","postalCode":"61231","locality":"Bad Nauheim","municipality":{"key":"06440002","name":"Bad Nauheim, Stadt","type":"Stadt"},"district":{"key":"06440","name":"Wetteraukreis","type":"Landkreis"},"federalState":{"key":"06","name":"Hessen"}},{"name":"Obstlehrpfad","postalCode":"61231","locality":"Bad Nauheim","municipality":{"key":"06440002","name":"Bad Nauheim, Stadt","type":"Stadt"},"district":{"key":"06440","name":"Wetteraukreis","type":"Landkreis"},"federalState":{"key":"06","name":"Hessen"}},{"name":"Oostkamp-Platz","postalCode":"61231","locality":"Bad Nauheim","municipality":{"key":"06440002","name":"Bad Nauheim, Stadt","type":"Stadt"},"district":{"key":"06440","name":"Wetteraukreis","type":"Landkreis"},"federalState":{"key":"06","name":"Hessen"}},{"name":"Ostendstr.","postalCode":"61231","locality":"Bad Nauheim","municipality":{"key":"06440002","name":"Bad Nauheim, Stadt","type":"Stadt"},"district":{"key":"06440","name":"Wetteraukreis","type":"Landkreis"},"federalState":{"key":"06","name":"Hessen"}},{"name":"Otto-Hahn-Str.","postalCode":"64569","locality":"Nauheim","municipality":{"key":"06433009","name":"Nauheim","type":"Kreisangehörige_Gemeinde"},"district":{"key":"06433","name":"Groß-Gerau","type":"Landkreis"},"federalState":{"key":"06","name":"Hessen"}},{"name":"Otto-Weiß-Str.","postalCode":"61231","locality":"Bad Nauheim","municipality":{"key":"06440002","name":"Bad Nauheim, Stadt","type":"Stadt"},"district":{"key":"06440","name":"Wetteraukreis","type":"Landkreis"},"federalState":{"key":"06","name":"Hessen"}},{"name":"Parkanlage Nizza","postalCode":"61231","locality":"Bad Nauheim","municipality":{"key":"06440002","name":"Bad Nauheim, Stadt","type":"Stadt"},"district":{"key":"06440","name":"Wetteraukreis","type":"Landkreis"},"federalState":{"key":"06","name":"Hessen"}},{"name":"Parkstr.","postalCode":"61231","locality":"Bad Nauheim","municipality":{"key":"06440002","name":"Bad Nauheim, Stadt","type":"Stadt"},"district":{"key":"06440","name":"Wetteraukreis","type":"Landkreis"},"federalState":{"key":"06","name":"Hessen"}},{"name":"Paul-Ehrlich-Str.","postalCode":"61231","locality":"Bad Nauheim","municipality":{"key":"06440002","name":"Bad Nauheim, Stadt","type":"Stadt"},"district":{"key":"06440","name":"Wetteraukreis","type":"Landkreis"},"federalState":{"key":"06","name":"Hessen"}},{"name":"Paul-Erhlich-Str.","postalCode":"61231","locality":"Bad Nauheim","municipality":{"key":"06440002","name":"Bad Nauheim, Stadt","type":"Stadt"},"district":{"key":"06440","name":"Wetteraukreis","type":"Landkreis"},"federalState":{"key":"06","name":"Hessen"}},{"name":"Pestalozzistr.","postalCode":"61231","locality":"Bad Nauheim","municipality":{"key":"06440002","name":"Bad Nauheim, Stadt","type":"Stadt"},"district":{"key":"06440","name":"Wetteraukreis","type":"Landkreis"},"federalState":{"key":"06","name":"Hessen"}},{"name":"Pfaffenweg","postalCode":"61231","locality":"Bad Nauheim","municipality":{"key":"06440002","name":"Bad Nauheim, Stadt","type":"Stadt"},"district":{"key":"06440","name":"Wetteraukreis","type":"Landkreis"},"federalState":{"key":"06","name":"Hessen"}},{"name":"Pfarrgasse","postalCode":"64569","locality":"Nauheim","municipality":{"key":"06433009","name":"Nauheim","type":"Kreisangehörige_Gemeinde"},"district":{"key":"06433","name":"Groß-Gerau","type":"Landkreis"},"federalState":{"key":"06","name":"Hessen"}},{"name":"Planstr.","postalCode":"64569","locality":"Nauheim","municipality":{"key":"06433009","name":"Nauheim","type":"Kreisangehörige_Gemeinde"},"district":{"key":"06433","name":"Groß-Gerau","type":"Landkreis"},"federalState":{"key":"06","name":"Hessen"}},{"name":"Presley Boulevard","postalCode":"61231","locality":"Bad Nauheim","municipality":{"key":"06440002","name":"Bad Nauheim, Stadt","type":"Stadt"},"district":{"key":"06440","name":"Wetteraukreis","type":"Landkreis"},"federalState":{"key":"06","name":"Hessen"}},{"name":"Promenade","postalCode":"61231","locality":"Bad Nauheim","municipality":{"key":"06440002","name":"Bad Nauheim, Stadt","type":"Stadt"},"district":{"key":"06440","name":"Wetteraukreis","type":"Landkreis"},"federalState":{"key":"06","name":"Hessen"}},{"name":"Promenadenweg","postalCode":"61231","locality":"Bad Nauheim","municipality":{"key":"06440002","name":"Bad Nauheim, Stadt","type":"Stadt"},"district":{"key":"06440","name":"Wetteraukreis","type":"Landkreis"},"federalState":{"key":"06","name":"Hessen"}},{"name":"Raiffeisenstr.","postalCode":"61231","locality":"Bad Nauheim","municipality":{"key":"06440002","name":"Bad Nauheim, Stadt","type":"Stadt"},"district":{"key":"06440","name":"Wetteraukreis","type":"Landkreis"},"federalState":{"key":"06","name":"Hessen"}},{"name":"Rathausstr.","postalCode":"61231","locality":"Bad Nauheim","municipality":{"key":"06440002","name":"Bad Nauheim, Stadt","type":"Stadt"},"district":{"key":"06440","name":"Wetteraukreis","type":"Landkreis"},"federalState":{"key":"06","name":"Hessen"}},{"name":"Reiherstr.","postalCode":"64569","locality":"Nauheim","municipality":{"key":"06433009","name":"Nauheim","type":"Kreisangehörige_Gemeinde"},"district":{"key":"06433","name":"Groß-Gerau","type":"Landkreis"},"federalState":{"key":"06","name":"Hessen"}},{"name":"Reinhardstr.","postalCode":"61231","locality":"Bad Nauheim","municipality":{"key":"06440002","name":"Bad Nauheim, Stadt","type":"Stadt"},"district":{"key":"06440","name":"Wetteraukreis","type":"Landkreis"},"federalState":{"key":"06","name":"Hessen"}},{"name":"Rembrandtstr.","postalCode":"61231","locality":"Bad Nauheim","municipality":{"key":"06440002","name":"Bad Nauheim, Stadt","type":"Stadt"},"district":{"key":"06440","name":"Wetteraukreis","type":"Landkreis"},"federalState":{"key":"06","name":"Hessen"}},{"name":"Rheinstr.","postalCode":"64569","locality":"Nauheim","municipality":{"key":"06433009","name":"Nauheim","type":"Kreisangehörige_Gemeinde"},"district":{"key":"06433","name":"Groß-Gerau","type":"Landkreis"},"federalState":{"key":"06","name":"Hessen"}},{"name":"Rießstr.","postalCode":"61231","locality":"Bad Nauheim","municipality":{"key":"06440002","name":"Bad Nauheim, Stadt","type":"Stadt"},"district":{"key":"06440","name":"Wetteraukreis","type":"Landkreis"},"federalState":{"key":"06","name":"Hessen"}},{"name":"Ringstr.","postalCode":"61231","locality":"Bad Nauheim","municipality":{"key":"06440002","name":"Bad Nauheim, Stadt","type":"Stadt"},"district":{"key":"06440","name":"Wetteraukreis","type":"Landkreis"},"federalState":{"key":"06","name":"Hessen"}},{"name":"Rittershausstr.","postalCode":"61231","locality":"Bad Nauheim","municipality":{"key":"06440002","name":"Bad Nauheim, Stadt","type":"Stadt"},"district":{"key":"06440","name":"Wetteraukreis","type":"Landkreis"},"federalState":{"key":"06","name":"Hessen"}},{"name":"Ritterstr.","postalCode":"61231","locality":"Bad Nauheim","municipality":{"key":"06440002","name":"Bad Nauheim, Stadt","type":"Stadt"},"district":{"key":"06440","name":"Wetteraukreis","type":"Landkreis"},"federalState":{"key":"06","name":"Hessen"}},{"name":"Robert-Bosch-Str.","postalCode":"64569","locality":"Nauheim","municipality":{"key":"06433009","name":"Nauheim","type":"Kreisangehörige_Gemeinde"},"district":{"key":"06433","name":"Groß-Gerau","type":"Landkreis"},"federalState":{"key":"06","name":"Hessen"}},{"name":"Robert-Koch-Str.","postalCode":"64569","locality":"Nauheim","municipality":{"key":"06433009","name":"Nauheim","type":"Kreisangehörige_Gemeinde"},"district":{"key":"06433","name":"Groß-Gerau","type":"Landkreis"},"federalState":{"key":"06","name":"Hessen"}},{"name":"Rödger Hauptstr.","postalCode":"61231","locality":"Bad Nauheim","municipality":{"key":"06440002","name":"Bad Nauheim, Stadt","type":"Stadt"},"district":{"key":"06440","name":"Wetteraukreis","type":"Landkreis"},"federalState":{"key":"06","name":"Hessen"}},{"name":"Rödger Weg","postalCode":"61231","locality":"Bad Nauheim","municipality":{"key":"06440002","name":"Bad Nauheim, Stadt","type":"Stadt"},"district":{"key":"06440","name":"Wetteraukreis","type":"Landkreis"},"federalState":{"key":"06","name":"Hessen"}},{"name":"Rohrweihenweg","postalCode":"61231","locality":"Bad Nauheim","municipality":{"key":"06440002","name":"Bad Nauheim, Stadt","type":"Stadt"},"district":{"key":"06440","name":"Wetteraukreis","type":"Landkreis"},"federalState":{"key":"06","name":"Hessen"}},{"name":"Römerstr.","postalCode":"61231","locality":"Bad Nauheim","municipality":{"key":"06440002","name":"Bad Nauheim, Stadt","type":"Stadt"},"district":{"key":"06440","name":"Wetteraukreis","type":"Landkreis"},"federalState":{"key":"06","name":"Hessen"}},{"name":"Röntgenstr.","postalCode":"61231","locality":"Bad Nauheim","municipality":{"key":"06440002","name":"Bad Nauheim, Stadt","type":"Stadt"},"district":{"key":"06440","name":"Wetteraukreis","type":"Landkreis"},"federalState":{"key":"06","name":"Hessen"}},{"name":"Roosevelt Avenue","postalCode":"61231","locality":"Bad Nauheim","municipality":{"key":"06440002","name":"Bad Nauheim, Stadt","type":"Stadt"},"district":{"key":"06440","name":"Wetteraukreis","type":"Landkreis"},"federalState":{"key":"06","name":"Hessen"}},{"name":"Rosbacher Str.","postalCode":"61231","locality":"Bad Nauheim","municipality":{"key":"06440002","name":"Bad Nauheim, Stadt","type":"Stadt"},"district":{"key":"06440","name":"Wetteraukreis","type":"Landkreis"},"federalState":{"key":"06","name":"Hessen"}},{"name":"Rosenhag","postalCode":"61231","locality":"Bad Nauheim","municipality":{"key":"06440002","name":"Bad Nauheim, Stadt","type":"Stadt"},"district":{"key":"06440","name":"Wetteraukreis","type":"Landkreis"},"federalState":{"key":"06","name":"Hessen"}},{"name":"Rosenstr.","postalCode":"61231","locality":"Bad Nauheim","municipality":{"key":"06440002","name":"Bad Nauheim, Stadt","type":"Stadt"},"district":{"key":"06440","name":"Wetteraukreis","type":"Landkreis"},"federalState":{"key":"06","name":"Hessen"}},{"name":"Rotdornstr.","postalCode":"61231","locality":"Bad Nauheim","municipality":{"key":"06440002","name":"Bad Nauheim, Stadt","type":"Stadt"},"district":{"key":"06440","name":"Wetteraukreis","type":"Landkreis"},"federalState":{"key":"06","name":"Hessen"}},{"name":"Rudolf-Diesel-Str.","postalCode":"64569","locality":"Nauheim","municipality":{"key":"06433009","name":"Nauheim","type":"Kreisangehörige_Gemeinde"},"district":{"key":"06433","name":"Groß-Gerau","type":"Landkreis"},"federalState":{"key":"06","name":"Hessen"}},{"name":"Rudolf-Thauer-Weg","postalCode":"61231","locality":"Bad Nauheim","municipality":{"key":"06440002","name":"Bad Nauheim, Stadt","type":"Stadt"},"district":{"key":"06440","name":"Wetteraukreis","type":"Landkreis"},"federalState":{"key":"06","name":"Hessen"}},{"name":"Rudolf-Virchow-Str.","postalCode":"64569","locality":"Nauheim","municipality":{"key":"06433009","name":"Nauheim","type":"Kreisangehörige_Gemeinde"},"district":{"key":"06433","name":"Groß-Gerau","type":"Landkreis"},"federalState":{"key":"06","name":"Hessen"}},{"name":"Rundfahrt","postalCode":"61231","locality":"Bad Nauheim","municipality":{"key":"06440002","name":"Bad Nauheim, Stadt","type":"Stadt"},"district":{"key":"06440","name":"Wetteraukreis","type":"Landkreis"},"federalState":{"key":"06","name":"Hessen"}},{"name":"Rüsselsheimer Str.","postalCode":"64569","locality":"Nauheim","municipality":{"key":"06433009","name":"Nauheim","type":"Kreisangehörige_Gemeinde"},"district":{"key":"06433","name":"Groß-Gerau","type":"Landkreis"},"federalState":{"key":"06","name":"Hessen"}},{"name":"Salinenstr.","postalCode":"61231","locality":"Bad Nauheim","municipality":{"key":"06440002","name":"Bad Nauheim, Stadt","type":"Stadt"},"district":{"key":"06440","name":"Wetteraukreis","type":"Landkreis"},"federalState":{"key":"06","name":"Hessen"}},{"name":"Sandbergstr.","postalCode":"64569","locality":"Nauheim","municipality":{"key":"06433009","name":"Nauheim","type":"Kreisangehörige_Gemeinde"},"district":{"key":"06433","name":"Groß-Gerau","type":"Landkreis"},"federalState":{"key":"06","name":"Hessen"}},{"name":"Sauerbrunnen","postalCode":"61231","locality":"Bad Nauheim","municipality":{"key":"06440002","name":"Bad Nauheim, Stadt","type":"Stadt"},"district":{"key":"06440","name":"Wetteraukreis","type":"Landkreis"},"federalState":{"key":"06","name":"Hessen"}},{"name":"Schäffnersbruchschneise","postalCode":"64569","locality":"Nauheim","municipality":{"key":"06433009","name":"Nauheim","type":"Kreisangehörige_Gemeinde"},"district":{"key":"06433","name":"Groß-Gerau","type":"Landkreis"},"federalState":{"key":"06","name":"Hessen"}},{"name":"Schillerstr.","postalCode":"61231","locality":"Bad Nauheim","municipality":{"key":"06440002","name":"Bad Nauheim, Stadt","type":"Stadt"},"district":{"key":"06440","name":"Wetteraukreis","type":"Landkreis"},"federalState":{"key":"06","name":"Hessen"}},{"name":"Schillerstr.","postalCode":"64569","locality":"Nauheim","municipality":{"key":"06433009","name":"Nauheim","type":"Kreisangehörige_Gemeinde"},"district":{"key":"06433","name":"Groß-Gerau","type":"Landkreis"},"federalState":{"key":"06","name":"Hessen"}},{"name":"Schlehenweg","postalCode":"61231","locality":"Bad Nauheim","municipality":{"key":"06440002","name":"Bad Nauheim, Stadt","type":"Stadt"},"district":{"key":"06440","name":"Wetteraukreis","type":"Landkreis"},"federalState":{"key":"06","name":"Hessen"}},{"name":"Schleifweg","postalCode":"64569","locality":"Nauheim","municipality":{"key":"06433009","name":"Nauheim","type":"Kreisangehörige_Gemeinde"},"district":{"key":"06433","name":"Groß-Gerau","type":"Landkreis"},"federalState":{"key":"06","name":"Hessen"}},{"name":"Schlesierstr.","postalCode":"61231","locality":"Bad Nauheim","municipality":{"key":"06440002","name":"Bad Nauheim, Stadt","type":"Stadt"},"district":{"key":"06440","name":"Wetteraukreis","type":"Landkreis"},"federalState":{"key":"06","name":"Hessen"}},{"name":"Schnepfenschneise","postalCode":"64569","locality":"Nauheim","municipality":{"key":"06433009","name":"Nauheim","type":"Kreisangehörige_Gemeinde"},"district":{"key":"06433","name":"Groß-Gerau","type":"Landkreis"},"federalState":{"key":"06","name":"Hessen"}},{"name":"Schnurstr.","postalCode":"61231","locality":"Bad Nauheim","municipality":{"key":"06440002","name":"Bad Nauheim, Stadt","type":"Stadt"},"district":{"key":"06440","name":"Wetteraukreis","type":"Landkreis"},"federalState":{"key":"06","name":"Hessen"}},{"name":"Schönbacher Str.","postalCode":"64569","locality":"Nauheim","municipality":{"key":"06433009","name":"Nauheim","type":"Kreisangehörige_Gemeinde"},"district":{"key":"06433","name":"Groß-Gerau","type":"Landkreis"},"federalState":{"key":"06","name":"Hessen"}},{"name":"Schönberger Str.","postalCode":"61231","locality":"Bad Nauheim","municipality":{"key":"06440002","name":"Bad Nauheim, Stadt","type":"Stadt"},"district":{"key":"06440","name":"Wetteraukreis","type":"Landkreis"},"federalState":{"key":"06","name":"Hessen"}},{"name":"Schulstr.","postalCode":"61231","locality":"Bad Nauheim","municipality":{"key":"06440002","name":"Bad Nauheim, Stadt","type":"Stadt"},"district":{"key":"06440","name":"Wetteraukreis","type":"Landkreis"},"federalState":{"key":"06","name":"Hessen"}},{"name":"Schulstr.","postalCode":"64569","locality":"Nauheim","municipality":{"key":"06433009","name":"Nauheim","type":"Kreisangehörige_Gemeinde"},"district":{"key":"06433","name":"Groß-Gerau","type":"Landkreis"},"federalState":{"key":"06","name":"Hessen"}},{"name":"Schwalheimer Hauptstr.","postalCode":"61231","locality":"Bad Nauheim","municipality":{"key":"06440002","name":"Bad Nauheim, Stadt","type":"Stadt"},"district":{"key":"06440","name":"Wetteraukreis","type":"Landkreis"},"federalState":{"key":"06","name":"Hessen"}},{"name":"Schwalheimer Str.","postalCode":"61231","locality":"Bad Nauheim","municipality":{"key":"06440002","name":"Bad Nauheim, Stadt","type":"Stadt"},"district":{"key":"06440","name":"Wetteraukreis","type":"Landkreis"},"federalState":{"key":"06","name":"Hessen"}},{"name":"Schwanenstr.","postalCode":"64569","locality":"Nauheim","municipality":{"key":"06433009","name":"Nauheim","type":"Kreisangehörige_Gemeinde"},"district":{"key":"06433","name":"Groß-Gerau","type":"Landkreis"},"federalState":{"key":"06","name":"Hessen"}},{"name":"Sebastian-Kneipp-Weg","postalCode":"61231","locality":"Bad Nauheim","municipality":{"key":"06440002","name":"Bad Nauheim, Stadt","type":"Stadt"},"district":{"key":"06440","name":"Wetteraukreis","type":"Landkreis"},"federalState":{"key":"06","name":"Hessen"}},{"name":"Södeler Str.","postalCode":"61231","locality":"Bad Nauheim","municipality":{"key":"06440002","name":"Bad Nauheim, Stadt","type":"Stadt"},"district":{"key":"06440","name":"Wetteraukreis","type":"Landkreis"},"federalState":{"key":"06","name":"Hessen"}},{"name":"Södeler Weg","postalCode":"61231","locality":"Bad Nauheim","municipality":{"key":"06440002","name":"Bad Nauheim, Stadt","type":"Stadt"},"district":{"key":"06440","name":"Wetteraukreis","type":"Landkreis"},"federalState":{"key":"06","name":"Hessen"}},{"name":"Söderweg","postalCode":"61231","locality":"Bad Nauheim","municipality":{"key":"06440002","name":"Bad Nauheim, Stadt","type":"Stadt"},"district":{"key":"06440","name":"Wetteraukreis","type":"Landkreis"},"federalState":{"key":"06","name":"Hessen"}},{"name":"Sonnenweg","postalCode":"61231","locality":"Bad Nauheim","municipality":{"key":"06440002","name":"Bad Nauheim, Stadt","type":"Stadt"},"district":{"key":"06440","name":"Wetteraukreis","type":"Landkreis"},"federalState":{"key":"06","name":"Hessen"}},{"name":"Sperberweg","postalCode":"61231","locality":"Bad Nauheim","municipality":{"key":"06440002","name":"Bad Nauheim, Stadt","type":"Stadt"},"district":{"key":"06440","name":"Wetteraukreis","type":"Landkreis"},"federalState":{"key":"06","name":"Hessen"}},{"name":"Steinfurther Hauptstr.","postalCode":"61231","locality":"Bad Nauheim","municipality":{"key":"06440002","name":"Bad Nauheim, Stadt","type":"Stadt"},"district":{"key":"06440","name":"Wetteraukreis","type":"Landkreis"},"federalState":{"key":"06","name":"Hessen"}},{"name":"Steinfurther Str.","postalCode":"61231","locality":"Bad Nauheim","municipality":{"key":"06440002","name":"Bad Nauheim, Stadt","type":"Stadt"},"district":{"key":"06440","name":"Wetteraukreis","type":"Landkreis"},"federalState":{"key":"06","name":"Hessen"}},{"name":"Steinkopfstr.","postalCode":"61231","locality":"Bad Nauheim","municipality":{"key":"06440002","name":"Bad Nauheim, Stadt","type":"Stadt"},"district":{"key":"06440","name":"Wetteraukreis","type":"Landkreis"},"federalState":{"key":"06","name":"Hessen"}},{"name":"Steinstr.","postalCode":"64569","locality":"Nauheim","municipality":{"key":"06433009","name":"Nauheim","type":"Kreisangehörige_Gemeinde"},"district":{"key":"06433","name":"Groß-Gerau","type":"Landkreis"},"federalState":{"key":"06","name":"Hessen"}},{"name":"Stiftstr.","postalCode":"61231","locality":"Bad Nauheim","municipality":{"key":"06440002","name":"Bad Nauheim, Stadt","type":"Stadt"},"district":{"key":"06440","name":"Wetteraukreis","type":"Landkreis"},"federalState":{"key":"06","name":"Hessen"}},{"name":"Stockheimer Weg","postalCode":"64569","locality":"Nauheim","municipality":{"key":"06433009","name":"Nauheim","type":"Kreisangehörige_Gemeinde"},"district":{"key":"06433","name":"Groß-Gerau","type":"Landkreis"},"federalState":{"key":"06","name":"Hessen"}},{"name":"Storchenstr.","postalCode":"64569","locality":"Nauheim","municipality":{"key":"06433009","name":"Nauheim","type":"Kreisangehörige_Gemeinde"},"district":{"key":"06433","name":"Groß-Gerau","type":"Landkreis"},"federalState":{"key":"06","name":"Hessen"}},{"name":"Stracksarmschneise","postalCode":"61231","locality":"Bad Nauheim","municipality":{"key":"06440002","name":"Bad Nauheim, Stadt","type":"Stadt"},"district":{"key":"06440","name":"Wetteraukreis","type":"Landkreis"},"federalState":{"key":"06","name":"Hessen"}},{"name":"Straßburger Platz","postalCode":"64569","locality":"Nauheim","municipality":{"key":"06433009","name":"Nauheim","type":"Kreisangehörige_Gemeinde"},"district":{"key":"06433","name":"Groß-Gerau","type":"Landkreis"},"federalState":{"key":"06","name":"Hessen"}},{"name":"Sudetenring","postalCode":"61231","locality":"Bad Nauheim","municipality":{"key":"06440002","name":"Bad Nauheim, Stadt","type":"Stadt"},"district":{"key":"06440","name":"Wetteraukreis","type":"Landkreis"},"federalState":{"key":"06","name":"Hessen"}},{"name":"Sudetenstr.","postalCode":"61231","locality":"Bad Nauheim","municipality":{"key":"06440002","name":"Bad Nauheim, Stadt","type":"Stadt"},"district":{"key":"06440","name":"Wetteraukreis","type":"Landkreis"},"federalState":{"key":"06","name":"Hessen"}},{"name":"Südpark","postalCode":"61231","locality":"Bad Nauheim","municipality":{"key":"06440002","name":"Bad Nauheim, Stadt","type":"Stadt"},"district":{"key":"06440","name":"Wetteraukreis","type":"Landkreis"},"federalState":{"key":"06","name":"Hessen"}},{"name":"Sumpf-Schneise","postalCode":"61231","locality":"Bad Nauheim","municipality":{"key":"06440002","name":"Bad Nauheim, Stadt","type":"Stadt"},"district":{"key":"06440","name":"Wetteraukreis","type":"Landkreis"},"federalState":{"key":"06","name":"Hessen"}},{"name":"Sumpf-Weg","postalCode":"61231","locality":"Bad Nauheim","municipality":{"key":"06440002","name":"Bad Nauheim, Stadt","type":"Stadt"},"district":{"key":"06440","name":"Wetteraukreis","type":"Landkreis"},"federalState":{"key":"06","name":"Hessen"}},{"name":"Talmeswiesenschneise","postalCode":"64569","locality":"Nauheim","municipality":{"key":"06433009","name":"Nauheim","type":"Kreisangehörige_Gemeinde"},"district":{"key":"06433","name":"Groß-Gerau","type":"Landkreis"},"federalState":{"key":"06","name":"Hessen"}},{"name":"Tannackerschneise","postalCode":"64569","locality":"Nauheim","municipality":{"key":"06433009","name":"Nauheim","type":"Kreisangehörige_Gemeinde"},"district":{"key":"06433","name":"Groß-Gerau","type":"Landkreis"},"federalState":{"key":"06","name":"Hessen"}},{"name":"Tannenstr.","postalCode":"64569","locality":"Nauheim","municipality":{"key":"06433009","name":"Nauheim","type":"Kreisangehörige_Gemeinde"},"district":{"key":"06433","name":"Groß-Gerau","type":"Landkreis"},"federalState":{"key":"06","name":"Hessen"}},{"name":"Tannenweg","postalCode":"61231","locality":"Bad Nauheim","municipality":{"key":"06440002","name":"Bad Nauheim, Stadt","type":"Stadt"},"district":{"key":"06440","name":"Wetteraukreis","type":"Landkreis"},"federalState":{"key":"06","name":"Hessen"}},{"name":"Taunusstr.","postalCode":"61231","locality":"Bad Nauheim","municipality":{"key":"06440002","name":"Bad Nauheim, Stadt","type":"Stadt"},"district":{"key":"06440","name":"Wetteraukreis","type":"Landkreis"},"federalState":{"key":"06","name":"Hessen"}},{"name":"Taunusstr.","postalCode":"64569","locality":"Nauheim","municipality":{"key":"06433009","name":"Nauheim","type":"Kreisangehörige_Gemeinde"},"district":{"key":"06433","name":"Groß-Gerau","type":"Landkreis"},"federalState":{"key":"06","name":"Hessen"}},{"name":"Tennisweg","postalCode":"61231","locality":"Bad Nauheim","municipality":{"key":"06440002","name":"Bad Nauheim, Stadt","type":"Stadt"},"district":{"key":"06440","name":"Wetteraukreis","type":"Landkreis"},"federalState":{"key":"06","name":"Hessen"}},{"name":"Terrassenstr.","postalCode":"61231","locality":"Bad Nauheim","municipality":{"key":"06440002","name":"Bad Nauheim, Stadt","type":"Stadt"},"district":{"key":"06440","name":"Wetteraukreis","type":"Landkreis"},"federalState":{"key":"06","name":"Hessen"}},{"name":"Theodor-Heuss-Str.","postalCode":"61231","locality":"Bad Nauheim","municipality":{"key":"06440002","name":"Bad Nauheim, Stadt","type":"Stadt"},"district":{"key":"06440","name":"Wetteraukreis","type":"Landkreis"},"federalState":{"key":"06","name":"Hessen"}},{"name":"Theodor-Heuss-Str.","postalCode":"64569","locality":"Nauheim","municipality":{"key":"06433009","name":"Nauheim","type":"Kreisangehörige_Gemeinde"},"district":{"key":"06433","name":"Groß-Gerau","type":"Landkreis"},"federalState":{"key":"06","name":"Hessen"}},{"name":"Theresienstr.","postalCode":"61231","locality":"Bad Nauheim","municipality":{"key":"06440002","name":"Bad Nauheim, Stadt","type":"Stadt"},"district":{"key":"06440","name":"Wetteraukreis","type":"Landkreis"},"federalState":{"key":"06","name":"Hessen"}},{"name":"Thomas-Mann-Str.","postalCode":"64569","locality":"Nauheim","municipality":{"key":"06433009","name":"Nauheim","type":"Kreisangehörige_Gemeinde"},"district":{"key":"06433","name":"Groß-Gerau","type":"Landkreis"},"federalState":{"key":"06","name":"Hessen"}},{"name":"Torgauer Str.","postalCode":"61231","locality":"Bad Nauheim","municipality":{"key":"06440002","name":"Bad Nauheim, Stadt","type":"Stadt"},"district":{"key":"06440","name":"Wetteraukreis","type":"Landkreis"},"federalState":{"key":"06","name":"Hessen"}},{"name":"Tulpenweg","postalCode":"61231","locality":"Bad Nauheim","municipality":{"key":"06440002","name":"Bad Nauheim, Stadt","type":"Stadt"},"district":{"key":"06440","name":"Wetteraukreis","type":"Landkreis"},"federalState":{"key":"06","name":"Hessen"}},{"name":"Uhlandstr.","postalCode":"61231","locality":"Bad Nauheim","municipality":{"key":"06440002","name":"Bad Nauheim, Stadt","type":"Stadt"},"district":{"key":"06440","name":"Wetteraukreis","type":"Landkreis"},"federalState":{"key":"06","name":"Hessen"}},{"name":"Ulmenstr.","postalCode":"64569","locality":"Nauheim","municipality":{"key":"06433009","name":"Nauheim","type":"Kreisangehörige_Gemeinde"},"district":{"key":"06433","name":"Groß-Gerau","type":"Landkreis"},"federalState":{"key":"06","name":"Hessen"}},{"name":"Unter der Muschel","postalCode":"64569","locality":"Nauheim","municipality":{"key":"06433009","name":"Nauheim","type":"Kreisangehörige_Gemeinde"},"district":{"key":"06433","name":"Groß-Gerau","type":"Landkreis"},"federalState":{"key":"06","name":"Hessen"}},{"name":"Usastr.","postalCode":"61231","locality":"Bad Nauheim","municipality":{"key":"06440002","name":"Bad Nauheim, Stadt","type":"Stadt"},"district":{"key":"06440","name":"Wetteraukreis","type":"Landkreis"},"federalState":{"key":"06","name":"Hessen"}},{"name":"Usinger Str.","postalCode":"61231","locality":"Bad Nauheim","municipality":{"key":"06440002","name":"Bad Nauheim, Stadt","type":"Stadt"},"district":{"key":"06440","name":"Wetteraukreis","type":"Landkreis"},"federalState":{"key":"06","name":"Hessen"}},{"name":"Vorderste Weide","postalCode":"61231","locality":"Bad Nauheim","municipality":{"key":"06440002","name":"Bad Nauheim, Stadt","type":"Stadt"},"district":{"key":"06440","name":"Wetteraukreis","type":"Landkreis"},"federalState":{"key":"06","name":"Hessen"}},{"name":"Vorderstr.","postalCode":"64569","locality":"Nauheim","municipality":{"key":"06433009","name":"Nauheim","type":"Kreisangehörige_Gemeinde"},"district":{"key":"06433","name":"Groß-Gerau","type":"Landkreis"},"federalState":{"key":"06","name":"Hessen"}},{"name":"Wacholderweg","postalCode":"61231","locality":"Bad Nauheim","municipality":{"key":"06440002","name":"Bad Nauheim, Stadt","type":"Stadt"},"district":{"key":"06440","name":"Wetteraukreis","type":"Landkreis"},"federalState":{"key":"06","name":"Hessen"}},{"name":"Waitz-von-Eschen-Str.","postalCode":"61231","locality":"Bad Nauheim","municipality":{"key":"06440002","name":"Bad Nauheim, Stadt","type":"Stadt"},"district":{"key":"06440","name":"Wetteraukreis","type":"Landkreis"},"federalState":{"key":"06","name":"Hessen"}},{"name":"Waldfriede","postalCode":"64569","locality":"Nauheim","municipality":{"key":"06433009","name":"Nauheim","type":"Kreisangehörige_Gemeinde"},"district":{"key":"06433","name":"Groß-Gerau","type":"Landkreis"},"federalState":{"key":"06","name":"Hessen"}},{"name":"Waldgasse","postalCode":"61231","locality":"Bad Nauheim","municipality":{"key":"06440002","name":"Bad Nauheim, Stadt","type":"Stadt"},"district":{"key":"06440","name":"Wetteraukreis","type":"Landkreis"},"federalState":{"key":"06","name":"Hessen"}},{"name":"Waldstr.","postalCode":"64569","locality":"Nauheim","municipality":{"key":"06433009","name":"Nauheim","type":"Kreisangehörige_Gemeinde"},"district":{"key":"06433","name":"Groß-Gerau","type":"Landkreis"},"federalState":{"key":"06","name":"Hessen"}},{"name":"Waldteich-Weg","postalCode":"61231","locality":"Bad Nauheim","municipality":{"key":"06440002","name":"Bad Nauheim, Stadt","type":"Stadt"},"district":{"key":"06440","name":"Wetteraukreis","type":"Landkreis"},"federalState":{"key":"06","name":"Hessen"}},{"name":"Waldweg","postalCode":"64569","locality":"Nauheim","municipality":{"key":"06433009","name":"Nauheim","type":"Kreisangehörige_Gemeinde"},"district":{"key":"06433","name":"Groß-Gerau","type":"Landkreis"},"federalState":{"key":"06","name":"Hessen"}},{"name":"Walther-Rathenau-Str.","postalCode":"64569","locality":"Nauheim","municipality":{"key":"06433009","name":"Nauheim","type":"Kreisangehörige_Gemeinde"},"district":{"key":"06433","name":"Groß-Gerau","type":"Landkreis"},"federalState":{"key":"06","name":"Hessen"}},{"name":"Weihergasse","postalCode":"61231","locality":"Bad Nauheim","municipality":{"key":"06440002","name":"Bad Nauheim, Stadt","type":"Stadt"},"district":{"key":"06440","name":"Wetteraukreis","type":"Landkreis"},"federalState":{"key":"06","name":"Hessen"}},{"name":"Weinbergstr.","postalCode":"61231","locality":"Bad Nauheim","municipality":{"key":"06440002","name":"Bad Nauheim, Stadt","type":"Stadt"},"district":{"key":"06440","name":"Wetteraukreis","type":"Landkreis"},"federalState":{"key":"06","name":"Hessen"}},{"name":"Weingartenstr.","postalCode":"61231","locality":"Bad Nauheim","municipality":{"key":"06440002","name":"Bad Nauheim, Stadt","type":"Stadt"},"district":{"key":"06440","name":"Wetteraukreis","type":"Landkreis"},"federalState":{"key":"06","name":"Hessen"}},{"name":"Weingartenstr.","postalCode":"64569","locality":"Nauheim","municipality":{"key":"06433009","name":"Nauheim","type":"Kreisangehörige_Gemeinde"},"district":{"key":"06433","name":"Groß-Gerau","type":"Landkreis"},"federalState":{"key":"06","name":"Hessen"}},{"name":"Weißdornweg","postalCode":"61231","locality":"Bad Nauheim","municipality":{"key":"06440002","name":"Bad Nauheim, Stadt","type":"Stadt"},"district":{"key":"06440","name":"Wetteraukreis","type":"Landkreis"},"federalState":{"key":"06","name":"Hessen"}},{"name":"Wenzel-Jaksch-Str.","postalCode":"64569","locality":"Nauheim","municipality":{"key":"06433009","name":"Nauheim","type":"Kreisangehörige_Gemeinde"},"district":{"key":"06433","name":"Groß-Gerau","type":"Landkreis"},"federalState":{"key":"06","name":"Hessen"}},{"name":"Wetterstr.","postalCode":"61231","locality":"Bad Nauheim","municipality":{"key":"06440002","name":"Bad Nauheim, Stadt","type":"Stadt"},"district":{"key":"06440","name":"Wetteraukreis","type":"Landkreis"},"federalState":{"key":"06","name":"Hessen"}},{"name":"Wettertalstr.","postalCode":"61231","locality":"Bad Nauheim","municipality":{"key":"06440002","name":"Bad Nauheim, Stadt","type":"Stadt"},"district":{"key":"06440","name":"Wetteraukreis","type":"Landkreis"},"federalState":{"key":"06","name":"Hessen"}},{"name":"Wiesenstr.","postalCode":"61231","locality":"Bad Nauheim","municipality":{"key":"06440002","name":"Bad Nauheim, Stadt","type":"Stadt"},"district":{"key":"06440","name":"Wetteraukreis","type":"Landkreis"},"federalState":{"key":"06","name":"Hessen"}},{"name":"Wildrosenweg","postalCode":"61231","locality":"Bad Nauheim","municipality":{"key":"06440002","name":"Bad Nauheim, Stadt","type":"Stadt"},"district":{"key":"06440","name":"Wetteraukreis","type":"Landkreis"},"federalState":{"key":"06","name":"Hessen"}},{"name":"Wilhelm-Jost-Ring","postalCode":"61231","locality":"Bad Nauheim","municipality":{"key":"06440002","name":"Bad Nauheim, Stadt","type":"Stadt"},"district":{"key":"06440","name":"Wetteraukreis","type":"Landkreis"},"federalState":{"key":"06","name":"Hessen"}},{"name":"Wilhelm-Leibl-Str.","postalCode":"64569","locality":"Nauheim","municipality":{"key":"06433009","name":"Nauheim","type":"Kreisangehörige_Gemeinde"},"district":{"key":"06433","name":"Groß-Gerau","type":"Landkreis"},"federalState":{"key":"06","name":"Hessen"}},{"name":"Wilhelm-Leuschner-Str.","postalCode":"61231","locality":"Bad Nauheim","municipality":{"key":"06440002","name":"Bad Nauheim, Stadt","type":"Stadt"},"district":{"key":"06440","name":"Wetteraukreis","type":"Landkreis"},"federalState":{"key":"06","name":"Hessen"}},{"name":"Wilhelm-Leuschner-Str.","postalCode":"64569","locality":"Nauheim","municipality":{"key":"06433009","name":"Nauheim","type":"Kreisangehörige_Gemeinde"},"district":{"key":"06433","name":"Groß-Gerau","type":"Landkreis"},"federalState":{"key":"06","name":"Hessen"}},{"name":"Wilhelmstr.","postalCode":"61231","locality":"Bad Nauheim","municipality":{"key":"06440002","name":"Bad Nauheim, Stadt","type":"Stadt"},"district":{"key":"06440","name":"Wetteraukreis","type":"Landkreis"},"federalState":{"key":"06","name":"Hessen"}},{"name":"William-Kerckhoff-Str.","postalCode":"61231","locality":"Bad Nauheim","municipality":{"key":"06440002","name":"Bad Nauheim, Stadt","type":"Stadt"},"district":{"key":"06440","name":"Wetteraukreis","type":"Landkreis"},"federalState":{"key":"06","name":"Hessen"}},{"name":"Wingertstr.","postalCode":"61231","locality":"Bad Nauheim","municipality":{"key":"06440002","name":"Bad Nauheim, Stadt","type":"Stadt"},"district":{"key":"06440","name":"Wetteraukreis","type":"Landkreis"},"federalState":{"key":"06","name":"Hessen"}},{"name":"Wisselsheimer Hauptstr.","postalCode":"61231","locality":"Bad Nauheim","municipality":{"key":"06440002","name":"Bad Nauheim, Stadt","type":"Stadt"},"district":{"key":"06440","name":"Wetteraukreis","type":"Landkreis"},"federalState":{"key":"06","name":"Hessen"}},{"name":"Wisselsheimer Str.","postalCode":"61231","locality":"Bad Nauheim","municipality":{"key":"06440002","name":"Bad Nauheim, Stadt","type":"Stadt"},"district":{"key":"06440","name":"Wetteraukreis","type":"Landkreis"},"federalState":{"key":"06","name":"Hessen"}},{"name":"Wölfersheimer Weg","postalCode":"61231","locality":"Bad Nauheim","municipality":{"key":"06440002","name":"Bad Nauheim, Stadt","type":"Stadt"},"district":{"key":"06440","name":"Wetteraukreis","type":"Landkreis"},"federalState":{"key":"06","name":"Hessen"}},{"name":"Wolfstränkschneise","postalCode":"64569","locality":"Nauheim","municipality":{"key":"06433009","name":"Nauheim","type":"Kreisangehörige_Gemeinde"},"district":{"key":"06433","name":"Groß-Gerau","type":"Landkreis"},"federalState":{"key":"06","name":"Hessen"}},{"name":"Zanderstr.","postalCode":"61231","locality":"Bad Nauheim","municipality":{"key":"06440002","name":"Bad Nauheim, Stadt","type":"Stadt"},"district":{"key":"06440","name":"Wetteraukreis","type":"Landkreis"},"federalState":{"key":"06","name":"Hessen"}},{"name":"Zu den Sprudeln","postalCode":"61231","locality":"Bad Nauheim","municipality":{"key":"06440002","name":"Bad Nauheim, Stadt","type":"Stadt"},"district":{"key":"06440","name":"Wetteraukreis","type":"Landkreis"},"federalState":{"key":"06","name":"Hessen"}},{"name":"Zum Alten Wasserturm","postalCode":"61231","locality":"Bad Nauheim","municipality":{"key":"06440002","name":"Bad Nauheim, Stadt","type":"Stadt"},"district":{"key":"06440","name":"Wetteraukreis","type":"Landkreis"},"federalState":{"key":"06","name":"Hessen"}},{"name":"Zum Rehberg","postalCode":"61231","locality":"Bad Nauheim","municipality":{"key":"06440002","name":"Bad Nauheim, Stadt","type":"Stadt"},"district":{"key":"06440","name":"Wetteraukreis","type":"Landkreis"},"federalState":{"key":"06","name":"Hessen"}},{"name":"Zum Sauerbrunnen","postalCode":"61231","locality":"Bad Nauheim","municipality":{"key":"06440002","name":"Bad Nauheim, Stadt","type":"Stadt"},"district":{"key":"06440","name":"Wetteraukreis","type":"Landkreis"},"federalState":{"key":"06","name":"Hessen"}},{"name":"Zur Bitz","postalCode":"61231","locality":"Bad Nauheim","municipality":{"key":"06440002","name":"Bad Nauheim, Stadt","type":"Stadt"},"district":{"key":"06440","name":"Wetteraukreis","type":"Landkreis"},"federalState":{"key":"06","name":"Hessen"}},{"name":"zur Steinfurther Hauptstr.","postalCode":"61231","locality":"Bad Nauheim","municipality":{"key":"06440002","name":"Bad Nauheim, Stadt","type":"Stadt"},"district":{"key":"06440","name":"Wetteraukreis","type":"Landkreis"},"federalState":{"key":"06","name":"Hessen"}},{"name":"zur Steinfurther Rosen-Union","postalCode":"61231","locality":"Bad Nauheim","municipality":{"key":"06440002","name":"Bad Nauheim, Stadt","type":"Stadt"},"district":{"key":"06440","name":"Wetteraukreis","type":"Landkreis"},"federalState":{"key":"06","name":"Hessen"}},]