[{"key":"10057060","name":"Allée des Pommiers","postalCode":"1028","locality":"Préverenges","commune":{"key":"5643","name":"Préverenges","shortName":"Préverenges"},"district":{"key":"2227","name":"District de Morges"},"canton":{"key":"22","code":"VD","name":"Vaud"},"status":"Real"},{"key":"10167114","name":"Allée du Capellan","postalCode":"1028","locality":"Préverenges","commune":{"key":"5643","name":"Préverenges","shortName":"Préverenges"},"district":{"key":"2227","name":"District de Morges"},"canton":{"key":"22","code":"VD","name":"Vaud"},"status":"Real"},{"key":"10102260","name":"Allée du Rionzi","postalCode":"1028","locality":"Préverenges","commune":{"key":"5643","name":"Préverenges","shortName":"Préverenges"},"district":{"key":"2227","name":"District de Morges"},"canton":{"key":"22","code":"VD","name":"Vaud"},"status":"Real"},{"key":"10035557","name":"Avenue de Croix-de-Rive","postalCode":"1028","locality":"Préverenges","commune":{"key":"5643","name":"Préverenges","shortName":"Préverenges"},"district":{"key":"2227","name":"District de Morges"},"canton":{"key":"22","code":"VD","name":"Vaud"},"status":"Real"},{"key":"10055239","name":"Avenue de la Gare","postalCode":"1028","locality":"Préverenges","commune":{"key":"5643","name":"Préverenges","shortName":"Préverenges"},"district":{"key":"2227","name":"District de Morges"},"canton":{"key":"22","code":"VD","name":"Vaud"},"status":"Real"},{"key":"10035558","name":"Avenue de la Plage","postalCode":"1028","locality":"Préverenges","commune":{"key":"5643","name":"Préverenges","shortName":"Préverenges"},"district":{"key":"2227","name":"District de Morges"},"canton":{"key":"22","code":"VD","name":"Vaud"},"status":"Real"},{"key":"10107379","name":"Chemin de Joli-Site","postalCode":"1028","locality":"Préverenges","commune":{"key":"5643","name":"Préverenges","shortName":"Préverenges"},"district":{"key":"2227","name":"District de Morges"},"canton":{"key":"22","code":"VD","name":"Vaud"},"status":"Real"},{"key":"10035559","name":"Chemin de la Fontanne","postalCode":"1028","locality":"Préverenges","commune":{"key":"5643","name":"Préverenges","shortName":"Préverenges"},"district":{"key":"2227","name":"District de Morges"},"canton":{"key":"22","code":"VD","name":"Vaud"},"status":"Real"},{"key":"10123475","name":"Chemin de la Ramière","postalCode":"1028","locality":"Préverenges","commune":{"key":"5643","name":"Préverenges","shortName":"Préverenges"},"district":{"key":"2227","name":"District de Morges"},"canton":{"key":"22","code":"VD","name":"Vaud"},"status":"Real"},{"key":"10036184","name":"Chemin de la Taudaz","postalCode":"1028","locality":"Préverenges","commune":{"key":"5643","name":"Préverenges","shortName":"Préverenges"},"district":{"key":"2227","name":"District de Morges"},"canton":{"key":"22","code":"VD","name":"Vaud"},"status":"Real"},{"key":"10055240","name":"Chemin de la Venoge","postalCode":"1028","locality":"Préverenges","commune":{"key":"5643","name":"Préverenges","shortName":"Préverenges"},"district":{"key":"2227","name":"District de Morges"},"canton":{"key":"22","code":"VD","name":"Vaud"},"status":"Real"},{"key":"10073435","name":"Chemin de l'Epinette","postalCode":"1028","locality":"Préverenges","commune":{"key":"5643","name":"Préverenges","shortName":"Préverenges"},"district":{"key":"2227","name":"District de Morges"},"canton":{"key":"22","code":"VD","name":"Vaud"},"status":"Real"},{"key":"10181285","name":"Chemin des Condémines","postalCode":"1028","locality":"Préverenges","commune":{"key":"5643","name":"Préverenges","shortName":"Préverenges"},"district":{"key":"2227","name":"District de Morges"},"canton":{"key":"22","code":"VD","name":"Vaud"},"status":"Real"},{"key":"10102262","name":"Chemin des Ecureuils","postalCode":"1028","locality":"Préverenges","commune":{"key":"5643","name":"Préverenges","shortName":"Préverenges"},"district":{"key":"2227","name":"District de Morges"},"canton":{"key":"22","code":"VD","name":"Vaud"},"status":"Real"},{"key":"10106188","name":"Chemin des Embruns","postalCode":"1028","locality":"Préverenges","commune":{"key":"5643","name":"Préverenges","shortName":"Préverenges"},"district":{"key":"2227","name":"District de Morges"},"canton":{"key":"22","code":"VD","name":"Vaud"},"status":"Real"},{"key":"10055241","name":"Chemin des Moineaux","postalCode":"1028","locality":"Préverenges","commune":{"key":"5643","name":"Préverenges","shortName":"Préverenges"},"district":{"key":"2227","name":"District de Morges"},"canton":{"key":"22","code":"VD","name":"Vaud"},"status":"Real"},{"key":"10041782","name":"Chemin des Mouettes","postalCode":"1028","locality":"Préverenges","commune":{"key":"5643","name":"Préverenges","shortName":"Préverenges"},"district":{"key":"2227","name":"District de Morges"},"canton":{"key":"22","code":"VD","name":"Vaud"},"status":"Real"},{"key":"10041783","name":"Chemin des Peupliers","postalCode":"1028","locality":"Préverenges","commune":{"key":"5643","name":"Préverenges","shortName":"Préverenges"},"district":{"key":"2227","name":"District de Morges"},"canton":{"key":"22","code":"VD","name":"Vaud"},"status":"Real"},{"key":"10041784","name":"Chemin des Pignets","postalCode":"1028","locality":"Préverenges","commune":{"key":"5643","name":"Préverenges","shortName":"Préverenges"},"district":{"key":"2227","name":"District de Morges"},"canton":{"key":"22","code":"VD","name":"Vaud"},"status":"Real"},{"key":"10055242","name":"Chemin des Planches","postalCode":"1028","locality":"Préverenges","commune":{"key":"5643","name":"Préverenges","shortName":"Préverenges"},"district":{"key":"2227","name":"District de Morges"},"canton":{"key":"22","code":"VD","name":"Vaud"},"status":"Real"},{"key":"10100971","name":"Chemin des Tuilières","postalCode":"1028","locality":"Préverenges","commune":{"key":"5643","name":"Préverenges","shortName":"Préverenges"},"district":{"key":"2227","name":"District de Morges"},"canton":{"key":"22","code":"VD","name":"Vaud"},"status":"Real"},{"key":"10108046","name":"Chemin des Uttins","postalCode":"1028","locality":"Préverenges","commune":{"key":"5643","name":"Préverenges","shortName":"Préverenges"},"district":{"key":"2227","name":"District de Morges"},"canton":{"key":"22","code":"VD","name":"Vaud"},"status":"Real"},{"key":"10041785","name":"Chemin des Vignes","postalCode":"1028","locality":"Préverenges","commune":{"key":"5643","name":"Préverenges","shortName":"Préverenges"},"district":{"key":"2227","name":"District de Morges"},"canton":{"key":"22","code":"VD","name":"Vaud"},"status":"Real"},{"key":"10107380","name":"Chemin du Bochet","postalCode":"1028","locality":"Préverenges","commune":{"key":"5643","name":"Préverenges","shortName":"Préverenges"},"district":{"key":"2227","name":"District de Morges"},"canton":{"key":"22","code":"VD","name":"Vaud"},"status":"Real"},{"key":"10073436","name":"Chemin du Closalet","postalCode":"1028","locality":"Préverenges","commune":{"key":"5643","name":"Préverenges","shortName":"Préverenges"},"district":{"key":"2227","name":"District de Morges"},"canton":{"key":"22","code":"VD","name":"Vaud"},"status":"Real"},{"key":"10100972","name":"Chemin du Collège","postalCode":"1028","locality":"Préverenges","commune":{"key":"5643","name":"Préverenges","shortName":"Préverenges"},"district":{"key":"2227","name":"District de Morges"},"canton":{"key":"22","code":"VD","name":"Vaud"},"status":"Real"},{"key":"10041786","name":"Chemin du Colvert","postalCode":"1028","locality":"Préverenges","commune":{"key":"5643","name":"Préverenges","shortName":"Préverenges"},"district":{"key":"2227","name":"District de Morges"},"canton":{"key":"22","code":"VD","name":"Vaud"},"status":"Real"},{"key":"10055243","name":"Chemin du Cygne","postalCode":"1028","locality":"Préverenges","commune":{"key":"5643","name":"Préverenges","shortName":"Préverenges"},"district":{"key":"2227","name":"District de Morges"},"canton":{"key":"22","code":"VD","name":"Vaud"},"status":"Real"},{"key":"10124159","name":"Chemin du Grèbe","postalCode":"1028","locality":"Préverenges","commune":{"key":"5643","name":"Préverenges","shortName":"Préverenges"},"district":{"key":"2227","name":"District de Morges"},"canton":{"key":"22","code":"VD","name":"Vaud"},"status":"Real"},{"key":"10041787","name":"Chemin du Monteiron","postalCode":"1028","locality":"Préverenges","commune":{"key":"5643","name":"Préverenges","shortName":"Préverenges"},"district":{"key":"2227","name":"District de Morges"},"canton":{"key":"22","code":"VD","name":"Vaud"},"status":"Real"},{"key":"10181286","name":"Chemin du Sout","postalCode":"1028","locality":"Préverenges","commune":{"key":"5643","name":"Préverenges","shortName":"Préverenges"},"district":{"key":"2227","name":"District de Morges"},"canton":{"key":"22","code":"VD","name":"Vaud"},"status":"Real"},{"key":"10100973","name":"Chemin du Vuasset","postalCode":"1028","locality":"Préverenges","commune":{"key":"5643","name":"Préverenges","shortName":"Préverenges"},"district":{"key":"2227","name":"District de Morges"},"canton":{"key":"22","code":"VD","name":"Vaud"},"status":"Real"},{"key":"10102261","name":"Chemin Neuf","postalCode":"1028","locality":"Préverenges","commune":{"key":"5643","name":"Préverenges","shortName":"Préverenges"},"district":{"key":"2227","name":"District de Morges"},"canton":{"key":"22","code":"VD","name":"Vaud"},"status":"Real"},{"key":"10027953","name":"Route de Denges","postalCode":"1028","locality":"Préverenges","commune":{"key":"5643","name":"Préverenges","shortName":"Préverenges"},"district":{"key":"2227","name":"District de Morges"},"canton":{"key":"22","code":"VD","name":"Vaud"},"status":"Real"},{"key":"10041789","name":"Route de Genève","postalCode":"1028","locality":"Préverenges","commune":{"key":"5643","name":"Préverenges","shortName":"Préverenges"},"district":{"key":"2227","name":"District de Morges"},"canton":{"key":"22","code":"VD","name":"Vaud"},"status":"Real"},{"key":"10073437","name":"Route de la Gracieuse","postalCode":"1028","locality":"Préverenges","commune":{"key":"5643","name":"Préverenges","shortName":"Préverenges"},"district":{"key":"2227","name":"District de Morges"},"canton":{"key":"22","code":"VD","name":"Vaud"},"status":"Real"},{"key":"10041788","name":"Route d'Yverdon","postalCode":"1028","locality":"Préverenges","commune":{"key":"5643","name":"Préverenges","shortName":"Préverenges"},"district":{"key":"2227","name":"District de Morges"},"canton":{"key":"22","code":"VD","name":"Vaud"},"status":"Real"},{"key":"10100974","name":"Rue de Lausanne","postalCode":"1028","locality":"Préverenges","commune":{"key":"5643","name":"Préverenges","shortName":"Préverenges"},"district":{"key":"2227","name":"District de Morges"},"canton":{"key":"22","code":"VD","name":"Vaud"},"status":"Real"},{"key":"10196377","name":"Rue des Voiles du Léman","postalCode":"1028","locality":"Préverenges","commune":{"key":"5643","name":"Préverenges","shortName":"Préverenges"},"district":{"key":"2227","name":"District de Morges"},"canton":{"key":"22","code":"VD","name":"Vaud"},"status":"Real"},{"key":"10116804","name":"Rue du Château","postalCode":"1028","locality":"Préverenges","commune":{"key":"5643","name":"Préverenges","shortName":"Préverenges"},"district":{"key":"2227","name":"District de Morges"},"canton":{"key":"22","code":"VD","name":"Vaud"},"status":"Real"},{"key":"10041790","name":"Zone Industrielle Le Trési","postalCode":"1028","locality":"Préverenges","commune":{"key":"5643","name":"Préverenges","shortName":"Préverenges"},"district":{"key":"2227","name":"District de Morges"},"canton":{"key":"22","code":"VD","name":"Vaud"},"status":"Real"},]