[{"name":"Akazienweg","postalCode":"79361","locality":"Sasbach am Kaiserstuhl","municipality":{"key":"08316038","name":"Sasbach am Kaiserstuhl","type":"Kreisangehörige_Gemeinde"},"district":{"key":"08316","name":"Emmendingen","type":"Landkreis"},"federalState":{"key":"08","name":"Baden-Württemberg"}},{"name":"Alamannenstr.","postalCode":"79361","locality":"Sasbach am Kaiserstuhl","municipality":{"key":"08316038","name":"Sasbach am Kaiserstuhl","type":"Kreisangehörige_Gemeinde"},"district":{"key":"08316","name":"Emmendingen","type":"Landkreis"},"federalState":{"key":"08","name":"Baden-Württemberg"}},{"name":"Allmendstr.","postalCode":"77880","locality":"Sasbach","municipality":{"key":"08317116","name":"Sasbach","type":"Kreisangehörige_Gemeinde"},"district":{"key":"08317","name":"Ortenaukreis","type":"Landkreis"},"federalState":{"key":"08","name":"Baden-Württemberg"}},{"name":"Allmendweg","postalCode":"77887","locality":"Sasbachwalden","municipality":{"key":"08317118","name":"Sasbachwalden","type":"Kreisangehörige_Gemeinde"},"district":{"key":"08317","name":"Ortenaukreis","type":"Landkreis"},"federalState":{"key":"08","name":"Baden-Württemberg"}},{"name":"Alter Sportplatz","postalCode":"77880","locality":"Sasbach","municipality":{"key":"08317116","name":"Sasbach","type":"Kreisangehörige_Gemeinde"},"district":{"key":"08317","name":"Ortenaukreis","type":"Landkreis"},"federalState":{"key":"08","name":"Baden-Württemberg"}},{"name":"Am Altenrain","postalCode":"77887","locality":"Sasbachwalden","municipality":{"key":"08317118","name":"Sasbachwalden","type":"Kreisangehörige_Gemeinde"},"district":{"key":"08317","name":"Ortenaukreis","type":"Landkreis"},"federalState":{"key":"08","name":"Baden-Württemberg"}},{"name":"Am Badstein","postalCode":"77880","locality":"Sasbach","municipality":{"key":"08317116","name":"Sasbach","type":"Kreisangehörige_Gemeinde"},"district":{"key":"08317","name":"Ortenaukreis","type":"Landkreis"},"federalState":{"key":"08","name":"Baden-Württemberg"}},{"name":"Am Bungert","postalCode":"77880","locality":"Sasbach","municipality":{"key":"08317116","name":"Sasbach","type":"Kreisangehörige_Gemeinde"},"district":{"key":"08317","name":"Ortenaukreis","type":"Landkreis"},"federalState":{"key":"08","name":"Baden-Württemberg"}},{"name":"Am Damm","postalCode":"79361","locality":"Sasbach am Kaiserstuhl","municipality":{"key":"08316038","name":"Sasbach am Kaiserstuhl","type":"Kreisangehörige_Gemeinde"},"district":{"key":"08316","name":"Emmendingen","type":"Landkreis"},"federalState":{"key":"08","name":"Baden-Württemberg"}},{"name":"Am Engelbuckel","postalCode":"77880","locality":"Sasbach","municipality":{"key":"08317116","name":"Sasbach","type":"Kreisangehörige_Gemeinde"},"district":{"key":"08317","name":"Ortenaukreis","type":"Landkreis"},"federalState":{"key":"08","name":"Baden-Württemberg"}},{"name":"Am Fuchsgraben","postalCode":"77880","locality":"Sasbach","municipality":{"key":"08317116","name":"Sasbach","type":"Kreisangehörige_Gemeinde"},"district":{"key":"08317","name":"Ortenaukreis","type":"Landkreis"},"federalState":{"key":"08","name":"Baden-Württemberg"}},{"name":"Am Glöckelshof","postalCode":"77887","locality":"Sasbachwalden","municipality":{"key":"08317118","name":"Sasbachwalden","type":"Kreisangehörige_Gemeinde"},"district":{"key":"08317","name":"Ortenaukreis","type":"Landkreis"},"federalState":{"key":"08","name":"Baden-Württemberg"}},{"name":"Am Haberberg","postalCode":"79361","locality":"Sasbach am Kaiserstuhl","municipality":{"key":"08316038","name":"Sasbach am Kaiserstuhl","type":"Kreisangehörige_Gemeinde"},"district":{"key":"08316","name":"Emmendingen","type":"Landkreis"},"federalState":{"key":"08","name":"Baden-Württemberg"}},{"name":"Am Hohacker","postalCode":"77887","locality":"Sasbachwalden","municipality":{"key":"08317118","name":"Sasbachwalden","type":"Kreisangehörige_Gemeinde"},"district":{"key":"08317","name":"Ortenaukreis","type":"Landkreis"},"federalState":{"key":"08","name":"Baden-Württemberg"}},{"name":"Am Kältebächel","postalCode":"77880","locality":"Sasbach","municipality":{"key":"08317116","name":"Sasbach","type":"Kreisangehörige_Gemeinde"},"district":{"key":"08317","name":"Ortenaukreis","type":"Landkreis"},"federalState":{"key":"08","name":"Baden-Württemberg"}},{"name":"Am Kirchberg","postalCode":"77887","locality":"Sasbachwalden","municipality":{"key":"08317118","name":"Sasbachwalden","type":"Kreisangehörige_Gemeinde"},"district":{"key":"08317","name":"Ortenaukreis","type":"Landkreis"},"federalState":{"key":"08","name":"Baden-Württemberg"}},{"name":"Am Rebbuckel","postalCode":"77880","locality":"Sasbach","municipality":{"key":"08317116","name":"Sasbach","type":"Kreisangehörige_Gemeinde"},"district":{"key":"08317","name":"Ortenaukreis","type":"Landkreis"},"federalState":{"key":"08","name":"Baden-Württemberg"}},{"name":"Am Rhein","postalCode":"79361","locality":"Sasbach am Kaiserstuhl","municipality":{"key":"08316038","name":"Sasbach am Kaiserstuhl","type":"Kreisangehörige_Gemeinde"},"district":{"key":"08316","name":"Emmendingen","type":"Landkreis"},"federalState":{"key":"08","name":"Baden-Württemberg"}},{"name":"Am Ruttersrain","postalCode":"77887","locality":"Sasbachwalden","municipality":{"key":"08317118","name":"Sasbachwalden","type":"Kreisangehörige_Gemeinde"},"district":{"key":"08317","name":"Ortenaukreis","type":"Landkreis"},"federalState":{"key":"08","name":"Baden-Württemberg"}},{"name":"Am Schelzberg","postalCode":"77887","locality":"Sasbachwalden","municipality":{"key":"08317118","name":"Sasbachwalden","type":"Kreisangehörige_Gemeinde"},"district":{"key":"08317","name":"Ortenaukreis","type":"Landkreis"},"federalState":{"key":"08","name":"Baden-Württemberg"}},{"name":"Am Schloßberg","postalCode":"77887","locality":"Sasbachwalden","municipality":{"key":"08317118","name":"Sasbachwalden","type":"Kreisangehörige_Gemeinde"},"district":{"key":"08317","name":"Ortenaukreis","type":"Landkreis"},"federalState":{"key":"08","name":"Baden-Württemberg"}},{"name":"Am Vogelsberg","postalCode":"77880","locality":"Sasbach","municipality":{"key":"08317116","name":"Sasbach","type":"Kreisangehörige_Gemeinde"},"district":{"key":"08317","name":"Ortenaukreis","type":"Landkreis"},"federalState":{"key":"08","name":"Baden-Württemberg"}},{"name":"Am Waldgraben","postalCode":"77880","locality":"Sasbach","municipality":{"key":"08317116","name":"Sasbach","type":"Kreisangehörige_Gemeinde"},"district":{"key":"08317","name":"Ortenaukreis","type":"Landkreis"},"federalState":{"key":"08","name":"Baden-Württemberg"}},{"name":"Am Werth","postalCode":"77887","locality":"Sasbachwalden","municipality":{"key":"08317118","name":"Sasbachwalden","type":"Kreisangehörige_Gemeinde"},"district":{"key":"08317","name":"Ortenaukreis","type":"Landkreis"},"federalState":{"key":"08","name":"Baden-Württemberg"}},{"name":"An der Grinde","postalCode":"77887","locality":"Sasbachwalden","municipality":{"key":"08317118","name":"Sasbachwalden","type":"Kreisangehörige_Gemeinde"},"district":{"key":"08317","name":"Ortenaukreis","type":"Landkreis"},"federalState":{"key":"08","name":"Baden-Württemberg"}},{"name":"An der Grub","postalCode":"77880","locality":"Sasbach","municipality":{"key":"08317116","name":"Sasbach","type":"Kreisangehörige_Gemeinde"},"district":{"key":"08317","name":"Ortenaukreis","type":"Landkreis"},"federalState":{"key":"08","name":"Baden-Württemberg"}},{"name":"Ankerstr.","postalCode":"79361","locality":"Sasbach am Kaiserstuhl","municipality":{"key":"08316038","name":"Sasbach am Kaiserstuhl","type":"Kreisangehörige_Gemeinde"},"district":{"key":"08316","name":"Emmendingen","type":"Landkreis"},"federalState":{"key":"08","name":"Baden-Württemberg"}},{"name":"Attilastr.","postalCode":"79361","locality":"Sasbach am Kaiserstuhl","municipality":{"key":"08316038","name":"Sasbach am Kaiserstuhl","type":"Kreisangehörige_Gemeinde"},"district":{"key":"08316","name":"Emmendingen","type":"Landkreis"},"federalState":{"key":"08","name":"Baden-Württemberg"}},{"name":"Auenweg","postalCode":"77880","locality":"Sasbach","municipality":{"key":"08317116","name":"Sasbach","type":"Kreisangehörige_Gemeinde"},"district":{"key":"08317","name":"Ortenaukreis","type":"Landkreis"},"federalState":{"key":"08","name":"Baden-Württemberg"}},{"name":"Auf der Eck","postalCode":"77887","locality":"Sasbachwalden","municipality":{"key":"08317118","name":"Sasbachwalden","type":"Kreisangehörige_Gemeinde"},"district":{"key":"08317","name":"Ortenaukreis","type":"Landkreis"},"federalState":{"key":"08","name":"Baden-Württemberg"}},{"name":"Auf der Golz","postalCode":"77887","locality":"Sasbachwalden","municipality":{"key":"08317118","name":"Sasbachwalden","type":"Kreisangehörige_Gemeinde"},"district":{"key":"08317","name":"Ortenaukreis","type":"Landkreis"},"federalState":{"key":"08","name":"Baden-Württemberg"}},{"name":"Augitweg","postalCode":"79361","locality":"Sasbach am Kaiserstuhl","municipality":{"key":"08316038","name":"Sasbach am Kaiserstuhl","type":"Kreisangehörige_Gemeinde"},"district":{"key":"08316","name":"Emmendingen","type":"Landkreis"},"federalState":{"key":"08","name":"Baden-Württemberg"}},{"name":"Bachmatt","postalCode":"77887","locality":"Sasbachwalden","municipality":{"key":"08317118","name":"Sasbachwalden","type":"Kreisangehörige_Gemeinde"},"district":{"key":"08317","name":"Ortenaukreis","type":"Landkreis"},"federalState":{"key":"08","name":"Baden-Württemberg"}},{"name":"Bachstr.","postalCode":"77880","locality":"Sasbach","municipality":{"key":"08317116","name":"Sasbach","type":"Kreisangehörige_Gemeinde"},"district":{"key":"08317","name":"Ortenaukreis","type":"Landkreis"},"federalState":{"key":"08","name":"Baden-Württemberg"}},{"name":"Bälgenstr.","postalCode":"77880","locality":"Sasbach","municipality":{"key":"08317116","name":"Sasbach","type":"Kreisangehörige_Gemeinde"},"district":{"key":"08317","name":"Ortenaukreis","type":"Landkreis"},"federalState":{"key":"08","name":"Baden-Württemberg"}},{"name":"Banaterweg","postalCode":"77880","locality":"Sasbach","municipality":{"key":"08317116","name":"Sasbach","type":"Kreisangehörige_Gemeinde"},"district":{"key":"08317","name":"Ortenaukreis","type":"Landkreis"},"federalState":{"key":"08","name":"Baden-Württemberg"}},{"name":"Bärenäckerle","postalCode":"77887","locality":"Sasbachwalden","municipality":{"key":"08317118","name":"Sasbachwalden","type":"Kreisangehörige_Gemeinde"},"district":{"key":"08317","name":"Ortenaukreis","type":"Landkreis"},"federalState":{"key":"08","name":"Baden-Württemberg"}},{"name":"Basaltweg","postalCode":"79361","locality":"Sasbach am Kaiserstuhl","municipality":{"key":"08316038","name":"Sasbach am Kaiserstuhl","type":"Kreisangehörige_Gemeinde"},"district":{"key":"08316","name":"Emmendingen","type":"Landkreis"},"federalState":{"key":"08","name":"Baden-Württemberg"}},{"name":"Bauhof","postalCode":"79361","locality":"Sasbach am Kaiserstuhl","municipality":{"key":"08316038","name":"Sasbach am Kaiserstuhl","type":"Kreisangehörige_Gemeinde"},"district":{"key":"08316","name":"Emmendingen","type":"Landkreis"},"federalState":{"key":"08","name":"Baden-Württemberg"}},{"name":"Bergle","postalCode":"79361","locality":"Sasbach am Kaiserstuhl","municipality":{"key":"08316038","name":"Sasbach am Kaiserstuhl","type":"Kreisangehörige_Gemeinde"},"district":{"key":"08316","name":"Emmendingen","type":"Landkreis"},"federalState":{"key":"08","name":"Baden-Württemberg"}},{"name":"Bergstr.","postalCode":"77887","locality":"Sasbachwalden","municipality":{"key":"08317118","name":"Sasbachwalden","type":"Kreisangehörige_Gemeinde"},"district":{"key":"08317","name":"Ortenaukreis","type":"Landkreis"},"federalState":{"key":"08","name":"Baden-Württemberg"}},{"name":"Bergweide","postalCode":"77887","locality":"Sasbachwalden","municipality":{"key":"08317118","name":"Sasbachwalden","type":"Kreisangehörige_Gemeinde"},"district":{"key":"08317","name":"Ortenaukreis","type":"Landkreis"},"federalState":{"key":"08","name":"Baden-Württemberg"}},{"name":"Birkenweg","postalCode":"79361","locality":"Sasbach am Kaiserstuhl","municipality":{"key":"08316038","name":"Sasbach am Kaiserstuhl","type":"Kreisangehörige_Gemeinde"},"district":{"key":"08316","name":"Emmendingen","type":"Landkreis"},"federalState":{"key":"08","name":"Baden-Württemberg"}},{"name":"Blumberg","postalCode":"77880","locality":"Sasbach","municipality":{"key":"08317116","name":"Sasbach","type":"Kreisangehörige_Gemeinde"},"district":{"key":"08317","name":"Ortenaukreis","type":"Landkreis"},"federalState":{"key":"08","name":"Baden-Württemberg"}},{"name":"Blumenstr.","postalCode":"77880","locality":"Sasbach","municipality":{"key":"08317116","name":"Sasbach","type":"Kreisangehörige_Gemeinde"},"district":{"key":"08317","name":"Ortenaukreis","type":"Landkreis"},"federalState":{"key":"08","name":"Baden-Württemberg"}},{"name":"Bootsstr.","postalCode":"79361","locality":"Sasbach am Kaiserstuhl","municipality":{"key":"08316038","name":"Sasbach am Kaiserstuhl","type":"Kreisangehörige_Gemeinde"},"district":{"key":"08316","name":"Emmendingen","type":"Landkreis"},"federalState":{"key":"08","name":"Baden-Württemberg"}},{"name":"Botzheimweg","postalCode":"77880","locality":"Sasbach","municipality":{"key":"08317116","name":"Sasbach","type":"Kreisangehörige_Gemeinde"},"district":{"key":"08317","name":"Ortenaukreis","type":"Landkreis"},"federalState":{"key":"08","name":"Baden-Württemberg"}},{"name":"Brandmatt","postalCode":"77887","locality":"Sasbachwalden","municipality":{"key":"08317118","name":"Sasbachwalden","type":"Kreisangehörige_Gemeinde"},"district":{"key":"08317","name":"Ortenaukreis","type":"Landkreis"},"federalState":{"key":"08","name":"Baden-Württemberg"}},{"name":"Brandrüttel","postalCode":"77887","locality":"Sasbachwalden","municipality":{"key":"08317118","name":"Sasbachwalden","type":"Kreisangehörige_Gemeinde"},"district":{"key":"08317","name":"Ortenaukreis","type":"Landkreis"},"federalState":{"key":"08","name":"Baden-Württemberg"}},{"name":"Breiteweg","postalCode":"79361","locality":"Sasbach am Kaiserstuhl","municipality":{"key":"08316038","name":"Sasbach am Kaiserstuhl","type":"Kreisangehörige_Gemeinde"},"district":{"key":"08316","name":"Emmendingen","type":"Landkreis"},"federalState":{"key":"08","name":"Baden-Württemberg"}},{"name":"Brubach","postalCode":"77880","locality":"Sasbach","municipality":{"key":"08317116","name":"Sasbach","type":"Kreisangehörige_Gemeinde"},"district":{"key":"08317","name":"Ortenaukreis","type":"Landkreis"},"federalState":{"key":"08","name":"Baden-Württemberg"}},{"name":"Brunnenstr.","postalCode":"77880","locality":"Sasbach","municipality":{"key":"08317116","name":"Sasbach","type":"Kreisangehörige_Gemeinde"},"district":{"key":"08317","name":"Ortenaukreis","type":"Landkreis"},"federalState":{"key":"08","name":"Baden-Württemberg"}},{"name":"Büchelbach","postalCode":"77887","locality":"Sasbachwalden","municipality":{"key":"08317118","name":"Sasbachwalden","type":"Kreisangehörige_Gemeinde"},"district":{"key":"08317","name":"Ortenaukreis","type":"Landkreis"},"federalState":{"key":"08","name":"Baden-Württemberg"}},{"name":"Buchenstr.","postalCode":"77880","locality":"Sasbach","municipality":{"key":"08317116","name":"Sasbach","type":"Kreisangehörige_Gemeinde"},"district":{"key":"08317","name":"Ortenaukreis","type":"Landkreis"},"federalState":{"key":"08","name":"Baden-Württemberg"}},{"name":"Buchenweg","postalCode":"79361","locality":"Sasbach am Kaiserstuhl","municipality":{"key":"08316038","name":"Sasbach am Kaiserstuhl","type":"Kreisangehörige_Gemeinde"},"district":{"key":"08316","name":"Emmendingen","type":"Landkreis"},"federalState":{"key":"08","name":"Baden-Württemberg"}},{"name":"Bühler Str.","postalCode":"77880","locality":"Sasbach","municipality":{"key":"08317116","name":"Sasbach","type":"Kreisangehörige_Gemeinde"},"district":{"key":"08317","name":"Ortenaukreis","type":"Landkreis"},"federalState":{"key":"08","name":"Baden-Württemberg"}},{"name":"Burgunderweg","postalCode":"79361","locality":"Sasbach am Kaiserstuhl","municipality":{"key":"08316038","name":"Sasbach am Kaiserstuhl","type":"Kreisangehörige_Gemeinde"},"district":{"key":"08316","name":"Emmendingen","type":"Landkreis"},"federalState":{"key":"08","name":"Baden-Württemberg"}},{"name":"Dahlienweg","postalCode":"79361","locality":"Sasbach am Kaiserstuhl","municipality":{"key":"08316038","name":"Sasbach am Kaiserstuhl","type":"Kreisangehörige_Gemeinde"},"district":{"key":"08316","name":"Emmendingen","type":"Landkreis"},"federalState":{"key":"08","name":"Baden-Württemberg"}},{"name":"Dorfinsel","postalCode":"79361","locality":"Sasbach am Kaiserstuhl","municipality":{"key":"08316038","name":"Sasbach am Kaiserstuhl","type":"Kreisangehörige_Gemeinde"},"district":{"key":"08316","name":"Emmendingen","type":"Landkreis"},"federalState":{"key":"08","name":"Baden-Württemberg"}},{"name":"Dorfstr.","postalCode":"79361","locality":"Sasbach am Kaiserstuhl","municipality":{"key":"08316038","name":"Sasbach am Kaiserstuhl","type":"Kreisangehörige_Gemeinde"},"district":{"key":"08316","name":"Emmendingen","type":"Landkreis"},"federalState":{"key":"08","name":"Baden-Württemberg"}},{"name":"Eichert","postalCode":"79361","locality":"Sasbach am Kaiserstuhl","municipality":{"key":"08316038","name":"Sasbach am Kaiserstuhl","type":"Kreisangehörige_Gemeinde"},"district":{"key":"08316","name":"Emmendingen","type":"Landkreis"},"federalState":{"key":"08","name":"Baden-Württemberg"}},{"name":"Eichwaldstr.","postalCode":"77880","locality":"Sasbach","municipality":{"key":"08317116","name":"Sasbach","type":"Kreisangehörige_Gemeinde"},"district":{"key":"08317","name":"Ortenaukreis","type":"Landkreis"},"federalState":{"key":"08","name":"Baden-Württemberg"}},{"name":"Emil-Gött-Str.","postalCode":"79361","locality":"Sasbach am Kaiserstuhl","municipality":{"key":"08316038","name":"Sasbach am Kaiserstuhl","type":"Kreisangehörige_Gemeinde"},"district":{"key":"08316","name":"Emmendingen","type":"Landkreis"},"federalState":{"key":"08","name":"Baden-Württemberg"}},{"name":"Endinger Weg","postalCode":"79361","locality":"Sasbach am Kaiserstuhl","municipality":{"key":"08316038","name":"Sasbach am Kaiserstuhl","type":"Kreisangehörige_Gemeinde"},"district":{"key":"08316","name":"Emmendingen","type":"Landkreis"},"federalState":{"key":"08","name":"Baden-Württemberg"}},{"name":"Engelweg","postalCode":"77887","locality":"Sasbachwalden","municipality":{"key":"08317118","name":"Sasbachwalden","type":"Kreisangehörige_Gemeinde"},"district":{"key":"08317","name":"Ortenaukreis","type":"Landkreis"},"federalState":{"key":"08","name":"Baden-Württemberg"}},{"name":"Erlenbadstr.","postalCode":"77880","locality":"Sasbach","municipality":{"key":"08317116","name":"Sasbach","type":"Kreisangehörige_Gemeinde"},"district":{"key":"08317","name":"Ortenaukreis","type":"Landkreis"},"federalState":{"key":"08","name":"Baden-Württemberg"}},{"name":"Eschenweg","postalCode":"79361","locality":"Sasbach am Kaiserstuhl","municipality":{"key":"08316038","name":"Sasbach am Kaiserstuhl","type":"Kreisangehörige_Gemeinde"},"district":{"key":"08316","name":"Emmendingen","type":"Landkreis"},"federalState":{"key":"08","name":"Baden-Württemberg"}},{"name":"Fabrikstr.","postalCode":"79361","locality":"Sasbach am Kaiserstuhl","municipality":{"key":"08316038","name":"Sasbach am Kaiserstuhl","type":"Kreisangehörige_Gemeinde"},"district":{"key":"08316","name":"Emmendingen","type":"Landkreis"},"federalState":{"key":"08","name":"Baden-Württemberg"}},{"name":"Felsenweg","postalCode":"77887","locality":"Sasbachwalden","municipality":{"key":"08317118","name":"Sasbachwalden","type":"Kreisangehörige_Gemeinde"},"district":{"key":"08317","name":"Ortenaukreis","type":"Landkreis"},"federalState":{"key":"08","name":"Baden-Württemberg"}},{"name":"Fichtenstr.","postalCode":"77880","locality":"Sasbach","municipality":{"key":"08317116","name":"Sasbach","type":"Kreisangehörige_Gemeinde"},"district":{"key":"08317","name":"Ortenaukreis","type":"Landkreis"},"federalState":{"key":"08","name":"Baden-Württemberg"}},{"name":"Finkenweg","postalCode":"79361","locality":"Sasbach am Kaiserstuhl","municipality":{"key":"08316038","name":"Sasbach am Kaiserstuhl","type":"Kreisangehörige_Gemeinde"},"district":{"key":"08316","name":"Emmendingen","type":"Landkreis"},"federalState":{"key":"08","name":"Baden-Württemberg"}},{"name":"Fliederstr.","postalCode":"77880","locality":"Sasbach","municipality":{"key":"08317116","name":"Sasbach","type":"Kreisangehörige_Gemeinde"},"district":{"key":"08317","name":"Ortenaukreis","type":"Landkreis"},"federalState":{"key":"08","name":"Baden-Württemberg"}},{"name":"Forellenweg","postalCode":"79361","locality":"Sasbach am Kaiserstuhl","municipality":{"key":"08316038","name":"Sasbach am Kaiserstuhl","type":"Kreisangehörige_Gemeinde"},"district":{"key":"08316","name":"Emmendingen","type":"Landkreis"},"federalState":{"key":"08","name":"Baden-Württemberg"}},{"name":"Franz-Striebel-Str.","postalCode":"77880","locality":"Sasbach","municipality":{"key":"08317116","name":"Sasbach","type":"Kreisangehörige_Gemeinde"},"district":{"key":"08317","name":"Ortenaukreis","type":"Landkreis"},"federalState":{"key":"08","name":"Baden-Württemberg"}},{"name":"Frauenweg","postalCode":"77887","locality":"Sasbachwalden","municipality":{"key":"08317118","name":"Sasbachwalden","type":"Kreisangehörige_Gemeinde"},"district":{"key":"08317","name":"Ortenaukreis","type":"Landkreis"},"federalState":{"key":"08","name":"Baden-Württemberg"}},{"name":"Friedhofstr.","postalCode":"77880","locality":"Sasbach","municipality":{"key":"08317116","name":"Sasbach","type":"Kreisangehörige_Gemeinde"},"district":{"key":"08317","name":"Ortenaukreis","type":"Landkreis"},"federalState":{"key":"08","name":"Baden-Württemberg"}},{"name":"Fuchsgraben","postalCode":"77880","locality":"Sasbach","municipality":{"key":"08317116","name":"Sasbach","type":"Kreisangehörige_Gemeinde"},"district":{"key":"08317","name":"Ortenaukreis","type":"Landkreis"},"federalState":{"key":"08","name":"Baden-Württemberg"}},{"name":"Gaishölle","postalCode":"77887","locality":"Sasbachwalden","municipality":{"key":"08317118","name":"Sasbachwalden","type":"Kreisangehörige_Gemeinde"},"district":{"key":"08317","name":"Ortenaukreis","type":"Landkreis"},"federalState":{"key":"08","name":"Baden-Württemberg"}},{"name":"Gaishöllpark","postalCode":"77887","locality":"Sasbachwalden","municipality":{"key":"08317118","name":"Sasbachwalden","type":"Kreisangehörige_Gemeinde"},"district":{"key":"08317","name":"Ortenaukreis","type":"Landkreis"},"federalState":{"key":"08","name":"Baden-Württemberg"}},{"name":"Gartenstr.","postalCode":"77880","locality":"Sasbach","municipality":{"key":"08317116","name":"Sasbach","type":"Kreisangehörige_Gemeinde"},"district":{"key":"08317","name":"Ortenaukreis","type":"Landkreis"},"federalState":{"key":"08","name":"Baden-Württemberg"}},{"name":"Gartenstr.","postalCode":"79361","locality":"Sasbach am Kaiserstuhl","municipality":{"key":"08316038","name":"Sasbach am Kaiserstuhl","type":"Kreisangehörige_Gemeinde"},"district":{"key":"08316","name":"Emmendingen","type":"Landkreis"},"federalState":{"key":"08","name":"Baden-Württemberg"}},{"name":"Gestühlstr.","postalCode":"79361","locality":"Sasbach am Kaiserstuhl","municipality":{"key":"08316038","name":"Sasbach am Kaiserstuhl","type":"Kreisangehörige_Gemeinde"},"district":{"key":"08316","name":"Emmendingen","type":"Landkreis"},"federalState":{"key":"08","name":"Baden-Württemberg"}},{"name":"Gewerbestr.","postalCode":"79361","locality":"Sasbach am Kaiserstuhl","municipality":{"key":"08316038","name":"Sasbach am Kaiserstuhl","type":"Kreisangehörige_Gemeinde"},"district":{"key":"08316","name":"Emmendingen","type":"Landkreis"},"federalState":{"key":"08","name":"Baden-Württemberg"}},{"name":"Ginsterweg","postalCode":"77887","locality":"Sasbachwalden","municipality":{"key":"08317118","name":"Sasbachwalden","type":"Kreisangehörige_Gemeinde"},"district":{"key":"08317","name":"Ortenaukreis","type":"Landkreis"},"federalState":{"key":"08","name":"Baden-Württemberg"}},{"name":"Goethestr.","postalCode":"77880","locality":"Sasbach","municipality":{"key":"08317116","name":"Sasbach","type":"Kreisangehörige_Gemeinde"},"district":{"key":"08317","name":"Ortenaukreis","type":"Landkreis"},"federalState":{"key":"08","name":"Baden-Württemberg"}},{"name":"Großer Winkel","postalCode":"77880","locality":"Sasbach","municipality":{"key":"08317116","name":"Sasbach","type":"Kreisangehörige_Gemeinde"},"district":{"key":"08317","name":"Ortenaukreis","type":"Landkreis"},"federalState":{"key":"08","name":"Baden-Württemberg"}},{"name":"Guldengasse","postalCode":"79361","locality":"Sasbach am Kaiserstuhl","municipality":{"key":"08316038","name":"Sasbach am Kaiserstuhl","type":"Kreisangehörige_Gemeinde"},"district":{"key":"08316","name":"Emmendingen","type":"Landkreis"},"federalState":{"key":"08","name":"Baden-Württemberg"}},{"name":"Guthaltweg","postalCode":"77887","locality":"Sasbachwalden","municipality":{"key":"08317118","name":"Sasbachwalden","type":"Kreisangehörige_Gemeinde"},"district":{"key":"08317","name":"Ortenaukreis","type":"Landkreis"},"federalState":{"key":"08","name":"Baden-Württemberg"}},{"name":"Habsburgerstr.","postalCode":"79361","locality":"Sasbach am Kaiserstuhl","municipality":{"key":"08316038","name":"Sasbach am Kaiserstuhl","type":"Kreisangehörige_Gemeinde"},"district":{"key":"08316","name":"Emmendingen","type":"Landkreis"},"federalState":{"key":"08","name":"Baden-Württemberg"}},{"name":"Hans-Adolf-Bühler-Str.","postalCode":"79361","locality":"Sasbach am Kaiserstuhl","municipality":{"key":"08316038","name":"Sasbach am Kaiserstuhl","type":"Kreisangehörige_Gemeinde"},"district":{"key":"08316","name":"Emmendingen","type":"Landkreis"},"federalState":{"key":"08","name":"Baden-Württemberg"}},{"name":"Hansjakobstr.","postalCode":"77880","locality":"Sasbach","municipality":{"key":"08317116","name":"Sasbach","type":"Kreisangehörige_Gemeinde"},"district":{"key":"08317","name":"Ortenaukreis","type":"Landkreis"},"federalState":{"key":"08","name":"Baden-Württemberg"}},{"name":"Hauptstr.","postalCode":"77880","locality":"Sasbach","municipality":{"key":"08317116","name":"Sasbach","type":"Kreisangehörige_Gemeinde"},"district":{"key":"08317","name":"Ortenaukreis","type":"Landkreis"},"federalState":{"key":"08","name":"Baden-Württemberg"}},{"name":"Hauptstr.","postalCode":"79361","locality":"Sasbach am Kaiserstuhl","municipality":{"key":"08316038","name":"Sasbach am Kaiserstuhl","type":"Kreisangehörige_Gemeinde"},"district":{"key":"08316","name":"Emmendingen","type":"Landkreis"},"federalState":{"key":"08","name":"Baden-Württemberg"}},{"name":"Hebelstr.","postalCode":"77880","locality":"Sasbach","municipality":{"key":"08317116","name":"Sasbach","type":"Kreisangehörige_Gemeinde"},"district":{"key":"08317","name":"Ortenaukreis","type":"Landkreis"},"federalState":{"key":"08","name":"Baden-Württemberg"}},{"name":"Heideweg","postalCode":"77880","locality":"Sasbach","municipality":{"key":"08317116","name":"Sasbach","type":"Kreisangehörige_Gemeinde"},"district":{"key":"08317","name":"Ortenaukreis","type":"Landkreis"},"federalState":{"key":"08","name":"Baden-Württemberg"}},{"name":"Hermann-Berger-Str.","postalCode":"77880","locality":"Sasbach","municipality":{"key":"08317116","name":"Sasbach","type":"Kreisangehörige_Gemeinde"},"district":{"key":"08317","name":"Ortenaukreis","type":"Landkreis"},"federalState":{"key":"08","name":"Baden-Württemberg"}},{"name":"Hintergasse","postalCode":"79361","locality":"Sasbach am Kaiserstuhl","municipality":{"key":"08316038","name":"Sasbach am Kaiserstuhl","type":"Kreisangehörige_Gemeinde"},"district":{"key":"08316","name":"Emmendingen","type":"Landkreis"},"federalState":{"key":"08","name":"Baden-Württemberg"}},{"name":"Hochfeld","postalCode":"77880","locality":"Sasbach","municipality":{"key":"08317116","name":"Sasbach","type":"Kreisangehörige_Gemeinde"},"district":{"key":"08317","name":"Ortenaukreis","type":"Landkreis"},"federalState":{"key":"08","name":"Baden-Württemberg"}},{"name":"Höfmatten","postalCode":"77887","locality":"Sasbachwalden","municipality":{"key":"08317118","name":"Sasbachwalden","type":"Kreisangehörige_Gemeinde"},"district":{"key":"08317","name":"Ortenaukreis","type":"Landkreis"},"federalState":{"key":"08","name":"Baden-Württemberg"}},{"name":"Hohritt","postalCode":"77887","locality":"Sasbachwalden","municipality":{"key":"08317118","name":"Sasbachwalden","type":"Kreisangehörige_Gemeinde"},"district":{"key":"08317","name":"Ortenaukreis","type":"Landkreis"},"federalState":{"key":"08","name":"Baden-Württemberg"}},{"name":"Holunderweg","postalCode":"77880","locality":"Sasbach","municipality":{"key":"08317116","name":"Sasbach","type":"Kreisangehörige_Gemeinde"},"district":{"key":"08317","name":"Ortenaukreis","type":"Landkreis"},"federalState":{"key":"08","name":"Baden-Württemberg"}},{"name":"Horngasse","postalCode":"77887","locality":"Sasbachwalden","municipality":{"key":"08317118","name":"Sasbachwalden","type":"Kreisangehörige_Gemeinde"},"district":{"key":"08317","name":"Ortenaukreis","type":"Landkreis"},"federalState":{"key":"08","name":"Baden-Württemberg"}},{"name":"Humbergweg","postalCode":"79361","locality":"Sasbach am Kaiserstuhl","municipality":{"key":"08316038","name":"Sasbach am Kaiserstuhl","type":"Kreisangehörige_Gemeinde"},"district":{"key":"08316","name":"Emmendingen","type":"Landkreis"},"federalState":{"key":"08","name":"Baden-Württemberg"}},{"name":"Hundeberg","postalCode":"77887","locality":"Sasbachwalden","municipality":{"key":"08317118","name":"Sasbachwalden","type":"Kreisangehörige_Gemeinde"},"district":{"key":"08317","name":"Ortenaukreis","type":"Landkreis"},"federalState":{"key":"08","name":"Baden-Württemberg"}},{"name":"Illengrund","postalCode":"77887","locality":"Sasbachwalden","municipality":{"key":"08317118","name":"Sasbachwalden","type":"Kreisangehörige_Gemeinde"},"district":{"key":"08317","name":"Ortenaukreis","type":"Landkreis"},"federalState":{"key":"08","name":"Baden-Württemberg"}},{"name":"Im Bergle","postalCode":"79361","locality":"Sasbach am Kaiserstuhl","municipality":{"key":"08316038","name":"Sasbach am Kaiserstuhl","type":"Kreisangehörige_Gemeinde"},"district":{"key":"08316","name":"Emmendingen","type":"Landkreis"},"federalState":{"key":"08","name":"Baden-Württemberg"}},{"name":"Im Eichwald","postalCode":"77887","locality":"Sasbachwalden","municipality":{"key":"08317118","name":"Sasbachwalden","type":"Kreisangehörige_Gemeinde"},"district":{"key":"08317","name":"Ortenaukreis","type":"Landkreis"},"federalState":{"key":"08","name":"Baden-Württemberg"}},{"name":"Im Fischersdorf","postalCode":"79361","locality":"Sasbach am Kaiserstuhl","municipality":{"key":"08316038","name":"Sasbach am Kaiserstuhl","type":"Kreisangehörige_Gemeinde"},"district":{"key":"08316","name":"Emmendingen","type":"Landkreis"},"federalState":{"key":"08","name":"Baden-Württemberg"}},{"name":"Im Grabenläng","postalCode":"77880","locality":"Sasbach","municipality":{"key":"08317116","name":"Sasbach","type":"Kreisangehörige_Gemeinde"},"district":{"key":"08317","name":"Ortenaukreis","type":"Landkreis"},"federalState":{"key":"08","name":"Baden-Württemberg"}},{"name":"Im Lehwegspitz","postalCode":"79361","locality":"Sasbach am Kaiserstuhl","municipality":{"key":"08316038","name":"Sasbach am Kaiserstuhl","type":"Kreisangehörige_Gemeinde"},"district":{"key":"08316","name":"Emmendingen","type":"Landkreis"},"federalState":{"key":"08","name":"Baden-Württemberg"}},{"name":"Im Rot","postalCode":"77880","locality":"Sasbach","municipality":{"key":"08317116","name":"Sasbach","type":"Kreisangehörige_Gemeinde"},"district":{"key":"08317","name":"Ortenaukreis","type":"Landkreis"},"federalState":{"key":"08","name":"Baden-Württemberg"}},{"name":"Im Safrangarten","postalCode":"79361","locality":"Sasbach am Kaiserstuhl","municipality":{"key":"08316038","name":"Sasbach am Kaiserstuhl","type":"Kreisangehörige_Gemeinde"},"district":{"key":"08316","name":"Emmendingen","type":"Landkreis"},"federalState":{"key":"08","name":"Baden-Württemberg"}},{"name":"Im Weingarten","postalCode":"79361","locality":"Sasbach am Kaiserstuhl","municipality":{"key":"08316038","name":"Sasbach am Kaiserstuhl","type":"Kreisangehörige_Gemeinde"},"district":{"key":"08316","name":"Emmendingen","type":"Landkreis"},"federalState":{"key":"08","name":"Baden-Württemberg"}},{"name":"Im Winkel","postalCode":"77887","locality":"Sasbachwalden","municipality":{"key":"08317118","name":"Sasbachwalden","type":"Kreisangehörige_Gemeinde"},"district":{"key":"08317","name":"Ortenaukreis","type":"Landkreis"},"federalState":{"key":"08","name":"Baden-Württemberg"}},{"name":"In den Erlen","postalCode":"77887","locality":"Sasbachwalden","municipality":{"key":"08317118","name":"Sasbachwalden","type":"Kreisangehörige_Gemeinde"},"district":{"key":"08317","name":"Ortenaukreis","type":"Landkreis"},"federalState":{"key":"08","name":"Baden-Württemberg"}},{"name":"In den Höfen","postalCode":"77887","locality":"Sasbachwalden","municipality":{"key":"08317118","name":"Sasbachwalden","type":"Kreisangehörige_Gemeinde"},"district":{"key":"08317","name":"Ortenaukreis","type":"Landkreis"},"federalState":{"key":"08","name":"Baden-Württemberg"}},{"name":"Jechtinger Str.","postalCode":"79361","locality":"Sasbach am Kaiserstuhl","municipality":{"key":"08316038","name":"Sasbach am Kaiserstuhl","type":"Kreisangehörige_Gemeinde"},"district":{"key":"08316","name":"Emmendingen","type":"Landkreis"},"federalState":{"key":"08","name":"Baden-Württemberg"}},{"name":"Kaiserstuhlstr.","postalCode":"79361","locality":"Sasbach am Kaiserstuhl","municipality":{"key":"08316038","name":"Sasbach am Kaiserstuhl","type":"Kreisangehörige_Gemeinde"},"district":{"key":"08316","name":"Emmendingen","type":"Landkreis"},"federalState":{"key":"08","name":"Baden-Württemberg"}},{"name":"Karolingerstr.","postalCode":"79361","locality":"Sasbach am Kaiserstuhl","municipality":{"key":"08316038","name":"Sasbach am Kaiserstuhl","type":"Kreisangehörige_Gemeinde"},"district":{"key":"08316","name":"Emmendingen","type":"Landkreis"},"federalState":{"key":"08","name":"Baden-Württemberg"}},{"name":"Karpfenweg","postalCode":"79361","locality":"Sasbach am Kaiserstuhl","municipality":{"key":"08316038","name":"Sasbach am Kaiserstuhl","type":"Kreisangehörige_Gemeinde"},"district":{"key":"08316","name":"Emmendingen","type":"Landkreis"},"federalState":{"key":"08","name":"Baden-Württemberg"}},{"name":"Kastanienstr.","postalCode":"77880","locality":"Sasbach","municipality":{"key":"08317116","name":"Sasbach","type":"Kreisangehörige_Gemeinde"},"district":{"key":"08317","name":"Ortenaukreis","type":"Landkreis"},"federalState":{"key":"08","name":"Baden-Württemberg"}},{"name":"Keltenstr.","postalCode":"79361","locality":"Sasbach am Kaiserstuhl","municipality":{"key":"08316038","name":"Sasbach am Kaiserstuhl","type":"Kreisangehörige_Gemeinde"},"district":{"key":"08316","name":"Emmendingen","type":"Landkreis"},"federalState":{"key":"08","name":"Baden-Württemberg"}},{"name":"Kirchfeldweg","postalCode":"77880","locality":"Sasbach","municipality":{"key":"08317116","name":"Sasbach","type":"Kreisangehörige_Gemeinde"},"district":{"key":"08317","name":"Ortenaukreis","type":"Landkreis"},"federalState":{"key":"08","name":"Baden-Württemberg"}},{"name":"Kirchgasse","postalCode":"79361","locality":"Sasbach am Kaiserstuhl","municipality":{"key":"08316038","name":"Sasbach am Kaiserstuhl","type":"Kreisangehörige_Gemeinde"},"district":{"key":"08316","name":"Emmendingen","type":"Landkreis"},"federalState":{"key":"08","name":"Baden-Württemberg"}},{"name":"Kirchgraben","postalCode":"77880","locality":"Sasbach","municipality":{"key":"08317116","name":"Sasbach","type":"Kreisangehörige_Gemeinde"},"district":{"key":"08317","name":"Ortenaukreis","type":"Landkreis"},"federalState":{"key":"08","name":"Baden-Württemberg"}},{"name":"Kirchplatz","postalCode":"79361","locality":"Sasbach am Kaiserstuhl","municipality":{"key":"08316038","name":"Sasbach am Kaiserstuhl","type":"Kreisangehörige_Gemeinde"},"district":{"key":"08316","name":"Emmendingen","type":"Landkreis"},"federalState":{"key":"08","name":"Baden-Württemberg"}},{"name":"Kirchstr.","postalCode":"79361","locality":"Sasbach am Kaiserstuhl","municipality":{"key":"08316038","name":"Sasbach am Kaiserstuhl","type":"Kreisangehörige_Gemeinde"},"district":{"key":"08316","name":"Emmendingen","type":"Landkreis"},"federalState":{"key":"08","name":"Baden-Württemberg"}},{"name":"Kirchweg","postalCode":"77887","locality":"Sasbachwalden","municipality":{"key":"08317118","name":"Sasbachwalden","type":"Kreisangehörige_Gemeinde"},"district":{"key":"08317","name":"Ortenaukreis","type":"Landkreis"},"federalState":{"key":"08","name":"Baden-Württemberg"}},{"name":"Klammsbosch","postalCode":"77880","locality":"Sasbach","municipality":{"key":"08317116","name":"Sasbach","type":"Kreisangehörige_Gemeinde"},"district":{"key":"08317","name":"Ortenaukreis","type":"Landkreis"},"federalState":{"key":"08","name":"Baden-Württemberg"}},{"name":"Kleiner Winkel","postalCode":"77880","locality":"Sasbach","municipality":{"key":"08317116","name":"Sasbach","type":"Kreisangehörige_Gemeinde"},"district":{"key":"08317","name":"Ortenaukreis","type":"Landkreis"},"federalState":{"key":"08","name":"Baden-Württemberg"}},{"name":"Klepperhöfe","postalCode":"77880","locality":"Sasbach","municipality":{"key":"08317116","name":"Sasbach","type":"Kreisangehörige_Gemeinde"},"district":{"key":"08317","name":"Ortenaukreis","type":"Landkreis"},"federalState":{"key":"08","name":"Baden-Württemberg"}},{"name":"Königsrainstr.","postalCode":"77887","locality":"Sasbachwalden","municipality":{"key":"08317118","name":"Sasbachwalden","type":"Kreisangehörige_Gemeinde"},"district":{"key":"08317","name":"Ortenaukreis","type":"Landkreis"},"federalState":{"key":"08","name":"Baden-Württemberg"}},{"name":"Kosmas-Bohn-Str.","postalCode":"79361","locality":"Sasbach am Kaiserstuhl","municipality":{"key":"08316038","name":"Sasbach am Kaiserstuhl","type":"Kreisangehörige_Gemeinde"},"district":{"key":"08316","name":"Emmendingen","type":"Landkreis"},"federalState":{"key":"08","name":"Baden-Württemberg"}},{"name":"Kreuzweg","postalCode":"79361","locality":"Sasbach am Kaiserstuhl","municipality":{"key":"08316038","name":"Sasbach am Kaiserstuhl","type":"Kreisangehörige_Gemeinde"},"district":{"key":"08316","name":"Emmendingen","type":"Landkreis"},"federalState":{"key":"08","name":"Baden-Württemberg"}},{"name":"Kroppenstück","postalCode":"77880","locality":"Sasbach","municipality":{"key":"08317116","name":"Sasbach","type":"Kreisangehörige_Gemeinde"},"district":{"key":"08317","name":"Ortenaukreis","type":"Landkreis"},"federalState":{"key":"08","name":"Baden-Württemberg"}},{"name":"Küchenmatten","postalCode":"79361","locality":"Sasbach am Kaiserstuhl","municipality":{"key":"08316038","name":"Sasbach am Kaiserstuhl","type":"Kreisangehörige_Gemeinde"},"district":{"key":"08316","name":"Emmendingen","type":"Landkreis"},"federalState":{"key":"08","name":"Baden-Württemberg"}},{"name":"Lachsweg","postalCode":"79361","locality":"Sasbach am Kaiserstuhl","municipality":{"key":"08316038","name":"Sasbach am Kaiserstuhl","type":"Kreisangehörige_Gemeinde"},"district":{"key":"08316","name":"Emmendingen","type":"Landkreis"},"federalState":{"key":"08","name":"Baden-Württemberg"}},{"name":"Langert","postalCode":"77887","locality":"Sasbachwalden","municipality":{"key":"08317118","name":"Sasbachwalden","type":"Kreisangehörige_Gemeinde"},"district":{"key":"08317","name":"Ortenaukreis","type":"Landkreis"},"federalState":{"key":"08","name":"Baden-Württemberg"}},{"name":"Laufer Gasse","postalCode":"77880","locality":"Sasbach","municipality":{"key":"08317116","name":"Sasbach","type":"Kreisangehörige_Gemeinde"},"district":{"key":"08317","name":"Ortenaukreis","type":"Landkreis"},"federalState":{"key":"08","name":"Baden-Württemberg"}},{"name":"Lehmattenring","postalCode":"79361","locality":"Sasbach am Kaiserstuhl","municipality":{"key":"08316038","name":"Sasbach am Kaiserstuhl","type":"Kreisangehörige_Gemeinde"},"district":{"key":"08316","name":"Emmendingen","type":"Landkreis"},"federalState":{"key":"08","name":"Baden-Württemberg"}},{"name":"Lehweg","postalCode":"79361","locality":"Sasbach am Kaiserstuhl","municipality":{"key":"08316038","name":"Sasbach am Kaiserstuhl","type":"Kreisangehörige_Gemeinde"},"district":{"key":"08316","name":"Emmendingen","type":"Landkreis"},"federalState":{"key":"08","name":"Baden-Württemberg"}},{"name":"Lenderstr.","postalCode":"77880","locality":"Sasbach","municipality":{"key":"08317116","name":"Sasbach","type":"Kreisangehörige_Gemeinde"},"district":{"key":"08317","name":"Ortenaukreis","type":"Landkreis"},"federalState":{"key":"08","name":"Baden-Württemberg"}},{"name":"Lilienstr.","postalCode":"77880","locality":"Sasbach","municipality":{"key":"08317116","name":"Sasbach","type":"Kreisangehörige_Gemeinde"},"district":{"key":"08317","name":"Ortenaukreis","type":"Landkreis"},"federalState":{"key":"08","name":"Baden-Württemberg"}},{"name":"Limbergstr.","postalCode":"79361","locality":"Sasbach am Kaiserstuhl","municipality":{"key":"08316038","name":"Sasbach am Kaiserstuhl","type":"Kreisangehörige_Gemeinde"},"district":{"key":"08316","name":"Emmendingen","type":"Landkreis"},"federalState":{"key":"08","name":"Baden-Württemberg"}},{"name":"Limburgitweg","postalCode":"79361","locality":"Sasbach am Kaiserstuhl","municipality":{"key":"08316038","name":"Sasbach am Kaiserstuhl","type":"Kreisangehörige_Gemeinde"},"district":{"key":"08316","name":"Emmendingen","type":"Landkreis"},"federalState":{"key":"08","name":"Baden-Württemberg"}},{"name":"Limburgstr.","postalCode":"79361","locality":"Sasbach am Kaiserstuhl","municipality":{"key":"08316038","name":"Sasbach am Kaiserstuhl","type":"Kreisangehörige_Gemeinde"},"district":{"key":"08316","name":"Emmendingen","type":"Landkreis"},"federalState":{"key":"08","name":"Baden-Württemberg"}},{"name":"Lindenhaus","postalCode":"77880","locality":"Sasbach","municipality":{"key":"08317116","name":"Sasbach","type":"Kreisangehörige_Gemeinde"},"district":{"key":"08317","name":"Ortenaukreis","type":"Landkreis"},"federalState":{"key":"08","name":"Baden-Württemberg"}},{"name":"Lindenplatz","postalCode":"77880","locality":"Sasbach","municipality":{"key":"08317116","name":"Sasbach","type":"Kreisangehörige_Gemeinde"},"district":{"key":"08317","name":"Ortenaukreis","type":"Landkreis"},"federalState":{"key":"08","name":"Baden-Württemberg"}},{"name":"Lindenweg","postalCode":"79361","locality":"Sasbach am Kaiserstuhl","municipality":{"key":"08316038","name":"Sasbach am Kaiserstuhl","type":"Kreisangehörige_Gemeinde"},"district":{"key":"08316","name":"Emmendingen","type":"Landkreis"},"federalState":{"key":"08","name":"Baden-Württemberg"}},{"name":"Lochmatt","postalCode":"77880","locality":"Sasbach","municipality":{"key":"08317116","name":"Sasbach","type":"Kreisangehörige_Gemeinde"},"district":{"key":"08317","name":"Ortenaukreis","type":"Landkreis"},"federalState":{"key":"08","name":"Baden-Württemberg"}},{"name":"Maienstr.","postalCode":"77880","locality":"Sasbach","municipality":{"key":"08317116","name":"Sasbach","type":"Kreisangehörige_Gemeinde"},"district":{"key":"08317","name":"Ortenaukreis","type":"Landkreis"},"federalState":{"key":"08","name":"Baden-Württemberg"}},{"name":"Maienweg","postalCode":"77880","locality":"Sasbach","municipality":{"key":"08317116","name":"Sasbach","type":"Kreisangehörige_Gemeinde"},"district":{"key":"08317","name":"Ortenaukreis","type":"Landkreis"},"federalState":{"key":"08","name":"Baden-Württemberg"}},{"name":"Marckolsheimer Str.","postalCode":"79361","locality":"Sasbach am Kaiserstuhl","municipality":{"key":"08316038","name":"Sasbach am Kaiserstuhl","type":"Kreisangehörige_Gemeinde"},"district":{"key":"08316","name":"Emmendingen","type":"Landkreis"},"federalState":{"key":"08","name":"Baden-Württemberg"}},{"name":"Markteichstr.","postalCode":"77887","locality":"Sasbachwalden","municipality":{"key":"08317118","name":"Sasbachwalden","type":"Kreisangehörige_Gemeinde"},"district":{"key":"08317","name":"Ortenaukreis","type":"Landkreis"},"federalState":{"key":"08","name":"Baden-Württemberg"}},{"name":"Mattgasse","postalCode":"79361","locality":"Sasbach am Kaiserstuhl","municipality":{"key":"08316038","name":"Sasbach am Kaiserstuhl","type":"Kreisangehörige_Gemeinde"},"district":{"key":"08316","name":"Emmendingen","type":"Landkreis"},"federalState":{"key":"08","name":"Baden-Württemberg"}},{"name":"Mättich","postalCode":"77880","locality":"Sasbach","municipality":{"key":"08317116","name":"Sasbach","type":"Kreisangehörige_Gemeinde"},"district":{"key":"08317","name":"Ortenaukreis","type":"Landkreis"},"federalState":{"key":"08","name":"Baden-Württemberg"}},{"name":"Meerweinstr.","postalCode":"79361","locality":"Sasbach am Kaiserstuhl","municipality":{"key":"08316038","name":"Sasbach am Kaiserstuhl","type":"Kreisangehörige_Gemeinde"},"district":{"key":"08316","name":"Emmendingen","type":"Landkreis"},"federalState":{"key":"08","name":"Baden-Württemberg"}},{"name":"Mergebuckel","postalCode":"77880","locality":"Sasbach","municipality":{"key":"08317116","name":"Sasbach","type":"Kreisangehörige_Gemeinde"},"district":{"key":"08317","name":"Ortenaukreis","type":"Landkreis"},"federalState":{"key":"08","name":"Baden-Württemberg"}},{"name":"Merowingerweg","postalCode":"79361","locality":"Sasbach am Kaiserstuhl","municipality":{"key":"08316038","name":"Sasbach am Kaiserstuhl","type":"Kreisangehörige_Gemeinde"},"district":{"key":"08316","name":"Emmendingen","type":"Landkreis"},"federalState":{"key":"08","name":"Baden-Württemberg"}},{"name":"Michelbach","postalCode":"77887","locality":"Sasbachwalden","municipality":{"key":"08317118","name":"Sasbachwalden","type":"Kreisangehörige_Gemeinde"},"district":{"key":"08317","name":"Ortenaukreis","type":"Landkreis"},"federalState":{"key":"08","name":"Baden-Württemberg"}},{"name":"Mittlere Matten","postalCode":"79361","locality":"Sasbach am Kaiserstuhl","municipality":{"key":"08316038","name":"Sasbach am Kaiserstuhl","type":"Kreisangehörige_Gemeinde"},"district":{"key":"08316","name":"Emmendingen","type":"Landkreis"},"federalState":{"key":"08","name":"Baden-Württemberg"}},{"name":"Nelkenstr.","postalCode":"77880","locality":"Sasbach","municipality":{"key":"08317116","name":"Sasbach","type":"Kreisangehörige_Gemeinde"},"district":{"key":"08317","name":"Ortenaukreis","type":"Landkreis"},"federalState":{"key":"08","name":"Baden-Württemberg"}},{"name":"Neudorfstr.","postalCode":"79361","locality":"Sasbach am Kaiserstuhl","municipality":{"key":"08316038","name":"Sasbach am Kaiserstuhl","type":"Kreisangehörige_Gemeinde"},"district":{"key":"08316","name":"Emmendingen","type":"Landkreis"},"federalState":{"key":"08","name":"Baden-Württemberg"}},{"name":"Neuer Weg","postalCode":"77880","locality":"Sasbach","municipality":{"key":"08317116","name":"Sasbach","type":"Kreisangehörige_Gemeinde"},"district":{"key":"08317","name":"Ortenaukreis","type":"Landkreis"},"federalState":{"key":"08","name":"Baden-Württemberg"}},{"name":"Oberdorfstr.","postalCode":"77880","locality":"Sasbach","municipality":{"key":"08317116","name":"Sasbach","type":"Kreisangehörige_Gemeinde"},"district":{"key":"08317","name":"Ortenaukreis","type":"Landkreis"},"federalState":{"key":"08","name":"Baden-Württemberg"}},{"name":"Obere-Gasse","postalCode":"79361","locality":"Sasbach am Kaiserstuhl","municipality":{"key":"08316038","name":"Sasbach am Kaiserstuhl","type":"Kreisangehörige_Gemeinde"},"district":{"key":"08316","name":"Emmendingen","type":"Landkreis"},"federalState":{"key":"08","name":"Baden-Württemberg"}},{"name":"Obere Matten","postalCode":"79361","locality":"Sasbach am Kaiserstuhl","municipality":{"key":"08316038","name":"Sasbach am Kaiserstuhl","type":"Kreisangehörige_Gemeinde"},"district":{"key":"08316","name":"Emmendingen","type":"Landkreis"},"federalState":{"key":"08","name":"Baden-Württemberg"}},{"name":"Obersasbacher Str.","postalCode":"77880","locality":"Sasbach","municipality":{"key":"08317116","name":"Sasbach","type":"Kreisangehörige_Gemeinde"},"district":{"key":"08317","name":"Ortenaukreis","type":"Landkreis"},"federalState":{"key":"08","name":"Baden-Württemberg"}},{"name":"Opalweg","postalCode":"79361","locality":"Sasbach am Kaiserstuhl","municipality":{"key":"08316038","name":"Sasbach am Kaiserstuhl","type":"Kreisangehörige_Gemeinde"},"district":{"key":"08316","name":"Emmendingen","type":"Landkreis"},"federalState":{"key":"08","name":"Baden-Württemberg"}},{"name":"Ostpreußenweg","postalCode":"77880","locality":"Sasbach","municipality":{"key":"08317116","name":"Sasbach","type":"Kreisangehörige_Gemeinde"},"district":{"key":"08317","name":"Ortenaukreis","type":"Landkreis"},"federalState":{"key":"08","name":"Baden-Württemberg"}},{"name":"Paul-Brutscher-Str.","postalCode":"79361","locality":"Sasbach am Kaiserstuhl","municipality":{"key":"08316038","name":"Sasbach am Kaiserstuhl","type":"Kreisangehörige_Gemeinde"},"district":{"key":"08316","name":"Emmendingen","type":"Landkreis"},"federalState":{"key":"08","name":"Baden-Württemberg"}},{"name":"Pfarrgarten","postalCode":"77880","locality":"Sasbach","municipality":{"key":"08317116","name":"Sasbach","type":"Kreisangehörige_Gemeinde"},"district":{"key":"08317","name":"Ortenaukreis","type":"Landkreis"},"federalState":{"key":"08","name":"Baden-Württemberg"}},{"name":"Pfarrhof","postalCode":"79361","locality":"Sasbach am Kaiserstuhl","municipality":{"key":"08316038","name":"Sasbach am Kaiserstuhl","type":"Kreisangehörige_Gemeinde"},"district":{"key":"08316","name":"Emmendingen","type":"Landkreis"},"federalState":{"key":"08","name":"Baden-Württemberg"}},{"name":"Pförich","postalCode":"77880","locality":"Sasbach","municipality":{"key":"08317116","name":"Sasbach","type":"Kreisangehörige_Gemeinde"},"district":{"key":"08317","name":"Ortenaukreis","type":"Landkreis"},"federalState":{"key":"08","name":"Baden-Württemberg"}},{"name":"Prälat-Benz-Weg","postalCode":"77880","locality":"Sasbach","municipality":{"key":"08317116","name":"Sasbach","type":"Kreisangehörige_Gemeinde"},"district":{"key":"08317","name":"Ortenaukreis","type":"Landkreis"},"federalState":{"key":"08","name":"Baden-Württemberg"}},{"name":"Rebbächel","postalCode":"77887","locality":"Sasbachwalden","municipality":{"key":"08317118","name":"Sasbachwalden","type":"Kreisangehörige_Gemeinde"},"district":{"key":"08317","name":"Ortenaukreis","type":"Landkreis"},"federalState":{"key":"08","name":"Baden-Württemberg"}},{"name":"Rebblick","postalCode":"77887","locality":"Sasbachwalden","municipality":{"key":"08317118","name":"Sasbachwalden","type":"Kreisangehörige_Gemeinde"},"district":{"key":"08317","name":"Ortenaukreis","type":"Landkreis"},"federalState":{"key":"08","name":"Baden-Württemberg"}},{"name":"Rennergasse","postalCode":"79361","locality":"Sasbach am Kaiserstuhl","municipality":{"key":"08316038","name":"Sasbach am Kaiserstuhl","type":"Kreisangehörige_Gemeinde"},"district":{"key":"08316","name":"Emmendingen","type":"Landkreis"},"federalState":{"key":"08","name":"Baden-Württemberg"}},{"name":"Rheinstr.","postalCode":"79361","locality":"Sasbach am Kaiserstuhl","municipality":{"key":"08316038","name":"Sasbach am Kaiserstuhl","type":"Kreisangehörige_Gemeinde"},"district":{"key":"08316","name":"Emmendingen","type":"Landkreis"},"federalState":{"key":"08","name":"Baden-Württemberg"}},{"name":"Römergasse","postalCode":"79361","locality":"Sasbach am Kaiserstuhl","municipality":{"key":"08316038","name":"Sasbach am Kaiserstuhl","type":"Kreisangehörige_Gemeinde"},"district":{"key":"08316","name":"Emmendingen","type":"Landkreis"},"federalState":{"key":"08","name":"Baden-Württemberg"}},{"name":"Rosenstr.","postalCode":"77880","locality":"Sasbach","municipality":{"key":"08317116","name":"Sasbach","type":"Kreisangehörige_Gemeinde"},"district":{"key":"08317","name":"Ortenaukreis","type":"Landkreis"},"federalState":{"key":"08","name":"Baden-Württemberg"}},{"name":"Rosenstr.","postalCode":"79361","locality":"Sasbach am Kaiserstuhl","municipality":{"key":"08316038","name":"Sasbach am Kaiserstuhl","type":"Kreisangehörige_Gemeinde"},"district":{"key":"08316","name":"Emmendingen","type":"Landkreis"},"federalState":{"key":"08","name":"Baden-Württemberg"}},{"name":"Rößelweg","postalCode":"77880","locality":"Sasbach","municipality":{"key":"08317116","name":"Sasbach","type":"Kreisangehörige_Gemeinde"},"district":{"key":"08317","name":"Ortenaukreis","type":"Landkreis"},"federalState":{"key":"08","name":"Baden-Württemberg"}},{"name":"Roßmattenhöfe","postalCode":"79361","locality":"Sasbach am Kaiserstuhl","municipality":{"key":"08316038","name":"Sasbach am Kaiserstuhl","type":"Kreisangehörige_Gemeinde"},"district":{"key":"08316","name":"Emmendingen","type":"Landkreis"},"federalState":{"key":"08","name":"Baden-Württemberg"}},{"name":"Ruderstr.","postalCode":"79361","locality":"Sasbach am Kaiserstuhl","municipality":{"key":"08316038","name":"Sasbach am Kaiserstuhl","type":"Kreisangehörige_Gemeinde"},"district":{"key":"08316","name":"Emmendingen","type":"Landkreis"},"federalState":{"key":"08","name":"Baden-Württemberg"}},{"name":"Sackweg","postalCode":"77880","locality":"Sasbach","municipality":{"key":"08317116","name":"Sasbach","type":"Kreisangehörige_Gemeinde"},"district":{"key":"08317","name":"Ortenaukreis","type":"Landkreis"},"federalState":{"key":"08","name":"Baden-Württemberg"}},{"name":"Sandweg","postalCode":"77880","locality":"Sasbach","municipality":{"key":"08317116","name":"Sasbach","type":"Kreisangehörige_Gemeinde"},"district":{"key":"08317","name":"Ortenaukreis","type":"Landkreis"},"federalState":{"key":"08","name":"Baden-Württemberg"}},{"name":"Sandweg","postalCode":"77887","locality":"Sasbachwalden","municipality":{"key":"08317118","name":"Sasbachwalden","type":"Kreisangehörige_Gemeinde"},"district":{"key":"08317","name":"Ortenaukreis","type":"Landkreis"},"federalState":{"key":"08","name":"Baden-Württemberg"}},{"name":"Sasbachrieder Str.","postalCode":"77880","locality":"Sasbach","municipality":{"key":"08317116","name":"Sasbach","type":"Kreisangehörige_Gemeinde"},"district":{"key":"08317","name":"Ortenaukreis","type":"Landkreis"},"federalState":{"key":"08","name":"Baden-Württemberg"}},{"name":"Sasbachwaldener Str.","postalCode":"77880","locality":"Sasbach","municipality":{"key":"08317116","name":"Sasbach","type":"Kreisangehörige_Gemeinde"},"district":{"key":"08317","name":"Ortenaukreis","type":"Landkreis"},"federalState":{"key":"08","name":"Baden-Württemberg"}},{"name":"Sasbachwaldener Str.","postalCode":"77887","locality":"Sasbachwalden","municipality":{"key":"08317118","name":"Sasbachwalden","type":"Kreisangehörige_Gemeinde"},"district":{"key":"08317","name":"Ortenaukreis","type":"Landkreis"},"federalState":{"key":"08","name":"Baden-Württemberg"}},{"name":"Scherchstr.","postalCode":"79361","locality":"Sasbach am Kaiserstuhl","municipality":{"key":"08316038","name":"Sasbach am Kaiserstuhl","type":"Kreisangehörige_Gemeinde"},"district":{"key":"08316","name":"Emmendingen","type":"Landkreis"},"federalState":{"key":"08","name":"Baden-Württemberg"}},{"name":"Schillerstr.","postalCode":"77880","locality":"Sasbach","municipality":{"key":"08317116","name":"Sasbach","type":"Kreisangehörige_Gemeinde"},"district":{"key":"08317","name":"Ortenaukreis","type":"Landkreis"},"federalState":{"key":"08","name":"Baden-Württemberg"}},{"name":"Schlesierweg","postalCode":"77880","locality":"Sasbach","municipality":{"key":"08317116","name":"Sasbach","type":"Kreisangehörige_Gemeinde"},"district":{"key":"08317","name":"Ortenaukreis","type":"Landkreis"},"federalState":{"key":"08","name":"Baden-Württemberg"}},{"name":"Schloßgasse","postalCode":"79361","locality":"Sasbach am Kaiserstuhl","municipality":{"key":"08316038","name":"Sasbach am Kaiserstuhl","type":"Kreisangehörige_Gemeinde"},"district":{"key":"08316","name":"Emmendingen","type":"Landkreis"},"federalState":{"key":"08","name":"Baden-Württemberg"}},{"name":"Schmiedegasse","postalCode":"79361","locality":"Sasbach am Kaiserstuhl","municipality":{"key":"08316038","name":"Sasbach am Kaiserstuhl","type":"Kreisangehörige_Gemeinde"},"district":{"key":"08316","name":"Emmendingen","type":"Landkreis"},"federalState":{"key":"08","name":"Baden-Württemberg"}},{"name":"Schönbüchstr.","postalCode":"77887","locality":"Sasbachwalden","municipality":{"key":"08317118","name":"Sasbachwalden","type":"Kreisangehörige_Gemeinde"},"district":{"key":"08317","name":"Ortenaukreis","type":"Landkreis"},"federalState":{"key":"08","name":"Baden-Württemberg"}},{"name":"Schulstr.","postalCode":"77880","locality":"Sasbach","municipality":{"key":"08317116","name":"Sasbach","type":"Kreisangehörige_Gemeinde"},"district":{"key":"08317","name":"Ortenaukreis","type":"Landkreis"},"federalState":{"key":"08","name":"Baden-Württemberg"}},{"name":"Schulstr.","postalCode":"79361","locality":"Sasbach am Kaiserstuhl","municipality":{"key":"08316038","name":"Sasbach am Kaiserstuhl","type":"Kreisangehörige_Gemeinde"},"district":{"key":"08316","name":"Emmendingen","type":"Landkreis"},"federalState":{"key":"08","name":"Baden-Württemberg"}},{"name":"Schwanengasse","postalCode":"79361","locality":"Sasbach am Kaiserstuhl","municipality":{"key":"08316038","name":"Sasbach am Kaiserstuhl","type":"Kreisangehörige_Gemeinde"},"district":{"key":"08316","name":"Emmendingen","type":"Landkreis"},"federalState":{"key":"08","name":"Baden-Württemberg"}},{"name":"Schwarzwaldstr.","postalCode":"77880","locality":"Sasbach","municipality":{"key":"08317116","name":"Sasbach","type":"Kreisangehörige_Gemeinde"},"district":{"key":"08317","name":"Ortenaukreis","type":"Landkreis"},"federalState":{"key":"08","name":"Baden-Württemberg"}},{"name":"Sentistr.","postalCode":"77880","locality":"Sasbach","municipality":{"key":"08317116","name":"Sasbach","type":"Kreisangehörige_Gemeinde"},"district":{"key":"08317","name":"Ortenaukreis","type":"Landkreis"},"federalState":{"key":"08","name":"Baden-Württemberg"}},{"name":"Smaragdweg","postalCode":"79361","locality":"Sasbach am Kaiserstuhl","municipality":{"key":"08316038","name":"Sasbach am Kaiserstuhl","type":"Kreisangehörige_Gemeinde"},"district":{"key":"08316","name":"Emmendingen","type":"Landkreis"},"federalState":{"key":"08","name":"Baden-Württemberg"}},{"name":"Sonnengasse","postalCode":"79361","locality":"Sasbach am Kaiserstuhl","municipality":{"key":"08316038","name":"Sasbach am Kaiserstuhl","type":"Kreisangehörige_Gemeinde"},"district":{"key":"08316","name":"Emmendingen","type":"Landkreis"},"federalState":{"key":"08","name":"Baden-Württemberg"}},{"name":"Spielplatzweg","postalCode":"77880","locality":"Sasbach","municipality":{"key":"08317116","name":"Sasbach","type":"Kreisangehörige_Gemeinde"},"district":{"key":"08317","name":"Ortenaukreis","type":"Landkreis"},"federalState":{"key":"08","name":"Baden-Württemberg"}},{"name":"Sponeckstr.","postalCode":"79361","locality":"Sasbach am Kaiserstuhl","municipality":{"key":"08316038","name":"Sasbach am Kaiserstuhl","type":"Kreisangehörige_Gemeinde"},"district":{"key":"08316","name":"Emmendingen","type":"Landkreis"},"federalState":{"key":"08","name":"Baden-Württemberg"}},{"name":"Steuernbergstr.","postalCode":"79361","locality":"Sasbach am Kaiserstuhl","municipality":{"key":"08316038","name":"Sasbach am Kaiserstuhl","type":"Kreisangehörige_Gemeinde"},"district":{"key":"08316","name":"Emmendingen","type":"Landkreis"},"federalState":{"key":"08","name":"Baden-Württemberg"}},{"name":"St. Martin-Platz","postalCode":"79361","locality":"Sasbach am Kaiserstuhl","municipality":{"key":"08316038","name":"Sasbach am Kaiserstuhl","type":"Kreisangehörige_Gemeinde"},"district":{"key":"08316","name":"Emmendingen","type":"Landkreis"},"federalState":{"key":"08","name":"Baden-Württemberg"}},{"name":"Strängle","postalCode":"79361","locality":"Sasbach am Kaiserstuhl","municipality":{"key":"08316038","name":"Sasbach am Kaiserstuhl","type":"Kreisangehörige_Gemeinde"},"district":{"key":"08316","name":"Emmendingen","type":"Landkreis"},"federalState":{"key":"08","name":"Baden-Württemberg"}},{"name":"Susanne-Reisacher-Str.","postalCode":"79361","locality":"Sasbach am Kaiserstuhl","municipality":{"key":"08316038","name":"Sasbach am Kaiserstuhl","type":"Kreisangehörige_Gemeinde"},"district":{"key":"08316","name":"Emmendingen","type":"Landkreis"},"federalState":{"key":"08","name":"Baden-Württemberg"}},{"name":"Talstr.","postalCode":"77887","locality":"Sasbachwalden","municipality":{"key":"08317118","name":"Sasbachwalden","type":"Kreisangehörige_Gemeinde"},"district":{"key":"08317","name":"Ortenaukreis","type":"Landkreis"},"federalState":{"key":"08","name":"Baden-Württemberg"}},{"name":"Terrassenpark","postalCode":"77887","locality":"Sasbachwalden","municipality":{"key":"08317118","name":"Sasbachwalden","type":"Kreisangehörige_Gemeinde"},"district":{"key":"08317","name":"Ortenaukreis","type":"Landkreis"},"federalState":{"key":"08","name":"Baden-Württemberg"}},{"name":"Thomas-Mallinger-Str.","postalCode":"79361","locality":"Sasbach am Kaiserstuhl","municipality":{"key":"08316038","name":"Sasbach am Kaiserstuhl","type":"Kreisangehörige_Gemeinde"},"district":{"key":"08316","name":"Emmendingen","type":"Landkreis"},"federalState":{"key":"08","name":"Baden-Württemberg"}},{"name":"Tiefentalstr.","postalCode":"79361","locality":"Sasbach am Kaiserstuhl","municipality":{"key":"08316038","name":"Sasbach am Kaiserstuhl","type":"Kreisangehörige_Gemeinde"},"district":{"key":"08316","name":"Emmendingen","type":"Landkreis"},"federalState":{"key":"08","name":"Baden-Württemberg"}},{"name":"Totengäßle","postalCode":"79361","locality":"Sasbach am Kaiserstuhl","municipality":{"key":"08316038","name":"Sasbach am Kaiserstuhl","type":"Kreisangehörige_Gemeinde"},"district":{"key":"08316","name":"Emmendingen","type":"Landkreis"},"federalState":{"key":"08","name":"Baden-Württemberg"}},{"name":"Tulpenweg","postalCode":"77880","locality":"Sasbach","municipality":{"key":"08317116","name":"Sasbach","type":"Kreisangehörige_Gemeinde"},"district":{"key":"08317","name":"Ortenaukreis","type":"Landkreis"},"federalState":{"key":"08","name":"Baden-Württemberg"}},{"name":"Tulpenweg","postalCode":"79361","locality":"Sasbach am Kaiserstuhl","municipality":{"key":"08316038","name":"Sasbach am Kaiserstuhl","type":"Kreisangehörige_Gemeinde"},"district":{"key":"08316","name":"Emmendingen","type":"Landkreis"},"federalState":{"key":"08","name":"Baden-Württemberg"}},{"name":"Turenneweg","postalCode":"77880","locality":"Sasbach","municipality":{"key":"08317116","name":"Sasbach","type":"Kreisangehörige_Gemeinde"},"district":{"key":"08317","name":"Ortenaukreis","type":"Landkreis"},"federalState":{"key":"08","name":"Baden-Württemberg"}},{"name":"Uhlandstr.","postalCode":"77880","locality":"Sasbach","municipality":{"key":"08317116","name":"Sasbach","type":"Kreisangehörige_Gemeinde"},"district":{"key":"08317","name":"Ortenaukreis","type":"Landkreis"},"federalState":{"key":"08","name":"Baden-Württemberg"}},{"name":"Unterdorfstr.","postalCode":"77880","locality":"Sasbach","municipality":{"key":"08317116","name":"Sasbach","type":"Kreisangehörige_Gemeinde"},"district":{"key":"08317","name":"Ortenaukreis","type":"Landkreis"},"federalState":{"key":"08","name":"Baden-Württemberg"}},{"name":"Untere-Gasse","postalCode":"79361","locality":"Sasbach am Kaiserstuhl","municipality":{"key":"08316038","name":"Sasbach am Kaiserstuhl","type":"Kreisangehörige_Gemeinde"},"district":{"key":"08316","name":"Emmendingen","type":"Landkreis"},"federalState":{"key":"08","name":"Baden-Württemberg"}},{"name":"Untere Weinig","postalCode":"79361","locality":"Sasbach am Kaiserstuhl","municipality":{"key":"08316038","name":"Sasbach am Kaiserstuhl","type":"Kreisangehörige_Gemeinde"},"district":{"key":"08316","name":"Emmendingen","type":"Landkreis"},"federalState":{"key":"08","name":"Baden-Württemberg"}},{"name":"Unterstmatt","postalCode":"77880","locality":"Sasbach","municipality":{"key":"08317116","name":"Sasbach","type":"Kreisangehörige_Gemeinde"},"district":{"key":"08317","name":"Ortenaukreis","type":"Landkreis"},"federalState":{"key":"08","name":"Baden-Württemberg"}},{"name":"Unterstmatt","postalCode":"77887","locality":"Sasbachwalden","municipality":{"key":"08317118","name":"Sasbachwalden","type":"Kreisangehörige_Gemeinde"},"district":{"key":"08317","name":"Ortenaukreis","type":"Landkreis"},"federalState":{"key":"08","name":"Baden-Württemberg"}},{"name":"Vogelsbergstr.","postalCode":"77880","locality":"Sasbach","municipality":{"key":"08317116","name":"Sasbach","type":"Kreisangehörige_Gemeinde"},"district":{"key":"08317","name":"Ortenaukreis","type":"Landkreis"},"federalState":{"key":"08","name":"Baden-Württemberg"}},{"name":"Vorstadt","postalCode":"77887","locality":"Sasbachwalden","municipality":{"key":"08317118","name":"Sasbachwalden","type":"Kreisangehörige_Gemeinde"},"district":{"key":"08317","name":"Ortenaukreis","type":"Landkreis"},"federalState":{"key":"08","name":"Baden-Württemberg"}},{"name":"Vulkanstr.","postalCode":"79361","locality":"Sasbach am Kaiserstuhl","municipality":{"key":"08316038","name":"Sasbach am Kaiserstuhl","type":"Kreisangehörige_Gemeinde"},"district":{"key":"08316","name":"Emmendingen","type":"Landkreis"},"federalState":{"key":"08","name":"Baden-Württemberg"}},{"name":"Waidmatten","postalCode":"79361","locality":"Sasbach am Kaiserstuhl","municipality":{"key":"08316038","name":"Sasbach am Kaiserstuhl","type":"Kreisangehörige_Gemeinde"},"district":{"key":"08316","name":"Emmendingen","type":"Landkreis"},"federalState":{"key":"08","name":"Baden-Württemberg"}},{"name":"Waldfeldstr.","postalCode":"77880","locality":"Sasbach","municipality":{"key":"08317116","name":"Sasbach","type":"Kreisangehörige_Gemeinde"},"district":{"key":"08317","name":"Ortenaukreis","type":"Landkreis"},"federalState":{"key":"08","name":"Baden-Württemberg"}},{"name":"Waldstr.","postalCode":"77880","locality":"Sasbach","municipality":{"key":"08317116","name":"Sasbach","type":"Kreisangehörige_Gemeinde"},"district":{"key":"08317","name":"Ortenaukreis","type":"Landkreis"},"federalState":{"key":"08","name":"Baden-Württemberg"}},{"name":"Wannenwinkel","postalCode":"77880","locality":"Sasbach","municipality":{"key":"08317116","name":"Sasbach","type":"Kreisangehörige_Gemeinde"},"district":{"key":"08317","name":"Ortenaukreis","type":"Landkreis"},"federalState":{"key":"08","name":"Baden-Württemberg"}},{"name":"Wasserloch","postalCode":"77880","locality":"Sasbach","municipality":{"key":"08317116","name":"Sasbach","type":"Kreisangehörige_Gemeinde"},"district":{"key":"08317","name":"Ortenaukreis","type":"Landkreis"},"federalState":{"key":"08","name":"Baden-Württemberg"}},{"name":"Weinbergstr.","postalCode":"77880","locality":"Sasbach","municipality":{"key":"08317116","name":"Sasbach","type":"Kreisangehörige_Gemeinde"},"district":{"key":"08317","name":"Ortenaukreis","type":"Landkreis"},"federalState":{"key":"08","name":"Baden-Württemberg"}},{"name":"Weinstr.","postalCode":"79361","locality":"Sasbach am Kaiserstuhl","municipality":{"key":"08316038","name":"Sasbach am Kaiserstuhl","type":"Kreisangehörige_Gemeinde"},"district":{"key":"08316","name":"Emmendingen","type":"Landkreis"},"federalState":{"key":"08","name":"Baden-Württemberg"}},{"name":"Weststr.","postalCode":"77880","locality":"Sasbach","municipality":{"key":"08317116","name":"Sasbach","type":"Kreisangehörige_Gemeinde"},"district":{"key":"08317","name":"Ortenaukreis","type":"Landkreis"},"federalState":{"key":"08","name":"Baden-Württemberg"}},{"name":"Wiesenweg","postalCode":"77880","locality":"Sasbach","municipality":{"key":"08317116","name":"Sasbach","type":"Kreisangehörige_Gemeinde"},"district":{"key":"08317","name":"Ortenaukreis","type":"Landkreis"},"federalState":{"key":"08","name":"Baden-Württemberg"}},{"name":"Winterbach","postalCode":"77880","locality":"Sasbach","municipality":{"key":"08317116","name":"Sasbach","type":"Kreisangehörige_Gemeinde"},"district":{"key":"08317","name":"Ortenaukreis","type":"Landkreis"},"federalState":{"key":"08","name":"Baden-Württemberg"}},{"name":"Winterbach Weg","postalCode":"77887","locality":"Sasbachwalden","municipality":{"key":"08317118","name":"Sasbachwalden","type":"Kreisangehörige_Gemeinde"},"district":{"key":"08317","name":"Ortenaukreis","type":"Landkreis"},"federalState":{"key":"08","name":"Baden-Württemberg"}},{"name":"Wyhler Str.","postalCode":"79361","locality":"Sasbach am Kaiserstuhl","municipality":{"key":"08316038","name":"Sasbach am Kaiserstuhl","type":"Kreisangehörige_Gemeinde"},"district":{"key":"08316","name":"Emmendingen","type":"Landkreis"},"federalState":{"key":"08","name":"Baden-Württemberg"}},{"name":"Zellerstr.","postalCode":"77880","locality":"Sasbach","municipality":{"key":"08317116","name":"Sasbach","type":"Kreisangehörige_Gemeinde"},"district":{"key":"08317","name":"Ortenaukreis","type":"Landkreis"},"federalState":{"key":"08","name":"Baden-Württemberg"}},{"name":"Zollstr.","postalCode":"79361","locality":"Sasbach am Kaiserstuhl","municipality":{"key":"08316038","name":"Sasbach am Kaiserstuhl","type":"Kreisangehörige_Gemeinde"},"district":{"key":"08316","name":"Emmendingen","type":"Landkreis"},"federalState":{"key":"08","name":"Baden-Württemberg"}},{"name":"Zufahrt Spielfeld","postalCode":"77880","locality":"Sasbach","municipality":{"key":"08317116","name":"Sasbach","type":"Kreisangehörige_Gemeinde"},"district":{"key":"08317","name":"Ortenaukreis","type":"Landkreis"},"federalState":{"key":"08","name":"Baden-Württemberg"}},]