[{"key":"10257452","name":"Allée Charles-Edouard-Guillaume","postalCode":"1723","locality":"Marly","commune":{"key":"2206","name":"Marly","shortName":"Marly"},"district":{"key":"1004","name":"District de la Sarine"},"canton":{"key":"10","code":"FR","name":"Fribourg / Freiburg"},"status":"Real"},{"key":"10022666","name":"Allée de la Laiterie","postalCode":"1723","locality":"Marly","commune":{"key":"2206","name":"Marly","shortName":"Marly"},"district":{"key":"1004","name":"District de la Sarine"},"canton":{"key":"10","code":"FR","name":"Fribourg / Freiburg"},"status":"Real"},{"key":"10022667","name":"Allée des Chênes","postalCode":"1723","locality":"Marly","commune":{"key":"2206","name":"Marly","shortName":"Marly"},"district":{"key":"1004","name":"District de la Sarine"},"canton":{"key":"10","code":"FR","name":"Fribourg / Freiburg"},"status":"Real"},{"key":"10080434","name":"Allée des Coudriers","postalCode":"1723","locality":"Marly","commune":{"key":"2206","name":"Marly","shortName":"Marly"},"district":{"key":"1004","name":"District de la Sarine"},"canton":{"key":"10","code":"FR","name":"Fribourg / Freiburg"},"status":"Real"},{"key":"10022668","name":"Allée des Tilleuls","postalCode":"1723","locality":"Marly","commune":{"key":"2206","name":"Marly","shortName":"Marly"},"district":{"key":"1004","name":"District de la Sarine"},"canton":{"key":"10","code":"FR","name":"Fribourg / Freiburg"},"status":"Real"},{"key":"10254945","name":"Allée Louis-Daguerre","postalCode":"1723","locality":"Marly","commune":{"key":"2206","name":"Marly","shortName":"Marly"},"district":{"key":"1004","name":"District de la Sarine"},"canton":{"key":"10","code":"FR","name":"Fribourg / Freiburg"},"status":"Real"},{"key":"10080436","name":"Chemin de la Charmille","postalCode":"1723","locality":"Marly","commune":{"key":"2206","name":"Marly","shortName":"Marly"},"district":{"key":"1004","name":"District de la Sarine"},"canton":{"key":"10","code":"FR","name":"Fribourg / Freiburg"},"status":"Real"},{"key":"10187386","name":"Chemin de la Combetta","postalCode":"1723","locality":"Marly","commune":{"key":"2206","name":"Marly","shortName":"Marly"},"district":{"key":"1004","name":"District de la Sarine"},"canton":{"key":"10","code":"FR","name":"Fribourg / Freiburg"},"status":"Real"},{"key":"10072918","name":"Chemin de la Follaz","postalCode":"1723","locality":"Marly","commune":{"key":"2206","name":"Marly","shortName":"Marly"},"district":{"key":"1004","name":"District de la Sarine"},"canton":{"key":"10","code":"FR","name":"Fribourg / Freiburg"},"status":"Real"},{"key":"10022671","name":"Chemin de la Forêt","postalCode":"1723","locality":"Marly","commune":{"key":"2206","name":"Marly","shortName":"Marly"},"district":{"key":"1004","name":"District de la Sarine"},"canton":{"key":"10","code":"FR","name":"Fribourg / Freiburg"},"status":"Real"},{"key":"10080437","name":"Chemin de la Passerelle","postalCode":"1723","locality":"Marly","commune":{"key":"2206","name":"Marly","shortName":"Marly"},"district":{"key":"1004","name":"District de la Sarine"},"canton":{"key":"10","code":"FR","name":"Fribourg / Freiburg"},"status":"Real"},{"key":"10022672","name":"Chemin de la Prairie","postalCode":"1723","locality":"Marly","commune":{"key":"2206","name":"Marly","shortName":"Marly"},"district":{"key":"1004","name":"District de la Sarine"},"canton":{"key":"10","code":"FR","name":"Fribourg / Freiburg"},"status":"Real"},{"key":"10052120","name":"Chemin de la Scie","postalCode":"1723","locality":"Marly","commune":{"key":"2206","name":"Marly","shortName":"Marly"},"district":{"key":"1004","name":"District de la Sarine"},"canton":{"key":"10","code":"FR","name":"Fribourg / Freiburg"},"status":"Real"},{"key":"10022670","name":"Chemin de l'Aurore","postalCode":"1723","locality":"Marly","commune":{"key":"2206","name":"Marly","shortName":"Marly"},"district":{"key":"1004","name":"District de la Sarine"},"canton":{"key":"10","code":"FR","name":"Fribourg / Freiburg"},"status":"Real"},{"key":"10080435","name":"Chemin de Messidor","postalCode":"1723","locality":"Marly","commune":{"key":"2206","name":"Marly","shortName":"Marly"},"district":{"key":"1004","name":"District de la Sarine"},"canton":{"key":"10","code":"FR","name":"Fribourg / Freiburg"},"status":"Real"},{"key":"10022669","name":"Chemin de Russille","postalCode":"1723","locality":"Marly","commune":{"key":"2206","name":"Marly","shortName":"Marly"},"district":{"key":"1004","name":"District de la Sarine"},"canton":{"key":"10","code":"FR","name":"Fribourg / Freiburg"},"status":"Real"},{"key":"10121480","name":"Chemin des Berges","postalCode":"1723","locality":"Marly","commune":{"key":"2206","name":"Marly","shortName":"Marly"},"district":{"key":"1004","name":"District de la Sarine"},"canton":{"key":"10","code":"FR","name":"Fribourg / Freiburg"},"status":"Real"},{"key":"10080438","name":"Chemin des Cossettes","postalCode":"1723","locality":"Marly","commune":{"key":"2206","name":"Marly","shortName":"Marly"},"district":{"key":"1004","name":"District de la Sarine"},"canton":{"key":"10","code":"FR","name":"Fribourg / Freiburg"},"status":"Real"},{"key":"10022673","name":"Chemin des Epinettes","postalCode":"1723","locality":"Marly","commune":{"key":"2206","name":"Marly","shortName":"Marly"},"district":{"key":"1004","name":"District de la Sarine"},"canton":{"key":"10","code":"FR","name":"Fribourg / Freiburg"},"status":"Real"},{"key":"10022674","name":"Chemin des Falaises","postalCode":"1723","locality":"Marly","commune":{"key":"2206","name":"Marly","shortName":"Marly"},"district":{"key":"1004","name":"District de la Sarine"},"canton":{"key":"10","code":"FR","name":"Fribourg / Freiburg"},"status":"Real"},{"key":"10252934","name":"Chemin des Râpes","postalCode":"1723","locality":"Marly","commune":{"key":"2206","name":"Marly","shortName":"Marly"},"district":{"key":"1004","name":"District de la Sarine"},"canton":{"key":"10","code":"FR","name":"Fribourg / Freiburg"},"status":"Real"},{"key":"10080439","name":"Chemin des Sources","postalCode":"1723","locality":"Marly","commune":{"key":"2206","name":"Marly","shortName":"Marly"},"district":{"key":"1004","name":"District de la Sarine"},"canton":{"key":"10","code":"FR","name":"Fribourg / Freiburg"},"status":"Real"},{"key":"10127632","name":"Chemin de Villarsel","postalCode":"1723","locality":"Villarsel-sur-Marly","commune":{"key":"2230","name":"Villarsel-sur-Marly","shortName":"Villarsel-sur-Marly"},"district":{"key":"1004","name":"District de la Sarine"},"canton":{"key":"10","code":"FR","name":"Fribourg / Freiburg"},"status":"Real"},{"key":"10161595","name":"Chemin de Vuisserens","postalCode":"1723","locality":"Marly","commune":{"key":"2206","name":"Marly","shortName":"Marly"},"district":{"key":"1004","name":"District de la Sarine"},"canton":{"key":"10","code":"FR","name":"Fribourg / Freiburg"},"status":"Real"},{"key":"10072919","name":"Chemin du Bois-des-Rittes","postalCode":"1723","locality":"Marly","commune":{"key":"2206","name":"Marly","shortName":"Marly"},"district":{"key":"1004","name":"District de la Sarine"},"canton":{"key":"10","code":"FR","name":"Fribourg / Freiburg"},"status":"Real"},{"key":"10187387","name":"Chemin du Champ","postalCode":"1723","locality":"Marly","commune":{"key":"2206","name":"Marly","shortName":"Marly"},"district":{"key":"1004","name":"District de la Sarine"},"canton":{"key":"10","code":"FR","name":"Fribourg / Freiburg"},"status":"Real"},{"key":"10252941","name":"Chemin du Chêne","postalCode":"1723","locality":"Marly","commune":{"key":"2206","name":"Marly","shortName":"Marly"},"district":{"key":"1004","name":"District de la Sarine"},"canton":{"key":"10","code":"FR","name":"Fribourg / Freiburg"},"status":"Real"},{"key":"10022675","name":"Chemin du Pont","postalCode":"1723","locality":"Marly","commune":{"key":"2206","name":"Marly","shortName":"Marly"},"district":{"key":"1004","name":"District de la Sarine"},"canton":{"key":"10","code":"FR","name":"Fribourg / Freiburg"},"status":"Real"},{"key":"10080440","name":"Chemin du Publiet","postalCode":"1723","locality":"Marly","commune":{"key":"2206","name":"Marly","shortName":"Marly"},"district":{"key":"1004","name":"District de la Sarine"},"canton":{"key":"10","code":"FR","name":"Fribourg / Freiburg"},"status":"Real"},{"key":"10175580","name":"Chemin du Riedelet","postalCode":"1723","locality":"Marly","commune":{"key":"2206","name":"Marly","shortName":"Marly"},"district":{"key":"1004","name":"District de la Sarine"},"canton":{"key":"10","code":"FR","name":"Fribourg / Freiburg"},"status":"Real"},{"key":"10175579","name":"Chemin-Fleuri","postalCode":"1723","locality":"Marly","commune":{"key":"2206","name":"Marly","shortName":"Marly"},"district":{"key":"1004","name":"District de la Sarine"},"canton":{"key":"10","code":"FR","name":"Fribourg / Freiburg"},"status":"Real"},{"key":"10072917","name":"Chemin Saint-Martin","postalCode":"1723","locality":"Marly","commune":{"key":"2206","name":"Marly","shortName":"Marly"},"district":{"key":"1004","name":"District de la Sarine"},"canton":{"key":"10","code":"FR","name":"Fribourg / Freiburg"},"status":"Real"},{"key":"10022676","name":"Creux-du-Loup","postalCode":"1723","locality":"Marly","commune":{"key":"2206","name":"Marly","shortName":"Marly"},"district":{"key":"1004","name":"District de la Sarine"},"canton":{"key":"10","code":"FR","name":"Fribourg / Freiburg"},"status":"Real"},{"key":"10181498","name":"Grande-Combe","postalCode":"1723","locality":"Marly","commune":{"key":"2206","name":"Marly","shortName":"Marly"},"district":{"key":"1004","name":"District de la Sarine"},"canton":{"key":"10","code":"FR","name":"Fribourg / Freiburg"},"status":"Real"},{"key":"10080441","name":"Impasse Champ-Montant","postalCode":"1723","locality":"Marly","commune":{"key":"2206","name":"Marly","shortName":"Marly"},"district":{"key":"1004","name":"District de la Sarine"},"canton":{"key":"10","code":"FR","name":"Fribourg / Freiburg"},"status":"Real"},{"key":"10022677","name":"Impasse Chemin-Fleuri","postalCode":"1723","locality":"Marly","commune":{"key":"2206","name":"Marly","shortName":"Marly"},"district":{"key":"1004","name":"District de la Sarine"},"canton":{"key":"10","code":"FR","name":"Fribourg / Freiburg"},"status":"Real"},{"key":"10072920","name":"Impasse de la Forge","postalCode":"1723","locality":"Marly","commune":{"key":"2206","name":"Marly","shortName":"Marly"},"district":{"key":"1004","name":"District de la Sarine"},"canton":{"key":"10","code":"FR","name":"Fribourg / Freiburg"},"status":"Real"},{"key":"10080442","name":"Impasse de la Prairie","postalCode":"1723","locality":"Marly","commune":{"key":"2206","name":"Marly","shortName":"Marly"},"district":{"key":"1004","name":"District de la Sarine"},"canton":{"key":"10","code":"FR","name":"Fribourg / Freiburg"},"status":"Real"},{"key":"10022956","name":"Impasse des Falaises","postalCode":"1723","locality":"Marly","commune":{"key":"2206","name":"Marly","shortName":"Marly"},"district":{"key":"1004","name":"District de la Sarine"},"canton":{"key":"10","code":"FR","name":"Fribourg / Freiburg"},"status":"Real"},{"key":"10022957","name":"Impasse des Geais","postalCode":"1723","locality":"Marly","commune":{"key":"2206","name":"Marly","shortName":"Marly"},"district":{"key":"1004","name":"District de la Sarine"},"canton":{"key":"10","code":"FR","name":"Fribourg / Freiburg"},"status":"Real"},{"key":"10080443","name":"Impasse des Merles","postalCode":"1723","locality":"Marly","commune":{"key":"2206","name":"Marly","shortName":"Marly"},"district":{"key":"1004","name":"District de la Sarine"},"canton":{"key":"10","code":"FR","name":"Fribourg / Freiburg"},"status":"Real"},{"key":"10022958","name":"Impasse des Mésanges","postalCode":"1723","locality":"Marly","commune":{"key":"2206","name":"Marly","shortName":"Marly"},"district":{"key":"1004","name":"District de la Sarine"},"canton":{"key":"10","code":"FR","name":"Fribourg / Freiburg"},"status":"Real"},{"key":"10022959","name":"Impasse des Narcisses","postalCode":"1723","locality":"Marly","commune":{"key":"2206","name":"Marly","shortName":"Marly"},"district":{"key":"1004","name":"District de la Sarine"},"canton":{"key":"10","code":"FR","name":"Fribourg / Freiburg"},"status":"Real"},{"key":"10072921","name":"Impasse des Primevères","postalCode":"1723","locality":"Marly","commune":{"key":"2206","name":"Marly","shortName":"Marly"},"district":{"key":"1004","name":"District de la Sarine"},"canton":{"key":"10","code":"FR","name":"Fribourg / Freiburg"},"status":"Real"},{"key":"10080444","name":"Impasse des Rosiers","postalCode":"1723","locality":"Marly","commune":{"key":"2206","name":"Marly","shortName":"Marly"},"district":{"key":"1004","name":"District de la Sarine"},"canton":{"key":"10","code":"FR","name":"Fribourg / Freiburg"},"status":"Real"},{"key":"10173574","name":"Impasse des Violettes","postalCode":"1723","locality":"Marly","commune":{"key":"2206","name":"Marly","shortName":"Marly"},"district":{"key":"1004","name":"District de la Sarine"},"canton":{"key":"10","code":"FR","name":"Fribourg / Freiburg"},"status":"Real"},{"key":"10187388","name":"Impasse du Bluet","postalCode":"1723","locality":"Marly","commune":{"key":"2206","name":"Marly","shortName":"Marly"},"district":{"key":"1004","name":"District de la Sarine"},"canton":{"key":"10","code":"FR","name":"Fribourg / Freiburg"},"status":"Real"},{"key":"10209793","name":"Impasse du Moraty","postalCode":"1723","locality":"Marly","commune":{"key":"2206","name":"Marly","shortName":"Marly"},"district":{"key":"1004","name":"District de la Sarine"},"canton":{"key":"10","code":"FR","name":"Fribourg / Freiburg"},"status":"Real"},{"key":"10076333","name":"Impasse du Nouveau-Marché","postalCode":"1723","locality":"Marly","commune":{"key":"2206","name":"Marly","shortName":"Marly"},"district":{"key":"1004","name":"District de la Sarine"},"canton":{"key":"10","code":"FR","name":"Fribourg / Freiburg"},"status":"Real"},{"key":"10022955","name":"Impasse Saint-Sébastien","postalCode":"1723","locality":"Marly","commune":{"key":"2206","name":"Marly","shortName":"Marly"},"district":{"key":"1004","name":"District de la Sarine"},"canton":{"key":"10","code":"FR","name":"Fribourg / Freiburg"},"status":"Real"},{"key":"10155203","name":"Le Ferrâdzo","postalCode":"1723","locality":"Marly","commune":{"key":"2206","name":"Marly","shortName":"Marly"},"district":{"key":"1004","name":"District de la Sarine"},"canton":{"key":"10","code":"FR","name":"Fribourg / Freiburg"},"status":"Real"},{"key":"10252951","name":"Monteynan","postalCode":"1723","locality":"Marly","commune":{"key":"2206","name":"Marly","shortName":"Marly"},"district":{"key":"1004","name":"District de la Sarine"},"canton":{"key":"10","code":"FR","name":"Fribourg / Freiburg"},"status":"Real"},{"key":"10161590","name":"Petit-Bugnon","postalCode":"1723","locality":"Marly","commune":{"key":"2206","name":"Marly","shortName":"Marly"},"district":{"key":"1004","name":"District de la Sarine"},"canton":{"key":"10","code":"FR","name":"Fribourg / Freiburg"},"status":"Real"},{"key":"10251666","name":"Place de l'Ancienne-Papeterie","postalCode":"1723","locality":"Marly","commune":{"key":"2206","name":"Marly","shortName":"Marly"},"district":{"key":"1004","name":"District de la Sarine"},"canton":{"key":"10","code":"FR","name":"Fribourg / Freiburg"},"status":"Planned"},{"key":"10022961","name":"Route Bel-Air","postalCode":"1723","locality":"Marly","commune":{"key":"2206","name":"Marly","shortName":"Marly"},"district":{"key":"1004","name":"District de la Sarine"},"canton":{"key":"10","code":"FR","name":"Fribourg / Freiburg"},"status":"Real"},{"key":"10080445","name":"Route de Bourguillon","postalCode":"1723","locality":"Marly","commune":{"key":"2206","name":"Marly","shortName":"Marly"},"district":{"key":"1004","name":"District de la Sarine"},"canton":{"key":"10","code":"FR","name":"Fribourg / Freiburg"},"status":"Real"},{"key":"10022962","name":"Route de Chésalles","postalCode":"1723","locality":"Marly","commune":{"key":"2206","name":"Marly","shortName":"Marly"},"district":{"key":"1004","name":"District de la Sarine"},"canton":{"key":"10","code":"FR","name":"Fribourg / Freiburg"},"status":"Real"},{"key":"10022963","name":"Route de Corbaroche","postalCode":"1723","locality":"Marly","commune":{"key":"2206","name":"Marly","shortName":"Marly"},"district":{"key":"1004","name":"District de la Sarine"},"canton":{"key":"10","code":"FR","name":"Fribourg / Freiburg"},"status":"Real"},{"key":"10080446","name":"Route de Fribourg","postalCode":"1723","locality":"Marly","commune":{"key":"2206","name":"Marly","shortName":"Marly"},"district":{"key":"1004","name":"District de la Sarine"},"canton":{"key":"10","code":"FR","name":"Fribourg / Freiburg"},"status":"Real"},{"key":"10080448","name":"Route de la Colline","postalCode":"1723","locality":"Marly","commune":{"key":"2206","name":"Marly","shortName":"Marly"},"district":{"key":"1004","name":"District de la Sarine"},"canton":{"key":"10","code":"FR","name":"Fribourg / Freiburg"},"status":"Real"},{"key":"10187389","name":"Route de la Gérine","postalCode":"1723","locality":"Marly","commune":{"key":"2206","name":"Marly","shortName":"Marly"},"district":{"key":"1004","name":"District de la Sarine"},"canton":{"key":"10","code":"FR","name":"Fribourg / Freiburg"},"status":"Real"},{"key":"10136253","name":"Route de la Grangette","postalCode":"1723","locality":"Marly","commune":{"key":"2206","name":"Marly","shortName":"Marly"},"district":{"key":"1004","name":"District de la Sarine"},"canton":{"key":"10","code":"FR","name":"Fribourg / Freiburg"},"status":"Real"},{"key":"10022966","name":"Route de la Gruyère","postalCode":"1723","locality":"Marly","commune":{"key":"2206","name":"Marly","shortName":"Marly"},"district":{"key":"1004","name":"District de la Sarine"},"canton":{"key":"10","code":"FR","name":"Fribourg / Freiburg"},"status":"Real"},{"key":"10127633","name":"Route de la Gruyère","postalCode":"1723","locality":"Villarsel-sur-Marly","commune":{"key":"2230","name":"Villarsel-sur-Marly","shortName":"Villarsel-sur-Marly"},"district":{"key":"1004","name":"District de la Sarine"},"canton":{"key":"10","code":"FR","name":"Fribourg / Freiburg"},"status":"Real"},{"key":"10128485","name":"Route de l'Ancienne-Papeterie","postalCode":"1723","locality":"Marly","commune":{"key":"2206","name":"Marly","shortName":"Marly"},"district":{"key":"1004","name":"District de la Sarine"},"canton":{"key":"10","code":"FR","name":"Fribourg / Freiburg"},"status":"Real"},{"key":"10252962","name":"Route de la Plaine","postalCode":"1723","locality":"Marly","commune":{"key":"2206","name":"Marly","shortName":"Marly"},"district":{"key":"1004","name":"District de la Sarine"},"canton":{"key":"10","code":"FR","name":"Fribourg / Freiburg"},"status":"Real"},{"key":"10022965","name":"Route de l'Union","postalCode":"1723","locality":"Marly","commune":{"key":"2206","name":"Marly","shortName":"Marly"},"district":{"key":"1004","name":"District de la Sarine"},"canton":{"key":"10","code":"FR","name":"Fribourg / Freiburg"},"status":"Real"},{"key":"10022964","name":"Route de Montiver","postalCode":"1723","locality":"Marly","commune":{"key":"2206","name":"Marly","shortName":"Marly"},"district":{"key":"1004","name":"District de la Sarine"},"canton":{"key":"10","code":"FR","name":"Fribourg / Freiburg"},"status":"Real"},{"key":"10072923","name":"Route de Pfaffenwil","postalCode":"1723","locality":"Marly","commune":{"key":"2206","name":"Marly","shortName":"Marly"},"district":{"key":"1004","name":"District de la Sarine"},"canton":{"key":"10","code":"FR","name":"Fribourg / Freiburg"},"status":"Real"},{"key":"10107881","name":"Route de Planafin","postalCode":"1723","locality":"Marly","commune":{"key":"2206","name":"Marly","shortName":"Marly"},"district":{"key":"1004","name":"District de la Sarine"},"canton":{"key":"10","code":"FR","name":"Fribourg / Freiburg"},"status":"Real"},{"key":"10252959","name":"Route de Sales","postalCode":"1723","locality":"Villarsel-sur-Marly","commune":{"key":"2230","name":"Villarsel-sur-Marly","shortName":"Villarsel-sur-Marly"},"district":{"key":"1004","name":"District de la Sarine"},"canton":{"key":"10","code":"FR","name":"Fribourg / Freiburg"},"status":"Real"},{"key":"10080449","name":"Route des Alpes","postalCode":"1723","locality":"Marly","commune":{"key":"2206","name":"Marly","shortName":"Marly"},"district":{"key":"1004","name":"District de la Sarine"},"canton":{"key":"10","code":"FR","name":"Fribourg / Freiburg"},"status":"Real"},{"key":"10022967","name":"Route des Cerisiers","postalCode":"1723","locality":"Marly","commune":{"key":"2206","name":"Marly","shortName":"Marly"},"district":{"key":"1004","name":"District de la Sarine"},"canton":{"key":"10","code":"FR","name":"Fribourg / Freiburg"},"status":"Real"},{"key":"10022968","name":"Route des Charbonnières","postalCode":"1723","locality":"Marly","commune":{"key":"2206","name":"Marly","shortName":"Marly"},"district":{"key":"1004","name":"District de la Sarine"},"canton":{"key":"10","code":"FR","name":"Fribourg / Freiburg"},"status":"Real"},{"key":"10080450","name":"Route des Ecoles","postalCode":"1723","locality":"Marly","commune":{"key":"2206","name":"Marly","shortName":"Marly"},"district":{"key":"1004","name":"District de la Sarine"},"canton":{"key":"10","code":"FR","name":"Fribourg / Freiburg"},"status":"Real"},{"key":"10175742","name":"Route des Mouettes","postalCode":"1723","locality":"Marly","commune":{"key":"2206","name":"Marly","shortName":"Marly"},"district":{"key":"1004","name":"District de la Sarine"},"canton":{"key":"10","code":"FR","name":"Fribourg / Freiburg"},"status":"Real"},{"key":"10175581","name":"Route des Pommiers","postalCode":"1723","locality":"Marly","commune":{"key":"2206","name":"Marly","shortName":"Marly"},"district":{"key":"1004","name":"District de la Sarine"},"canton":{"key":"10","code":"FR","name":"Fribourg / Freiburg"},"status":"Real"},{"key":"10022969","name":"Route des Pralettes","postalCode":"1723","locality":"Marly","commune":{"key":"2206","name":"Marly","shortName":"Marly"},"district":{"key":"1004","name":"District de la Sarine"},"canton":{"key":"10","code":"FR","name":"Fribourg / Freiburg"},"status":"Real"},{"key":"10080451","name":"Route des Préalpes","postalCode":"1723","locality":"Marly","commune":{"key":"2206","name":"Marly","shortName":"Marly"},"district":{"key":"1004","name":"District de la Sarine"},"canton":{"key":"10","code":"FR","name":"Fribourg / Freiburg"},"status":"Real"},{"key":"10252967","name":"Route d'Hauterive","postalCode":"1723","locality":"Marly","commune":{"key":"2206","name":"Marly","shortName":"Marly"},"district":{"key":"1004","name":"District de la Sarine"},"canton":{"key":"10","code":"FR","name":"Fribourg / Freiburg"},"status":"Real"},{"key":"10022970","name":"Route du Centre","postalCode":"1723","locality":"Marly","commune":{"key":"2206","name":"Marly","shortName":"Marly"},"district":{"key":"1004","name":"District de la Sarine"},"canton":{"key":"10","code":"FR","name":"Fribourg / Freiburg"},"status":"Real"},{"key":"10080452","name":"Route du Château-d'Eau","postalCode":"1723","locality":"Marly","commune":{"key":"2206","name":"Marly","shortName":"Marly"},"district":{"key":"1004","name":"District de la Sarine"},"canton":{"key":"10","code":"FR","name":"Fribourg / Freiburg"},"status":"Real"},{"key":"10072924","name":"Route du Châtelet","postalCode":"1723","locality":"Marly","commune":{"key":"2206","name":"Marly","shortName":"Marly"},"district":{"key":"1004","name":"District de la Sarine"},"canton":{"key":"10","code":"FR","name":"Fribourg / Freiburg"},"status":"Real"},{"key":"10022971","name":"Route du Chevalier","postalCode":"1723","locality":"Marly","commune":{"key":"2206","name":"Marly","shortName":"Marly"},"district":{"key":"1004","name":"District de la Sarine"},"canton":{"key":"10","code":"FR","name":"Fribourg / Freiburg"},"status":"Real"},{"key":"10022972","name":"Route du Confin","postalCode":"1723","locality":"Marly","commune":{"key":"2206","name":"Marly","shortName":"Marly"},"district":{"key":"1004","name":"District de la Sarine"},"canton":{"key":"10","code":"FR","name":"Fribourg / Freiburg"},"status":"Real"},{"key":"10052121","name":"Route du Couchant","postalCode":"1723","locality":"Marly","commune":{"key":"2206","name":"Marly","shortName":"Marly"},"district":{"key":"1004","name":"District de la Sarine"},"canton":{"key":"10","code":"FR","name":"Fribourg / Freiburg"},"status":"Real"},{"key":"10022973","name":"Route du Midi","postalCode":"1723","locality":"Marly","commune":{"key":"2206","name":"Marly","shortName":"Marly"},"district":{"key":"1004","name":"District de la Sarine"},"canton":{"key":"10","code":"FR","name":"Fribourg / Freiburg"},"status":"Real"},{"key":"10121481","name":"Route du Moulin","postalCode":"1723","locality":"Marly","commune":{"key":"2206","name":"Marly","shortName":"Marly"},"district":{"key":"1004","name":"District de la Sarine"},"canton":{"key":"10","code":"FR","name":"Fribourg / Freiburg"},"status":"Real"},{"key":"10080453","name":"Route du Nord","postalCode":"1723","locality":"Marly","commune":{"key":"2206","name":"Marly","shortName":"Marly"},"district":{"key":"1004","name":"District de la Sarine"},"canton":{"key":"10","code":"FR","name":"Fribourg / Freiburg"},"status":"Real"},{"key":"10080447","name":"Route du Pâquier","postalCode":"1723","locality":"Marly","commune":{"key":"2206","name":"Marly","shortName":"Marly"},"district":{"key":"1004","name":"District de la Sarine"},"canton":{"key":"10","code":"FR","name":"Fribourg / Freiburg"},"status":"Real"},{"key":"10121038","name":"Route du Roule","postalCode":"1723","locality":"Marly","commune":{"key":"2206","name":"Marly","shortName":"Marly"},"district":{"key":"1004","name":"District de la Sarine"},"canton":{"key":"10","code":"FR","name":"Fribourg / Freiburg"},"status":"Real"},{"key":"10022974","name":"Route du Verné","postalCode":"1723","locality":"Marly","commune":{"key":"2206","name":"Marly","shortName":"Marly"},"district":{"key":"1004","name":"District de la Sarine"},"canton":{"key":"10","code":"FR","name":"Fribourg / Freiburg"},"status":"Real"},{"key":"10072922","name":"Route Saint-Eloi","postalCode":"1723","locality":"Marly","commune":{"key":"2206","name":"Marly","shortName":"Marly"},"district":{"key":"1004","name":"District de la Sarine"},"canton":{"key":"10","code":"FR","name":"Fribourg / Freiburg"},"status":"Real"},{"key":"10251665","name":"Rue des Frères-Lumière","postalCode":"1723","locality":"Marly","commune":{"key":"2206","name":"Marly","shortName":"Marly"},"district":{"key":"1004","name":"District de la Sarine"},"canton":{"key":"10","code":"FR","name":"Fribourg / Freiburg"},"status":"Planned"},{"key":"10138679","name":"Usine électrique","postalCode":"1723","locality":"Marly","commune":{"key":"2206","name":"Marly","shortName":"Marly"},"district":{"key":"1004","name":"District de la Sarine"},"canton":{"key":"10","code":"FR","name":"Fribourg / Freiburg"},"status":"Real"},]