[{"name":"Am Badeborn","postalCode":"99610","locality":"Vogelsberg","municipality":{"key":"16068056","name":"Vogelsberg","type":"Kreisangehörige_Gemeinde"},"district":{"key":"16068","name":"Sömmerda","type":"Landkreis"},"federalState":{"key":"16","name":"Thüringen"}},{"name":"Am Clausberg","postalCode":"99610","locality":"Vogelsberg","municipality":{"key":"16068056","name":"Vogelsberg","type":"Kreisangehörige_Gemeinde"},"district":{"key":"16068","name":"Sömmerda","type":"Landkreis"},"federalState":{"key":"16","name":"Thüringen"}},{"name":"Am Jordan","postalCode":"99610","locality":"Vogelsberg","municipality":{"key":"16068056","name":"Vogelsberg","type":"Kreisangehörige_Gemeinde"},"district":{"key":"16068","name":"Sömmerda","type":"Landkreis"},"federalState":{"key":"16","name":"Thüringen"}},{"name":"Am Rasenweg","postalCode":"99610","locality":"Vogelsberg","municipality":{"key":"16068056","name":"Vogelsberg","type":"Kreisangehörige_Gemeinde"},"district":{"key":"16068","name":"Sömmerda","type":"Landkreis"},"federalState":{"key":"16","name":"Thüringen"}},{"name":"An der Neuhäuser Str.","postalCode":"99610","locality":"Vogelsberg","municipality":{"key":"16068056","name":"Vogelsberg","type":"Kreisangehörige_Gemeinde"},"district":{"key":"16068","name":"Sömmerda","type":"Landkreis"},"federalState":{"key":"16","name":"Thüringen"}},{"name":"An der Schanze","postalCode":"99610","locality":"Vogelsberg","municipality":{"key":"16068056","name":"Vogelsberg","type":"Kreisangehörige_Gemeinde"},"district":{"key":"16068","name":"Sömmerda","type":"Landkreis"},"federalState":{"key":"16","name":"Thüringen"}},{"name":"An der Sprötauer Klinge","postalCode":"99610","locality":"Vogelsberg","municipality":{"key":"16068056","name":"Vogelsberg","type":"Kreisangehörige_Gemeinde"},"district":{"key":"16068","name":"Sömmerda","type":"Landkreis"},"federalState":{"key":"16","name":"Thüringen"}},{"name":"An der Sprötauer Str.","postalCode":"99610","locality":"Vogelsberg","municipality":{"key":"16068056","name":"Vogelsberg","type":"Kreisangehörige_Gemeinde"},"district":{"key":"16068","name":"Sömmerda","type":"Landkreis"},"federalState":{"key":"16","name":"Thüringen"}},{"name":"Brauhausstr.","postalCode":"99610","locality":"Vogelsberg","municipality":{"key":"16068056","name":"Vogelsberg","type":"Kreisangehörige_Gemeinde"},"district":{"key":"16068","name":"Sömmerda","type":"Landkreis"},"federalState":{"key":"16","name":"Thüringen"}},{"name":"Carl-Schleusing-Str.","postalCode":"99610","locality":"Sömmerda","municipality":{"key":"16068051","name":"Sömmerda, Stadt","type":"Stadt"},"district":{"key":"16068","name":"Sömmerda","type":"Landkreis"},"federalState":{"key":"16","name":"Thüringen"}},{"name":"Chausseegasse","postalCode":"99610","locality":"Sömmerda","municipality":{"key":"16068051","name":"Sömmerda, Stadt","type":"Stadt"},"district":{"key":"16068","name":"Sömmerda","type":"Landkreis"},"federalState":{"key":"16","name":"Thüringen"}},{"name":"Diebsgasse","postalCode":"99610","locality":"Vogelsberg","municipality":{"key":"16068056","name":"Vogelsberg","type":"Kreisangehörige_Gemeinde"},"district":{"key":"16068","name":"Sömmerda","type":"Landkreis"},"federalState":{"key":"16","name":"Thüringen"}},{"name":"Ernst-Thälmann-Str.","postalCode":"99610","locality":"Vogelsberg","municipality":{"key":"16068056","name":"Vogelsberg","type":"Kreisangehörige_Gemeinde"},"district":{"key":"16068","name":"Sömmerda","type":"Landkreis"},"federalState":{"key":"16","name":"Thüringen"}},{"name":"Falkenweg","postalCode":"99610","locality":"Sömmerda","municipality":{"key":"16068051","name":"Sömmerda, Stadt","type":"Stadt"},"district":{"key":"16068","name":"Sömmerda","type":"Landkreis"},"federalState":{"key":"16","name":"Thüringen"}},{"name":"Fasanenweg","postalCode":"99610","locality":"Sömmerda","municipality":{"key":"16068051","name":"Sömmerda, Stadt","type":"Stadt"},"district":{"key":"16068","name":"Sömmerda","type":"Landkreis"},"federalState":{"key":"16","name":"Thüringen"}},{"name":"Feldstr.","postalCode":"99610","locality":"Sömmerda","municipality":{"key":"16068051","name":"Sömmerda, Stadt","type":"Stadt"},"district":{"key":"16068","name":"Sömmerda","type":"Landkreis"},"federalState":{"key":"16","name":"Thüringen"}},{"name":"Fichtestr.","postalCode":"99610","locality":"Sömmerda","municipality":{"key":"16068051","name":"Sömmerda, Stadt","type":"Stadt"},"district":{"key":"16068","name":"Sömmerda","type":"Landkreis"},"federalState":{"key":"16","name":"Thüringen"}},{"name":"Franz-Mehring-Str.","postalCode":"99610","locality":"Sömmerda","municipality":{"key":"16068051","name":"Sömmerda, Stadt","type":"Stadt"},"district":{"key":"16068","name":"Sömmerda","type":"Landkreis"},"federalState":{"key":"16","name":"Thüringen"}},{"name":"Franz-Schubert-Str.","postalCode":"99610","locality":"Sömmerda","municipality":{"key":"16068051","name":"Sömmerda, Stadt","type":"Stadt"},"district":{"key":"16068","name":"Sömmerda","type":"Landkreis"},"federalState":{"key":"16","name":"Thüringen"}},{"name":"Freiligrathstr.","postalCode":"99610","locality":"Sömmerda","municipality":{"key":"16068051","name":"Sömmerda, Stadt","type":"Stadt"},"district":{"key":"16068","name":"Sömmerda","type":"Landkreis"},"federalState":{"key":"16","name":"Thüringen"}},{"name":"Friedensstr.","postalCode":"99610","locality":"Sömmerda","municipality":{"key":"16068051","name":"Sömmerda, Stadt","type":"Stadt"},"district":{"key":"16068","name":"Sömmerda","type":"Landkreis"},"federalState":{"key":"16","name":"Thüringen"}},{"name":"Friedrich-Ebert-Str.","postalCode":"99610","locality":"Sömmerda","municipality":{"key":"16068051","name":"Sömmerda, Stadt","type":"Stadt"},"district":{"key":"16068","name":"Sömmerda","type":"Landkreis"},"federalState":{"key":"16","name":"Thüringen"}},{"name":"Frohndorfer Str.","postalCode":"99610","locality":"Sömmerda","municipality":{"key":"16068051","name":"Sömmerda, Stadt","type":"Stadt"},"district":{"key":"16068","name":"Sömmerda","type":"Landkreis"},"federalState":{"key":"16","name":"Thüringen"}},{"name":"Gartenstr.","postalCode":"99610","locality":"Sömmerda","municipality":{"key":"16068051","name":"Sömmerda, Stadt","type":"Stadt"},"district":{"key":"16068","name":"Sömmerda","type":"Landkreis"},"federalState":{"key":"16","name":"Thüringen"}},{"name":"Gartenweg","postalCode":"99610","locality":"Sömmerda","municipality":{"key":"16068051","name":"Sömmerda, Stadt","type":"Stadt"},"district":{"key":"16068","name":"Sömmerda","type":"Landkreis"},"federalState":{"key":"16","name":"Thüringen"}},{"name":"Gebrüder-Grimm-Str.","postalCode":"99610","locality":"Sömmerda","municipality":{"key":"16068051","name":"Sömmerda, Stadt","type":"Stadt"},"district":{"key":"16068","name":"Sömmerda","type":"Landkreis"},"federalState":{"key":"16","name":"Thüringen"}},{"name":"Geschwister-Scholl-Str.","postalCode":"99610","locality":"Sömmerda","municipality":{"key":"16068051","name":"Sömmerda, Stadt","type":"Stadt"},"district":{"key":"16068","name":"Sömmerda","type":"Landkreis"},"federalState":{"key":"16","name":"Thüringen"}},{"name":"Goethestr.","postalCode":"99610","locality":"Sömmerda","municipality":{"key":"16068051","name":"Sömmerda, Stadt","type":"Stadt"},"district":{"key":"16068","name":"Sömmerda","type":"Landkreis"},"federalState":{"key":"16","name":"Thüringen"}},{"name":"Guerickestr.","postalCode":"99610","locality":"Sömmerda","municipality":{"key":"16068051","name":"Sömmerda, Stadt","type":"Stadt"},"district":{"key":"16068","name":"Sömmerda","type":"Landkreis"},"federalState":{"key":"16","name":"Thüringen"}},{"name":"GutsMuthsplatz","postalCode":"99610","locality":"Sömmerda","municipality":{"key":"16068051","name":"Sömmerda, Stadt","type":"Stadt"},"district":{"key":"16068","name":"Sömmerda","type":"Landkreis"},"federalState":{"key":"16","name":"Thüringen"}},{"name":"Hintergasse","postalCode":"99610","locality":"Vogelsberg","municipality":{"key":"16068056","name":"Vogelsberg","type":"Kreisangehörige_Gemeinde"},"district":{"key":"16068","name":"Sömmerda","type":"Landkreis"},"federalState":{"key":"16","name":"Thüringen"}},{"name":"Jahnstr.","postalCode":"99610","locality":"Sömmerda","municipality":{"key":"16068051","name":"Sömmerda, Stadt","type":"Stadt"},"district":{"key":"16068","name":"Sömmerda","type":"Landkreis"},"federalState":{"key":"16","name":"Thüringen"}},{"name":"Karl-Marx-Platz","postalCode":"99610","locality":"Vogelsberg","municipality":{"key":"16068056","name":"Vogelsberg","type":"Kreisangehörige_Gemeinde"},"district":{"key":"16068","name":"Sömmerda","type":"Landkreis"},"federalState":{"key":"16","name":"Thüringen"}},{"name":"Kirchgasse","postalCode":"99610","locality":"Vogelsberg","municipality":{"key":"16068056","name":"Vogelsberg","type":"Kreisangehörige_Gemeinde"},"district":{"key":"16068","name":"Sömmerda","type":"Landkreis"},"federalState":{"key":"16","name":"Thüringen"}},{"name":"Lange Str.","postalCode":"99610","locality":"Vogelsberg","municipality":{"key":"16068056","name":"Vogelsberg","type":"Kreisangehörige_Gemeinde"},"district":{"key":"16068","name":"Sömmerda","type":"Landkreis"},"federalState":{"key":"16","name":"Thüringen"}},{"name":"Mainzer Str.","postalCode":"99610","locality":"Sömmerda","municipality":{"key":"16068051","name":"Sömmerda, Stadt","type":"Stadt"},"district":{"key":"16068","name":"Sömmerda","type":"Landkreis"},"federalState":{"key":"16","name":"Thüringen"}},{"name":"Marktplatz","postalCode":"99610","locality":"Sömmerda","municipality":{"key":"16068051","name":"Sömmerda, Stadt","type":"Stadt"},"district":{"key":"16068","name":"Sömmerda","type":"Landkreis"},"federalState":{"key":"16","name":"Thüringen"}},{"name":"Martinipark","postalCode":"99610","locality":"Sömmerda","municipality":{"key":"16068051","name":"Sömmerda, Stadt","type":"Stadt"},"district":{"key":"16068","name":"Sömmerda","type":"Landkreis"},"federalState":{"key":"16","name":"Thüringen"}},{"name":"Martin-Luther-Str.","postalCode":"99610","locality":"Sömmerda","municipality":{"key":"16068051","name":"Sömmerda, Stadt","type":"Stadt"},"district":{"key":"16068","name":"Sömmerda","type":"Landkreis"},"federalState":{"key":"16","name":"Thüringen"}},{"name":"Mittelgasse","postalCode":"99610","locality":"Sömmerda","municipality":{"key":"16068051","name":"Sömmerda, Stadt","type":"Stadt"},"district":{"key":"16068","name":"Sömmerda","type":"Landkreis"},"federalState":{"key":"16","name":"Thüringen"}},{"name":"Mittelstr.","postalCode":"99610","locality":"Sömmerda","municipality":{"key":"16068051","name":"Sömmerda, Stadt","type":"Stadt"},"district":{"key":"16068","name":"Sömmerda","type":"Landkreis"},"federalState":{"key":"16","name":"Thüringen"}},{"name":"Moritz-Wandt-Str.","postalCode":"99610","locality":"Sömmerda","municipality":{"key":"16068051","name":"Sömmerda, Stadt","type":"Stadt"},"district":{"key":"16068","name":"Sömmerda","type":"Landkreis"},"federalState":{"key":"16","name":"Thüringen"}},{"name":"Mozartstr.","postalCode":"99610","locality":"Sömmerda","municipality":{"key":"16068051","name":"Sömmerda, Stadt","type":"Stadt"},"district":{"key":"16068","name":"Sömmerda","type":"Landkreis"},"federalState":{"key":"16","name":"Thüringen"}},{"name":"Mühlgasse","postalCode":"99610","locality":"Sömmerda","municipality":{"key":"16068051","name":"Sömmerda, Stadt","type":"Stadt"},"district":{"key":"16068","name":"Sömmerda","type":"Landkreis"},"federalState":{"key":"16","name":"Thüringen"}},{"name":"Mühlstr.","postalCode":"99610","locality":"Sömmerda","municipality":{"key":"16068051","name":"Sömmerda, Stadt","type":"Stadt"},"district":{"key":"16068","name":"Sömmerda","type":"Landkreis"},"federalState":{"key":"16","name":"Thüringen"}},{"name":"Neue Str.","postalCode":"99610","locality":"Vogelsberg","municipality":{"key":"16068056","name":"Vogelsberg","type":"Kreisangehörige_Gemeinde"},"district":{"key":"16068","name":"Sömmerda","type":"Landkreis"},"federalState":{"key":"16","name":"Thüringen"}},{"name":"Neumärker Tor","postalCode":"99610","locality":"Vogelsberg","municipality":{"key":"16068056","name":"Vogelsberg","type":"Kreisangehörige_Gemeinde"},"district":{"key":"16068","name":"Sömmerda","type":"Landkreis"},"federalState":{"key":"16","name":"Thüringen"}},{"name":"Obere Kirchgasse","postalCode":"99610","locality":"Sömmerda","municipality":{"key":"16068051","name":"Sömmerda, Stadt","type":"Stadt"},"district":{"key":"16068","name":"Sömmerda","type":"Landkreis"},"federalState":{"key":"16","name":"Thüringen"}},{"name":"Offenhainer Str.","postalCode":"99610","locality":"Sömmerda","municipality":{"key":"16068051","name":"Sömmerda, Stadt","type":"Stadt"},"district":{"key":"16068","name":"Sömmerda","type":"Landkreis"},"federalState":{"key":"16","name":"Thüringen"}},{"name":"Ortsumfahrung Sömmerda","postalCode":"99610","locality":"Sömmerda","municipality":{"key":"16068051","name":"Sömmerda, Stadt","type":"Stadt"},"district":{"key":"16068","name":"Sömmerda","type":"Landkreis"},"federalState":{"key":"16","name":"Thüringen"}},{"name":"Otto-Jessing-Str.","postalCode":"99610","locality":"Sömmerda","municipality":{"key":"16068051","name":"Sömmerda, Stadt","type":"Stadt"},"district":{"key":"16068","name":"Sömmerda","type":"Landkreis"},"federalState":{"key":"16","name":"Thüringen"}},{"name":"Pappelweg","postalCode":"99610","locality":"Sömmerda","municipality":{"key":"16068051","name":"Sömmerda, Stadt","type":"Stadt"},"district":{"key":"16068","name":"Sömmerda","type":"Landkreis"},"federalState":{"key":"16","name":"Thüringen"}},{"name":"Paradies","postalCode":"99610","locality":"Sömmerda","municipality":{"key":"16068051","name":"Sömmerda, Stadt","type":"Stadt"},"district":{"key":"16068","name":"Sömmerda","type":"Landkreis"},"federalState":{"key":"16","name":"Thüringen"}},{"name":"Parkweg","postalCode":"99610","locality":"Sömmerda","municipality":{"key":"16068051","name":"Sömmerda, Stadt","type":"Stadt"},"district":{"key":"16068","name":"Sömmerda","type":"Landkreis"},"federalState":{"key":"16","name":"Thüringen"}},{"name":"Pestalozzistr.","postalCode":"99610","locality":"Sömmerda","municipality":{"key":"16068051","name":"Sömmerda, Stadt","type":"Stadt"},"district":{"key":"16068","name":"Sömmerda","type":"Landkreis"},"federalState":{"key":"16","name":"Thüringen"}},{"name":"Petriplatz","postalCode":"99610","locality":"Sömmerda","municipality":{"key":"16068051","name":"Sömmerda, Stadt","type":"Stadt"},"district":{"key":"16068","name":"Sömmerda","type":"Landkreis"},"federalState":{"key":"16","name":"Thüringen"}},{"name":"Pfarrer-Wolfgang-Breithaupt-Str.","postalCode":"99610","locality":"Sömmerda","municipality":{"key":"16068051","name":"Sömmerda, Stadt","type":"Stadt"},"district":{"key":"16068","name":"Sömmerda","type":"Landkreis"},"federalState":{"key":"16","name":"Thüringen"}},{"name":"Pfarrstr.","postalCode":"99610","locality":"Sömmerda","municipality":{"key":"16068051","name":"Sömmerda, Stadt","type":"Stadt"},"district":{"key":"16068","name":"Sömmerda","type":"Landkreis"},"federalState":{"key":"16","name":"Thüringen"}},{"name":"Pfortecke","postalCode":"99610","locality":"Sömmerda","municipality":{"key":"16068051","name":"Sömmerda, Stadt","type":"Stadt"},"district":{"key":"16068","name":"Sömmerda","type":"Landkreis"},"federalState":{"key":"16","name":"Thüringen"}},{"name":"Plan","postalCode":"99610","locality":"Sömmerda","municipality":{"key":"16068051","name":"Sömmerda, Stadt","type":"Stadt"},"district":{"key":"16068","name":"Sömmerda","type":"Landkreis"},"federalState":{"key":"16","name":"Thüringen"}},{"name":"Platz der Märzgefallenen","postalCode":"99610","locality":"Sömmerda","municipality":{"key":"16068051","name":"Sömmerda, Stadt","type":"Stadt"},"district":{"key":"16068","name":"Sömmerda","type":"Landkreis"},"federalState":{"key":"16","name":"Thüringen"}},{"name":"Poststr.","postalCode":"99610","locality":"Sömmerda","municipality":{"key":"16068051","name":"Sömmerda, Stadt","type":"Stadt"},"district":{"key":"16068","name":"Sömmerda","type":"Landkreis"},"federalState":{"key":"16","name":"Thüringen"}},{"name":"Quergasse","postalCode":"99610","locality":"Sömmerda","municipality":{"key":"16068051","name":"Sömmerda, Stadt","type":"Stadt"},"district":{"key":"16068","name":"Sömmerda","type":"Landkreis"},"federalState":{"key":"16","name":"Thüringen"}},{"name":"Querstr.","postalCode":"99610","locality":"Sömmerda","municipality":{"key":"16068051","name":"Sömmerda, Stadt","type":"Stadt"},"district":{"key":"16068","name":"Sömmerda","type":"Landkreis"},"federalState":{"key":"16","name":"Thüringen"}},{"name":"Querweg","postalCode":"99610","locality":"Sömmerda","municipality":{"key":"16068051","name":"Sömmerda, Stadt","type":"Stadt"},"district":{"key":"16068","name":"Sömmerda","type":"Landkreis"},"federalState":{"key":"16","name":"Thüringen"}},{"name":"Rosa-Luxemburg-Str.","postalCode":"99610","locality":"Vogelsberg","municipality":{"key":"16068056","name":"Vogelsberg","type":"Kreisangehörige_Gemeinde"},"district":{"key":"16068","name":"Sömmerda","type":"Landkreis"},"federalState":{"key":"16","name":"Thüringen"}},{"name":"Sackgasse","postalCode":"99610","locality":"Vogelsberg","municipality":{"key":"16068056","name":"Vogelsberg","type":"Kreisangehörige_Gemeinde"},"district":{"key":"16068","name":"Sömmerda","type":"Landkreis"},"federalState":{"key":"16","name":"Thüringen"}},{"name":"Schanze","postalCode":"99610","locality":"Vogelsberg","municipality":{"key":"16068056","name":"Vogelsberg","type":"Kreisangehörige_Gemeinde"},"district":{"key":"16068","name":"Sömmerda","type":"Landkreis"},"federalState":{"key":"16","name":"Thüringen"}},{"name":"Schloßvippacher Str.","postalCode":"99610","locality":"Vogelsberg","municipality":{"key":"16068056","name":"Vogelsberg","type":"Kreisangehörige_Gemeinde"},"district":{"key":"16068","name":"Sömmerda","type":"Landkreis"},"federalState":{"key":"16","name":"Thüringen"}},{"name":"Spitzgarten","postalCode":"99610","locality":"Vogelsberg","municipality":{"key":"16068056","name":"Vogelsberg","type":"Kreisangehörige_Gemeinde"},"district":{"key":"16068","name":"Sömmerda","type":"Landkreis"},"federalState":{"key":"16","name":"Thüringen"}},{"name":"Staudamm","postalCode":"99610","locality":"Vogelsberg","municipality":{"key":"16068056","name":"Vogelsberg","type":"Kreisangehörige_Gemeinde"},"district":{"key":"16068","name":"Sömmerda","type":"Landkreis"},"federalState":{"key":"16","name":"Thüringen"}},{"name":"Thomas-Müntzer-Str.","postalCode":"99610","locality":"Vogelsberg","municipality":{"key":"16068056","name":"Vogelsberg","type":"Kreisangehörige_Gemeinde"},"district":{"key":"16068","name":"Sömmerda","type":"Landkreis"},"federalState":{"key":"16","name":"Thüringen"}},{"name":"Uhlandstr.","postalCode":"99610","locality":"Sömmerda","municipality":{"key":"16068051","name":"Sömmerda, Stadt","type":"Stadt"},"district":{"key":"16068","name":"Sömmerda","type":"Landkreis"},"federalState":{"key":"16","name":"Thüringen"}},{"name":"Ulmenweg","postalCode":"99610","locality":"Sömmerda","municipality":{"key":"16068051","name":"Sömmerda, Stadt","type":"Stadt"},"district":{"key":"16068","name":"Sömmerda","type":"Landkreis"},"federalState":{"key":"16","name":"Thüringen"}},{"name":"Untere Brückenstr.","postalCode":"99610","locality":"Sömmerda","municipality":{"key":"16068051","name":"Sömmerda, Stadt","type":"Stadt"},"district":{"key":"16068","name":"Sömmerda","type":"Landkreis"},"federalState":{"key":"16","name":"Thüringen"}},{"name":"Untere Kirchgasse","postalCode":"99610","locality":"Sömmerda","municipality":{"key":"16068051","name":"Sömmerda, Stadt","type":"Stadt"},"district":{"key":"16068","name":"Sömmerda","type":"Landkreis"},"federalState":{"key":"16","name":"Thüringen"}},{"name":"Uthmannstr.","postalCode":"99610","locality":"Sömmerda","municipality":{"key":"16068051","name":"Sömmerda, Stadt","type":"Stadt"},"district":{"key":"16068","name":"Sömmerda","type":"Landkreis"},"federalState":{"key":"16","name":"Thüringen"}},{"name":"Vieselbacher Str.","postalCode":"99610","locality":"Sömmerda","municipality":{"key":"16068051","name":"Sömmerda, Stadt","type":"Stadt"},"district":{"key":"16068","name":"Sömmerda","type":"Landkreis"},"federalState":{"key":"16","name":"Thüringen"}},{"name":"Volkswohlstr.","postalCode":"99610","locality":"Sömmerda","municipality":{"key":"16068051","name":"Sömmerda, Stadt","type":"Stadt"},"district":{"key":"16068","name":"Sömmerda","type":"Landkreis"},"federalState":{"key":"16","name":"Thüringen"}},{"name":"Vorderstr.","postalCode":"99610","locality":"Sömmerda","municipality":{"key":"16068051","name":"Sömmerda, Stadt","type":"Stadt"},"district":{"key":"16068","name":"Sömmerda","type":"Landkreis"},"federalState":{"key":"16","name":"Thüringen"}},{"name":"Wachtelstr.","postalCode":"99610","locality":"Sömmerda","municipality":{"key":"16068051","name":"Sömmerda, Stadt","type":"Stadt"},"district":{"key":"16068","name":"Sömmerda","type":"Landkreis"},"federalState":{"key":"16","name":"Thüringen"}},{"name":"Wallgasse","postalCode":"99610","locality":"Sömmerda","municipality":{"key":"16068051","name":"Sömmerda, Stadt","type":"Stadt"},"district":{"key":"16068","name":"Sömmerda","type":"Landkreis"},"federalState":{"key":"16","name":"Thüringen"}},{"name":"Walter-Rathenau-Str.","postalCode":"99610","locality":"Sömmerda","municipality":{"key":"16068051","name":"Sömmerda, Stadt","type":"Stadt"},"district":{"key":"16068","name":"Sömmerda","type":"Landkreis"},"federalState":{"key":"16","name":"Thüringen"}},{"name":"Weidenweg","postalCode":"99610","locality":"Sömmerda","municipality":{"key":"16068051","name":"Sömmerda, Stadt","type":"Stadt"},"district":{"key":"16068","name":"Sömmerda","type":"Landkreis"},"federalState":{"key":"16","name":"Thüringen"}},{"name":"Weißenburg","postalCode":"99610","locality":"Sömmerda","municipality":{"key":"16068051","name":"Sömmerda, Stadt","type":"Stadt"},"district":{"key":"16068","name":"Sömmerda","type":"Landkreis"},"federalState":{"key":"16","name":"Thüringen"}},{"name":"Weißenseer Str.","postalCode":"99610","locality":"Sömmerda","municipality":{"key":"16068051","name":"Sömmerda, Stadt","type":"Stadt"},"district":{"key":"16068","name":"Sömmerda","type":"Landkreis"},"federalState":{"key":"16","name":"Thüringen"}},{"name":"Weißenseer Weg","postalCode":"99610","locality":"Sömmerda","municipality":{"key":"16068051","name":"Sömmerda, Stadt","type":"Stadt"},"district":{"key":"16068","name":"Sömmerda","type":"Landkreis"},"federalState":{"key":"16","name":"Thüringen"}},{"name":"Wenigensömmersche Str.","postalCode":"99610","locality":"Sömmerda","municipality":{"key":"16068051","name":"Sömmerda, Stadt","type":"Stadt"},"district":{"key":"16068","name":"Sömmerda","type":"Landkreis"},"federalState":{"key":"16","name":"Thüringen"}},{"name":"Werner-Seelenbinder-Str.","postalCode":"99610","locality":"Sömmerda","municipality":{"key":"16068051","name":"Sömmerda, Stadt","type":"Stadt"},"district":{"key":"16068","name":"Sömmerda","type":"Landkreis"},"federalState":{"key":"16","name":"Thüringen"}},{"name":"Werrchenstr.","postalCode":"99610","locality":"Sömmerda","municipality":{"key":"16068051","name":"Sömmerda, Stadt","type":"Stadt"},"district":{"key":"16068","name":"Sömmerda","type":"Landkreis"},"federalState":{"key":"16","name":"Thüringen"}},{"name":"Wielandstr.","postalCode":"99610","locality":"Sömmerda","municipality":{"key":"16068051","name":"Sömmerda, Stadt","type":"Stadt"},"district":{"key":"16068","name":"Sömmerda","type":"Landkreis"},"federalState":{"key":"16","name":"Thüringen"}},{"name":"Wiesenstr.","postalCode":"99625","locality":"Sömmerda","municipality":{"key":"16068051","name":"Sömmerda, Stadt","type":"Stadt"},"district":{"key":"16068","name":"Sömmerda","type":"Landkreis"},"federalState":{"key":"16","name":"Thüringen"}},{"name":"Wilhelm-Busch-Str.","postalCode":"99610","locality":"Sömmerda","municipality":{"key":"16068051","name":"Sömmerda, Stadt","type":"Stadt"},"district":{"key":"16068","name":"Sömmerda","type":"Landkreis"},"federalState":{"key":"16","name":"Thüringen"}},{"name":"Zum Bahnhof","postalCode":"99610","locality":"Sömmerda","municipality":{"key":"16068051","name":"Sömmerda, Stadt","type":"Stadt"},"district":{"key":"16068","name":"Sömmerda","type":"Landkreis"},"federalState":{"key":"16","name":"Thüringen"}},{"name":"Zum Plan","postalCode":"99625","locality":"Sömmerda","municipality":{"key":"16068051","name":"Sömmerda, Stadt","type":"Stadt"},"district":{"key":"16068","name":"Sömmerda","type":"Landkreis"},"federalState":{"key":"16","name":"Thüringen"}},{"name":"Zwirnsgasse","postalCode":"99610","locality":"Sömmerda","municipality":{"key":"16068051","name":"Sömmerda, Stadt","type":"Stadt"},"district":{"key":"16068","name":"Sömmerda","type":"Landkreis"},"federalState":{"key":"16","name":"Thüringen"}},]