[{"name":"Almenweg","postalCode":"64405","locality":"Fischbachtal","municipality":{"key":"06432007","name":"Fischbachtal","type":"Kreisangehörige_Gemeinde"},"district":{"key":"06432","name":"Darmstadt-Dieburg","type":"Landkreis"},"federalState":{"key":"06","name":"Hessen"}},{"name":"Am Amtsacker","postalCode":"64405","locality":"Fischbachtal","municipality":{"key":"06432007","name":"Fischbachtal","type":"Kreisangehörige_Gemeinde"},"district":{"key":"06432","name":"Darmstadt-Dieburg","type":"Landkreis"},"federalState":{"key":"06","name":"Hessen"}},{"name":"Am Gernböhl","postalCode":"64405","locality":"Fischbachtal","municipality":{"key":"06432007","name":"Fischbachtal","type":"Kreisangehörige_Gemeinde"},"district":{"key":"06432","name":"Darmstadt-Dieburg","type":"Landkreis"},"federalState":{"key":"06","name":"Hessen"}},{"name":"Am Hainberg","postalCode":"64405","locality":"Fischbachtal","municipality":{"key":"06432007","name":"Fischbachtal","type":"Kreisangehörige_Gemeinde"},"district":{"key":"06432","name":"Darmstadt-Dieburg","type":"Landkreis"},"federalState":{"key":"06","name":"Hessen"}},{"name":"Am Jochartgraben","postalCode":"64405","locality":"Fischbachtal","municipality":{"key":"06432007","name":"Fischbachtal","type":"Kreisangehörige_Gemeinde"},"district":{"key":"06432","name":"Darmstadt-Dieburg","type":"Landkreis"},"federalState":{"key":"06","name":"Hessen"}},{"name":"Am Kurzen Berg","postalCode":"64405","locality":"Fischbachtal","municipality":{"key":"06432007","name":"Fischbachtal","type":"Kreisangehörige_Gemeinde"},"district":{"key":"06432","name":"Darmstadt-Dieburg","type":"Landkreis"},"federalState":{"key":"06","name":"Hessen"}},{"name":"Am Lohberg","postalCode":"64405","locality":"Fischbachtal","municipality":{"key":"06432007","name":"Fischbachtal","type":"Kreisangehörige_Gemeinde"},"district":{"key":"06432","name":"Darmstadt-Dieburg","type":"Landkreis"},"federalState":{"key":"06","name":"Hessen"}},{"name":"Am Schloßberg","postalCode":"64405","locality":"Fischbachtal","municipality":{"key":"06432007","name":"Fischbachtal","type":"Kreisangehörige_Gemeinde"},"district":{"key":"06432","name":"Darmstadt-Dieburg","type":"Landkreis"},"federalState":{"key":"06","name":"Hessen"}},{"name":"Am Steinbach","postalCode":"64405","locality":"Fischbachtal","municipality":{"key":"06432007","name":"Fischbachtal","type":"Kreisangehörige_Gemeinde"},"district":{"key":"06432","name":"Darmstadt-Dieburg","type":"Landkreis"},"federalState":{"key":"06","name":"Hessen"}},{"name":"An den Linden","postalCode":"64405","locality":"Fischbachtal","municipality":{"key":"06432007","name":"Fischbachtal","type":"Kreisangehörige_Gemeinde"},"district":{"key":"06432","name":"Darmstadt-Dieburg","type":"Landkreis"},"federalState":{"key":"06","name":"Hessen"}},{"name":"Balthasar-Schwebel-Str.","postalCode":"64405","locality":"Fischbachtal","municipality":{"key":"06432007","name":"Fischbachtal","type":"Kreisangehörige_Gemeinde"},"district":{"key":"06432","name":"Darmstadt-Dieburg","type":"Landkreis"},"federalState":{"key":"06","name":"Hessen"}},{"name":"Berggasse","postalCode":"64405","locality":"Fischbachtal","municipality":{"key":"06432007","name":"Fischbachtal","type":"Kreisangehörige_Gemeinde"},"district":{"key":"06432","name":"Darmstadt-Dieburg","type":"Landkreis"},"federalState":{"key":"06","name":"Hessen"}},{"name":"Birkenweg","postalCode":"64405","locality":"Fischbachtal","municipality":{"key":"06432007","name":"Fischbachtal","type":"Kreisangehörige_Gemeinde"},"district":{"key":"06432","name":"Darmstadt-Dieburg","type":"Landkreis"},"federalState":{"key":"06","name":"Hessen"}},{"name":"Darmstädter Str.","postalCode":"64405","locality":"Fischbachtal","municipality":{"key":"06432007","name":"Fischbachtal","type":"Kreisangehörige_Gemeinde"},"district":{"key":"06432","name":"Darmstadt-Dieburg","type":"Landkreis"},"federalState":{"key":"06","name":"Hessen"}},{"name":"Eckenweg","postalCode":"64405","locality":"Fischbachtal","municipality":{"key":"06432007","name":"Fischbachtal","type":"Kreisangehörige_Gemeinde"},"district":{"key":"06432","name":"Darmstadt-Dieburg","type":"Landkreis"},"federalState":{"key":"06","name":"Hessen"}},{"name":"Falltorweg","postalCode":"64405","locality":"Fischbachtal","municipality":{"key":"06432007","name":"Fischbachtal","type":"Kreisangehörige_Gemeinde"},"district":{"key":"06432","name":"Darmstadt-Dieburg","type":"Landkreis"},"federalState":{"key":"06","name":"Hessen"}},{"name":"Freier Platz","postalCode":"64405","locality":"Fischbachtal","municipality":{"key":"06432007","name":"Fischbachtal","type":"Kreisangehörige_Gemeinde"},"district":{"key":"06432","name":"Darmstadt-Dieburg","type":"Landkreis"},"federalState":{"key":"06","name":"Hessen"}},{"name":"Gartenstr.","postalCode":"64405","locality":"Fischbachtal","municipality":{"key":"06432007","name":"Fischbachtal","type":"Kreisangehörige_Gemeinde"},"district":{"key":"06432","name":"Darmstadt-Dieburg","type":"Landkreis"},"federalState":{"key":"06","name":"Hessen"}},{"name":"Georg-Röder-Str.","postalCode":"64405","locality":"Fischbachtal","municipality":{"key":"06432007","name":"Fischbachtal","type":"Kreisangehörige_Gemeinde"},"district":{"key":"06432","name":"Darmstadt-Dieburg","type":"Landkreis"},"federalState":{"key":"06","name":"Hessen"}},{"name":"Hainwiesenweg","postalCode":"64405","locality":"Fischbachtal","municipality":{"key":"06432007","name":"Fischbachtal","type":"Kreisangehörige_Gemeinde"},"district":{"key":"06432","name":"Darmstadt-Dieburg","type":"Landkreis"},"federalState":{"key":"06","name":"Hessen"}},{"name":"Hauptstr.","postalCode":"64405","locality":"Fischbachtal","municipality":{"key":"06432007","name":"Fischbachtal","type":"Kreisangehörige_Gemeinde"},"district":{"key":"06432","name":"Darmstadt-Dieburg","type":"Landkreis"},"federalState":{"key":"06","name":"Hessen"}},{"name":"Herrenseestr.","postalCode":"64405","locality":"Fischbachtal","municipality":{"key":"06432007","name":"Fischbachtal","type":"Kreisangehörige_Gemeinde"},"district":{"key":"06432","name":"Darmstadt-Dieburg","type":"Landkreis"},"federalState":{"key":"06","name":"Hessen"}},{"name":"Herrngartenstr.","postalCode":"64405","locality":"Fischbachtal","municipality":{"key":"06432007","name":"Fischbachtal","type":"Kreisangehörige_Gemeinde"},"district":{"key":"06432","name":"Darmstadt-Dieburg","type":"Landkreis"},"federalState":{"key":"06","name":"Hessen"}},{"name":"Hindenburgstr.","postalCode":"64405","locality":"Fischbachtal","municipality":{"key":"06432007","name":"Fischbachtal","type":"Kreisangehörige_Gemeinde"},"district":{"key":"06432","name":"Darmstadt-Dieburg","type":"Landkreis"},"federalState":{"key":"06","name":"Hessen"}},{"name":"Hubert Henke Weg","postalCode":"64405","locality":"Fischbachtal","municipality":{"key":"06432007","name":"Fischbachtal","type":"Kreisangehörige_Gemeinde"},"district":{"key":"06432","name":"Darmstadt-Dieburg","type":"Landkreis"},"federalState":{"key":"06","name":"Hessen"}},{"name":"In den Eckwiesen","postalCode":"64405","locality":"Fischbachtal","municipality":{"key":"06432007","name":"Fischbachtal","type":"Kreisangehörige_Gemeinde"},"district":{"key":"06432","name":"Darmstadt-Dieburg","type":"Landkreis"},"federalState":{"key":"06","name":"Hessen"}},{"name":"In den Weingärten","postalCode":"64405","locality":"Fischbachtal","municipality":{"key":"06432007","name":"Fischbachtal","type":"Kreisangehörige_Gemeinde"},"district":{"key":"06432","name":"Darmstadt-Dieburg","type":"Landkreis"},"federalState":{"key":"06","name":"Hessen"}},{"name":"In der Kaupel","postalCode":"64405","locality":"Fischbachtal","municipality":{"key":"06432007","name":"Fischbachtal","type":"Kreisangehörige_Gemeinde"},"district":{"key":"06432","name":"Darmstadt-Dieburg","type":"Landkreis"},"federalState":{"key":"06","name":"Hessen"}},{"name":"Jochartweg","postalCode":"64405","locality":"Fischbachtal","municipality":{"key":"06432007","name":"Fischbachtal","type":"Kreisangehörige_Gemeinde"},"district":{"key":"06432","name":"Darmstadt-Dieburg","type":"Landkreis"},"federalState":{"key":"06","name":"Hessen"}},{"name":"Karl-Meisenbach-Str.","postalCode":"64405","locality":"Fischbachtal","municipality":{"key":"06432007","name":"Fischbachtal","type":"Kreisangehörige_Gemeinde"},"district":{"key":"06432","name":"Darmstadt-Dieburg","type":"Landkreis"},"federalState":{"key":"06","name":"Hessen"}},{"name":"Kirchgarten","postalCode":"64405","locality":"Fischbachtal","municipality":{"key":"06432007","name":"Fischbachtal","type":"Kreisangehörige_Gemeinde"},"district":{"key":"06432","name":"Darmstadt-Dieburg","type":"Landkreis"},"federalState":{"key":"06","name":"Hessen"}},{"name":"Kirchweg","postalCode":"64405","locality":"Fischbachtal","municipality":{"key":"06432007","name":"Fischbachtal","type":"Kreisangehörige_Gemeinde"},"district":{"key":"06432","name":"Darmstadt-Dieburg","type":"Landkreis"},"federalState":{"key":"06","name":"Hessen"}},{"name":"Landgraf-Georg-Str.","postalCode":"64405","locality":"Fischbachtal","municipality":{"key":"06432007","name":"Fischbachtal","type":"Kreisangehörige_Gemeinde"},"district":{"key":"06432","name":"Darmstadt-Dieburg","type":"Landkreis"},"federalState":{"key":"06","name":"Hessen"}},{"name":"Lichtenberger Str.","postalCode":"64405","locality":"Fischbachtal","municipality":{"key":"06432007","name":"Fischbachtal","type":"Kreisangehörige_Gemeinde"},"district":{"key":"06432","name":"Darmstadt-Dieburg","type":"Landkreis"},"federalState":{"key":"06","name":"Hessen"}},{"name":"Liebigstr.","postalCode":"64405","locality":"Fischbachtal","municipality":{"key":"06432007","name":"Fischbachtal","type":"Kreisangehörige_Gemeinde"},"district":{"key":"06432","name":"Darmstadt-Dieburg","type":"Landkreis"},"federalState":{"key":"06","name":"Hessen"}},{"name":"Lindenstr.","postalCode":"64405","locality":"Fischbachtal","municipality":{"key":"06432007","name":"Fischbachtal","type":"Kreisangehörige_Gemeinde"},"district":{"key":"06432","name":"Darmstadt-Dieburg","type":"Landkreis"},"federalState":{"key":"06","name":"Hessen"}},{"name":"Lippmannweg","postalCode":"64405","locality":"Fischbachtal","municipality":{"key":"06432007","name":"Fischbachtal","type":"Kreisangehörige_Gemeinde"},"district":{"key":"06432","name":"Darmstadt-Dieburg","type":"Landkreis"},"federalState":{"key":"06","name":"Hessen"}},{"name":"Lützelbacher Str.","postalCode":"64405","locality":"Fischbachtal","municipality":{"key":"06432007","name":"Fischbachtal","type":"Kreisangehörige_Gemeinde"},"district":{"key":"06432","name":"Darmstadt-Dieburg","type":"Landkreis"},"federalState":{"key":"06","name":"Hessen"}},{"name":"Meßbacher Str.","postalCode":"64405","locality":"Fischbachtal","municipality":{"key":"06432007","name":"Fischbachtal","type":"Kreisangehörige_Gemeinde"},"district":{"key":"06432","name":"Darmstadt-Dieburg","type":"Landkreis"},"federalState":{"key":"06","name":"Hessen"}},{"name":"Montanastr.","postalCode":"64405","locality":"Fischbachtal","municipality":{"key":"06432007","name":"Fischbachtal","type":"Kreisangehörige_Gemeinde"},"district":{"key":"06432","name":"Darmstadt-Dieburg","type":"Landkreis"},"federalState":{"key":"06","name":"Hessen"}},{"name":"Mühlgasse","postalCode":"64405","locality":"Fischbachtal","municipality":{"key":"06432007","name":"Fischbachtal","type":"Kreisangehörige_Gemeinde"},"district":{"key":"06432","name":"Darmstadt-Dieburg","type":"Landkreis"},"federalState":{"key":"06","name":"Hessen"}},{"name":"Mühlweg","postalCode":"64405","locality":"Fischbachtal","municipality":{"key":"06432007","name":"Fischbachtal","type":"Kreisangehörige_Gemeinde"},"district":{"key":"06432","name":"Darmstadt-Dieburg","type":"Landkreis"},"federalState":{"key":"06","name":"Hessen"}},{"name":"Neukirchner Weg","postalCode":"64405","locality":"Fischbachtal","municipality":{"key":"06432007","name":"Fischbachtal","type":"Kreisangehörige_Gemeinde"},"district":{"key":"06432","name":"Darmstadt-Dieburg","type":"Landkreis"},"federalState":{"key":"06","name":"Hessen"}},{"name":"Neunkirchner Weg","postalCode":"64405","locality":"Fischbachtal","municipality":{"key":"06432007","name":"Fischbachtal","type":"Kreisangehörige_Gemeinde"},"district":{"key":"06432","name":"Darmstadt-Dieburg","type":"Landkreis"},"federalState":{"key":"06","name":"Hessen"}},{"name":"Niedernhäuser Mühle","postalCode":"64405","locality":"Fischbachtal","municipality":{"key":"06432007","name":"Fischbachtal","type":"Kreisangehörige_Gemeinde"},"district":{"key":"06432","name":"Darmstadt-Dieburg","type":"Landkreis"},"federalState":{"key":"06","name":"Hessen"}},{"name":"Nonroder Str.","postalCode":"64405","locality":"Fischbachtal","municipality":{"key":"06432007","name":"Fischbachtal","type":"Kreisangehörige_Gemeinde"},"district":{"key":"06432","name":"Darmstadt-Dieburg","type":"Landkreis"},"federalState":{"key":"06","name":"Hessen"}},{"name":"Nonroder Weg","postalCode":"64405","locality":"Fischbachtal","municipality":{"key":"06432007","name":"Fischbachtal","type":"Kreisangehörige_Gemeinde"},"district":{"key":"06432","name":"Darmstadt-Dieburg","type":"Landkreis"},"federalState":{"key":"06","name":"Hessen"}},{"name":"Parkanlage","postalCode":"64405","locality":"Fischbachtal","municipality":{"key":"06432007","name":"Fischbachtal","type":"Kreisangehörige_Gemeinde"},"district":{"key":"06432","name":"Darmstadt-Dieburg","type":"Landkreis"},"federalState":{"key":"06","name":"Hessen"}},{"name":"Pfälzer Str.","postalCode":"64405","locality":"Fischbachtal","municipality":{"key":"06432007","name":"Fischbachtal","type":"Kreisangehörige_Gemeinde"},"district":{"key":"06432","name":"Darmstadt-Dieburg","type":"Landkreis"},"federalState":{"key":"06","name":"Hessen"}},{"name":"Philipp-Bert-Str.","postalCode":"64405","locality":"Fischbachtal","municipality":{"key":"06432007","name":"Fischbachtal","type":"Kreisangehörige_Gemeinde"},"district":{"key":"06432","name":"Darmstadt-Dieburg","type":"Landkreis"},"federalState":{"key":"06","name":"Hessen"}},{"name":"Professor-Schmieden-Str.","postalCode":"64405","locality":"Fischbachtal","municipality":{"key":"06432007","name":"Fischbachtal","type":"Kreisangehörige_Gemeinde"},"district":{"key":"06432","name":"Darmstadt-Dieburg","type":"Landkreis"},"federalState":{"key":"06","name":"Hessen"}},{"name":"Professor-Zutt-Weg","postalCode":"64405","locality":"Fischbachtal","municipality":{"key":"06432007","name":"Fischbachtal","type":"Kreisangehörige_Gemeinde"},"district":{"key":"06432","name":"Darmstadt-Dieburg","type":"Landkreis"},"federalState":{"key":"06","name":"Hessen"}},{"name":"Rimdidimstr.","postalCode":"64405","locality":"Fischbachtal","municipality":{"key":"06432007","name":"Fischbachtal","type":"Kreisangehörige_Gemeinde"},"district":{"key":"06432","name":"Darmstadt-Dieburg","type":"Landkreis"},"federalState":{"key":"06","name":"Hessen"}},{"name":"Rodensteiner Str.","postalCode":"64405","locality":"Fischbachtal","municipality":{"key":"06432007","name":"Fischbachtal","type":"Kreisangehörige_Gemeinde"},"district":{"key":"06432","name":"Darmstadt-Dieburg","type":"Landkreis"},"federalState":{"key":"06","name":"Hessen"}},{"name":"Rosenweg","postalCode":"64405","locality":"Fischbachtal","municipality":{"key":"06432007","name":"Fischbachtal","type":"Kreisangehörige_Gemeinde"},"district":{"key":"06432","name":"Darmstadt-Dieburg","type":"Landkreis"},"federalState":{"key":"06","name":"Hessen"}},{"name":"Schlosspark","postalCode":"64405","locality":"Fischbachtal","municipality":{"key":"06432007","name":"Fischbachtal","type":"Kreisangehörige_Gemeinde"},"district":{"key":"06432","name":"Darmstadt-Dieburg","type":"Landkreis"},"federalState":{"key":"06","name":"Hessen"}},{"name":"Schnurrgasse","postalCode":"64405","locality":"Fischbachtal","municipality":{"key":"06432007","name":"Fischbachtal","type":"Kreisangehörige_Gemeinde"},"district":{"key":"06432","name":"Darmstadt-Dieburg","type":"Landkreis"},"federalState":{"key":"06","name":"Hessen"}},{"name":"Spitzer-Stein-Weg","postalCode":"64405","locality":"Fischbachtal","municipality":{"key":"06432007","name":"Fischbachtal","type":"Kreisangehörige_Gemeinde"},"district":{"key":"06432","name":"Darmstadt-Dieburg","type":"Landkreis"},"federalState":{"key":"06","name":"Hessen"}},{"name":"Steinauer Weg","postalCode":"64405","locality":"Fischbachtal","municipality":{"key":"06432007","name":"Fischbachtal","type":"Kreisangehörige_Gemeinde"},"district":{"key":"06432","name":"Darmstadt-Dieburg","type":"Landkreis"},"federalState":{"key":"06","name":"Hessen"}},{"name":"Tannenweg","postalCode":"64405","locality":"Fischbachtal","municipality":{"key":"06432007","name":"Fischbachtal","type":"Kreisangehörige_Gemeinde"},"district":{"key":"06432","name":"Darmstadt-Dieburg","type":"Landkreis"},"federalState":{"key":"06","name":"Hessen"}},{"name":"Teichäcker","postalCode":"64405","locality":"Fischbachtal","municipality":{"key":"06432007","name":"Fischbachtal","type":"Kreisangehörige_Gemeinde"},"district":{"key":"06432","name":"Darmstadt-Dieburg","type":"Landkreis"},"federalState":{"key":"06","name":"Hessen"}},{"name":"Waldstr.","postalCode":"64405","locality":"Fischbachtal","municipality":{"key":"06432007","name":"Fischbachtal","type":"Kreisangehörige_Gemeinde"},"district":{"key":"06432","name":"Darmstadt-Dieburg","type":"Landkreis"},"federalState":{"key":"06","name":"Hessen"}},{"name":"Weinweg","postalCode":"64405","locality":"Fischbachtal","municipality":{"key":"06432007","name":"Fischbachtal","type":"Kreisangehörige_Gemeinde"},"district":{"key":"06432","name":"Darmstadt-Dieburg","type":"Landkreis"},"federalState":{"key":"06","name":"Hessen"}},{"name":"Wersauer Weg","postalCode":"64405","locality":"Fischbachtal","municipality":{"key":"06432007","name":"Fischbachtal","type":"Kreisangehörige_Gemeinde"},"district":{"key":"06432","name":"Darmstadt-Dieburg","type":"Landkreis"},"federalState":{"key":"06","name":"Hessen"}},{"name":"Wiesenpfad","postalCode":"64405","locality":"Fischbachtal","municipality":{"key":"06432007","name":"Fischbachtal","type":"Kreisangehörige_Gemeinde"},"district":{"key":"06432","name":"Darmstadt-Dieburg","type":"Landkreis"},"federalState":{"key":"06","name":"Hessen"}},{"name":"Wiesenstr.","postalCode":"64405","locality":"Fischbachtal","municipality":{"key":"06432007","name":"Fischbachtal","type":"Kreisangehörige_Gemeinde"},"district":{"key":"06432","name":"Darmstadt-Dieburg","type":"Landkreis"},"federalState":{"key":"06","name":"Hessen"}},]