[{"name":"Am Anger","postalCode":"84187","locality":"Weng","municipality":{"key":"09274188","name":"Weng","type":"Kreisangehörige_Gemeinde"},"district":{"key":"09274","name":"Landshut","type":"Landkreis"},"federalState":{"key":"09","name":"Bayern"}},{"name":"Am Freising","postalCode":"84187","locality":"Weng","municipality":{"key":"09274188","name":"Weng","type":"Kreisangehörige_Gemeinde"},"district":{"key":"09274","name":"Landshut","type":"Landkreis"},"federalState":{"key":"09","name":"Bayern"}},{"name":"Am Hopfengarten","postalCode":"84187","locality":"Weng","municipality":{"key":"09274188","name":"Weng","type":"Kreisangehörige_Gemeinde"},"district":{"key":"09274","name":"Landshut","type":"Landkreis"},"federalState":{"key":"09","name":"Bayern"}},{"name":"Am Kirchenring","postalCode":"84187","locality":"Weng","municipality":{"key":"09274188","name":"Weng","type":"Kreisangehörige_Gemeinde"},"district":{"key":"09274","name":"Landshut","type":"Landkreis"},"federalState":{"key":"09","name":"Bayern"}},{"name":"Am Schöllgraben","postalCode":"84187","locality":"Weng","municipality":{"key":"09274188","name":"Weng","type":"Kreisangehörige_Gemeinde"},"district":{"key":"09274","name":"Landshut","type":"Landkreis"},"federalState":{"key":"09","name":"Bayern"}},{"name":"Anderweg","postalCode":"84187","locality":"Weng","municipality":{"key":"09274188","name":"Weng","type":"Kreisangehörige_Gemeinde"},"district":{"key":"09274","name":"Landshut","type":"Landkreis"},"federalState":{"key":"09","name":"Bayern"}},{"name":"Bachstr.","postalCode":"84187","locality":"Weng","municipality":{"key":"09274188","name":"Weng","type":"Kreisangehörige_Gemeinde"},"district":{"key":"09274","name":"Landshut","type":"Landkreis"},"federalState":{"key":"09","name":"Bayern"}},{"name":"Bäckergasse","postalCode":"84187","locality":"Weng","municipality":{"key":"09274188","name":"Weng","type":"Kreisangehörige_Gemeinde"},"district":{"key":"09274","name":"Landshut","type":"Landkreis"},"federalState":{"key":"09","name":"Bayern"}},{"name":"Bajuwarenring","postalCode":"84187","locality":"Weng","municipality":{"key":"09274188","name":"Weng","type":"Kreisangehörige_Gemeinde"},"district":{"key":"09274","name":"Landshut","type":"Landkreis"},"federalState":{"key":"09","name":"Bayern"}},{"name":"Barbaraweg","postalCode":"84187","locality":"Weng","municipality":{"key":"09274188","name":"Weng","type":"Kreisangehörige_Gemeinde"},"district":{"key":"09274","name":"Landshut","type":"Landkreis"},"federalState":{"key":"09","name":"Bayern"}},{"name":"Berggassl","postalCode":"84187","locality":"Weng","municipality":{"key":"09274188","name":"Weng","type":"Kreisangehörige_Gemeinde"},"district":{"key":"09274","name":"Landshut","type":"Landkreis"},"federalState":{"key":"09","name":"Bayern"}},{"name":"Bräugasse","postalCode":"84187","locality":"Weng","municipality":{"key":"09274188","name":"Weng","type":"Kreisangehörige_Gemeinde"},"district":{"key":"09274","name":"Landshut","type":"Landkreis"},"federalState":{"key":"09","name":"Bayern"}},{"name":"Brunnenweg","postalCode":"84187","locality":"Weng","municipality":{"key":"09274188","name":"Weng","type":"Kreisangehörige_Gemeinde"},"district":{"key":"09274","name":"Landshut","type":"Landkreis"},"federalState":{"key":"09","name":"Bayern"}},{"name":"Bucher Str.","postalCode":"84187","locality":"Weng","municipality":{"key":"09274188","name":"Weng","type":"Kreisangehörige_Gemeinde"},"district":{"key":"09274","name":"Landshut","type":"Landkreis"},"federalState":{"key":"09","name":"Bayern"}},{"name":"Carl-Wittmann-Weg","postalCode":"84036","locality":"Landshut","municipality":{"key":"09261000","name":"Landshut","type":"Kreisfreie_Stadt"},"district":{"key":"09261","name":"Landshut","type":"Kreisfreie_Stadt"},"federalState":{"key":"09","name":"Bayern"}},{"name":"Carossaweg","postalCode":"84028","locality":"Landshut","municipality":{"key":"09261000","name":"Landshut","type":"Kreisfreie_Stadt"},"district":{"key":"09261","name":"Landshut","type":"Kreisfreie_Stadt"},"federalState":{"key":"09","name":"Bayern"}},{"name":"Chemnitzer Str.","postalCode":"84036","locality":"Landshut","municipality":{"key":"09261000","name":"Landshut","type":"Kreisfreie_Stadt"},"district":{"key":"09261","name":"Landshut","type":"Kreisfreie_Stadt"},"federalState":{"key":"09","name":"Bayern"}},{"name":"Christoph-Dorner-Str.","postalCode":"84028","locality":"Landshut","municipality":{"key":"09261000","name":"Landshut","type":"Kreisfreie_Stadt"},"district":{"key":"09261","name":"Landshut","type":"Kreisfreie_Stadt"},"federalState":{"key":"09","name":"Bayern"}},{"name":"Clara-Viebig-Str.","postalCode":"84032","locality":"Landshut","municipality":{"key":"09261000","name":"Landshut","type":"Kreisfreie_Stadt"},"district":{"key":"09261","name":"Landshut","type":"Kreisfreie_Stadt"},"federalState":{"key":"09","name":"Bayern"}},{"name":"Clemens-Brentano-Str.","postalCode":"84034","locality":"Landshut","municipality":{"key":"09261000","name":"Landshut","type":"Kreisfreie_Stadt"},"district":{"key":"09261","name":"Landshut","type":"Kreisfreie_Stadt"},"federalState":{"key":"09","name":"Bayern"}},{"name":"Dreifaltigkeitsberg","postalCode":"84187","locality":"Weng","municipality":{"key":"09274188","name":"Weng","type":"Kreisangehörige_Gemeinde"},"district":{"key":"09274","name":"Landshut","type":"Landkreis"},"federalState":{"key":"09","name":"Bayern"}},{"name":"Eberhard-Koller-Str.","postalCode":"84036","locality":"Landshut","municipality":{"key":"09261000","name":"Landshut","type":"Kreisfreie_Stadt"},"district":{"key":"09261","name":"Landshut","type":"Kreisfreie_Stadt"},"federalState":{"key":"09","name":"Bayern"}},{"name":"Ebertstr.","postalCode":"84032","locality":"Landshut","municipality":{"key":"09261000","name":"Landshut","type":"Kreisfreie_Stadt"},"district":{"key":"09261","name":"Landshut","type":"Kreisfreie_Stadt"},"federalState":{"key":"09","name":"Bayern"}},{"name":"Edelweißstr.","postalCode":"84032","locality":"Landshut","municipality":{"key":"09261000","name":"Landshut","type":"Kreisfreie_Stadt"},"district":{"key":"09261","name":"Landshut","type":"Kreisfreie_Stadt"},"federalState":{"key":"09","name":"Bayern"}},{"name":"Edmund-Jörg-Str.","postalCode":"84036","locality":"Landshut","municipality":{"key":"09261000","name":"Landshut","type":"Kreisfreie_Stadt"},"district":{"key":"09261","name":"Landshut","type":"Kreisfreie_Stadt"},"federalState":{"key":"09","name":"Bayern"}},{"name":"Eichendorffstr.","postalCode":"84036","locality":"Landshut","municipality":{"key":"09261000","name":"Landshut","type":"Kreisfreie_Stadt"},"district":{"key":"09261","name":"Landshut","type":"Kreisfreie_Stadt"},"federalState":{"key":"09","name":"Bayern"}},{"name":"Eichengrube","postalCode":"84036","locality":"Landshut","municipality":{"key":"09261000","name":"Landshut","type":"Kreisfreie_Stadt"},"district":{"key":"09261","name":"Landshut","type":"Kreisfreie_Stadt"},"federalState":{"key":"09","name":"Bayern"}},{"name":"Eichenstr.","postalCode":"84032","locality":"Landshut","municipality":{"key":"09261000","name":"Landshut","type":"Kreisfreie_Stadt"},"district":{"key":"09261","name":"Landshut","type":"Kreisfreie_Stadt"},"federalState":{"key":"09","name":"Bayern"}},{"name":"Einselestr.","postalCode":"84034","locality":"Landshut","municipality":{"key":"09261000","name":"Landshut","type":"Kreisfreie_Stadt"},"district":{"key":"09261","name":"Landshut","type":"Kreisfreie_Stadt"},"federalState":{"key":"09","name":"Bayern"}},{"name":"Eisgrubweg","postalCode":"84036","locality":"Landshut","municipality":{"key":"09261000","name":"Landshut","type":"Kreisfreie_Stadt"},"district":{"key":"09261","name":"Landshut","type":"Kreisfreie_Stadt"},"federalState":{"key":"09","name":"Bayern"}},{"name":"Elbestr.","postalCode":"84036","locality":"Landshut","municipality":{"key":"09261000","name":"Landshut","type":"Kreisfreie_Stadt"},"district":{"key":"09261","name":"Landshut","type":"Kreisfreie_Stadt"},"federalState":{"key":"09","name":"Bayern"}},{"name":"Elisabethstr.","postalCode":"84032","locality":"Landshut","municipality":{"key":"09261000","name":"Landshut","type":"Kreisfreie_Stadt"},"district":{"key":"09261","name":"Landshut","type":"Kreisfreie_Stadt"},"federalState":{"key":"09","name":"Bayern"}},{"name":"Ellermühle","postalCode":"84034","locality":"Landshut","municipality":{"key":"09261000","name":"Landshut","type":"Kreisfreie_Stadt"},"district":{"key":"09261","name":"Landshut","type":"Kreisfreie_Stadt"},"federalState":{"key":"09","name":"Bayern"}},{"name":"Elritzenweg","postalCode":"84036","locality":"Landshut","municipality":{"key":"09261000","name":"Landshut","type":"Kreisfreie_Stadt"},"district":{"key":"09261","name":"Landshut","type":"Kreisfreie_Stadt"},"federalState":{"key":"09","name":"Bayern"}},{"name":"Englbergweg","postalCode":"84036","locality":"Landshut","municipality":{"key":"09261000","name":"Landshut","type":"Kreisfreie_Stadt"},"district":{"key":"09261","name":"Landshut","type":"Kreisfreie_Stadt"},"federalState":{"key":"09","name":"Bayern"}},{"name":"Englmeierweg","postalCode":"84036","locality":"Landshut","municipality":{"key":"09261000","name":"Landshut","type":"Kreisfreie_Stadt"},"district":{"key":"09261","name":"Landshut","type":"Kreisfreie_Stadt"},"federalState":{"key":"09","name":"Bayern"}},{"name":"Enzianstr.","postalCode":"84032","locality":"Landshut","municipality":{"key":"09261000","name":"Landshut","type":"Kreisfreie_Stadt"},"district":{"key":"09261","name":"Landshut","type":"Kreisfreie_Stadt"},"federalState":{"key":"09","name":"Bayern"}},{"name":"Erfurter Weg","postalCode":"84036","locality":"Landshut","municipality":{"key":"09261000","name":"Landshut","type":"Kreisfreie_Stadt"},"district":{"key":"09261","name":"Landshut","type":"Kreisfreie_Stadt"},"federalState":{"key":"09","name":"Bayern"}},{"name":"Ergoldinger Str.","postalCode":"84030","locality":"Landshut","municipality":{"key":"09261000","name":"Landshut","type":"Kreisfreie_Stadt"},"district":{"key":"09261","name":"Landshut","type":"Kreisfreie_Stadt"},"federalState":{"key":"09","name":"Bayern"}},{"name":"Erhardisteg","postalCode":"84036","locality":"Landshut","municipality":{"key":"09261000","name":"Landshut","type":"Kreisfreie_Stadt"},"district":{"key":"09261","name":"Landshut","type":"Kreisfreie_Stadt"},"federalState":{"key":"09","name":"Bayern"}},{"name":"Erikastr.","postalCode":"84032","locality":"Landshut","municipality":{"key":"09261000","name":"Landshut","type":"Kreisfreie_Stadt"},"district":{"key":"09261","name":"Landshut","type":"Kreisfreie_Stadt"},"federalState":{"key":"09","name":"Bayern"}},{"name":"Erlenstr.","postalCode":"84032","locality":"Landshut","municipality":{"key":"09261000","name":"Landshut","type":"Kreisfreie_Stadt"},"district":{"key":"09261","name":"Landshut","type":"Kreisfreie_Stadt"},"federalState":{"key":"09","name":"Bayern"}},{"name":"Ermlandweg","postalCode":"84028","locality":"Landshut","municipality":{"key":"09261000","name":"Landshut","type":"Kreisfreie_Stadt"},"district":{"key":"09261","name":"Landshut","type":"Kreisfreie_Stadt"},"federalState":{"key":"09","name":"Bayern"}},{"name":"Eschenweg","postalCode":"84032","locality":"Landshut","municipality":{"key":"09261000","name":"Landshut","type":"Kreisfreie_Stadt"},"district":{"key":"09261","name":"Landshut","type":"Kreisfreie_Stadt"},"federalState":{"key":"09","name":"Bayern"}},{"name":"Ettenkoferweg","postalCode":"84034","locality":"Landshut","municipality":{"key":"09261000","name":"Landshut","type":"Kreisfreie_Stadt"},"district":{"key":"09261","name":"Landshut","type":"Kreisfreie_Stadt"},"federalState":{"key":"09","name":"Bayern"}},{"name":"Eulenweg","postalCode":"84036","locality":"Landshut","municipality":{"key":"09261000","name":"Landshut","type":"Kreisfreie_Stadt"},"district":{"key":"09261","name":"Landshut","type":"Kreisfreie_Stadt"},"federalState":{"key":"09","name":"Bayern"}},{"name":"Europagarten","postalCode":"84028","locality":"Landshut","municipality":{"key":"09261000","name":"Landshut","type":"Kreisfreie_Stadt"},"district":{"key":"09261","name":"Landshut","type":"Kreisfreie_Stadt"},"federalState":{"key":"09","name":"Bayern"}},{"name":"Freihauser Str.","postalCode":"84187","locality":"Weng","municipality":{"key":"09274188","name":"Weng","type":"Kreisangehörige_Gemeinde"},"district":{"key":"09274","name":"Landshut","type":"Landkreis"},"federalState":{"key":"09","name":"Bayern"}},{"name":"Friedhofstr.","postalCode":"84187","locality":"Weng","municipality":{"key":"09274188","name":"Weng","type":"Kreisangehörige_Gemeinde"},"district":{"key":"09274","name":"Landshut","type":"Landkreis"},"federalState":{"key":"09","name":"Bayern"}},{"name":"Gabelweg","postalCode":"84187","locality":"Weng","municipality":{"key":"09274188","name":"Weng","type":"Kreisangehörige_Gemeinde"},"district":{"key":"09274","name":"Landshut","type":"Landkreis"},"federalState":{"key":"09","name":"Bayern"}},{"name":"Halbergstr.","postalCode":"84187","locality":"Weng","municipality":{"key":"09274188","name":"Weng","type":"Kreisangehörige_Gemeinde"},"district":{"key":"09274","name":"Landshut","type":"Landkreis"},"federalState":{"key":"09","name":"Bayern"}},{"name":"Hauptstr.","postalCode":"84187","locality":"Weng","municipality":{"key":"09274188","name":"Weng","type":"Kreisangehörige_Gemeinde"},"district":{"key":"09274","name":"Landshut","type":"Landkreis"},"federalState":{"key":"09","name":"Bayern"}},{"name":"Heydamweg","postalCode":"84187","locality":"Weng","municipality":{"key":"09274188","name":"Weng","type":"Kreisangehörige_Gemeinde"},"district":{"key":"09274","name":"Landshut","type":"Landkreis"},"federalState":{"key":"09","name":"Bayern"}},{"name":"Höhenweg","postalCode":"84187","locality":"Weng","municipality":{"key":"09274188","name":"Weng","type":"Kreisangehörige_Gemeinde"},"district":{"key":"09274","name":"Landshut","type":"Landkreis"},"federalState":{"key":"09","name":"Bayern"}},{"name":"Hösacker Str.","postalCode":"84187","locality":"Weng","municipality":{"key":"09274188","name":"Weng","type":"Kreisangehörige_Gemeinde"},"district":{"key":"09274","name":"Landshut","type":"Landkreis"},"federalState":{"key":"09","name":"Bayern"}},{"name":"Im Moos","postalCode":"84187","locality":"Weng","municipality":{"key":"09274188","name":"Weng","type":"Kreisangehörige_Gemeinde"},"district":{"key":"09274","name":"Landshut","type":"Landkreis"},"federalState":{"key":"09","name":"Bayern"}},{"name":"Jakob-Mieslinger-Str.","postalCode":"84034","locality":"Landshut","municipality":{"key":"09261000","name":"Landshut","type":"Kreisfreie_Stadt"},"district":{"key":"09261","name":"Landshut","type":"Kreisfreie_Stadt"},"federalState":{"key":"09","name":"Bayern"}},{"name":"Jennerstr.","postalCode":"84034","locality":"Landshut","municipality":{"key":"09261000","name":"Landshut","type":"Kreisfreie_Stadt"},"district":{"key":"09261","name":"Landshut","type":"Kreisfreie_Stadt"},"federalState":{"key":"09","name":"Bayern"}},{"name":"Jodoksgasse","postalCode":"84028","locality":"Landshut","municipality":{"key":"09261000","name":"Landshut","type":"Kreisfreie_Stadt"},"district":{"key":"09261","name":"Landshut","type":"Kreisfreie_Stadt"},"federalState":{"key":"09","name":"Bayern"}},{"name":"Johann-A.-Schmeller-Str.","postalCode":"84032","locality":"Landshut","municipality":{"key":"09261000","name":"Landshut","type":"Kreisfreie_Stadt"},"district":{"key":"09261","name":"Landshut","type":"Kreisfreie_Stadt"},"federalState":{"key":"09","name":"Bayern"}},{"name":"Johann-Hengl-Str.","postalCode":"84036","locality":"Landshut","municipality":{"key":"09261000","name":"Landshut","type":"Kreisfreie_Stadt"},"district":{"key":"09261","name":"Landshut","type":"Kreisfreie_Stadt"},"federalState":{"key":"09","name":"Bayern"}},{"name":"Johannisstr.","postalCode":"84034","locality":"Landshut","municipality":{"key":"09261000","name":"Landshut","type":"Kreisfreie_Stadt"},"district":{"key":"09261","name":"Landshut","type":"Kreisfreie_Stadt"},"federalState":{"key":"09","name":"Bayern"}},{"name":"Johann-Weiß-Weg","postalCode":"84028","locality":"Landshut","municipality":{"key":"09261000","name":"Landshut","type":"Kreisfreie_Stadt"},"district":{"key":"09261","name":"Landshut","type":"Kreisfreie_Stadt"},"federalState":{"key":"09","name":"Bayern"}},{"name":"Jörg-Breu-Str.","postalCode":"84034","locality":"Landshut","municipality":{"key":"09261000","name":"Landshut","type":"Kreisfreie_Stadt"},"district":{"key":"09261","name":"Landshut","type":"Kreisfreie_Stadt"},"federalState":{"key":"09","name":"Bayern"}},{"name":"Josef-Bergler-Str.","postalCode":"84034","locality":"Landshut","municipality":{"key":"09261000","name":"Landshut","type":"Kreisfreie_Stadt"},"district":{"key":"09261","name":"Landshut","type":"Kreisfreie_Stadt"},"federalState":{"key":"09","name":"Bayern"}},{"name":"Josef-Deimer-Tunnel","postalCode":"84028","locality":"Landshut","municipality":{"key":"09261000","name":"Landshut","type":"Kreisfreie_Stadt"},"district":{"key":"09261","name":"Landshut","type":"Kreisfreie_Stadt"},"federalState":{"key":"09","name":"Bayern"}},{"name":"Josef-Deimer-Tunnel","postalCode":"84036","locality":"Landshut","municipality":{"key":"09261000","name":"Landshut","type":"Kreisfreie_Stadt"},"district":{"key":"09261","name":"Landshut","type":"Kreisfreie_Stadt"},"federalState":{"key":"09","name":"Bayern"}},{"name":"Josef-Götz-Str.","postalCode":"84034","locality":"Landshut","municipality":{"key":"09261000","name":"Landshut","type":"Kreisfreie_Stadt"},"district":{"key":"09261","name":"Landshut","type":"Kreisfreie_Stadt"},"federalState":{"key":"09","name":"Bayern"}},{"name":"Joseph-Schlicht-Str.","postalCode":"84032","locality":"Landshut","municipality":{"key":"09261000","name":"Landshut","type":"Kreisfreie_Stadt"},"district":{"key":"09261","name":"Landshut","type":"Kreisfreie_Stadt"},"federalState":{"key":"09","name":"Bayern"}},{"name":"Judithstr.","postalCode":"84032","locality":"Landshut","municipality":{"key":"09261000","name":"Landshut","type":"Kreisfreie_Stadt"},"district":{"key":"09261","name":"Landshut","type":"Kreisfreie_Stadt"},"federalState":{"key":"09","name":"Bayern"}},{"name":"Jürgen-Schumann-Str.","postalCode":"84034","locality":"Landshut","municipality":{"key":"09261000","name":"Landshut","type":"Kreisfreie_Stadt"},"district":{"key":"09261","name":"Landshut","type":"Kreisfreie_Stadt"},"federalState":{"key":"09","name":"Bayern"}},{"name":"Kapellenstr.","postalCode":"84187","locality":"Weng","municipality":{"key":"09274188","name":"Weng","type":"Kreisangehörige_Gemeinde"},"district":{"key":"09274","name":"Landshut","type":"Landkreis"},"federalState":{"key":"09","name":"Bayern"}},{"name":"Kirchgasse","postalCode":"84187","locality":"Weng","municipality":{"key":"09274188","name":"Weng","type":"Kreisangehörige_Gemeinde"},"district":{"key":"09274","name":"Landshut","type":"Landkreis"},"federalState":{"key":"09","name":"Bayern"}},{"name":"Köllnbacher Str.","postalCode":"84187","locality":"Weng","municipality":{"key":"09274188","name":"Weng","type":"Kreisangehörige_Gemeinde"},"district":{"key":"09274","name":"Landshut","type":"Landkreis"},"federalState":{"key":"09","name":"Bayern"}},{"name":"Landshuter Str.","postalCode":"84187","locality":"Weng","municipality":{"key":"09274188","name":"Weng","type":"Kreisangehörige_Gemeinde"},"district":{"key":"09274","name":"Landshut","type":"Landkreis"},"federalState":{"key":"09","name":"Bayern"}},{"name":"Lärchenstr.","postalCode":"84187","locality":"Weng","municipality":{"key":"09274188","name":"Weng","type":"Kreisangehörige_Gemeinde"},"district":{"key":"09274","name":"Landshut","type":"Landkreis"},"federalState":{"key":"09","name":"Bayern"}},{"name":"Lindenstr.","postalCode":"84187","locality":"Weng","municipality":{"key":"09274188","name":"Weng","type":"Kreisangehörige_Gemeinde"},"district":{"key":"09274","name":"Landshut","type":"Landkreis"},"federalState":{"key":"09","name":"Bayern"}},{"name":"Moosberger Str.","postalCode":"84187","locality":"Weng","municipality":{"key":"09274188","name":"Weng","type":"Kreisangehörige_Gemeinde"},"district":{"key":"09274","name":"Landshut","type":"Landkreis"},"federalState":{"key":"09","name":"Bayern"}},{"name":"Moosweg","postalCode":"84187","locality":"Weng","municipality":{"key":"09274188","name":"Weng","type":"Kreisangehörige_Gemeinde"},"district":{"key":"09274","name":"Landshut","type":"Landkreis"},"federalState":{"key":"09","name":"Bayern"}},{"name":"Nußbaumweg","postalCode":"84187","locality":"Weng","municipality":{"key":"09274188","name":"Weng","type":"Kreisangehörige_Gemeinde"},"district":{"key":"09274","name":"Landshut","type":"Landkreis"},"federalState":{"key":"09","name":"Bayern"}},{"name":"Oberbreitenauer Str.","postalCode":"84030","locality":"Landshut","municipality":{"key":"09261000","name":"Landshut","type":"Kreisfreie_Stadt"},"district":{"key":"09261","name":"Landshut","type":"Kreisfreie_Stadt"},"federalState":{"key":"09","name":"Bayern"}},{"name":"Obere Freyung","postalCode":"84028","locality":"Landshut","municipality":{"key":"09261000","name":"Landshut","type":"Kreisfreie_Stadt"},"district":{"key":"09261","name":"Landshut","type":"Kreisfreie_Stadt"},"federalState":{"key":"09","name":"Bayern"}},{"name":"Obere Liebenau","postalCode":"84034","locality":"Landshut","municipality":{"key":"09261000","name":"Landshut","type":"Kreisfreie_Stadt"},"district":{"key":"09261","name":"Landshut","type":"Kreisfreie_Stadt"},"federalState":{"key":"09","name":"Bayern"}},{"name":"Obere Wöhrstr.","postalCode":"84034","locality":"Landshut","municipality":{"key":"09261000","name":"Landshut","type":"Kreisfreie_Stadt"},"district":{"key":"09261","name":"Landshut","type":"Kreisfreie_Stadt"},"federalState":{"key":"09","name":"Bayern"}},{"name":"Oberhoferweg","postalCode":"84028","locality":"Landshut","municipality":{"key":"09261000","name":"Landshut","type":"Kreisfreie_Stadt"},"district":{"key":"09261","name":"Landshut","type":"Kreisfreie_Stadt"},"federalState":{"key":"09","name":"Bayern"}},{"name":"Oberjochweg","postalCode":"84034","locality":"Landshut","municipality":{"key":"09261000","name":"Landshut","type":"Kreisfreie_Stadt"},"district":{"key":"09261","name":"Landshut","type":"Kreisfreie_Stadt"},"federalState":{"key":"09","name":"Bayern"}},{"name":"Oberndorferstr.","postalCode":"84032","locality":"Landshut","municipality":{"key":"09261000","name":"Landshut","type":"Kreisfreie_Stadt"},"district":{"key":"09261","name":"Landshut","type":"Kreisfreie_Stadt"},"federalState":{"key":"09","name":"Bayern"}},{"name":"Oberpaurpassage","postalCode":"84028","locality":"Landshut","municipality":{"key":"09261000","name":"Landshut","type":"Kreisfreie_Stadt"},"district":{"key":"09261","name":"Landshut","type":"Kreisfreie_Stadt"},"federalState":{"key":"09","name":"Bayern"}},{"name":"Oberpaurpassage","postalCode":"84036","locality":"Landshut","municipality":{"key":"09261000","name":"Landshut","type":"Kreisfreie_Stadt"},"district":{"key":"09261","name":"Landshut","type":"Kreisfreie_Stadt"},"federalState":{"key":"09","name":"Bayern"}},{"name":"Oberthweg","postalCode":"84034","locality":"Landshut","municipality":{"key":"09261000","name":"Landshut","type":"Kreisfreie_Stadt"},"district":{"key":"09261","name":"Landshut","type":"Kreisfreie_Stadt"},"federalState":{"key":"09","name":"Bayern"}},{"name":"Oderstr.","postalCode":"84036","locality":"Landshut","municipality":{"key":"09261000","name":"Landshut","type":"Kreisfreie_Stadt"},"district":{"key":"09261","name":"Landshut","type":"Kreisfreie_Stadt"},"federalState":{"key":"09","name":"Bayern"}},{"name":"Offenbachstr.","postalCode":"84032","locality":"Landshut","municipality":{"key":"09261000","name":"Landshut","type":"Kreisfreie_Stadt"},"district":{"key":"09261","name":"Landshut","type":"Kreisfreie_Stadt"},"federalState":{"key":"09","name":"Bayern"}},{"name":"Orgelmachergasse","postalCode":"84036","locality":"Landshut","municipality":{"key":"09261000","name":"Landshut","type":"Kreisfreie_Stadt"},"district":{"key":"09261","name":"Landshut","type":"Kreisfreie_Stadt"},"federalState":{"key":"09","name":"Bayern"}},{"name":"Orlando-Di-Lasso-Str.","postalCode":"84034","locality":"Landshut","municipality":{"key":"09261000","name":"Landshut","type":"Kreisfreie_Stadt"},"district":{"key":"09261","name":"Landshut","type":"Kreisfreie_Stadt"},"federalState":{"key":"09","name":"Bayern"}},{"name":"Osserstr.","postalCode":"84030","locality":"Landshut","municipality":{"key":"09261000","name":"Landshut","type":"Kreisfreie_Stadt"},"district":{"key":"09261","name":"Landshut","type":"Kreisfreie_Stadt"},"federalState":{"key":"09","name":"Bayern"}},{"name":"Ottostr.","postalCode":"84030","locality":"Landshut","municipality":{"key":"09261000","name":"Landshut","type":"Kreisfreie_Stadt"},"district":{"key":"09261","name":"Landshut","type":"Kreisfreie_Stadt"},"federalState":{"key":"09","name":"Bayern"}},{"name":"Pestendorf","postalCode":"84187","locality":"Weng","municipality":{"key":"09274188","name":"Weng","type":"Kreisangehörige_Gemeinde"},"district":{"key":"09274","name":"Landshut","type":"Landkreis"},"federalState":{"key":"09","name":"Bayern"}},{"name":"Pestendorfer Str.","postalCode":"84187","locality":"Weng","municipality":{"key":"09274188","name":"Weng","type":"Kreisangehörige_Gemeinde"},"district":{"key":"09274","name":"Landshut","type":"Landkreis"},"federalState":{"key":"09","name":"Bayern"}},{"name":"Pfarrhofstr.","postalCode":"84187","locality":"Weng","municipality":{"key":"09274188","name":"Weng","type":"Kreisangehörige_Gemeinde"},"district":{"key":"09274","name":"Landshut","type":"Landkreis"},"federalState":{"key":"09","name":"Bayern"}},{"name":"Querstr.","postalCode":"84034","locality":"Landshut","municipality":{"key":"09261000","name":"Landshut","type":"Kreisfreie_Stadt"},"district":{"key":"09261","name":"Landshut","type":"Kreisfreie_Stadt"},"federalState":{"key":"09","name":"Bayern"}},{"name":"Querweg","postalCode":"84028","locality":"Landshut","municipality":{"key":"09261000","name":"Landshut","type":"Kreisfreie_Stadt"},"district":{"key":"09261","name":"Landshut","type":"Kreisfreie_Stadt"},"federalState":{"key":"09","name":"Bayern"}},{"name":"Raffach","postalCode":"84187","locality":"Weng","municipality":{"key":"09274188","name":"Weng","type":"Kreisangehörige_Gemeinde"},"district":{"key":"09274","name":"Landshut","type":"Landkreis"},"federalState":{"key":"09","name":"Bayern"}},{"name":"Raffacher Str.","postalCode":"84187","locality":"Weng","municipality":{"key":"09274188","name":"Weng","type":"Kreisangehörige_Gemeinde"},"district":{"key":"09274","name":"Landshut","type":"Landkreis"},"federalState":{"key":"09","name":"Bayern"}},{"name":"Rimbacher Str.","postalCode":"84187","locality":"Weng","municipality":{"key":"09274188","name":"Weng","type":"Kreisangehörige_Gemeinde"},"district":{"key":"09274","name":"Landshut","type":"Landkreis"},"federalState":{"key":"09","name":"Bayern"}},{"name":"Sattlerstr.","postalCode":"84187","locality":"Weng","municipality":{"key":"09274188","name":"Weng","type":"Kreisangehörige_Gemeinde"},"district":{"key":"09274","name":"Landshut","type":"Landkreis"},"federalState":{"key":"09","name":"Bayern"}},{"name":"Schloßstr.","postalCode":"84187","locality":"Weng","municipality":{"key":"09274188","name":"Weng","type":"Kreisangehörige_Gemeinde"},"district":{"key":"09274","name":"Landshut","type":"Landkreis"},"federalState":{"key":"09","name":"Bayern"}},{"name":"Schmiedgasse","postalCode":"84187","locality":"Weng","municipality":{"key":"09274188","name":"Weng","type":"Kreisangehörige_Gemeinde"},"district":{"key":"09274","name":"Landshut","type":"Landkreis"},"federalState":{"key":"09","name":"Bayern"}},{"name":"Schulstr.","postalCode":"84187","locality":"Weng","municipality":{"key":"09274188","name":"Weng","type":"Kreisangehörige_Gemeinde"},"district":{"key":"09274","name":"Landshut","type":"Landkreis"},"federalState":{"key":"09","name":"Bayern"}},{"name":"Seegarten","postalCode":"84187","locality":"Weng","municipality":{"key":"09274188","name":"Weng","type":"Kreisangehörige_Gemeinde"},"district":{"key":"09274","name":"Landshut","type":"Landkreis"},"federalState":{"key":"09","name":"Bayern"}},{"name":"Stockbergweg","postalCode":"84187","locality":"Weng","municipality":{"key":"09274188","name":"Weng","type":"Kreisangehörige_Gemeinde"},"district":{"key":"09274","name":"Landshut","type":"Landkreis"},"federalState":{"key":"09","name":"Bayern"}},{"name":"Tal-Josaphat-Weg","postalCode":"84036","locality":"Landshut","municipality":{"key":"09261000","name":"Landshut","type":"Kreisfreie_Stadt"},"district":{"key":"09261","name":"Landshut","type":"Kreisfreie_Stadt"},"federalState":{"key":"09","name":"Bayern"}},{"name":"Tannenweg","postalCode":"84032","locality":"Landshut","municipality":{"key":"09261000","name":"Landshut","type":"Kreisfreie_Stadt"},"district":{"key":"09261","name":"Landshut","type":"Kreisfreie_Stadt"},"federalState":{"key":"09","name":"Bayern"}},{"name":"Tannhäuserweg","postalCode":"84036","locality":"Landshut","municipality":{"key":"09261000","name":"Landshut","type":"Kreisfreie_Stadt"},"district":{"key":"09261","name":"Landshut","type":"Kreisfreie_Stadt"},"federalState":{"key":"09","name":"Bayern"}},{"name":"Taubengäßchen","postalCode":"84028","locality":"Landshut","municipality":{"key":"09261000","name":"Landshut","type":"Kreisfreie_Stadt"},"district":{"key":"09261","name":"Landshut","type":"Kreisfreie_Stadt"},"federalState":{"key":"09","name":"Bayern"}},{"name":"Tauberweg","postalCode":"84036","locality":"Landshut","municipality":{"key":"09261000","name":"Landshut","type":"Kreisfreie_Stadt"},"district":{"key":"09261","name":"Landshut","type":"Kreisfreie_Stadt"},"federalState":{"key":"09","name":"Bayern"}},{"name":"Teufelsbrücke","postalCode":"84036","locality":"Landshut","municipality":{"key":"09261000","name":"Landshut","type":"Kreisfreie_Stadt"},"district":{"key":"09261","name":"Landshut","type":"Kreisfreie_Stadt"},"federalState":{"key":"09","name":"Bayern"}},{"name":"Theodor-Heuss-Str.","postalCode":"84034","locality":"Landshut","municipality":{"key":"09261000","name":"Landshut","type":"Kreisfreie_Stadt"},"district":{"key":"09261","name":"Landshut","type":"Kreisfreie_Stadt"},"federalState":{"key":"09","name":"Bayern"}},{"name":"Trampelpfad","postalCode":"84036","locality":"Landshut","municipality":{"key":"09261000","name":"Landshut","type":"Kreisfreie_Stadt"},"district":{"key":"09261","name":"Landshut","type":"Kreisfreie_Stadt"},"federalState":{"key":"09","name":"Bayern"}},{"name":"Trautlergasse","postalCode":"84036","locality":"Landshut","municipality":{"key":"09261000","name":"Landshut","type":"Kreisfreie_Stadt"},"district":{"key":"09261","name":"Landshut","type":"Kreisfreie_Stadt"},"federalState":{"key":"09","name":"Bayern"}},{"name":"Tuchwalkerstr.","postalCode":"84034","locality":"Landshut","municipality":{"key":"09261000","name":"Landshut","type":"Kreisfreie_Stadt"},"district":{"key":"09261","name":"Landshut","type":"Kreisfreie_Stadt"},"federalState":{"key":"09","name":"Bayern"}},{"name":"Tulpenstr.","postalCode":"84032","locality":"Landshut","municipality":{"key":"09261000","name":"Landshut","type":"Kreisfreie_Stadt"},"district":{"key":"09261","name":"Landshut","type":"Kreisfreie_Stadt"},"federalState":{"key":"09","name":"Bayern"}},{"name":"Uhlandstr.","postalCode":"84036","locality":"Landshut","municipality":{"key":"09261000","name":"Landshut","type":"Kreisfreie_Stadt"},"district":{"key":"09261","name":"Landshut","type":"Kreisfreie_Stadt"},"federalState":{"key":"09","name":"Bayern"}},{"name":"Ulmenstr.","postalCode":"84032","locality":"Landshut","municipality":{"key":"09261000","name":"Landshut","type":"Kreisfreie_Stadt"},"district":{"key":"09261","name":"Landshut","type":"Kreisfreie_Stadt"},"federalState":{"key":"09","name":"Bayern"}},{"name":"Untere Auenstr.","postalCode":"84036","locality":"Landshut","municipality":{"key":"09261000","name":"Landshut","type":"Kreisfreie_Stadt"},"district":{"key":"09261","name":"Landshut","type":"Kreisfreie_Stadt"},"federalState":{"key":"09","name":"Bayern"}},{"name":"Untere Schwimmschulstr.","postalCode":"84034","locality":"Landshut","municipality":{"key":"09261000","name":"Landshut","type":"Kreisfreie_Stadt"},"district":{"key":"09261","name":"Landshut","type":"Kreisfreie_Stadt"},"federalState":{"key":"09","name":"Bayern"}},{"name":"Untersbergweg","postalCode":"84034","locality":"Landshut","municipality":{"key":"09261000","name":"Landshut","type":"Kreisfreie_Stadt"},"district":{"key":"09261","name":"Landshut","type":"Kreisfreie_Stadt"},"federalState":{"key":"09","name":"Bayern"}},{"name":"Unterschönbach","postalCode":"84036","locality":"Landshut","municipality":{"key":"09261000","name":"Landshut","type":"Kreisfreie_Stadt"},"district":{"key":"09261","name":"Landshut","type":"Kreisfreie_Stadt"},"federalState":{"key":"09","name":"Bayern"}},{"name":"Veichtederpointweg","postalCode":"84036","locality":"Landshut","municipality":{"key":"09261000","name":"Landshut","type":"Kreisfreie_Stadt"},"district":{"key":"09261","name":"Landshut","type":"Kreisfreie_Stadt"},"federalState":{"key":"09","name":"Bayern"}},{"name":"Veldener Str.","postalCode":"84036","locality":"Landshut","municipality":{"key":"09261000","name":"Landshut","type":"Kreisfreie_Stadt"},"district":{"key":"09261","name":"Landshut","type":"Kreisfreie_Stadt"},"federalState":{"key":"09","name":"Bayern"}},{"name":"Volksstr.","postalCode":"84028","locality":"Landshut","municipality":{"key":"09261000","name":"Landshut","type":"Kreisfreie_Stadt"},"district":{"key":"09261","name":"Landshut","type":"Kreisfreie_Stadt"},"federalState":{"key":"09","name":"Bayern"}},{"name":"Von-Arco-Weg","postalCode":"84036","locality":"Landshut","municipality":{"key":"09261000","name":"Landshut","type":"Kreisfreie_Stadt"},"district":{"key":"09261","name":"Landshut","type":"Kreisfreie_Stadt"},"federalState":{"key":"09","name":"Bayern"}},{"name":"Von-Behring-Weg","postalCode":"84034","locality":"Landshut","municipality":{"key":"09261000","name":"Landshut","type":"Kreisfreie_Stadt"},"district":{"key":"09261","name":"Landshut","type":"Kreisfreie_Stadt"},"federalState":{"key":"09","name":"Bayern"}},{"name":"Von-Doderer-Str.","postalCode":"84036","locality":"Landshut","municipality":{"key":"09261000","name":"Landshut","type":"Kreisfreie_Stadt"},"district":{"key":"09261","name":"Landshut","type":"Kreisfreie_Stadt"},"federalState":{"key":"09","name":"Bayern"}},{"name":"Von-Hohenhausen-Str.","postalCode":"84036","locality":"Landshut","municipality":{"key":"09261000","name":"Landshut","type":"Kreisfreie_Stadt"},"district":{"key":"09261","name":"Landshut","type":"Kreisfreie_Stadt"},"federalState":{"key":"09","name":"Bayern"}},{"name":"Von-Walther-Str.","postalCode":"84034","locality":"Landshut","municipality":{"key":"09261000","name":"Landshut","type":"Kreisfreie_Stadt"},"district":{"key":"09261","name":"Landshut","type":"Kreisfreie_Stadt"},"federalState":{"key":"09","name":"Bayern"}},{"name":"Von-Zabuesnig-Str.","postalCode":"84034","locality":"Landshut","municipality":{"key":"09261000","name":"Landshut","type":"Kreisfreie_Stadt"},"district":{"key":"09261","name":"Landshut","type":"Kreisfreie_Stadt"},"federalState":{"key":"09","name":"Bayern"}},{"name":"Wagnergasse","postalCode":"84187","locality":"Weng","municipality":{"key":"09274188","name":"Weng","type":"Kreisangehörige_Gemeinde"},"district":{"key":"09274","name":"Landshut","type":"Landkreis"},"federalState":{"key":"09","name":"Bayern"}},{"name":"Wenger Str.","postalCode":"84187","locality":"Weng","municipality":{"key":"09274188","name":"Weng","type":"Kreisangehörige_Gemeinde"},"district":{"key":"09274","name":"Landshut","type":"Landkreis"},"federalState":{"key":"09","name":"Bayern"}},{"name":"Wildtonigassl","postalCode":"84187","locality":"Weng","municipality":{"key":"09274188","name":"Weng","type":"Kreisangehörige_Gemeinde"},"district":{"key":"09274","name":"Landshut","type":"Landkreis"},"federalState":{"key":"09","name":"Bayern"}},{"name":"Wimmergasse","postalCode":"84187","locality":"Weng","municipality":{"key":"09274188","name":"Weng","type":"Kreisangehörige_Gemeinde"},"district":{"key":"09274","name":"Landshut","type":"Landkreis"},"federalState":{"key":"09","name":"Bayern"}},{"name":"Zieglerstr.","postalCode":"84187","locality":"Weng","municipality":{"key":"09274188","name":"Weng","type":"Kreisangehörige_Gemeinde"},"district":{"key":"09274","name":"Landshut","type":"Landkreis"},"federalState":{"key":"09","name":"Bayern"}},{"name":"Äußere Münchener Str.","postalCode":"84036","locality":"Landshut","municipality":{"key":"09261000","name":"Landshut","type":"Kreisfreie_Stadt"},"district":{"key":"09261","name":"Landshut","type":"Kreisfreie_Stadt"},"federalState":{"key":"09","name":"Bayern"}},{"name":"Äußere Regensburger Str.","postalCode":"84030","locality":"Landshut","municipality":{"key":"09261000","name":"Landshut","type":"Kreisfreie_Stadt"},"district":{"key":"09261","name":"Landshut","type":"Kreisfreie_Stadt"},"federalState":{"key":"09","name":"Bayern"}},{"name":"Äußere Regensburger Str.","postalCode":"84034","locality":"Landshut","municipality":{"key":"09261000","name":"Landshut","type":"Kreisfreie_Stadt"},"district":{"key":"09261","name":"Landshut","type":"Kreisfreie_Stadt"},"federalState":{"key":"09","name":"Bayern"}},{"name":"Überreiterweg","postalCode":"84036","locality":"Landshut","municipality":{"key":"09261000","name":"Landshut","type":"Kreisfreie_Stadt"},"district":{"key":"09261","name":"Landshut","type":"Kreisfreie_Stadt"},"federalState":{"key":"09","name":"Bayern"}},]