[{"name":"Am Kirchweg","postalCode":"54429","locality":"Waldweiler","municipality":{"key":"07235142","name":"Waldweiler","type":"Kreisangehörige_Gemeinde"},"district":{"key":"07235","name":"Trier-Saarburg","type":"Landkreis"},"federalState":{"key":"07","name":"Rheinland-Pfalz"}},{"name":"Auf der Heide","postalCode":"54429","locality":"Waldweiler","municipality":{"key":"07235142","name":"Waldweiler","type":"Kreisangehörige_Gemeinde"},"district":{"key":"07235","name":"Trier-Saarburg","type":"Landkreis"},"federalState":{"key":"07","name":"Rheinland-Pfalz"}},{"name":"Bahnhofstr.","postalCode":"54429","locality":"Waldweiler","municipality":{"key":"07235142","name":"Waldweiler","type":"Kreisangehörige_Gemeinde"},"district":{"key":"07235","name":"Trier-Saarburg","type":"Landkreis"},"federalState":{"key":"07","name":"Rheinland-Pfalz"}},{"name":"Bilstein-Str.","postalCode":"54429","locality":"Waldweiler","municipality":{"key":"07235142","name":"Waldweiler","type":"Kreisangehörige_Gemeinde"},"district":{"key":"07235","name":"Trier-Saarburg","type":"Landkreis"},"federalState":{"key":"07","name":"Rheinland-Pfalz"}},{"name":"Feldstr.","postalCode":"54429","locality":"Waldweiler","municipality":{"key":"07235142","name":"Waldweiler","type":"Kreisangehörige_Gemeinde"},"district":{"key":"07235","name":"Trier-Saarburg","type":"Landkreis"},"federalState":{"key":"07","name":"Rheinland-Pfalz"}},{"name":"Hauptstr.","postalCode":"54429","locality":"Waldweiler","municipality":{"key":"07235142","name":"Waldweiler","type":"Kreisangehörige_Gemeinde"},"district":{"key":"07235","name":"Trier-Saarburg","type":"Landkreis"},"federalState":{"key":"07","name":"Rheinland-Pfalz"}},{"name":"Henningstr.","postalCode":"54429","locality":"Waldweiler","municipality":{"key":"07235142","name":"Waldweiler","type":"Kreisangehörige_Gemeinde"},"district":{"key":"07235","name":"Trier-Saarburg","type":"Landkreis"},"federalState":{"key":"07","name":"Rheinland-Pfalz"}},{"name":"Hunsrückhöhenstr.","postalCode":"54429","locality":"Waldweiler","municipality":{"key":"07235142","name":"Waldweiler","type":"Kreisangehörige_Gemeinde"},"district":{"key":"07235","name":"Trier-Saarburg","type":"Landkreis"},"federalState":{"key":"07","name":"Rheinland-Pfalz"}},{"name":"Manderner Str.","postalCode":"54429","locality":"Waldweiler","municipality":{"key":"07235142","name":"Waldweiler","type":"Kreisangehörige_Gemeinde"},"district":{"key":"07235","name":"Trier-Saarburg","type":"Landkreis"},"federalState":{"key":"07","name":"Rheinland-Pfalz"}},{"name":"Mühlenweg","postalCode":"54429","locality":"Waldweiler","municipality":{"key":"07235142","name":"Waldweiler","type":"Kreisangehörige_Gemeinde"},"district":{"key":"07235","name":"Trier-Saarburg","type":"Landkreis"},"federalState":{"key":"07","name":"Rheinland-Pfalz"}},{"name":"Mühlscheider Str.","postalCode":"54429","locality":"Waldweiler","municipality":{"key":"07235142","name":"Waldweiler","type":"Kreisangehörige_Gemeinde"},"district":{"key":"07235","name":"Trier-Saarburg","type":"Landkreis"},"federalState":{"key":"07","name":"Rheinland-Pfalz"}},{"name":"Neustr.","postalCode":"54429","locality":"Waldweiler","municipality":{"key":"07235142","name":"Waldweiler","type":"Kreisangehörige_Gemeinde"},"district":{"key":"07235","name":"Trier-Saarburg","type":"Landkreis"},"federalState":{"key":"07","name":"Rheinland-Pfalz"}},{"name":"Römerstr.","postalCode":"54429","locality":"Waldweiler","municipality":{"key":"07235142","name":"Waldweiler","type":"Kreisangehörige_Gemeinde"},"district":{"key":"07235","name":"Trier-Saarburg","type":"Landkreis"},"federalState":{"key":"07","name":"Rheinland-Pfalz"}},{"name":"Saarstr.","postalCode":"54429","locality":"Waldweiler","municipality":{"key":"07235142","name":"Waldweiler","type":"Kreisangehörige_Gemeinde"},"district":{"key":"07235","name":"Trier-Saarburg","type":"Landkreis"},"federalState":{"key":"07","name":"Rheinland-Pfalz"}},{"name":"Schulstr.","postalCode":"54429","locality":"Waldweiler","municipality":{"key":"07235142","name":"Waldweiler","type":"Kreisangehörige_Gemeinde"},"district":{"key":"07235","name":"Trier-Saarburg","type":"Landkreis"},"federalState":{"key":"07","name":"Rheinland-Pfalz"}},{"name":"Steinberger Str.","postalCode":"54429","locality":"Waldweiler","municipality":{"key":"07235142","name":"Waldweiler","type":"Kreisangehörige_Gemeinde"},"district":{"key":"07235","name":"Trier-Saarburg","type":"Landkreis"},"federalState":{"key":"07","name":"Rheinland-Pfalz"}},{"name":"Waldstr.","postalCode":"54429","locality":"Waldweiler","municipality":{"key":"07235142","name":"Waldweiler","type":"Kreisangehörige_Gemeinde"},"district":{"key":"07235","name":"Trier-Saarburg","type":"Landkreis"},"federalState":{"key":"07","name":"Rheinland-Pfalz"}},{"name":"Willibrordplatz","postalCode":"54429","locality":"Waldweiler","municipality":{"key":"07235142","name":"Waldweiler","type":"Kreisangehörige_Gemeinde"},"district":{"key":"07235","name":"Trier-Saarburg","type":"Landkreis"},"federalState":{"key":"07","name":"Rheinland-Pfalz"}},{"name":"Zur Huf","postalCode":"54429","locality":"Waldweiler","municipality":{"key":"07235142","name":"Waldweiler","type":"Kreisangehörige_Gemeinde"},"district":{"key":"07235","name":"Trier-Saarburg","type":"Landkreis"},"federalState":{"key":"07","name":"Rheinland-Pfalz"}},{"name":"Zur Rausch","postalCode":"54429","locality":"Waldweiler","municipality":{"key":"07235142","name":"Waldweiler","type":"Kreisangehörige_Gemeinde"},"district":{"key":"07235","name":"Trier-Saarburg","type":"Landkreis"},"federalState":{"key":"07","name":"Rheinland-Pfalz"}},]