[{"key":"10076239","name":"Chemin de Charrière","postalCode":"1869","locality":"Massongex","commune":{"key":"6215","name":"Massongex","shortName":"Massongex"},"district":{"key":"2310","name":"District de Saint-Maurice"},"canton":{"key":"23","code":"VS","name":"Valais / Wallis"},"status":"Real"},{"key":"10044029","name":"Chemin de Châtillon","postalCode":"1869","locality":"Massongex","commune":{"key":"6215","name":"Massongex","shortName":"Massongex"},"district":{"key":"2310","name":"District de Saint-Maurice"},"canton":{"key":"23","code":"VS","name":"Valais / Wallis"},"status":"Real"},{"key":"10209377","name":"Chemin de l'Abbaye","postalCode":"1869","locality":"Massongex","commune":{"key":"6215","name":"Massongex","shortName":"Massongex"},"district":{"key":"2310","name":"District de Saint-Maurice"},"canton":{"key":"23","code":"VS","name":"Valais / Wallis"},"status":"Real"},{"key":"10105466","name":"Chemin de la Place","postalCode":"1869","locality":"Massongex","commune":{"key":"6215","name":"Massongex","shortName":"Massongex"},"district":{"key":"2310","name":"District de Saint-Maurice"},"canton":{"key":"23","code":"VS","name":"Valais / Wallis"},"status":"Real"},{"key":"10184796","name":"Chemin de la Rogneuse","postalCode":"1869","locality":"Massongex","commune":{"key":"6215","name":"Massongex","shortName":"Massongex"},"district":{"key":"2310","name":"District de Saint-Maurice"},"canton":{"key":"23","code":"VS","name":"Valais / Wallis"},"status":"Real"},{"key":"10184794","name":"Chemin de Longe-Baye","postalCode":"1869","locality":"Massongex","commune":{"key":"6215","name":"Massongex","shortName":"Massongex"},"district":{"key":"2310","name":"District de Saint-Maurice"},"canton":{"key":"23","code":"VS","name":"Valais / Wallis"},"status":"Real"},{"key":"10166483","name":"Chemin des Cimes","postalCode":"1869","locality":"Massongex","commune":{"key":"6215","name":"Massongex","shortName":"Massongex"},"district":{"key":"2310","name":"District de Saint-Maurice"},"canton":{"key":"23","code":"VS","name":"Valais / Wallis"},"status":"Real"},{"key":"10258519","name":"Chemin des Ecoliers","postalCode":"1869","locality":"Massongex","commune":{"key":"6215","name":"Massongex","shortName":"Massongex"},"district":{"key":"2310","name":"District de Saint-Maurice"},"canton":{"key":"23","code":"VS","name":"Valais / Wallis"},"status":"Real"},{"key":"10044030","name":"Chemin des Eudrants","postalCode":"1869","locality":"Massongex","commune":{"key":"6215","name":"Massongex","shortName":"Massongex"},"district":{"key":"2310","name":"District de Saint-Maurice"},"canton":{"key":"23","code":"VS","name":"Valais / Wallis"},"status":"Real"},{"key":"10146946","name":"Chemin des Iles","postalCode":"1869","locality":"Massongex","commune":{"key":"6215","name":"Massongex","shortName":"Massongex"},"district":{"key":"2310","name":"District de Saint-Maurice"},"canton":{"key":"23","code":"VS","name":"Valais / Wallis"},"status":"Real"},{"key":"10258522","name":"Chemin des Libellules","postalCode":"1869","locality":"Massongex","commune":{"key":"6215","name":"Massongex","shortName":"Massongex"},"district":{"key":"2310","name":"District de Saint-Maurice"},"canton":{"key":"23","code":"VS","name":"Valais / Wallis"},"status":"Real"},{"key":"10120820","name":"Chemin des Ortex","postalCode":"1869","locality":"Massongex","commune":{"key":"6215","name":"Massongex","shortName":"Massongex"},"district":{"key":"2310","name":"District de Saint-Maurice"},"canton":{"key":"23","code":"VS","name":"Valais / Wallis"},"status":"Real"},{"key":"10044031","name":"Chemin des Paluds","postalCode":"1869","locality":"Massongex","commune":{"key":"6215","name":"Massongex","shortName":"Massongex"},"district":{"key":"2310","name":"District de Saint-Maurice"},"canton":{"key":"23","code":"VS","name":"Valais / Wallis"},"status":"Real"},{"key":"10210334","name":"Chemin des Pouettes","postalCode":"1869","locality":"Massongex","commune":{"key":"6215","name":"Massongex","shortName":"Massongex"},"district":{"key":"2310","name":"District de Saint-Maurice"},"canton":{"key":"23","code":"VS","name":"Valais / Wallis"},"status":"Real"},{"key":"10147110","name":"Chemin de St-Maurice","postalCode":"1869","locality":"Massongex","commune":{"key":"6215","name":"Massongex","shortName":"Massongex"},"district":{"key":"2310","name":"District de Saint-Maurice"},"canton":{"key":"23","code":"VS","name":"Valais / Wallis"},"status":"Real"},{"key":"10105067","name":"Chemin du Bras","postalCode":"1869","locality":"Massongex","commune":{"key":"6215","name":"Massongex","shortName":"Massongex"},"district":{"key":"2310","name":"District de Saint-Maurice"},"canton":{"key":"23","code":"VS","name":"Valais / Wallis"},"status":"Real"},{"key":"10105467","name":"Chemin du Canal","postalCode":"1869","locality":"Massongex","commune":{"key":"6215","name":"Massongex","shortName":"Massongex"},"district":{"key":"2310","name":"District de Saint-Maurice"},"canton":{"key":"23","code":"VS","name":"Valais / Wallis"},"status":"Real"},{"key":"10044032","name":"Chemin du Chépis","postalCode":"1869","locality":"Massongex","commune":{"key":"6215","name":"Massongex","shortName":"Massongex"},"district":{"key":"2310","name":"District de Saint-Maurice"},"canton":{"key":"23","code":"VS","name":"Valais / Wallis"},"status":"Real"},{"key":"10044033","name":"Chemin du Clos-Fleuri","postalCode":"1869","locality":"Massongex","commune":{"key":"6215","name":"Massongex","shortName":"Massongex"},"district":{"key":"2310","name":"District de Saint-Maurice"},"canton":{"key":"23","code":"VS","name":"Valais / Wallis"},"status":"Real"},{"key":"10105468","name":"Chemin du Grand-Clos","postalCode":"1869","locality":"Massongex","commune":{"key":"6215","name":"Massongex","shortName":"Massongex"},"district":{"key":"2310","name":"District de Saint-Maurice"},"canton":{"key":"23","code":"VS","name":"Valais / Wallis"},"status":"Real"},{"key":"10076240","name":"Chemin du Rhône","postalCode":"1869","locality":"Massongex","commune":{"key":"6215","name":"Massongex","shortName":"Massongex"},"district":{"key":"2310","name":"District de Saint-Maurice"},"canton":{"key":"23","code":"VS","name":"Valais / Wallis"},"status":"Real"},{"key":"10044034","name":"Chemin du Tonkin","postalCode":"1869","locality":"Massongex","commune":{"key":"6215","name":"Massongex","shortName":"Massongex"},"district":{"key":"2310","name":"District de Saint-Maurice"},"canton":{"key":"23","code":"VS","name":"Valais / Wallis"},"status":"Real"},{"key":"10103973","name":"Chemin En-la-Fin","postalCode":"1869","locality":"Massongex","commune":{"key":"6215","name":"Massongex","shortName":"Massongex"},"district":{"key":"2310","name":"District de Saint-Maurice"},"canton":{"key":"23","code":"VS","name":"Valais / Wallis"},"status":"Real"},{"key":"10236666","name":"Chemin Es Nex","postalCode":"1869","locality":"Massongex","commune":{"key":"6215","name":"Massongex","shortName":"Massongex"},"district":{"key":"2310","name":"District de Saint-Maurice"},"canton":{"key":"23","code":"VS","name":"Valais / Wallis"},"status":"Real"},{"key":"10044028","name":"Chemin Fin-Derrey","postalCode":"1869","locality":"Massongex","commune":{"key":"6215","name":"Massongex","shortName":"Massongex"},"district":{"key":"2310","name":"District de Saint-Maurice"},"canton":{"key":"23","code":"VS","name":"Valais / Wallis"},"status":"Real"},{"key":"10236670","name":"Chemin Pied-du-Mont","postalCode":"1869","locality":"Massongex","commune":{"key":"6215","name":"Massongex","shortName":"Massongex"},"district":{"key":"2310","name":"District de Saint-Maurice"},"canton":{"key":"23","code":"VS","name":"Valais / Wallis"},"status":"Real"},{"key":"10236674","name":"Chemin Saint-Martin","postalCode":"1869","locality":"Massongex","commune":{"key":"6215","name":"Massongex","shortName":"Massongex"},"district":{"key":"2310","name":"District de Saint-Maurice"},"canton":{"key":"23","code":"VS","name":"Valais / Wallis"},"status":"Real"},{"key":"10044040","name":"Chemin Vers-Chez-Coquet","postalCode":"1869","locality":"Massongex","commune":{"key":"6215","name":"Massongex","shortName":"Massongex"},"district":{"key":"2310","name":"District de Saint-Maurice"},"canton":{"key":"23","code":"VS","name":"Valais / Wallis"},"status":"Real"},{"key":"10069238","name":"Chemin Vers-chez-Delherse","postalCode":"1869","locality":"Massongex","commune":{"key":"6215","name":"Massongex","shortName":"Massongex"},"district":{"key":"2310","name":"District de Saint-Maurice"},"canton":{"key":"23","code":"VS","name":"Valais / Wallis"},"status":"Real"},{"key":"10068624","name":"Fontany","postalCode":"1869","locality":"Massongex","commune":{"key":"6215","name":"Massongex","shortName":"Massongex"},"district":{"key":"2310","name":"District de Saint-Maurice"},"canton":{"key":"23","code":"VS","name":"Valais / Wallis"},"status":"Real"},{"key":"10258526","name":"L'Allée Romaine","postalCode":"1869","locality":"Massongex","commune":{"key":"6215","name":"Massongex","shortName":"Massongex"},"district":{"key":"2310","name":"District de Saint-Maurice"},"canton":{"key":"23","code":"VS","name":"Valais / Wallis"},"status":"Real"},{"key":"10105474","name":"La Vorpillère","postalCode":"1869","locality":"Massongex","commune":{"key":"6215","name":"Massongex","shortName":"Massongex"},"district":{"key":"2310","name":"District de Saint-Maurice"},"canton":{"key":"23","code":"VS","name":"Valais / Wallis"},"status":"Real"},{"key":"10105066","name":"Les Moulins","postalCode":"1869","locality":"Massongex","commune":{"key":"6215","name":"Massongex","shortName":"Massongex"},"district":{"key":"2310","name":"District de Saint-Maurice"},"canton":{"key":"23","code":"VS","name":"Valais / Wallis"},"status":"Real"},{"key":"10137545","name":"Les Tardys","postalCode":"1869","locality":"Massongex","commune":{"key":"6215","name":"Massongex","shortName":"Massongex"},"district":{"key":"2310","name":"District de Saint-Maurice"},"canton":{"key":"23","code":"VS","name":"Valais / Wallis"},"status":"Real"},{"key":"10183214","name":"Passage du Biolley","postalCode":"1869","locality":"Massongex","commune":{"key":"6215","name":"Massongex","shortName":"Massongex"},"district":{"key":"2310","name":"District de Saint-Maurice"},"canton":{"key":"23","code":"VS","name":"Valais / Wallis"},"status":"Real"},{"key":"10258479","name":"Place de l'Ancienne Poste","postalCode":"1869","locality":"Massongex","commune":{"key":"6215","name":"Massongex","shortName":"Massongex"},"district":{"key":"2310","name":"District de Saint-Maurice"},"canton":{"key":"23","code":"VS","name":"Valais / Wallis"},"status":"Real"},{"key":"10058363","name":"Place de l'Eglise","postalCode":"1869","locality":"Massongex","commune":{"key":"6215","name":"Massongex","shortName":"Massongex"},"district":{"key":"2310","name":"District de Saint-Maurice"},"canton":{"key":"23","code":"VS","name":"Valais / Wallis"},"status":"Real"},{"key":"10258499","name":"Place des Fêtes","postalCode":"1869","locality":"Massongex","commune":{"key":"6215","name":"Massongex","shortName":"Massongex"},"district":{"key":"2310","name":"District de Saint-Maurice"},"canton":{"key":"23","code":"VS","name":"Valais / Wallis"},"status":"Real"},{"key":"10105469","name":"Place Gabriel-Donnet","postalCode":"1869","locality":"Massongex","commune":{"key":"6215","name":"Massongex","shortName":"Massongex"},"district":{"key":"2310","name":"District de Saint-Maurice"},"canton":{"key":"23","code":"VS","name":"Valais / Wallis"},"status":"Real"},{"key":"10103974","name":"Place Tarnaiae","postalCode":"1869","locality":"Massongex","commune":{"key":"6215","name":"Massongex","shortName":"Massongex"},"district":{"key":"2310","name":"District de Saint-Maurice"},"canton":{"key":"23","code":"VS","name":"Valais / Wallis"},"status":"Real"},{"key":"10258507","name":"Promenade de la Loënaz","postalCode":"1869","locality":"Massongex","commune":{"key":"6215","name":"Massongex","shortName":"Massongex"},"district":{"key":"2310","name":"District de Saint-Maurice"},"canton":{"key":"23","code":"VS","name":"Valais / Wallis"},"status":"Real"},{"key":"10076241","name":"Route de Chambovey","postalCode":"1869","locality":"Massongex","commune":{"key":"6215","name":"Massongex","shortName":"Massongex"},"district":{"key":"2310","name":"District de Saint-Maurice"},"canton":{"key":"23","code":"VS","name":"Valais / Wallis"},"status":"Real"},{"key":"10105473","name":"Route de Daviaz","postalCode":"1869","locality":"Massongex","commune":{"key":"6215","name":"Massongex","shortName":"Massongex"},"district":{"key":"2310","name":"District de Saint-Maurice"},"canton":{"key":"23","code":"VS","name":"Valais / Wallis"},"status":"Real"},{"key":"10189052","name":"Route de la Chapelle","postalCode":"1869","locality":"Massongex","commune":{"key":"6215","name":"Massongex","shortName":"Massongex"},"district":{"key":"2310","name":"District de Saint-Maurice"},"canton":{"key":"23","code":"VS","name":"Valais / Wallis"},"status":"Real"},{"key":"10105470","name":"Route de la Gare","postalCode":"1869","locality":"Massongex","commune":{"key":"6215","name":"Massongex","shortName":"Massongex"},"district":{"key":"2310","name":"District de Saint-Maurice"},"canton":{"key":"23","code":"VS","name":"Valais / Wallis"},"status":"Real"},{"key":"10237623","name":"Route de Prafenne","postalCode":"1869","locality":"Massongex","commune":{"key":"6215","name":"Massongex","shortName":"Massongex"},"district":{"key":"2310","name":"District de Saint-Maurice"},"canton":{"key":"23","code":"VS","name":"Valais / Wallis"},"status":"Real"},{"key":"10184795","name":"Route des Ilettes","postalCode":"1869","locality":"Massongex","commune":{"key":"6215","name":"Massongex","shortName":"Massongex"},"district":{"key":"2310","name":"District de Saint-Maurice"},"canton":{"key":"23","code":"VS","name":"Valais / Wallis"},"status":"Real"},{"key":"10044311","name":"Route de Vérossaz","postalCode":"1869","locality":"Massongex","commune":{"key":"6215","name":"Massongex","shortName":"Massongex"},"district":{"key":"2310","name":"District de Saint-Maurice"},"canton":{"key":"23","code":"VS","name":"Valais / Wallis"},"status":"Real"},{"key":"10044035","name":"Route du Chablais","postalCode":"1869","locality":"Massongex","commune":{"key":"6215","name":"Massongex","shortName":"Massongex"},"district":{"key":"2310","name":"District de Saint-Maurice"},"canton":{"key":"23","code":"VS","name":"Valais / Wallis"},"status":"Real"},{"key":"10105068","name":"Route du Peiloz","postalCode":"1869","locality":"Massongex","commune":{"key":"6215","name":"Massongex","shortName":"Massongex"},"district":{"key":"2310","name":"District de Saint-Maurice"},"canton":{"key":"23","code":"VS","name":"Valais / Wallis"},"status":"Real"},{"key":"10105471","name":"Route du Simplon","postalCode":"1869","locality":"Massongex","commune":{"key":"6215","name":"Massongex","shortName":"Massongex"},"district":{"key":"2310","name":"District de Saint-Maurice"},"canton":{"key":"23","code":"VS","name":"Valais / Wallis"},"status":"Real"},{"key":"10044036","name":"Route du Stade","postalCode":"1869","locality":"Massongex","commune":{"key":"6215","name":"Massongex","shortName":"Massongex"},"district":{"key":"2310","name":"District de Saint-Maurice"},"canton":{"key":"23","code":"VS","name":"Valais / Wallis"},"status":"Real"},{"key":"10044038","name":"Rue du Comte Riant","postalCode":"1869","locality":"Massongex","commune":{"key":"6215","name":"Massongex","shortName":"Massongex"},"district":{"key":"2310","name":"District de Saint-Maurice"},"canton":{"key":"23","code":"VS","name":"Valais / Wallis"},"status":"Real"},{"key":"10044037","name":"Rue Quartéry","postalCode":"1869","locality":"Massongex","commune":{"key":"6215","name":"Massongex","shortName":"Massongex"},"district":{"key":"2310","name":"District de Saint-Maurice"},"canton":{"key":"23","code":"VS","name":"Valais / Wallis"},"status":"Real"},{"key":"10044312","name":"Vers-chez-Combe","postalCode":"1869","locality":"Massongex","commune":{"key":"6215","name":"Massongex","shortName":"Massongex"},"district":{"key":"2310","name":"District de Saint-Maurice"},"canton":{"key":"23","code":"VS","name":"Valais / Wallis"},"status":"Real"},{"key":"10120826","name":"Vers-chez-Revet","postalCode":"1869","locality":"Massongex","commune":{"key":"6215","name":"Massongex","shortName":"Massongex"},"district":{"key":"2310","name":"District de Saint-Maurice"},"canton":{"key":"23","code":"VS","name":"Valais / Wallis"},"status":"Real"},]