[{"key":"10009820","name":"Aegelmoosweg","postalCode":"3512","locality":"Walkringen","commune":{"key":"626","name":"Walkringen","shortName":"Walkringen"},"district":{"key":"246","name":"Verwaltungskreis Bern-Mittelland"},"canton":{"key":"2","code":"BE","name":"Bern / Berne"},"status":"Real"},{"key":"10116938","name":"Bächliweg","postalCode":"3512","locality":"Walkringen","commune":{"key":"626","name":"Walkringen","shortName":"Walkringen"},"district":{"key":"246","name":"Verwaltungskreis Bern-Mittelland"},"canton":{"key":"2","code":"BE","name":"Bern / Berne"},"status":"Real"},{"key":"10175669","name":"Bahnhofstrasse","postalCode":"3512","locality":"Walkringen","commune":{"key":"626","name":"Walkringen","shortName":"Walkringen"},"district":{"key":"246","name":"Verwaltungskreis Bern-Mittelland"},"canton":{"key":"2","code":"BE","name":"Bern / Berne"},"status":"Real"},{"key":"10112799","name":"Bahnweg","postalCode":"3512","locality":"Walkringen","commune":{"key":"626","name":"Walkringen","shortName":"Walkringen"},"district":{"key":"246","name":"Verwaltungskreis Bern-Mittelland"},"canton":{"key":"2","code":"BE","name":"Bern / Berne"},"status":"Real"},{"key":"10009821","name":"Brandiswald","postalCode":"3512","locality":"Walkringen","commune":{"key":"626","name":"Walkringen","shortName":"Walkringen"},"district":{"key":"246","name":"Verwaltungskreis Bern-Mittelland"},"canton":{"key":"2","code":"BE","name":"Bern / Berne"},"status":"Real"},{"key":"10175295","name":"Brüggbach","postalCode":"3512","locality":"Walkringen","commune":{"key":"626","name":"Walkringen","shortName":"Walkringen"},"district":{"key":"246","name":"Verwaltungskreis Bern-Mittelland"},"canton":{"key":"2","code":"BE","name":"Bern / Berne"},"status":"Real"},{"key":"10112408","name":"Büel","postalCode":"3512","locality":"Walkringen","commune":{"key":"626","name":"Walkringen","shortName":"Walkringen"},"district":{"key":"246","name":"Verwaltungskreis Bern-Mittelland"},"canton":{"key":"2","code":"BE","name":"Bern / Berne"},"status":"Real"},{"key":"10085159","name":"Dornistrasse","postalCode":"3512","locality":"Walkringen","commune":{"key":"626","name":"Walkringen","shortName":"Walkringen"},"district":{"key":"246","name":"Verwaltungskreis Bern-Mittelland"},"canton":{"key":"2","code":"BE","name":"Bern / Berne"},"status":"Real"},{"key":"10060264","name":"Ebnenackerweg","postalCode":"3512","locality":"Walkringen","commune":{"key":"626","name":"Walkringen","shortName":"Walkringen"},"district":{"key":"246","name":"Verwaltungskreis Bern-Mittelland"},"canton":{"key":"2","code":"BE","name":"Bern / Berne"},"status":"Real"},{"key":"10004996","name":"Eichholz","postalCode":"3512","locality":"Walkringen","commune":{"key":"626","name":"Walkringen","shortName":"Walkringen"},"district":{"key":"246","name":"Verwaltungskreis Bern-Mittelland"},"canton":{"key":"2","code":"BE","name":"Bern / Berne"},"status":"Real"},{"key":"10004997","name":"Enetbiglen","postalCode":"3512","locality":"Walkringen","commune":{"key":"626","name":"Walkringen","shortName":"Walkringen"},"district":{"key":"246","name":"Verwaltungskreis Bern-Mittelland"},"canton":{"key":"2","code":"BE","name":"Bern / Berne"},"status":"Real"},{"key":"10004998","name":"Erli","postalCode":"3512","locality":"Walkringen","commune":{"key":"626","name":"Walkringen","shortName":"Walkringen"},"district":{"key":"246","name":"Verwaltungskreis Bern-Mittelland"},"canton":{"key":"2","code":"BE","name":"Bern / Berne"},"status":"Real"},{"key":"10085160","name":"Friedbergstrasse","postalCode":"3512","locality":"Walkringen","commune":{"key":"626","name":"Walkringen","shortName":"Walkringen"},"district":{"key":"246","name":"Verwaltungskreis Bern-Mittelland"},"canton":{"key":"2","code":"BE","name":"Bern / Berne"},"status":"Real"},{"key":"10060266","name":"Furth","postalCode":"3512","locality":"Walkringen","commune":{"key":"626","name":"Walkringen","shortName":"Walkringen"},"district":{"key":"246","name":"Verwaltungskreis Bern-Mittelland"},"canton":{"key":"2","code":"BE","name":"Bern / Berne"},"status":"Real"},{"key":"10005001","name":"Gässli","postalCode":"3512","locality":"Walkringen","commune":{"key":"626","name":"Walkringen","shortName":"Walkringen"},"district":{"key":"246","name":"Verwaltungskreis Bern-Mittelland"},"canton":{"key":"2","code":"BE","name":"Bern / Berne"},"status":"Real"},{"key":"10004999","name":"Gewerbestrasse","postalCode":"3512","locality":"Walkringen","commune":{"key":"626","name":"Walkringen","shortName":"Walkringen"},"district":{"key":"246","name":"Verwaltungskreis Bern-Mittelland"},"canton":{"key":"2","code":"BE","name":"Bern / Berne"},"status":"Real"},{"key":"10112409","name":"Golpisberg","postalCode":"3512","locality":"Walkringen","commune":{"key":"626","name":"Walkringen","shortName":"Walkringen"},"district":{"key":"246","name":"Verwaltungskreis Bern-Mittelland"},"canton":{"key":"2","code":"BE","name":"Bern / Berne"},"status":"Real"},{"key":"10005000","name":"Golpisbergstrasse","postalCode":"3512","locality":"Walkringen","commune":{"key":"626","name":"Walkringen","shortName":"Walkringen"},"district":{"key":"246","name":"Verwaltungskreis Bern-Mittelland"},"canton":{"key":"2","code":"BE","name":"Bern / Berne"},"status":"Real"},{"key":"10060268","name":"Gstein","postalCode":"3512","locality":"Walkringen","commune":{"key":"626","name":"Walkringen","shortName":"Walkringen"},"district":{"key":"246","name":"Verwaltungskreis Bern-Mittelland"},"canton":{"key":"2","code":"BE","name":"Bern / Berne"},"status":"Real"},{"key":"10085161","name":"Gumpi","postalCode":"3512","locality":"Walkringen","commune":{"key":"626","name":"Walkringen","shortName":"Walkringen"},"district":{"key":"246","name":"Verwaltungskreis Bern-Mittelland"},"canton":{"key":"2","code":"BE","name":"Bern / Berne"},"status":"Real"},{"key":"10058276","name":"Hagmatt","postalCode":"3512","locality":"Walkringen","commune":{"key":"626","name":"Walkringen","shortName":"Walkringen"},"district":{"key":"246","name":"Verwaltungskreis Bern-Mittelland"},"canton":{"key":"2","code":"BE","name":"Bern / Berne"},"status":"Real"},{"key":"10220857","name":"Hamegg","postalCode":"3512","locality":"Walkringen","commune":{"key":"626","name":"Walkringen","shortName":"Walkringen"},"district":{"key":"246","name":"Verwaltungskreis Bern-Mittelland"},"canton":{"key":"2","code":"BE","name":"Bern / Berne"},"status":"Real"},{"key":"10134027","name":"Hammeggboden","postalCode":"3512","locality":"Walkringen","commune":{"key":"626","name":"Walkringen","shortName":"Walkringen"},"district":{"key":"246","name":"Verwaltungskreis Bern-Mittelland"},"canton":{"key":"2","code":"BE","name":"Bern / Berne"},"status":"Real"},{"key":"10104706","name":"Haslerloch","postalCode":"3512","locality":"Walkringen","commune":{"key":"626","name":"Walkringen","shortName":"Walkringen"},"district":{"key":"246","name":"Verwaltungskreis Bern-Mittelland"},"canton":{"key":"2","code":"BE","name":"Bern / Berne"},"status":"Real"},{"key":"10005002","name":"Hauptstrasse","postalCode":"3512","locality":"Walkringen","commune":{"key":"626","name":"Walkringen","shortName":"Walkringen"},"district":{"key":"246","name":"Verwaltungskreis Bern-Mittelland"},"canton":{"key":"2","code":"BE","name":"Bern / Berne"},"status":"Real"},{"key":"10085162","name":"Hinterbrüggbach","postalCode":"3512","locality":"Walkringen","commune":{"key":"626","name":"Walkringen","shortName":"Walkringen"},"district":{"key":"246","name":"Verwaltungskreis Bern-Mittelland"},"canton":{"key":"2","code":"BE","name":"Bern / Berne"},"status":"Real"},{"key":"10112800","name":"Hoferrain","postalCode":"3512","locality":"Walkringen","commune":{"key":"626","name":"Walkringen","shortName":"Walkringen"},"district":{"key":"246","name":"Verwaltungskreis Bern-Mittelland"},"canton":{"key":"2","code":"BE","name":"Bern / Berne"},"status":"Real"},{"key":"10124653","name":"Kabisrain","postalCode":"3512","locality":"Walkringen","commune":{"key":"626","name":"Walkringen","shortName":"Walkringen"},"district":{"key":"246","name":"Verwaltungskreis Bern-Mittelland"},"canton":{"key":"2","code":"BE","name":"Bern / Berne"},"status":"Real"},{"key":"10116939","name":"Kehr","postalCode":"3512","locality":"Walkringen","commune":{"key":"626","name":"Walkringen","shortName":"Walkringen"},"district":{"key":"246","name":"Verwaltungskreis Bern-Mittelland"},"canton":{"key":"2","code":"BE","name":"Bern / Berne"},"status":"Real"},{"key":"10058278","name":"Kleinzihl","postalCode":"3512","locality":"Walkringen","commune":{"key":"626","name":"Walkringen","shortName":"Walkringen"},"district":{"key":"246","name":"Verwaltungskreis Bern-Mittelland"},"canton":{"key":"2","code":"BE","name":"Bern / Berne"},"status":"Real"},{"key":"10005003","name":"Kohlerhüsi","postalCode":"3512","locality":"Walkringen","commune":{"key":"626","name":"Walkringen","shortName":"Walkringen"},"district":{"key":"246","name":"Verwaltungskreis Bern-Mittelland"},"canton":{"key":"2","code":"BE","name":"Bern / Berne"},"status":"Real"},{"key":"10085163","name":"Mätteli","postalCode":"3512","locality":"Walkringen","commune":{"key":"626","name":"Walkringen","shortName":"Walkringen"},"district":{"key":"246","name":"Verwaltungskreis Bern-Mittelland"},"canton":{"key":"2","code":"BE","name":"Bern / Berne"},"status":"Real"},{"key":"10005004","name":"Metzgerhüsi","postalCode":"3512","locality":"Walkringen","commune":{"key":"626","name":"Walkringen","shortName":"Walkringen"},"district":{"key":"246","name":"Verwaltungskreis Bern-Mittelland"},"canton":{"key":"2","code":"BE","name":"Bern / Berne"},"status":"Real"},{"key":"10112410","name":"Moos","postalCode":"3512","locality":"Walkringen","commune":{"key":"626","name":"Walkringen","shortName":"Walkringen"},"district":{"key":"246","name":"Verwaltungskreis Bern-Mittelland"},"canton":{"key":"2","code":"BE","name":"Bern / Berne"},"status":"Real"},{"key":"10060272","name":"Moosweg","postalCode":"3512","locality":"Walkringen","commune":{"key":"626","name":"Walkringen","shortName":"Walkringen"},"district":{"key":"246","name":"Verwaltungskreis Bern-Mittelland"},"canton":{"key":"2","code":"BE","name":"Bern / Berne"},"status":"Real"},{"key":"10191421","name":"Morgenegg","postalCode":"3512","locality":"Walkringen","commune":{"key":"626","name":"Walkringen","shortName":"Walkringen"},"district":{"key":"246","name":"Verwaltungskreis Bern-Mittelland"},"canton":{"key":"2","code":"BE","name":"Bern / Berne"},"status":"Real"},{"key":"10005005","name":"Mühleweg","postalCode":"3512","locality":"Walkringen","commune":{"key":"626","name":"Walkringen","shortName":"Walkringen"},"district":{"key":"246","name":"Verwaltungskreis Bern-Mittelland"},"canton":{"key":"2","code":"BE","name":"Bern / Berne"},"status":"Real"},{"key":"10005006","name":"Neuhaus","postalCode":"3512","locality":"Walkringen","commune":{"key":"626","name":"Walkringen","shortName":"Walkringen"},"district":{"key":"246","name":"Verwaltungskreis Bern-Mittelland"},"canton":{"key":"2","code":"BE","name":"Bern / Berne"},"status":"Real"},{"key":"10060273","name":"Neuhausmattweg","postalCode":"3512","locality":"Walkringen","commune":{"key":"626","name":"Walkringen","shortName":"Walkringen"},"district":{"key":"246","name":"Verwaltungskreis Bern-Mittelland"},"canton":{"key":"2","code":"BE","name":"Bern / Berne"},"status":"Real"},{"key":"10005007","name":"Neunhaupt","postalCode":"3512","locality":"Walkringen","commune":{"key":"626","name":"Walkringen","shortName":"Walkringen"},"district":{"key":"246","name":"Verwaltungskreis Bern-Mittelland"},"canton":{"key":"2","code":"BE","name":"Bern / Berne"},"status":"Real"},{"key":"10085164","name":"Niederwil","postalCode":"3512","locality":"Walkringen","commune":{"key":"626","name":"Walkringen","shortName":"Walkringen"},"district":{"key":"246","name":"Verwaltungskreis Bern-Mittelland"},"canton":{"key":"2","code":"BE","name":"Bern / Berne"},"status":"Real"},{"key":"10112411","name":"Oberdorfweg","postalCode":"3512","locality":"Walkringen","commune":{"key":"626","name":"Walkringen","shortName":"Walkringen"},"district":{"key":"246","name":"Verwaltungskreis Bern-Mittelland"},"canton":{"key":"2","code":"BE","name":"Bern / Berne"},"status":"Real"},{"key":"10005008","name":"Oberhausweg","postalCode":"3512","locality":"Walkringen","commune":{"key":"626","name":"Walkringen","shortName":"Walkringen"},"district":{"key":"246","name":"Verwaltungskreis Bern-Mittelland"},"canton":{"key":"2","code":"BE","name":"Bern / Berne"},"status":"Real"},{"key":"10060274","name":"Oberlehn","postalCode":"3512","locality":"Walkringen","commune":{"key":"626","name":"Walkringen","shortName":"Walkringen"},"district":{"key":"246","name":"Verwaltungskreis Bern-Mittelland"},"canton":{"key":"2","code":"BE","name":"Bern / Berne"},"status":"Real"},{"key":"10125371","name":"Rieder","postalCode":"3512","locality":"Walkringen","commune":{"key":"626","name":"Walkringen","shortName":"Walkringen"},"district":{"key":"246","name":"Verwaltungskreis Bern-Mittelland"},"canton":{"key":"2","code":"BE","name":"Bern / Berne"},"status":"Real"},{"key":"10085165","name":"Ruppisberg","postalCode":"3512","locality":"Walkringen","commune":{"key":"626","name":"Walkringen","shortName":"Walkringen"},"district":{"key":"246","name":"Verwaltungskreis Bern-Mittelland"},"canton":{"key":"2","code":"BE","name":"Bern / Berne"},"status":"Real"},{"key":"10118393","name":"Ruppisbergweidli","postalCode":"3512","locality":"Walkringen","commune":{"key":"626","name":"Walkringen","shortName":"Walkringen"},"district":{"key":"246","name":"Verwaltungskreis Bern-Mittelland"},"canton":{"key":"2","code":"BE","name":"Bern / Berne"},"status":"Real"},{"key":"10005009","name":"Rüttihubel","postalCode":"3512","locality":"Walkringen","commune":{"key":"626","name":"Walkringen","shortName":"Walkringen"},"district":{"key":"246","name":"Verwaltungskreis Bern-Mittelland"},"canton":{"key":"2","code":"BE","name":"Bern / Berne"},"status":"Real"},{"key":"10220865","name":"Sahli","postalCode":"3512","locality":"Walkringen","commune":{"key":"626","name":"Walkringen","shortName":"Walkringen"},"district":{"key":"246","name":"Verwaltungskreis Bern-Mittelland"},"canton":{"key":"2","code":"BE","name":"Bern / Berne"},"status":"Real"},{"key":"10104708","name":"Sattler","postalCode":"3512","locality":"Walkringen","commune":{"key":"626","name":"Walkringen","shortName":"Walkringen"},"district":{"key":"246","name":"Verwaltungskreis Bern-Mittelland"},"canton":{"key":"2","code":"BE","name":"Bern / Berne"},"status":"Real"},{"key":"10058279","name":"Schafer","postalCode":"3512","locality":"Walkringen","commune":{"key":"626","name":"Walkringen","shortName":"Walkringen"},"district":{"key":"246","name":"Verwaltungskreis Bern-Mittelland"},"canton":{"key":"2","code":"BE","name":"Bern / Berne"},"status":"Real"},{"key":"10085166","name":"Schafrainweg","postalCode":"3512","locality":"Walkringen","commune":{"key":"626","name":"Walkringen","shortName":"Walkringen"},"district":{"key":"246","name":"Verwaltungskreis Bern-Mittelland"},"canton":{"key":"2","code":"BE","name":"Bern / Berne"},"status":"Real"},{"key":"10112801","name":"Scheuer","postalCode":"3512","locality":"Walkringen","commune":{"key":"626","name":"Walkringen","shortName":"Walkringen"},"district":{"key":"246","name":"Verwaltungskreis Bern-Mittelland"},"canton":{"key":"2","code":"BE","name":"Bern / Berne"},"status":"Real"},{"key":"10005010","name":"Schindelgrat","postalCode":"3512","locality":"Walkringen","commune":{"key":"626","name":"Walkringen","shortName":"Walkringen"},"district":{"key":"246","name":"Verwaltungskreis Bern-Mittelland"},"canton":{"key":"2","code":"BE","name":"Bern / Berne"},"status":"Real"},{"key":"10121072","name":"Schlattacker","postalCode":"3512","locality":"Walkringen","commune":{"key":"626","name":"Walkringen","shortName":"Walkringen"},"district":{"key":"246","name":"Verwaltungskreis Bern-Mittelland"},"canton":{"key":"2","code":"BE","name":"Bern / Berne"},"status":"Real"},{"key":"10116940","name":"Schürliacker","postalCode":"3512","locality":"Walkringen","commune":{"key":"626","name":"Walkringen","shortName":"Walkringen"},"district":{"key":"246","name":"Verwaltungskreis Bern-Mittelland"},"canton":{"key":"2","code":"BE","name":"Bern / Berne"},"status":"Real"},{"key":"10005011","name":"Schützer","postalCode":"3512","locality":"Walkringen","commune":{"key":"626","name":"Walkringen","shortName":"Walkringen"},"district":{"key":"246","name":"Verwaltungskreis Bern-Mittelland"},"canton":{"key":"2","code":"BE","name":"Bern / Berne"},"status":"Real"},{"key":"10085167","name":"Segger","postalCode":"3512","locality":"Walkringen","commune":{"key":"626","name":"Walkringen","shortName":"Walkringen"},"district":{"key":"246","name":"Verwaltungskreis Bern-Mittelland"},"canton":{"key":"2","code":"BE","name":"Bern / Berne"},"status":"Real"},{"key":"10124654","name":"Seiler","postalCode":"3512","locality":"Walkringen","commune":{"key":"626","name":"Walkringen","shortName":"Walkringen"},"district":{"key":"246","name":"Verwaltungskreis Bern-Mittelland"},"canton":{"key":"2","code":"BE","name":"Bern / Berne"},"status":"Real"},{"key":"10196715","name":"Strahmhüsi","postalCode":"3512","locality":"Walkringen","commune":{"key":"626","name":"Walkringen","shortName":"Walkringen"},"district":{"key":"246","name":"Verwaltungskreis Bern-Mittelland"},"canton":{"key":"2","code":"BE","name":"Bern / Berne"},"status":"Real"},{"key":"10112412","name":"Studisackerweg","postalCode":"3512","locality":"Walkringen","commune":{"key":"626","name":"Walkringen","shortName":"Walkringen"},"district":{"key":"246","name":"Verwaltungskreis Bern-Mittelland"},"canton":{"key":"2","code":"BE","name":"Bern / Berne"},"status":"Real"},{"key":"10060277","name":"Stutz","postalCode":"3512","locality":"Walkringen","commune":{"key":"626","name":"Walkringen","shortName":"Walkringen"},"district":{"key":"246","name":"Verwaltungskreis Bern-Mittelland"},"canton":{"key":"2","code":"BE","name":"Bern / Berne"},"status":"Real"},{"key":"10085168","name":"Sunnedörflistrasse","postalCode":"3512","locality":"Walkringen","commune":{"key":"626","name":"Walkringen","shortName":"Walkringen"},"district":{"key":"246","name":"Verwaltungskreis Bern-Mittelland"},"canton":{"key":"2","code":"BE","name":"Bern / Berne"},"status":"Real"},{"key":"10005012","name":"Unterdorfstrasse","postalCode":"3512","locality":"Walkringen","commune":{"key":"626","name":"Walkringen","shortName":"Walkringen"},"district":{"key":"246","name":"Verwaltungskreis Bern-Mittelland"},"canton":{"key":"2","code":"BE","name":"Bern / Berne"},"status":"Real"},{"key":"10050802","name":"Vielmattstrasse","postalCode":"3512","locality":"Walkringen","commune":{"key":"626","name":"Walkringen","shortName":"Walkringen"},"district":{"key":"246","name":"Verwaltungskreis Bern-Mittelland"},"canton":{"key":"2","code":"BE","name":"Bern / Berne"},"status":"Real"},{"key":"10175670","name":"Wart","postalCode":"3512","locality":"Walkringen","commune":{"key":"626","name":"Walkringen","shortName":"Walkringen"},"district":{"key":"246","name":"Verwaltungskreis Bern-Mittelland"},"canton":{"key":"2","code":"BE","name":"Bern / Berne"},"status":"Real"},{"key":"10005013","name":"Wikartswil","postalCode":"3512","locality":"Walkringen","commune":{"key":"626","name":"Walkringen","shortName":"Walkringen"},"district":{"key":"246","name":"Verwaltungskreis Bern-Mittelland"},"canton":{"key":"2","code":"BE","name":"Bern / Berne"},"status":"Real"},{"key":"10104709","name":"Zihlstrasse","postalCode":"3512","locality":"Walkringen","commune":{"key":"626","name":"Walkringen","shortName":"Walkringen"},"district":{"key":"246","name":"Verwaltungskreis Bern-Mittelland"},"canton":{"key":"2","code":"BE","name":"Bern / Berne"},"status":"Real"},]