[{"key":"10005242","name":"Aareweg","postalCode":"3114","locality":"Wichtrach","commune":{"key":"632","name":"Wichtrach","shortName":"Wichtrach"},"district":{"key":"246","name":"Verwaltungskreis Bern-Mittelland"},"canton":{"key":"2","code":"BE","name":"Bern / Berne"},"status":"Real"},{"key":"10220741","name":"Acherweg","postalCode":"3114","locality":"Wichtrach","commune":{"key":"632","name":"Wichtrach","shortName":"Wichtrach"},"district":{"key":"246","name":"Verwaltungskreis Bern-Mittelland"},"canton":{"key":"2","code":"BE","name":"Bern / Berne"},"status":"Real"},{"key":"10220745","name":"Ahornweg","postalCode":"3114","locality":"Wichtrach","commune":{"key":"632","name":"Wichtrach","shortName":"Wichtrach"},"district":{"key":"246","name":"Verwaltungskreis Bern-Mittelland"},"canton":{"key":"2","code":"BE","name":"Bern / Berne"},"status":"Real"},{"key":"10075094","name":"Allmendstrasse","postalCode":"3114","locality":"Wichtrach","commune":{"key":"632","name":"Wichtrach","shortName":"Wichtrach"},"district":{"key":"246","name":"Verwaltungskreis Bern-Mittelland"},"canton":{"key":"2","code":"BE","name":"Bern / Berne"},"status":"Real"},{"key":"10080865","name":"Allmendweg","postalCode":"3114","locality":"Wichtrach","commune":{"key":"632","name":"Wichtrach","shortName":"Wichtrach"},"district":{"key":"246","name":"Verwaltungskreis Bern-Mittelland"},"canton":{"key":"2","code":"BE","name":"Bern / Berne"},"status":"Real"},{"key":"10060561","name":"Allmendweg","postalCode":"3114","locality":"Wichtrach","commune":{"key":"632","name":"Wichtrach","shortName":"Wichtrach"},"district":{"key":"246","name":"Verwaltungskreis Bern-Mittelland"},"canton":{"key":"2","code":"BE","name":"Bern / Berne"},"status":"Real"},{"key":"10080567","name":"Alte Landstrasse","postalCode":"3114","locality":"Wichtrach","commune":{"key":"632","name":"Wichtrach","shortName":"Wichtrach"},"district":{"key":"246","name":"Verwaltungskreis Bern-Mittelland"},"canton":{"key":"2","code":"BE","name":"Bern / Berne"},"status":"Real"},{"key":"10102714","name":"Ammereweg","postalCode":"3114","locality":"Wichtrach","commune":{"key":"632","name":"Wichtrach","shortName":"Wichtrach"},"district":{"key":"246","name":"Verwaltungskreis Bern-Mittelland"},"canton":{"key":"2","code":"BE","name":"Bern / Berne"},"status":"Real"},{"key":"10220749","name":"Amselweg","postalCode":"3114","locality":"Wichtrach","commune":{"key":"632","name":"Wichtrach","shortName":"Wichtrach"},"district":{"key":"246","name":"Verwaltungskreis Bern-Mittelland"},"canton":{"key":"2","code":"BE","name":"Bern / Berne"},"status":"Real"},{"key":"10220752","name":"Ankenbachweg","postalCode":"3114","locality":"Wichtrach","commune":{"key":"632","name":"Wichtrach","shortName":"Wichtrach"},"district":{"key":"246","name":"Verwaltungskreis Bern-Mittelland"},"canton":{"key":"2","code":"BE","name":"Bern / Berne"},"status":"Real"},{"key":"10060243","name":"Austrasse","postalCode":"3114","locality":"Wichtrach","commune":{"key":"632","name":"Wichtrach","shortName":"Wichtrach"},"district":{"key":"246","name":"Verwaltungskreis Bern-Mittelland"},"canton":{"key":"2","code":"BE","name":"Bern / Berne"},"status":"Real"},{"key":"10220755","name":"Autobahnflurweg","postalCode":"3114","locality":"Wichtrach","commune":{"key":"632","name":"Wichtrach","shortName":"Wichtrach"},"district":{"key":"246","name":"Verwaltungskreis Bern-Mittelland"},"canton":{"key":"2","code":"BE","name":"Bern / Berne"},"status":"Real"},{"key":"10220759","name":"Auweg","postalCode":"3114","locality":"Wichtrach","commune":{"key":"632","name":"Wichtrach","shortName":"Wichtrach"},"district":{"key":"246","name":"Verwaltungskreis Bern-Mittelland"},"canton":{"key":"2","code":"BE","name":"Bern / Berne"},"status":"Real"},{"key":"10220763","name":"Bachtele","postalCode":"3114","locality":"Wichtrach","commune":{"key":"632","name":"Wichtrach","shortName":"Wichtrach"},"district":{"key":"246","name":"Verwaltungskreis Bern-Mittelland"},"canton":{"key":"2","code":"BE","name":"Bern / Berne"},"status":"Real"},{"key":"10005243","name":"Bahnhofstrasse","postalCode":"3114","locality":"Wichtrach","commune":{"key":"632","name":"Wichtrach","shortName":"Wichtrach"},"district":{"key":"246","name":"Verwaltungskreis Bern-Mittelland"},"canton":{"key":"2","code":"BE","name":"Bern / Berne"},"status":"Real"},{"key":"10005244","name":"Bahnweg","postalCode":"3114","locality":"Wichtrach","commune":{"key":"632","name":"Wichtrach","shortName":"Wichtrach"},"district":{"key":"246","name":"Verwaltungskreis Bern-Mittelland"},"canton":{"key":"2","code":"BE","name":"Bern / Berne"},"status":"Real"},{"key":"10005245","name":"Baumrütiweg","postalCode":"3114","locality":"Wichtrach","commune":{"key":"632","name":"Wichtrach","shortName":"Wichtrach"},"district":{"key":"246","name":"Verwaltungskreis Bern-Mittelland"},"canton":{"key":"2","code":"BE","name":"Bern / Berne"},"status":"Real"},{"key":"10080866","name":"Bergacker","postalCode":"3114","locality":"Wichtrach","commune":{"key":"632","name":"Wichtrach","shortName":"Wichtrach"},"district":{"key":"246","name":"Verwaltungskreis Bern-Mittelland"},"canton":{"key":"2","code":"BE","name":"Bern / Berne"},"status":"Real"},{"key":"10060244","name":"Bergweg","postalCode":"3114","locality":"Wichtrach","commune":{"key":"632","name":"Wichtrach","shortName":"Wichtrach"},"district":{"key":"246","name":"Verwaltungskreis Bern-Mittelland"},"canton":{"key":"2","code":"BE","name":"Bern / Berne"},"status":"Real"},{"key":"10112400","name":"Bernstrasse","postalCode":"3114","locality":"Wichtrach","commune":{"key":"632","name":"Wichtrach","shortName":"Wichtrach"},"district":{"key":"246","name":"Verwaltungskreis Bern-Mittelland"},"canton":{"key":"2","code":"BE","name":"Bern / Berne"},"status":"Real"},{"key":"10124648","name":"Birkenweg","postalCode":"3114","locality":"Wichtrach","commune":{"key":"632","name":"Wichtrach","shortName":"Wichtrach"},"district":{"key":"246","name":"Verwaltungskreis Bern-Mittelland"},"canton":{"key":"2","code":"BE","name":"Bern / Berne"},"status":"Real"},{"key":"10080867","name":"Blümlisalpweg","postalCode":"3114","locality":"Wichtrach","commune":{"key":"632","name":"Wichtrach","shortName":"Wichtrach"},"district":{"key":"246","name":"Verwaltungskreis Bern-Mittelland"},"canton":{"key":"2","code":"BE","name":"Bern / Berne"},"status":"Real"},{"key":"10220767","name":"Bodenacherweg","postalCode":"3114","locality":"Wichtrach","commune":{"key":"632","name":"Wichtrach","shortName":"Wichtrach"},"district":{"key":"246","name":"Verwaltungskreis Bern-Mittelland"},"canton":{"key":"2","code":"BE","name":"Bern / Berne"},"status":"Real"},{"key":"10118389","name":"Bodenweg","postalCode":"3114","locality":"Wichtrach","commune":{"key":"632","name":"Wichtrach","shortName":"Wichtrach"},"district":{"key":"246","name":"Verwaltungskreis Bern-Mittelland"},"canton":{"key":"2","code":"BE","name":"Bern / Berne"},"status":"Real"},{"key":"10143706","name":"Breitenweg","postalCode":"3114","locality":"Wichtrach","commune":{"key":"632","name":"Wichtrach","shortName":"Wichtrach"},"district":{"key":"246","name":"Verwaltungskreis Bern-Mittelland"},"canton":{"key":"2","code":"BE","name":"Bern / Berne"},"status":"Real"},{"key":"10196257","name":"Brückenweg","postalCode":"3114","locality":"Wichtrach","commune":{"key":"632","name":"Wichtrach","shortName":"Wichtrach"},"district":{"key":"246","name":"Verwaltungskreis Bern-Mittelland"},"canton":{"key":"2","code":"BE","name":"Bern / Berne"},"status":"Real"},{"key":"10220771","name":"Büelmattweg","postalCode":"3114","locality":"Wichtrach","commune":{"key":"632","name":"Wichtrach","shortName":"Wichtrach"},"district":{"key":"246","name":"Verwaltungskreis Bern-Mittelland"},"canton":{"key":"2","code":"BE","name":"Bern / Berne"},"status":"Real"},{"key":"10005246","name":"Bürglenweg","postalCode":"3114","locality":"Wichtrach","commune":{"key":"632","name":"Wichtrach","shortName":"Wichtrach"},"district":{"key":"246","name":"Verwaltungskreis Bern-Mittelland"},"canton":{"key":"2","code":"BE","name":"Bern / Berne"},"status":"Real"},{"key":"10050793","name":"Chäsereiweg","postalCode":"3114","locality":"Wichtrach","commune":{"key":"632","name":"Wichtrach","shortName":"Wichtrach"},"district":{"key":"246","name":"Verwaltungskreis Bern-Mittelland"},"canton":{"key":"2","code":"BE","name":"Bern / Berne"},"status":"Real"},{"key":"10220775","name":"Chesselaustrasse","postalCode":"3114","locality":"Wichtrach","commune":{"key":"632","name":"Wichtrach","shortName":"Wichtrach"},"district":{"key":"246","name":"Verwaltungskreis Bern-Mittelland"},"canton":{"key":"2","code":"BE","name":"Bern / Berne"},"status":"Real"},{"key":"10220779","name":"Chiesweg","postalCode":"3114","locality":"Wichtrach","commune":{"key":"632","name":"Wichtrach","shortName":"Wichtrach"},"district":{"key":"246","name":"Verwaltungskreis Bern-Mittelland"},"canton":{"key":"2","code":"BE","name":"Bern / Berne"},"status":"Real"},{"key":"10060219","name":"Chilchwägli","postalCode":"3114","locality":"Wichtrach","commune":{"key":"632","name":"Wichtrach","shortName":"Wichtrach"},"district":{"key":"246","name":"Verwaltungskreis Bern-Mittelland"},"canton":{"key":"2","code":"BE","name":"Bern / Berne"},"status":"Real"},{"key":"10112788","name":"Chrämerweg","postalCode":"3114","locality":"Wichtrach","commune":{"key":"632","name":"Wichtrach","shortName":"Wichtrach"},"district":{"key":"246","name":"Verwaltungskreis Bern-Mittelland"},"canton":{"key":"2","code":"BE","name":"Bern / Berne"},"status":"Real"},{"key":"10220784","name":"Chrüzacherweg","postalCode":"3114","locality":"Wichtrach","commune":{"key":"632","name":"Wichtrach","shortName":"Wichtrach"},"district":{"key":"246","name":"Verwaltungskreis Bern-Mittelland"},"canton":{"key":"2","code":"BE","name":"Bern / Berne"},"status":"Real"},{"key":"10118054","name":"Dorfplatz","postalCode":"3114","locality":"Wichtrach","commune":{"key":"632","name":"Wichtrach","shortName":"Wichtrach"},"district":{"key":"246","name":"Verwaltungskreis Bern-Mittelland"},"canton":{"key":"2","code":"BE","name":"Bern / Berne"},"status":"Real"},{"key":"10004850","name":"Dürrmühlestrasse","postalCode":"3114","locality":"Wichtrach","commune":{"key":"632","name":"Wichtrach","shortName":"Wichtrach"},"district":{"key":"246","name":"Verwaltungskreis Bern-Mittelland"},"canton":{"key":"2","code":"BE","name":"Bern / Berne"},"status":"Real"},{"key":"10220787","name":"Eichelspitzweg","postalCode":"3114","locality":"Wichtrach","commune":{"key":"632","name":"Wichtrach","shortName":"Wichtrach"},"district":{"key":"246","name":"Verwaltungskreis Bern-Mittelland"},"canton":{"key":"2","code":"BE","name":"Bern / Berne"},"status":"Real"},{"key":"10080568","name":"Eicheweg","postalCode":"3114","locality":"Wichtrach","commune":{"key":"632","name":"Wichtrach","shortName":"Wichtrach"},"district":{"key":"246","name":"Verwaltungskreis Bern-Mittelland"},"canton":{"key":"2","code":"BE","name":"Bern / Berne"},"status":"Real"},{"key":"10220792","name":"Eichmattweg","postalCode":"3114","locality":"Wichtrach","commune":{"key":"632","name":"Wichtrach","shortName":"Wichtrach"},"district":{"key":"246","name":"Verwaltungskreis Bern-Mittelland"},"canton":{"key":"2","code":"BE","name":"Bern / Berne"},"status":"Real"},{"key":"10005247","name":"Eigerweg","postalCode":"3114","locality":"Wichtrach","commune":{"key":"632","name":"Wichtrach","shortName":"Wichtrach"},"district":{"key":"246","name":"Verwaltungskreis Bern-Mittelland"},"canton":{"key":"2","code":"BE","name":"Bern / Berne"},"status":"Real"},{"key":"10161334","name":"Falkenfluhweg","postalCode":"3114","locality":"Wichtrach","commune":{"key":"632","name":"Wichtrach","shortName":"Wichtrach"},"district":{"key":"246","name":"Verwaltungskreis Bern-Mittelland"},"canton":{"key":"2","code":"BE","name":"Bern / Berne"},"status":"Real"},{"key":"10220796","name":"Farnere-Eichmatt","postalCode":"3114","locality":"Wichtrach","commune":{"key":"632","name":"Wichtrach","shortName":"Wichtrach"},"district":{"key":"246","name":"Verwaltungskreis Bern-Mittelland"},"canton":{"key":"2","code":"BE","name":"Bern / Berne"},"status":"Real"},{"key":"10220800","name":"Farnereweg","postalCode":"3114","locality":"Wichtrach","commune":{"key":"632","name":"Wichtrach","shortName":"Wichtrach"},"district":{"key":"246","name":"Verwaltungskreis Bern-Mittelland"},"canton":{"key":"2","code":"BE","name":"Bern / Berne"},"status":"Real"},{"key":"10005248","name":"Fröschenmösliweg","postalCode":"3114","locality":"Wichtrach","commune":{"key":"632","name":"Wichtrach","shortName":"Wichtrach"},"district":{"key":"246","name":"Verwaltungskreis Bern-Mittelland"},"canton":{"key":"2","code":"BE","name":"Bern / Berne"},"status":"Real"},{"key":"10178352","name":"Fuhrenweg","postalCode":"3114","locality":"Wichtrach","commune":{"key":"632","name":"Wichtrach","shortName":"Wichtrach"},"district":{"key":"246","name":"Verwaltungskreis Bern-Mittelland"},"canton":{"key":"2","code":"BE","name":"Bern / Berne"},"status":"Real"},{"key":"10080868","name":"Gantrischweg","postalCode":"3114","locality":"Wichtrach","commune":{"key":"632","name":"Wichtrach","shortName":"Wichtrach"},"district":{"key":"246","name":"Verwaltungskreis Bern-Mittelland"},"canton":{"key":"2","code":"BE","name":"Bern / Berne"},"status":"Real"},{"key":"10060220","name":"Garbeweg","postalCode":"3114","locality":"Wichtrach","commune":{"key":"632","name":"Wichtrach","shortName":"Wichtrach"},"district":{"key":"246","name":"Verwaltungskreis Bern-Mittelland"},"canton":{"key":"2","code":"BE","name":"Bern / Berne"},"status":"Real"},{"key":"10124643","name":"Gassacherweg","postalCode":"3114","locality":"Wichtrach","commune":{"key":"632","name":"Wichtrach","shortName":"Wichtrach"},"district":{"key":"246","name":"Verwaltungskreis Bern-Mittelland"},"canton":{"key":"2","code":"BE","name":"Bern / Berne"},"status":"Real"},{"key":"10080569","name":"Gässli","postalCode":"3114","locality":"Wichtrach","commune":{"key":"632","name":"Wichtrach","shortName":"Wichtrach"},"district":{"key":"246","name":"Verwaltungskreis Bern-Mittelland"},"canton":{"key":"2","code":"BE","name":"Bern / Berne"},"status":"Real"},{"key":"10220804","name":"Gibelweg","postalCode":"3114","locality":"Wichtrach","commune":{"key":"632","name":"Wichtrach","shortName":"Wichtrach"},"district":{"key":"246","name":"Verwaltungskreis Bern-Mittelland"},"canton":{"key":"2","code":"BE","name":"Bern / Berne"},"status":"Real"},{"key":"10220808","name":"Gofrit-Büelmatt","postalCode":"3114","locality":"Wichtrach","commune":{"key":"632","name":"Wichtrach","shortName":"Wichtrach"},"district":{"key":"246","name":"Verwaltungskreis Bern-Mittelland"},"canton":{"key":"2","code":"BE","name":"Bern / Berne"},"status":"Real"},{"key":"10050794","name":"Gofritstrasse","postalCode":"3114","locality":"Wichtrach","commune":{"key":"632","name":"Wichtrach","shortName":"Wichtrach"},"district":{"key":"246","name":"Verwaltungskreis Bern-Mittelland"},"canton":{"key":"2","code":"BE","name":"Bern / Berne"},"status":"Real"},{"key":"10220811","name":"Gofritweg","postalCode":"3114","locality":"Wichtrach","commune":{"key":"632","name":"Wichtrach","shortName":"Wichtrach"},"district":{"key":"246","name":"Verwaltungskreis Bern-Mittelland"},"canton":{"key":"2","code":"BE","name":"Bern / Berne"},"status":"Real"},{"key":"10220815","name":"Gouchitweg","postalCode":"3114","locality":"Wichtrach","commune":{"key":"632","name":"Wichtrach","shortName":"Wichtrach"},"district":{"key":"246","name":"Verwaltungskreis Bern-Mittelland"},"canton":{"key":"2","code":"BE","name":"Bern / Berne"},"status":"Real"},{"key":"10060245","name":"Grossmattweg","postalCode":"3114","locality":"Wichtrach","commune":{"key":"632","name":"Wichtrach","shortName":"Wichtrach"},"district":{"key":"246","name":"Verwaltungskreis Bern-Mittelland"},"canton":{"key":"2","code":"BE","name":"Bern / Berne"},"status":"Real"},{"key":"10004851","name":"Gruebeweg","postalCode":"3114","locality":"Wichtrach","commune":{"key":"632","name":"Wichtrach","shortName":"Wichtrach"},"district":{"key":"246","name":"Verwaltungskreis Bern-Mittelland"},"canton":{"key":"2","code":"BE","name":"Bern / Berne"},"status":"Real"},{"key":"10005249","name":"Gurnigelweg","postalCode":"3114","locality":"Wichtrach","commune":{"key":"632","name":"Wichtrach","shortName":"Wichtrach"},"district":{"key":"246","name":"Verwaltungskreis Bern-Mittelland"},"canton":{"key":"2","code":"BE","name":"Bern / Berne"},"status":"Real"},{"key":"10004852","name":"Gutstrasse","postalCode":"3114","locality":"Wichtrach","commune":{"key":"632","name":"Wichtrach","shortName":"Wichtrach"},"district":{"key":"246","name":"Verwaltungskreis Bern-Mittelland"},"canton":{"key":"2","code":"BE","name":"Bern / Berne"},"status":"Real"},{"key":"10005251","name":"Hängertstrasse","postalCode":"3114","locality":"Wichtrach","commune":{"key":"632","name":"Wichtrach","shortName":"Wichtrach"},"district":{"key":"246","name":"Verwaltungskreis Bern-Mittelland"},"canton":{"key":"2","code":"BE","name":"Bern / Berne"},"status":"Real"},{"key":"10186474","name":"Hasleweg","postalCode":"3114","locality":"Wichtrach","commune":{"key":"632","name":"Wichtrach","shortName":"Wichtrach"},"district":{"key":"246","name":"Verwaltungskreis Bern-Mittelland"},"canton":{"key":"2","code":"BE","name":"Bern / Berne"},"status":"Real"},{"key":"10112795","name":"Haubenstrasse","postalCode":"3114","locality":"Wichtrach","commune":{"key":"632","name":"Wichtrach","shortName":"Wichtrach"},"district":{"key":"246","name":"Verwaltungskreis Bern-Mittelland"},"canton":{"key":"2","code":"BE","name":"Bern / Berne"},"status":"Real"},{"key":"10005250","name":"Heienmattweg","postalCode":"3114","locality":"Wichtrach","commune":{"key":"632","name":"Wichtrach","shortName":"Wichtrach"},"district":{"key":"246","name":"Verwaltungskreis Bern-Mittelland"},"canton":{"key":"2","code":"BE","name":"Bern / Berne"},"status":"Real"},{"key":"10060221","name":"Herrlichkeit","postalCode":"3114","locality":"Wichtrach","commune":{"key":"632","name":"Wichtrach","shortName":"Wichtrach"},"district":{"key":"246","name":"Verwaltungskreis Bern-Mittelland"},"canton":{"key":"2","code":"BE","name":"Bern / Berne"},"status":"Real"},{"key":"10180624","name":"Hofackerweg","postalCode":"3114","locality":"Wichtrach","commune":{"key":"632","name":"Wichtrach","shortName":"Wichtrach"},"district":{"key":"246","name":"Verwaltungskreis Bern-Mittelland"},"canton":{"key":"2","code":"BE","name":"Bern / Berne"},"status":"Real"},{"key":"10060246","name":"Im Hängert","postalCode":"3114","locality":"Wichtrach","commune":{"key":"632","name":"Wichtrach","shortName":"Wichtrach"},"district":{"key":"246","name":"Verwaltungskreis Bern-Mittelland"},"canton":{"key":"2","code":"BE","name":"Bern / Berne"},"status":"Real"},{"key":"10220818","name":"Jägerweg","postalCode":"3114","locality":"Wichtrach","commune":{"key":"632","name":"Wichtrach","shortName":"Wichtrach"},"district":{"key":"246","name":"Verwaltungskreis Bern-Mittelland"},"canton":{"key":"2","code":"BE","name":"Bern / Berne"},"status":"Real"},{"key":"10112401","name":"Jungfrauweg","postalCode":"3114","locality":"Wichtrach","commune":{"key":"632","name":"Wichtrach","shortName":"Wichtrach"},"district":{"key":"246","name":"Verwaltungskreis Bern-Mittelland"},"canton":{"key":"2","code":"BE","name":"Bern / Berne"},"status":"Real"},{"key":"10104700","name":"Kirchstrasse","postalCode":"3114","locality":"Wichtrach","commune":{"key":"632","name":"Wichtrach","shortName":"Wichtrach"},"district":{"key":"246","name":"Verwaltungskreis Bern-Mittelland"},"canton":{"key":"2","code":"BE","name":"Bern / Berne"},"status":"Real"},{"key":"10220822","name":"Kniebrechenweg","postalCode":"3114","locality":"Wichtrach","commune":{"key":"632","name":"Wichtrach","shortName":"Wichtrach"},"district":{"key":"246","name":"Verwaltungskreis Bern-Mittelland"},"canton":{"key":"2","code":"BE","name":"Bern / Berne"},"status":"Real"},{"key":"10210573","name":"Kornweg","postalCode":"3114","locality":"Wichtrach","commune":{"key":"632","name":"Wichtrach","shortName":"Wichtrach"},"district":{"key":"246","name":"Verwaltungskreis Bern-Mittelland"},"canton":{"key":"2","code":"BE","name":"Bern / Berne"},"status":"Real"},{"key":"10220826","name":"Krückhaldenweg","postalCode":"3114","locality":"Wichtrach","commune":{"key":"632","name":"Wichtrach","shortName":"Wichtrach"},"district":{"key":"246","name":"Verwaltungskreis Bern-Mittelland"},"canton":{"key":"2","code":"BE","name":"Bern / Berne"},"status":"Real"},{"key":"10004853","name":"Lerchebergweg","postalCode":"3114","locality":"Wichtrach","commune":{"key":"632","name":"Wichtrach","shortName":"Wichtrach"},"district":{"key":"246","name":"Verwaltungskreis Bern-Mittelland"},"canton":{"key":"2","code":"BE","name":"Bern / Berne"},"status":"Real"},{"key":"10060247","name":"Lerchenweg","postalCode":"3114","locality":"Wichtrach","commune":{"key":"632","name":"Wichtrach","shortName":"Wichtrach"},"district":{"key":"246","name":"Verwaltungskreis Bern-Mittelland"},"canton":{"key":"2","code":"BE","name":"Bern / Berne"},"status":"Real"},{"key":"10080570","name":"Leuereweg","postalCode":"3114","locality":"Wichtrach","commune":{"key":"632","name":"Wichtrach","shortName":"Wichtrach"},"district":{"key":"246","name":"Verwaltungskreis Bern-Mittelland"},"canton":{"key":"2","code":"BE","name":"Bern / Berne"},"status":"Real"},{"key":"10004854","name":"Lischmattweg","postalCode":"3114","locality":"Wichtrach","commune":{"key":"632","name":"Wichtrach","shortName":"Wichtrach"},"district":{"key":"246","name":"Verwaltungskreis Bern-Mittelland"},"canton":{"key":"2","code":"BE","name":"Bern / Berne"},"status":"Real"},{"key":"10001029","name":"Lochweg","postalCode":"3114","locality":"Wichtrach","commune":{"key":"632","name":"Wichtrach","shortName":"Wichtrach"},"district":{"key":"246","name":"Verwaltungskreis Bern-Mittelland"},"canton":{"key":"2","code":"BE","name":"Bern / Berne"},"status":"Real"},{"key":"10060222","name":"Matteweg","postalCode":"3114","locality":"Wichtrach","commune":{"key":"632","name":"Wichtrach","shortName":"Wichtrach"},"district":{"key":"246","name":"Verwaltungskreis Bern-Mittelland"},"canton":{"key":"2","code":"BE","name":"Bern / Berne"},"status":"Real"},{"key":"10220830","name":"Maurachernweg","postalCode":"3114","locality":"Wichtrach","commune":{"key":"632","name":"Wichtrach","shortName":"Wichtrach"},"district":{"key":"246","name":"Verwaltungskreis Bern-Mittelland"},"canton":{"key":"2","code":"BE","name":"Bern / Berne"},"status":"Real"},{"key":"10001030","name":"Meiseweg","postalCode":"3114","locality":"Wichtrach","commune":{"key":"632","name":"Wichtrach","shortName":"Wichtrach"},"district":{"key":"246","name":"Verwaltungskreis Bern-Mittelland"},"canton":{"key":"2","code":"BE","name":"Bern / Berne"},"status":"Real"},{"key":"10220834","name":"Mittelweg","postalCode":"3114","locality":"Wichtrach","commune":{"key":"632","name":"Wichtrach","shortName":"Wichtrach"},"district":{"key":"246","name":"Verwaltungskreis Bern-Mittelland"},"canton":{"key":"2","code":"BE","name":"Bern / Berne"},"status":"Real"},{"key":"10080869","name":"Mönchweg","postalCode":"3114","locality":"Wichtrach","commune":{"key":"632","name":"Wichtrach","shortName":"Wichtrach"},"district":{"key":"246","name":"Verwaltungskreis Bern-Mittelland"},"canton":{"key":"2","code":"BE","name":"Bern / Berne"},"status":"Real"},{"key":"10220839","name":"Moosacherweg","postalCode":"3114","locality":"Wichtrach","commune":{"key":"632","name":"Wichtrach","shortName":"Wichtrach"},"district":{"key":"246","name":"Verwaltungskreis Bern-Mittelland"},"canton":{"key":"2","code":"BE","name":"Bern / Berne"},"status":"Real"},{"key":"10220843","name":"Moosweg","postalCode":"3114","locality":"Wichtrach","commune":{"key":"632","name":"Wichtrach","shortName":"Wichtrach"},"district":{"key":"246","name":"Verwaltungskreis Bern-Mittelland"},"canton":{"key":"2","code":"BE","name":"Bern / Berne"},"status":"Real"},{"key":"10080571","name":"Neumattstrasse","postalCode":"3114","locality":"Wichtrach","commune":{"key":"632","name":"Wichtrach","shortName":"Wichtrach"},"district":{"key":"246","name":"Verwaltungskreis Bern-Mittelland"},"canton":{"key":"2","code":"BE","name":"Bern / Berne"},"status":"Real"},{"key":"10005252","name":"Niesenstrasse","postalCode":"3114","locality":"Wichtrach","commune":{"key":"632","name":"Wichtrach","shortName":"Wichtrach"},"district":{"key":"246","name":"Verwaltungskreis Bern-Mittelland"},"canton":{"key":"2","code":"BE","name":"Bern / Berne"},"status":"Real"},{"key":"10001031","name":"Oberdorfstrasse","postalCode":"3114","locality":"Wichtrach","commune":{"key":"632","name":"Wichtrach","shortName":"Wichtrach"},"district":{"key":"246","name":"Verwaltungskreis Bern-Mittelland"},"canton":{"key":"2","code":"BE","name":"Bern / Berne"},"status":"Real"},{"key":"10220847","name":"Obere Haubenstrasse","postalCode":"3114","locality":"Wichtrach","commune":{"key":"632","name":"Wichtrach","shortName":"Wichtrach"},"district":{"key":"246","name":"Verwaltungskreis Bern-Mittelland"},"canton":{"key":"2","code":"BE","name":"Bern / Berne"},"status":"Real"},{"key":"10005253","name":"Pfarrhausweg","postalCode":"3114","locality":"Wichtrach","commune":{"key":"632","name":"Wichtrach","shortName":"Wichtrach"},"district":{"key":"246","name":"Verwaltungskreis Bern-Mittelland"},"canton":{"key":"2","code":"BE","name":"Bern / Berne"},"status":"Real"},{"key":"10220850","name":"Predigtwaldweg","postalCode":"3114","locality":"Wichtrach","commune":{"key":"632","name":"Wichtrach","shortName":"Wichtrach"},"district":{"key":"246","name":"Verwaltungskreis Bern-Mittelland"},"canton":{"key":"2","code":"BE","name":"Bern / Berne"},"status":"Real"},{"key":"10220855","name":"Rainacherweg","postalCode":"3114","locality":"Wichtrach","commune":{"key":"632","name":"Wichtrach","shortName":"Wichtrach"},"district":{"key":"246","name":"Verwaltungskreis Bern-Mittelland"},"canton":{"key":"2","code":"BE","name":"Bern / Berne"},"status":"Real"},{"key":"10220859","name":"Reckholternweg","postalCode":"3114","locality":"Wichtrach","commune":{"key":"632","name":"Wichtrach","shortName":"Wichtrach"},"district":{"key":"246","name":"Verwaltungskreis Bern-Mittelland"},"canton":{"key":"2","code":"BE","name":"Bern / Berne"},"status":"Real"},{"key":"10170923","name":"Reservoirweg","postalCode":"3114","locality":"Wichtrach","commune":{"key":"632","name":"Wichtrach","shortName":"Wichtrach"},"district":{"key":"246","name":"Verwaltungskreis Bern-Mittelland"},"canton":{"key":"2","code":"BE","name":"Bern / Berne"},"status":"Real"},{"key":"10220863","name":"Risauweg","postalCode":"3114","locality":"Wichtrach","commune":{"key":"632","name":"Wichtrach","shortName":"Wichtrach"},"district":{"key":"246","name":"Verwaltungskreis Bern-Mittelland"},"canton":{"key":"2","code":"BE","name":"Bern / Berne"},"status":"Real"},{"key":"10131143","name":"Römerweg","postalCode":"3114","locality":"Wichtrach","commune":{"key":"632","name":"Wichtrach","shortName":"Wichtrach"},"district":{"key":"246","name":"Verwaltungskreis Bern-Mittelland"},"canton":{"key":"2","code":"BE","name":"Bern / Berne"},"status":"Real"},{"key":"10220867","name":"Rossweidgässli","postalCode":"3114","locality":"Wichtrach","commune":{"key":"632","name":"Wichtrach","shortName":"Wichtrach"},"district":{"key":"246","name":"Verwaltungskreis Bern-Mittelland"},"canton":{"key":"2","code":"BE","name":"Bern / Berne"},"status":"Real"},{"key":"10060223","name":"Rüteneweg","postalCode":"3114","locality":"Wichtrach","commune":{"key":"632","name":"Wichtrach","shortName":"Wichtrach"},"district":{"key":"246","name":"Verwaltungskreis Bern-Mittelland"},"canton":{"key":"2","code":"BE","name":"Bern / Berne"},"status":"Real"},{"key":"10005254","name":"Rütiweg","postalCode":"3114","locality":"Wichtrach","commune":{"key":"632","name":"Wichtrach","shortName":"Wichtrach"},"district":{"key":"246","name":"Verwaltungskreis Bern-Mittelland"},"canton":{"key":"2","code":"BE","name":"Bern / Berne"},"status":"Real"},{"key":"10085143","name":"Sägebachweg","postalCode":"3114","locality":"Wichtrach","commune":{"key":"632","name":"Wichtrach","shortName":"Wichtrach"},"district":{"key":"246","name":"Verwaltungskreis Bern-Mittelland"},"canton":{"key":"2","code":"BE","name":"Bern / Berne"},"status":"Real"},{"key":"10080573","name":"Sägeweg","postalCode":"3114","locality":"Wichtrach","commune":{"key":"632","name":"Wichtrach","shortName":"Wichtrach"},"district":{"key":"246","name":"Verwaltungskreis Bern-Mittelland"},"canton":{"key":"2","code":"BE","name":"Bern / Berne"},"status":"Real"},{"key":"10060248","name":"Schilthornweg","postalCode":"3114","locality":"Wichtrach","commune":{"key":"632","name":"Wichtrach","shortName":"Wichtrach"},"district":{"key":"246","name":"Verwaltungskreis Bern-Mittelland"},"canton":{"key":"2","code":"BE","name":"Bern / Berne"},"status":"Real"},{"key":"10001032","name":"Schmitteweg","postalCode":"3114","locality":"Wichtrach","commune":{"key":"632","name":"Wichtrach","shortName":"Wichtrach"},"district":{"key":"246","name":"Verwaltungskreis Bern-Mittelland"},"canton":{"key":"2","code":"BE","name":"Bern / Berne"},"status":"Real"},{"key":"10124649","name":"Schulhausstrasse","postalCode":"3114","locality":"Wichtrach","commune":{"key":"632","name":"Wichtrach","shortName":"Wichtrach"},"district":{"key":"246","name":"Verwaltungskreis Bern-Mittelland"},"canton":{"key":"2","code":"BE","name":"Bern / Berne"},"status":"Real"},{"key":"10080572","name":"Schulhausweg","postalCode":"3114","locality":"Wichtrach","commune":{"key":"632","name":"Wichtrach","shortName":"Wichtrach"},"district":{"key":"246","name":"Verwaltungskreis Bern-Mittelland"},"canton":{"key":"2","code":"BE","name":"Bern / Berne"},"status":"Real"},{"key":"10085142","name":"Schürlimattweg","postalCode":"3114","locality":"Wichtrach","commune":{"key":"632","name":"Wichtrach","shortName":"Wichtrach"},"district":{"key":"246","name":"Verwaltungskreis Bern-Mittelland"},"canton":{"key":"2","code":"BE","name":"Bern / Berne"},"status":"Real"},{"key":"10220872","name":"Schürliweg","postalCode":"3114","locality":"Wichtrach","commune":{"key":"632","name":"Wichtrach","shortName":"Wichtrach"},"district":{"key":"246","name":"Verwaltungskreis Bern-Mittelland"},"canton":{"key":"2","code":"BE","name":"Bern / Berne"},"status":"Real"},{"key":"10005255","name":"Seckmattweg","postalCode":"3114","locality":"Wichtrach","commune":{"key":"632","name":"Wichtrach","shortName":"Wichtrach"},"district":{"key":"246","name":"Verwaltungskreis Bern-Mittelland"},"canton":{"key":"2","code":"BE","name":"Bern / Berne"},"status":"Real"},{"key":"10112789","name":"Seilereistrasse","postalCode":"3114","locality":"Wichtrach","commune":{"key":"632","name":"Wichtrach","shortName":"Wichtrach"},"district":{"key":"246","name":"Verwaltungskreis Bern-Mittelland"},"canton":{"key":"2","code":"BE","name":"Bern / Berne"},"status":"Real"},{"key":"10001033","name":"Siedlungsstrasse","postalCode":"3114","locality":"Wichtrach","commune":{"key":"632","name":"Wichtrach","shortName":"Wichtrach"},"district":{"key":"246","name":"Verwaltungskreis Bern-Mittelland"},"canton":{"key":"2","code":"BE","name":"Bern / Berne"},"status":"Real"},{"key":"10220876","name":"Sifeldweg","postalCode":"3114","locality":"Wichtrach","commune":{"key":"632","name":"Wichtrach","shortName":"Wichtrach"},"district":{"key":"246","name":"Verwaltungskreis Bern-Mittelland"},"canton":{"key":"2","code":"BE","name":"Bern / Berne"},"status":"Real"},{"key":"10005256","name":"Stadelfeldstrasse","postalCode":"3114","locality":"Wichtrach","commune":{"key":"632","name":"Wichtrach","shortName":"Wichtrach"},"district":{"key":"246","name":"Verwaltungskreis Bern-Mittelland"},"canton":{"key":"2","code":"BE","name":"Bern / Berne"},"status":"Real"},{"key":"10060249","name":"Stockerenweg","postalCode":"3114","locality":"Wichtrach","commune":{"key":"632","name":"Wichtrach","shortName":"Wichtrach"},"district":{"key":"246","name":"Verwaltungskreis Bern-Mittelland"},"canton":{"key":"2","code":"BE","name":"Bern / Berne"},"status":"Real"},{"key":"10112402","name":"Stockhornstrasse","postalCode":"3114","locality":"Wichtrach","commune":{"key":"632","name":"Wichtrach","shortName":"Wichtrach"},"district":{"key":"246","name":"Verwaltungskreis Bern-Mittelland"},"canton":{"key":"2","code":"BE","name":"Bern / Berne"},"status":"Real"},{"key":"10060224","name":"Stutzstrasse","postalCode":"3114","locality":"Wichtrach","commune":{"key":"632","name":"Wichtrach","shortName":"Wichtrach"},"district":{"key":"246","name":"Verwaltungskreis Bern-Mittelland"},"canton":{"key":"2","code":"BE","name":"Bern / Berne"},"status":"Real"},{"key":"10243667","name":"Sunnrain","postalCode":"3114","locality":"Wichtrach","commune":{"key":"632","name":"Wichtrach","shortName":"Wichtrach"},"district":{"key":"246","name":"Verwaltungskreis Bern-Mittelland"},"canton":{"key":"2","code":"BE","name":"Bern / Berne"},"status":"Real"},{"key":"10220880","name":"Sunnrainweg","postalCode":"3114","locality":"Wichtrach","commune":{"key":"632","name":"Wichtrach","shortName":"Wichtrach"},"district":{"key":"246","name":"Verwaltungskreis Bern-Mittelland"},"canton":{"key":"2","code":"BE","name":"Bern / Berne"},"status":"Real"},{"key":"10001035","name":"Tägertschistrasse","postalCode":"3114","locality":"Wichtrach","commune":{"key":"632","name":"Wichtrach","shortName":"Wichtrach"},"district":{"key":"246","name":"Verwaltungskreis Bern-Mittelland"},"canton":{"key":"2","code":"BE","name":"Bern / Berne"},"status":"Real"},{"key":"10220884","name":"Talweg","postalCode":"3114","locality":"Wichtrach","commune":{"key":"632","name":"Wichtrach","shortName":"Wichtrach"},"district":{"key":"246","name":"Verwaltungskreis Bern-Mittelland"},"canton":{"key":"2","code":"BE","name":"Bern / Berne"},"status":"Real"},{"key":"10005257","name":"Tannenweg","postalCode":"3114","locality":"Wichtrach","commune":{"key":"632","name":"Wichtrach","shortName":"Wichtrach"},"district":{"key":"246","name":"Verwaltungskreis Bern-Mittelland"},"canton":{"key":"2","code":"BE","name":"Bern / Berne"},"status":"Real"},{"key":"10001034","name":"Tannliweg","postalCode":"3114","locality":"Wichtrach","commune":{"key":"632","name":"Wichtrach","shortName":"Wichtrach"},"district":{"key":"246","name":"Verwaltungskreis Bern-Mittelland"},"canton":{"key":"2","code":"BE","name":"Bern / Berne"},"status":"Real"},{"key":"10005258","name":"Thalgutstrasse","postalCode":"3114","locality":"Wichtrach","commune":{"key":"632","name":"Wichtrach","shortName":"Wichtrach"},"district":{"key":"246","name":"Verwaltungskreis Bern-Mittelland"},"canton":{"key":"2","code":"BE","name":"Bern / Berne"},"status":"Real"},{"key":"10060250","name":"Thalstrasse","postalCode":"3114","locality":"Wichtrach","commune":{"key":"632","name":"Wichtrach","shortName":"Wichtrach"},"district":{"key":"246","name":"Verwaltungskreis Bern-Mittelland"},"canton":{"key":"2","code":"BE","name":"Bern / Berne"},"status":"Real"},{"key":"10085144","name":"Thunstrasse","postalCode":"3114","locality":"Wichtrach","commune":{"key":"632","name":"Wichtrach","shortName":"Wichtrach"},"district":{"key":"246","name":"Verwaltungskreis Bern-Mittelland"},"canton":{"key":"2","code":"BE","name":"Bern / Berne"},"status":"Real"},{"key":"10219921","name":"Thunweg","postalCode":"3114","locality":"Wichtrach","commune":{"key":"632","name":"Wichtrach","shortName":"Wichtrach"},"district":{"key":"246","name":"Verwaltungskreis Bern-Mittelland"},"canton":{"key":"2","code":"BE","name":"Bern / Berne"},"status":"Real"},{"key":"10118390","name":"Unterrainweg","postalCode":"3114","locality":"Wichtrach","commune":{"key":"632","name":"Wichtrach","shortName":"Wichtrach"},"district":{"key":"246","name":"Verwaltungskreis Bern-Mittelland"},"canton":{"key":"2","code":"BE","name":"Bern / Berne"},"status":"Real"},{"key":"10219928","name":"Utelohweg","postalCode":"3114","locality":"Wichtrach","commune":{"key":"632","name":"Wichtrach","shortName":"Wichtrach"},"district":{"key":"246","name":"Verwaltungskreis Bern-Mittelland"},"canton":{"key":"2","code":"BE","name":"Bern / Berne"},"status":"Real"},{"key":"10220896","name":"Vogelrütiweg","postalCode":"3114","locality":"Wichtrach","commune":{"key":"632","name":"Wichtrach","shortName":"Wichtrach"},"district":{"key":"246","name":"Verwaltungskreis Bern-Mittelland"},"canton":{"key":"2","code":"BE","name":"Bern / Berne"},"status":"Real"},{"key":"10060225","name":"Vorderdorfstrasse","postalCode":"3114","locality":"Wichtrach","commune":{"key":"632","name":"Wichtrach","shortName":"Wichtrach"},"district":{"key":"246","name":"Verwaltungskreis Bern-Mittelland"},"canton":{"key":"2","code":"BE","name":"Bern / Berne"},"status":"Real"},{"key":"10001036","name":"Wagnerweg","postalCode":"3114","locality":"Wichtrach","commune":{"key":"632","name":"Wichtrach","shortName":"Wichtrach"},"district":{"key":"246","name":"Verwaltungskreis Bern-Mittelland"},"canton":{"key":"2","code":"BE","name":"Bern / Berne"},"status":"Real"},{"key":"10001037","name":"Waldeggstrasse","postalCode":"3114","locality":"Wichtrach","commune":{"key":"632","name":"Wichtrach","shortName":"Wichtrach"},"district":{"key":"246","name":"Verwaltungskreis Bern-Mittelland"},"canton":{"key":"2","code":"BE","name":"Bern / Berne"},"status":"Real"},{"key":"10124644","name":"Waldweg","postalCode":"3114","locality":"Wichtrach","commune":{"key":"632","name":"Wichtrach","shortName":"Wichtrach"},"district":{"key":"246","name":"Verwaltungskreis Bern-Mittelland"},"canton":{"key":"2","code":"BE","name":"Bern / Berne"},"status":"Real"},{"key":"10220901","name":"Wässerigweg","postalCode":"3114","locality":"Wichtrach","commune":{"key":"632","name":"Wichtrach","shortName":"Wichtrach"},"district":{"key":"246","name":"Verwaltungskreis Bern-Mittelland"},"canton":{"key":"2","code":"BE","name":"Bern / Berne"},"status":"Real"},{"key":"10131141","name":"Wasserweg","postalCode":"3114","locality":"Wichtrach","commune":{"key":"632","name":"Wichtrach","shortName":"Wichtrach"},"district":{"key":"246","name":"Verwaltungskreis Bern-Mittelland"},"canton":{"key":"2","code":"BE","name":"Bern / Berne"},"status":"Real"},{"key":"10220905","name":"Weiermattweg","postalCode":"3114","locality":"Wichtrach","commune":{"key":"632","name":"Wichtrach","shortName":"Wichtrach"},"district":{"key":"246","name":"Verwaltungskreis Bern-Mittelland"},"canton":{"key":"2","code":"BE","name":"Bern / Berne"},"status":"Real"},{"key":"10005259","name":"Wilstrasse","postalCode":"3114","locality":"Wichtrach","commune":{"key":"632","name":"Wichtrach","shortName":"Wichtrach"},"district":{"key":"246","name":"Verwaltungskreis Bern-Mittelland"},"canton":{"key":"2","code":"BE","name":"Bern / Berne"},"status":"Real"},{"key":"10001038","name":"Zielistrasse","postalCode":"3114","locality":"Wichtrach","commune":{"key":"632","name":"Wichtrach","shortName":"Wichtrach"},"district":{"key":"246","name":"Verwaltungskreis Bern-Mittelland"},"canton":{"key":"2","code":"BE","name":"Bern / Berne"},"status":"Real"},]