[{"key":"10180836","name":"Aarauerstrasse","postalCode":"5035","locality":"Unterentfelden","commune":{"key":"4013","name":"Unterentfelden","shortName":"Unterentfelden"},"district":{"key":"1901","name":"Bezirk Aarau"},"canton":{"key":"19","code":"AG","name":"Aargau"},"status":"Real"},{"key":"10101567","name":"Alpenweg","postalCode":"5035","locality":"Unterentfelden","commune":{"key":"4013","name":"Unterentfelden","shortName":"Unterentfelden"},"district":{"key":"1901","name":"Bezirk Aarau"},"canton":{"key":"19","code":"AG","name":"Aargau"},"status":"Real"},{"key":"10190188","name":"Alte Distelbergstrasse","postalCode":"5035","locality":"Unterentfelden","commune":{"key":"4013","name":"Unterentfelden","shortName":"Unterentfelden"},"district":{"key":"1901","name":"Bezirk Aarau"},"canton":{"key":"19","code":"AG","name":"Aargau"},"status":"Real"},{"key":"10034567","name":"Alte Gasse","postalCode":"5035","locality":"Unterentfelden","commune":{"key":"4013","name":"Unterentfelden","shortName":"Unterentfelden"},"district":{"key":"1901","name":"Bezirk Aarau"},"canton":{"key":"19","code":"AG","name":"Aargau"},"status":"Real"},{"key":"10034569","name":"Bächliweg","postalCode":"5035","locality":"Unterentfelden","commune":{"key":"4013","name":"Unterentfelden","shortName":"Unterentfelden"},"district":{"key":"1901","name":"Bezirk Aarau"},"canton":{"key":"19","code":"AG","name":"Aargau"},"status":"Real"},{"key":"10238897","name":"Badstrasse","postalCode":"5035","locality":"Unterentfelden","commune":{"key":"4013","name":"Unterentfelden","shortName":"Unterentfelden"},"district":{"key":"1901","name":"Bezirk Aarau"},"canton":{"key":"19","code":"AG","name":"Aargau"},"status":"Real"},{"key":"10112759","name":"Bäumlihofweg","postalCode":"5035","locality":"Unterentfelden","commune":{"key":"4013","name":"Unterentfelden","shortName":"Unterentfelden"},"district":{"key":"1901","name":"Bezirk Aarau"},"canton":{"key":"19","code":"AG","name":"Aargau"},"status":"Real"},{"key":"10125139","name":"Binzmattweg","postalCode":"5035","locality":"Unterentfelden","commune":{"key":"4013","name":"Unterentfelden","shortName":"Unterentfelden"},"district":{"key":"1901","name":"Bezirk Aarau"},"canton":{"key":"19","code":"AG","name":"Aargau"},"status":"Real"},{"key":"10051162","name":"Birkenweg","postalCode":"5035","locality":"Unterentfelden","commune":{"key":"4013","name":"Unterentfelden","shortName":"Unterentfelden"},"district":{"key":"1901","name":"Bezirk Aarau"},"canton":{"key":"19","code":"AG","name":"Aargau"},"status":"Real"},{"key":"10034568","name":"Blumenweg","postalCode":"5035","locality":"Unterentfelden","commune":{"key":"4013","name":"Unterentfelden","shortName":"Unterentfelden"},"district":{"key":"1901","name":"Bezirk Aarau"},"canton":{"key":"19","code":"AG","name":"Aargau"},"status":"Real"},{"key":"10072200","name":"Bollweg","postalCode":"5035","locality":"Unterentfelden","commune":{"key":"4013","name":"Unterentfelden","shortName":"Unterentfelden"},"district":{"key":"1901","name":"Bezirk Aarau"},"canton":{"key":"19","code":"AG","name":"Aargau"},"status":"Real"},{"key":"10051163","name":"Bucheggweg","postalCode":"5035","locality":"Unterentfelden","commune":{"key":"4013","name":"Unterentfelden","shortName":"Unterentfelden"},"district":{"key":"1901","name":"Bezirk Aarau"},"canton":{"key":"19","code":"AG","name":"Aargau"},"status":"Real"},{"key":"10135348","name":"Burgermattweg","postalCode":"5035","locality":"Unterentfelden","commune":{"key":"4013","name":"Unterentfelden","shortName":"Unterentfelden"},"district":{"key":"1901","name":"Bezirk Aarau"},"canton":{"key":"19","code":"AG","name":"Aargau"},"status":"Real"},{"key":"10238901","name":"Dammweg","postalCode":"5035","locality":"Unterentfelden","commune":{"key":"4013","name":"Unterentfelden","shortName":"Unterentfelden"},"district":{"key":"1901","name":"Bezirk Aarau"},"canton":{"key":"19","code":"AG","name":"Aargau"},"status":"Real"},{"key":"10051164","name":"Dorfbachweg","postalCode":"5035","locality":"Unterentfelden","commune":{"key":"4013","name":"Unterentfelden","shortName":"Unterentfelden"},"district":{"key":"1901","name":"Bezirk Aarau"},"canton":{"key":"19","code":"AG","name":"Aargau"},"status":"Real"},{"key":"10034570","name":"Eggacherweg","postalCode":"5035","locality":"Unterentfelden","commune":{"key":"4013","name":"Unterentfelden","shortName":"Unterentfelden"},"district":{"key":"1901","name":"Bezirk Aarau"},"canton":{"key":"19","code":"AG","name":"Aargau"},"status":"Real"},{"key":"10191509","name":"Eichenweg","postalCode":"5035","locality":"Unterentfelden","commune":{"key":"4013","name":"Unterentfelden","shortName":"Unterentfelden"},"district":{"key":"1901","name":"Bezirk Aarau"},"canton":{"key":"19","code":"AG","name":"Aargau"},"status":"Real"},{"key":"10238905","name":"Eichhoelzliweg","postalCode":"5035","locality":"Unterentfelden","commune":{"key":"4013","name":"Unterentfelden","shortName":"Unterentfelden"},"district":{"key":"1901","name":"Bezirk Aarau"},"canton":{"key":"19","code":"AG","name":"Aargau"},"status":"Real"},{"key":"10051165","name":"Eigerweg","postalCode":"5035","locality":"Unterentfelden","commune":{"key":"4013","name":"Unterentfelden","shortName":"Unterentfelden"},"district":{"key":"1901","name":"Bezirk Aarau"},"canton":{"key":"19","code":"AG","name":"Aargau"},"status":"Real"},{"key":"10092899","name":"Eppenbergstrasse","postalCode":"5035","locality":"Unterentfelden","commune":{"key":"4013","name":"Unterentfelden","shortName":"Unterentfelden"},"district":{"key":"1901","name":"Bezirk Aarau"},"canton":{"key":"19","code":"AG","name":"Aargau"},"status":"Real"},{"key":"10034571","name":"Erlifeldstrasse","postalCode":"5035","locality":"Unterentfelden","commune":{"key":"4013","name":"Unterentfelden","shortName":"Unterentfelden"},"district":{"key":"1901","name":"Bezirk Aarau"},"canton":{"key":"19","code":"AG","name":"Aargau"},"status":"Real"},{"key":"10101568","name":"Erlimattstrasse","postalCode":"5035","locality":"Unterentfelden","commune":{"key":"4013","name":"Unterentfelden","shortName":"Unterentfelden"},"district":{"key":"1901","name":"Bezirk Aarau"},"canton":{"key":"19","code":"AG","name":"Aargau"},"status":"Real"},{"key":"10034572","name":"Feldstrasse","postalCode":"5035","locality":"Unterentfelden","commune":{"key":"4013","name":"Unterentfelden","shortName":"Unterentfelden"},"district":{"key":"1901","name":"Bezirk Aarau"},"canton":{"key":"19","code":"AG","name":"Aargau"},"status":"Real"},{"key":"10238909","name":"Feuerwehrweg","postalCode":"5035","locality":"Unterentfelden","commune":{"key":"4013","name":"Unterentfelden","shortName":"Unterentfelden"},"district":{"key":"1901","name":"Bezirk Aarau"},"canton":{"key":"19","code":"AG","name":"Aargau"},"status":"Real"},{"key":"10051166","name":"Fliederweg","postalCode":"5035","locality":"Unterentfelden","commune":{"key":"4013","name":"Unterentfelden","shortName":"Unterentfelden"},"district":{"key":"1901","name":"Bezirk Aarau"},"canton":{"key":"19","code":"AG","name":"Aargau"},"status":"Real"},{"key":"10072201","name":"Flurweg","postalCode":"5035","locality":"Unterentfelden","commune":{"key":"4013","name":"Unterentfelden","shortName":"Unterentfelden"},"district":{"key":"1901","name":"Bezirk Aarau"},"canton":{"key":"19","code":"AG","name":"Aargau"},"status":"Real"},{"key":"10238913","name":"Friedhofweg","postalCode":"5035","locality":"Unterentfelden","commune":{"key":"4013","name":"Unterentfelden","shortName":"Unterentfelden"},"district":{"key":"1901","name":"Bezirk Aarau"},"canton":{"key":"19","code":"AG","name":"Aargau"},"status":"Real"},{"key":"10092900","name":"Gartenweg","postalCode":"5035","locality":"Unterentfelden","commune":{"key":"4013","name":"Unterentfelden","shortName":"Unterentfelden"},"district":{"key":"1901","name":"Bezirk Aarau"},"canton":{"key":"19","code":"AG","name":"Aargau"},"status":"Real"},{"key":"10158986","name":"Gärtnereiweg","postalCode":"5035","locality":"Unterentfelden","commune":{"key":"4013","name":"Unterentfelden","shortName":"Unterentfelden"},"district":{"key":"1901","name":"Bezirk Aarau"},"canton":{"key":"19","code":"AG","name":"Aargau"},"status":"Real"},{"key":"10180837","name":"Gönhardrain","postalCode":"5035","locality":"Unterentfelden","commune":{"key":"4013","name":"Unterentfelden","shortName":"Unterentfelden"},"district":{"key":"1901","name":"Bezirk Aarau"},"canton":{"key":"19","code":"AG","name":"Aargau"},"status":"Real"},{"key":"10034496","name":"Grenzweg","postalCode":"5035","locality":"Unterentfelden","commune":{"key":"4013","name":"Unterentfelden","shortName":"Unterentfelden"},"district":{"key":"1901","name":"Bezirk Aarau"},"canton":{"key":"19","code":"AG","name":"Aargau"},"status":"Real"},{"key":"10034573","name":"Hauptstrasse","postalCode":"5035","locality":"Unterentfelden","commune":{"key":"4013","name":"Unterentfelden","shortName":"Unterentfelden"},"district":{"key":"1901","name":"Bezirk Aarau"},"canton":{"key":"19","code":"AG","name":"Aargau"},"status":"Real"},{"key":"10072202","name":"Höhenweg","postalCode":"5035","locality":"Unterentfelden","commune":{"key":"4013","name":"Unterentfelden","shortName":"Unterentfelden"},"district":{"key":"1901","name":"Bezirk Aarau"},"canton":{"key":"19","code":"AG","name":"Aargau"},"status":"Real"},{"key":"10238917","name":"Hübeliweg","postalCode":"5035","locality":"Unterentfelden","commune":{"key":"4013","name":"Unterentfelden","shortName":"Unterentfelden"},"district":{"key":"1901","name":"Bezirk Aarau"},"canton":{"key":"19","code":"AG","name":"Aargau"},"status":"Real"},{"key":"10051167","name":"Jurastrasse","postalCode":"5035","locality":"Unterentfelden","commune":{"key":"4013","name":"Unterentfelden","shortName":"Unterentfelden"},"district":{"key":"1901","name":"Bezirk Aarau"},"canton":{"key":"19","code":"AG","name":"Aargau"},"status":"Real"},{"key":"10034574","name":"Kirchweg","postalCode":"5035","locality":"Unterentfelden","commune":{"key":"4013","name":"Unterentfelden","shortName":"Unterentfelden"},"district":{"key":"1901","name":"Bezirk Aarau"},"canton":{"key":"19","code":"AG","name":"Aargau"},"status":"Real"},{"key":"10092901","name":"Kornweg","postalCode":"5035","locality":"Unterentfelden","commune":{"key":"4013","name":"Unterentfelden","shortName":"Unterentfelden"},"district":{"key":"1901","name":"Bezirk Aarau"},"canton":{"key":"19","code":"AG","name":"Aargau"},"status":"Real"},{"key":"10034575","name":"Landenhof","postalCode":"5035","locality":"Unterentfelden","commune":{"key":"4013","name":"Unterentfelden","shortName":"Unterentfelden"},"district":{"key":"1901","name":"Bezirk Aarau"},"canton":{"key":"19","code":"AG","name":"Aargau"},"status":"Real"},{"key":"10051168","name":"Landenhofweg","postalCode":"5035","locality":"Unterentfelden","commune":{"key":"4013","name":"Unterentfelden","shortName":"Unterentfelden"},"district":{"key":"1901","name":"Bezirk Aarau"},"canton":{"key":"19","code":"AG","name":"Aargau"},"status":"Real"},{"key":"10034576","name":"Leubachweg","postalCode":"5035","locality":"Unterentfelden","commune":{"key":"4013","name":"Unterentfelden","shortName":"Unterentfelden"},"district":{"key":"1901","name":"Bezirk Aarau"},"canton":{"key":"19","code":"AG","name":"Aargau"},"status":"Real"},{"key":"10105607","name":"Marchweg","postalCode":"5035","locality":"Unterentfelden","commune":{"key":"4013","name":"Unterentfelden","shortName":"Unterentfelden"},"district":{"key":"1901","name":"Bezirk Aarau"},"canton":{"key":"19","code":"AG","name":"Aargau"},"status":"Real"},{"key":"10034577","name":"Mattenweg","postalCode":"5035","locality":"Unterentfelden","commune":{"key":"4013","name":"Unterentfelden","shortName":"Unterentfelden"},"district":{"key":"1901","name":"Bezirk Aarau"},"canton":{"key":"19","code":"AG","name":"Aargau"},"status":"Real"},{"key":"10139659","name":"Meerhafenweg","postalCode":"5035","locality":"Unterentfelden","commune":{"key":"4013","name":"Unterentfelden","shortName":"Unterentfelden"},"district":{"key":"1901","name":"Bezirk Aarau"},"canton":{"key":"19","code":"AG","name":"Aargau"},"status":"Real"},{"key":"10034578","name":"Mönchmattweg","postalCode":"5035","locality":"Unterentfelden","commune":{"key":"4013","name":"Unterentfelden","shortName":"Unterentfelden"},"district":{"key":"1901","name":"Bezirk Aarau"},"canton":{"key":"19","code":"AG","name":"Aargau"},"status":"Real"},{"key":"10051169","name":"Moosackerweg","postalCode":"5035","locality":"Unterentfelden","commune":{"key":"4013","name":"Unterentfelden","shortName":"Unterentfelden"},"district":{"key":"1901","name":"Bezirk Aarau"},"canton":{"key":"19","code":"AG","name":"Aargau"},"status":"Real"},{"key":"10072203","name":"Neufeldstrasse","postalCode":"5035","locality":"Unterentfelden","commune":{"key":"4013","name":"Unterentfelden","shortName":"Unterentfelden"},"district":{"key":"1901","name":"Bezirk Aarau"},"canton":{"key":"19","code":"AG","name":"Aargau"},"status":"Real"},{"key":"10101569","name":"Nordweg","postalCode":"5035","locality":"Unterentfelden","commune":{"key":"4013","name":"Unterentfelden","shortName":"Unterentfelden"},"district":{"key":"1901","name":"Bezirk Aarau"},"canton":{"key":"19","code":"AG","name":"Aargau"},"status":"Real"},{"key":"10180838","name":"Oberdorfstrasse","postalCode":"5035","locality":"Unterentfelden","commune":{"key":"4013","name":"Unterentfelden","shortName":"Unterentfelden"},"district":{"key":"1901","name":"Bezirk Aarau"},"canton":{"key":"19","code":"AG","name":"Aargau"},"status":"Real"},{"key":"10092903","name":"Obere Sonnhalde","postalCode":"5035","locality":"Unterentfelden","commune":{"key":"4013","name":"Unterentfelden","shortName":"Unterentfelden"},"district":{"key":"1901","name":"Bezirk Aarau"},"canton":{"key":"19","code":"AG","name":"Aargau"},"status":"Real"},{"key":"10051170","name":"Panoramaweg","postalCode":"5035","locality":"Unterentfelden","commune":{"key":"4013","name":"Unterentfelden","shortName":"Unterentfelden"},"district":{"key":"1901","name":"Bezirk Aarau"},"canton":{"key":"19","code":"AG","name":"Aargau"},"status":"Real"},{"key":"10034579","name":"Postweg","postalCode":"5035","locality":"Unterentfelden","commune":{"key":"4013","name":"Unterentfelden","shortName":"Unterentfelden"},"district":{"key":"1901","name":"Bezirk Aarau"},"canton":{"key":"19","code":"AG","name":"Aargau"},"status":"Real"},{"key":"10034580","name":"Quellmattstrasse","postalCode":"5035","locality":"Unterentfelden","commune":{"key":"4013","name":"Unterentfelden","shortName":"Unterentfelden"},"district":{"key":"1901","name":"Bezirk Aarau"},"canton":{"key":"19","code":"AG","name":"Aargau"},"status":"Real"},{"key":"10034581","name":"Ringweg","postalCode":"5035","locality":"Unterentfelden","commune":{"key":"4013","name":"Unterentfelden","shortName":"Unterentfelden"},"district":{"key":"1901","name":"Bezirk Aarau"},"canton":{"key":"19","code":"AG","name":"Aargau"},"status":"Real"},{"key":"10051171","name":"Rischweg","postalCode":"5035","locality":"Unterentfelden","commune":{"key":"4013","name":"Unterentfelden","shortName":"Unterentfelden"},"district":{"key":"1901","name":"Bezirk Aarau"},"canton":{"key":"19","code":"AG","name":"Aargau"},"status":"Real"},{"key":"10110969","name":"Roggenhausenstrasse","postalCode":"5035","locality":"Unterentfelden","commune":{"key":"4013","name":"Unterentfelden","shortName":"Unterentfelden"},"district":{"key":"1901","name":"Bezirk Aarau"},"canton":{"key":"19","code":"AG","name":"Aargau"},"status":"Real"},{"key":"10101570","name":"Sämisweidstrasse","postalCode":"5035","locality":"Unterentfelden","commune":{"key":"4013","name":"Unterentfelden","shortName":"Unterentfelden"},"district":{"key":"1901","name":"Bezirk Aarau"},"canton":{"key":"19","code":"AG","name":"Aargau"},"status":"Real"},{"key":"10238921","name":"Scheibenstandweg","postalCode":"5035","locality":"Unterentfelden","commune":{"key":"4013","name":"Unterentfelden","shortName":"Unterentfelden"},"district":{"key":"1901","name":"Bezirk Aarau"},"canton":{"key":"19","code":"AG","name":"Aargau"},"status":"Real"},{"key":"10051172","name":"Schinhuetweg","postalCode":"5035","locality":"Unterentfelden","commune":{"key":"4013","name":"Unterentfelden","shortName":"Unterentfelden"},"district":{"key":"1901","name":"Bezirk Aarau"},"canton":{"key":"19","code":"AG","name":"Aargau"},"status":"Real"},{"key":"10238925","name":"Schönenwerderstrasse","postalCode":"5035","locality":"Unterentfelden","commune":{"key":"4013","name":"Unterentfelden","shortName":"Unterentfelden"},"district":{"key":"1901","name":"Bezirk Aarau"},"canton":{"key":"19","code":"AG","name":"Aargau"},"status":"Real"},{"key":"10092904","name":"Schützenmattstrasse","postalCode":"5035","locality":"Unterentfelden","commune":{"key":"4013","name":"Unterentfelden","shortName":"Unterentfelden"},"district":{"key":"1901","name":"Bezirk Aarau"},"canton":{"key":"19","code":"AG","name":"Aargau"},"status":"Real"},{"key":"10112760","name":"Sonnhaldenweg","postalCode":"5035","locality":"Unterentfelden","commune":{"key":"4013","name":"Unterentfelden","shortName":"Unterentfelden"},"district":{"key":"1901","name":"Bezirk Aarau"},"canton":{"key":"19","code":"AG","name":"Aargau"},"status":"Real"},{"key":"10238929","name":"Steiweg","postalCode":"5035","locality":"Unterentfelden","commune":{"key":"4013","name":"Unterentfelden","shortName":"Unterentfelden"},"district":{"key":"1901","name":"Bezirk Aarau"},"canton":{"key":"19","code":"AG","name":"Aargau"},"status":"Real"},{"key":"10034582","name":"Suhrenmattstrasse","postalCode":"5035","locality":"Unterentfelden","commune":{"key":"4013","name":"Unterentfelden","shortName":"Unterentfelden"},"district":{"key":"1901","name":"Bezirk Aarau"},"canton":{"key":"19","code":"AG","name":"Aargau"},"status":"Real"},{"key":"10238933","name":"Suhrenringweg","postalCode":"5035","locality":"Unterentfelden","commune":{"key":"4013","name":"Unterentfelden","shortName":"Unterentfelden"},"district":{"key":"1901","name":"Bezirk Aarau"},"canton":{"key":"19","code":"AG","name":"Aargau"},"status":"Real"},{"key":"10238937","name":"Suhrentalstrasse","postalCode":"5035","locality":"Unterentfelden","commune":{"key":"4013","name":"Unterentfelden","shortName":"Unterentfelden"},"district":{"key":"1901","name":"Bezirk Aarau"},"canton":{"key":"19","code":"AG","name":"Aargau"},"status":"Real"},{"key":"10238941","name":"Suhrenweg","postalCode":"5035","locality":"Unterentfelden","commune":{"key":"4013","name":"Unterentfelden","shortName":"Unterentfelden"},"district":{"key":"1901","name":"Bezirk Aarau"},"canton":{"key":"19","code":"AG","name":"Aargau"},"status":"Real"},{"key":"10238945","name":"Suhrerstrasse","postalCode":"5035","locality":"Unterentfelden","commune":{"key":"4013","name":"Unterentfelden","shortName":"Unterentfelden"},"district":{"key":"1901","name":"Bezirk Aarau"},"canton":{"key":"19","code":"AG","name":"Aargau"},"status":"Real"},{"key":"10034583","name":"Tannenweg","postalCode":"5035","locality":"Unterentfelden","commune":{"key":"4013","name":"Unterentfelden","shortName":"Unterentfelden"},"district":{"key":"1901","name":"Bezirk Aarau"},"canton":{"key":"19","code":"AG","name":"Aargau"},"status":"Real"},{"key":"10092905","name":"Titlisstrasse","postalCode":"5035","locality":"Unterentfelden","commune":{"key":"4013","name":"Unterentfelden","shortName":"Unterentfelden"},"district":{"key":"1901","name":"Bezirk Aarau"},"canton":{"key":"19","code":"AG","name":"Aargau"},"status":"Real"},{"key":"10174049","name":"Tramweg","postalCode":"5035","locality":"Unterentfelden","commune":{"key":"4013","name":"Unterentfelden","shortName":"Unterentfelden"},"district":{"key":"1901","name":"Bezirk Aarau"},"canton":{"key":"19","code":"AG","name":"Aargau"},"status":"Real"},{"key":"10051173","name":"Uerkenweg","postalCode":"5035","locality":"Unterentfelden","commune":{"key":"4013","name":"Unterentfelden","shortName":"Unterentfelden"},"district":{"key":"1901","name":"Bezirk Aarau"},"canton":{"key":"19","code":"AG","name":"Aargau"},"status":"Real"},{"key":"10105608","name":"Untere Sonnhalde","postalCode":"5035","locality":"Unterentfelden","commune":{"key":"4013","name":"Unterentfelden","shortName":"Unterentfelden"},"district":{"key":"1901","name":"Bezirk Aarau"},"canton":{"key":"19","code":"AG","name":"Aargau"},"status":"Real"},{"key":"10158313","name":"Weibelmattweg","postalCode":"5035","locality":"Unterentfelden","commune":{"key":"4013","name":"Unterentfelden","shortName":"Unterentfelden"},"district":{"key":"1901","name":"Bezirk Aarau"},"canton":{"key":"19","code":"AG","name":"Aargau"},"status":"Real"},{"key":"10117242","name":"Weidweg","postalCode":"5035","locality":"Unterentfelden","commune":{"key":"4013","name":"Unterentfelden","shortName":"Unterentfelden"},"district":{"key":"1901","name":"Bezirk Aarau"},"canton":{"key":"19","code":"AG","name":"Aargau"},"status":"Real"},{"key":"10034584","name":"Weiherstrasse","postalCode":"5035","locality":"Unterentfelden","commune":{"key":"4013","name":"Unterentfelden","shortName":"Unterentfelden"},"district":{"key":"1901","name":"Bezirk Aarau"},"canton":{"key":"19","code":"AG","name":"Aargau"},"status":"Real"},{"key":"10186832","name":"Werkhofstrasse","postalCode":"5035","locality":"Unterentfelden","commune":{"key":"4013","name":"Unterentfelden","shortName":"Unterentfelden"},"district":{"key":"1901","name":"Bezirk Aarau"},"canton":{"key":"19","code":"AG","name":"Aargau"},"status":"Real"},{"key":"10179775","name":"Wiesenrain","postalCode":"5035","locality":"Unterentfelden","commune":{"key":"4013","name":"Unterentfelden","shortName":"Unterentfelden"},"district":{"key":"1901","name":"Bezirk Aarau"},"canton":{"key":"19","code":"AG","name":"Aargau"},"status":"Real"},]