[{"name":"Achalmstr.","postalCode":"72810","locality":"Gomaringen","municipality":{"key":"08416015","name":"Gomaringen","type":"Kreisangehörige_Gemeinde"},"district":{"key":"08416","name":"Tübingen","type":"Landkreis"},"federalState":{"key":"08","name":"Baden-Württemberg"}},{"name":"Ahornweg","postalCode":"72810","locality":"Gomaringen","municipality":{"key":"08416015","name":"Gomaringen","type":"Kreisangehörige_Gemeinde"},"district":{"key":"08416","name":"Tübingen","type":"Landkreis"},"federalState":{"key":"08","name":"Baden-Württemberg"}},{"name":"Aidelbergstr.","postalCode":"72810","locality":"Gomaringen","municipality":{"key":"08416015","name":"Gomaringen","type":"Kreisangehörige_Gemeinde"},"district":{"key":"08416","name":"Tübingen","type":"Landkreis"},"federalState":{"key":"08","name":"Baden-Württemberg"}},{"name":"Albert-Schweitzer-Str.","postalCode":"72810","locality":"Gomaringen","municipality":{"key":"08416015","name":"Gomaringen","type":"Kreisangehörige_Gemeinde"},"district":{"key":"08416","name":"Tübingen","type":"Landkreis"},"federalState":{"key":"08","name":"Baden-Württemberg"}},{"name":"Albstr.","postalCode":"72810","locality":"Gomaringen","municipality":{"key":"08416015","name":"Gomaringen","type":"Kreisangehörige_Gemeinde"},"district":{"key":"08416","name":"Tübingen","type":"Landkreis"},"federalState":{"key":"08","name":"Baden-Württemberg"}},{"name":"Alteburgstr.","postalCode":"72810","locality":"Gomaringen","municipality":{"key":"08416015","name":"Gomaringen","type":"Kreisangehörige_Gemeinde"},"district":{"key":"08416","name":"Tübingen","type":"Landkreis"},"federalState":{"key":"08","name":"Baden-Württemberg"}},{"name":"Am Heckberg","postalCode":"72810","locality":"Gomaringen","municipality":{"key":"08416015","name":"Gomaringen","type":"Kreisangehörige_Gemeinde"},"district":{"key":"08416","name":"Tübingen","type":"Landkreis"},"federalState":{"key":"08","name":"Baden-Württemberg"}},{"name":"Amselweg","postalCode":"72810","locality":"Gomaringen","municipality":{"key":"08416015","name":"Gomaringen","type":"Kreisangehörige_Gemeinde"},"district":{"key":"08416","name":"Tübingen","type":"Landkreis"},"federalState":{"key":"08","name":"Baden-Württemberg"}},{"name":"Annette-Kolb-Str.","postalCode":"72810","locality":"Gomaringen","municipality":{"key":"08416015","name":"Gomaringen","type":"Kreisangehörige_Gemeinde"},"district":{"key":"08416","name":"Tübingen","type":"Landkreis"},"federalState":{"key":"08","name":"Baden-Württemberg"}},{"name":"Auchtertgasse","postalCode":"72810","locality":"Gomaringen","municipality":{"key":"08416015","name":"Gomaringen","type":"Kreisangehörige_Gemeinde"},"district":{"key":"08416","name":"Tübingen","type":"Landkreis"},"federalState":{"key":"08","name":"Baden-Württemberg"}},{"name":"Auf dem Schäferrain","postalCode":"72810","locality":"Gomaringen","municipality":{"key":"08416015","name":"Gomaringen","type":"Kreisangehörige_Gemeinde"},"district":{"key":"08416","name":"Tübingen","type":"Landkreis"},"federalState":{"key":"08","name":"Baden-Württemberg"}},{"name":"Bachstr.","postalCode":"72810","locality":"Gomaringen","municipality":{"key":"08416015","name":"Gomaringen","type":"Kreisangehörige_Gemeinde"},"district":{"key":"08416","name":"Tübingen","type":"Landkreis"},"federalState":{"key":"08","name":"Baden-Württemberg"}},{"name":"Bahnhofstr.","postalCode":"72810","locality":"Gomaringen","municipality":{"key":"08416015","name":"Gomaringen","type":"Kreisangehörige_Gemeinde"},"district":{"key":"08416","name":"Tübingen","type":"Landkreis"},"federalState":{"key":"08","name":"Baden-Württemberg"}},{"name":"Baumgartenweg","postalCode":"72810","locality":"Gomaringen","municipality":{"key":"08416015","name":"Gomaringen","type":"Kreisangehörige_Gemeinde"},"district":{"key":"08416","name":"Tübingen","type":"Landkreis"},"federalState":{"key":"08","name":"Baden-Württemberg"}},{"name":"Beethovenstr.","postalCode":"72810","locality":"Gomaringen","municipality":{"key":"08416015","name":"Gomaringen","type":"Kreisangehörige_Gemeinde"},"district":{"key":"08416","name":"Tübingen","type":"Landkreis"},"federalState":{"key":"08","name":"Baden-Württemberg"}},{"name":"Benzstr.","postalCode":"72810","locality":"Gomaringen","municipality":{"key":"08416015","name":"Gomaringen","type":"Kreisangehörige_Gemeinde"},"district":{"key":"08416","name":"Tübingen","type":"Landkreis"},"federalState":{"key":"08","name":"Baden-Württemberg"}},{"name":"Birkenweg","postalCode":"72810","locality":"Gomaringen","municipality":{"key":"08416015","name":"Gomaringen","type":"Kreisangehörige_Gemeinde"},"district":{"key":"08416","name":"Tübingen","type":"Landkreis"},"federalState":{"key":"08","name":"Baden-Württemberg"}},{"name":"Bismarckstr.","postalCode":"72810","locality":"Gomaringen","municipality":{"key":"08416015","name":"Gomaringen","type":"Kreisangehörige_Gemeinde"},"district":{"key":"08416","name":"Tübingen","type":"Landkreis"},"federalState":{"key":"08","name":"Baden-Württemberg"}},{"name":"Blumenstr.","postalCode":"72810","locality":"Gomaringen","municipality":{"key":"08416015","name":"Gomaringen","type":"Kreisangehörige_Gemeinde"},"district":{"key":"08416","name":"Tübingen","type":"Landkreis"},"federalState":{"key":"08","name":"Baden-Württemberg"}},{"name":"Blumhardtstr.","postalCode":"72810","locality":"Gomaringen","municipality":{"key":"08416015","name":"Gomaringen","type":"Kreisangehörige_Gemeinde"},"district":{"key":"08416","name":"Tübingen","type":"Landkreis"},"federalState":{"key":"08","name":"Baden-Württemberg"}},{"name":"Bolbergstr.","postalCode":"72810","locality":"Gomaringen","municipality":{"key":"08416015","name":"Gomaringen","type":"Kreisangehörige_Gemeinde"},"district":{"key":"08416","name":"Tübingen","type":"Landkreis"},"federalState":{"key":"08","name":"Baden-Württemberg"}},{"name":"Brahmsweg","postalCode":"72810","locality":"Gomaringen","municipality":{"key":"08416015","name":"Gomaringen","type":"Kreisangehörige_Gemeinde"},"district":{"key":"08416","name":"Tübingen","type":"Landkreis"},"federalState":{"key":"08","name":"Baden-Württemberg"}},{"name":"Brucknerstr.","postalCode":"72810","locality":"Gomaringen","municipality":{"key":"08416015","name":"Gomaringen","type":"Kreisangehörige_Gemeinde"},"district":{"key":"08416","name":"Tübingen","type":"Landkreis"},"federalState":{"key":"08","name":"Baden-Württemberg"}},{"name":"Brühlstr.","postalCode":"72810","locality":"Gomaringen","municipality":{"key":"08416015","name":"Gomaringen","type":"Kreisangehörige_Gemeinde"},"district":{"key":"08416","name":"Tübingen","type":"Landkreis"},"federalState":{"key":"08","name":"Baden-Württemberg"}},{"name":"Brunnengasse","postalCode":"72810","locality":"Gomaringen","municipality":{"key":"08416015","name":"Gomaringen","type":"Kreisangehörige_Gemeinde"},"district":{"key":"08416","name":"Tübingen","type":"Landkreis"},"federalState":{"key":"08","name":"Baden-Württemberg"}},{"name":"Brünnlesweg","postalCode":"72810","locality":"Gomaringen","municipality":{"key":"08416015","name":"Gomaringen","type":"Kreisangehörige_Gemeinde"},"district":{"key":"08416","name":"Tübingen","type":"Landkreis"},"federalState":{"key":"08","name":"Baden-Württemberg"}},{"name":"Buchenstr.","postalCode":"72810","locality":"Gomaringen","municipality":{"key":"08416015","name":"Gomaringen","type":"Kreisangehörige_Gemeinde"},"district":{"key":"08416","name":"Tübingen","type":"Landkreis"},"federalState":{"key":"08","name":"Baden-Württemberg"}},{"name":"Christoph-Wieland-Weg","postalCode":"72810","locality":"Gomaringen","municipality":{"key":"08416015","name":"Gomaringen","type":"Kreisangehörige_Gemeinde"},"district":{"key":"08416","name":"Tübingen","type":"Landkreis"},"federalState":{"key":"08","name":"Baden-Württemberg"}},{"name":"Clemens-Brentano-Weg","postalCode":"72810","locality":"Gomaringen","municipality":{"key":"08416015","name":"Gomaringen","type":"Kreisangehörige_Gemeinde"},"district":{"key":"08416","name":"Tübingen","type":"Landkreis"},"federalState":{"key":"08","name":"Baden-Württemberg"}},{"name":"Daimlerstr.","postalCode":"72810","locality":"Gomaringen","municipality":{"key":"08416015","name":"Gomaringen","type":"Kreisangehörige_Gemeinde"},"district":{"key":"08416","name":"Tübingen","type":"Landkreis"},"federalState":{"key":"08","name":"Baden-Württemberg"}},{"name":"Dieselstr.","postalCode":"72810","locality":"Gomaringen","municipality":{"key":"08416015","name":"Gomaringen","type":"Kreisangehörige_Gemeinde"},"district":{"key":"08416","name":"Tübingen","type":"Landkreis"},"federalState":{"key":"08","name":"Baden-Württemberg"}},{"name":"Dußlinger Str.","postalCode":"72810","locality":"Gomaringen","municipality":{"key":"08416015","name":"Gomaringen","type":"Kreisangehörige_Gemeinde"},"district":{"key":"08416","name":"Tübingen","type":"Landkreis"},"federalState":{"key":"08","name":"Baden-Württemberg"}},{"name":"Eibenweg","postalCode":"72810","locality":"Gomaringen","municipality":{"key":"08416015","name":"Gomaringen","type":"Kreisangehörige_Gemeinde"},"district":{"key":"08416","name":"Tübingen","type":"Landkreis"},"federalState":{"key":"08","name":"Baden-Württemberg"}},{"name":"Eichendorffstr.","postalCode":"72810","locality":"Gomaringen","municipality":{"key":"08416015","name":"Gomaringen","type":"Kreisangehörige_Gemeinde"},"district":{"key":"08416","name":"Tübingen","type":"Landkreis"},"federalState":{"key":"08","name":"Baden-Württemberg"}},{"name":"Eichenweg","postalCode":"72810","locality":"Gomaringen","municipality":{"key":"08416015","name":"Gomaringen","type":"Kreisangehörige_Gemeinde"},"district":{"key":"08416","name":"Tübingen","type":"Landkreis"},"federalState":{"key":"08","name":"Baden-Württemberg"}},{"name":"Einsteinstr.","postalCode":"72810","locality":"Gomaringen","municipality":{"key":"08416015","name":"Gomaringen","type":"Kreisangehörige_Gemeinde"},"district":{"key":"08416","name":"Tübingen","type":"Landkreis"},"federalState":{"key":"08","name":"Baden-Württemberg"}},{"name":"Eisenbahnweg","postalCode":"72810","locality":"Gomaringen","municipality":{"key":"08416015","name":"Gomaringen","type":"Kreisangehörige_Gemeinde"},"district":{"key":"08416","name":"Tübingen","type":"Landkreis"},"federalState":{"key":"08","name":"Baden-Württemberg"}},{"name":"Engelhagstr.","postalCode":"72810","locality":"Gomaringen","municipality":{"key":"08416015","name":"Gomaringen","type":"Kreisangehörige_Gemeinde"},"district":{"key":"08416","name":"Tübingen","type":"Landkreis"},"federalState":{"key":"08","name":"Baden-Württemberg"}},{"name":"Erdbachstr.","postalCode":"72810","locality":"Gomaringen","municipality":{"key":"08416015","name":"Gomaringen","type":"Kreisangehörige_Gemeinde"},"district":{"key":"08416","name":"Tübingen","type":"Landkreis"},"federalState":{"key":"08","name":"Baden-Württemberg"}},{"name":"Erich-Kästner-Weg","postalCode":"72810","locality":"Gomaringen","municipality":{"key":"08416015","name":"Gomaringen","type":"Kreisangehörige_Gemeinde"},"district":{"key":"08416","name":"Tübingen","type":"Landkreis"},"federalState":{"key":"08","name":"Baden-Württemberg"}},{"name":"Erlachweg","postalCode":"72810","locality":"Gomaringen","municipality":{"key":"08416015","name":"Gomaringen","type":"Kreisangehörige_Gemeinde"},"district":{"key":"08416","name":"Tübingen","type":"Landkreis"},"federalState":{"key":"08","name":"Baden-Württemberg"}},{"name":"Eugen-Bolz-Str.","postalCode":"72810","locality":"Gomaringen","municipality":{"key":"08416015","name":"Gomaringen","type":"Kreisangehörige_Gemeinde"},"district":{"key":"08416","name":"Tübingen","type":"Landkreis"},"federalState":{"key":"08","name":"Baden-Württemberg"}},{"name":"Filsenbergstr.","postalCode":"72810","locality":"Gomaringen","municipality":{"key":"08416015","name":"Gomaringen","type":"Kreisangehörige_Gemeinde"},"district":{"key":"08416","name":"Tübingen","type":"Landkreis"},"federalState":{"key":"08","name":"Baden-Württemberg"}},{"name":"Friedhofstr.","postalCode":"72810","locality":"Gomaringen","municipality":{"key":"08416015","name":"Gomaringen","type":"Kreisangehörige_Gemeinde"},"district":{"key":"08416","name":"Tübingen","type":"Landkreis"},"federalState":{"key":"08","name":"Baden-Württemberg"}},{"name":"Friedrichstr.","postalCode":"72810","locality":"Gomaringen","municipality":{"key":"08416015","name":"Gomaringen","type":"Kreisangehörige_Gemeinde"},"district":{"key":"08416","name":"Tübingen","type":"Landkreis"},"federalState":{"key":"08","name":"Baden-Württemberg"}},{"name":"Fußweg zum Horn","postalCode":"72810","locality":"Gomaringen","municipality":{"key":"08416015","name":"Gomaringen","type":"Kreisangehörige_Gemeinde"},"district":{"key":"08416","name":"Tübingen","type":"Landkreis"},"federalState":{"key":"08","name":"Baden-Württemberg"}},{"name":"Ganghoferstr.","postalCode":"72810","locality":"Gomaringen","municipality":{"key":"08416015","name":"Gomaringen","type":"Kreisangehörige_Gemeinde"},"district":{"key":"08416","name":"Tübingen","type":"Landkreis"},"federalState":{"key":"08","name":"Baden-Württemberg"}},{"name":"Gartenstr.","postalCode":"72810","locality":"Gomaringen","municipality":{"key":"08416015","name":"Gomaringen","type":"Kreisangehörige_Gemeinde"},"district":{"key":"08416","name":"Tübingen","type":"Landkreis"},"federalState":{"key":"08","name":"Baden-Württemberg"}},{"name":"Georg-Scheerer-Str.","postalCode":"72810","locality":"Gomaringen","municipality":{"key":"08416015","name":"Gomaringen","type":"Kreisangehörige_Gemeinde"},"district":{"key":"08416","name":"Tübingen","type":"Landkreis"},"federalState":{"key":"08","name":"Baden-Württemberg"}},{"name":"Gerhart-Hauptmann-Str.","postalCode":"72810","locality":"Gomaringen","municipality":{"key":"08416015","name":"Gomaringen","type":"Kreisangehörige_Gemeinde"},"district":{"key":"08416","name":"Tübingen","type":"Landkreis"},"federalState":{"key":"08","name":"Baden-Württemberg"}},{"name":"Gerichtshof","postalCode":"72810","locality":"Gomaringen","municipality":{"key":"08416015","name":"Gomaringen","type":"Kreisangehörige_Gemeinde"},"district":{"key":"08416","name":"Tübingen","type":"Landkreis"},"federalState":{"key":"08","name":"Baden-Württemberg"}},{"name":"Goethestr.","postalCode":"72810","locality":"Gomaringen","municipality":{"key":"08416015","name":"Gomaringen","type":"Kreisangehörige_Gemeinde"},"district":{"key":"08416","name":"Tübingen","type":"Landkreis"},"federalState":{"key":"08","name":"Baden-Württemberg"}},{"name":"Gomaringer Str.","postalCode":"72810","locality":"Gomaringen","municipality":{"key":"08416015","name":"Gomaringen","type":"Kreisangehörige_Gemeinde"},"district":{"key":"08416","name":"Tübingen","type":"Landkreis"},"federalState":{"key":"08","name":"Baden-Württemberg"}},{"name":"Gotthold-Kindler-Str.","postalCode":"72810","locality":"Gomaringen","municipality":{"key":"08416015","name":"Gomaringen","type":"Kreisangehörige_Gemeinde"},"district":{"key":"08416","name":"Tübingen","type":"Landkreis"},"federalState":{"key":"08","name":"Baden-Württemberg"}},{"name":"Gröbnestr.","postalCode":"72810","locality":"Gomaringen","municipality":{"key":"08416015","name":"Gomaringen","type":"Kreisangehörige_Gemeinde"},"district":{"key":"08416","name":"Tübingen","type":"Landkreis"},"federalState":{"key":"08","name":"Baden-Württemberg"}},{"name":"Grundstr.","postalCode":"72810","locality":"Gomaringen","municipality":{"key":"08416015","name":"Gomaringen","type":"Kreisangehörige_Gemeinde"},"district":{"key":"08416","name":"Tübingen","type":"Landkreis"},"federalState":{"key":"08","name":"Baden-Württemberg"}},{"name":"Gutenbergstr.","postalCode":"72810","locality":"Gomaringen","municipality":{"key":"08416015","name":"Gomaringen","type":"Kreisangehörige_Gemeinde"},"district":{"key":"08416","name":"Tübingen","type":"Landkreis"},"federalState":{"key":"08","name":"Baden-Württemberg"}},{"name":"Hagstr.","postalCode":"72810","locality":"Gomaringen","municipality":{"key":"08416015","name":"Gomaringen","type":"Kreisangehörige_Gemeinde"},"district":{"key":"08416","name":"Tübingen","type":"Landkreis"},"federalState":{"key":"08","name":"Baden-Württemberg"}},{"name":"Hammerwerk","postalCode":"72810","locality":"Gomaringen","municipality":{"key":"08416015","name":"Gomaringen","type":"Kreisangehörige_Gemeinde"},"district":{"key":"08416","name":"Tübingen","type":"Landkreis"},"federalState":{"key":"08","name":"Baden-Württemberg"}},{"name":"Härmlingstr.","postalCode":"72810","locality":"Gomaringen","municipality":{"key":"08416015","name":"Gomaringen","type":"Kreisangehörige_Gemeinde"},"district":{"key":"08416","name":"Tübingen","type":"Landkreis"},"federalState":{"key":"08","name":"Baden-Württemberg"}},{"name":"Härtenstr.","postalCode":"72810","locality":"Gomaringen","municipality":{"key":"08416015","name":"Gomaringen","type":"Kreisangehörige_Gemeinde"},"district":{"key":"08416","name":"Tübingen","type":"Landkreis"},"federalState":{"key":"08","name":"Baden-Württemberg"}},{"name":"Hartwasen","postalCode":"72810","locality":"Gomaringen","municipality":{"key":"08416015","name":"Gomaringen","type":"Kreisangehörige_Gemeinde"},"district":{"key":"08416","name":"Tübingen","type":"Landkreis"},"federalState":{"key":"08","name":"Baden-Württemberg"}},{"name":"Hauffstr.","postalCode":"72810","locality":"Gomaringen","municipality":{"key":"08416015","name":"Gomaringen","type":"Kreisangehörige_Gemeinde"},"district":{"key":"08416","name":"Tübingen","type":"Landkreis"},"federalState":{"key":"08","name":"Baden-Württemberg"}},{"name":"Hauptstr.","postalCode":"72810","locality":"Gomaringen","municipality":{"key":"08416015","name":"Gomaringen","type":"Kreisangehörige_Gemeinde"},"district":{"key":"08416","name":"Tübingen","type":"Landkreis"},"federalState":{"key":"08","name":"Baden-Württemberg"}},{"name":"Haydnstr.","postalCode":"72810","locality":"Gomaringen","municipality":{"key":"08416015","name":"Gomaringen","type":"Kreisangehörige_Gemeinde"},"district":{"key":"08416","name":"Tübingen","type":"Landkreis"},"federalState":{"key":"08","name":"Baden-Württemberg"}},{"name":"Hechinger Str.","postalCode":"72810","locality":"Gomaringen","municipality":{"key":"08416015","name":"Gomaringen","type":"Kreisangehörige_Gemeinde"},"district":{"key":"08416","name":"Tübingen","type":"Landkreis"},"federalState":{"key":"08","name":"Baden-Württemberg"}},{"name":"Hegelweg","postalCode":"72810","locality":"Gomaringen","municipality":{"key":"08416015","name":"Gomaringen","type":"Kreisangehörige_Gemeinde"},"district":{"key":"08416","name":"Tübingen","type":"Landkreis"},"federalState":{"key":"08","name":"Baden-Württemberg"}},{"name":"Heinrich-Heine-Str.","postalCode":"72810","locality":"Gomaringen","municipality":{"key":"08416015","name":"Gomaringen","type":"Kreisangehörige_Gemeinde"},"district":{"key":"08416","name":"Tübingen","type":"Landkreis"},"federalState":{"key":"08","name":"Baden-Württemberg"}},{"name":"Heinrich-von-Kleist-Weg","postalCode":"72810","locality":"Gomaringen","municipality":{"key":"08416015","name":"Gomaringen","type":"Kreisangehörige_Gemeinde"},"district":{"key":"08416","name":"Tübingen","type":"Landkreis"},"federalState":{"key":"08","name":"Baden-Württemberg"}},{"name":"Hermann-Hesse-Str.","postalCode":"72810","locality":"Gomaringen","municipality":{"key":"08416015","name":"Gomaringen","type":"Kreisangehörige_Gemeinde"},"district":{"key":"08416","name":"Tübingen","type":"Landkreis"},"federalState":{"key":"08","name":"Baden-Württemberg"}},{"name":"Hermann-Löns-Weg","postalCode":"72810","locality":"Gomaringen","municipality":{"key":"08416015","name":"Gomaringen","type":"Kreisangehörige_Gemeinde"},"district":{"key":"08416","name":"Tübingen","type":"Landkreis"},"federalState":{"key":"08","name":"Baden-Württemberg"}},{"name":"Hindenburgstr.","postalCode":"72810","locality":"Gomaringen","municipality":{"key":"08416015","name":"Gomaringen","type":"Kreisangehörige_Gemeinde"},"district":{"key":"08416","name":"Tübingen","type":"Landkreis"},"federalState":{"key":"08","name":"Baden-Württemberg"}},{"name":"Hinter den Zäunen","postalCode":"72810","locality":"Gomaringen","municipality":{"key":"08416015","name":"Gomaringen","type":"Kreisangehörige_Gemeinde"},"district":{"key":"08416","name":"Tübingen","type":"Landkreis"},"federalState":{"key":"08","name":"Baden-Württemberg"}},{"name":"Hinterweilerstr.","postalCode":"72810","locality":"Gomaringen","municipality":{"key":"08416015","name":"Gomaringen","type":"Kreisangehörige_Gemeinde"},"district":{"key":"08416","name":"Tübingen","type":"Landkreis"},"federalState":{"key":"08","name":"Baden-Württemberg"}},{"name":"Hohenstaufenstr.","postalCode":"72810","locality":"Gomaringen","municipality":{"key":"08416015","name":"Gomaringen","type":"Kreisangehörige_Gemeinde"},"district":{"key":"08416","name":"Tübingen","type":"Landkreis"},"federalState":{"key":"08","name":"Baden-Württemberg"}},{"name":"Hohenzollernstr.","postalCode":"72810","locality":"Gomaringen","municipality":{"key":"08416015","name":"Gomaringen","type":"Kreisangehörige_Gemeinde"},"district":{"key":"08416","name":"Tübingen","type":"Landkreis"},"federalState":{"key":"08","name":"Baden-Württemberg"}},{"name":"Hoher Rain","postalCode":"72810","locality":"Gomaringen","municipality":{"key":"08416015","name":"Gomaringen","type":"Kreisangehörige_Gemeinde"},"district":{"key":"08416","name":"Tübingen","type":"Landkreis"},"federalState":{"key":"08","name":"Baden-Württemberg"}},{"name":"Hölderlinstr.","postalCode":"72810","locality":"Gomaringen","municipality":{"key":"08416015","name":"Gomaringen","type":"Kreisangehörige_Gemeinde"},"district":{"key":"08416","name":"Tübingen","type":"Landkreis"},"federalState":{"key":"08","name":"Baden-Württemberg"}},{"name":"Hornweg","postalCode":"72810","locality":"Gomaringen","municipality":{"key":"08416015","name":"Gomaringen","type":"Kreisangehörige_Gemeinde"},"district":{"key":"08416","name":"Tübingen","type":"Landkreis"},"federalState":{"key":"08","name":"Baden-Württemberg"}},{"name":"Hublandstr.","postalCode":"72810","locality":"Gomaringen","municipality":{"key":"08416015","name":"Gomaringen","type":"Kreisangehörige_Gemeinde"},"district":{"key":"08416","name":"Tübingen","type":"Landkreis"},"federalState":{"key":"08","name":"Baden-Württemberg"}},{"name":"Humboldtstr.","postalCode":"72810","locality":"Gomaringen","municipality":{"key":"08416015","name":"Gomaringen","type":"Kreisangehörige_Gemeinde"},"district":{"key":"08416","name":"Tübingen","type":"Landkreis"},"federalState":{"key":"08","name":"Baden-Württemberg"}},{"name":"Hummelbergstr.","postalCode":"72810","locality":"Gomaringen","municipality":{"key":"08416015","name":"Gomaringen","type":"Kreisangehörige_Gemeinde"},"district":{"key":"08416","name":"Tübingen","type":"Landkreis"},"federalState":{"key":"08","name":"Baden-Württemberg"}},{"name":"Hurschstr.","postalCode":"72810","locality":"Gomaringen","municipality":{"key":"08416015","name":"Gomaringen","type":"Kreisangehörige_Gemeinde"},"district":{"key":"08416","name":"Tübingen","type":"Landkreis"},"federalState":{"key":"08","name":"Baden-Württemberg"}},{"name":"Ilse-Graulich-Weg","postalCode":"72810","locality":"Gomaringen","municipality":{"key":"08416015","name":"Gomaringen","type":"Kreisangehörige_Gemeinde"},"district":{"key":"08416","name":"Tübingen","type":"Landkreis"},"federalState":{"key":"08","name":"Baden-Württemberg"}},{"name":"Im Grund","postalCode":"72810","locality":"Gomaringen","municipality":{"key":"08416015","name":"Gomaringen","type":"Kreisangehörige_Gemeinde"},"district":{"key":"08416","name":"Tübingen","type":"Landkreis"},"federalState":{"key":"08","name":"Baden-Württemberg"}},{"name":"Im Lindenwasen","postalCode":"72810","locality":"Gomaringen","municipality":{"key":"08416015","name":"Gomaringen","type":"Kreisangehörige_Gemeinde"},"district":{"key":"08416","name":"Tübingen","type":"Landkreis"},"federalState":{"key":"08","name":"Baden-Württemberg"}},{"name":"Immenhäuser Str.","postalCode":"72810","locality":"Gomaringen","municipality":{"key":"08416015","name":"Gomaringen","type":"Kreisangehörige_Gemeinde"},"district":{"key":"08416","name":"Tübingen","type":"Landkreis"},"federalState":{"key":"08","name":"Baden-Württemberg"}},{"name":"In der Stelle","postalCode":"72810","locality":"Gomaringen","municipality":{"key":"08416015","name":"Gomaringen","type":"Kreisangehörige_Gemeinde"},"district":{"key":"08416","name":"Tübingen","type":"Landkreis"},"federalState":{"key":"08","name":"Baden-Württemberg"}},{"name":"Isolde-Kurz-Str.","postalCode":"72810","locality":"Gomaringen","municipality":{"key":"08416015","name":"Gomaringen","type":"Kreisangehörige_Gemeinde"},"district":{"key":"08416","name":"Tübingen","type":"Landkreis"},"federalState":{"key":"08","name":"Baden-Württemberg"}},{"name":"Jakobstr.","postalCode":"72810","locality":"Gomaringen","municipality":{"key":"08416015","name":"Gomaringen","type":"Kreisangehörige_Gemeinde"},"district":{"key":"08416","name":"Tübingen","type":"Landkreis"},"federalState":{"key":"08","name":"Baden-Württemberg"}},{"name":"Johann-Strauß-Weg","postalCode":"72810","locality":"Gomaringen","municipality":{"key":"08416015","name":"Gomaringen","type":"Kreisangehörige_Gemeinde"},"district":{"key":"08416","name":"Tübingen","type":"Landkreis"},"federalState":{"key":"08","name":"Baden-Württemberg"}},{"name":"Kantstr.","postalCode":"72810","locality":"Gomaringen","municipality":{"key":"08416015","name":"Gomaringen","type":"Kreisangehörige_Gemeinde"},"district":{"key":"08416","name":"Tübingen","type":"Landkreis"},"federalState":{"key":"08","name":"Baden-Württemberg"}},{"name":"Keplerstr.","postalCode":"72810","locality":"Gomaringen","municipality":{"key":"08416015","name":"Gomaringen","type":"Kreisangehörige_Gemeinde"},"district":{"key":"08416","name":"Tübingen","type":"Landkreis"},"federalState":{"key":"08","name":"Baden-Württemberg"}},{"name":"Kernerweg","postalCode":"72810","locality":"Gomaringen","municipality":{"key":"08416015","name":"Gomaringen","type":"Kreisangehörige_Gemeinde"},"district":{"key":"08416","name":"Tübingen","type":"Landkreis"},"federalState":{"key":"08","name":"Baden-Württemberg"}},{"name":"Kieferweg","postalCode":"72810","locality":"Gomaringen","municipality":{"key":"08416015","name":"Gomaringen","type":"Kreisangehörige_Gemeinde"},"district":{"key":"08416","name":"Tübingen","type":"Landkreis"},"federalState":{"key":"08","name":"Baden-Württemberg"}},{"name":"Kirchenplatz","postalCode":"72810","locality":"Gomaringen","municipality":{"key":"08416015","name":"Gomaringen","type":"Kreisangehörige_Gemeinde"},"district":{"key":"08416","name":"Tübingen","type":"Landkreis"},"federalState":{"key":"08","name":"Baden-Württemberg"}},{"name":"Kirchenweg","postalCode":"72810","locality":"Gomaringen","municipality":{"key":"08416015","name":"Gomaringen","type":"Kreisangehörige_Gemeinde"},"district":{"key":"08416","name":"Tübingen","type":"Landkreis"},"federalState":{"key":"08","name":"Baden-Württemberg"}},{"name":"Kirchstr.","postalCode":"72810","locality":"Gomaringen","municipality":{"key":"08416015","name":"Gomaringen","type":"Kreisangehörige_Gemeinde"},"district":{"key":"08416","name":"Tübingen","type":"Landkreis"},"federalState":{"key":"08","name":"Baden-Württemberg"}},{"name":"Kopernikusstr.","postalCode":"72810","locality":"Gomaringen","municipality":{"key":"08416015","name":"Gomaringen","type":"Kreisangehörige_Gemeinde"},"district":{"key":"08416","name":"Tübingen","type":"Landkreis"},"federalState":{"key":"08","name":"Baden-Württemberg"}},{"name":"Krautländerstr.","postalCode":"72810","locality":"Gomaringen","municipality":{"key":"08416015","name":"Gomaringen","type":"Kreisangehörige_Gemeinde"},"district":{"key":"08416","name":"Tübingen","type":"Landkreis"},"federalState":{"key":"08","name":"Baden-Württemberg"}},{"name":"Kreuzäckerstr.","postalCode":"72810","locality":"Gomaringen","municipality":{"key":"08416015","name":"Gomaringen","type":"Kreisangehörige_Gemeinde"},"district":{"key":"08416","name":"Tübingen","type":"Landkreis"},"federalState":{"key":"08","name":"Baden-Württemberg"}},{"name":"Kurze Str.","postalCode":"72810","locality":"Gomaringen","municipality":{"key":"08416015","name":"Gomaringen","type":"Kreisangehörige_Gemeinde"},"district":{"key":"08416","name":"Tübingen","type":"Landkreis"},"federalState":{"key":"08","name":"Baden-Württemberg"}},{"name":"Lerchenweg","postalCode":"72810","locality":"Gomaringen","municipality":{"key":"08416015","name":"Gomaringen","type":"Kreisangehörige_Gemeinde"},"district":{"key":"08416","name":"Tübingen","type":"Landkreis"},"federalState":{"key":"08","name":"Baden-Württemberg"}},{"name":"Lichtensteinstr.","postalCode":"72810","locality":"Gomaringen","municipality":{"key":"08416015","name":"Gomaringen","type":"Kreisangehörige_Gemeinde"},"district":{"key":"08416","name":"Tübingen","type":"Landkreis"},"federalState":{"key":"08","name":"Baden-Württemberg"}},{"name":"Liebigstr.","postalCode":"72810","locality":"Gomaringen","municipality":{"key":"08416015","name":"Gomaringen","type":"Kreisangehörige_Gemeinde"},"district":{"key":"08416","name":"Tübingen","type":"Landkreis"},"federalState":{"key":"08","name":"Baden-Württemberg"}},{"name":"Lindachstr.","postalCode":"72810","locality":"Gomaringen","municipality":{"key":"08416015","name":"Gomaringen","type":"Kreisangehörige_Gemeinde"},"district":{"key":"08416","name":"Tübingen","type":"Landkreis"},"federalState":{"key":"08","name":"Baden-Württemberg"}},{"name":"Lindenstr.","postalCode":"72810","locality":"Gomaringen","municipality":{"key":"08416015","name":"Gomaringen","type":"Kreisangehörige_Gemeinde"},"district":{"key":"08416","name":"Tübingen","type":"Landkreis"},"federalState":{"key":"08","name":"Baden-Württemberg"}},{"name":"Linsenhofstr.","postalCode":"72810","locality":"Gomaringen","municipality":{"key":"08416015","name":"Gomaringen","type":"Kreisangehörige_Gemeinde"},"district":{"key":"08416","name":"Tübingen","type":"Landkreis"},"federalState":{"key":"08","name":"Baden-Württemberg"}},{"name":"Liststr.","postalCode":"72810","locality":"Gomaringen","municipality":{"key":"08416015","name":"Gomaringen","type":"Kreisangehörige_Gemeinde"},"district":{"key":"08416","name":"Tübingen","type":"Landkreis"},"federalState":{"key":"08","name":"Baden-Württemberg"}},{"name":"Lortzingweg","postalCode":"72810","locality":"Gomaringen","municipality":{"key":"08416015","name":"Gomaringen","type":"Kreisangehörige_Gemeinde"},"district":{"key":"08416","name":"Tübingen","type":"Landkreis"},"federalState":{"key":"08","name":"Baden-Württemberg"}},{"name":"Lubbachstr.","postalCode":"72810","locality":"Gomaringen","municipality":{"key":"08416015","name":"Gomaringen","type":"Kreisangehörige_Gemeinde"},"district":{"key":"08416","name":"Tübingen","type":"Landkreis"},"federalState":{"key":"08","name":"Baden-Württemberg"}},{"name":"Ludwig-Junger-Weg","postalCode":"72810","locality":"Gomaringen","municipality":{"key":"08416015","name":"Gomaringen","type":"Kreisangehörige_Gemeinde"},"district":{"key":"08416","name":"Tübingen","type":"Landkreis"},"federalState":{"key":"08","name":"Baden-Württemberg"}},{"name":"Madachstr.","postalCode":"72810","locality":"Gomaringen","municipality":{"key":"08416015","name":"Gomaringen","type":"Kreisangehörige_Gemeinde"},"district":{"key":"08416","name":"Tübingen","type":"Landkreis"},"federalState":{"key":"08","name":"Baden-Württemberg"}},{"name":"Max-Planck-Str.","postalCode":"72810","locality":"Gomaringen","municipality":{"key":"08416015","name":"Gomaringen","type":"Kreisangehörige_Gemeinde"},"district":{"key":"08416","name":"Tübingen","type":"Landkreis"},"federalState":{"key":"08","name":"Baden-Württemberg"}},{"name":"Moltkestr.","postalCode":"72810","locality":"Gomaringen","municipality":{"key":"08416015","name":"Gomaringen","type":"Kreisangehörige_Gemeinde"},"district":{"key":"08416","name":"Tübingen","type":"Landkreis"},"federalState":{"key":"08","name":"Baden-Württemberg"}},{"name":"Mörikestr.","postalCode":"72810","locality":"Gomaringen","municipality":{"key":"08416015","name":"Gomaringen","type":"Kreisangehörige_Gemeinde"},"district":{"key":"08416","name":"Tübingen","type":"Landkreis"},"federalState":{"key":"08","name":"Baden-Württemberg"}},{"name":"Mozartstr.","postalCode":"72810","locality":"Gomaringen","municipality":{"key":"08416015","name":"Gomaringen","type":"Kreisangehörige_Gemeinde"},"district":{"key":"08416","name":"Tübingen","type":"Landkreis"},"federalState":{"key":"08","name":"Baden-Württemberg"}},{"name":"Mühlweg","postalCode":"72810","locality":"Gomaringen","municipality":{"key":"08416015","name":"Gomaringen","type":"Kreisangehörige_Gemeinde"},"district":{"key":"08416","name":"Tübingen","type":"Landkreis"},"federalState":{"key":"08","name":"Baden-Württemberg"}},{"name":"Nehrener Str.","postalCode":"72810","locality":"Gomaringen","municipality":{"key":"08416015","name":"Gomaringen","type":"Kreisangehörige_Gemeinde"},"district":{"key":"08416","name":"Tübingen","type":"Landkreis"},"federalState":{"key":"08","name":"Baden-Württemberg"}},{"name":"Oberer Haldenweg","postalCode":"72810","locality":"Gomaringen","municipality":{"key":"08416015","name":"Gomaringen","type":"Kreisangehörige_Gemeinde"},"district":{"key":"08416","name":"Tübingen","type":"Landkreis"},"federalState":{"key":"08","name":"Baden-Württemberg"}},{"name":"Ohmenhäuser Str.","postalCode":"72810","locality":"Gomaringen","municipality":{"key":"08416015","name":"Gomaringen","type":"Kreisangehörige_Gemeinde"},"district":{"key":"08416","name":"Tübingen","type":"Landkreis"},"federalState":{"key":"08","name":"Baden-Württemberg"}},{"name":"Olgastr.","postalCode":"72810","locality":"Gomaringen","municipality":{"key":"08416015","name":"Gomaringen","type":"Kreisangehörige_Gemeinde"},"district":{"key":"08416","name":"Tübingen","type":"Landkreis"},"federalState":{"key":"08","name":"Baden-Württemberg"}},{"name":"Paul-Gerhardt-Str.","postalCode":"72810","locality":"Gomaringen","municipality":{"key":"08416015","name":"Gomaringen","type":"Kreisangehörige_Gemeinde"},"district":{"key":"08416","name":"Tübingen","type":"Landkreis"},"federalState":{"key":"08","name":"Baden-Württemberg"}},{"name":"Pestalozzistr.","postalCode":"72810","locality":"Gomaringen","municipality":{"key":"08416015","name":"Gomaringen","type":"Kreisangehörige_Gemeinde"},"district":{"key":"08416","name":"Tübingen","type":"Landkreis"},"federalState":{"key":"08","name":"Baden-Württemberg"}},{"name":"Pfarrgasse","postalCode":"72810","locality":"Gomaringen","municipality":{"key":"08416015","name":"Gomaringen","type":"Kreisangehörige_Gemeinde"},"district":{"key":"08416","name":"Tübingen","type":"Landkreis"},"federalState":{"key":"08","name":"Baden-Württemberg"}},{"name":"Quellgasse","postalCode":"72070","locality":"Tübingen","municipality":{"key":"08416041","name":"Tübingen, Universitätsstadt","type":"Große_Kreisstadt"},"district":{"key":"08416","name":"Tübingen","type":"Landkreis"},"federalState":{"key":"08","name":"Baden-Württemberg"}},{"name":"Quenstedtstr.","postalCode":"72076","locality":"Tübingen","municipality":{"key":"08416041","name":"Tübingen, Universitätsstadt","type":"Große_Kreisstadt"},"district":{"key":"08416","name":"Tübingen","type":"Landkreis"},"federalState":{"key":"08","name":"Baden-Württemberg"}},{"name":"Querstr.","postalCode":"72074","locality":"Tübingen","municipality":{"key":"08416041","name":"Tübingen, Universitätsstadt","type":"Große_Kreisstadt"},"district":{"key":"08416","name":"Tübingen","type":"Landkreis"},"federalState":{"key":"08","name":"Baden-Württemberg"}},{"name":"Rahnberg","postalCode":"72810","locality":"Gomaringen","municipality":{"key":"08416015","name":"Gomaringen","type":"Kreisangehörige_Gemeinde"},"district":{"key":"08416","name":"Tübingen","type":"Landkreis"},"federalState":{"key":"08","name":"Baden-Württemberg"}},{"name":"Raiffeisenstr.","postalCode":"72810","locality":"Gomaringen","municipality":{"key":"08416015","name":"Gomaringen","type":"Kreisangehörige_Gemeinde"},"district":{"key":"08416","name":"Tübingen","type":"Landkreis"},"federalState":{"key":"08","name":"Baden-Württemberg"}},{"name":"Rainhausträßle","postalCode":"72810","locality":"Gomaringen","municipality":{"key":"08416015","name":"Gomaringen","type":"Kreisangehörige_Gemeinde"},"district":{"key":"08416","name":"Tübingen","type":"Landkreis"},"federalState":{"key":"08","name":"Baden-Württemberg"}},{"name":"Rathausstr.","postalCode":"72810","locality":"Gomaringen","municipality":{"key":"08416015","name":"Gomaringen","type":"Kreisangehörige_Gemeinde"},"district":{"key":"08416","name":"Tübingen","type":"Landkreis"},"federalState":{"key":"08","name":"Baden-Württemberg"}},{"name":"Rechbergstr.","postalCode":"72810","locality":"Gomaringen","municipality":{"key":"08416015","name":"Gomaringen","type":"Kreisangehörige_Gemeinde"},"district":{"key":"08416","name":"Tübingen","type":"Landkreis"},"federalState":{"key":"08","name":"Baden-Württemberg"}},{"name":"Reutlinger Str.","postalCode":"72810","locality":"Gomaringen","municipality":{"key":"08416015","name":"Gomaringen","type":"Kreisangehörige_Gemeinde"},"district":{"key":"08416","name":"Tübingen","type":"Landkreis"},"federalState":{"key":"08","name":"Baden-Württemberg"}},{"name":"Richard-Wagner-Str.","postalCode":"72810","locality":"Gomaringen","municipality":{"key":"08416015","name":"Gomaringen","type":"Kreisangehörige_Gemeinde"},"district":{"key":"08416","name":"Tübingen","type":"Landkreis"},"federalState":{"key":"08","name":"Baden-Württemberg"}},{"name":"Riedstr.","postalCode":"72810","locality":"Gomaringen","municipality":{"key":"08416015","name":"Gomaringen","type":"Kreisangehörige_Gemeinde"},"district":{"key":"08416","name":"Tübingen","type":"Landkreis"},"federalState":{"key":"08","name":"Baden-Württemberg"}},{"name":"Robert-Bosch-Str.","postalCode":"72810","locality":"Gomaringen","municipality":{"key":"08416015","name":"Gomaringen","type":"Kreisangehörige_Gemeinde"},"district":{"key":"08416","name":"Tübingen","type":"Landkreis"},"federalState":{"key":"08","name":"Baden-Württemberg"}},{"name":"Robert-Koch-Str.","postalCode":"72810","locality":"Gomaringen","municipality":{"key":"08416015","name":"Gomaringen","type":"Kreisangehörige_Gemeinde"},"district":{"key":"08416","name":"Tübingen","type":"Landkreis"},"federalState":{"key":"08","name":"Baden-Württemberg"}},{"name":"Roggenstr.","postalCode":"72810","locality":"Gomaringen","municipality":{"key":"08416015","name":"Gomaringen","type":"Kreisangehörige_Gemeinde"},"district":{"key":"08416","name":"Tübingen","type":"Landkreis"},"federalState":{"key":"08","name":"Baden-Württemberg"}},{"name":"Römerweg","postalCode":"72810","locality":"Gomaringen","municipality":{"key":"08416015","name":"Gomaringen","type":"Kreisangehörige_Gemeinde"},"district":{"key":"08416","name":"Tübingen","type":"Landkreis"},"federalState":{"key":"08","name":"Baden-Württemberg"}},{"name":"Roßbergstr.","postalCode":"72810","locality":"Gomaringen","municipality":{"key":"08416015","name":"Gomaringen","type":"Kreisangehörige_Gemeinde"},"district":{"key":"08416","name":"Tübingen","type":"Landkreis"},"federalState":{"key":"08","name":"Baden-Württemberg"}},{"name":"Rübteilstr.","postalCode":"72810","locality":"Gomaringen","municipality":{"key":"08416015","name":"Gomaringen","type":"Kreisangehörige_Gemeinde"},"district":{"key":"08416","name":"Tübingen","type":"Landkreis"},"federalState":{"key":"08","name":"Baden-Württemberg"}},{"name":"Sägeweg","postalCode":"72810","locality":"Gomaringen","municipality":{"key":"08416015","name":"Gomaringen","type":"Kreisangehörige_Gemeinde"},"district":{"key":"08416","name":"Tübingen","type":"Landkreis"},"federalState":{"key":"08","name":"Baden-Württemberg"}},{"name":"Sally-Adamsohn-Platz","postalCode":"72810","locality":"Gomaringen","municipality":{"key":"08416015","name":"Gomaringen","type":"Kreisangehörige_Gemeinde"},"district":{"key":"08416","name":"Tübingen","type":"Landkreis"},"federalState":{"key":"08","name":"Baden-Württemberg"}},{"name":"Schießmauerstr.","postalCode":"72810","locality":"Gomaringen","municipality":{"key":"08416015","name":"Gomaringen","type":"Kreisangehörige_Gemeinde"},"district":{"key":"08416","name":"Tübingen","type":"Landkreis"},"federalState":{"key":"08","name":"Baden-Württemberg"}},{"name":"Schillerstr.","postalCode":"72810","locality":"Gomaringen","municipality":{"key":"08416015","name":"Gomaringen","type":"Kreisangehörige_Gemeinde"},"district":{"key":"08416","name":"Tübingen","type":"Landkreis"},"federalState":{"key":"08","name":"Baden-Württemberg"}},{"name":"Schloßhof","postalCode":"72810","locality":"Gomaringen","municipality":{"key":"08416015","name":"Gomaringen","type":"Kreisangehörige_Gemeinde"},"district":{"key":"08416","name":"Tübingen","type":"Landkreis"},"federalState":{"key":"08","name":"Baden-Württemberg"}},{"name":"Schloßstr.","postalCode":"72810","locality":"Gomaringen","municipality":{"key":"08416015","name":"Gomaringen","type":"Kreisangehörige_Gemeinde"},"district":{"key":"08416","name":"Tübingen","type":"Landkreis"},"federalState":{"key":"08","name":"Baden-Württemberg"}},{"name":"Schmalzäcker","postalCode":"72810","locality":"Gomaringen","municipality":{"key":"08416015","name":"Gomaringen","type":"Kreisangehörige_Gemeinde"},"district":{"key":"08416","name":"Tübingen","type":"Landkreis"},"federalState":{"key":"08","name":"Baden-Württemberg"}},{"name":"Schömbergstr.","postalCode":"72810","locality":"Gomaringen","municipality":{"key":"08416015","name":"Gomaringen","type":"Kreisangehörige_Gemeinde"},"district":{"key":"08416","name":"Tübingen","type":"Landkreis"},"federalState":{"key":"08","name":"Baden-Württemberg"}},{"name":"Schubertstr.","postalCode":"72810","locality":"Gomaringen","municipality":{"key":"08416015","name":"Gomaringen","type":"Kreisangehörige_Gemeinde"},"district":{"key":"08416","name":"Tübingen","type":"Landkreis"},"federalState":{"key":"08","name":"Baden-Württemberg"}},{"name":"Schulstr.","postalCode":"72810","locality":"Gomaringen","municipality":{"key":"08416015","name":"Gomaringen","type":"Kreisangehörige_Gemeinde"},"district":{"key":"08416","name":"Tübingen","type":"Landkreis"},"federalState":{"key":"08","name":"Baden-Württemberg"}},{"name":"Schumannstr.","postalCode":"72810","locality":"Gomaringen","municipality":{"key":"08416015","name":"Gomaringen","type":"Kreisangehörige_Gemeinde"},"district":{"key":"08416","name":"Tübingen","type":"Landkreis"},"federalState":{"key":"08","name":"Baden-Württemberg"}},{"name":"Schwabstr.","postalCode":"72810","locality":"Gomaringen","municipality":{"key":"08416015","name":"Gomaringen","type":"Kreisangehörige_Gemeinde"},"district":{"key":"08416","name":"Tübingen","type":"Landkreis"},"federalState":{"key":"08","name":"Baden-Württemberg"}},{"name":"Siemensstr.","postalCode":"72810","locality":"Gomaringen","municipality":{"key":"08416015","name":"Gomaringen","type":"Kreisangehörige_Gemeinde"},"district":{"key":"08416","name":"Tübingen","type":"Landkreis"},"federalState":{"key":"08","name":"Baden-Württemberg"}},{"name":"Silcherstr.","postalCode":"72810","locality":"Gomaringen","municipality":{"key":"08416015","name":"Gomaringen","type":"Kreisangehörige_Gemeinde"},"district":{"key":"08416","name":"Tübingen","type":"Landkreis"},"federalState":{"key":"08","name":"Baden-Württemberg"}},{"name":"Steinachstr.","postalCode":"72810","locality":"Gomaringen","municipality":{"key":"08416015","name":"Gomaringen","type":"Kreisangehörige_Gemeinde"},"district":{"key":"08416","name":"Tübingen","type":"Landkreis"},"federalState":{"key":"08","name":"Baden-Württemberg"}},{"name":"Steinäckerstr.","postalCode":"72810","locality":"Gomaringen","municipality":{"key":"08416015","name":"Gomaringen","type":"Kreisangehörige_Gemeinde"},"district":{"key":"08416","name":"Tübingen","type":"Landkreis"},"federalState":{"key":"08","name":"Baden-Württemberg"}},{"name":"Steinweg","postalCode":"72810","locality":"Gomaringen","municipality":{"key":"08416015","name":"Gomaringen","type":"Kreisangehörige_Gemeinde"},"district":{"key":"08416","name":"Tübingen","type":"Landkreis"},"federalState":{"key":"08","name":"Baden-Württemberg"}},{"name":"Stockacher Str.","postalCode":"72810","locality":"Gomaringen","municipality":{"key":"08416015","name":"Gomaringen","type":"Kreisangehörige_Gemeinde"},"district":{"key":"08416","name":"Tübingen","type":"Landkreis"},"federalState":{"key":"08","name":"Baden-Württemberg"}},{"name":"Stöffelbergstr.","postalCode":"72810","locality":"Gomaringen","municipality":{"key":"08416015","name":"Gomaringen","type":"Kreisangehörige_Gemeinde"},"district":{"key":"08416","name":"Tübingen","type":"Landkreis"},"federalState":{"key":"08","name":"Baden-Württemberg"}},{"name":"Stuifenstr.","postalCode":"72810","locality":"Gomaringen","municipality":{"key":"08416015","name":"Gomaringen","type":"Kreisangehörige_Gemeinde"},"district":{"key":"08416","name":"Tübingen","type":"Landkreis"},"federalState":{"key":"08","name":"Baden-Württemberg"}},{"name":"Tannenstr.","postalCode":"72810","locality":"Gomaringen","municipality":{"key":"08416015","name":"Gomaringen","type":"Kreisangehörige_Gemeinde"},"district":{"key":"08416","name":"Tübingen","type":"Landkreis"},"federalState":{"key":"08","name":"Baden-Württemberg"}},{"name":"Teckstr.","postalCode":"72810","locality":"Gomaringen","municipality":{"key":"08416015","name":"Gomaringen","type":"Kreisangehörige_Gemeinde"},"district":{"key":"08416","name":"Tübingen","type":"Landkreis"},"federalState":{"key":"08","name":"Baden-Württemberg"}},{"name":"Theodor-Fontane-Weg","postalCode":"72810","locality":"Gomaringen","municipality":{"key":"08416015","name":"Gomaringen","type":"Kreisangehörige_Gemeinde"},"district":{"key":"08416","name":"Tübingen","type":"Landkreis"},"federalState":{"key":"08","name":"Baden-Württemberg"}},{"name":"Thomas-Mann-Str.","postalCode":"72810","locality":"Gomaringen","municipality":{"key":"08416015","name":"Gomaringen","type":"Kreisangehörige_Gemeinde"},"district":{"key":"08416","name":"Tübingen","type":"Landkreis"},"federalState":{"key":"08","name":"Baden-Württemberg"}},{"name":"Tübinger Str.","postalCode":"72810","locality":"Gomaringen","municipality":{"key":"08416015","name":"Gomaringen","type":"Kreisangehörige_Gemeinde"},"district":{"key":"08416","name":"Tübingen","type":"Landkreis"},"federalState":{"key":"08","name":"Baden-Württemberg"}},{"name":"Uhlandstr.","postalCode":"72810","locality":"Gomaringen","municipality":{"key":"08416015","name":"Gomaringen","type":"Kreisangehörige_Gemeinde"},"district":{"key":"08416","name":"Tübingen","type":"Landkreis"},"federalState":{"key":"08","name":"Baden-Württemberg"}},{"name":"Ulmenweg","postalCode":"72810","locality":"Gomaringen","municipality":{"key":"08416015","name":"Gomaringen","type":"Kreisangehörige_Gemeinde"},"district":{"key":"08416","name":"Tübingen","type":"Landkreis"},"federalState":{"key":"08","name":"Baden-Württemberg"}},{"name":"Unter der Steigstr.","postalCode":"72810","locality":"Gomaringen","municipality":{"key":"08416015","name":"Gomaringen","type":"Kreisangehörige_Gemeinde"},"district":{"key":"08416","name":"Tübingen","type":"Landkreis"},"federalState":{"key":"08","name":"Baden-Württemberg"}},{"name":"Untere Haldestr.","postalCode":"72810","locality":"Gomaringen","municipality":{"key":"08416015","name":"Gomaringen","type":"Kreisangehörige_Gemeinde"},"district":{"key":"08416","name":"Tübingen","type":"Landkreis"},"federalState":{"key":"08","name":"Baden-Württemberg"}},{"name":"Vögwiesstr.","postalCode":"72810","locality":"Gomaringen","municipality":{"key":"08416015","name":"Gomaringen","type":"Kreisangehörige_Gemeinde"},"district":{"key":"08416","name":"Tübingen","type":"Landkreis"},"federalState":{"key":"08","name":"Baden-Württemberg"}},{"name":"Waldstr.","postalCode":"72810","locality":"Gomaringen","municipality":{"key":"08416015","name":"Gomaringen","type":"Kreisangehörige_Gemeinde"},"district":{"key":"08416","name":"Tübingen","type":"Landkreis"},"federalState":{"key":"08","name":"Baden-Württemberg"}},{"name":"Waltersberg","postalCode":"72810","locality":"Gomaringen","municipality":{"key":"08416015","name":"Gomaringen","type":"Kreisangehörige_Gemeinde"},"district":{"key":"08416","name":"Tübingen","type":"Landkreis"},"federalState":{"key":"08","name":"Baden-Württemberg"}},{"name":"Weidenstr.","postalCode":"72810","locality":"Gomaringen","municipality":{"key":"08416015","name":"Gomaringen","type":"Kreisangehörige_Gemeinde"},"district":{"key":"08416","name":"Tübingen","type":"Landkreis"},"federalState":{"key":"08","name":"Baden-Württemberg"}},{"name":"Wiesfleckenstr.","postalCode":"72810","locality":"Gomaringen","municipality":{"key":"08416015","name":"Gomaringen","type":"Kreisangehörige_Gemeinde"},"district":{"key":"08416","name":"Tübingen","type":"Landkreis"},"federalState":{"key":"08","name":"Baden-Württemberg"}},{"name":"Wilhelmstr.","postalCode":"72810","locality":"Gomaringen","municipality":{"key":"08416015","name":"Gomaringen","type":"Kreisangehörige_Gemeinde"},"district":{"key":"08416","name":"Tübingen","type":"Landkreis"},"federalState":{"key":"08","name":"Baden-Württemberg"}},{"name":"Wöltersstr.","postalCode":"72810","locality":"Gomaringen","municipality":{"key":"08416015","name":"Gomaringen","type":"Kreisangehörige_Gemeinde"},"district":{"key":"08416","name":"Tübingen","type":"Landkreis"},"federalState":{"key":"08","name":"Baden-Württemberg"}},{"name":"Ziegelgrubenstr.","postalCode":"72810","locality":"Gomaringen","municipality":{"key":"08416015","name":"Gomaringen","type":"Kreisangehörige_Gemeinde"},"district":{"key":"08416","name":"Tübingen","type":"Landkreis"},"federalState":{"key":"08","name":"Baden-Württemberg"}},{"name":"Zwerchäckerstr.","postalCode":"72810","locality":"Gomaringen","municipality":{"key":"08416015","name":"Gomaringen","type":"Kreisangehörige_Gemeinde"},"district":{"key":"08416","name":"Tübingen","type":"Landkreis"},"federalState":{"key":"08","name":"Baden-Württemberg"}},{"name":"Äußeres Leh","postalCode":"72810","locality":"Gomaringen","municipality":{"key":"08416015","name":"Gomaringen","type":"Kreisangehörige_Gemeinde"},"district":{"key":"08416","name":"Tübingen","type":"Landkreis"},"federalState":{"key":"08","name":"Baden-Württemberg"}},{"name":"Äußere Weilerstr.","postalCode":"72810","locality":"Gomaringen","municipality":{"key":"08416015","name":"Gomaringen","type":"Kreisangehörige_Gemeinde"},"district":{"key":"08416","name":"Tübingen","type":"Landkreis"},"federalState":{"key":"08","name":"Baden-Württemberg"}},{"name":"Öschinger Str.","postalCode":"72810","locality":"Gomaringen","municipality":{"key":"08416015","name":"Gomaringen","type":"Kreisangehörige_Gemeinde"},"district":{"key":"08416","name":"Tübingen","type":"Landkreis"},"federalState":{"key":"08","name":"Baden-Württemberg"}},]