[{"name":"Altwasserweg","postalCode":"86688","locality":"Marxheim","municipality":{"key":"09779178","name":"Marxheim","type":"Kreisangehörige_Gemeinde"},"district":{"key":"09779","name":"Donau-Ries","type":"Landkreis"},"federalState":{"key":"09","name":"Bayern"}},{"name":"Am Bach","postalCode":"86688","locality":"Marxheim","municipality":{"key":"09779178","name":"Marxheim","type":"Kreisangehörige_Gemeinde"},"district":{"key":"09779","name":"Donau-Ries","type":"Landkreis"},"federalState":{"key":"09","name":"Bayern"}},{"name":"Am Blumeneck","postalCode":"86688","locality":"Marxheim","municipality":{"key":"09779178","name":"Marxheim","type":"Kreisangehörige_Gemeinde"},"district":{"key":"09779","name":"Donau-Ries","type":"Landkreis"},"federalState":{"key":"09","name":"Bayern"}},{"name":"Am Dorfanger","postalCode":"86688","locality":"Marxheim","municipality":{"key":"09779178","name":"Marxheim","type":"Kreisangehörige_Gemeinde"},"district":{"key":"09779","name":"Donau-Ries","type":"Landkreis"},"federalState":{"key":"09","name":"Bayern"}},{"name":"Am Feldrain","postalCode":"86688","locality":"Marxheim","municipality":{"key":"09779178","name":"Marxheim","type":"Kreisangehörige_Gemeinde"},"district":{"key":"09779","name":"Donau-Ries","type":"Landkreis"},"federalState":{"key":"09","name":"Bayern"}},{"name":"Am Gänsfleckenweg","postalCode":"86688","locality":"Marxheim","municipality":{"key":"09779178","name":"Marxheim","type":"Kreisangehörige_Gemeinde"},"district":{"key":"09779","name":"Donau-Ries","type":"Landkreis"},"federalState":{"key":"09","name":"Bayern"}},{"name":"Am Hang","postalCode":"86688","locality":"Marxheim","municipality":{"key":"09779178","name":"Marxheim","type":"Kreisangehörige_Gemeinde"},"district":{"key":"09779","name":"Donau-Ries","type":"Landkreis"},"federalState":{"key":"09","name":"Bayern"}},{"name":"Am Kohlfeld","postalCode":"86688","locality":"Marxheim","municipality":{"key":"09779178","name":"Marxheim","type":"Kreisangehörige_Gemeinde"},"district":{"key":"09779","name":"Donau-Ries","type":"Landkreis"},"federalState":{"key":"09","name":"Bayern"}},{"name":"Am Marksfeld","postalCode":"86688","locality":"Marxheim","municipality":{"key":"09779178","name":"Marxheim","type":"Kreisangehörige_Gemeinde"},"district":{"key":"09779","name":"Donau-Ries","type":"Landkreis"},"federalState":{"key":"09","name":"Bayern"}},{"name":"Am Mühlfeld","postalCode":"86688","locality":"Marxheim","municipality":{"key":"09779178","name":"Marxheim","type":"Kreisangehörige_Gemeinde"},"district":{"key":"09779","name":"Donau-Ries","type":"Landkreis"},"federalState":{"key":"09","name":"Bayern"}},{"name":"Am Schulhaus","postalCode":"86688","locality":"Marxheim","municipality":{"key":"09779178","name":"Marxheim","type":"Kreisangehörige_Gemeinde"},"district":{"key":"09779","name":"Donau-Ries","type":"Landkreis"},"federalState":{"key":"09","name":"Bayern"}},{"name":"Am Steinberg","postalCode":"86688","locality":"Marxheim","municipality":{"key":"09779178","name":"Marxheim","type":"Kreisangehörige_Gemeinde"},"district":{"key":"09779","name":"Donau-Ries","type":"Landkreis"},"federalState":{"key":"09","name":"Bayern"}},{"name":"Am Steinbruch","postalCode":"86688","locality":"Marxheim","municipality":{"key":"09779178","name":"Marxheim","type":"Kreisangehörige_Gemeinde"},"district":{"key":"09779","name":"Donau-Ries","type":"Landkreis"},"federalState":{"key":"09","name":"Bayern"}},{"name":"Am Weinberg","postalCode":"86688","locality":"Marxheim","municipality":{"key":"09779178","name":"Marxheim","type":"Kreisangehörige_Gemeinde"},"district":{"key":"09779","name":"Donau-Ries","type":"Landkreis"},"federalState":{"key":"09","name":"Bayern"}},{"name":"Am Weingarten","postalCode":"86688","locality":"Marxheim","municipality":{"key":"09779178","name":"Marxheim","type":"Kreisangehörige_Gemeinde"},"district":{"key":"09779","name":"Donau-Ries","type":"Landkreis"},"federalState":{"key":"09","name":"Bayern"}},{"name":"Am Ziegelherd","postalCode":"86688","locality":"Marxheim","municipality":{"key":"09779178","name":"Marxheim","type":"Kreisangehörige_Gemeinde"},"district":{"key":"09779","name":"Donau-Ries","type":"Landkreis"},"federalState":{"key":"09","name":"Bayern"}},{"name":"Angergasse","postalCode":"86688","locality":"Marxheim","municipality":{"key":"09779178","name":"Marxheim","type":"Kreisangehörige_Gemeinde"},"district":{"key":"09779","name":"Donau-Ries","type":"Landkreis"},"federalState":{"key":"09","name":"Bayern"}},{"name":"Bayernstr.","postalCode":"86688","locality":"Marxheim","municipality":{"key":"09779178","name":"Marxheim","type":"Kreisangehörige_Gemeinde"},"district":{"key":"09779","name":"Donau-Ries","type":"Landkreis"},"federalState":{"key":"09","name":"Bayern"}},{"name":"Bergbauerweg","postalCode":"86688","locality":"Marxheim","municipality":{"key":"09779178","name":"Marxheim","type":"Kreisangehörige_Gemeinde"},"district":{"key":"09779","name":"Donau-Ries","type":"Landkreis"},"federalState":{"key":"09","name":"Bayern"}},{"name":"Bergstr.","postalCode":"86688","locality":"Marxheim","municipality":{"key":"09779178","name":"Marxheim","type":"Kreisangehörige_Gemeinde"},"district":{"key":"09779","name":"Donau-Ries","type":"Landkreis"},"federalState":{"key":"09","name":"Bayern"}},{"name":"Bertoldsstr.","postalCode":"86688","locality":"Marxheim","municipality":{"key":"09779178","name":"Marxheim","type":"Kreisangehörige_Gemeinde"},"district":{"key":"09779","name":"Donau-Ries","type":"Landkreis"},"federalState":{"key":"09","name":"Bayern"}},{"name":"Bischof-Gebhard-Str.","postalCode":"86688","locality":"Marxheim","municipality":{"key":"09779178","name":"Marxheim","type":"Kreisangehörige_Gemeinde"},"district":{"key":"09779","name":"Donau-Ries","type":"Landkreis"},"federalState":{"key":"09","name":"Bayern"}},{"name":"Bruckfeldstr.","postalCode":"86688","locality":"Marxheim","municipality":{"key":"09779178","name":"Marxheim","type":"Kreisangehörige_Gemeinde"},"district":{"key":"09779","name":"Donau-Ries","type":"Landkreis"},"federalState":{"key":"09","name":"Bayern"}},{"name":"Brunnengasse","postalCode":"86688","locality":"Marxheim","municipality":{"key":"09779178","name":"Marxheim","type":"Kreisangehörige_Gemeinde"},"district":{"key":"09779","name":"Donau-Ries","type":"Landkreis"},"federalState":{"key":"09","name":"Bayern"}},{"name":"Burgweg","postalCode":"86688","locality":"Marxheim","municipality":{"key":"09779178","name":"Marxheim","type":"Kreisangehörige_Gemeinde"},"district":{"key":"09779","name":"Donau-Ries","type":"Landkreis"},"federalState":{"key":"09","name":"Bayern"}},{"name":"Burgwerg","postalCode":"86688","locality":"Marxheim","municipality":{"key":"09779178","name":"Marxheim","type":"Kreisangehörige_Gemeinde"},"district":{"key":"09779","name":"Donau-Ries","type":"Landkreis"},"federalState":{"key":"09","name":"Bayern"}},{"name":"Diepoldstr.","postalCode":"86688","locality":"Marxheim","municipality":{"key":"09779178","name":"Marxheim","type":"Kreisangehörige_Gemeinde"},"district":{"key":"09779","name":"Donau-Ries","type":"Landkreis"},"federalState":{"key":"09","name":"Bayern"}},{"name":"Donaustr.","postalCode":"86688","locality":"Marxheim","municipality":{"key":"09779178","name":"Marxheim","type":"Kreisangehörige_Gemeinde"},"district":{"key":"09779","name":"Donau-Ries","type":"Landkreis"},"federalState":{"key":"09","name":"Bayern"}},{"name":"Dorfplatz","postalCode":"86688","locality":"Marxheim","municipality":{"key":"09779178","name":"Marxheim","type":"Kreisangehörige_Gemeinde"},"district":{"key":"09779","name":"Donau-Ries","type":"Landkreis"},"federalState":{"key":"09","name":"Bayern"}},{"name":"Dorfstr.","postalCode":"86688","locality":"Marxheim","municipality":{"key":"09779178","name":"Marxheim","type":"Kreisangehörige_Gemeinde"},"district":{"key":"09779","name":"Donau-Ries","type":"Landkreis"},"federalState":{"key":"09","name":"Bayern"}},{"name":"Fischergasse","postalCode":"86688","locality":"Marxheim","municipality":{"key":"09779178","name":"Marxheim","type":"Kreisangehörige_Gemeinde"},"district":{"key":"09779","name":"Donau-Ries","type":"Landkreis"},"federalState":{"key":"09","name":"Bayern"}},{"name":"Flößerstr.","postalCode":"86688","locality":"Marxheim","municipality":{"key":"09779178","name":"Marxheim","type":"Kreisangehörige_Gemeinde"},"district":{"key":"09779","name":"Donau-Ries","type":"Landkreis"},"federalState":{"key":"09","name":"Bayern"}},{"name":"Frankenstr.","postalCode":"86688","locality":"Marxheim","municipality":{"key":"09779178","name":"Marxheim","type":"Kreisangehörige_Gemeinde"},"district":{"key":"09779","name":"Donau-Ries","type":"Landkreis"},"federalState":{"key":"09","name":"Bayern"}},{"name":"Fronweg","postalCode":"86688","locality":"Marxheim","municipality":{"key":"09779178","name":"Marxheim","type":"Kreisangehörige_Gemeinde"},"district":{"key":"09779","name":"Donau-Ries","type":"Landkreis"},"federalState":{"key":"09","name":"Bayern"}},{"name":"Gansinger Platz","postalCode":"86688","locality":"Marxheim","municipality":{"key":"09779178","name":"Marxheim","type":"Kreisangehörige_Gemeinde"},"district":{"key":"09779","name":"Donau-Ries","type":"Landkreis"},"federalState":{"key":"09","name":"Bayern"}},{"name":"Gartenstr.","postalCode":"86688","locality":"Marxheim","municipality":{"key":"09779178","name":"Marxheim","type":"Kreisangehörige_Gemeinde"},"district":{"key":"09779","name":"Donau-Ries","type":"Landkreis"},"federalState":{"key":"09","name":"Bayern"}},{"name":"Geisbergstr.","postalCode":"86688","locality":"Marxheim","municipality":{"key":"09779178","name":"Marxheim","type":"Kreisangehörige_Gemeinde"},"district":{"key":"09779","name":"Donau-Ries","type":"Landkreis"},"federalState":{"key":"09","name":"Bayern"}},{"name":"Ghagweg","postalCode":"86688","locality":"Marxheim","municipality":{"key":"09779178","name":"Marxheim","type":"Kreisangehörige_Gemeinde"},"district":{"key":"09779","name":"Donau-Ries","type":"Landkreis"},"federalState":{"key":"09","name":"Bayern"}},{"name":"Graf-Reisach-Str.","postalCode":"86688","locality":"Marxheim","municipality":{"key":"09779178","name":"Marxheim","type":"Kreisangehörige_Gemeinde"},"district":{"key":"09779","name":"Donau-Ries","type":"Landkreis"},"federalState":{"key":"09","name":"Bayern"}},{"name":"Grubenfeldweg","postalCode":"86688","locality":"Marxheim","municipality":{"key":"09779178","name":"Marxheim","type":"Kreisangehörige_Gemeinde"},"district":{"key":"09779","name":"Donau-Ries","type":"Landkreis"},"federalState":{"key":"09","name":"Bayern"}},{"name":"Hartnitstr.","postalCode":"86688","locality":"Marxheim","municipality":{"key":"09779178","name":"Marxheim","type":"Kreisangehörige_Gemeinde"},"district":{"key":"09779","name":"Donau-Ries","type":"Landkreis"},"federalState":{"key":"09","name":"Bayern"}},{"name":"Heinrichshöhe","postalCode":"86688","locality":"Marxheim","municipality":{"key":"09779178","name":"Marxheim","type":"Kreisangehörige_Gemeinde"},"district":{"key":"09779","name":"Donau-Ries","type":"Landkreis"},"federalState":{"key":"09","name":"Bayern"}},{"name":"Hirtengarten","postalCode":"86688","locality":"Marxheim","municipality":{"key":"09779178","name":"Marxheim","type":"Kreisangehörige_Gemeinde"},"district":{"key":"09779","name":"Donau-Ries","type":"Landkreis"},"federalState":{"key":"09","name":"Bayern"}},{"name":"Hochstr.","postalCode":"86688","locality":"Marxheim","municipality":{"key":"09779178","name":"Marxheim","type":"Kreisangehörige_Gemeinde"},"district":{"key":"09779","name":"Donau-Ries","type":"Landkreis"},"federalState":{"key":"09","name":"Bayern"}},{"name":"Hofmauerstr.","postalCode":"86688","locality":"Marxheim","municipality":{"key":"09779178","name":"Marxheim","type":"Kreisangehörige_Gemeinde"},"district":{"key":"09779","name":"Donau-Ries","type":"Landkreis"},"federalState":{"key":"09","name":"Bayern"}},{"name":"Im Winkel","postalCode":"86688","locality":"Marxheim","municipality":{"key":"09779178","name":"Marxheim","type":"Kreisangehörige_Gemeinde"},"district":{"key":"09779","name":"Donau-Ries","type":"Landkreis"},"federalState":{"key":"09","name":"Bayern"}},{"name":"Jurastr.","postalCode":"86688","locality":"Marxheim","municipality":{"key":"09779178","name":"Marxheim","type":"Kreisangehörige_Gemeinde"},"district":{"key":"09779","name":"Donau-Ries","type":"Landkreis"},"federalState":{"key":"09","name":"Bayern"}},{"name":"Kapellenweg","postalCode":"86688","locality":"Marxheim","municipality":{"key":"09779178","name":"Marxheim","type":"Kreisangehörige_Gemeinde"},"district":{"key":"09779","name":"Donau-Ries","type":"Landkreis"},"federalState":{"key":"09","name":"Bayern"}},{"name":"Kirchgasse","postalCode":"86688","locality":"Marxheim","municipality":{"key":"09779178","name":"Marxheim","type":"Kreisangehörige_Gemeinde"},"district":{"key":"09779","name":"Donau-Ries","type":"Landkreis"},"federalState":{"key":"09","name":"Bayern"}},{"name":"Kirchplatz","postalCode":"86688","locality":"Marxheim","municipality":{"key":"09779178","name":"Marxheim","type":"Kreisangehörige_Gemeinde"},"district":{"key":"09779","name":"Donau-Ries","type":"Landkreis"},"federalState":{"key":"09","name":"Bayern"}},{"name":"Klostergasse","postalCode":"86688","locality":"Marxheim","municipality":{"key":"09779178","name":"Marxheim","type":"Kreisangehörige_Gemeinde"},"district":{"key":"09779","name":"Donau-Ries","type":"Landkreis"},"federalState":{"key":"09","name":"Bayern"}},{"name":"Knoglerstr.","postalCode":"86688","locality":"Marxheim","municipality":{"key":"09779178","name":"Marxheim","type":"Kreisangehörige_Gemeinde"},"district":{"key":"09779","name":"Donau-Ries","type":"Landkreis"},"federalState":{"key":"09","name":"Bayern"}},{"name":"Lenkgasse","postalCode":"86688","locality":"Marxheim","municipality":{"key":"09779178","name":"Marxheim","type":"Kreisangehörige_Gemeinde"},"district":{"key":"09779","name":"Donau-Ries","type":"Landkreis"},"federalState":{"key":"09","name":"Bayern"}},{"name":"Lindenstr.","postalCode":"86688","locality":"Marxheim","municipality":{"key":"09779178","name":"Marxheim","type":"Kreisangehörige_Gemeinde"},"district":{"key":"09779","name":"Donau-Ries","type":"Landkreis"},"federalState":{"key":"09","name":"Bayern"}},{"name":"Loheweg","postalCode":"86688","locality":"Marxheim","municipality":{"key":"09779178","name":"Marxheim","type":"Kreisangehörige_Gemeinde"},"district":{"key":"09779","name":"Donau-Ries","type":"Landkreis"},"federalState":{"key":"09","name":"Bayern"}},{"name":"Loiblfingstr.","postalCode":"86688","locality":"Marxheim","municipality":{"key":"09779178","name":"Marxheim","type":"Kreisangehörige_Gemeinde"},"district":{"key":"09779","name":"Donau-Ries","type":"Landkreis"},"federalState":{"key":"09","name":"Bayern"}},{"name":"Messergasse","postalCode":"86688","locality":"Marxheim","municipality":{"key":"09779178","name":"Marxheim","type":"Kreisangehörige_Gemeinde"},"district":{"key":"09779","name":"Donau-Ries","type":"Landkreis"},"federalState":{"key":"09","name":"Bayern"}},{"name":"Mühlgrund","postalCode":"86688","locality":"Marxheim","municipality":{"key":"09779178","name":"Marxheim","type":"Kreisangehörige_Gemeinde"},"district":{"key":"09779","name":"Donau-Ries","type":"Landkreis"},"federalState":{"key":"09","name":"Bayern"}},{"name":"Ottheinrichstr.","postalCode":"86688","locality":"Marxheim","municipality":{"key":"09779178","name":"Marxheim","type":"Kreisangehörige_Gemeinde"},"district":{"key":"09779","name":"Donau-Ries","type":"Landkreis"},"federalState":{"key":"09","name":"Bayern"}},{"name":"Pfalzstr.","postalCode":"86688","locality":"Marxheim","municipality":{"key":"09779178","name":"Marxheim","type":"Kreisangehörige_Gemeinde"},"district":{"key":"09779","name":"Donau-Ries","type":"Landkreis"},"federalState":{"key":"09","name":"Bayern"}},{"name":"Regilostr.","postalCode":"86688","locality":"Marxheim","municipality":{"key":"09779178","name":"Marxheim","type":"Kreisangehörige_Gemeinde"},"district":{"key":"09779","name":"Donau-Ries","type":"Landkreis"},"federalState":{"key":"09","name":"Bayern"}},{"name":"Reithgasse","postalCode":"86688","locality":"Marxheim","municipality":{"key":"09779178","name":"Marxheim","type":"Kreisangehörige_Gemeinde"},"district":{"key":"09779","name":"Donau-Ries","type":"Landkreis"},"federalState":{"key":"09","name":"Bayern"}},{"name":"Rochusweg","postalCode":"86688","locality":"Marxheim","municipality":{"key":"09779178","name":"Marxheim","type":"Kreisangehörige_Gemeinde"},"district":{"key":"09779","name":"Donau-Ries","type":"Landkreis"},"federalState":{"key":"09","name":"Bayern"}},{"name":"Rosmarienstr.","postalCode":"86688","locality":"Marxheim","municipality":{"key":"09779178","name":"Marxheim","type":"Kreisangehörige_Gemeinde"},"district":{"key":"09779","name":"Donau-Ries","type":"Landkreis"},"federalState":{"key":"09","name":"Bayern"}},{"name":"Sanglaurenweg","postalCode":"86688","locality":"Marxheim","municipality":{"key":"09779178","name":"Marxheim","type":"Kreisangehörige_Gemeinde"},"district":{"key":"09779","name":"Donau-Ries","type":"Landkreis"},"federalState":{"key":"09","name":"Bayern"}},{"name":"Sankt-Bartholomäus-Gasse","postalCode":"86688","locality":"Marxheim","municipality":{"key":"09779178","name":"Marxheim","type":"Kreisangehörige_Gemeinde"},"district":{"key":"09779","name":"Donau-Ries","type":"Landkreis"},"federalState":{"key":"09","name":"Bayern"}},{"name":"Schenkenstr.","postalCode":"86688","locality":"Marxheim","municipality":{"key":"09779178","name":"Marxheim","type":"Kreisangehörige_Gemeinde"},"district":{"key":"09779","name":"Donau-Ries","type":"Landkreis"},"federalState":{"key":"09","name":"Bayern"}},{"name":"Schlossbergstr.","postalCode":"86688","locality":"Marxheim","municipality":{"key":"09779178","name":"Marxheim","type":"Kreisangehörige_Gemeinde"},"district":{"key":"09779","name":"Donau-Ries","type":"Landkreis"},"federalState":{"key":"09","name":"Bayern"}},{"name":"Schloßbergweg","postalCode":"86688","locality":"Marxheim","municipality":{"key":"09779178","name":"Marxheim","type":"Kreisangehörige_Gemeinde"},"district":{"key":"09779","name":"Donau-Ries","type":"Landkreis"},"federalState":{"key":"09","name":"Bayern"}},{"name":"Schloßstr.","postalCode":"86688","locality":"Marxheim","municipality":{"key":"09779178","name":"Marxheim","type":"Kreisangehörige_Gemeinde"},"district":{"key":"09779","name":"Donau-Ries","type":"Landkreis"},"federalState":{"key":"09","name":"Bayern"}},{"name":"Schulgäßchen","postalCode":"86688","locality":"Marxheim","municipality":{"key":"09779178","name":"Marxheim","type":"Kreisangehörige_Gemeinde"},"district":{"key":"09779","name":"Donau-Ries","type":"Landkreis"},"federalState":{"key":"09","name":"Bayern"}},{"name":"Schüttleweg","postalCode":"86688","locality":"Marxheim","municipality":{"key":"09779178","name":"Marxheim","type":"Kreisangehörige_Gemeinde"},"district":{"key":"09779","name":"Donau-Ries","type":"Landkreis"},"federalState":{"key":"09","name":"Bayern"}},{"name":"Schwabenstr.","postalCode":"86688","locality":"Marxheim","municipality":{"key":"09779178","name":"Marxheim","type":"Kreisangehörige_Gemeinde"},"district":{"key":"09779","name":"Donau-Ries","type":"Landkreis"},"federalState":{"key":"09","name":"Bayern"}},{"name":"St.-Gertraud-Str.","postalCode":"86688","locality":"Marxheim","municipality":{"key":"09779178","name":"Marxheim","type":"Kreisangehörige_Gemeinde"},"district":{"key":"09779","name":"Donau-Ries","type":"Landkreis"},"federalState":{"key":"09","name":"Bayern"}},{"name":"St.-Veit-Str.","postalCode":"86688","locality":"Marxheim","municipality":{"key":"09779178","name":"Marxheim","type":"Kreisangehörige_Gemeinde"},"district":{"key":"09779","name":"Donau-Ries","type":"Landkreis"},"federalState":{"key":"09","name":"Bayern"}},{"name":"Südstr.","postalCode":"86688","locality":"Marxheim","municipality":{"key":"09779178","name":"Marxheim","type":"Kreisangehörige_Gemeinde"},"district":{"key":"09779","name":"Donau-Ries","type":"Landkreis"},"federalState":{"key":"09","name":"Bayern"}},{"name":"Tiroler Str.","postalCode":"86688","locality":"Marxheim","municipality":{"key":"09779178","name":"Marxheim","type":"Kreisangehörige_Gemeinde"},"district":{"key":"09779","name":"Donau-Ries","type":"Landkreis"},"federalState":{"key":"09","name":"Bayern"}},{"name":"Usselstr.","postalCode":"86688","locality":"Marxheim","municipality":{"key":"09779178","name":"Marxheim","type":"Kreisangehörige_Gemeinde"},"district":{"key":"09779","name":"Donau-Ries","type":"Landkreis"},"federalState":{"key":"09","name":"Bayern"}},{"name":"Von-Wellenstein-Str.","postalCode":"86688","locality":"Marxheim","municipality":{"key":"09779178","name":"Marxheim","type":"Kreisangehörige_Gemeinde"},"district":{"key":"09779","name":"Donau-Ries","type":"Landkreis"},"federalState":{"key":"09","name":"Bayern"}},{"name":"Wannenbergweg","postalCode":"86688","locality":"Marxheim","municipality":{"key":"09779178","name":"Marxheim","type":"Kreisangehörige_Gemeinde"},"district":{"key":"09779","name":"Donau-Ries","type":"Landkreis"},"federalState":{"key":"09","name":"Bayern"}},{"name":"Welfenstr.","postalCode":"86688","locality":"Marxheim","municipality":{"key":"09779178","name":"Marxheim","type":"Kreisangehörige_Gemeinde"},"district":{"key":"09779","name":"Donau-Ries","type":"Landkreis"},"federalState":{"key":"09","name":"Bayern"}},]