[{"name":"Auf der Wolfskaul","postalCode":"54668","locality":"Ferschweiler","municipality":{"key":"07232037","name":"Ferschweiler","type":"Kreisangehörige_Gemeinde"},"district":{"key":"07232","name":"Eifelkreis Bitburg-Prüm","type":"Landkreis"},"federalState":{"key":"07","name":"Rheinland-Pfalz"}},{"name":"Bergstr.","postalCode":"54668","locality":"Ferschweiler","municipality":{"key":"07232037","name":"Ferschweiler","type":"Kreisangehörige_Gemeinde"},"district":{"key":"07232","name":"Eifelkreis Bitburg-Prüm","type":"Landkreis"},"federalState":{"key":"07","name":"Rheinland-Pfalz"}},{"name":"Bornstr.","postalCode":"54668","locality":"Ferschweiler","municipality":{"key":"07232037","name":"Ferschweiler","type":"Kreisangehörige_Gemeinde"},"district":{"key":"07232","name":"Eifelkreis Bitburg-Prüm","type":"Landkreis"},"federalState":{"key":"07","name":"Rheinland-Pfalz"}},{"name":"Büchelstr.","postalCode":"54668","locality":"Ferschweiler","municipality":{"key":"07232037","name":"Ferschweiler","type":"Kreisangehörige_Gemeinde"},"district":{"key":"07232","name":"Eifelkreis Bitburg-Prüm","type":"Landkreis"},"federalState":{"key":"07","name":"Rheinland-Pfalz"}},{"name":"Dreitalstr.","postalCode":"54668","locality":"Ferschweiler","municipality":{"key":"07232037","name":"Ferschweiler","type":"Kreisangehörige_Gemeinde"},"district":{"key":"07232","name":"Eifelkreis Bitburg-Prüm","type":"Landkreis"},"federalState":{"key":"07","name":"Rheinland-Pfalz"}},{"name":"Gartenstr.","postalCode":"54668","locality":"Ferschweiler","municipality":{"key":"07232037","name":"Ferschweiler","type":"Kreisangehörige_Gemeinde"},"district":{"key":"07232","name":"Eifelkreis Bitburg-Prüm","type":"Landkreis"},"federalState":{"key":"07","name":"Rheinland-Pfalz"}},{"name":"Hinter der Höh","postalCode":"54668","locality":"Ferschweiler","municipality":{"key":"07232037","name":"Ferschweiler","type":"Kreisangehörige_Gemeinde"},"district":{"key":"07232","name":"Eifelkreis Bitburg-Prüm","type":"Landkreis"},"federalState":{"key":"07","name":"Rheinland-Pfalz"}},{"name":"Hochstr.","postalCode":"54668","locality":"Ferschweiler","municipality":{"key":"07232037","name":"Ferschweiler","type":"Kreisangehörige_Gemeinde"},"district":{"key":"07232","name":"Eifelkreis Bitburg-Prüm","type":"Landkreis"},"federalState":{"key":"07","name":"Rheinland-Pfalz"}},{"name":"Holsthumer Str.","postalCode":"54668","locality":"Ferschweiler","municipality":{"key":"07232037","name":"Ferschweiler","type":"Kreisangehörige_Gemeinde"},"district":{"key":"07232","name":"Eifelkreis Bitburg-Prüm","type":"Landkreis"},"federalState":{"key":"07","name":"Rheinland-Pfalz"}},{"name":"In den Neugärten","postalCode":"54668","locality":"Ferschweiler","municipality":{"key":"07232037","name":"Ferschweiler","type":"Kreisangehörige_Gemeinde"},"district":{"key":"07232","name":"Eifelkreis Bitburg-Prüm","type":"Landkreis"},"federalState":{"key":"07","name":"Rheinland-Pfalz"}},{"name":"In den Wiesen","postalCode":"54668","locality":"Ferschweiler","municipality":{"key":"07232037","name":"Ferschweiler","type":"Kreisangehörige_Gemeinde"},"district":{"key":"07232","name":"Eifelkreis Bitburg-Prüm","type":"Landkreis"},"federalState":{"key":"07","name":"Rheinland-Pfalz"}},{"name":"Junkerstr.","postalCode":"54668","locality":"Ferschweiler","municipality":{"key":"07232037","name":"Ferschweiler","type":"Kreisangehörige_Gemeinde"},"district":{"key":"07232","name":"Eifelkreis Bitburg-Prüm","type":"Landkreis"},"federalState":{"key":"07","name":"Rheinland-Pfalz"}},{"name":"Keltenhöhe","postalCode":"54668","locality":"Ferschweiler","municipality":{"key":"07232037","name":"Ferschweiler","type":"Kreisangehörige_Gemeinde"},"district":{"key":"07232","name":"Eifelkreis Bitburg-Prüm","type":"Landkreis"},"federalState":{"key":"07","name":"Rheinland-Pfalz"}},{"name":"Laeisenhofer Str.","postalCode":"54668","locality":"Ferschweiler","municipality":{"key":"07232037","name":"Ferschweiler","type":"Kreisangehörige_Gemeinde"},"district":{"key":"07232","name":"Eifelkreis Bitburg-Prüm","type":"Landkreis"},"federalState":{"key":"07","name":"Rheinland-Pfalz"}},{"name":"Obere Bergstr.","postalCode":"54668","locality":"Ferschweiler","municipality":{"key":"07232037","name":"Ferschweiler","type":"Kreisangehörige_Gemeinde"},"district":{"key":"07232","name":"Eifelkreis Bitburg-Prüm","type":"Landkreis"},"federalState":{"key":"07","name":"Rheinland-Pfalz"}},{"name":"Peter-Raths-Weg","postalCode":"54668","locality":"Ferschweiler","municipality":{"key":"07232037","name":"Ferschweiler","type":"Kreisangehörige_Gemeinde"},"district":{"key":"07232","name":"Eifelkreis Bitburg-Prüm","type":"Landkreis"},"federalState":{"key":"07","name":"Rheinland-Pfalz"}},{"name":"Prümzurlayer Str.","postalCode":"54668","locality":"Ferschweiler","municipality":{"key":"07232037","name":"Ferschweiler","type":"Kreisangehörige_Gemeinde"},"district":{"key":"07232","name":"Eifelkreis Bitburg-Prüm","type":"Landkreis"},"federalState":{"key":"07","name":"Rheinland-Pfalz"}},{"name":"Ringstr.","postalCode":"54668","locality":"Ferschweiler","municipality":{"key":"07232037","name":"Ferschweiler","type":"Kreisangehörige_Gemeinde"},"district":{"key":"07232","name":"Eifelkreis Bitburg-Prüm","type":"Landkreis"},"federalState":{"key":"07","name":"Rheinland-Pfalz"}},{"name":"Schäferstr.","postalCode":"54668","locality":"Ferschweiler","municipality":{"key":"07232037","name":"Ferschweiler","type":"Kreisangehörige_Gemeinde"},"district":{"key":"07232","name":"Eifelkreis Bitburg-Prüm","type":"Landkreis"},"federalState":{"key":"07","name":"Rheinland-Pfalz"}},{"name":"Sybillenstr.","postalCode":"54668","locality":"Ferschweiler","municipality":{"key":"07232037","name":"Ferschweiler","type":"Kreisangehörige_Gemeinde"},"district":{"key":"07232","name":"Eifelkreis Bitburg-Prüm","type":"Landkreis"},"federalState":{"key":"07","name":"Rheinland-Pfalz"}},{"name":"Unter'm Luzienturm","postalCode":"54668","locality":"Ferschweiler","municipality":{"key":"07232037","name":"Ferschweiler","type":"Kreisangehörige_Gemeinde"},"district":{"key":"07232","name":"Eifelkreis Bitburg-Prüm","type":"Landkreis"},"federalState":{"key":"07","name":"Rheinland-Pfalz"}},{"name":"Wickingerstr.","postalCode":"54668","locality":"Ferschweiler","municipality":{"key":"07232037","name":"Ferschweiler","type":"Kreisangehörige_Gemeinde"},"district":{"key":"07232","name":"Eifelkreis Bitburg-Prüm","type":"Landkreis"},"federalState":{"key":"07","name":"Rheinland-Pfalz"}},{"name":"Zum Hiebersch","postalCode":"54668","locality":"Ferschweiler","municipality":{"key":"07232037","name":"Ferschweiler","type":"Kreisangehörige_Gemeinde"},"district":{"key":"07232","name":"Eifelkreis Bitburg-Prüm","type":"Landkreis"},"federalState":{"key":"07","name":"Rheinland-Pfalz"}},]