[{"name":"Achtelsbergstr.","postalCode":"97840","locality":"Hafenlohr","municipality":{"key":"09677135","name":"Hafenlohr","type":"Kreisangehörige_Gemeinde"},"district":{"key":"09677","name":"Main-Spessart","type":"Landkreis"},"federalState":{"key":"09","name":"Bayern"}},{"name":"Alte Bärenhöhle","postalCode":"97840","locality":"Hafenlohr","municipality":{"key":"09677135","name":"Hafenlohr","type":"Kreisangehörige_Gemeinde"},"district":{"key":"09677","name":"Main-Spessart","type":"Landkreis"},"federalState":{"key":"09","name":"Bayern"}},{"name":"Alte Windheimer Str.","postalCode":"97840","locality":"Hafenlohr","municipality":{"key":"09677135","name":"Hafenlohr","type":"Kreisangehörige_Gemeinde"},"district":{"key":"09677","name":"Main-Spessart","type":"Landkreis"},"federalState":{"key":"09","name":"Bayern"}},{"name":"Am Gehäg","postalCode":"97840","locality":"Hafenlohr","municipality":{"key":"09677135","name":"Hafenlohr","type":"Kreisangehörige_Gemeinde"},"district":{"key":"09677","name":"Main-Spessart","type":"Landkreis"},"federalState":{"key":"09","name":"Bayern"}},{"name":"Am Kirchberg","postalCode":"97840","locality":"Hafenlohr","municipality":{"key":"09677135","name":"Hafenlohr","type":"Kreisangehörige_Gemeinde"},"district":{"key":"09677","name":"Main-Spessart","type":"Landkreis"},"federalState":{"key":"09","name":"Bayern"}},{"name":"Am Pöller","postalCode":"97840","locality":"Hafenlohr","municipality":{"key":"09677135","name":"Hafenlohr","type":"Kreisangehörige_Gemeinde"},"district":{"key":"09677","name":"Main-Spessart","type":"Landkreis"},"federalState":{"key":"09","name":"Bayern"}},{"name":"Am Rödlein","postalCode":"97840","locality":"Hafenlohr","municipality":{"key":"09677135","name":"Hafenlohr","type":"Kreisangehörige_Gemeinde"},"district":{"key":"09677","name":"Main-Spessart","type":"Landkreis"},"federalState":{"key":"09","name":"Bayern"}},{"name":"Am Rothenberg","postalCode":"97840","locality":"Hafenlohr","municipality":{"key":"09677135","name":"Hafenlohr","type":"Kreisangehörige_Gemeinde"},"district":{"key":"09677","name":"Main-Spessart","type":"Landkreis"},"federalState":{"key":"09","name":"Bayern"}},{"name":"Am Sandrain","postalCode":"97840","locality":"Hafenlohr","municipality":{"key":"09677135","name":"Hafenlohr","type":"Kreisangehörige_Gemeinde"},"district":{"key":"09677","name":"Main-Spessart","type":"Landkreis"},"federalState":{"key":"09","name":"Bayern"}},{"name":"Am Schleifrain","postalCode":"97840","locality":"Hafenlohr","municipality":{"key":"09677135","name":"Hafenlohr","type":"Kreisangehörige_Gemeinde"},"district":{"key":"09677","name":"Main-Spessart","type":"Landkreis"},"federalState":{"key":"09","name":"Bayern"}},{"name":"Am Schnitzer","postalCode":"97840","locality":"Hafenlohr","municipality":{"key":"09677135","name":"Hafenlohr","type":"Kreisangehörige_Gemeinde"},"district":{"key":"09677","name":"Main-Spessart","type":"Landkreis"},"federalState":{"key":"09","name":"Bayern"}},{"name":"Am Seelengütlein","postalCode":"97840","locality":"Hafenlohr","municipality":{"key":"09677135","name":"Hafenlohr","type":"Kreisangehörige_Gemeinde"},"district":{"key":"09677","name":"Main-Spessart","type":"Landkreis"},"federalState":{"key":"09","name":"Bayern"}},{"name":"Am Steinacker","postalCode":"97840","locality":"Hafenlohr","municipality":{"key":"09677135","name":"Hafenlohr","type":"Kreisangehörige_Gemeinde"},"district":{"key":"09677","name":"Main-Spessart","type":"Landkreis"},"federalState":{"key":"09","name":"Bayern"}},{"name":"An den Zehn Morgen","postalCode":"97840","locality":"Hafenlohr","municipality":{"key":"09677135","name":"Hafenlohr","type":"Kreisangehörige_Gemeinde"},"district":{"key":"09677","name":"Main-Spessart","type":"Landkreis"},"federalState":{"key":"09","name":"Bayern"}},{"name":"An der Hohle","postalCode":"97840","locality":"Hafenlohr","municipality":{"key":"09677135","name":"Hafenlohr","type":"Kreisangehörige_Gemeinde"},"district":{"key":"09677","name":"Main-Spessart","type":"Landkreis"},"federalState":{"key":"09","name":"Bayern"}},{"name":"An der Schule","postalCode":"97840","locality":"Hafenlohr","municipality":{"key":"09677135","name":"Hafenlohr","type":"Kreisangehörige_Gemeinde"},"district":{"key":"09677","name":"Main-Spessart","type":"Landkreis"},"federalState":{"key":"09","name":"Bayern"}},{"name":"Bahnhofstr.","postalCode":"97840","locality":"Hafenlohr","municipality":{"key":"09677135","name":"Hafenlohr","type":"Kreisangehörige_Gemeinde"},"district":{"key":"09677","name":"Main-Spessart","type":"Landkreis"},"federalState":{"key":"09","name":"Bayern"}},{"name":"Bergstr.","postalCode":"97840","locality":"Hafenlohr","municipality":{"key":"09677135","name":"Hafenlohr","type":"Kreisangehörige_Gemeinde"},"district":{"key":"09677","name":"Main-Spessart","type":"Landkreis"},"federalState":{"key":"09","name":"Bayern"}},{"name":"Brunnsteg","postalCode":"97840","locality":"Hafenlohr","municipality":{"key":"09677135","name":"Hafenlohr","type":"Kreisangehörige_Gemeinde"},"district":{"key":"09677","name":"Main-Spessart","type":"Landkreis"},"federalState":{"key":"09","name":"Bayern"}},{"name":"Buchweg","postalCode":"97840","locality":"Hafenlohr","municipality":{"key":"09677135","name":"Hafenlohr","type":"Kreisangehörige_Gemeinde"},"district":{"key":"09677","name":"Main-Spessart","type":"Landkreis"},"federalState":{"key":"09","name":"Bayern"}},{"name":"Doktor-Heinrich-Renkl-Str.","postalCode":"97840","locality":"Hafenlohr","municipality":{"key":"09677135","name":"Hafenlohr","type":"Kreisangehörige_Gemeinde"},"district":{"key":"09677","name":"Main-Spessart","type":"Landkreis"},"federalState":{"key":"09","name":"Bayern"}},{"name":"Dorfstr.","postalCode":"97840","locality":"Hafenlohr","municipality":{"key":"09677135","name":"Hafenlohr","type":"Kreisangehörige_Gemeinde"},"district":{"key":"09677","name":"Main-Spessart","type":"Landkreis"},"federalState":{"key":"09","name":"Bayern"}},{"name":"Eltersfurtweg","postalCode":"97840","locality":"Hafenlohr","municipality":{"key":"09677135","name":"Hafenlohr","type":"Kreisangehörige_Gemeinde"},"district":{"key":"09677","name":"Main-Spessart","type":"Landkreis"},"federalState":{"key":"09","name":"Bayern"}},{"name":"Feuerbergstr.","postalCode":"97840","locality":"Hafenlohr","municipality":{"key":"09677135","name":"Hafenlohr","type":"Kreisangehörige_Gemeinde"},"district":{"key":"09677","name":"Main-Spessart","type":"Landkreis"},"federalState":{"key":"09","name":"Bayern"}},{"name":"Gartenstr.","postalCode":"97840","locality":"Hafenlohr","municipality":{"key":"09677135","name":"Hafenlohr","type":"Kreisangehörige_Gemeinde"},"district":{"key":"09677","name":"Main-Spessart","type":"Landkreis"},"federalState":{"key":"09","name":"Bayern"}},{"name":"Hafenlohrtalstr.","postalCode":"97840","locality":"Hafenlohr","municipality":{"key":"09677135","name":"Hafenlohr","type":"Kreisangehörige_Gemeinde"},"district":{"key":"09677","name":"Main-Spessart","type":"Landkreis"},"federalState":{"key":"09","name":"Bayern"}},{"name":"Hafnerstr.","postalCode":"97840","locality":"Hafenlohr","municipality":{"key":"09677135","name":"Hafenlohr","type":"Kreisangehörige_Gemeinde"},"district":{"key":"09677","name":"Main-Spessart","type":"Landkreis"},"federalState":{"key":"09","name":"Bayern"}},{"name":"Hauptstr.","postalCode":"97840","locality":"Hafenlohr","municipality":{"key":"09677135","name":"Hafenlohr","type":"Kreisangehörige_Gemeinde"},"district":{"key":"09677","name":"Main-Spessart","type":"Landkreis"},"federalState":{"key":"09","name":"Bayern"}},{"name":"Heinrich-Hettiger-Platz","postalCode":"97840","locality":"Hafenlohr","municipality":{"key":"09677135","name":"Hafenlohr","type":"Kreisangehörige_Gemeinde"},"district":{"key":"09677","name":"Main-Spessart","type":"Landkreis"},"federalState":{"key":"09","name":"Bayern"}},{"name":"Herrngasse","postalCode":"97840","locality":"Hafenlohr","municipality":{"key":"09677135","name":"Hafenlohr","type":"Kreisangehörige_Gemeinde"},"district":{"key":"09677","name":"Main-Spessart","type":"Landkreis"},"federalState":{"key":"09","name":"Bayern"}},{"name":"Hertleinsplatz","postalCode":"97840","locality":"Hafenlohr","municipality":{"key":"09677135","name":"Hafenlohr","type":"Kreisangehörige_Gemeinde"},"district":{"key":"09677","name":"Main-Spessart","type":"Landkreis"},"federalState":{"key":"09","name":"Bayern"}},{"name":"Hertleinstr.","postalCode":"97840","locality":"Hafenlohr","municipality":{"key":"09677135","name":"Hafenlohr","type":"Kreisangehörige_Gemeinde"},"district":{"key":"09677","name":"Main-Spessart","type":"Landkreis"},"federalState":{"key":"09","name":"Bayern"}},{"name":"Hofgutstr.","postalCode":"97840","locality":"Hafenlohr","municipality":{"key":"09677135","name":"Hafenlohr","type":"Kreisangehörige_Gemeinde"},"district":{"key":"09677","name":"Main-Spessart","type":"Landkreis"},"federalState":{"key":"09","name":"Bayern"}},{"name":"Holzgasse","postalCode":"97840","locality":"Hafenlohr","municipality":{"key":"09677135","name":"Hafenlohr","type":"Kreisangehörige_Gemeinde"},"district":{"key":"09677","name":"Main-Spessart","type":"Landkreis"},"federalState":{"key":"09","name":"Bayern"}},{"name":"Im Wengert","postalCode":"97840","locality":"Hafenlohr","municipality":{"key":"09677135","name":"Hafenlohr","type":"Kreisangehörige_Gemeinde"},"district":{"key":"09677","name":"Main-Spessart","type":"Landkreis"},"federalState":{"key":"09","name":"Bayern"}},{"name":"Klemens-Mehling-Str.","postalCode":"97840","locality":"Hafenlohr","municipality":{"key":"09677135","name":"Hafenlohr","type":"Kreisangehörige_Gemeinde"},"district":{"key":"09677","name":"Main-Spessart","type":"Landkreis"},"federalState":{"key":"09","name":"Bayern"}},{"name":"Lauterbodenstr.","postalCode":"97840","locality":"Hafenlohr","municipality":{"key":"09677135","name":"Hafenlohr","type":"Kreisangehörige_Gemeinde"},"district":{"key":"09677","name":"Main-Spessart","type":"Landkreis"},"federalState":{"key":"09","name":"Bayern"}},{"name":"Lehmgrubenstr.","postalCode":"97840","locality":"Hafenlohr","municipality":{"key":"09677135","name":"Hafenlohr","type":"Kreisangehörige_Gemeinde"},"district":{"key":"09677","name":"Main-Spessart","type":"Landkreis"},"federalState":{"key":"09","name":"Bayern"}},{"name":"Marienbrunner Str.","postalCode":"97840","locality":"Hafenlohr","municipality":{"key":"09677135","name":"Hafenlohr","type":"Kreisangehörige_Gemeinde"},"district":{"key":"09677","name":"Main-Spessart","type":"Landkreis"},"federalState":{"key":"09","name":"Bayern"}},{"name":"Marktheidenfelder Str.","postalCode":"97840","locality":"Hafenlohr","municipality":{"key":"09677135","name":"Hafenlohr","type":"Kreisangehörige_Gemeinde"},"district":{"key":"09677","name":"Main-Spessart","type":"Landkreis"},"federalState":{"key":"09","name":"Bayern"}},{"name":"Mühlgasse","postalCode":"97840","locality":"Hafenlohr","municipality":{"key":"09677135","name":"Hafenlohr","type":"Kreisangehörige_Gemeinde"},"district":{"key":"09677","name":"Main-Spessart","type":"Landkreis"},"federalState":{"key":"09","name":"Bayern"}},{"name":"Obere Hofäckerstr.","postalCode":"97840","locality":"Hafenlohr","municipality":{"key":"09677135","name":"Hafenlohr","type":"Kreisangehörige_Gemeinde"},"district":{"key":"09677","name":"Main-Spessart","type":"Landkreis"},"federalState":{"key":"09","name":"Bayern"}},{"name":"Pfarrer-Spielmann-Str.","postalCode":"97840","locality":"Hafenlohr","municipality":{"key":"09677135","name":"Hafenlohr","type":"Kreisangehörige_Gemeinde"},"district":{"key":"09677","name":"Main-Spessart","type":"Landkreis"},"federalState":{"key":"09","name":"Bayern"}},{"name":"Ringstr.","postalCode":"97840","locality":"Hafenlohr","municipality":{"key":"09677135","name":"Hafenlohr","type":"Kreisangehörige_Gemeinde"},"district":{"key":"09677","name":"Main-Spessart","type":"Landkreis"},"federalState":{"key":"09","name":"Bayern"}},{"name":"Schmalzäcker","postalCode":"97840","locality":"Hafenlohr","municipality":{"key":"09677135","name":"Hafenlohr","type":"Kreisangehörige_Gemeinde"},"district":{"key":"09677","name":"Main-Spessart","type":"Landkreis"},"federalState":{"key":"09","name":"Bayern"}},{"name":"Schulstr.","postalCode":"97840","locality":"Hafenlohr","municipality":{"key":"09677135","name":"Hafenlohr","type":"Kreisangehörige_Gemeinde"},"district":{"key":"09677","name":"Main-Spessart","type":"Landkreis"},"federalState":{"key":"09","name":"Bayern"}},{"name":"Schwarze Gasse","postalCode":"97840","locality":"Hafenlohr","municipality":{"key":"09677135","name":"Hafenlohr","type":"Kreisangehörige_Gemeinde"},"district":{"key":"09677","name":"Main-Spessart","type":"Landkreis"},"federalState":{"key":"09","name":"Bayern"}},{"name":"Spessartstr.","postalCode":"97840","locality":"Hafenlohr","municipality":{"key":"09677135","name":"Hafenlohr","type":"Kreisangehörige_Gemeinde"},"district":{"key":"09677","name":"Main-Spessart","type":"Landkreis"},"federalState":{"key":"09","name":"Bayern"}},{"name":"Steige","postalCode":"97840","locality":"Hafenlohr","municipality":{"key":"09677135","name":"Hafenlohr","type":"Kreisangehörige_Gemeinde"},"district":{"key":"09677","name":"Main-Spessart","type":"Landkreis"},"federalState":{"key":"09","name":"Bayern"}},{"name":"Weinbergstr.","postalCode":"97840","locality":"Hafenlohr","municipality":{"key":"09677135","name":"Hafenlohr","type":"Kreisangehörige_Gemeinde"},"district":{"key":"09677","name":"Main-Spessart","type":"Landkreis"},"federalState":{"key":"09","name":"Bayern"}},{"name":"Wiesenweg","postalCode":"97840","locality":"Hafenlohr","municipality":{"key":"09677135","name":"Hafenlohr","type":"Kreisangehörige_Gemeinde"},"district":{"key":"09677","name":"Main-Spessart","type":"Landkreis"},"federalState":{"key":"09","name":"Bayern"}},{"name":"Windheimer Str.","postalCode":"97840","locality":"Hafenlohr","municipality":{"key":"09677135","name":"Hafenlohr","type":"Kreisangehörige_Gemeinde"},"district":{"key":"09677","name":"Main-Spessart","type":"Landkreis"},"federalState":{"key":"09","name":"Bayern"}},]