[{"key":"10138475","name":"Strada Regina","postalCode":"6983","locality":"Magliaso","commune":{"key":"5193","name":"Magliaso","shortName":"Magliaso"},"district":{"key":"2105","name":"Distretto di Lugano"},"canton":{"key":"21","code":"TI","name":"Ticino"},"status":"Real"},{"key":"10166200","name":"Via ai Mulini","postalCode":"6983","locality":"Magliaso","commune":{"key":"5193","name":"Magliaso","shortName":"Magliaso"},"district":{"key":"2105","name":"Distretto di Lugano"},"canton":{"key":"21","code":"TI","name":"Ticino"},"status":"Real"},{"key":"10132800","name":"Via Bosconi","postalCode":"6983","locality":"Magliaso","commune":{"key":"5193","name":"Magliaso","shortName":"Magliaso"},"district":{"key":"2105","name":"Distretto di Lugano"},"canton":{"key":"21","code":"TI","name":"Ticino"},"status":"Real"},{"key":"10132801","name":"Via BÃ¶tt","postalCode":"6983","locality":"Magliaso","commune":{"key":"5193","name":"Magliaso","shortName":"Magliaso"},"district":{"key":"2105","name":"Distretto di Lugano"},"canton":{"key":"21","code":"TI","name":"Ticino"},"status":"Real"},{"key":"10132802","name":"Via Campagnora","postalCode":"6983","locality":"Magliaso","commune":{"key":"5193","name":"Magliaso","shortName":"Magliaso"},"district":{"key":"2105","name":"Distretto di Lugano"},"canton":{"key":"21","code":"TI","name":"Ticino"},"status":"Real"},{"key":"10132803","name":"Via Cantonale","postalCode":"6983","locality":"Magliaso","commune":{"key":"5193","name":"Magliaso","shortName":"Magliaso"},"district":{"key":"2105","name":"Distretto di Lugano"},"canton":{"key":"21","code":"TI","name":"Ticino"},"status":"Real"},{"key":"10132804","name":"Via Castellaccio","postalCode":"6983","locality":"Magliaso","commune":{"key":"5193","name":"Magliaso","shortName":"Magliaso"},"district":{"key":"2105","name":"Distretto di Lugano"},"canton":{"key":"21","code":"TI","name":"Ticino"},"status":"Real"},{"key":"10132805","name":"Via Chiesa","postalCode":"6983","locality":"Magliaso","commune":{"key":"5193","name":"Magliaso","shortName":"Magliaso"},"district":{"key":"2105","name":"Distretto di Lugano"},"canton":{"key":"21","code":"TI","name":"Ticino"},"status":"Real"},{"key":"10132806","name":"Via Chioso","postalCode":"6983","locality":"Magliaso","commune":{"key":"5193","name":"Magliaso","shortName":"Magliaso"},"district":{"key":"2105","name":"Distretto di Lugano"},"canton":{"key":"21","code":"TI","name":"Ticino"},"status":"Real"},{"key":"10132807","name":"Via Fiume","postalCode":"6983","locality":"Magliaso","commune":{"key":"5193","name":"Magliaso","shortName":"Magliaso"},"district":{"key":"2105","name":"Distretto di Lugano"},"canton":{"key":"21","code":"TI","name":"Ticino"},"status":"Real"},{"key":"10132808","name":"Via Guasti","postalCode":"6983","locality":"Magliaso","commune":{"key":"5193","name":"Magliaso","shortName":"Magliaso"},"district":{"key":"2105","name":"Distretto di Lugano"},"canton":{"key":"21","code":"TI","name":"Ticino"},"status":"Real"},{"key":"10132809","name":"Via Lago","postalCode":"6983","locality":"Magliaso","commune":{"key":"5193","name":"Magliaso","shortName":"Magliaso"},"district":{"key":"2105","name":"Distretto di Lugano"},"canton":{"key":"21","code":"TI","name":"Ticino"},"status":"Real"},{"key":"10132810","name":"Via Monda","postalCode":"6983","locality":"Magliaso","commune":{"key":"5193","name":"Magliaso","shortName":"Magliaso"},"district":{"key":"2105","name":"Distretto di Lugano"},"canton":{"key":"21","code":"TI","name":"Ticino"},"status":"Real"},{"key":"10132811","name":"Via Muraglione","postalCode":"6983","locality":"Magliaso","commune":{"key":"5193","name":"Magliaso","shortName":"Magliaso"},"district":{"key":"2105","name":"Distretto di Lugano"},"canton":{"key":"21","code":"TI","name":"Ticino"},"status":"Real"},{"key":"10132812","name":"Via Pastura","postalCode":"6983","locality":"Magliaso","commune":{"key":"5193","name":"Magliaso","shortName":"Magliaso"},"district":{"key":"2105","name":"Distretto di Lugano"},"canton":{"key":"21","code":"TI","name":"Ticino"},"status":"Real"},{"key":"10132813","name":"Via Pomelli","postalCode":"6983","locality":"Magliaso","commune":{"key":"5193","name":"Magliaso","shortName":"Magliaso"},"district":{"key":"2105","name":"Distretto di Lugano"},"canton":{"key":"21","code":"TI","name":"Ticino"},"status":"Real"},{"key":"10132814","name":"Via Ressiga","postalCode":"6983","locality":"Magliaso","commune":{"key":"5193","name":"Magliaso","shortName":"Magliaso"},"district":{"key":"2105","name":"Distretto di Lugano"},"canton":{"key":"21","code":"TI","name":"Ticino"},"status":"Real"},{"key":"10132815","name":"Via Robbiolo","postalCode":"6983","locality":"Magliaso","commune":{"key":"5193","name":"Magliaso","shortName":"Magliaso"},"district":{"key":"2105","name":"Distretto di Lugano"},"canton":{"key":"21","code":"TI","name":"Ticino"},"status":"Real"},{"key":"10132816","name":"Via Roggia","postalCode":"6983","locality":"Magliaso","commune":{"key":"5193","name":"Magliaso","shortName":"Magliaso"},"district":{"key":"2105","name":"Distretto di Lugano"},"canton":{"key":"21","code":"TI","name":"Ticino"},"status":"Real"},{"key":"10132817","name":"Via San Giorgio","postalCode":"6983","locality":"Magliaso","commune":{"key":"5193","name":"Magliaso","shortName":"Magliaso"},"district":{"key":"2105","name":"Distretto di Lugano"},"canton":{"key":"21","code":"TI","name":"Ticino"},"status":"Real"},{"key":"10132818","name":"Via San Rocco","postalCode":"6983","locality":"Magliaso","commune":{"key":"5193","name":"Magliaso","shortName":"Magliaso"},"district":{"key":"2105","name":"Distretto di Lugano"},"canton":{"key":"21","code":"TI","name":"Ticino"},"status":"Real"},{"key":"10132819","name":"Via Stazione","postalCode":"6983","locality":"Magliaso","commune":{"key":"5193","name":"Magliaso","shortName":"Magliaso"},"district":{"key":"2105","name":"Distretto di Lugano"},"canton":{"key":"21","code":"TI","name":"Ticino"},"status":"Real"},{"key":"10132820","name":"Via Vedeggi","postalCode":"6983","locality":"Magliaso","commune":{"key":"5193","name":"Magliaso","shortName":"Magliaso"},"district":{"key":"2105","name":"Distretto di Lugano"},"canton":{"key":"21","code":"TI","name":"Ticino"},"status":"Real"},]