[{"name":"Ahornallee","postalCode":"15864","locality":"Wendisch Rietz","municipality":{"key":"12067520","name":"Wendisch Rietz","type":"Kreisangehörige_Gemeinde"},"district":{"key":"12067","name":"Oder-Spree","type":"Landkreis"},"federalState":{"key":"12","name":"Brandenburg"}},{"name":"Akazienweg","postalCode":"15864","locality":"Wendisch Rietz","municipality":{"key":"12067520","name":"Wendisch Rietz","type":"Kreisangehörige_Gemeinde"},"district":{"key":"12067","name":"Oder-Spree","type":"Landkreis"},"federalState":{"key":"12","name":"Brandenburg"}},{"name":"Am Berg","postalCode":"15864","locality":"Wendisch Rietz","municipality":{"key":"12067520","name":"Wendisch Rietz","type":"Kreisangehörige_Gemeinde"},"district":{"key":"12067","name":"Oder-Spree","type":"Landkreis"},"federalState":{"key":"12","name":"Brandenburg"}},{"name":"Am Glubigsee","postalCode":"15864","locality":"Wendisch Rietz","municipality":{"key":"12067520","name":"Wendisch Rietz","type":"Kreisangehörige_Gemeinde"},"district":{"key":"12067","name":"Oder-Spree","type":"Landkreis"},"federalState":{"key":"12","name":"Brandenburg"}},{"name":"Am Hafen","postalCode":"15864","locality":"Wendisch Rietz","municipality":{"key":"12067520","name":"Wendisch Rietz","type":"Kreisangehörige_Gemeinde"},"district":{"key":"12067","name":"Oder-Spree","type":"Landkreis"},"federalState":{"key":"12","name":"Brandenburg"}},{"name":"Am Kanal","postalCode":"15864","locality":"Wendisch Rietz","municipality":{"key":"12067520","name":"Wendisch Rietz","type":"Kreisangehörige_Gemeinde"},"district":{"key":"12067","name":"Oder-Spree","type":"Landkreis"},"federalState":{"key":"12","name":"Brandenburg"}},{"name":"Am Kieferngrund","postalCode":"15864","locality":"Wendisch Rietz","municipality":{"key":"12067520","name":"Wendisch Rietz","type":"Kreisangehörige_Gemeinde"},"district":{"key":"12067","name":"Oder-Spree","type":"Landkreis"},"federalState":{"key":"12","name":"Brandenburg"}},{"name":"Am Kleinen Glubigsee","postalCode":"15864","locality":"Wendisch Rietz","municipality":{"key":"12067520","name":"Wendisch Rietz","type":"Kreisangehörige_Gemeinde"},"district":{"key":"12067","name":"Oder-Spree","type":"Landkreis"},"federalState":{"key":"12","name":"Brandenburg"}},{"name":"Am Scharmützeleck","postalCode":"15864","locality":"Wendisch Rietz","municipality":{"key":"12067520","name":"Wendisch Rietz","type":"Kreisangehörige_Gemeinde"},"district":{"key":"12067","name":"Oder-Spree","type":"Landkreis"},"federalState":{"key":"12","name":"Brandenburg"}},{"name":"Am Schilfhaus","postalCode":"15864","locality":"Wendisch Rietz","municipality":{"key":"12067520","name":"Wendisch Rietz","type":"Kreisangehörige_Gemeinde"},"district":{"key":"12067","name":"Oder-Spree","type":"Landkreis"},"federalState":{"key":"12","name":"Brandenburg"}},{"name":"Am See","postalCode":"15864","locality":"Wendisch Rietz","municipality":{"key":"12067520","name":"Wendisch Rietz","type":"Kreisangehörige_Gemeinde"},"district":{"key":"12067","name":"Oder-Spree","type":"Landkreis"},"federalState":{"key":"12","name":"Brandenburg"}},{"name":"Amselweg","postalCode":"15864","locality":"Wendisch Rietz","municipality":{"key":"12067520","name":"Wendisch Rietz","type":"Kreisangehörige_Gemeinde"},"district":{"key":"12067","name":"Oder-Spree","type":"Landkreis"},"federalState":{"key":"12","name":"Brandenburg"}},{"name":"An den Kanalwiesen","postalCode":"15864","locality":"Wendisch Rietz","municipality":{"key":"12067520","name":"Wendisch Rietz","type":"Kreisangehörige_Gemeinde"},"district":{"key":"12067","name":"Oder-Spree","type":"Landkreis"},"federalState":{"key":"12","name":"Brandenburg"}},{"name":"An der Eisenbahn","postalCode":"15864","locality":"Wendisch Rietz","municipality":{"key":"12067520","name":"Wendisch Rietz","type":"Kreisangehörige_Gemeinde"},"district":{"key":"12067","name":"Oder-Spree","type":"Landkreis"},"federalState":{"key":"12","name":"Brandenburg"}},{"name":"Auf der Husareninsel","postalCode":"15864","locality":"Wendisch Rietz","municipality":{"key":"12067520","name":"Wendisch Rietz","type":"Kreisangehörige_Gemeinde"},"district":{"key":"12067","name":"Oder-Spree","type":"Landkreis"},"federalState":{"key":"12","name":"Brandenburg"}},{"name":"Beeskower Chaussee","postalCode":"15864","locality":"Wendisch Rietz","municipality":{"key":"12067520","name":"Wendisch Rietz","type":"Kreisangehörige_Gemeinde"},"district":{"key":"12067","name":"Oder-Spree","type":"Landkreis"},"federalState":{"key":"12","name":"Brandenburg"}},{"name":"Birkenweg","postalCode":"15864","locality":"Wendisch Rietz","municipality":{"key":"12067520","name":"Wendisch Rietz","type":"Kreisangehörige_Gemeinde"},"district":{"key":"12067","name":"Oder-Spree","type":"Landkreis"},"federalState":{"key":"12","name":"Brandenburg"}},{"name":"Buchenweg","postalCode":"15864","locality":"Wendisch Rietz","municipality":{"key":"12067520","name":"Wendisch Rietz","type":"Kreisangehörige_Gemeinde"},"district":{"key":"12067","name":"Oder-Spree","type":"Landkreis"},"federalState":{"key":"12","name":"Brandenburg"}},{"name":"Dahmsdorfer Str.","postalCode":"15864","locality":"Wendisch Rietz","municipality":{"key":"12067520","name":"Wendisch Rietz","type":"Kreisangehörige_Gemeinde"},"district":{"key":"12067","name":"Oder-Spree","type":"Landkreis"},"federalState":{"key":"12","name":"Brandenburg"}},{"name":"Dorfaue","postalCode":"15864","locality":"Wendisch Rietz","municipality":{"key":"12067520","name":"Wendisch Rietz","type":"Kreisangehörige_Gemeinde"},"district":{"key":"12067","name":"Oder-Spree","type":"Landkreis"},"federalState":{"key":"12","name":"Brandenburg"}},{"name":"Dubrower Weg","postalCode":"15864","locality":"Wendisch Rietz","municipality":{"key":"12067520","name":"Wendisch Rietz","type":"Kreisangehörige_Gemeinde"},"district":{"key":"12067","name":"Oder-Spree","type":"Landkreis"},"federalState":{"key":"12","name":"Brandenburg"}},{"name":"Eichenweg","postalCode":"15864","locality":"Wendisch Rietz","municipality":{"key":"12067520","name":"Wendisch Rietz","type":"Kreisangehörige_Gemeinde"},"district":{"key":"12067","name":"Oder-Spree","type":"Landkreis"},"federalState":{"key":"12","name":"Brandenburg"}},{"name":"Eschenallee","postalCode":"15864","locality":"Wendisch Rietz","municipality":{"key":"12067520","name":"Wendisch Rietz","type":"Kreisangehörige_Gemeinde"},"district":{"key":"12067","name":"Oder-Spree","type":"Landkreis"},"federalState":{"key":"12","name":"Brandenburg"}},{"name":"Forellenweg","postalCode":"15864","locality":"Wendisch Rietz","municipality":{"key":"12067520","name":"Wendisch Rietz","type":"Kreisangehörige_Gemeinde"},"district":{"key":"12067","name":"Oder-Spree","type":"Landkreis"},"federalState":{"key":"12","name":"Brandenburg"}},{"name":"Hauptstr.","postalCode":"15864","locality":"Wendisch Rietz","municipality":{"key":"12067520","name":"Wendisch Rietz","type":"Kreisangehörige_Gemeinde"},"district":{"key":"12067","name":"Oder-Spree","type":"Landkreis"},"federalState":{"key":"12","name":"Brandenburg"}},{"name":"Heideweg","postalCode":"15864","locality":"Wendisch Rietz","municipality":{"key":"12067520","name":"Wendisch Rietz","type":"Kreisangehörige_Gemeinde"},"district":{"key":"12067","name":"Oder-Spree","type":"Landkreis"},"federalState":{"key":"12","name":"Brandenburg"}},{"name":"Im Wald","postalCode":"15864","locality":"Wendisch Rietz","municipality":{"key":"12067520","name":"Wendisch Rietz","type":"Kreisangehörige_Gemeinde"},"district":{"key":"12067","name":"Oder-Spree","type":"Landkreis"},"federalState":{"key":"12","name":"Brandenburg"}},{"name":"In der Heide","postalCode":"15864","locality":"Wendisch Rietz","municipality":{"key":"12067520","name":"Wendisch Rietz","type":"Kreisangehörige_Gemeinde"},"district":{"key":"12067","name":"Oder-Spree","type":"Landkreis"},"federalState":{"key":"12","name":"Brandenburg"}},{"name":"Jägersteig","postalCode":"15864","locality":"Wendisch Rietz","municipality":{"key":"12067520","name":"Wendisch Rietz","type":"Kreisangehörige_Gemeinde"},"district":{"key":"12067","name":"Oder-Spree","type":"Landkreis"},"federalState":{"key":"12","name":"Brandenburg"}},{"name":"Kleine Promenade","postalCode":"15864","locality":"Wendisch Rietz","municipality":{"key":"12067520","name":"Wendisch Rietz","type":"Kreisangehörige_Gemeinde"},"district":{"key":"12067","name":"Oder-Spree","type":"Landkreis"},"federalState":{"key":"12","name":"Brandenburg"}},{"name":"Landstr.","postalCode":"15864","locality":"Wendisch Rietz","municipality":{"key":"12067520","name":"Wendisch Rietz","type":"Kreisangehörige_Gemeinde"},"district":{"key":"12067","name":"Oder-Spree","type":"Landkreis"},"federalState":{"key":"12","name":"Brandenburg"}},{"name":"Luisenaue","postalCode":"15864","locality":"Wendisch Rietz","municipality":{"key":"12067520","name":"Wendisch Rietz","type":"Kreisangehörige_Gemeinde"},"district":{"key":"12067","name":"Oder-Spree","type":"Landkreis"},"federalState":{"key":"12","name":"Brandenburg"}},{"name":"Neptunstr.","postalCode":"15864","locality":"Wendisch Rietz","municipality":{"key":"12067520","name":"Wendisch Rietz","type":"Kreisangehörige_Gemeinde"},"district":{"key":"12067","name":"Oder-Spree","type":"Landkreis"},"federalState":{"key":"12","name":"Brandenburg"}},{"name":"Pappelallee","postalCode":"15864","locality":"Wendisch Rietz","municipality":{"key":"12067520","name":"Wendisch Rietz","type":"Kreisangehörige_Gemeinde"},"district":{"key":"12067","name":"Oder-Spree","type":"Landkreis"},"federalState":{"key":"12","name":"Brandenburg"}},{"name":"Schafbrücke","postalCode":"15864","locality":"Wendisch Rietz","municipality":{"key":"12067520","name":"Wendisch Rietz","type":"Kreisangehörige_Gemeinde"},"district":{"key":"12067","name":"Oder-Spree","type":"Landkreis"},"federalState":{"key":"12","name":"Brandenburg"}},{"name":"Schwarzer Weg","postalCode":"15864","locality":"Wendisch Rietz","municipality":{"key":"12067520","name":"Wendisch Rietz","type":"Kreisangehörige_Gemeinde"},"district":{"key":"12067","name":"Oder-Spree","type":"Landkreis"},"federalState":{"key":"12","name":"Brandenburg"}},{"name":"Schwarzhorner Weg","postalCode":"15864","locality":"Wendisch Rietz","municipality":{"key":"12067520","name":"Wendisch Rietz","type":"Kreisangehörige_Gemeinde"},"district":{"key":"12067","name":"Oder-Spree","type":"Landkreis"},"federalState":{"key":"12","name":"Brandenburg"}},{"name":"Seerosenweg","postalCode":"15864","locality":"Wendisch Rietz","municipality":{"key":"12067520","name":"Wendisch Rietz","type":"Kreisangehörige_Gemeinde"},"district":{"key":"12067","name":"Oder-Spree","type":"Landkreis"},"federalState":{"key":"12","name":"Brandenburg"}},{"name":"Seestr.","postalCode":"15864","locality":"Wendisch Rietz","municipality":{"key":"12067520","name":"Wendisch Rietz","type":"Kreisangehörige_Gemeinde"},"district":{"key":"12067","name":"Oder-Spree","type":"Landkreis"},"federalState":{"key":"12","name":"Brandenburg"}},{"name":"Silberberger Chaussee","postalCode":"15864","locality":"Wendisch Rietz","municipality":{"key":"12067520","name":"Wendisch Rietz","type":"Kreisangehörige_Gemeinde"},"district":{"key":"12067","name":"Oder-Spree","type":"Landkreis"},"federalState":{"key":"12","name":"Brandenburg"}},{"name":"Sonnenwinkel","postalCode":"15864","locality":"Wendisch Rietz","municipality":{"key":"12067520","name":"Wendisch Rietz","type":"Kreisangehörige_Gemeinde"},"district":{"key":"12067","name":"Oder-Spree","type":"Landkreis"},"federalState":{"key":"12","name":"Brandenburg"}},{"name":"Storkower Str.","postalCode":"15864","locality":"Wendisch Rietz","municipality":{"key":"12067520","name":"Wendisch Rietz","type":"Kreisangehörige_Gemeinde"},"district":{"key":"12067","name":"Oder-Spree","type":"Landkreis"},"federalState":{"key":"12","name":"Brandenburg"}},{"name":"Strandstr.","postalCode":"15864","locality":"Wendisch Rietz","municipality":{"key":"12067520","name":"Wendisch Rietz","type":"Kreisangehörige_Gemeinde"},"district":{"key":"12067","name":"Oder-Spree","type":"Landkreis"},"federalState":{"key":"12","name":"Brandenburg"}},{"name":"Str. der Jugend","postalCode":"15864","locality":"Wendisch Rietz","municipality":{"key":"12067520","name":"Wendisch Rietz","type":"Kreisangehörige_Gemeinde"},"district":{"key":"12067","name":"Oder-Spree","type":"Landkreis"},"federalState":{"key":"12","name":"Brandenburg"}},{"name":"Ulmenstr.","postalCode":"15864","locality":"Wendisch Rietz","municipality":{"key":"12067520","name":"Wendisch Rietz","type":"Kreisangehörige_Gemeinde"},"district":{"key":"12067","name":"Oder-Spree","type":"Landkreis"},"federalState":{"key":"12","name":"Brandenburg"}},{"name":"Waldfrieden","postalCode":"15864","locality":"Wendisch Rietz","municipality":{"key":"12067520","name":"Wendisch Rietz","type":"Kreisangehörige_Gemeinde"},"district":{"key":"12067","name":"Oder-Spree","type":"Landkreis"},"federalState":{"key":"12","name":"Brandenburg"}},{"name":"Waldidyll","postalCode":"15864","locality":"Wendisch Rietz","municipality":{"key":"12067520","name":"Wendisch Rietz","type":"Kreisangehörige_Gemeinde"},"district":{"key":"12067","name":"Oder-Spree","type":"Landkreis"},"federalState":{"key":"12","name":"Brandenburg"}},{"name":"Waldstr.","postalCode":"15864","locality":"Wendisch Rietz","municipality":{"key":"12067520","name":"Wendisch Rietz","type":"Kreisangehörige_Gemeinde"},"district":{"key":"12067","name":"Oder-Spree","type":"Landkreis"},"federalState":{"key":"12","name":"Brandenburg"}},{"name":"Waldweg","postalCode":"15864","locality":"Wendisch Rietz","municipality":{"key":"12067520","name":"Wendisch Rietz","type":"Kreisangehörige_Gemeinde"},"district":{"key":"12067","name":"Oder-Spree","type":"Landkreis"},"federalState":{"key":"12","name":"Brandenburg"}},{"name":"Wendisch Rietzer Str.","postalCode":"15864","locality":"Wendisch Rietz","municipality":{"key":"12067520","name":"Wendisch Rietz","type":"Kreisangehörige_Gemeinde"},"district":{"key":"12067","name":"Oder-Spree","type":"Landkreis"},"federalState":{"key":"12","name":"Brandenburg"}},{"name":"Zanderweg","postalCode":"15864","locality":"Wendisch Rietz","municipality":{"key":"12067520","name":"Wendisch Rietz","type":"Kreisangehörige_Gemeinde"},"district":{"key":"12067","name":"Oder-Spree","type":"Landkreis"},"federalState":{"key":"12","name":"Brandenburg"}},]