[{"key":"10171372","name":"Chemin de la Chapelle","postalCode":"1742","locality":"Autigny","commune":{"key":"2173","name":"Autigny","shortName":"Autigny"},"district":{"key":"1004","name":"District de la Sarine"},"canton":{"key":"10","code":"FR","name":"Fribourg / Freiburg"},"status":"Real"},{"key":"10165694","name":"Chemin des Bourières","postalCode":"1742","locality":"Autigny","commune":{"key":"2173","name":"Autigny","shortName":"Autigny"},"district":{"key":"1004","name":"District de la Sarine"},"canton":{"key":"10","code":"FR","name":"Fribourg / Freiburg"},"status":"Real"},{"key":"10170880","name":"Chemin des Esserts","postalCode":"1742","locality":"Autigny","commune":{"key":"2173","name":"Autigny","shortName":"Autigny"},"district":{"key":"1004","name":"District de la Sarine"},"canton":{"key":"10","code":"FR","name":"Fribourg / Freiburg"},"status":"Real"},{"key":"10253702","name":"Chemin dessous les Quarts","postalCode":"1742","locality":"Autigny","commune":{"key":"2173","name":"Autigny","shortName":"Autigny"},"district":{"key":"1004","name":"District de la Sarine"},"canton":{"key":"10","code":"FR","name":"Fribourg / Freiburg"},"status":"Real"},{"key":"10170881","name":"Chemin des Vergers","postalCode":"1742","locality":"Autigny","commune":{"key":"2173","name":"Autigny","shortName":"Autigny"},"district":{"key":"1004","name":"District de la Sarine"},"canton":{"key":"10","code":"FR","name":"Fribourg / Freiburg"},"status":"Real"},{"key":"10171374","name":"Chemin du Cossey","postalCode":"1742","locality":"Autigny","commune":{"key":"2173","name":"Autigny","shortName":"Autigny"},"district":{"key":"1004","name":"District de la Sarine"},"canton":{"key":"10","code":"FR","name":"Fribourg / Freiburg"},"status":"Real"},{"key":"10170882","name":"Chemin du Grand Pré","postalCode":"1742","locality":"Autigny","commune":{"key":"2173","name":"Autigny","shortName":"Autigny"},"district":{"key":"1004","name":"District de la Sarine"},"canton":{"key":"10","code":"FR","name":"Fribourg / Freiburg"},"status":"Real"},{"key":"10171059","name":"Chemin du Vuillenant","postalCode":"1742","locality":"Autigny","commune":{"key":"2173","name":"Autigny","shortName":"Autigny"},"district":{"key":"1004","name":"District de la Sarine"},"canton":{"key":"10","code":"FR","name":"Fribourg / Freiburg"},"status":"Real"},{"key":"10253709","name":"En Gondran","postalCode":"1742","locality":"Autigny","commune":{"key":"2173","name":"Autigny","shortName":"Autigny"},"district":{"key":"1004","name":"District de la Sarine"},"canton":{"key":"10","code":"FR","name":"Fribourg / Freiburg"},"status":"Real"},{"key":"10253713","name":"En Lécheraula","postalCode":"1742","locality":"Autigny","commune":{"key":"2173","name":"Autigny","shortName":"Autigny"},"district":{"key":"1004","name":"District de la Sarine"},"canton":{"key":"10","code":"FR","name":"Fribourg / Freiburg"},"status":"Real"},{"key":"10171375","name":"Impasse de la Dontzire","postalCode":"1742","locality":"Autigny","commune":{"key":"2173","name":"Autigny","shortName":"Autigny"},"district":{"key":"1004","name":"District de la Sarine"},"canton":{"key":"10","code":"FR","name":"Fribourg / Freiburg"},"status":"Real"},{"key":"10171060","name":"Impasse des Verdaux","postalCode":"1742","locality":"Autigny","commune":{"key":"2173","name":"Autigny","shortName":"Autigny"},"district":{"key":"1004","name":"District de la Sarine"},"canton":{"key":"10","code":"FR","name":"Fribourg / Freiburg"},"status":"Real"},{"key":"10167933","name":"Impasse du Félon","postalCode":"1742","locality":"Autigny","commune":{"key":"2173","name":"Autigny","shortName":"Autigny"},"district":{"key":"1004","name":"District de la Sarine"},"canton":{"key":"10","code":"FR","name":"Fribourg / Freiburg"},"status":"Real"},{"key":"10165695","name":"Impasse du Poirier Bouchant","postalCode":"1742","locality":"Autigny","commune":{"key":"2173","name":"Autigny","shortName":"Autigny"},"district":{"key":"1004","name":"District de la Sarine"},"canton":{"key":"10","code":"FR","name":"Fribourg / Freiburg"},"status":"Real"},{"key":"10165696","name":"Impasse sur la Villa","postalCode":"1742","locality":"Autigny","commune":{"key":"2173","name":"Autigny","shortName":"Autigny"},"district":{"key":"1004","name":"District de la Sarine"},"canton":{"key":"10","code":"FR","name":"Fribourg / Freiburg"},"status":"Real"},{"key":"10253716","name":"La Campagne","postalCode":"1742","locality":"Autigny","commune":{"key":"2173","name":"Autigny","shortName":"Autigny"},"district":{"key":"1004","name":"District de la Sarine"},"canton":{"key":"10","code":"FR","name":"Fribourg / Freiburg"},"status":"Real"},{"key":"10253718","name":"Le Genevrey","postalCode":"1742","locality":"Autigny","commune":{"key":"2173","name":"Autigny","shortName":"Autigny"},"district":{"key":"1004","name":"District de la Sarine"},"canton":{"key":"10","code":"FR","name":"Fribourg / Freiburg"},"status":"Real"},{"key":"10253721","name":"Les Troncs","postalCode":"1742","locality":"Autigny","commune":{"key":"2173","name":"Autigny","shortName":"Autigny"},"district":{"key":"1004","name":"District de la Sarine"},"canton":{"key":"10","code":"FR","name":"Fribourg / Freiburg"},"status":"Real"},{"key":"10253725","name":"Marais des Glières","postalCode":"1742","locality":"Autigny","commune":{"key":"2173","name":"Autigny","shortName":"Autigny"},"district":{"key":"1004","name":"District de la Sarine"},"canton":{"key":"10","code":"FR","name":"Fribourg / Freiburg"},"status":"Real"},{"key":"10253729","name":"Route de Chavannes-sous-Orsonnens","postalCode":"1742","locality":"Autigny","commune":{"key":"2173","name":"Autigny","shortName":"Autigny"},"district":{"key":"1004","name":"District de la Sarine"},"canton":{"key":"10","code":"FR","name":"Fribourg / Freiburg"},"status":"Real"},{"key":"10167934","name":"Route de Chénens","postalCode":"1742","locality":"Autigny","commune":{"key":"2173","name":"Autigny","shortName":"Autigny"},"district":{"key":"1004","name":"District de la Sarine"},"canton":{"key":"10","code":"FR","name":"Fribourg / Freiburg"},"status":"Real"},{"key":"10171061","name":"Route de Cottens","postalCode":"1742","locality":"Autigny","commune":{"key":"2173","name":"Autigny","shortName":"Autigny"},"district":{"key":"1004","name":"District de la Sarine"},"canton":{"key":"10","code":"FR","name":"Fribourg / Freiburg"},"status":"Real"},{"key":"10253730","name":"Route de Fribourg","postalCode":"1742","locality":"Autigny","commune":{"key":"2173","name":"Autigny","shortName":"Autigny"},"district":{"key":"1004","name":"District de la Sarine"},"canton":{"key":"10","code":"FR","name":"Fribourg / Freiburg"},"status":"Real"},{"key":"10171376","name":"Route de la Crétausa","postalCode":"1742","locality":"Autigny","commune":{"key":"2173","name":"Autigny","shortName":"Autigny"},"district":{"key":"1004","name":"District de la Sarine"},"canton":{"key":"10","code":"FR","name":"Fribourg / Freiburg"},"status":"Real"},{"key":"10167935","name":"Route de Saint-Garin","postalCode":"1742","locality":"Autigny","commune":{"key":"2173","name":"Autigny","shortName":"Autigny"},"district":{"key":"1004","name":"District de la Sarine"},"canton":{"key":"10","code":"FR","name":"Fribourg / Freiburg"},"status":"Real"},{"key":"10171377","name":"Route des Champs Montants","postalCode":"1742","locality":"Autigny","commune":{"key":"2173","name":"Autigny","shortName":"Autigny"},"district":{"key":"1004","name":"District de la Sarine"},"canton":{"key":"10","code":"FR","name":"Fribourg / Freiburg"},"status":"Real"},{"key":"10171378","name":"Route des Gondrans","postalCode":"1742","locality":"Autigny","commune":{"key":"2173","name":"Autigny","shortName":"Autigny"},"district":{"key":"1004","name":"District de la Sarine"},"canton":{"key":"10","code":"FR","name":"Fribourg / Freiburg"},"status":"Real"},{"key":"10253735","name":"Route des Molleyres","postalCode":"1742","locality":"Autigny","commune":{"key":"2173","name":"Autigny","shortName":"Autigny"},"district":{"key":"1004","name":"District de la Sarine"},"canton":{"key":"10","code":"FR","name":"Fribourg / Freiburg"},"status":"Real"},{"key":"10165957","name":"Route d'Estavayer-le-Gibloux","postalCode":"1742","locality":"Autigny","commune":{"key":"2173","name":"Autigny","shortName":"Autigny"},"district":{"key":"1004","name":"District de la Sarine"},"canton":{"key":"10","code":"FR","name":"Fribourg / Freiburg"},"status":"Real"},{"key":"10253739","name":"Route d'Orsonnens","postalCode":"1742","locality":"Autigny","commune":{"key":"2173","name":"Autigny","shortName":"Autigny"},"district":{"key":"1004","name":"District de la Sarine"},"canton":{"key":"10","code":"FR","name":"Fribourg / Freiburg"},"status":"Real"},{"key":"10170883","name":"Route du Saugy","postalCode":"1742","locality":"Autigny","commune":{"key":"2173","name":"Autigny","shortName":"Autigny"},"district":{"key":"1004","name":"District de la Sarine"},"canton":{"key":"10","code":"FR","name":"Fribourg / Freiburg"},"status":"Real"},{"key":"10167936","name":"Ruelle de la Forge","postalCode":"1742","locality":"Autigny","commune":{"key":"2173","name":"Autigny","shortName":"Autigny"},"district":{"key":"1004","name":"District de la Sarine"},"canton":{"key":"10","code":"FR","name":"Fribourg / Freiburg"},"status":"Real"},{"key":"10165958","name":"Ruelle du Café","postalCode":"1742","locality":"Autigny","commune":{"key":"2173","name":"Autigny","shortName":"Autigny"},"district":{"key":"1004","name":"District de la Sarine"},"canton":{"key":"10","code":"FR","name":"Fribourg / Freiburg"},"status":"Real"},{"key":"10165959","name":"Ruelle du Château","postalCode":"1742","locality":"Autigny","commune":{"key":"2173","name":"Autigny","shortName":"Autigny"},"district":{"key":"1004","name":"District de la Sarine"},"canton":{"key":"10","code":"FR","name":"Fribourg / Freiburg"},"status":"Real"},]