[{"name":"Agnesstr.","postalCode":"97833","locality":"Frammersbach","municipality":{"key":"09677129","name":"Frammersbach, M","type":"Markt"},"district":{"key":"09677","name":"Main-Spessart","type":"Landkreis"},"federalState":{"key":"09","name":"Bayern"}},{"name":"Altvaterweg","postalCode":"97833","locality":"Frammersbach","municipality":{"key":"09677129","name":"Frammersbach, M","type":"Markt"},"district":{"key":"09677","name":"Main-Spessart","type":"Landkreis"},"federalState":{"key":"09","name":"Bayern"}},{"name":"Am Graben","postalCode":"97833","locality":"Frammersbach","municipality":{"key":"09677129","name":"Frammersbach, M","type":"Markt"},"district":{"key":"09677","name":"Main-Spessart","type":"Landkreis"},"federalState":{"key":"09","name":"Bayern"}},{"name":"Am Mühlenrain","postalCode":"97833","locality":"Frammersbach","municipality":{"key":"09677129","name":"Frammersbach, M","type":"Markt"},"district":{"key":"09677","name":"Main-Spessart","type":"Landkreis"},"federalState":{"key":"09","name":"Bayern"}},{"name":"Am Mutterberg","postalCode":"97833","locality":"Frammersbach","municipality":{"key":"09677129","name":"Frammersbach, M","type":"Markt"},"district":{"key":"09677","name":"Main-Spessart","type":"Landkreis"},"federalState":{"key":"09","name":"Bayern"}},{"name":"Am Ruhbrunnen","postalCode":"97833","locality":"Frammersbach","municipality":{"key":"09677129","name":"Frammersbach, M","type":"Markt"},"district":{"key":"09677","name":"Main-Spessart","type":"Landkreis"},"federalState":{"key":"09","name":"Bayern"}},{"name":"Am Schönborn","postalCode":"97833","locality":"Frammersbach","municipality":{"key":"09677129","name":"Frammersbach, M","type":"Markt"},"district":{"key":"09677","name":"Main-Spessart","type":"Landkreis"},"federalState":{"key":"09","name":"Bayern"}},{"name":"Aubachstr.","postalCode":"97833","locality":"Frammersbach","municipality":{"key":"09677129","name":"Frammersbach, M","type":"Markt"},"district":{"key":"09677","name":"Main-Spessart","type":"Landkreis"},"federalState":{"key":"09","name":"Bayern"}},{"name":"Bäckerweg","postalCode":"97833","locality":"Frammersbach","municipality":{"key":"09677129","name":"Frammersbach, M","type":"Markt"},"district":{"key":"09677","name":"Main-Spessart","type":"Landkreis"},"federalState":{"key":"09","name":"Bayern"}},{"name":"Bergstr.","postalCode":"97833","locality":"Frammersbach","municipality":{"key":"09677129","name":"Frammersbach, M","type":"Markt"},"district":{"key":"09677","name":"Main-Spessart","type":"Landkreis"},"federalState":{"key":"09","name":"Bayern"}},{"name":"Bergweg","postalCode":"97833","locality":"Frammersbach","municipality":{"key":"09677129","name":"Frammersbach, M","type":"Markt"},"district":{"key":"09677","name":"Main-Spessart","type":"Landkreis"},"federalState":{"key":"09","name":"Bayern"}},{"name":"Birkenweg","postalCode":"97833","locality":"Frammersbach","municipality":{"key":"09677129","name":"Frammersbach, M","type":"Markt"},"district":{"key":"09677","name":"Main-Spessart","type":"Landkreis"},"federalState":{"key":"09","name":"Bayern"}},{"name":"Blankenackerweg","postalCode":"97833","locality":"Frammersbach","municipality":{"key":"09677129","name":"Frammersbach, M","type":"Markt"},"district":{"key":"09677","name":"Main-Spessart","type":"Landkreis"},"federalState":{"key":"09","name":"Bayern"}},{"name":"Brunnenweg","postalCode":"97833","locality":"Frammersbach","municipality":{"key":"09677129","name":"Frammersbach, M","type":"Markt"},"district":{"key":"09677","name":"Main-Spessart","type":"Landkreis"},"federalState":{"key":"09","name":"Bayern"}},{"name":"Dorfstr.","postalCode":"97833","locality":"Frammersbach","municipality":{"key":"09677129","name":"Frammersbach, M","type":"Markt"},"district":{"key":"09677","name":"Main-Spessart","type":"Landkreis"},"federalState":{"key":"09","name":"Bayern"}},{"name":"Dreispitze","postalCode":"97833","locality":"Frammersbach","municipality":{"key":"09677129","name":"Frammersbach, M","type":"Markt"},"district":{"key":"09677","name":"Main-Spessart","type":"Landkreis"},"federalState":{"key":"09","name":"Bayern"}},{"name":"Falterweg","postalCode":"97833","locality":"Frammersbach","municipality":{"key":"09677129","name":"Frammersbach, M","type":"Markt"},"district":{"key":"09677","name":"Main-Spessart","type":"Landkreis"},"federalState":{"key":"09","name":"Bayern"}},{"name":"Friedhofsweg","postalCode":"97833","locality":"Frammersbach","municipality":{"key":"09677129","name":"Frammersbach, M","type":"Markt"},"district":{"key":"09677","name":"Main-Spessart","type":"Landkreis"},"federalState":{"key":"09","name":"Bayern"}},{"name":"Frühlingsweg","postalCode":"97833","locality":"Frammersbach","municipality":{"key":"09677129","name":"Frammersbach, M","type":"Markt"},"district":{"key":"09677","name":"Main-Spessart","type":"Landkreis"},"federalState":{"key":"09","name":"Bayern"}},{"name":"Gartenstr.","postalCode":"97833","locality":"Frammersbach","municipality":{"key":"09677129","name":"Frammersbach, M","type":"Markt"},"district":{"key":"09677","name":"Main-Spessart","type":"Landkreis"},"federalState":{"key":"09","name":"Bayern"}},{"name":"Gewerbestr.","postalCode":"97833","locality":"Frammersbach","municipality":{"key":"09677129","name":"Frammersbach, M","type":"Markt"},"district":{"key":"09677","name":"Main-Spessart","type":"Landkreis"},"federalState":{"key":"09","name":"Bayern"}},{"name":"Glashüttenweg","postalCode":"97833","locality":"Frammersbach","municipality":{"key":"09677129","name":"Frammersbach, M","type":"Markt"},"district":{"key":"09677","name":"Main-Spessart","type":"Landkreis"},"federalState":{"key":"09","name":"Bayern"}},{"name":"Gleichenweg","postalCode":"97833","locality":"Frammersbach","municipality":{"key":"09677129","name":"Frammersbach, M","type":"Markt"},"district":{"key":"09677","name":"Main-Spessart","type":"Landkreis"},"federalState":{"key":"09","name":"Bayern"}},{"name":"Grabig","postalCode":"97833","locality":"Frammersbach","municipality":{"key":"09677129","name":"Frammersbach, M","type":"Markt"},"district":{"key":"09677","name":"Main-Spessart","type":"Landkreis"},"federalState":{"key":"09","name":"Bayern"}},{"name":"Hainbuchenstr.","postalCode":"97833","locality":"Frammersbach","municipality":{"key":"09677129","name":"Frammersbach, M","type":"Markt"},"district":{"key":"09677","name":"Main-Spessart","type":"Landkreis"},"federalState":{"key":"09","name":"Bayern"}},{"name":"Hammerfurtweg","postalCode":"97833","locality":"Frammersbach","municipality":{"key":"09677129","name":"Frammersbach, M","type":"Markt"},"district":{"key":"09677","name":"Main-Spessart","type":"Landkreis"},"federalState":{"key":"09","name":"Bayern"}},{"name":"Heigenbrückener Weg","postalCode":"97833","locality":"Frammersbach","municipality":{"key":"09677129","name":"Frammersbach, M","type":"Markt"},"district":{"key":"09677","name":"Main-Spessart","type":"Landkreis"},"federalState":{"key":"09","name":"Bayern"}},{"name":"Herbertshainer Str.","postalCode":"97833","locality":"Frammersbach","municipality":{"key":"09677129","name":"Frammersbach, M","type":"Markt"},"district":{"key":"09677","name":"Main-Spessart","type":"Landkreis"},"federalState":{"key":"09","name":"Bayern"}},{"name":"Herrenweg","postalCode":"97833","locality":"Frammersbach","municipality":{"key":"09677129","name":"Frammersbach, M","type":"Markt"},"district":{"key":"09677","name":"Main-Spessart","type":"Landkreis"},"federalState":{"key":"09","name":"Bayern"}},{"name":"Heubergweg","postalCode":"97833","locality":"Frammersbach","municipality":{"key":"09677129","name":"Frammersbach, M","type":"Markt"},"district":{"key":"09677","name":"Main-Spessart","type":"Landkreis"},"federalState":{"key":"09","name":"Bayern"}},{"name":"Hinterdorf","postalCode":"97833","locality":"Frammersbach","municipality":{"key":"09677129","name":"Frammersbach, M","type":"Markt"},"district":{"key":"09677","name":"Main-Spessart","type":"Landkreis"},"federalState":{"key":"09","name":"Bayern"}},{"name":"Hirschpfad","postalCode":"97816","locality":"Frammersbacher Forst","municipality":{"key":"09677455","name":"Frammersbacher Forst","type":"Gemeindefreies_Gebiet_Unbewohnt"},"district":{"key":"09677","name":"Main-Spessart","type":"Landkreis"},"federalState":{"key":"09","name":"Bayern"}},{"name":"Hirtenweg","postalCode":"97833","locality":"Frammersbach","municipality":{"key":"09677129","name":"Frammersbach, M","type":"Markt"},"district":{"key":"09677","name":"Main-Spessart","type":"Landkreis"},"federalState":{"key":"09","name":"Bayern"}},{"name":"Hönleinstr.","postalCode":"97833","locality":"Frammersbach","municipality":{"key":"09677129","name":"Frammersbach, M","type":"Markt"},"district":{"key":"09677","name":"Main-Spessart","type":"Landkreis"},"federalState":{"key":"09","name":"Bayern"}},{"name":"Höschelsberg","postalCode":"97833","locality":"Frammersbach","municipality":{"key":"09677129","name":"Frammersbach, M","type":"Markt"},"district":{"key":"09677","name":"Main-Spessart","type":"Landkreis"},"federalState":{"key":"09","name":"Bayern"}},{"name":"Jägerweg","postalCode":"97833","locality":"Frammersbach","municipality":{"key":"09677129","name":"Frammersbach, M","type":"Markt"},"district":{"key":"09677","name":"Main-Spessart","type":"Landkreis"},"federalState":{"key":"09","name":"Bayern"}},{"name":"Jahnstr.","postalCode":"97833","locality":"Frammersbach","municipality":{"key":"09677129","name":"Frammersbach, M","type":"Markt"},"district":{"key":"09677","name":"Main-Spessart","type":"Landkreis"},"federalState":{"key":"09","name":"Bayern"}},{"name":"Kirchberg","postalCode":"97833","locality":"Frammersbach","municipality":{"key":"09677129","name":"Frammersbach, M","type":"Markt"},"district":{"key":"09677","name":"Main-Spessart","type":"Landkreis"},"federalState":{"key":"09","name":"Bayern"}},{"name":"Koppeweg","postalCode":"97833","locality":"Frammersbach","municipality":{"key":"09677129","name":"Frammersbach, M","type":"Markt"},"district":{"key":"09677","name":"Main-Spessart","type":"Landkreis"},"federalState":{"key":"09","name":"Bayern"}},{"name":"Kornweg","postalCode":"97833","locality":"Frammersbach","municipality":{"key":"09677129","name":"Frammersbach, M","type":"Markt"},"district":{"key":"09677","name":"Main-Spessart","type":"Landkreis"},"federalState":{"key":"09","name":"Bayern"}},{"name":"Krauthohle","postalCode":"97833","locality":"Frammersbach","municipality":{"key":"09677129","name":"Frammersbach, M","type":"Markt"},"district":{"key":"09677","name":"Main-Spessart","type":"Landkreis"},"federalState":{"key":"09","name":"Bayern"}},{"name":"Kreuzgasse","postalCode":"97833","locality":"Frammersbach","municipality":{"key":"09677129","name":"Frammersbach, M","type":"Markt"},"district":{"key":"09677","name":"Main-Spessart","type":"Landkreis"},"federalState":{"key":"09","name":"Bayern"}},{"name":"Langer Acker","postalCode":"97833","locality":"Frammersbach","municipality":{"key":"09677129","name":"Frammersbach, M","type":"Markt"},"district":{"key":"09677","name":"Main-Spessart","type":"Landkreis"},"federalState":{"key":"09","name":"Bayern"}},{"name":"Langer Pfad","postalCode":"97833","locality":"Frammersbach","municipality":{"key":"09677129","name":"Frammersbach, M","type":"Markt"},"district":{"key":"09677","name":"Main-Spessart","type":"Landkreis"},"federalState":{"key":"09","name":"Bayern"}},{"name":"Lauberweg","postalCode":"97833","locality":"Frammersbach","municipality":{"key":"09677129","name":"Frammersbach, M","type":"Markt"},"district":{"key":"09677","name":"Main-Spessart","type":"Landkreis"},"federalState":{"key":"09","name":"Bayern"}},{"name":"Lindenweg","postalCode":"97833","locality":"Frammersbach","municipality":{"key":"09677129","name":"Frammersbach, M","type":"Markt"},"district":{"key":"09677","name":"Main-Spessart","type":"Landkreis"},"federalState":{"key":"09","name":"Bayern"}},{"name":"Linderbachweg","postalCode":"97833","locality":"Frammersbach","municipality":{"key":"09677129","name":"Frammersbach, M","type":"Markt"},"district":{"key":"09677","name":"Main-Spessart","type":"Landkreis"},"federalState":{"key":"09","name":"Bayern"}},{"name":"Lohrer Str.","postalCode":"97833","locality":"Frammersbach","municipality":{"key":"09677129","name":"Frammersbach, M","type":"Markt"},"district":{"key":"09677","name":"Main-Spessart","type":"Landkreis"},"federalState":{"key":"09","name":"Bayern"}},{"name":"Lohrtalstr.","postalCode":"97833","locality":"Frammersbach","municipality":{"key":"09677129","name":"Frammersbach, M","type":"Markt"},"district":{"key":"09677","name":"Main-Spessart","type":"Landkreis"},"federalState":{"key":"09","name":"Bayern"}},{"name":"Margaretenweg","postalCode":"97833","locality":"Frammersbach","municipality":{"key":"09677129","name":"Frammersbach, M","type":"Markt"},"district":{"key":"09677","name":"Main-Spessart","type":"Landkreis"},"federalState":{"key":"09","name":"Bayern"}},{"name":"Marktplatz","postalCode":"97833","locality":"Frammersbach","municipality":{"key":"09677129","name":"Frammersbach, M","type":"Markt"},"district":{"key":"09677","name":"Main-Spessart","type":"Landkreis"},"federalState":{"key":"09","name":"Bayern"}},{"name":"Mehrlichweg","postalCode":"97833","locality":"Frammersbach","municipality":{"key":"09677129","name":"Frammersbach, M","type":"Markt"},"district":{"key":"09677","name":"Main-Spessart","type":"Landkreis"},"federalState":{"key":"09","name":"Bayern"}},{"name":"Mühlberg","postalCode":"97833","locality":"Frammersbach","municipality":{"key":"09677129","name":"Frammersbach, M","type":"Markt"},"district":{"key":"09677","name":"Main-Spessart","type":"Landkreis"},"federalState":{"key":"09","name":"Bayern"}},{"name":"Mühlweg","postalCode":"97833","locality":"Frammersbach","municipality":{"key":"09677129","name":"Frammersbach, M","type":"Markt"},"district":{"key":"09677","name":"Main-Spessart","type":"Landkreis"},"federalState":{"key":"09","name":"Bayern"}},{"name":"Murrental","postalCode":"97833","locality":"Frammersbach","municipality":{"key":"09677129","name":"Frammersbach, M","type":"Markt"},"district":{"key":"09677","name":"Main-Spessart","type":"Landkreis"},"federalState":{"key":"09","name":"Bayern"}},{"name":"Mützelsberg","postalCode":"97833","locality":"Frammersbach","municipality":{"key":"09677129","name":"Frammersbach, M","type":"Markt"},"district":{"key":"09677","name":"Main-Spessart","type":"Landkreis"},"federalState":{"key":"09","name":"Bayern"}},{"name":"Oberer Kreuzbergweg","postalCode":"97833","locality":"Frammersbach","municipality":{"key":"09677129","name":"Frammersbach, M","type":"Markt"},"district":{"key":"09677","name":"Main-Spessart","type":"Landkreis"},"federalState":{"key":"09","name":"Bayern"}},{"name":"Oberes Hofreither Tal","postalCode":"97833","locality":"Frammersbach","municipality":{"key":"09677129","name":"Frammersbach, M","type":"Markt"},"district":{"key":"09677","name":"Main-Spessart","type":"Landkreis"},"federalState":{"key":"09","name":"Bayern"}},{"name":"Orbecer Str.","postalCode":"97833","locality":"Frammersbach","municipality":{"key":"09677129","name":"Frammersbach, M","type":"Markt"},"district":{"key":"09677","name":"Main-Spessart","type":"Landkreis"},"federalState":{"key":"09","name":"Bayern"}},{"name":"Orber Str.","postalCode":"97833","locality":"Frammersbach","municipality":{"key":"09677129","name":"Frammersbach, M","type":"Markt"},"district":{"key":"09677","name":"Main-Spessart","type":"Landkreis"},"federalState":{"key":"09","name":"Bayern"}},{"name":"Rehweg","postalCode":"97833","locality":"Frammersbach","municipality":{"key":"09677129","name":"Frammersbach, M","type":"Markt"},"district":{"key":"09677","name":"Main-Spessart","type":"Landkreis"},"federalState":{"key":"09","name":"Bayern"}},{"name":"Reinholdtrail","postalCode":"97833","locality":"Frammersbach","municipality":{"key":"09677129","name":"Frammersbach, M","type":"Markt"},"district":{"key":"09677","name":"Main-Spessart","type":"Landkreis"},"federalState":{"key":"09","name":"Bayern"}},{"name":"Röslstr.","postalCode":"97833","locality":"Frammersbach","municipality":{"key":"09677129","name":"Frammersbach, M","type":"Markt"},"district":{"key":"09677","name":"Main-Spessart","type":"Landkreis"},"federalState":{"key":"09","name":"Bayern"}},{"name":"Ruhweg","postalCode":"97833","locality":"Frammersbach","municipality":{"key":"09677129","name":"Frammersbach, M","type":"Markt"},"district":{"key":"09677","name":"Main-Spessart","type":"Landkreis"},"federalState":{"key":"09","name":"Bayern"}},{"name":"Sankt Joachimsthaler Str.","postalCode":"97833","locality":"Frammersbach","municipality":{"key":"09677129","name":"Frammersbach, M","type":"Markt"},"district":{"key":"09677","name":"Main-Spessart","type":"Landkreis"},"federalState":{"key":"09","name":"Bayern"}},{"name":"Sauerberg","postalCode":"97833","locality":"Frammersbach","municipality":{"key":"09677129","name":"Frammersbach, M","type":"Markt"},"district":{"key":"09677","name":"Main-Spessart","type":"Landkreis"},"federalState":{"key":"09","name":"Bayern"}},{"name":"Schäfergasse","postalCode":"97833","locality":"Frammersbach","municipality":{"key":"09677129","name":"Frammersbach, M","type":"Markt"},"district":{"key":"09677","name":"Main-Spessart","type":"Landkreis"},"federalState":{"key":"09","name":"Bayern"}},{"name":"Schäferskoppe","postalCode":"97833","locality":"Frammersbach","municipality":{"key":"09677129","name":"Frammersbach, M","type":"Markt"},"district":{"key":"09677","name":"Main-Spessart","type":"Landkreis"},"federalState":{"key":"09","name":"Bayern"}},{"name":"Schmiedshohle","postalCode":"97833","locality":"Frammersbach","municipality":{"key":"09677129","name":"Frammersbach, M","type":"Markt"},"district":{"key":"09677","name":"Main-Spessart","type":"Landkreis"},"federalState":{"key":"09","name":"Bayern"}},{"name":"Schneidergasse","postalCode":"97833","locality":"Frammersbach","municipality":{"key":"09677129","name":"Frammersbach, M","type":"Markt"},"district":{"key":"09677","name":"Main-Spessart","type":"Landkreis"},"federalState":{"key":"09","name":"Bayern"}},{"name":"Schulstr.","postalCode":"97833","locality":"Frammersbach","municipality":{"key":"09677129","name":"Frammersbach, M","type":"Markt"},"district":{"key":"09677","name":"Main-Spessart","type":"Landkreis"},"federalState":{"key":"09","name":"Bayern"}},{"name":"Schwartler Tal","postalCode":"97833","locality":"Frammersbach","municipality":{"key":"09677129","name":"Frammersbach, M","type":"Markt"},"district":{"key":"09677","name":"Main-Spessart","type":"Landkreis"},"federalState":{"key":"09","name":"Bayern"}},{"name":"Schwedengasse","postalCode":"97833","locality":"Frammersbach","municipality":{"key":"09677129","name":"Frammersbach, M","type":"Markt"},"district":{"key":"09677","name":"Main-Spessart","type":"Landkreis"},"federalState":{"key":"09","name":"Bayern"}},{"name":"Seeweg","postalCode":"97833","locality":"Frammersbach","municipality":{"key":"09677129","name":"Frammersbach, M","type":"Markt"},"district":{"key":"09677","name":"Main-Spessart","type":"Landkreis"},"federalState":{"key":"09","name":"Bayern"}},{"name":"Spessartstr.","postalCode":"97833","locality":"Frammersbach","municipality":{"key":"09677129","name":"Frammersbach, M","type":"Markt"},"district":{"key":"09677","name":"Main-Spessart","type":"Landkreis"},"federalState":{"key":"09","name":"Bayern"}},{"name":"Talgrund","postalCode":"97833","locality":"Frammersbach","municipality":{"key":"09677129","name":"Frammersbach, M","type":"Markt"},"district":{"key":"09677","name":"Main-Spessart","type":"Landkreis"},"federalState":{"key":"09","name":"Bayern"}},{"name":"Tannenweg","postalCode":"97833","locality":"Frammersbach","municipality":{"key":"09677129","name":"Frammersbach, M","type":"Markt"},"district":{"key":"09677","name":"Main-Spessart","type":"Landkreis"},"federalState":{"key":"09","name":"Bayern"}},{"name":"Unterer Kreuzbergweg","postalCode":"97833","locality":"Frammersbach","municipality":{"key":"09677129","name":"Frammersbach, M","type":"Markt"},"district":{"key":"09677","name":"Main-Spessart","type":"Landkreis"},"federalState":{"key":"09","name":"Bayern"}},{"name":"Unteres Hofreither Tal","postalCode":"97833","locality":"Frammersbach","municipality":{"key":"09677129","name":"Frammersbach, M","type":"Markt"},"district":{"key":"09677","name":"Main-Spessart","type":"Landkreis"},"federalState":{"key":"09","name":"Bayern"}},{"name":"Walderlebnispfad","postalCode":"97833","locality":"Frammersbach","municipality":{"key":"09677129","name":"Frammersbach, M","type":"Markt"},"district":{"key":"09677","name":"Main-Spessart","type":"Landkreis"},"federalState":{"key":"09","name":"Bayern"}},{"name":"Walderlebnispfad","postalCode":"97833","locality":"Frammersbacher Forst","municipality":{"key":"09677455","name":"Frammersbacher Forst","type":"Gemeindefreies_Gebiet_Unbewohnt"},"district":{"key":"09677","name":"Main-Spessart","type":"Landkreis"},"federalState":{"key":"09","name":"Bayern"}},{"name":"Waldschloßstr.","postalCode":"97833","locality":"Frammersbach","municipality":{"key":"09677129","name":"Frammersbach, M","type":"Markt"},"district":{"key":"09677","name":"Main-Spessart","type":"Landkreis"},"federalState":{"key":"09","name":"Bayern"}},{"name":"Waldstr.","postalCode":"97833","locality":"Frammersbach","municipality":{"key":"09677129","name":"Frammersbach, M","type":"Markt"},"district":{"key":"09677","name":"Main-Spessart","type":"Landkreis"},"federalState":{"key":"09","name":"Bayern"}},{"name":"Wellerstalweg","postalCode":"97833","locality":"Frammersbach","municipality":{"key":"09677129","name":"Frammersbach, M","type":"Markt"},"district":{"key":"09677","name":"Main-Spessart","type":"Landkreis"},"federalState":{"key":"09","name":"Bayern"}},{"name":"Wendgasse","postalCode":"97833","locality":"Frammersbach","municipality":{"key":"09677129","name":"Frammersbach, M","type":"Markt"},"district":{"key":"09677","name":"Main-Spessart","type":"Landkreis"},"federalState":{"key":"09","name":"Bayern"}},{"name":"Wiesener Str.","postalCode":"97833","locality":"Frammersbach","municipality":{"key":"09677129","name":"Frammersbach, M","type":"Markt"},"district":{"key":"09677","name":"Main-Spessart","type":"Landkreis"},"federalState":{"key":"09","name":"Bayern"}},{"name":"Wiesenfurt","postalCode":"97833","locality":"Frammersbach","municipality":{"key":"09677129","name":"Frammersbach, M","type":"Markt"},"district":{"key":"09677","name":"Main-Spessart","type":"Landkreis"},"federalState":{"key":"09","name":"Bayern"}},{"name":"Winterstr.","postalCode":"97833","locality":"Frammersbach","municipality":{"key":"09677129","name":"Frammersbach, M","type":"Markt"},"district":{"key":"09677","name":"Main-Spessart","type":"Landkreis"},"federalState":{"key":"09","name":"Bayern"}},{"name":"Ölberg","postalCode":"97833","locality":"Frammersbach","municipality":{"key":"09677129","name":"Frammersbach, M","type":"Markt"},"district":{"key":"09677","name":"Main-Spessart","type":"Landkreis"},"federalState":{"key":"09","name":"Bayern"}},]