[{"name":"Am Rothenbühl","postalCode":"76848","locality":"Schwanheim","municipality":{"key":"07340047","name":"Schwanheim","type":"Kreisangehörige_Gemeinde"},"district":{"key":"07340","name":"Südwestpfalz","type":"Landkreis"},"federalState":{"key":"07","name":"Rheinland-Pfalz"}},{"name":"Am Steig","postalCode":"76848","locality":"Schwanheim","municipality":{"key":"07340047","name":"Schwanheim","type":"Kreisangehörige_Gemeinde"},"district":{"key":"07340","name":"Südwestpfalz","type":"Landkreis"},"federalState":{"key":"07","name":"Rheinland-Pfalz"}},{"name":"Am Strubelbrunnen","postalCode":"76848","locality":"Schwanheim","municipality":{"key":"07340047","name":"Schwanheim","type":"Kreisangehörige_Gemeinde"},"district":{"key":"07340","name":"Südwestpfalz","type":"Landkreis"},"federalState":{"key":"07","name":"Rheinland-Pfalz"}},{"name":"Engelstr.","postalCode":"76848","locality":"Schwanheim","municipality":{"key":"07340047","name":"Schwanheim","type":"Kreisangehörige_Gemeinde"},"district":{"key":"07340","name":"Südwestpfalz","type":"Landkreis"},"federalState":{"key":"07","name":"Rheinland-Pfalz"}},{"name":"Hauensteiner Str.","postalCode":"76848","locality":"Schwanheim","municipality":{"key":"07340047","name":"Schwanheim","type":"Kreisangehörige_Gemeinde"},"district":{"key":"07340","name":"Südwestpfalz","type":"Landkreis"},"federalState":{"key":"07","name":"Rheinland-Pfalz"}},{"name":"Hauptstr.","postalCode":"76848","locality":"Schwanheim","municipality":{"key":"07340047","name":"Schwanheim","type":"Kreisangehörige_Gemeinde"},"district":{"key":"07340","name":"Südwestpfalz","type":"Landkreis"},"federalState":{"key":"07","name":"Rheinland-Pfalz"}},{"name":"Hebelstr.","postalCode":"76848","locality":"Schwanheim","municipality":{"key":"07340047","name":"Schwanheim","type":"Kreisangehörige_Gemeinde"},"district":{"key":"07340","name":"Südwestpfalz","type":"Landkreis"},"federalState":{"key":"07","name":"Rheinland-Pfalz"}},{"name":"Hubertusstr.","postalCode":"76848","locality":"Schwanheim","municipality":{"key":"07340047","name":"Schwanheim","type":"Kreisangehörige_Gemeinde"},"district":{"key":"07340","name":"Südwestpfalz","type":"Landkreis"},"federalState":{"key":"07","name":"Rheinland-Pfalz"}},{"name":"Im Gässel","postalCode":"76848","locality":"Schwanheim","municipality":{"key":"07340047","name":"Schwanheim","type":"Kreisangehörige_Gemeinde"},"district":{"key":"07340","name":"Südwestpfalz","type":"Landkreis"},"federalState":{"key":"07","name":"Rheinland-Pfalz"}},{"name":"Lindelbrunnstr.","postalCode":"76848","locality":"Schwanheim","municipality":{"key":"07340047","name":"Schwanheim","type":"Kreisangehörige_Gemeinde"},"district":{"key":"07340","name":"Südwestpfalz","type":"Landkreis"},"federalState":{"key":"07","name":"Rheinland-Pfalz"}},{"name":"Ringstr.","postalCode":"76848","locality":"Schwanheim","municipality":{"key":"07340047","name":"Schwanheim","type":"Kreisangehörige_Gemeinde"},"district":{"key":"07340","name":"Südwestpfalz","type":"Landkreis"},"federalState":{"key":"07","name":"Rheinland-Pfalz"}},{"name":"Schulstr.","postalCode":"76848","locality":"Schwanheim","municipality":{"key":"07340047","name":"Schwanheim","type":"Kreisangehörige_Gemeinde"},"district":{"key":"07340","name":"Südwestpfalz","type":"Landkreis"},"federalState":{"key":"07","name":"Rheinland-Pfalz"}},{"name":"Wasgaustr.","postalCode":"76848","locality":"Schwanheim","municipality":{"key":"07340047","name":"Schwanheim","type":"Kreisangehörige_Gemeinde"},"district":{"key":"07340","name":"Südwestpfalz","type":"Landkreis"},"federalState":{"key":"07","name":"Rheinland-Pfalz"}},]