[{"name":"3","postalCode":"94353","locality":"Haibach","municipality":{"key":"09278129","name":"Haibach","type":"Kreisangehörige_Gemeinde"},"district":{"key":"09278","name":"Straubing-Bogen","type":"Landkreis"},"federalState":{"key":"09","name":"Bayern"}},{"name":"Abendbergweg","postalCode":"94353","locality":"Haibach","municipality":{"key":"09278129","name":"Haibach","type":"Kreisangehörige_Gemeinde"},"district":{"key":"09278","name":"Straubing-Bogen","type":"Landkreis"},"federalState":{"key":"09","name":"Bayern"}},{"name":"Adenauerring","postalCode":"63808","locality":"Haibach","municipality":{"key":"09671124","name":"Haibach","type":"Kreisangehörige_Gemeinde"},"district":{"key":"09671","name":"Aschaffenburg","type":"Landkreis"},"federalState":{"key":"09","name":"Bayern"}},{"name":"Ahornkopfweg","postalCode":"79837","locality":"Ibach","municipality":{"key":"08337059","name":"Ibach","type":"Kreisangehörige_Gemeinde"},"district":{"key":"08337","name":"Waldshut","type":"Landkreis"},"federalState":{"key":"08","name":"Baden-Württemberg"}},{"name":"Ahornstr.","postalCode":"63808","locality":"Haibach","municipality":{"key":"09671124","name":"Haibach","type":"Kreisangehörige_Gemeinde"},"district":{"key":"09671","name":"Aschaffenburg","type":"Landkreis"},"federalState":{"key":"09","name":"Bayern"}},{"name":"Ahornweg","postalCode":"93476","locality":"Blaibach","municipality":{"key":"09372115","name":"Blaibach","type":"Kreisangehörige_Gemeinde"},"district":{"key":"09372","name":"Cham","type":"Landkreis"},"federalState":{"key":"09","name":"Bayern"}},{"name":"Alois-Wenzel-Str.","postalCode":"63808","locality":"Haibach","municipality":{"key":"09671124","name":"Haibach","type":"Kreisangehörige_Gemeinde"},"district":{"key":"09671","name":"Aschaffenburg","type":"Landkreis"},"federalState":{"key":"09","name":"Bayern"}},{"name":"Alpenblick","postalCode":"79837","locality":"Ibach","municipality":{"key":"08337059","name":"Ibach","type":"Kreisangehörige_Gemeinde"},"district":{"key":"08337","name":"Waldshut","type":"Landkreis"},"federalState":{"key":"08","name":"Baden-Württemberg"}},{"name":"Altenrieder Str.","postalCode":"94353","locality":"Haibach","municipality":{"key":"09278129","name":"Haibach","type":"Kreisangehörige_Gemeinde"},"district":{"key":"09278","name":"Straubing-Bogen","type":"Landkreis"},"federalState":{"key":"09","name":"Bayern"}},{"name":"Alter Klosterwaldweg","postalCode":"79837","locality":"Ibach","municipality":{"key":"08337059","name":"Ibach","type":"Kreisangehörige_Gemeinde"},"district":{"key":"08337","name":"Waldshut","type":"Landkreis"},"federalState":{"key":"08","name":"Baden-Württemberg"}},{"name":"Alter Lindauer Waldweg","postalCode":"79837","locality":"Ibach","municipality":{"key":"08337059","name":"Ibach","type":"Kreisangehörige_Gemeinde"},"district":{"key":"08337","name":"Waldshut","type":"Landkreis"},"federalState":{"key":"08","name":"Baden-Württemberg"}},{"name":"alte Weg-Trasse","postalCode":"79837","locality":"Ibach","municipality":{"key":"08337059","name":"Ibach","type":"Kreisangehörige_Gemeinde"},"district":{"key":"08337","name":"Waldshut","type":"Landkreis"},"federalState":{"key":"08","name":"Baden-Württemberg"}},{"name":"Am Anger","postalCode":"94353","locality":"Haibach","municipality":{"key":"09278129","name":"Haibach","type":"Kreisangehörige_Gemeinde"},"district":{"key":"09278","name":"Straubing-Bogen","type":"Landkreis"},"federalState":{"key":"09","name":"Bayern"}},{"name":"Am Dörngraben","postalCode":"63808","locality":"Haibach","municipality":{"key":"09671124","name":"Haibach","type":"Kreisangehörige_Gemeinde"},"district":{"key":"09671","name":"Aschaffenburg","type":"Landkreis"},"federalState":{"key":"09","name":"Bayern"}},{"name":"Am Findberg","postalCode":"63808","locality":"Haibach","municipality":{"key":"09671124","name":"Haibach","type":"Kreisangehörige_Gemeinde"},"district":{"key":"09671","name":"Aschaffenburg","type":"Landkreis"},"federalState":{"key":"09","name":"Bayern"}},{"name":"Am hohen Stein","postalCode":"63808","locality":"Haibach","municipality":{"key":"09671124","name":"Haibach","type":"Kreisangehörige_Gemeinde"},"district":{"key":"09671","name":"Aschaffenburg","type":"Landkreis"},"federalState":{"key":"09","name":"Bayern"}},{"name":"Am Katzenbuckel","postalCode":"63808","locality":"Haibach","municipality":{"key":"09671124","name":"Haibach","type":"Kreisangehörige_Gemeinde"},"district":{"key":"09671","name":"Aschaffenburg","type":"Landkreis"},"federalState":{"key":"09","name":"Bayern"}},{"name":"Am Kirchbichl","postalCode":"93476","locality":"Blaibach","municipality":{"key":"09372115","name":"Blaibach","type":"Kreisangehörige_Gemeinde"},"district":{"key":"09372","name":"Cham","type":"Landkreis"},"federalState":{"key":"09","name":"Bayern"}},{"name":"Am Rain","postalCode":"79837","locality":"Ibach","municipality":{"key":"08337059","name":"Ibach","type":"Kreisangehörige_Gemeinde"},"district":{"key":"08337","name":"Waldshut","type":"Landkreis"},"federalState":{"key":"08","name":"Baden-Württemberg"}},{"name":"Am Regen","postalCode":"93476","locality":"Blaibach","municipality":{"key":"09372115","name":"Blaibach","type":"Kreisangehörige_Gemeinde"},"district":{"key":"09372","name":"Cham","type":"Landkreis"},"federalState":{"key":"09","name":"Bayern"}},{"name":"Am Wingert","postalCode":"63808","locality":"Haibach","municipality":{"key":"09671124","name":"Haibach","type":"Kreisangehörige_Gemeinde"},"district":{"key":"09671","name":"Aschaffenburg","type":"Landkreis"},"federalState":{"key":"09","name":"Bayern"}},{"name":"Am Ziegelberg","postalCode":"93476","locality":"Blaibach","municipality":{"key":"09372115","name":"Blaibach","type":"Kreisangehörige_Gemeinde"},"district":{"key":"09372","name":"Cham","type":"Landkreis"},"federalState":{"key":"09","name":"Bayern"}},{"name":"Am Zollholz","postalCode":"93476","locality":"Blaibach","municipality":{"key":"09372115","name":"Blaibach","type":"Kreisangehörige_Gemeinde"},"district":{"key":"09372","name":"Cham","type":"Landkreis"},"federalState":{"key":"09","name":"Bayern"}},{"name":"Ankergasse","postalCode":"63808","locality":"Haibach","municipality":{"key":"09671124","name":"Haibach","type":"Kreisangehörige_Gemeinde"},"district":{"key":"09671","name":"Aschaffenburg","type":"Landkreis"},"federalState":{"key":"09","name":"Bayern"}},{"name":"Anton-Hubert-Str.","postalCode":"63808","locality":"Haibach","municipality":{"key":"09671124","name":"Haibach","type":"Kreisangehörige_Gemeinde"},"district":{"key":"09671","name":"Aschaffenburg","type":"Landkreis"},"federalState":{"key":"09","name":"Bayern"}},{"name":"Aschaffenburger Str.","postalCode":"63808","locality":"Haibach","municipality":{"key":"09671124","name":"Haibach","type":"Kreisangehörige_Gemeinde"},"district":{"key":"09671","name":"Aschaffenburg","type":"Landkreis"},"federalState":{"key":"09","name":"Bayern"}},{"name":"Auenweg","postalCode":"63808","locality":"Haibach","municipality":{"key":"09671124","name":"Haibach","type":"Kreisangehörige_Gemeinde"},"district":{"key":"09671","name":"Aschaffenburg","type":"Landkreis"},"federalState":{"key":"09","name":"Bayern"}},{"name":"Auf dem Berg","postalCode":"63808","locality":"Haibach","municipality":{"key":"09671124","name":"Haibach","type":"Kreisangehörige_Gemeinde"},"district":{"key":"09671","name":"Aschaffenburg","type":"Landkreis"},"federalState":{"key":"09","name":"Bayern"}},{"name":"Auf der Höhe","postalCode":"63808","locality":"Haibach","municipality":{"key":"09671124","name":"Haibach","type":"Kreisangehörige_Gemeinde"},"district":{"key":"09671","name":"Aschaffenburg","type":"Landkreis"},"federalState":{"key":"09","name":"Bayern"}},{"name":"Auf der Leiten","postalCode":"93476","locality":"Blaibach","municipality":{"key":"09372115","name":"Blaibach","type":"Kreisangehörige_Gemeinde"},"district":{"key":"09372","name":"Cham","type":"Landkreis"},"federalState":{"key":"09","name":"Bayern"}},{"name":"Azoplatz","postalCode":"94353","locality":"Haibach","municipality":{"key":"09278129","name":"Haibach","type":"Kreisangehörige_Gemeinde"},"district":{"key":"09278","name":"Straubing-Bogen","type":"Landkreis"},"federalState":{"key":"09","name":"Bayern"}},{"name":"Bachstr.","postalCode":"63808","locality":"Haibach","municipality":{"key":"09671124","name":"Haibach","type":"Kreisangehörige_Gemeinde"},"district":{"key":"09671","name":"Aschaffenburg","type":"Landkreis"},"federalState":{"key":"09","name":"Bayern"}},{"name":"Bachwiesen","postalCode":"93476","locality":"Blaibach","municipality":{"key":"09372115","name":"Blaibach","type":"Kreisangehörige_Gemeinde"},"district":{"key":"09372","name":"Cham","type":"Landkreis"},"federalState":{"key":"09","name":"Bayern"}},{"name":"Bäckeräcker","postalCode":"94353","locality":"Haibach","municipality":{"key":"09278129","name":"Haibach","type":"Kreisangehörige_Gemeinde"},"district":{"key":"09278","name":"Straubing-Bogen","type":"Landkreis"},"federalState":{"key":"09","name":"Bayern"}},{"name":"Badstr.","postalCode":"93476","locality":"Blaibach","municipality":{"key":"09372115","name":"Blaibach","type":"Kreisangehörige_Gemeinde"},"district":{"key":"09372","name":"Cham","type":"Landkreis"},"federalState":{"key":"09","name":"Bayern"}},{"name":"Bahnhofstr.","postalCode":"93476","locality":"Blaibach","municipality":{"key":"09372115","name":"Blaibach","type":"Kreisangehörige_Gemeinde"},"district":{"key":"09372","name":"Cham","type":"Landkreis"},"federalState":{"key":"09","name":"Bayern"}},{"name":"Bahnhofstr.","postalCode":"94353","locality":"Haibach","municipality":{"key":"09278129","name":"Haibach","type":"Kreisangehörige_Gemeinde"},"district":{"key":"09278","name":"Straubing-Bogen","type":"Landkreis"},"federalState":{"key":"09","name":"Bayern"}},{"name":"Bayernstr.","postalCode":"63808","locality":"Haibach","municipality":{"key":"09671124","name":"Haibach","type":"Kreisangehörige_Gemeinde"},"district":{"key":"09671","name":"Aschaffenburg","type":"Landkreis"},"federalState":{"key":"09","name":"Bayern"}},{"name":"Beethovenstr.","postalCode":"63808","locality":"Haibach","municipality":{"key":"09671124","name":"Haibach","type":"Kreisangehörige_Gemeinde"},"district":{"key":"09671","name":"Aschaffenburg","type":"Landkreis"},"federalState":{"key":"09","name":"Bayern"}},{"name":"Bergstr.","postalCode":"63808","locality":"Haibach","municipality":{"key":"09671124","name":"Haibach","type":"Kreisangehörige_Gemeinde"},"district":{"key":"09671","name":"Aschaffenburg","type":"Landkreis"},"federalState":{"key":"09","name":"Bayern"}},{"name":"Bergstr.","postalCode":"93476","locality":"Blaibach","municipality":{"key":"09372115","name":"Blaibach","type":"Kreisangehörige_Gemeinde"},"district":{"key":"09372","name":"Cham","type":"Landkreis"},"federalState":{"key":"09","name":"Bayern"}},{"name":"Bessenbacher Weg","postalCode":"63808","locality":"Haibach","municipality":{"key":"09671124","name":"Haibach","type":"Kreisangehörige_Gemeinde"},"district":{"key":"09671","name":"Aschaffenburg","type":"Landkreis"},"federalState":{"key":"09","name":"Bayern"}},{"name":"Birkenstr.","postalCode":"63808","locality":"Haibach","municipality":{"key":"09671124","name":"Haibach","type":"Kreisangehörige_Gemeinde"},"district":{"key":"09671","name":"Aschaffenburg","type":"Landkreis"},"federalState":{"key":"09","name":"Bayern"}},{"name":"Birkenwiese","postalCode":"63808","locality":"Haibach","municipality":{"key":"09671124","name":"Haibach","type":"Kreisangehörige_Gemeinde"},"district":{"key":"09671","name":"Aschaffenburg","type":"Landkreis"},"federalState":{"key":"09","name":"Bayern"}},{"name":"Blumenstr.","postalCode":"63808","locality":"Haibach","municipality":{"key":"09671124","name":"Haibach","type":"Kreisangehörige_Gemeinde"},"district":{"key":"09671","name":"Aschaffenburg","type":"Landkreis"},"federalState":{"key":"09","name":"Bayern"}},{"name":"Bornäcker","postalCode":"63808","locality":"Haibach","municipality":{"key":"09671124","name":"Haibach","type":"Kreisangehörige_Gemeinde"},"district":{"key":"09671","name":"Aschaffenburg","type":"Landkreis"},"federalState":{"key":"09","name":"Bayern"}},{"name":"Breitenwiesenstr.","postalCode":"63808","locality":"Haibach","municipality":{"key":"09671124","name":"Haibach","type":"Kreisangehörige_Gemeinde"},"district":{"key":"09671","name":"Aschaffenburg","type":"Landkreis"},"federalState":{"key":"09","name":"Bayern"}},{"name":"Brell","postalCode":"94353","locality":"Haibach","municipality":{"key":"09278129","name":"Haibach","type":"Kreisangehörige_Gemeinde"},"district":{"key":"09278","name":"Straubing-Bogen","type":"Landkreis"},"federalState":{"key":"09","name":"Bayern"}},{"name":"Brückenstr.","postalCode":"63808","locality":"Haibach","municipality":{"key":"09671124","name":"Haibach","type":"Kreisangehörige_Gemeinde"},"district":{"key":"09671","name":"Aschaffenburg","type":"Landkreis"},"federalState":{"key":"09","name":"Bayern"}},{"name":"Buchblick","postalCode":"63808","locality":"Haibach","municipality":{"key":"09671124","name":"Haibach","type":"Kreisangehörige_Gemeinde"},"district":{"key":"09671","name":"Aschaffenburg","type":"Landkreis"},"federalState":{"key":"09","name":"Bayern"}},{"name":"Büchelbergstr.","postalCode":"63808","locality":"Haibach","municipality":{"key":"09671124","name":"Haibach","type":"Kreisangehörige_Gemeinde"},"district":{"key":"09671","name":"Aschaffenburg","type":"Landkreis"},"federalState":{"key":"09","name":"Bayern"}},{"name":"Buchenschachenweg","postalCode":"79837","locality":"Ibach","municipality":{"key":"08337059","name":"Ibach","type":"Kreisangehörige_Gemeinde"},"district":{"key":"08337","name":"Waldshut","type":"Landkreis"},"federalState":{"key":"08","name":"Baden-Württemberg"}},{"name":"Buchenstr.","postalCode":"63808","locality":"Haibach","municipality":{"key":"09671124","name":"Haibach","type":"Kreisangehörige_Gemeinde"},"district":{"key":"09671","name":"Aschaffenburg","type":"Landkreis"},"federalState":{"key":"09","name":"Bayern"}},{"name":"Burgstr.","postalCode":"63808","locality":"Haibach","municipality":{"key":"09671124","name":"Haibach","type":"Kreisangehörige_Gemeinde"},"district":{"key":"09671","name":"Aschaffenburg","type":"Landkreis"},"federalState":{"key":"09","name":"Bayern"}},{"name":"Burgstr.","postalCode":"94353","locality":"Haibach","municipality":{"key":"09278129","name":"Haibach","type":"Kreisangehörige_Gemeinde"},"district":{"key":"09278","name":"Straubing-Bogen","type":"Landkreis"},"federalState":{"key":"09","name":"Bayern"}},{"name":"Chamer Str.","postalCode":"93476","locality":"Blaibach","municipality":{"key":"09372115","name":"Blaibach","type":"Kreisangehörige_Gemeinde"},"district":{"key":"09372","name":"Cham","type":"Landkreis"},"federalState":{"key":"09","name":"Bayern"}},{"name":"Christian-Kunkel-Str.","postalCode":"63808","locality":"Haibach","municipality":{"key":"09671124","name":"Haibach","type":"Kreisangehörige_Gemeinde"},"district":{"key":"09671","name":"Aschaffenburg","type":"Landkreis"},"federalState":{"key":"09","name":"Bayern"}},{"name":"Dachsbauweg","postalCode":"79837","locality":"Ibach","municipality":{"key":"08337059","name":"Ibach","type":"Kreisangehörige_Gemeinde"},"district":{"key":"08337","name":"Waldshut","type":"Landkreis"},"federalState":{"key":"08","name":"Baden-Württemberg"}},{"name":"Dachsweg","postalCode":"79837","locality":"Ibach","municipality":{"key":"08337059","name":"Ibach","type":"Kreisangehörige_Gemeinde"},"district":{"key":"08337","name":"Waldshut","type":"Landkreis"},"federalState":{"key":"08","name":"Baden-Württemberg"}},{"name":"Dalbergstr.","postalCode":"63808","locality":"Haibach","municipality":{"key":"09671124","name":"Haibach","type":"Kreisangehörige_Gemeinde"},"district":{"key":"09671","name":"Aschaffenburg","type":"Landkreis"},"federalState":{"key":"09","name":"Bayern"}},{"name":"Dessauerstr.","postalCode":"63808","locality":"Haibach","municipality":{"key":"09671124","name":"Haibach","type":"Kreisangehörige_Gemeinde"},"district":{"key":"09671","name":"Aschaffenburg","type":"Landkreis"},"federalState":{"key":"09","name":"Bayern"}},{"name":"Dorfplatz","postalCode":"94353","locality":"Haibach","municipality":{"key":"09278129","name":"Haibach","type":"Kreisangehörige_Gemeinde"},"district":{"key":"09278","name":"Straubing-Bogen","type":"Landkreis"},"federalState":{"key":"09","name":"Bayern"}},{"name":"Dorfstr.","postalCode":"63808","locality":"Haibach","municipality":{"key":"09671124","name":"Haibach","type":"Kreisangehörige_Gemeinde"},"district":{"key":"09671","name":"Aschaffenburg","type":"Landkreis"},"federalState":{"key":"09","name":"Bayern"}},{"name":"Dörnhofstr.","postalCode":"63808","locality":"Haibach","municipality":{"key":"09671124","name":"Haibach","type":"Kreisangehörige_Gemeinde"},"district":{"key":"09671","name":"Aschaffenburg","type":"Landkreis"},"federalState":{"key":"09","name":"Bayern"}},{"name":"Dörrmorsbacher Str.","postalCode":"63808","locality":"Haibach","municipality":{"key":"09671124","name":"Haibach","type":"Kreisangehörige_Gemeinde"},"district":{"key":"09671","name":"Aschaffenburg","type":"Landkreis"},"federalState":{"key":"09","name":"Bayern"}},{"name":"Dreibrunnenkopfweg","postalCode":"79837","locality":"Ibach","municipality":{"key":"08337059","name":"Ibach","type":"Kreisangehörige_Gemeinde"},"district":{"key":"08337","name":"Waldshut","type":"Landkreis"},"federalState":{"key":"08","name":"Baden-Württemberg"}},{"name":"Dreispitzweg","postalCode":"63808","locality":"Haibach","municipality":{"key":"09671124","name":"Haibach","type":"Kreisangehörige_Gemeinde"},"district":{"key":"09671","name":"Aschaffenburg","type":"Landkreis"},"federalState":{"key":"09","name":"Bayern"}},{"name":"Dr-Hönlein-Str.","postalCode":"63808","locality":"Haibach","municipality":{"key":"09671124","name":"Haibach","type":"Kreisangehörige_Gemeinde"},"district":{"key":"09671","name":"Aschaffenburg","type":"Landkreis"},"federalState":{"key":"09","name":"Bayern"}},{"name":"Dukatenwaldweg","postalCode":"79837","locality":"Ibach","municipality":{"key":"08337059","name":"Ibach","type":"Kreisangehörige_Gemeinde"},"district":{"key":"08337","name":"Waldshut","type":"Landkreis"},"federalState":{"key":"08","name":"Baden-Württemberg"}},{"name":"Dukatenweg","postalCode":"79837","locality":"Ibach","municipality":{"key":"08337059","name":"Ibach","type":"Kreisangehörige_Gemeinde"},"district":{"key":"08337","name":"Waldshut","type":"Landkreis"},"federalState":{"key":"08","name":"Baden-Württemberg"}},{"name":"Dürnwieserweg","postalCode":"93476","locality":"Blaibach","municipality":{"key":"09372115","name":"Blaibach","type":"Kreisangehörige_Gemeinde"},"district":{"key":"09372","name":"Cham","type":"Landkreis"},"federalState":{"key":"09","name":"Bayern"}},{"name":"Ebenungsstr.","postalCode":"63808","locality":"Haibach","municipality":{"key":"09671124","name":"Haibach","type":"Kreisangehörige_Gemeinde"},"district":{"key":"09671","name":"Aschaffenburg","type":"Landkreis"},"federalState":{"key":"09","name":"Bayern"}},{"name":"Eckenerstr.","postalCode":"63808","locality":"Haibach","municipality":{"key":"09671124","name":"Haibach","type":"Kreisangehörige_Gemeinde"},"district":{"key":"09671","name":"Aschaffenburg","type":"Landkreis"},"federalState":{"key":"09","name":"Bayern"}},{"name":"Eichelwiese","postalCode":"63808","locality":"Haibach","municipality":{"key":"09671124","name":"Haibach","type":"Kreisangehörige_Gemeinde"},"district":{"key":"09671","name":"Aschaffenburg","type":"Landkreis"},"federalState":{"key":"09","name":"Bayern"}},{"name":"Eichenstr.","postalCode":"63808","locality":"Haibach","municipality":{"key":"09671124","name":"Haibach","type":"Kreisangehörige_Gemeinde"},"district":{"key":"09671","name":"Aschaffenburg","type":"Landkreis"},"federalState":{"key":"09","name":"Bayern"}},{"name":"Eichenweg","postalCode":"94353","locality":"Haibach","municipality":{"key":"09278129","name":"Haibach","type":"Kreisangehörige_Gemeinde"},"district":{"key":"09278","name":"Straubing-Bogen","type":"Landkreis"},"federalState":{"key":"09","name":"Bayern"}},{"name":"Erlenstr.","postalCode":"63808","locality":"Haibach","municipality":{"key":"09671124","name":"Haibach","type":"Kreisangehörige_Gemeinde"},"district":{"key":"09671","name":"Aschaffenburg","type":"Landkreis"},"federalState":{"key":"09","name":"Bayern"}},{"name":"Fabrikstr.","postalCode":"63808","locality":"Haibach","municipality":{"key":"09671124","name":"Haibach","type":"Kreisangehörige_Gemeinde"},"district":{"key":"09671","name":"Aschaffenburg","type":"Landkreis"},"federalState":{"key":"09","name":"Bayern"}},{"name":"Findbergstr.","postalCode":"63808","locality":"Haibach","municipality":{"key":"09671124","name":"Haibach","type":"Kreisangehörige_Gemeinde"},"district":{"key":"09671","name":"Aschaffenburg","type":"Landkreis"},"federalState":{"key":"09","name":"Bayern"}},{"name":"Findbergweg","postalCode":"63808","locality":"Haibach","municipality":{"key":"09671124","name":"Haibach","type":"Kreisangehörige_Gemeinde"},"district":{"key":"09671","name":"Aschaffenburg","type":"Landkreis"},"federalState":{"key":"09","name":"Bayern"}},{"name":"Fischergasse","postalCode":"63808","locality":"Haibach","municipality":{"key":"09671124","name":"Haibach","type":"Kreisangehörige_Gemeinde"},"district":{"key":"09671","name":"Aschaffenburg","type":"Landkreis"},"federalState":{"key":"09","name":"Bayern"}},{"name":"Frankenring","postalCode":"63808","locality":"Haibach","municipality":{"key":"09671124","name":"Haibach","type":"Kreisangehörige_Gemeinde"},"district":{"key":"09671","name":"Aschaffenburg","type":"Landkreis"},"federalState":{"key":"09","name":"Bayern"}},{"name":"Frankenstr.","postalCode":"63808","locality":"Haibach","municipality":{"key":"09671124","name":"Haibach","type":"Kreisangehörige_Gemeinde"},"district":{"key":"09671","name":"Aschaffenburg","type":"Landkreis"},"federalState":{"key":"09","name":"Bayern"}},{"name":"Franzmattweg","postalCode":"79837","locality":"Ibach","municipality":{"key":"08337059","name":"Ibach","type":"Kreisangehörige_Gemeinde"},"district":{"key":"08337","name":"Waldshut","type":"Landkreis"},"federalState":{"key":"08","name":"Baden-Württemberg"}},{"name":"Franz-Öhrlein-Str.","postalCode":"63808","locality":"Haibach","municipality":{"key":"09671124","name":"Haibach","type":"Kreisangehörige_Gemeinde"},"district":{"key":"09671","name":"Aschaffenburg","type":"Landkreis"},"federalState":{"key":"09","name":"Bayern"}},{"name":"Franz-Völker-Weg","postalCode":"63808","locality":"Haibach","municipality":{"key":"09671124","name":"Haibach","type":"Kreisangehörige_Gemeinde"},"district":{"key":"09671","name":"Aschaffenburg","type":"Landkreis"},"federalState":{"key":"09","name":"Bayern"}},{"name":"Freiheitstr.","postalCode":"63808","locality":"Haibach","municipality":{"key":"09671124","name":"Haibach","type":"Kreisangehörige_Gemeinde"},"district":{"key":"09671","name":"Aschaffenburg","type":"Landkreis"},"federalState":{"key":"09","name":"Bayern"}},{"name":"Friedenstr.","postalCode":"63808","locality":"Haibach","municipality":{"key":"09671124","name":"Haibach","type":"Kreisangehörige_Gemeinde"},"district":{"key":"09671","name":"Aschaffenburg","type":"Landkreis"},"federalState":{"key":"09","name":"Bayern"}},{"name":"Friedhofstr.","postalCode":"63808","locality":"Haibach","municipality":{"key":"09671124","name":"Haibach","type":"Kreisangehörige_Gemeinde"},"district":{"key":"09671","name":"Aschaffenburg","type":"Landkreis"},"federalState":{"key":"09","name":"Bayern"}},{"name":"Friedlandstr.","postalCode":"63808","locality":"Haibach","municipality":{"key":"09671124","name":"Haibach","type":"Kreisangehörige_Gemeinde"},"district":{"key":"09671","name":"Aschaffenburg","type":"Landkreis"},"federalState":{"key":"09","name":"Bayern"}},{"name":"Friedrich-Ebert-Str.","postalCode":"63808","locality":"Haibach","municipality":{"key":"09671124","name":"Haibach","type":"Kreisangehörige_Gemeinde"},"district":{"key":"09671","name":"Aschaffenburg","type":"Landkreis"},"federalState":{"key":"09","name":"Bayern"}},{"name":"Frühlingstr.","postalCode":"63808","locality":"Haibach","municipality":{"key":"09671124","name":"Haibach","type":"Kreisangehörige_Gemeinde"},"district":{"key":"09671","name":"Aschaffenburg","type":"Landkreis"},"federalState":{"key":"09","name":"Bayern"}},{"name":"Gabelsbergerstr.","postalCode":"63808","locality":"Haibach","municipality":{"key":"09671124","name":"Haibach","type":"Kreisangehörige_Gemeinde"},"district":{"key":"09671","name":"Aschaffenburg","type":"Landkreis"},"federalState":{"key":"09","name":"Bayern"}},{"name":"Gartenstr.","postalCode":"63808","locality":"Haibach","municipality":{"key":"09671124","name":"Haibach","type":"Kreisangehörige_Gemeinde"},"district":{"key":"09671","name":"Aschaffenburg","type":"Landkreis"},"federalState":{"key":"09","name":"Bayern"}},{"name":"Gemeindefeld","postalCode":"63808","locality":"Haibach","municipality":{"key":"09671124","name":"Haibach","type":"Kreisangehörige_Gemeinde"},"district":{"key":"09671","name":"Aschaffenburg","type":"Landkreis"},"federalState":{"key":"09","name":"Bayern"}},{"name":"Ginsterweg","postalCode":"63808","locality":"Haibach","municipality":{"key":"09671124","name":"Haibach","type":"Kreisangehörige_Gemeinde"},"district":{"key":"09671","name":"Aschaffenburg","type":"Landkreis"},"federalState":{"key":"09","name":"Bayern"}},{"name":"Glaserfleck","postalCode":"93476","locality":"Blaibach","municipality":{"key":"09372115","name":"Blaibach","type":"Kreisangehörige_Gemeinde"},"district":{"key":"09372","name":"Cham","type":"Landkreis"},"federalState":{"key":"09","name":"Bayern"}},{"name":"Goethestr.","postalCode":"63808","locality":"Haibach","municipality":{"key":"09671124","name":"Haibach","type":"Kreisangehörige_Gemeinde"},"district":{"key":"09671","name":"Aschaffenburg","type":"Landkreis"},"federalState":{"key":"09","name":"Bayern"}},{"name":"Grenzweg","postalCode":"63808","locality":"Haibach","municipality":{"key":"09671124","name":"Haibach","type":"Kreisangehörige_Gemeinde"},"district":{"key":"09671","name":"Aschaffenburg","type":"Landkreis"},"federalState":{"key":"09","name":"Bayern"}},{"name":"Großmannstr.","postalCode":"63808","locality":"Haibach","municipality":{"key":"09671124","name":"Haibach","type":"Kreisangehörige_Gemeinde"},"district":{"key":"09671","name":"Aschaffenburg","type":"Landkreis"},"federalState":{"key":"09","name":"Bayern"}},{"name":"Großstr.","postalCode":"63808","locality":"Haibach","municipality":{"key":"09671124","name":"Haibach","type":"Kreisangehörige_Gemeinde"},"district":{"key":"09671","name":"Aschaffenburg","type":"Landkreis"},"federalState":{"key":"09","name":"Bayern"}},{"name":"Grubenäcker","postalCode":"63808","locality":"Haibach","municipality":{"key":"09671124","name":"Haibach","type":"Kreisangehörige_Gemeinde"},"district":{"key":"09671","name":"Aschaffenburg","type":"Landkreis"},"federalState":{"key":"09","name":"Bayern"}},{"name":"Gsteinetriegel","postalCode":"93476","locality":"Blaibach","municipality":{"key":"09372115","name":"Blaibach","type":"Kreisangehörige_Gemeinde"},"district":{"key":"09372","name":"Cham","type":"Landkreis"},"federalState":{"key":"09","name":"Bayern"}},{"name":"Gsteinetstr.","postalCode":"93476","locality":"Blaibach","municipality":{"key":"09372115","name":"Blaibach","type":"Kreisangehörige_Gemeinde"},"district":{"key":"09372","name":"Cham","type":"Landkreis"},"federalState":{"key":"09","name":"Bayern"}},{"name":"Hadriwa Höhenweg","postalCode":"94353","locality":"Haibach","municipality":{"key":"09278129","name":"Haibach","type":"Kreisangehörige_Gemeinde"},"district":{"key":"09278","name":"Straubing-Bogen","type":"Landkreis"},"federalState":{"key":"09","name":"Bayern"}},{"name":"Hadriwastr.","postalCode":"94353","locality":"Haibach","municipality":{"key":"09278129","name":"Haibach","type":"Kreisangehörige_Gemeinde"},"district":{"key":"09278","name":"Straubing-Bogen","type":"Landkreis"},"federalState":{"key":"09","name":"Bayern"}},{"name":"Haibacher Schweiz","postalCode":"63808","locality":"Haibach","municipality":{"key":"09671124","name":"Haibach","type":"Kreisangehörige_Gemeinde"},"district":{"key":"09671","name":"Aschaffenburg","type":"Landkreis"},"federalState":{"key":"09","name":"Bayern"}},{"name":"Haibacher Str.","postalCode":"94353","locality":"Haibach","municipality":{"key":"09278129","name":"Haibach","type":"Kreisangehörige_Gemeinde"},"district":{"key":"09278","name":"Straubing-Bogen","type":"Landkreis"},"federalState":{"key":"09","name":"Bayern"}},{"name":"Haibeckenstr.","postalCode":"94353","locality":"Haibach","municipality":{"key":"09278129","name":"Haibach","type":"Kreisangehörige_Gemeinde"},"district":{"key":"09278","name":"Straubing-Bogen","type":"Landkreis"},"federalState":{"key":"09","name":"Bayern"}},{"name":"Haidebachstr.","postalCode":"63808","locality":"Haibach","municipality":{"key":"09671124","name":"Haibach","type":"Kreisangehörige_Gemeinde"},"district":{"key":"09671","name":"Aschaffenburg","type":"Landkreis"},"federalState":{"key":"09","name":"Bayern"}},{"name":"Hasenbergstr.","postalCode":"63808","locality":"Haibach","municipality":{"key":"09671124","name":"Haibach","type":"Kreisangehörige_Gemeinde"},"district":{"key":"09671","name":"Aschaffenburg","type":"Landkreis"},"federalState":{"key":"09","name":"Bayern"}},{"name":"Hauptstr.","postalCode":"63808","locality":"Haibach","municipality":{"key":"09671124","name":"Haibach","type":"Kreisangehörige_Gemeinde"},"district":{"key":"09671","name":"Aschaffenburg","type":"Landkreis"},"federalState":{"key":"09","name":"Bayern"}},{"name":"Haydnstr.","postalCode":"63808","locality":"Haibach","municipality":{"key":"09671124","name":"Haibach","type":"Kreisangehörige_Gemeinde"},"district":{"key":"09671","name":"Aschaffenburg","type":"Landkreis"},"federalState":{"key":"09","name":"Bayern"}},{"name":"Heckenweg","postalCode":"63808","locality":"Haibach","municipality":{"key":"09671124","name":"Haibach","type":"Kreisangehörige_Gemeinde"},"district":{"key":"09671","name":"Aschaffenburg","type":"Landkreis"},"federalState":{"key":"09","name":"Bayern"}},{"name":"Heibachäcker","postalCode":"94353","locality":"Haibach","municipality":{"key":"09278129","name":"Haibach","type":"Kreisangehörige_Gemeinde"},"district":{"key":"09278","name":"Straubing-Bogen","type":"Landkreis"},"federalState":{"key":"09","name":"Bayern"}},{"name":"Herrleinstr.","postalCode":"63808","locality":"Haibach","municipality":{"key":"09671124","name":"Haibach","type":"Kreisangehörige_Gemeinde"},"district":{"key":"09671","name":"Aschaffenburg","type":"Landkreis"},"federalState":{"key":"09","name":"Bayern"}},{"name":"Hinterer Langhaldenweg","postalCode":"79837","locality":"Ibach","municipality":{"key":"08337059","name":"Ibach","type":"Kreisangehörige_Gemeinde"},"district":{"key":"08337","name":"Waldshut","type":"Landkreis"},"federalState":{"key":"08","name":"Baden-Württemberg"}},{"name":"Hirschweg","postalCode":"79837","locality":"Ibach","municipality":{"key":"08337059","name":"Ibach","type":"Kreisangehörige_Gemeinde"},"district":{"key":"08337","name":"Waldshut","type":"Landkreis"},"federalState":{"key":"08","name":"Baden-Württemberg"}},{"name":"Hirtenborn","postalCode":"63808","locality":"Haibach","municipality":{"key":"09671124","name":"Haibach","type":"Kreisangehörige_Gemeinde"},"district":{"key":"09671","name":"Aschaffenburg","type":"Landkreis"},"federalState":{"key":"09","name":"Bayern"}},{"name":"Hirtenweg","postalCode":"63808","locality":"Haibach","municipality":{"key":"09671124","name":"Haibach","type":"Kreisangehörige_Gemeinde"},"district":{"key":"09671","name":"Aschaffenburg","type":"Landkreis"},"federalState":{"key":"09","name":"Bayern"}},{"name":"Hochtal","postalCode":"79837","locality":"Ibach","municipality":{"key":"08337059","name":"Ibach","type":"Kreisangehörige_Gemeinde"},"district":{"key":"08337","name":"Waldshut","type":"Landkreis"},"federalState":{"key":"08","name":"Baden-Württemberg"}},{"name":"Hochweg","postalCode":"93476","locality":"Blaibach","municipality":{"key":"09372115","name":"Blaibach","type":"Kreisangehörige_Gemeinde"},"district":{"key":"09372","name":"Cham","type":"Landkreis"},"federalState":{"key":"09","name":"Bayern"}},{"name":"Hofrain","postalCode":"79837","locality":"Ibach","municipality":{"key":"08337059","name":"Ibach","type":"Kreisangehörige_Gemeinde"},"district":{"key":"08337","name":"Waldshut","type":"Landkreis"},"federalState":{"key":"08","name":"Baden-Württemberg"}},{"name":"Hohe-Kreuz-Str.","postalCode":"63808","locality":"Haibach","municipality":{"key":"09671124","name":"Haibach","type":"Kreisangehörige_Gemeinde"},"district":{"key":"09671","name":"Aschaffenburg","type":"Landkreis"},"federalState":{"key":"09","name":"Bayern"}},{"name":"Höhenweg","postalCode":"63808","locality":"Haibach","municipality":{"key":"09671124","name":"Haibach","type":"Kreisangehörige_Gemeinde"},"district":{"key":"09671","name":"Aschaffenburg","type":"Landkreis"},"federalState":{"key":"09","name":"Bayern"}},{"name":"Hohe-Warte-Weg","postalCode":"63808","locality":"Haibach","municipality":{"key":"09671124","name":"Haibach","type":"Kreisangehörige_Gemeinde"},"district":{"key":"09671","name":"Aschaffenburg","type":"Landkreis"},"federalState":{"key":"09","name":"Bayern"}},{"name":"Hörnleweg","postalCode":"79837","locality":"Ibach","municipality":{"key":"08337059","name":"Ibach","type":"Kreisangehörige_Gemeinde"},"district":{"key":"08337","name":"Waldshut","type":"Landkreis"},"federalState":{"key":"08","name":"Baden-Württemberg"}},{"name":"Hundsäcker","postalCode":"63808","locality":"Haibach","municipality":{"key":"09671124","name":"Haibach","type":"Kreisangehörige_Gemeinde"},"district":{"key":"09671","name":"Aschaffenburg","type":"Landkreis"},"federalState":{"key":"09","name":"Bayern"}},{"name":"Hundsäckerweg","postalCode":"63808","locality":"Haibach","municipality":{"key":"09671124","name":"Haibach","type":"Kreisangehörige_Gemeinde"},"district":{"key":"09671","name":"Aschaffenburg","type":"Landkreis"},"federalState":{"key":"09","name":"Bayern"}},{"name":"Ibacher Grenzweg","postalCode":"79837","locality":"Ibach","municipality":{"key":"08337059","name":"Ibach","type":"Kreisangehörige_Gemeinde"},"district":{"key":"08337","name":"Waldshut","type":"Landkreis"},"federalState":{"key":"08","name":"Baden-Württemberg"}},{"name":"Ibacherkreuzweg","postalCode":"79837","locality":"Ibach","municipality":{"key":"08337059","name":"Ibach","type":"Kreisangehörige_Gemeinde"},"district":{"key":"08337","name":"Waldshut","type":"Landkreis"},"federalState":{"key":"08","name":"Baden-Württemberg"}},{"name":"Im Gründchen","postalCode":"63808","locality":"Haibach","municipality":{"key":"09671124","name":"Haibach","type":"Kreisangehörige_Gemeinde"},"district":{"key":"09671","name":"Aschaffenburg","type":"Landkreis"},"federalState":{"key":"09","name":"Bayern"}},{"name":"Im Gsteinet","postalCode":"93476","locality":"Blaibach","municipality":{"key":"09372115","name":"Blaibach","type":"Kreisangehörige_Gemeinde"},"district":{"key":"09372","name":"Cham","type":"Landkreis"},"federalState":{"key":"09","name":"Bayern"}},{"name":"Im Krowitt","postalCode":"94353","locality":"Haibach","municipality":{"key":"09278129","name":"Haibach","type":"Kreisangehörige_Gemeinde"},"district":{"key":"09278","name":"Straubing-Bogen","type":"Landkreis"},"federalState":{"key":"09","name":"Bayern"}},{"name":"Im Wiesengrund","postalCode":"94353","locality":"Haibach","municipality":{"key":"09278129","name":"Haibach","type":"Kreisangehörige_Gemeinde"},"district":{"key":"09278","name":"Straubing-Bogen","type":"Landkreis"},"federalState":{"key":"09","name":"Bayern"}},{"name":"In der Pointen","postalCode":"94353","locality":"Haibach","municipality":{"key":"09278129","name":"Haibach","type":"Kreisangehörige_Gemeinde"},"district":{"key":"09278","name":"Straubing-Bogen","type":"Landkreis"},"federalState":{"key":"09","name":"Bayern"}},{"name":"Industriestr. Ost","postalCode":"63808","locality":"Haibach","municipality":{"key":"09671124","name":"Haibach","type":"Kreisangehörige_Gemeinde"},"district":{"key":"09671","name":"Aschaffenburg","type":"Landkreis"},"federalState":{"key":"09","name":"Bayern"}},{"name":"Industriestr. West","postalCode":"63808","locality":"Haibach","municipality":{"key":"09671124","name":"Haibach","type":"Kreisangehörige_Gemeinde"},"district":{"key":"09671","name":"Aschaffenburg","type":"Landkreis"},"federalState":{"key":"09","name":"Bayern"}},{"name":"Jahnstr.","postalCode":"63808","locality":"Haibach","municipality":{"key":"09671124","name":"Haibach","type":"Kreisangehörige_Gemeinde"},"district":{"key":"09671","name":"Aschaffenburg","type":"Landkreis"},"federalState":{"key":"09","name":"Bayern"}},{"name":"Johann-Schneider-Str.","postalCode":"63808","locality":"Haibach","municipality":{"key":"09671124","name":"Haibach","type":"Kreisangehörige_Gemeinde"},"district":{"key":"09671","name":"Aschaffenburg","type":"Landkreis"},"federalState":{"key":"09","name":"Bayern"}},{"name":"Josef-Roth-Str.","postalCode":"63808","locality":"Haibach","municipality":{"key":"09671124","name":"Haibach","type":"Kreisangehörige_Gemeinde"},"district":{"key":"09671","name":"Aschaffenburg","type":"Landkreis"},"federalState":{"key":"09","name":"Bayern"}},{"name":"Julius-Echter-Str.","postalCode":"63808","locality":"Haibach","municipality":{"key":"09671124","name":"Haibach","type":"Kreisangehörige_Gemeinde"},"district":{"key":"09671","name":"Aschaffenburg","type":"Landkreis"},"federalState":{"key":"09","name":"Bayern"}},{"name":"Kaiselsbergstr.","postalCode":"63808","locality":"Haibach","municipality":{"key":"09671124","name":"Haibach","type":"Kreisangehörige_Gemeinde"},"district":{"key":"09671","name":"Aschaffenburg","type":"Landkreis"},"federalState":{"key":"09","name":"Bayern"}},{"name":"Kammleiten","postalCode":"93476","locality":"Blaibach","municipality":{"key":"09372115","name":"Blaibach","type":"Kreisangehörige_Gemeinde"},"district":{"key":"09372","name":"Cham","type":"Landkreis"},"federalState":{"key":"09","name":"Bayern"}},{"name":"Kapellenplatz","postalCode":"63808","locality":"Haibach","municipality":{"key":"09671124","name":"Haibach","type":"Kreisangehörige_Gemeinde"},"district":{"key":"09671","name":"Aschaffenburg","type":"Landkreis"},"federalState":{"key":"09","name":"Bayern"}},{"name":"Kapellenweg","postalCode":"93476","locality":"Blaibach","municipality":{"key":"09372115","name":"Blaibach","type":"Kreisangehörige_Gemeinde"},"district":{"key":"09372","name":"Cham","type":"Landkreis"},"federalState":{"key":"09","name":"Bayern"}},{"name":"Keltenweg","postalCode":"63808","locality":"Haibach","municipality":{"key":"09671124","name":"Haibach","type":"Kreisangehörige_Gemeinde"},"district":{"key":"09671","name":"Aschaffenburg","type":"Landkreis"},"federalState":{"key":"09","name":"Bayern"}},{"name":"Kettelerstr.","postalCode":"63808","locality":"Haibach","municipality":{"key":"09671124","name":"Haibach","type":"Kreisangehörige_Gemeinde"},"district":{"key":"09671","name":"Aschaffenburg","type":"Landkreis"},"federalState":{"key":"09","name":"Bayern"}},{"name":"Kirchbichlweg","postalCode":"93476","locality":"Blaibach","municipality":{"key":"09372115","name":"Blaibach","type":"Kreisangehörige_Gemeinde"},"district":{"key":"09372","name":"Cham","type":"Landkreis"},"federalState":{"key":"09","name":"Bayern"}},{"name":"Kirchgasse","postalCode":"93476","locality":"Blaibach","municipality":{"key":"09372115","name":"Blaibach","type":"Kreisangehörige_Gemeinde"},"district":{"key":"09372","name":"Cham","type":"Landkreis"},"federalState":{"key":"09","name":"Bayern"}},{"name":"Kirchplatz","postalCode":"93476","locality":"Blaibach","municipality":{"key":"09372115","name":"Blaibach","type":"Kreisangehörige_Gemeinde"},"district":{"key":"09372","name":"Cham","type":"Landkreis"},"federalState":{"key":"09","name":"Bayern"}},{"name":"Kirchplatz","postalCode":"94353","locality":"Haibach","municipality":{"key":"09278129","name":"Haibach","type":"Kreisangehörige_Gemeinde"},"district":{"key":"09278","name":"Straubing-Bogen","type":"Landkreis"},"federalState":{"key":"09","name":"Bayern"}},{"name":"Kirchstr.","postalCode":"63808","locality":"Haibach","municipality":{"key":"09671124","name":"Haibach","type":"Kreisangehörige_Gemeinde"},"district":{"key":"09671","name":"Aschaffenburg","type":"Landkreis"},"federalState":{"key":"09","name":"Bayern"}},{"name":"Kirchweg","postalCode":"79837","locality":"Ibach","municipality":{"key":"08337059","name":"Ibach","type":"Kreisangehörige_Gemeinde"},"district":{"key":"08337","name":"Waldshut","type":"Landkreis"},"federalState":{"key":"08","name":"Baden-Württemberg"}},{"name":"Klosterwaldweg","postalCode":"79837","locality":"Ibach","municipality":{"key":"08337059","name":"Ibach","type":"Kreisangehörige_Gemeinde"},"district":{"key":"08337","name":"Waldshut","type":"Landkreis"},"federalState":{"key":"08","name":"Baden-Württemberg"}},{"name":"Kohlhuettenweg","postalCode":"79837","locality":"Ibach","municipality":{"key":"08337059","name":"Ibach","type":"Kreisangehörige_Gemeinde"},"district":{"key":"08337","name":"Waldshut","type":"Landkreis"},"federalState":{"key":"08","name":"Baden-Württemberg"}},{"name":"Kolmberger Str.","postalCode":"93476","locality":"Blaibach","municipality":{"key":"09372115","name":"Blaibach","type":"Kreisangehörige_Gemeinde"},"district":{"key":"09372","name":"Cham","type":"Landkreis"},"federalState":{"key":"09","name":"Bayern"}},{"name":"Kötztinger Str.","postalCode":"93476","locality":"Blaibach","municipality":{"key":"09372115","name":"Blaibach","type":"Kreisangehörige_Gemeinde"},"district":{"key":"09372","name":"Cham","type":"Landkreis"},"federalState":{"key":"09","name":"Bayern"}},{"name":"Krautgärten","postalCode":"63808","locality":"Haibach","municipality":{"key":"09671124","name":"Haibach","type":"Kreisangehörige_Gemeinde"},"district":{"key":"09671","name":"Aschaffenburg","type":"Landkreis"},"federalState":{"key":"09","name":"Bayern"}},{"name":"Kreuzhausweg","postalCode":"94353","locality":"Haibach","municipality":{"key":"09278129","name":"Haibach","type":"Kreisangehörige_Gemeinde"},"district":{"key":"09278","name":"Straubing-Bogen","type":"Landkreis"},"federalState":{"key":"09","name":"Bayern"}},{"name":"Kronbichl","postalCode":"93476","locality":"Blaibach","municipality":{"key":"09372115","name":"Blaibach","type":"Kreisangehörige_Gemeinde"},"district":{"key":"09372","name":"Cham","type":"Landkreis"},"federalState":{"key":"09","name":"Bayern"}},{"name":"Langenäcker","postalCode":"63808","locality":"Haibach","municipality":{"key":"09671124","name":"Haibach","type":"Kreisangehörige_Gemeinde"},"district":{"key":"09671","name":"Aschaffenburg","type":"Landkreis"},"federalState":{"key":"09","name":"Bayern"}},{"name":"Lange Str.","postalCode":"63808","locality":"Haibach","municipality":{"key":"09671124","name":"Haibach","type":"Kreisangehörige_Gemeinde"},"district":{"key":"09671","name":"Aschaffenburg","type":"Landkreis"},"federalState":{"key":"09","name":"Bayern"}},{"name":"Laurentiusweg","postalCode":"63808","locality":"Haibach","municipality":{"key":"09671124","name":"Haibach","type":"Kreisangehörige_Gemeinde"},"district":{"key":"09671","name":"Aschaffenburg","type":"Landkreis"},"federalState":{"key":"09","name":"Bayern"}},{"name":"Laurentiusweg","postalCode":"94353","locality":"Haibach","municipality":{"key":"09278129","name":"Haibach","type":"Kreisangehörige_Gemeinde"},"district":{"key":"09278","name":"Straubing-Bogen","type":"Landkreis"},"federalState":{"key":"09","name":"Bayern"}},{"name":"Lehenbrünnleweg","postalCode":"79837","locality":"Ibach","municipality":{"key":"08337059","name":"Ibach","type":"Kreisangehörige_Gemeinde"},"district":{"key":"08337","name":"Waldshut","type":"Landkreis"},"federalState":{"key":"08","name":"Baden-Württemberg"}},{"name":"Lehenwaldweg","postalCode":"79837","locality":"Ibach","municipality":{"key":"08337059","name":"Ibach","type":"Kreisangehörige_Gemeinde"},"district":{"key":"08337","name":"Waldshut","type":"Landkreis"},"federalState":{"key":"08","name":"Baden-Württemberg"}},{"name":"Lehmgrube","postalCode":"63808","locality":"Haibach","municipality":{"key":"09671124","name":"Haibach","type":"Kreisangehörige_Gemeinde"},"district":{"key":"09671","name":"Aschaffenburg","type":"Landkreis"},"federalState":{"key":"09","name":"Bayern"}},{"name":"Letztgrund","postalCode":"63808","locality":"Haibach","municipality":{"key":"09671124","name":"Haibach","type":"Kreisangehörige_Gemeinde"},"district":{"key":"09671","name":"Aschaffenburg","type":"Landkreis"},"federalState":{"key":"09","name":"Bayern"}},{"name":"Lindau","postalCode":"79837","locality":"Ibach","municipality":{"key":"08337059","name":"Ibach","type":"Kreisangehörige_Gemeinde"},"district":{"key":"08337","name":"Waldshut","type":"Landkreis"},"federalState":{"key":"08","name":"Baden-Württemberg"}},{"name":"Lindauer Talweg","postalCode":"79837","locality":"Ibach","municipality":{"key":"08337059","name":"Ibach","type":"Kreisangehörige_Gemeinde"},"district":{"key":"08337","name":"Waldshut","type":"Landkreis"},"federalState":{"key":"08","name":"Baden-Württemberg"}},{"name":"Lindenstr.","postalCode":"63808","locality":"Haibach","municipality":{"key":"09671124","name":"Haibach","type":"Kreisangehörige_Gemeinde"},"district":{"key":"09671","name":"Aschaffenburg","type":"Landkreis"},"federalState":{"key":"09","name":"Bayern"}},{"name":"Ludwig-Kunz-Str.","postalCode":"63808","locality":"Haibach","municipality":{"key":"09671124","name":"Haibach","type":"Kreisangehörige_Gemeinde"},"district":{"key":"09671","name":"Aschaffenburg","type":"Landkreis"},"federalState":{"key":"09","name":"Bayern"}},{"name":"Ludwigstr.","postalCode":"63808","locality":"Haibach","municipality":{"key":"09671124","name":"Haibach","type":"Kreisangehörige_Gemeinde"},"district":{"key":"09671","name":"Aschaffenburg","type":"Landkreis"},"federalState":{"key":"09","name":"Bayern"}},{"name":"Mainzer Str.","postalCode":"63808","locality":"Haibach","municipality":{"key":"09671124","name":"Haibach","type":"Kreisangehörige_Gemeinde"},"district":{"key":"09671","name":"Aschaffenburg","type":"Landkreis"},"federalState":{"key":"09","name":"Bayern"}},{"name":"Margarete-Kiesel-Str.","postalCode":"63808","locality":"Haibach","municipality":{"key":"09671124","name":"Haibach","type":"Kreisangehörige_Gemeinde"},"district":{"key":"09671","name":"Aschaffenburg","type":"Landkreis"},"federalState":{"key":"09","name":"Bayern"}},{"name":"Marienstr.","postalCode":"63808","locality":"Haibach","municipality":{"key":"09671124","name":"Haibach","type":"Kreisangehörige_Gemeinde"},"district":{"key":"09671","name":"Aschaffenburg","type":"Landkreis"},"federalState":{"key":"09","name":"Bayern"}},{"name":"Marksteinweg","postalCode":"79837","locality":"Ibach","municipality":{"key":"08337059","name":"Ibach","type":"Kreisangehörige_Gemeinde"},"district":{"key":"08337","name":"Waldshut","type":"Landkreis"},"federalState":{"key":"08","name":"Baden-Württemberg"}},{"name":"Merkelstr.","postalCode":"63808","locality":"Haibach","municipality":{"key":"09671124","name":"Haibach","type":"Kreisangehörige_Gemeinde"},"district":{"key":"09671","name":"Aschaffenburg","type":"Landkreis"},"federalState":{"key":"09","name":"Bayern"}},{"name":"Morsbachweg","postalCode":"63808","locality":"Haibach","municipality":{"key":"09671124","name":"Haibach","type":"Kreisangehörige_Gemeinde"},"district":{"key":"09671","name":"Aschaffenburg","type":"Landkreis"},"federalState":{"key":"09","name":"Bayern"}},{"name":"Mozartstr.","postalCode":"63808","locality":"Haibach","municipality":{"key":"09671124","name":"Haibach","type":"Kreisangehörige_Gemeinde"},"district":{"key":"09671","name":"Aschaffenburg","type":"Landkreis"},"federalState":{"key":"09","name":"Bayern"}},{"name":"Mühlgasse","postalCode":"93476","locality":"Blaibach","municipality":{"key":"09372115","name":"Blaibach","type":"Kreisangehörige_Gemeinde"},"district":{"key":"09372","name":"Cham","type":"Landkreis"},"federalState":{"key":"09","name":"Bayern"}},{"name":"Müllerstr.","postalCode":"63808","locality":"Haibach","municipality":{"key":"09671124","name":"Haibach","type":"Kreisangehörige_Gemeinde"},"district":{"key":"09671","name":"Aschaffenburg","type":"Landkreis"},"federalState":{"key":"09","name":"Bayern"}},{"name":"Münchstr.","postalCode":"63808","locality":"Haibach","municipality":{"key":"09671124","name":"Haibach","type":"Kreisangehörige_Gemeinde"},"district":{"key":"09671","name":"Aschaffenburg","type":"Landkreis"},"federalState":{"key":"09","name":"Bayern"}},{"name":"Mutterslehen","postalCode":"79837","locality":"Ibach","municipality":{"key":"08337059","name":"Ibach","type":"Kreisangehörige_Gemeinde"},"district":{"key":"08337","name":"Waldshut","type":"Landkreis"},"federalState":{"key":"08","name":"Baden-Württemberg"}},{"name":"Neue Heimatstr.","postalCode":"63808","locality":"Haibach","municipality":{"key":"09671124","name":"Haibach","type":"Kreisangehörige_Gemeinde"},"district":{"key":"09671","name":"Aschaffenburg","type":"Landkreis"},"federalState":{"key":"09","name":"Bayern"}},{"name":"Neumattweg","postalCode":"79837","locality":"Ibach","municipality":{"key":"08337059","name":"Ibach","type":"Kreisangehörige_Gemeinde"},"district":{"key":"08337","name":"Waldshut","type":"Landkreis"},"federalState":{"key":"08","name":"Baden-Württemberg"}},{"name":"Nußbaumstr.","postalCode":"94353","locality":"Haibach","municipality":{"key":"09278129","name":"Haibach","type":"Kreisangehörige_Gemeinde"},"district":{"key":"09278","name":"Straubing-Bogen","type":"Landkreis"},"federalState":{"key":"09","name":"Bayern"}},{"name":"Ober den Gärten","postalCode":"63808","locality":"Haibach","municipality":{"key":"09671124","name":"Haibach","type":"Kreisangehörige_Gemeinde"},"district":{"key":"09671","name":"Aschaffenburg","type":"Landkreis"},"federalState":{"key":"09","name":"Bayern"}},{"name":"Oberer Langhaldenweg","postalCode":"79837","locality":"Ibach","municipality":{"key":"08337059","name":"Ibach","type":"Kreisangehörige_Gemeinde"},"district":{"key":"08337","name":"Waldshut","type":"Landkreis"},"federalState":{"key":"08","name":"Baden-Württemberg"}},{"name":"Oberer Marksteinweg","postalCode":"79837","locality":"Ibach","municipality":{"key":"08337059","name":"Ibach","type":"Kreisangehörige_Gemeinde"},"district":{"key":"08337","name":"Waldshut","type":"Landkreis"},"federalState":{"key":"08","name":"Baden-Württemberg"}},{"name":"Oberer Schusterberg","postalCode":"93476","locality":"Blaibach","municipality":{"key":"09372115","name":"Blaibach","type":"Kreisangehörige_Gemeinde"},"district":{"key":"09372","name":"Cham","type":"Landkreis"},"federalState":{"key":"09","name":"Bayern"}},{"name":"Oberes Dorf","postalCode":"93476","locality":"Blaibach","municipality":{"key":"09372115","name":"Blaibach","type":"Kreisangehörige_Gemeinde"},"district":{"key":"09372","name":"Cham","type":"Landkreis"},"federalState":{"key":"09","name":"Bayern"}},{"name":"Oskar-Stahl-Str.","postalCode":"63808","locality":"Haibach","municipality":{"key":"09671124","name":"Haibach","type":"Kreisangehörige_Gemeinde"},"district":{"key":"09671","name":"Aschaffenburg","type":"Landkreis"},"federalState":{"key":"09","name":"Bayern"}},{"name":"Ossingerstr.","postalCode":"94353","locality":"Haibach","municipality":{"key":"09278129","name":"Haibach","type":"Kreisangehörige_Gemeinde"},"district":{"key":"09278","name":"Straubing-Bogen","type":"Landkreis"},"federalState":{"key":"09","name":"Bayern"}},{"name":"Panoramaweg","postalCode":"79837","locality":"Ibach","municipality":{"key":"08337059","name":"Ibach","type":"Kreisangehörige_Gemeinde"},"district":{"key":"08337","name":"Waldshut","type":"Landkreis"},"federalState":{"key":"08","name":"Baden-Württemberg"}},{"name":"Panoramaweg J1","postalCode":"79837","locality":"Ibach","municipality":{"key":"08337059","name":"Ibach","type":"Kreisangehörige_Gemeinde"},"district":{"key":"08337","name":"Waldshut","type":"Landkreis"},"federalState":{"key":"08","name":"Baden-Württemberg"}},{"name":"Paul-Gerhardt-Str.","postalCode":"63808","locality":"Haibach","municipality":{"key":"09671124","name":"Haibach","type":"Kreisangehörige_Gemeinde"},"district":{"key":"09671","name":"Aschaffenburg","type":"Landkreis"},"federalState":{"key":"09","name":"Bayern"}},{"name":"Pechlergasse","postalCode":"93476","locality":"Blaibach","municipality":{"key":"09372115","name":"Blaibach","type":"Kreisangehörige_Gemeinde"},"district":{"key":"09372","name":"Cham","type":"Landkreis"},"federalState":{"key":"09","name":"Bayern"}},{"name":"Pfarrerbergweg","postalCode":"94353","locality":"Haibach","municipality":{"key":"09278129","name":"Haibach","type":"Kreisangehörige_Gemeinde"},"district":{"key":"09278","name":"Straubing-Bogen","type":"Landkreis"},"federalState":{"key":"09","name":"Bayern"}},{"name":"Pinselgraben","postalCode":"93476","locality":"Blaibach","municipality":{"key":"09372115","name":"Blaibach","type":"Kreisangehörige_Gemeinde"},"district":{"key":"09372","name":"Cham","type":"Landkreis"},"federalState":{"key":"09","name":"Bayern"}},{"name":"Pürgler Str.","postalCode":"94353","locality":"Haibach","municipality":{"key":"09278129","name":"Haibach","type":"Kreisangehörige_Gemeinde"},"district":{"key":"09278","name":"Straubing-Bogen","type":"Landkreis"},"federalState":{"key":"09","name":"Bayern"}},{"name":"Quellenweg","postalCode":"79837","locality":"Ibach","municipality":{"key":"08337059","name":"Ibach","type":"Kreisangehörige_Gemeinde"},"district":{"key":"08337","name":"Waldshut","type":"Landkreis"},"federalState":{"key":"08","name":"Baden-Württemberg"}},{"name":"Ramsenlochweg","postalCode":"79837","locality":"Ibach","municipality":{"key":"08337059","name":"Ibach","type":"Kreisangehörige_Gemeinde"},"district":{"key":"08337","name":"Waldshut","type":"Landkreis"},"federalState":{"key":"08","name":"Baden-Württemberg"}},{"name":"Rathausstr.","postalCode":"63808","locality":"Haibach","municipality":{"key":"09671124","name":"Haibach","type":"Kreisangehörige_Gemeinde"},"district":{"key":"09671","name":"Aschaffenburg","type":"Landkreis"},"federalState":{"key":"09","name":"Bayern"}},{"name":"Riemenschneiderstr.","postalCode":"63808","locality":"Haibach","municipality":{"key":"09671124","name":"Haibach","type":"Kreisangehörige_Gemeinde"},"district":{"key":"09671","name":"Aschaffenburg","type":"Landkreis"},"federalState":{"key":"09","name":"Bayern"}},{"name":"Ringstr.","postalCode":"63808","locality":"Haibach","municipality":{"key":"09671124","name":"Haibach","type":"Kreisangehörige_Gemeinde"},"district":{"key":"09671","name":"Aschaffenburg","type":"Landkreis"},"federalState":{"key":"09","name":"Bayern"}},{"name":"Ringwallstr.","postalCode":"63808","locality":"Haibach","municipality":{"key":"09671124","name":"Haibach","type":"Kreisangehörige_Gemeinde"},"district":{"key":"09671","name":"Aschaffenburg","type":"Landkreis"},"federalState":{"key":"09","name":"Bayern"}},{"name":"Ritterstr.","postalCode":"63808","locality":"Haibach","municipality":{"key":"09671124","name":"Haibach","type":"Kreisangehörige_Gemeinde"},"district":{"key":"09671","name":"Aschaffenburg","type":"Landkreis"},"federalState":{"key":"09","name":"Bayern"}},{"name":"Rohrbachstr.","postalCode":"63808","locality":"Haibach","municipality":{"key":"09671124","name":"Haibach","type":"Kreisangehörige_Gemeinde"},"district":{"key":"09671","name":"Aschaffenburg","type":"Landkreis"},"federalState":{"key":"09","name":"Bayern"}},{"name":"Rohrwies","postalCode":"93476","locality":"Blaibach","municipality":{"key":"09372115","name":"Blaibach","type":"Kreisangehörige_Gemeinde"},"district":{"key":"09372","name":"Cham","type":"Landkreis"},"federalState":{"key":"09","name":"Bayern"}},{"name":"Rosenstr.","postalCode":"63808","locality":"Haibach","municipality":{"key":"09671124","name":"Haibach","type":"Kreisangehörige_Gemeinde"},"district":{"key":"09671","name":"Aschaffenburg","type":"Landkreis"},"federalState":{"key":"09","name":"Bayern"}},{"name":"Rothstr.","postalCode":"63808","locality":"Haibach","municipality":{"key":"09671124","name":"Haibach","type":"Kreisangehörige_Gemeinde"},"district":{"key":"09671","name":"Aschaffenburg","type":"Landkreis"},"federalState":{"key":"09","name":"Bayern"}},{"name":"Rudolf-Harbig-Str.","postalCode":"63808","locality":"Haibach","municipality":{"key":"09671124","name":"Haibach","type":"Kreisangehörige_Gemeinde"},"district":{"key":"09671","name":"Aschaffenburg","type":"Landkreis"},"federalState":{"key":"09","name":"Bayern"}},{"name":"Rüttewaldkopfweg","postalCode":"79837","locality":"Ibach","municipality":{"key":"08337059","name":"Ibach","type":"Kreisangehörige_Gemeinde"},"district":{"key":"08337","name":"Waldshut","type":"Landkreis"},"federalState":{"key":"08","name":"Baden-Württemberg"}},{"name":"Saeghölzleweg","postalCode":"79837","locality":"Ibach","municipality":{"key":"08337059","name":"Ibach","type":"Kreisangehörige_Gemeinde"},"district":{"key":"08337","name":"Waldshut","type":"Landkreis"},"federalState":{"key":"08","name":"Baden-Württemberg"}},{"name":"Sägenweg","postalCode":"79837","locality":"Ibach","municipality":{"key":"08337059","name":"Ibach","type":"Kreisangehörige_Gemeinde"},"district":{"key":"08337","name":"Waldshut","type":"Landkreis"},"federalState":{"key":"08","name":"Baden-Württemberg"}},{"name":"Sälleseite","postalCode":"63808","locality":"Haibach","municipality":{"key":"09671124","name":"Haibach","type":"Kreisangehörige_Gemeinde"},"district":{"key":"09671","name":"Aschaffenburg","type":"Landkreis"},"federalState":{"key":"09","name":"Bayern"}},{"name":"Schäferstr.","postalCode":"63808","locality":"Haibach","municipality":{"key":"09671124","name":"Haibach","type":"Kreisangehörige_Gemeinde"},"district":{"key":"09671","name":"Aschaffenburg","type":"Landkreis"},"federalState":{"key":"09","name":"Bayern"}},{"name":"Schillerstr.","postalCode":"63808","locality":"Haibach","municipality":{"key":"09671124","name":"Haibach","type":"Kreisangehörige_Gemeinde"},"district":{"key":"09671","name":"Aschaffenburg","type":"Landkreis"},"federalState":{"key":"09","name":"Bayern"}},{"name":"Schloßleiten","postalCode":"93476","locality":"Blaibach","municipality":{"key":"09372115","name":"Blaibach","type":"Kreisangehörige_Gemeinde"},"district":{"key":"09372","name":"Cham","type":"Landkreis"},"federalState":{"key":"09","name":"Bayern"}},{"name":"Schmiedgasse","postalCode":"94353","locality":"Haibach","municipality":{"key":"09278129","name":"Haibach","type":"Kreisangehörige_Gemeinde"},"district":{"key":"09278","name":"Straubing-Bogen","type":"Landkreis"},"federalState":{"key":"09","name":"Bayern"}},{"name":"Schollstr.","postalCode":"63808","locality":"Haibach","municipality":{"key":"09671124","name":"Haibach","type":"Kreisangehörige_Gemeinde"},"district":{"key":"09671","name":"Aschaffenburg","type":"Landkreis"},"federalState":{"key":"09","name":"Bayern"}},{"name":"Schrittwaldweg","postalCode":"79837","locality":"Ibach","municipality":{"key":"08337059","name":"Ibach","type":"Kreisangehörige_Gemeinde"},"district":{"key":"08337","name":"Waldshut","type":"Landkreis"},"federalState":{"key":"08","name":"Baden-Württemberg"}},{"name":"Schubertstr.","postalCode":"63808","locality":"Haibach","municipality":{"key":"09671124","name":"Haibach","type":"Kreisangehörige_Gemeinde"},"district":{"key":"09671","name":"Aschaffenburg","type":"Landkreis"},"federalState":{"key":"09","name":"Bayern"}},{"name":"Schulbühl","postalCode":"79837","locality":"Ibach","municipality":{"key":"08337059","name":"Ibach","type":"Kreisangehörige_Gemeinde"},"district":{"key":"08337","name":"Waldshut","type":"Landkreis"},"federalState":{"key":"08","name":"Baden-Württemberg"}},{"name":"Schulstr.","postalCode":"63808","locality":"Haibach","municipality":{"key":"09671124","name":"Haibach","type":"Kreisangehörige_Gemeinde"},"district":{"key":"09671","name":"Aschaffenburg","type":"Landkreis"},"federalState":{"key":"09","name":"Bayern"}},{"name":"Schusterberg","postalCode":"93476","locality":"Blaibach","municipality":{"key":"09372115","name":"Blaibach","type":"Kreisangehörige_Gemeinde"},"district":{"key":"09372","name":"Cham","type":"Landkreis"},"federalState":{"key":"09","name":"Bayern"}},{"name":"Schwalbengrube","postalCode":"63808","locality":"Haibach","municipality":{"key":"09671124","name":"Haibach","type":"Kreisangehörige_Gemeinde"},"district":{"key":"09671","name":"Aschaffenburg","type":"Landkreis"},"federalState":{"key":"09","name":"Bayern"}},{"name":"Schwammattweg","postalCode":"79837","locality":"Ibach","municipality":{"key":"08337059","name":"Ibach","type":"Kreisangehörige_Gemeinde"},"district":{"key":"08337","name":"Waldshut","type":"Landkreis"},"federalState":{"key":"08","name":"Baden-Württemberg"}},{"name":"Schwyz","postalCode":"79837","locality":"Ibach","municipality":{"key":"08337059","name":"Ibach","type":"Kreisangehörige_Gemeinde"},"district":{"key":"08337","name":"Waldshut","type":"Landkreis"},"federalState":{"key":"08","name":"Baden-Württemberg"}},{"name":"Seitzenäcker","postalCode":"63808","locality":"Haibach","municipality":{"key":"09671124","name":"Haibach","type":"Kreisangehörige_Gemeinde"},"district":{"key":"09671","name":"Aschaffenburg","type":"Landkreis"},"federalState":{"key":"09","name":"Bayern"}},{"name":"Sommerackerweg","postalCode":"63808","locality":"Haibach","municipality":{"key":"09671124","name":"Haibach","type":"Kreisangehörige_Gemeinde"},"district":{"key":"09671","name":"Aschaffenburg","type":"Landkreis"},"federalState":{"key":"09","name":"Bayern"}},{"name":"Sommerbergstr.","postalCode":"94353","locality":"Haibach","municipality":{"key":"09278129","name":"Haibach","type":"Kreisangehörige_Gemeinde"},"district":{"key":"09278","name":"Straubing-Bogen","type":"Landkreis"},"federalState":{"key":"09","name":"Bayern"}},{"name":"Sonnenstr.","postalCode":"63808","locality":"Haibach","municipality":{"key":"09671124","name":"Haibach","type":"Kreisangehörige_Gemeinde"},"district":{"key":"09671","name":"Aschaffenburg","type":"Landkreis"},"federalState":{"key":"09","name":"Bayern"}},{"name":"Spessartblick","postalCode":"63808","locality":"Haibach","municipality":{"key":"09671124","name":"Haibach","type":"Kreisangehörige_Gemeinde"},"district":{"key":"09671","name":"Aschaffenburg","type":"Landkreis"},"federalState":{"key":"09","name":"Bayern"}},{"name":"Spessartstr.","postalCode":"63808","locality":"Haibach","municipality":{"key":"09671124","name":"Haibach","type":"Kreisangehörige_Gemeinde"},"district":{"key":"09671","name":"Aschaffenburg","type":"Landkreis"},"federalState":{"key":"09","name":"Bayern"}},{"name":"Sponackerweg","postalCode":"63808","locality":"Haibach","municipality":{"key":"09671124","name":"Haibach","type":"Kreisangehörige_Gemeinde"},"district":{"key":"09671","name":"Aschaffenburg","type":"Landkreis"},"federalState":{"key":"09","name":"Bayern"}},{"name":"Sportfeldstr.","postalCode":"63808","locality":"Haibach","municipality":{"key":"09671124","name":"Haibach","type":"Kreisangehörige_Gemeinde"},"district":{"key":"09671","name":"Aschaffenburg","type":"Landkreis"},"federalState":{"key":"09","name":"Bayern"}},{"name":"Steigass","postalCode":"79837","locality":"Ibach","municipality":{"key":"08337059","name":"Ibach","type":"Kreisangehörige_Gemeinde"},"district":{"key":"08337","name":"Waldshut","type":"Landkreis"},"federalState":{"key":"08","name":"Baden-Württemberg"}},{"name":"Steinfurter Str.","postalCode":"94353","locality":"Haibach","municipality":{"key":"09278129","name":"Haibach","type":"Kreisangehörige_Gemeinde"},"district":{"key":"09278","name":"Straubing-Bogen","type":"Landkreis"},"federalState":{"key":"09","name":"Bayern"}},{"name":"Steinhaldenweg","postalCode":"79837","locality":"Ibach","municipality":{"key":"08337059","name":"Ibach","type":"Kreisangehörige_Gemeinde"},"district":{"key":"08337","name":"Waldshut","type":"Landkreis"},"federalState":{"key":"08","name":"Baden-Württemberg"}},{"name":"Steinhauerweg","postalCode":"93476","locality":"Blaibach","municipality":{"key":"09372115","name":"Blaibach","type":"Kreisangehörige_Gemeinde"},"district":{"key":"09372","name":"Cham","type":"Landkreis"},"federalState":{"key":"09","name":"Bayern"}},{"name":"Steinstr.","postalCode":"93476","locality":"Blaibach","municipality":{"key":"09372115","name":"Blaibach","type":"Kreisangehörige_Gemeinde"},"district":{"key":"09372","name":"Cham","type":"Landkreis"},"federalState":{"key":"09","name":"Bayern"}},{"name":"St.-Elisabeth-Str.","postalCode":"94353","locality":"Haibach","municipality":{"key":"09278129","name":"Haibach","type":"Kreisangehörige_Gemeinde"},"district":{"key":"09278","name":"Straubing-Bogen","type":"Landkreis"},"federalState":{"key":"09","name":"Bayern"}},{"name":"Straubinger Str.","postalCode":"94353","locality":"Haibach","municipality":{"key":"09278129","name":"Haibach","type":"Kreisangehörige_Gemeinde"},"district":{"key":"09278","name":"Straubing-Bogen","type":"Landkreis"},"federalState":{"key":"09","name":"Bayern"}},{"name":"Tempelhofstr.","postalCode":"94353","locality":"Haibach","municipality":{"key":"09278129","name":"Haibach","type":"Kreisangehörige_Gemeinde"},"district":{"key":"09278","name":"Straubing-Bogen","type":"Landkreis"},"federalState":{"key":"09","name":"Bayern"}},{"name":"Ulmenstr.","postalCode":"63808","locality":"Haibach","municipality":{"key":"09671124","name":"Haibach","type":"Kreisangehörige_Gemeinde"},"district":{"key":"09671","name":"Aschaffenburg","type":"Landkreis"},"federalState":{"key":"09","name":"Bayern"}},{"name":"Umgehungsstr.","postalCode":"93476","locality":"Blaibach","municipality":{"key":"09372115","name":"Blaibach","type":"Kreisangehörige_Gemeinde"},"district":{"key":"09372","name":"Cham","type":"Landkreis"},"federalState":{"key":"09","name":"Bayern"}},{"name":"Unterer Schusterberg","postalCode":"93476","locality":"Blaibach","municipality":{"key":"09372115","name":"Blaibach","type":"Kreisangehörige_Gemeinde"},"district":{"key":"09372","name":"Cham","type":"Landkreis"},"federalState":{"key":"09","name":"Bayern"}},{"name":"Unteres Dorf","postalCode":"93476","locality":"Blaibach","municipality":{"key":"09372115","name":"Blaibach","type":"Kreisangehörige_Gemeinde"},"district":{"key":"09372","name":"Cham","type":"Landkreis"},"federalState":{"key":"09","name":"Bayern"}},{"name":"Veit-Höser-Str.","postalCode":"94353","locality":"Haibach","municipality":{"key":"09278129","name":"Haibach","type":"Kreisangehörige_Gemeinde"},"district":{"key":"09278","name":"Straubing-Bogen","type":"Landkreis"},"federalState":{"key":"09","name":"Bayern"}},{"name":"Vierhüttenweg","postalCode":"79837","locality":"Ibach","municipality":{"key":"08337059","name":"Ibach","type":"Kreisangehörige_Gemeinde"},"district":{"key":"08337","name":"Waldshut","type":"Landkreis"},"federalState":{"key":"08","name":"Baden-Württemberg"}},{"name":"Vorderer Langhaldenweg","postalCode":"79837","locality":"Ibach","municipality":{"key":"08337059","name":"Ibach","type":"Kreisangehörige_Gemeinde"},"district":{"key":"08337","name":"Waldshut","type":"Landkreis"},"federalState":{"key":"08","name":"Baden-Württemberg"}},{"name":"Vorderes Feld","postalCode":"79837","locality":"Ibach","municipality":{"key":"08337059","name":"Ibach","type":"Kreisangehörige_Gemeinde"},"district":{"key":"08337","name":"Waldshut","type":"Landkreis"},"federalState":{"key":"08","name":"Baden-Württemberg"}},{"name":"Waldhornstr.","postalCode":"63808","locality":"Haibach","municipality":{"key":"09671124","name":"Haibach","type":"Kreisangehörige_Gemeinde"},"district":{"key":"09671","name":"Aschaffenburg","type":"Landkreis"},"federalState":{"key":"09","name":"Bayern"}},{"name":"Waldstr.","postalCode":"63808","locality":"Haibach","municipality":{"key":"09671124","name":"Haibach","type":"Kreisangehörige_Gemeinde"},"district":{"key":"09671","name":"Aschaffenburg","type":"Landkreis"},"federalState":{"key":"09","name":"Bayern"}},{"name":"WaldWipfelWeg","postalCode":"94353","locality":"Haibach","municipality":{"key":"09278129","name":"Haibach","type":"Kreisangehörige_Gemeinde"},"district":{"key":"09278","name":"Straubing-Bogen","type":"Landkreis"},"federalState":{"key":"09","name":"Bayern"}},{"name":"Weingartener Str.","postalCode":"94353","locality":"Haibach","municipality":{"key":"09278129","name":"Haibach","type":"Kreisangehörige_Gemeinde"},"district":{"key":"09278","name":"Straubing-Bogen","type":"Landkreis"},"federalState":{"key":"09","name":"Bayern"}},{"name":"Wenzelgasse","postalCode":"63808","locality":"Haibach","municipality":{"key":"09671124","name":"Haibach","type":"Kreisangehörige_Gemeinde"},"district":{"key":"09671","name":"Aschaffenburg","type":"Landkreis"},"federalState":{"key":"09","name":"Bayern"}},{"name":"Westendstr.","postalCode":"63808","locality":"Haibach","municipality":{"key":"09671124","name":"Haibach","type":"Kreisangehörige_Gemeinde"},"district":{"key":"09671","name":"Aschaffenburg","type":"Landkreis"},"federalState":{"key":"09","name":"Bayern"}},{"name":"Wiesenstr.","postalCode":"63808","locality":"Haibach","municipality":{"key":"09671124","name":"Haibach","type":"Kreisangehörige_Gemeinde"},"district":{"key":"09671","name":"Aschaffenburg","type":"Landkreis"},"federalState":{"key":"09","name":"Bayern"}},{"name":"Wiesenweg","postalCode":"79837","locality":"Ibach","municipality":{"key":"08337059","name":"Ibach","type":"Kreisangehörige_Gemeinde"},"district":{"key":"08337","name":"Waldshut","type":"Landkreis"},"federalState":{"key":"08","name":"Baden-Württemberg"}},{"name":"Windschnur","postalCode":"94353","locality":"Haibach","municipality":{"key":"09278129","name":"Haibach","type":"Kreisangehörige_Gemeinde"},"district":{"key":"09278","name":"Straubing-Bogen","type":"Landkreis"},"federalState":{"key":"09","name":"Bayern"}},{"name":"Winzenhohler Str.","postalCode":"63808","locality":"Haibach","municipality":{"key":"09671124","name":"Haibach","type":"Kreisangehörige_Gemeinde"},"district":{"key":"09671","name":"Aschaffenburg","type":"Landkreis"},"federalState":{"key":"09","name":"Bayern"}},{"name":"Wirntoweg","postalCode":"94353","locality":"Haibach","municipality":{"key":"09278129","name":"Haibach","type":"Kreisangehörige_Gemeinde"},"district":{"key":"09278","name":"Straubing-Bogen","type":"Landkreis"},"federalState":{"key":"09","name":"Bayern"}},{"name":"Würzburger Str.","postalCode":"63808","locality":"Haibach","municipality":{"key":"09671124","name":"Haibach","type":"Kreisangehörige_Gemeinde"},"district":{"key":"09671","name":"Aschaffenburg","type":"Landkreis"},"federalState":{"key":"09","name":"Bayern"}},{"name":"Zeilbergstr.","postalCode":"63808","locality":"Haibach","municipality":{"key":"09671124","name":"Haibach","type":"Kreisangehörige_Gemeinde"},"district":{"key":"09671","name":"Aschaffenburg","type":"Landkreis"},"federalState":{"key":"09","name":"Bayern"}},{"name":"Zu den drei Kreuzen","postalCode":"63808","locality":"Haibach","municipality":{"key":"09671124","name":"Haibach","type":"Kreisangehörige_Gemeinde"},"district":{"key":"09671","name":"Aschaffenburg","type":"Landkreis"},"federalState":{"key":"09","name":"Bayern"}},{"name":"Zu den Honigäckern","postalCode":"63808","locality":"Haibach","municipality":{"key":"09671124","name":"Haibach","type":"Kreisangehörige_Gemeinde"},"district":{"key":"09671","name":"Aschaffenburg","type":"Landkreis"},"federalState":{"key":"09","name":"Bayern"}},{"name":"Zum Hasenstock","postalCode":"63808","locality":"Haibach","municipality":{"key":"09671124","name":"Haibach","type":"Kreisangehörige_Gemeinde"},"district":{"key":"09671","name":"Aschaffenburg","type":"Landkreis"},"federalState":{"key":"09","name":"Bayern"}},{"name":"Zum Stadion","postalCode":"63808","locality":"Haibach","municipality":{"key":"09671124","name":"Haibach","type":"Kreisangehörige_Gemeinde"},"district":{"key":"09671","name":"Aschaffenburg","type":"Landkreis"},"federalState":{"key":"09","name":"Bayern"}},{"name":"Zur Holzwiese","postalCode":"63808","locality":"Haibach","municipality":{"key":"09671124","name":"Haibach","type":"Kreisangehörige_Gemeinde"},"district":{"key":"09671","name":"Aschaffenburg","type":"Landkreis"},"federalState":{"key":"09","name":"Bayern"}},{"name":"Zur Säge","postalCode":"79837","locality":"Ibach","municipality":{"key":"08337059","name":"Ibach","type":"Kreisangehörige_Gemeinde"},"district":{"key":"08337","name":"Waldshut","type":"Landkreis"},"federalState":{"key":"08","name":"Baden-Württemberg"}},{"name":"Äuleweg","postalCode":"79761","locality":"Waldshut-Tiengen","municipality":{"key":"08337126","name":"Waldshut-Tiengen, Stadt","type":"Große_Kreisstadt"},"district":{"key":"08337","name":"Waldshut","type":"Landkreis"},"federalState":{"key":"08","name":"Baden-Württemberg"}},{"name":"Übertal","postalCode":"79761","locality":"Waldshut-Tiengen","municipality":{"key":"08337126","name":"Waldshut-Tiengen, Stadt","type":"Große_Kreisstadt"},"district":{"key":"08337","name":"Waldshut","type":"Landkreis"},"federalState":{"key":"08","name":"Baden-Württemberg"}},]