[{"name":"Afraweg","postalCode":"87463","locality":"Dietmannsried","municipality":{"key":"09780119","name":"Dietmannsried, M","type":"Markt"},"district":{"key":"09780","name":"Oberallgäu","type":"Landkreis"},"federalState":{"key":"09","name":"Bayern"}},{"name":"Ahornstr.","postalCode":"87463","locality":"Dietmannsried","municipality":{"key":"09780119","name":"Dietmannsried, M","type":"Markt"},"district":{"key":"09780","name":"Oberallgäu","type":"Landkreis"},"federalState":{"key":"09","name":"Bayern"}},{"name":"Albus","postalCode":"87463","locality":"Dietmannsried","municipality":{"key":"09780119","name":"Dietmannsried, M","type":"Markt"},"district":{"key":"09780","name":"Oberallgäu","type":"Landkreis"},"federalState":{"key":"09","name":"Bayern"}},{"name":"Allee","postalCode":"87463","locality":"Dietmannsried","municipality":{"key":"09780119","name":"Dietmannsried, M","type":"Markt"},"district":{"key":"09780","name":"Oberallgäu","type":"Landkreis"},"federalState":{"key":"09","name":"Bayern"}},{"name":"Allgäustr.","postalCode":"87463","locality":"Dietmannsried","municipality":{"key":"09780119","name":"Dietmannsried, M","type":"Markt"},"district":{"key":"09780","name":"Oberallgäu","type":"Landkreis"},"federalState":{"key":"09","name":"Bayern"}},{"name":"Alpenrosenweg","postalCode":"87463","locality":"Dietmannsried","municipality":{"key":"09780119","name":"Dietmannsried, M","type":"Markt"},"district":{"key":"09780","name":"Oberallgäu","type":"Landkreis"},"federalState":{"key":"09","name":"Bayern"}},{"name":"Alpenstr.","postalCode":"87463","locality":"Dietmannsried","municipality":{"key":"09780119","name":"Dietmannsried, M","type":"Markt"},"district":{"key":"09780","name":"Oberallgäu","type":"Landkreis"},"federalState":{"key":"09","name":"Bayern"}},{"name":"Alte Poststr.","postalCode":"87463","locality":"Dietmannsried","municipality":{"key":"09780119","name":"Dietmannsried, M","type":"Markt"},"district":{"key":"09780","name":"Oberallgäu","type":"Landkreis"},"federalState":{"key":"09","name":"Bayern"}},{"name":"Am Färberbach","postalCode":"87463","locality":"Dietmannsried","municipality":{"key":"09780119","name":"Dietmannsried, M","type":"Markt"},"district":{"key":"09780","name":"Oberallgäu","type":"Landkreis"},"federalState":{"key":"09","name":"Bayern"}},{"name":"Am Forsthaus","postalCode":"87463","locality":"Dietmannsried","municipality":{"key":"09780119","name":"Dietmannsried, M","type":"Markt"},"district":{"key":"09780","name":"Oberallgäu","type":"Landkreis"},"federalState":{"key":"09","name":"Bayern"}},{"name":"Am Inselweiher","postalCode":"87463","locality":"Dietmannsried","municipality":{"key":"09780119","name":"Dietmannsried, M","type":"Markt"},"district":{"key":"09780","name":"Oberallgäu","type":"Landkreis"},"federalState":{"key":"09","name":"Bayern"}},{"name":"Am Kalvarienberg","postalCode":"87463","locality":"Dietmannsried","municipality":{"key":"09780119","name":"Dietmannsried, M","type":"Markt"},"district":{"key":"09780","name":"Oberallgäu","type":"Landkreis"},"federalState":{"key":"09","name":"Bayern"}},{"name":"Am Leisenbühl","postalCode":"87463","locality":"Dietmannsried","municipality":{"key":"09780119","name":"Dietmannsried, M","type":"Markt"},"district":{"key":"09780","name":"Oberallgäu","type":"Landkreis"},"federalState":{"key":"09","name":"Bayern"}},{"name":"Am Reicholzrieder Moos","postalCode":"87463","locality":"Dietmannsried","municipality":{"key":"09780119","name":"Dietmannsried, M","type":"Markt"},"district":{"key":"09780","name":"Oberallgäu","type":"Landkreis"},"federalState":{"key":"09","name":"Bayern"}},{"name":"An der Halde","postalCode":"87463","locality":"Dietmannsried","municipality":{"key":"09780119","name":"Dietmannsried, M","type":"Markt"},"district":{"key":"09780","name":"Oberallgäu","type":"Landkreis"},"federalState":{"key":"09","name":"Bayern"}},{"name":"An der Kirche","postalCode":"87463","locality":"Dietmannsried","municipality":{"key":"09780119","name":"Dietmannsried, M","type":"Markt"},"district":{"key":"09780","name":"Oberallgäu","type":"Landkreis"},"federalState":{"key":"09","name":"Bayern"}},{"name":"An der Steige","postalCode":"87463","locality":"Dietmannsried","municipality":{"key":"09780119","name":"Dietmannsried, M","type":"Markt"},"district":{"key":"09780","name":"Oberallgäu","type":"Landkreis"},"federalState":{"key":"09","name":"Bayern"}},{"name":"An der Wilhelmshöhe","postalCode":"87463","locality":"Dietmannsried","municipality":{"key":"09780119","name":"Dietmannsried, M","type":"Markt"},"district":{"key":"09780","name":"Oberallgäu","type":"Landkreis"},"federalState":{"key":"09","name":"Bayern"}},{"name":"Anton-Wintergerst-Str.","postalCode":"87463","locality":"Dietmannsried","municipality":{"key":"09780119","name":"Dietmannsried, M","type":"Markt"},"district":{"key":"09780","name":"Oberallgäu","type":"Landkreis"},"federalState":{"key":"09","name":"Bayern"}},{"name":"Appenmoosstr.","postalCode":"87463","locality":"Dietmannsried","municipality":{"key":"09780119","name":"Dietmannsried, M","type":"Markt"},"district":{"key":"09780","name":"Oberallgäu","type":"Landkreis"},"federalState":{"key":"09","name":"Bayern"}},{"name":"Atzenberg","postalCode":"87463","locality":"Dietmannsried","municipality":{"key":"09780119","name":"Dietmannsried, M","type":"Markt"},"district":{"key":"09780","name":"Oberallgäu","type":"Landkreis"},"federalState":{"key":"09","name":"Bayern"}},{"name":"Bahnhofstr.","postalCode":"87463","locality":"Dietmannsried","municipality":{"key":"09780119","name":"Dietmannsried, M","type":"Markt"},"district":{"key":"09780","name":"Oberallgäu","type":"Landkreis"},"federalState":{"key":"09","name":"Bayern"}},{"name":"Bahnweg","postalCode":"87463","locality":"Dietmannsried","municipality":{"key":"09780119","name":"Dietmannsried, M","type":"Markt"},"district":{"key":"09780","name":"Oberallgäu","type":"Landkreis"},"federalState":{"key":"09","name":"Bayern"}},{"name":"Bärenwies","postalCode":"87463","locality":"Dietmannsried","municipality":{"key":"09780119","name":"Dietmannsried, M","type":"Markt"},"district":{"key":"09780","name":"Oberallgäu","type":"Landkreis"},"federalState":{"key":"09","name":"Bayern"}},{"name":"Baumeisterstr.","postalCode":"87463","locality":"Dietmannsried","municipality":{"key":"09780119","name":"Dietmannsried, M","type":"Markt"},"district":{"key":"09780","name":"Oberallgäu","type":"Landkreis"},"federalState":{"key":"09","name":"Bayern"}},{"name":"Beim Landerer","postalCode":"87463","locality":"Dietmannsried","municipality":{"key":"09780119","name":"Dietmannsried, M","type":"Markt"},"district":{"key":"09780","name":"Oberallgäu","type":"Landkreis"},"federalState":{"key":"09","name":"Bayern"}},{"name":"Bergstr.","postalCode":"87463","locality":"Dietmannsried","municipality":{"key":"09780119","name":"Dietmannsried, M","type":"Markt"},"district":{"key":"09780","name":"Oberallgäu","type":"Landkreis"},"federalState":{"key":"09","name":"Bayern"}},{"name":"Bildhauerweg","postalCode":"87463","locality":"Dietmannsried","municipality":{"key":"09780119","name":"Dietmannsried, M","type":"Markt"},"district":{"key":"09780","name":"Oberallgäu","type":"Landkreis"},"federalState":{"key":"09","name":"Bayern"}},{"name":"Birkenweg","postalCode":"87463","locality":"Dietmannsried","municipality":{"key":"09780119","name":"Dietmannsried, M","type":"Markt"},"district":{"key":"09780","name":"Oberallgäu","type":"Landkreis"},"federalState":{"key":"09","name":"Bayern"}},{"name":"Blasiusweg","postalCode":"87463","locality":"Dietmannsried","municipality":{"key":"09780119","name":"Dietmannsried, M","type":"Markt"},"district":{"key":"09780","name":"Oberallgäu","type":"Landkreis"},"federalState":{"key":"09","name":"Bayern"}},{"name":"Blumenstr.","postalCode":"87463","locality":"Dietmannsried","municipality":{"key":"09780119","name":"Dietmannsried, M","type":"Markt"},"district":{"key":"09780","name":"Oberallgäu","type":"Landkreis"},"federalState":{"key":"09","name":"Bayern"}},{"name":"Buchen","postalCode":"87463","locality":"Dietmannsried","municipality":{"key":"09780119","name":"Dietmannsried, M","type":"Markt"},"district":{"key":"09780","name":"Oberallgäu","type":"Landkreis"},"federalState":{"key":"09","name":"Bayern"}},{"name":"Burgweg","postalCode":"87463","locality":"Dietmannsried","municipality":{"key":"09780119","name":"Dietmannsried, M","type":"Markt"},"district":{"key":"09780","name":"Oberallgäu","type":"Landkreis"},"federalState":{"key":"09","name":"Bayern"}},{"name":"Bussardweg","postalCode":"87463","locality":"Dietmannsried","municipality":{"key":"09780119","name":"Dietmannsried, M","type":"Markt"},"district":{"key":"09780","name":"Oberallgäu","type":"Landkreis"},"federalState":{"key":"09","name":"Bayern"}},{"name":"Corneliusweg","postalCode":"87463","locality":"Dietmannsried","municipality":{"key":"09780119","name":"Dietmannsried, M","type":"Markt"},"district":{"key":"09780","name":"Oberallgäu","type":"Landkreis"},"federalState":{"key":"09","name":"Bayern"}},{"name":"Cypriansweg","postalCode":"87463","locality":"Dietmannsried","municipality":{"key":"09780119","name":"Dietmannsried, M","type":"Markt"},"district":{"key":"09780","name":"Oberallgäu","type":"Landkreis"},"federalState":{"key":"09","name":"Bayern"}},{"name":"Dietmarstr.","postalCode":"87463","locality":"Dietmannsried","municipality":{"key":"09780119","name":"Dietmannsried, M","type":"Markt"},"district":{"key":"09780","name":"Oberallgäu","type":"Landkreis"},"federalState":{"key":"09","name":"Bayern"}},{"name":"Eberhardstr.","postalCode":"87463","locality":"Dietmannsried","municipality":{"key":"09780119","name":"Dietmannsried, M","type":"Markt"},"district":{"key":"09780","name":"Oberallgäu","type":"Landkreis"},"federalState":{"key":"09","name":"Bayern"}},{"name":"Edelweißweg","postalCode":"87463","locality":"Dietmannsried","municipality":{"key":"09780119","name":"Dietmannsried, M","type":"Markt"},"district":{"key":"09780","name":"Oberallgäu","type":"Landkreis"},"federalState":{"key":"09","name":"Bayern"}},{"name":"Eichenstr.","postalCode":"87463","locality":"Dietmannsried","municipality":{"key":"09780119","name":"Dietmannsried, M","type":"Markt"},"district":{"key":"09780","name":"Oberallgäu","type":"Landkreis"},"federalState":{"key":"09","name":"Bayern"}},{"name":"Enzianweg","postalCode":"87463","locality":"Dietmannsried","municipality":{"key":"09780119","name":"Dietmannsried, M","type":"Markt"},"district":{"key":"09780","name":"Oberallgäu","type":"Landkreis"},"federalState":{"key":"09","name":"Bayern"}},{"name":"Eschenallee","postalCode":"87463","locality":"Dietmannsried","municipality":{"key":"09780119","name":"Dietmannsried, M","type":"Markt"},"district":{"key":"09780","name":"Oberallgäu","type":"Landkreis"},"federalState":{"key":"09","name":"Bayern"}},{"name":"Fackelsberg","postalCode":"87463","locality":"Dietmannsried","municipality":{"key":"09780119","name":"Dietmannsried, M","type":"Markt"},"district":{"key":"09780","name":"Oberallgäu","type":"Landkreis"},"federalState":{"key":"09","name":"Bayern"}},{"name":"Falkenweg","postalCode":"87463","locality":"Dietmannsried","municipality":{"key":"09780119","name":"Dietmannsried, M","type":"Markt"},"district":{"key":"09780","name":"Oberallgäu","type":"Landkreis"},"federalState":{"key":"09","name":"Bayern"}},{"name":"Fellenbergstr.","postalCode":"87463","locality":"Dietmannsried","municipality":{"key":"09780119","name":"Dietmannsried, M","type":"Markt"},"district":{"key":"09780","name":"Oberallgäu","type":"Landkreis"},"federalState":{"key":"09","name":"Bayern"}},{"name":"Fischerweg","postalCode":"87463","locality":"Dietmannsried","municipality":{"key":"09780119","name":"Dietmannsried, M","type":"Markt"},"district":{"key":"09780","name":"Oberallgäu","type":"Landkreis"},"federalState":{"key":"09","name":"Bayern"}},{"name":"Florianweg","postalCode":"87463","locality":"Dietmannsried","municipality":{"key":"09780119","name":"Dietmannsried, M","type":"Markt"},"district":{"key":"09780","name":"Oberallgäu","type":"Landkreis"},"federalState":{"key":"09","name":"Bayern"}},{"name":"Föhrenschachenweg","postalCode":"87463","locality":"Dietmannsried","municipality":{"key":"09780119","name":"Dietmannsried, M","type":"Markt"},"district":{"key":"09780","name":"Oberallgäu","type":"Landkreis"},"federalState":{"key":"09","name":"Bayern"}},{"name":"Friedrich-Fröbel-Weg","postalCode":"87463","locality":"Dietmannsried","municipality":{"key":"09780119","name":"Dietmannsried, M","type":"Markt"},"district":{"key":"09780","name":"Oberallgäu","type":"Landkreis"},"federalState":{"key":"09","name":"Bayern"}},{"name":"Fuggerstr.","postalCode":"87463","locality":"Dietmannsried","municipality":{"key":"09780119","name":"Dietmannsried, M","type":"Markt"},"district":{"key":"09780","name":"Oberallgäu","type":"Landkreis"},"federalState":{"key":"09","name":"Bayern"}},{"name":"Fürstenstr.","postalCode":"87463","locality":"Dietmannsried","municipality":{"key":"09780119","name":"Dietmannsried, M","type":"Markt"},"district":{"key":"09780","name":"Oberallgäu","type":"Landkreis"},"federalState":{"key":"09","name":"Bayern"}},{"name":"Gabriel-Vogt-Str.","postalCode":"87463","locality":"Dietmannsried","municipality":{"key":"09780119","name":"Dietmannsried, M","type":"Markt"},"district":{"key":"09780","name":"Oberallgäu","type":"Landkreis"},"federalState":{"key":"09","name":"Bayern"}},{"name":"Gallusweg","postalCode":"87463","locality":"Dietmannsried","municipality":{"key":"09780119","name":"Dietmannsried, M","type":"Markt"},"district":{"key":"09780","name":"Oberallgäu","type":"Landkreis"},"federalState":{"key":"09","name":"Bayern"}},{"name":"Gartenstr.","postalCode":"87463","locality":"Dietmannsried","municipality":{"key":"09780119","name":"Dietmannsried, M","type":"Markt"},"district":{"key":"09780","name":"Oberallgäu","type":"Landkreis"},"federalState":{"key":"09","name":"Bayern"}},{"name":"Geschwister-Roth-Str.","postalCode":"87463","locality":"Dietmannsried","municipality":{"key":"09780119","name":"Dietmannsried, M","type":"Markt"},"district":{"key":"09780","name":"Oberallgäu","type":"Landkreis"},"federalState":{"key":"09","name":"Bayern"}},{"name":"Göhlmühle","postalCode":"87463","locality":"Dietmannsried","municipality":{"key":"09780119","name":"Dietmannsried, M","type":"Markt"},"district":{"key":"09780","name":"Oberallgäu","type":"Landkreis"},"federalState":{"key":"09","name":"Bayern"}},{"name":"Graben","postalCode":"87463","locality":"Dietmannsried","municipality":{"key":"09780119","name":"Dietmannsried, M","type":"Markt"},"district":{"key":"09780","name":"Oberallgäu","type":"Landkreis"},"federalState":{"key":"09","name":"Bayern"}},{"name":"Grafeneggstr.","postalCode":"87463","locality":"Dietmannsried","municipality":{"key":"09780119","name":"Dietmannsried, M","type":"Markt"},"district":{"key":"09780","name":"Oberallgäu","type":"Landkreis"},"federalState":{"key":"09","name":"Bayern"}},{"name":"Grönenbacher Str.","postalCode":"87463","locality":"Dietmannsried","municipality":{"key":"09780119","name":"Dietmannsried, M","type":"Markt"},"district":{"key":"09780","name":"Oberallgäu","type":"Landkreis"},"federalState":{"key":"09","name":"Bayern"}},{"name":"Grüntenweg","postalCode":"87463","locality":"Dietmannsried","municipality":{"key":"09780119","name":"Dietmannsried, M","type":"Markt"},"district":{"key":"09780","name":"Oberallgäu","type":"Landkreis"},"federalState":{"key":"09","name":"Bayern"}},{"name":"Gschlavers","postalCode":"87463","locality":"Dietmannsried","municipality":{"key":"09780119","name":"Dietmannsried, M","type":"Markt"},"district":{"key":"09780","name":"Oberallgäu","type":"Landkreis"},"federalState":{"key":"09","name":"Bayern"}},{"name":"Habersbergstr.","postalCode":"87463","locality":"Dietmannsried","municipality":{"key":"09780119","name":"Dietmannsried, M","type":"Markt"},"district":{"key":"09780","name":"Oberallgäu","type":"Landkreis"},"federalState":{"key":"09","name":"Bayern"}},{"name":"Haldenwanger Str.","postalCode":"87463","locality":"Dietmannsried","municipality":{"key":"09780119","name":"Dietmannsried, M","type":"Markt"},"district":{"key":"09780","name":"Oberallgäu","type":"Landkreis"},"federalState":{"key":"09","name":"Bayern"}},{"name":"Haslachweg","postalCode":"87463","locality":"Dietmannsried","municipality":{"key":"09780119","name":"Dietmannsried, M","type":"Markt"},"district":{"key":"09780","name":"Oberallgäu","type":"Landkreis"},"federalState":{"key":"09","name":"Bayern"}},{"name":"Hauptstr.","postalCode":"87463","locality":"Dietmannsried","municipality":{"key":"09780119","name":"Dietmannsried, M","type":"Markt"},"district":{"key":"09780","name":"Oberallgäu","type":"Landkreis"},"federalState":{"key":"09","name":"Bayern"}},{"name":"Heisinger Str.","postalCode":"87463","locality":"Dietmannsried","municipality":{"key":"09780119","name":"Dietmannsried, M","type":"Markt"},"district":{"key":"09780","name":"Oberallgäu","type":"Landkreis"},"federalState":{"key":"09","name":"Bayern"}},{"name":"Henkelsweg","postalCode":"87463","locality":"Dietmannsried","municipality":{"key":"09780119","name":"Dietmannsried, M","type":"Markt"},"district":{"key":"09780","name":"Oberallgäu","type":"Landkreis"},"federalState":{"key":"09","name":"Bayern"}},{"name":"Hildegardisstr.","postalCode":"87463","locality":"Dietmannsried","municipality":{"key":"09780119","name":"Dietmannsried, M","type":"Markt"},"district":{"key":"09780","name":"Oberallgäu","type":"Landkreis"},"federalState":{"key":"09","name":"Bayern"}},{"name":"Hinterhalde","postalCode":"87463","locality":"Dietmannsried","municipality":{"key":"09780119","name":"Dietmannsried, M","type":"Markt"},"district":{"key":"09780","name":"Oberallgäu","type":"Landkreis"},"federalState":{"key":"09","name":"Bayern"}},{"name":"Hochgratweg","postalCode":"87463","locality":"Dietmannsried","municipality":{"key":"09780119","name":"Dietmannsried, M","type":"Markt"},"district":{"key":"09780","name":"Oberallgäu","type":"Landkreis"},"federalState":{"key":"09","name":"Bayern"}},{"name":"Hochvogelweg","postalCode":"87463","locality":"Dietmannsried","municipality":{"key":"09780119","name":"Dietmannsried, M","type":"Markt"},"district":{"key":"09780","name":"Oberallgäu","type":"Landkreis"},"federalState":{"key":"09","name":"Bayern"}},{"name":"Höfatsweg","postalCode":"87463","locality":"Dietmannsried","municipality":{"key":"09780119","name":"Dietmannsried, M","type":"Markt"},"district":{"key":"09780","name":"Oberallgäu","type":"Landkreis"},"federalState":{"key":"09","name":"Bayern"}},{"name":"Hohenegg","postalCode":"87463","locality":"Dietmannsried","municipality":{"key":"09780119","name":"Dietmannsried, M","type":"Markt"},"district":{"key":"09780","name":"Oberallgäu","type":"Landkreis"},"federalState":{"key":"09","name":"Bayern"}},{"name":"Höhenweg","postalCode":"87463","locality":"Dietmannsried","municipality":{"key":"09780119","name":"Dietmannsried, M","type":"Markt"},"district":{"key":"09780","name":"Oberallgäu","type":"Landkreis"},"federalState":{"key":"09","name":"Bayern"}},{"name":"Illerstr.","postalCode":"87463","locality":"Dietmannsried","municipality":{"key":"09780119","name":"Dietmannsried, M","type":"Markt"},"district":{"key":"09780","name":"Oberallgäu","type":"Landkreis"},"federalState":{"key":"09","name":"Bayern"}},{"name":"Im G'fäll","postalCode":"87463","locality":"Dietmannsried","municipality":{"key":"09780119","name":"Dietmannsried, M","type":"Markt"},"district":{"key":"09780","name":"Oberallgäu","type":"Landkreis"},"federalState":{"key":"09","name":"Bayern"}},{"name":"Im Knobele","postalCode":"87463","locality":"Dietmannsried","municipality":{"key":"09780119","name":"Dietmannsried, M","type":"Markt"},"district":{"key":"09780","name":"Oberallgäu","type":"Landkreis"},"federalState":{"key":"09","name":"Bayern"}},{"name":"Im Ostried","postalCode":"87463","locality":"Dietmannsried","municipality":{"key":"09780119","name":"Dietmannsried, M","type":"Markt"},"district":{"key":"09780","name":"Oberallgäu","type":"Landkreis"},"federalState":{"key":"09","name":"Bayern"}},{"name":"Im Seegader","postalCode":"87463","locality":"Dietmannsried","municipality":{"key":"09780119","name":"Dietmannsried, M","type":"Markt"},"district":{"key":"09780","name":"Oberallgäu","type":"Landkreis"},"federalState":{"key":"09","name":"Bayern"}},{"name":"Im Winkel","postalCode":"87463","locality":"Dietmannsried","municipality":{"key":"09780119","name":"Dietmannsried, M","type":"Markt"},"district":{"key":"09780","name":"Oberallgäu","type":"Landkreis"},"federalState":{"key":"09","name":"Bayern"}},{"name":"In den Storchenwiesen","postalCode":"87463","locality":"Dietmannsried","municipality":{"key":"09780119","name":"Dietmannsried, M","type":"Markt"},"district":{"key":"09780","name":"Oberallgäu","type":"Landkreis"},"federalState":{"key":"09","name":"Bayern"}},{"name":"Inselweiher","postalCode":"87463","locality":"Dietmannsried","municipality":{"key":"09780119","name":"Dietmannsried, M","type":"Markt"},"district":{"key":"09780","name":"Oberallgäu","type":"Landkreis"},"federalState":{"key":"09","name":"Bayern"}},{"name":"Jahnstr.","postalCode":"87463","locality":"Dietmannsried","municipality":{"key":"09780119","name":"Dietmannsried, M","type":"Markt"},"district":{"key":"09780","name":"Oberallgäu","type":"Landkreis"},"federalState":{"key":"09","name":"Bayern"}},{"name":"Kalkbrennerweg","postalCode":"87463","locality":"Dietmannsried","municipality":{"key":"09780119","name":"Dietmannsried, M","type":"Markt"},"district":{"key":"09780","name":"Oberallgäu","type":"Landkreis"},"federalState":{"key":"09","name":"Bayern"}},{"name":"Kapfweg","postalCode":"87463","locality":"Dietmannsried","municipality":{"key":"09780119","name":"Dietmannsried, M","type":"Markt"},"district":{"key":"09780","name":"Oberallgäu","type":"Landkreis"},"federalState":{"key":"09","name":"Bayern"}},{"name":"Keltenstr.","postalCode":"87463","locality":"Dietmannsried","municipality":{"key":"09780119","name":"Dietmannsried, M","type":"Markt"},"district":{"key":"09780","name":"Oberallgäu","type":"Landkreis"},"federalState":{"key":"09","name":"Bayern"}},{"name":"Kemptner Weg","postalCode":"87463","locality":"Dietmannsried","municipality":{"key":"09780119","name":"Dietmannsried, M","type":"Markt"},"district":{"key":"09780","name":"Oberallgäu","type":"Landkreis"},"federalState":{"key":"09","name":"Bayern"}},{"name":"Kirchplatz","postalCode":"87463","locality":"Dietmannsried","municipality":{"key":"09780119","name":"Dietmannsried, M","type":"Markt"},"district":{"key":"09780","name":"Oberallgäu","type":"Landkreis"},"federalState":{"key":"09","name":"Bayern"}},{"name":"Kirchweg","postalCode":"87463","locality":"Dietmannsried","municipality":{"key":"09780119","name":"Dietmannsried, M","type":"Markt"},"district":{"key":"09780","name":"Oberallgäu","type":"Landkreis"},"federalState":{"key":"09","name":"Bayern"}},{"name":"Kolpingring","postalCode":"87463","locality":"Dietmannsried","municipality":{"key":"09780119","name":"Dietmannsried, M","type":"Markt"},"district":{"key":"09780","name":"Oberallgäu","type":"Landkreis"},"federalState":{"key":"09","name":"Bayern"}},{"name":"Konebergstr.","postalCode":"87463","locality":"Dietmannsried","municipality":{"key":"09780119","name":"Dietmannsried, M","type":"Markt"},"district":{"key":"09780","name":"Oberallgäu","type":"Landkreis"},"federalState":{"key":"09","name":"Bayern"}},{"name":"Krugzeller Str.","postalCode":"87463","locality":"Dietmannsried","municipality":{"key":"09780119","name":"Dietmannsried, M","type":"Markt"},"district":{"key":"09780","name":"Oberallgäu","type":"Landkreis"},"federalState":{"key":"09","name":"Bayern"}},{"name":"Laarstr.","postalCode":"87463","locality":"Dietmannsried","municipality":{"key":"09780119","name":"Dietmannsried, M","type":"Markt"},"district":{"key":"09780","name":"Oberallgäu","type":"Landkreis"},"federalState":{"key":"09","name":"Bayern"}},{"name":"Lärchenweg","postalCode":"87463","locality":"Dietmannsried","municipality":{"key":"09780119","name":"Dietmannsried, M","type":"Markt"},"district":{"key":"09780","name":"Oberallgäu","type":"Landkreis"},"federalState":{"key":"09","name":"Bayern"}},{"name":"Laubener Str.","postalCode":"87463","locality":"Dietmannsried","municipality":{"key":"09780119","name":"Dietmannsried, M","type":"Markt"},"district":{"key":"09780","name":"Oberallgäu","type":"Landkreis"},"federalState":{"key":"09","name":"Bayern"}},{"name":"Lindenstr.","postalCode":"87463","locality":"Dietmannsried","municipality":{"key":"09780119","name":"Dietmannsried, M","type":"Markt"},"district":{"key":"09780","name":"Oberallgäu","type":"Landkreis"},"federalState":{"key":"09","name":"Bayern"}},{"name":"Magnusweg","postalCode":"87463","locality":"Dietmannsried","municipality":{"key":"09780119","name":"Dietmannsried, M","type":"Markt"},"district":{"key":"09780","name":"Oberallgäu","type":"Landkreis"},"federalState":{"key":"09","name":"Bayern"}},{"name":"Mathias-Graf-Str.","postalCode":"87463","locality":"Dietmannsried","municipality":{"key":"09780119","name":"Dietmannsried, M","type":"Markt"},"district":{"key":"09780","name":"Oberallgäu","type":"Landkreis"},"federalState":{"key":"09","name":"Bayern"}},{"name":"Memminger Str.","postalCode":"87463","locality":"Dietmannsried","municipality":{"key":"09780119","name":"Dietmannsried, M","type":"Markt"},"district":{"key":"09780","name":"Oberallgäu","type":"Landkreis"},"federalState":{"key":"09","name":"Bayern"}},{"name":"Moosstr.","postalCode":"87463","locality":"Dietmannsried","municipality":{"key":"09780119","name":"Dietmannsried, M","type":"Markt"},"district":{"key":"09780","name":"Oberallgäu","type":"Landkreis"},"federalState":{"key":"09","name":"Bayern"}},{"name":"Mühlbachweg","postalCode":"87463","locality":"Dietmannsried","municipality":{"key":"09780119","name":"Dietmannsried, M","type":"Markt"},"district":{"key":"09780","name":"Oberallgäu","type":"Landkreis"},"federalState":{"key":"09","name":"Bayern"}},{"name":"Mühlenweg","postalCode":"87463","locality":"Dietmannsried","municipality":{"key":"09780119","name":"Dietmannsried, M","type":"Markt"},"district":{"key":"09780","name":"Oberallgäu","type":"Landkreis"},"federalState":{"key":"09","name":"Bayern"}},{"name":"Naiers","postalCode":"87463","locality":"Dietmannsried","municipality":{"key":"09780119","name":"Dietmannsried, M","type":"Markt"},"district":{"key":"09780","name":"Oberallgäu","type":"Landkreis"},"federalState":{"key":"09","name":"Bayern"}},{"name":"Oberried","postalCode":"87463","locality":"Dietmannsried","municipality":{"key":"09780119","name":"Dietmannsried, M","type":"Markt"},"district":{"key":"09780","name":"Oberallgäu","type":"Landkreis"},"federalState":{"key":"09","name":"Bayern"}},{"name":"Papiererweg","postalCode":"87463","locality":"Dietmannsried","municipality":{"key":"09780119","name":"Dietmannsried, M","type":"Markt"},"district":{"key":"09780","name":"Oberallgäu","type":"Landkreis"},"federalState":{"key":"09","name":"Bayern"}},{"name":"Pater-Hoberg-Weg","postalCode":"87463","locality":"Dietmannsried","municipality":{"key":"09780119","name":"Dietmannsried, M","type":"Markt"},"district":{"key":"09780","name":"Oberallgäu","type":"Landkreis"},"federalState":{"key":"09","name":"Bayern"}},{"name":"Pfandweg","postalCode":"87463","locality":"Dietmannsried","municipality":{"key":"09780119","name":"Dietmannsried, M","type":"Markt"},"district":{"key":"09780","name":"Oberallgäu","type":"Landkreis"},"federalState":{"key":"09","name":"Bayern"}},{"name":"Probstrieder Weg","postalCode":"87463","locality":"Dietmannsried","municipality":{"key":"09780119","name":"Dietmannsried, M","type":"Markt"},"district":{"key":"09780","name":"Oberallgäu","type":"Landkreis"},"federalState":{"key":"09","name":"Bayern"}},{"name":"Raiffeisenstr.","postalCode":"87463","locality":"Dietmannsried","municipality":{"key":"09780119","name":"Dietmannsried, M","type":"Markt"},"district":{"key":"09780","name":"Oberallgäu","type":"Landkreis"},"federalState":{"key":"09","name":"Bayern"}},{"name":"Raiffeisenweg","postalCode":"87463","locality":"Dietmannsried","municipality":{"key":"09780119","name":"Dietmannsried, M","type":"Markt"},"district":{"key":"09780","name":"Oberallgäu","type":"Landkreis"},"federalState":{"key":"09","name":"Bayern"}},{"name":"Rathausplatz","postalCode":"87463","locality":"Dietmannsried","municipality":{"key":"09780119","name":"Dietmannsried, M","type":"Markt"},"district":{"key":"09780","name":"Oberallgäu","type":"Landkreis"},"federalState":{"key":"09","name":"Bayern"}},{"name":"Ratisstr.","postalCode":"87463","locality":"Dietmannsried","municipality":{"key":"09780119","name":"Dietmannsried, M","type":"Markt"},"district":{"key":"09780","name":"Oberallgäu","type":"Landkreis"},"federalState":{"key":"09","name":"Bayern"}},{"name":"Rechbergstr.","postalCode":"87463","locality":"Dietmannsried","municipality":{"key":"09780119","name":"Dietmannsried, M","type":"Markt"},"district":{"key":"09780","name":"Oberallgäu","type":"Landkreis"},"federalState":{"key":"09","name":"Bayern"}},{"name":"Richolfstr.","postalCode":"87463","locality":"Dietmannsried","municipality":{"key":"09780119","name":"Dietmannsried, M","type":"Markt"},"district":{"key":"09780","name":"Oberallgäu","type":"Landkreis"},"federalState":{"key":"09","name":"Bayern"}},{"name":"Ringstr.","postalCode":"87463","locality":"Dietmannsried","municipality":{"key":"09780119","name":"Dietmannsried, M","type":"Markt"},"district":{"key":"09780","name":"Oberallgäu","type":"Landkreis"},"federalState":{"key":"09","name":"Bayern"}},{"name":"Ritterstr.","postalCode":"87463","locality":"Dietmannsried","municipality":{"key":"09780119","name":"Dietmannsried, M","type":"Markt"},"district":{"key":"09780","name":"Oberallgäu","type":"Landkreis"},"federalState":{"key":"09","name":"Bayern"}},{"name":"Riznerweg","postalCode":"87463","locality":"Dietmannsried","municipality":{"key":"09780119","name":"Dietmannsried, M","type":"Markt"},"district":{"key":"09780","name":"Oberallgäu","type":"Landkreis"},"federalState":{"key":"09","name":"Bayern"}},{"name":"Römerstr.","postalCode":"87463","locality":"Dietmannsried","municipality":{"key":"09780119","name":"Dietmannsried, M","type":"Markt"},"district":{"key":"09780","name":"Oberallgäu","type":"Landkreis"},"federalState":{"key":"09","name":"Bayern"}},{"name":"Rösslewiese","postalCode":"87463","locality":"Dietmannsried","municipality":{"key":"09780119","name":"Dietmannsried, M","type":"Markt"},"district":{"key":"09780","name":"Oberallgäu","type":"Landkreis"},"federalState":{"key":"09","name":"Bayern"}},{"name":"Rudolfstr.","postalCode":"87463","locality":"Dietmannsried","municipality":{"key":"09780119","name":"Dietmannsried, M","type":"Markt"},"district":{"key":"09780","name":"Oberallgäu","type":"Landkreis"},"federalState":{"key":"09","name":"Bayern"}},{"name":"Sankt-Georg-Str.","postalCode":"87463","locality":"Dietmannsried","municipality":{"key":"09780119","name":"Dietmannsried, M","type":"Markt"},"district":{"key":"09780","name":"Oberallgäu","type":"Landkreis"},"federalState":{"key":"09","name":"Bayern"}},{"name":"Sankt-Nikolaus-Str.","postalCode":"87463","locality":"Dietmannsried","municipality":{"key":"09780119","name":"Dietmannsried, M","type":"Markt"},"district":{"key":"09780","name":"Oberallgäu","type":"Landkreis"},"federalState":{"key":"09","name":"Bayern"}},{"name":"Schmiedstr.","postalCode":"87463","locality":"Dietmannsried","municipality":{"key":"09780119","name":"Dietmannsried, M","type":"Markt"},"district":{"key":"09780","name":"Oberallgäu","type":"Landkreis"},"federalState":{"key":"09","name":"Bayern"}},{"name":"Schulstr.","postalCode":"87463","locality":"Dietmannsried","municipality":{"key":"09780119","name":"Dietmannsried, M","type":"Markt"},"district":{"key":"09780","name":"Oberallgäu","type":"Landkreis"},"federalState":{"key":"09","name":"Bayern"}},{"name":"Schützenweg","postalCode":"87463","locality":"Dietmannsried","municipality":{"key":"09780119","name":"Dietmannsried, M","type":"Markt"},"district":{"key":"09780","name":"Oberallgäu","type":"Landkreis"},"federalState":{"key":"09","name":"Bayern"}},{"name":"Schwabenweg","postalCode":"87463","locality":"Dietmannsried","municipality":{"key":"09780119","name":"Dietmannsried, M","type":"Markt"},"district":{"key":"09780","name":"Oberallgäu","type":"Landkreis"},"federalState":{"key":"09","name":"Bayern"}},{"name":"Schwedenstr.","postalCode":"87463","locality":"Dietmannsried","municipality":{"key":"09780119","name":"Dietmannsried, M","type":"Markt"},"district":{"key":"09780","name":"Oberallgäu","type":"Landkreis"},"federalState":{"key":"09","name":"Bayern"}},{"name":"Seebachweg","postalCode":"87463","locality":"Dietmannsried","municipality":{"key":"09780119","name":"Dietmannsried, M","type":"Markt"},"district":{"key":"09780","name":"Oberallgäu","type":"Landkreis"},"federalState":{"key":"09","name":"Bayern"}},{"name":"Sonnenstr.","postalCode":"87463","locality":"Dietmannsried","municipality":{"key":"09780119","name":"Dietmannsried, M","type":"Markt"},"district":{"key":"09780","name":"Oberallgäu","type":"Landkreis"},"federalState":{"key":"09","name":"Bayern"}},{"name":"Steinriesel","postalCode":"87463","locality":"Dietmannsried","municipality":{"key":"09780119","name":"Dietmannsried, M","type":"Markt"},"district":{"key":"09780","name":"Oberallgäu","type":"Landkreis"},"federalState":{"key":"09","name":"Bayern"}},{"name":"Stiftsstr.","postalCode":"87463","locality":"Dietmannsried","municipality":{"key":"09780119","name":"Dietmannsried, M","type":"Markt"},"district":{"key":"09780","name":"Oberallgäu","type":"Landkreis"},"federalState":{"key":"09","name":"Bayern"}},{"name":"Stuibenweg","postalCode":"87463","locality":"Dietmannsried","municipality":{"key":"09780119","name":"Dietmannsried, M","type":"Markt"},"district":{"key":"09780","name":"Oberallgäu","type":"Landkreis"},"federalState":{"key":"09","name":"Bayern"}},{"name":"Sudetenstr.","postalCode":"87463","locality":"Dietmannsried","municipality":{"key":"09780119","name":"Dietmannsried, M","type":"Markt"},"district":{"key":"09780","name":"Oberallgäu","type":"Landkreis"},"federalState":{"key":"09","name":"Bayern"}},{"name":"Tannenweg","postalCode":"87463","locality":"Dietmannsried","municipality":{"key":"09780119","name":"Dietmannsried, M","type":"Markt"},"district":{"key":"09780","name":"Oberallgäu","type":"Landkreis"},"federalState":{"key":"09","name":"Bayern"}},{"name":"Ulrichsweg","postalCode":"87463","locality":"Dietmannsried","municipality":{"key":"09780119","name":"Dietmannsried, M","type":"Markt"},"district":{"key":"09780","name":"Oberallgäu","type":"Landkreis"},"federalState":{"key":"09","name":"Bayern"}},{"name":"Unterer Vornerweg","postalCode":"87463","locality":"Dietmannsried","municipality":{"key":"09780119","name":"Dietmannsried, M","type":"Markt"},"district":{"key":"09780","name":"Oberallgäu","type":"Landkreis"},"federalState":{"key":"09","name":"Bayern"}},{"name":"Ussenried","postalCode":"87463","locality":"Dietmannsried","municipality":{"key":"09780119","name":"Dietmannsried, M","type":"Markt"},"district":{"key":"09780","name":"Oberallgäu","type":"Landkreis"},"federalState":{"key":"09","name":"Bayern"}},{"name":"Vockenthal","postalCode":"87463","locality":"Dietmannsried","municipality":{"key":"09780119","name":"Dietmannsried, M","type":"Markt"},"district":{"key":"09780","name":"Oberallgäu","type":"Landkreis"},"federalState":{"key":"09","name":"Bayern"}},{"name":"Vornerweg","postalCode":"87463","locality":"Dietmannsried","municipality":{"key":"09780119","name":"Dietmannsried, M","type":"Markt"},"district":{"key":"09780","name":"Oberallgäu","type":"Landkreis"},"federalState":{"key":"09","name":"Bayern"}},{"name":"Vorstadtweg","postalCode":"87463","locality":"Dietmannsried","municipality":{"key":"09780119","name":"Dietmannsried, M","type":"Markt"},"district":{"key":"09780","name":"Oberallgäu","type":"Landkreis"},"federalState":{"key":"09","name":"Bayern"}},{"name":"Welserstr.","postalCode":"87463","locality":"Dietmannsried","municipality":{"key":"09780119","name":"Dietmannsried, M","type":"Markt"},"district":{"key":"09780","name":"Oberallgäu","type":"Landkreis"},"federalState":{"key":"09","name":"Bayern"}},{"name":"Wiesenweg","postalCode":"87463","locality":"Dietmannsried","municipality":{"key":"09780119","name":"Dietmannsried, M","type":"Markt"},"district":{"key":"09780","name":"Oberallgäu","type":"Landkreis"},"federalState":{"key":"09","name":"Bayern"}},{"name":"Wirtshalde","postalCode":"87463","locality":"Dietmannsried","municipality":{"key":"09780119","name":"Dietmannsried, M","type":"Markt"},"district":{"key":"09780","name":"Oberallgäu","type":"Landkreis"},"federalState":{"key":"09","name":"Bayern"}},{"name":"Wirtshalder Weg","postalCode":"87463","locality":"Dietmannsried","municipality":{"key":"09780119","name":"Dietmannsried, M","type":"Markt"},"district":{"key":"09780","name":"Oberallgäu","type":"Landkreis"},"federalState":{"key":"09","name":"Bayern"}},{"name":"Wohlmuts","postalCode":"87463","locality":"Dietmannsried","municipality":{"key":"09780119","name":"Dietmannsried, M","type":"Markt"},"district":{"key":"09780","name":"Oberallgäu","type":"Landkreis"},"federalState":{"key":"09","name":"Bayern"}},{"name":"Wohlmutser Weg","postalCode":"87463","locality":"Dietmannsried","municipality":{"key":"09780119","name":"Dietmannsried, M","type":"Markt"},"district":{"key":"09780","name":"Oberallgäu","type":"Landkreis"},"federalState":{"key":"09","name":"Bayern"}},{"name":"Zugspitzweg","postalCode":"87463","locality":"Dietmannsried","municipality":{"key":"09780119","name":"Dietmannsried, M","type":"Markt"},"district":{"key":"09780","name":"Oberallgäu","type":"Landkreis"},"federalState":{"key":"09","name":"Bayern"}},{"name":"Zur alten Mühle","postalCode":"87463","locality":"Dietmannsried","municipality":{"key":"09780119","name":"Dietmannsried, M","type":"Markt"},"district":{"key":"09780","name":"Oberallgäu","type":"Landkreis"},"federalState":{"key":"09","name":"Bayern"}},{"name":"Zur Grotte","postalCode":"87463","locality":"Dietmannsried","municipality":{"key":"09780119","name":"Dietmannsried, M","type":"Markt"},"district":{"key":"09780","name":"Oberallgäu","type":"Landkreis"},"federalState":{"key":"09","name":"Bayern"}},{"name":"Zur Hohlgasse","postalCode":"87463","locality":"Dietmannsried","municipality":{"key":"09780119","name":"Dietmannsried, M","type":"Markt"},"district":{"key":"09780","name":"Oberallgäu","type":"Landkreis"},"federalState":{"key":"09","name":"Bayern"}},{"name":"Öschle","postalCode":"87463","locality":"Dietmannsried","municipality":{"key":"09780119","name":"Dietmannsried, M","type":"Markt"},"district":{"key":"09780","name":"Oberallgäu","type":"Landkreis"},"federalState":{"key":"09","name":"Bayern"}},]