[{"name":"Am Asberg","postalCode":"56412","locality":"Niedererbach","municipality":{"key":"07143054","name":"Niedererbach","type":"Kreisangehörige_Gemeinde"},"district":{"key":"07143","name":"Westerwaldkreis","type":"Landkreis"},"federalState":{"key":"07","name":"Rheinland-Pfalz"}},{"name":"Am Handsgraben","postalCode":"56412","locality":"Niedererbach","municipality":{"key":"07143054","name":"Niedererbach","type":"Kreisangehörige_Gemeinde"},"district":{"key":"07143","name":"Westerwaldkreis","type":"Landkreis"},"federalState":{"key":"07","name":"Rheinland-Pfalz"}},{"name":"Am Hehlberg","postalCode":"56412","locality":"Niedererbach","municipality":{"key":"07143054","name":"Niedererbach","type":"Kreisangehörige_Gemeinde"},"district":{"key":"07143","name":"Westerwaldkreis","type":"Landkreis"},"federalState":{"key":"07","name":"Rheinland-Pfalz"}},{"name":"Am Löhn","postalCode":"56412","locality":"Niedererbach","municipality":{"key":"07143054","name":"Niedererbach","type":"Kreisangehörige_Gemeinde"},"district":{"key":"07143","name":"Westerwaldkreis","type":"Landkreis"},"federalState":{"key":"07","name":"Rheinland-Pfalz"}},{"name":"Auf dem Hahn","postalCode":"56412","locality":"Niedererbach","municipality":{"key":"07143054","name":"Niedererbach","type":"Kreisangehörige_Gemeinde"},"district":{"key":"07143","name":"Westerwaldkreis","type":"Landkreis"},"federalState":{"key":"07","name":"Rheinland-Pfalz"}},{"name":"Auf der Kaiserwiese","postalCode":"56412","locality":"Niedererbach","municipality":{"key":"07143054","name":"Niedererbach","type":"Kreisangehörige_Gemeinde"},"district":{"key":"07143","name":"Westerwaldkreis","type":"Landkreis"},"federalState":{"key":"07","name":"Rheinland-Pfalz"}},{"name":"Bahnhofstr.","postalCode":"56412","locality":"Niedererbach","municipality":{"key":"07143054","name":"Niedererbach","type":"Kreisangehörige_Gemeinde"},"district":{"key":"07143","name":"Westerwaldkreis","type":"Landkreis"},"federalState":{"key":"07","name":"Rheinland-Pfalz"}},{"name":"Bergstr.","postalCode":"56412","locality":"Niedererbach","municipality":{"key":"07143054","name":"Niedererbach","type":"Kreisangehörige_Gemeinde"},"district":{"key":"07143","name":"Westerwaldkreis","type":"Landkreis"},"federalState":{"key":"07","name":"Rheinland-Pfalz"}},{"name":"Bornstr.","postalCode":"56412","locality":"Niedererbach","municipality":{"key":"07143054","name":"Niedererbach","type":"Kreisangehörige_Gemeinde"},"district":{"key":"07143","name":"Westerwaldkreis","type":"Landkreis"},"federalState":{"key":"07","name":"Rheinland-Pfalz"}},{"name":"Brückenstr.","postalCode":"56412","locality":"Niedererbach","municipality":{"key":"07143054","name":"Niedererbach","type":"Kreisangehörige_Gemeinde"},"district":{"key":"07143","name":"Westerwaldkreis","type":"Landkreis"},"federalState":{"key":"07","name":"Rheinland-Pfalz"}},{"name":"Eisenbahnstr.","postalCode":"56412","locality":"Niedererbach","municipality":{"key":"07143054","name":"Niedererbach","type":"Kreisangehörige_Gemeinde"},"district":{"key":"07143","name":"Westerwaldkreis","type":"Landkreis"},"federalState":{"key":"07","name":"Rheinland-Pfalz"}},{"name":"Gartenstr.","postalCode":"56412","locality":"Niedererbach","municipality":{"key":"07143054","name":"Niedererbach","type":"Kreisangehörige_Gemeinde"},"district":{"key":"07143","name":"Westerwaldkreis","type":"Landkreis"},"federalState":{"key":"07","name":"Rheinland-Pfalz"}},{"name":"Grillplatz Niedererbach","postalCode":"56412","locality":"Niedererbach","municipality":{"key":"07143054","name":"Niedererbach","type":"Kreisangehörige_Gemeinde"},"district":{"key":"07143","name":"Westerwaldkreis","type":"Landkreis"},"federalState":{"key":"07","name":"Rheinland-Pfalz"}},{"name":"Hahnstr.","postalCode":"56412","locality":"Niedererbach","municipality":{"key":"07143054","name":"Niedererbach","type":"Kreisangehörige_Gemeinde"},"district":{"key":"07143","name":"Westerwaldkreis","type":"Landkreis"},"federalState":{"key":"07","name":"Rheinland-Pfalz"}},{"name":"Hofackerstr.","postalCode":"56412","locality":"Niedererbach","municipality":{"key":"07143054","name":"Niedererbach","type":"Kreisangehörige_Gemeinde"},"district":{"key":"07143","name":"Westerwaldkreis","type":"Landkreis"},"federalState":{"key":"07","name":"Rheinland-Pfalz"}},{"name":"Im Pitzling","postalCode":"56412","locality":"Niedererbach","municipality":{"key":"07143054","name":"Niedererbach","type":"Kreisangehörige_Gemeinde"},"district":{"key":"07143","name":"Westerwaldkreis","type":"Landkreis"},"federalState":{"key":"07","name":"Rheinland-Pfalz"}},{"name":"Im Sand","postalCode":"56412","locality":"Niedererbach","municipality":{"key":"07143054","name":"Niedererbach","type":"Kreisangehörige_Gemeinde"},"district":{"key":"07143","name":"Westerwaldkreis","type":"Landkreis"},"federalState":{"key":"07","name":"Rheinland-Pfalz"}},{"name":"Mittelstr.","postalCode":"56412","locality":"Niedererbach","municipality":{"key":"07143054","name":"Niedererbach","type":"Kreisangehörige_Gemeinde"},"district":{"key":"07143","name":"Westerwaldkreis","type":"Landkreis"},"federalState":{"key":"07","name":"Rheinland-Pfalz"}},{"name":"Obererbacher Str.","postalCode":"56412","locality":"Niedererbach","municipality":{"key":"07143054","name":"Niedererbach","type":"Kreisangehörige_Gemeinde"},"district":{"key":"07143","name":"Westerwaldkreis","type":"Landkreis"},"federalState":{"key":"07","name":"Rheinland-Pfalz"}},{"name":"Obererbacher Weg","postalCode":"56412","locality":"Niedererbach","municipality":{"key":"07143054","name":"Niedererbach","type":"Kreisangehörige_Gemeinde"},"district":{"key":"07143","name":"Westerwaldkreis","type":"Landkreis"},"federalState":{"key":"07","name":"Rheinland-Pfalz"}},{"name":"Steinstr.","postalCode":"56412","locality":"Niedererbach","municipality":{"key":"07143054","name":"Niedererbach","type":"Kreisangehörige_Gemeinde"},"district":{"key":"07143","name":"Westerwaldkreis","type":"Landkreis"},"federalState":{"key":"07","name":"Rheinland-Pfalz"}},{"name":"Waldstr.","postalCode":"56412","locality":"Niedererbach","municipality":{"key":"07143054","name":"Niedererbach","type":"Kreisangehörige_Gemeinde"},"district":{"key":"07143","name":"Westerwaldkreis","type":"Landkreis"},"federalState":{"key":"07","name":"Rheinland-Pfalz"}},]