[{"code":"31901","district":{"code":"319","name":"Sankt Pölten ( Land)","key":"319"},"federalProvince":{"name":"Niederösterreich","key":"3"},"postalCode":"3033","name":"Altlengbach","multiplePostalCodes":false,"key":"31901","status":"MarketTown"},{"code":"31902","district":{"code":"319","name":"Sankt Pölten ( Land)","key":"319"},"federalProvince":{"name":"Niederösterreich","key":"3"},"postalCode":"3041","name":"Asperhofen","multiplePostalCodes":true,"key":"31902","status":"MarketTown"},{"code":"31903","district":{"code":"319","name":"Sankt Pölten ( Land)","key":"319"},"federalProvince":{"name":"Niederösterreich","key":"3"},"postalCode":"3071","name":"Böheimkirchen","multiplePostalCodes":true,"key":"31903","status":"MarketTown"},{"code":"31904","district":{"code":"319","name":"Sankt Pölten ( Land)","key":"319"},"federalProvince":{"name":"Niederösterreich","key":"3"},"postalCode":"3053","name":"Brand-Laaben","multiplePostalCodes":true,"key":"31904","status":"None"},{"code":"31905","district":{"code":"319","name":"Sankt Pölten ( Land)","key":"319"},"federalProvince":{"name":"Niederösterreich","key":"3"},"postalCode":"3032","name":"Eichgraben","multiplePostalCodes":false,"key":"31905","status":"MarketTown"},{"code":"31906","district":{"code":"319","name":"Sankt Pölten ( Land)","key":"319"},"federalProvince":{"name":"Niederösterreich","key":"3"},"postalCode":"3213","name":"Frankenfels","multiplePostalCodes":true,"key":"31906","status":"MarketTown"},{"code":"31907","district":{"code":"319","name":"Sankt Pölten ( Land)","key":"319"},"federalProvince":{"name":"Niederösterreich","key":"3"},"postalCode":"3385","name":"Gerersdorf","multiplePostalCodes":false,"key":"31907","status":"None"},{"code":"31909","district":{"code":"319","name":"Sankt Pölten ( Land)","key":"319"},"federalProvince":{"name":"Niederösterreich","key":"3"},"postalCode":"3202","name":"Hofstetten-Grünau","multiplePostalCodes":true,"key":"31909","status":"MarketTown"},{"code":"31910","district":{"code":"319","name":"Sankt Pölten ( Land)","key":"319"},"federalProvince":{"name":"Niederösterreich","key":"3"},"postalCode":"3386","name":"Hafnerbach","multiplePostalCodes":false,"key":"31910","status":"MarketTown"},{"code":"31911","district":{"code":"319","name":"Sankt Pölten ( Land)","key":"319"},"federalProvince":{"name":"Niederösterreich","key":"3"},"postalCode":"3384","name":"Haunoldstein","multiplePostalCodes":false,"key":"31911","status":"None"},{"code":"31912","district":{"code":"319","name":"Sankt Pölten ( Land)","key":"319"},"federalProvince":{"name":"Niederösterreich","key":"3"},"postalCode":"3130","name":"Herzogenburg","multiplePostalCodes":true,"key":"31912","status":"UrbanMunicipality"},{"code":"31913","district":{"code":"319","name":"Sankt Pölten ( Land)","key":"319"},"federalProvince":{"name":"Niederösterreich","key":"3"},"postalCode":"3131","name":"Inzersdorf-Getzersdorf","multiplePostalCodes":false,"key":"31913","status":"None"},{"code":"31915","district":{"code":"319","name":"Sankt Pölten ( Land)","key":"319"},"federalProvince":{"name":"Niederösterreich","key":"3"},"postalCode":"3141","name":"Kapelln","multiplePostalCodes":false,"key":"31915","status":"MarketTown"},{"code":"31916","district":{"code":"319","name":"Sankt Pölten ( Land)","key":"319"},"federalProvince":{"name":"Niederösterreich","key":"3"},"postalCode":"3121","name":"Karlstetten","multiplePostalCodes":false,"key":"31916","status":"MarketTown"},{"code":"31917","district":{"code":"319","name":"Sankt Pölten ( Land)","key":"319"},"federalProvince":{"name":"Niederösterreich","key":"3"},"postalCode":"3072","name":"Kasten bei Böheimkirchen","multiplePostalCodes":true,"key":"31917","status":"None"},{"code":"31918","district":{"code":"319","name":"Sankt Pölten ( Land)","key":"319"},"federalProvince":{"name":"Niederösterreich","key":"3"},"postalCode":"3204","name":"Kirchberg an der Pielach","multiplePostalCodes":false,"key":"31918","status":"MarketTown"},{"code":"31919","district":{"code":"319","name":"Sankt Pölten ( Land)","key":"319"},"federalProvince":{"name":"Niederösterreich","key":"3"},"postalCode":"3062","name":"Kirchstetten","multiplePostalCodes":true,"key":"31919","status":"MarketTown"},{"code":"31920","district":{"code":"319","name":"Sankt Pölten ( Land)","key":"319"},"federalProvince":{"name":"Niederösterreich","key":"3"},"postalCode":"3211","name":"Loich","multiplePostalCodes":true,"key":"31920","status":"None"},{"code":"31921","district":{"code":"319","name":"Sankt Pölten ( Land)","key":"319"},"federalProvince":{"name":"Niederösterreich","key":"3"},"postalCode":"3034","name":"Maria Anzbach","multiplePostalCodes":true,"key":"31921","status":"MarketTown"},{"code":"31922","district":{"code":"319","name":"Sankt Pölten ( Land)","key":"319"},"federalProvince":{"name":"Niederösterreich","key":"3"},"postalCode":"3385","name":"Markersdorf-Haindorf","multiplePostalCodes":true,"key":"31922","status":"MarketTown"},{"code":"31923","district":{"code":"319","name":"Sankt Pölten ( Land)","key":"319"},"federalProvince":{"name":"Niederösterreich","key":"3"},"postalCode":"3074","name":"Michelbach","multiplePostalCodes":true,"key":"31923","status":"MarketTown"},{"code":"31925","district":{"code":"319","name":"Sankt Pölten ( Land)","key":"319"},"federalProvince":{"name":"Niederösterreich","key":"3"},"postalCode":"3110","name":"Neidling","multiplePostalCodes":false,"key":"31925","status":"MarketTown"},{"code":"31926","district":{"code":"319","name":"Sankt Pölten ( Land)","key":"319"},"federalProvince":{"name":"Niederösterreich","key":"3"},"postalCode":"3040","name":"Neulengbach","multiplePostalCodes":true,"key":"31926","status":"UrbanMunicipality"},{"code":"31927","district":{"code":"319","name":"Sankt Pölten ( Land)","key":"319"},"federalProvince":{"name":"Niederösterreich","key":"3"},"postalCode":"3052","name":"Neustift-Innermanzing","multiplePostalCodes":true,"key":"31927","status":"None"},{"code":"31928","district":{"code":"319","name":"Sankt Pölten ( Land)","key":"319"},"federalProvince":{"name":"Niederösterreich","key":"3"},"postalCode":"3134","name":"Nußdorf ob der Traisen","multiplePostalCodes":false,"key":"31928","status":"MarketTown"},{"code":"31929","district":{"code":"319","name":"Sankt Pölten ( Land)","key":"319"},"federalProvince":{"name":"Niederösterreich","key":"3"},"postalCode":"3200","name":"Ober-Grafendorf","multiplePostalCodes":false,"key":"31929","status":"MarketTown"},{"code":"31930","district":{"code":"319","name":"Sankt Pölten ( Land)","key":"319"},"federalProvince":{"name":"Niederösterreich","key":"3"},"postalCode":"3123","name":"Obritzberg-Rust","multiplePostalCodes":false,"key":"31930","status":"MarketTown"},{"code":"31932","district":{"code":"319","name":"Sankt Pölten ( Land)","key":"319"},"federalProvince":{"name":"Niederösterreich","key":"3"},"postalCode":"3385","name":"Prinzersdorf","multiplePostalCodes":false,"key":"31932","status":"MarketTown"},{"code":"31934","district":{"code":"319","name":"Sankt Pölten ( Land)","key":"319"},"federalProvince":{"name":"Niederösterreich","key":"3"},"postalCode":"3143","name":"Pyhra","multiplePostalCodes":true,"key":"31934","status":"MarketTown"},{"code":"31935","district":{"code":"319","name":"Sankt Pölten ( Land)","key":"319"},"federalProvince":{"name":"Niederösterreich","key":"3"},"postalCode":"3203","name":"Rabenstein an der Pielach","multiplePostalCodes":false,"key":"31935","status":"MarketTown"},{"code":"31938","district":{"code":"319","name":"Sankt Pölten ( Land)","key":"319"},"federalProvince":{"name":"Niederösterreich","key":"3"},"postalCode":"3231","name":"St. Margarethen an der Sierning","multiplePostalCodes":false,"key":"31938","status":"None"},{"code":"31939","district":{"code":"319","name":"Sankt Pölten ( Land)","key":"319"},"federalProvince":{"name":"Niederösterreich","key":"3"},"postalCode":"3212","name":"Schwarzenbach an der Pielach","multiplePostalCodes":false,"key":"31939","status":"None"},{"code":"31940","district":{"code":"319","name":"Sankt Pölten ( Land)","key":"319"},"federalProvince":{"name":"Niederösterreich","key":"3"},"postalCode":"3125","name":"Statzendorf","multiplePostalCodes":false,"key":"31940","status":"None"},{"code":"31941","district":{"code":"319","name":"Sankt Pölten ( Land)","key":"319"},"federalProvince":{"name":"Niederösterreich","key":"3"},"postalCode":"3073","name":"Stössing","multiplePostalCodes":true,"key":"31941","status":"None"},{"code":"31943","district":{"code":"319","name":"Sankt Pölten ( Land)","key":"319"},"federalProvince":{"name":"Niederösterreich","key":"3"},"postalCode":"3133","name":"Traismauer","multiplePostalCodes":false,"key":"31943","status":"UrbanMunicipality"},{"code":"31945","district":{"code":"319","name":"Sankt Pölten ( Land)","key":"319"},"federalProvince":{"name":"Niederösterreich","key":"3"},"postalCode":"3205","name":"Weinburg","multiplePostalCodes":false,"key":"31945","status":"None"},{"code":"31946","district":{"code":"319","name":"Sankt Pölten ( Land)","key":"319"},"federalProvince":{"name":"Niederösterreich","key":"3"},"postalCode":"3142","name":"Perschling","multiplePostalCodes":false,"key":"31946","status":"None"},{"code":"31947","district":{"code":"319","name":"Sankt Pölten ( Land)","key":"319"},"federalProvince":{"name":"Niederösterreich","key":"3"},"postalCode":"3150","name":"Wilhelmsburg","multiplePostalCodes":false,"key":"31947","status":"UrbanMunicipality"},{"code":"31948","district":{"code":"319","name":"Sankt Pölten ( Land)","key":"319"},"federalProvince":{"name":"Niederösterreich","key":"3"},"postalCode":"3124","name":"Wölbling","multiplePostalCodes":true,"key":"31948","status":"MarketTown"},{"code":"31949","district":{"code":"319","name":"Sankt Pölten ( Land)","key":"319"},"federalProvince":{"name":"Niederösterreich","key":"3"},"postalCode":"3003","name":"Gablitz","multiplePostalCodes":true,"key":"31949","status":"MarketTown"},{"code":"31950","district":{"code":"319","name":"Sankt Pölten ( Land)","key":"319"},"federalProvince":{"name":"Niederösterreich","key":"3"},"postalCode":"3001","name":"Mauerbach","multiplePostalCodes":true,"key":"31950","status":"MarketTown"},{"code":"31951","district":{"code":"319","name":"Sankt Pölten ( Land)","key":"319"},"federalProvince":{"name":"Niederösterreich","key":"3"},"postalCode":"3021","name":"Pressbaum","multiplePostalCodes":true,"key":"31951","status":"UrbanMunicipality"},{"code":"31952","district":{"code":"319","name":"Sankt Pölten ( Land)","key":"319"},"federalProvince":{"name":"Niederösterreich","key":"3"},"postalCode":"3002","name":"Purkersdorf","multiplePostalCodes":true,"key":"31952","status":"UrbanMunicipality"},{"code":"31953","district":{"code":"319","name":"Sankt Pölten ( Land)","key":"319"},"federalProvince":{"name":"Niederösterreich","key":"3"},"postalCode":"3013","name":"Tullnerbach","multiplePostalCodes":true,"key":"31953","status":"MarketTown"},{"code":"31954","district":{"code":"319","name":"Sankt Pölten ( Land)","key":"319"},"federalProvince":{"name":"Niederösterreich","key":"3"},"postalCode":"3012","name":"Wolfsgraben","multiplePostalCodes":true,"key":"31954","status":"None"}]