[{"key":"10043943","name":"Ackermatte","postalCode":"3935","locality":"Bürchen","commune":{"key":"6193","name":"Bürchen","shortName":"Bürchen"},"district":{"key":"2309","name":"Bezirk Raron"},"canton":{"key":"23","code":"VS","name":"Valais / Wallis"},"status":"Real"},{"key":"10043944","name":"Ackernweg","postalCode":"3935","locality":"Bürchen","commune":{"key":"6193","name":"Bürchen","shortName":"Bürchen"},"district":{"key":"2309","name":"Bezirk Raron"},"canton":{"key":"23","code":"VS","name":"Valais / Wallis"},"status":"Real"},{"key":"10115713","name":"Alpweg","postalCode":"3935","locality":"Bürchen","commune":{"key":"6193","name":"Bürchen","shortName":"Bürchen"},"district":{"key":"2309","name":"Bezirk Raron"},"canton":{"key":"23","code":"VS","name":"Valais / Wallis"},"status":"Real"},{"key":"10099830","name":"Bachtoliweg","postalCode":"3935","locality":"Bürchen","commune":{"key":"6193","name":"Bürchen","shortName":"Bürchen"},"district":{"key":"2309","name":"Bezirk Raron"},"canton":{"key":"23","code":"VS","name":"Valais / Wallis"},"status":"Real"},{"key":"10236160","name":"Birchstrasse","postalCode":"3935","locality":"Bürchen","commune":{"key":"6193","name":"Bürchen","shortName":"Bürchen"},"district":{"key":"2309","name":"Bezirk Raron"},"canton":{"key":"23","code":"VS","name":"Valais / Wallis"},"status":"Real"},{"key":"10237174","name":"Birchweg","postalCode":"3935","locality":"Bürchen","commune":{"key":"6193","name":"Bürchen","shortName":"Bürchen"},"district":{"key":"2309","name":"Bezirk Raron"},"canton":{"key":"23","code":"VS","name":"Valais / Wallis"},"status":"Real"},{"key":"10077278","name":"Blattstrasse","postalCode":"3935","locality":"Bürchen","commune":{"key":"6193","name":"Bürchen","shortName":"Bürchen"},"district":{"key":"2309","name":"Bezirk Raron"},"canton":{"key":"23","code":"VS","name":"Valais / Wallis"},"status":"Real"},{"key":"10169859","name":"Bodengasse","postalCode":"3935","locality":"Bürchen","commune":{"key":"6193","name":"Bürchen","shortName":"Bürchen"},"district":{"key":"2309","name":"Bezirk Raron"},"canton":{"key":"23","code":"VS","name":"Valais / Wallis"},"status":"Real"},{"key":"10191704","name":"Bodenstrasse","postalCode":"3935","locality":"Bürchen","commune":{"key":"6193","name":"Bürchen","shortName":"Bürchen"},"district":{"key":"2309","name":"Bezirk Raron"},"canton":{"key":"23","code":"VS","name":"Valais / Wallis"},"status":"Real"},{"key":"10099831","name":"Brandeggstrasse","postalCode":"3935","locality":"Bürchen","commune":{"key":"6193","name":"Bürchen","shortName":"Bürchen"},"district":{"key":"2309","name":"Bezirk Raron"},"canton":{"key":"23","code":"VS","name":"Valais / Wallis"},"status":"Real"},{"key":"10043946","name":"Brännjiweg","postalCode":"3935","locality":"Bürchen","commune":{"key":"6193","name":"Bürchen","shortName":"Bürchen"},"district":{"key":"2309","name":"Bezirk Raron"},"canton":{"key":"23","code":"VS","name":"Valais / Wallis"},"status":"Real"},{"key":"10077279","name":"Brännole","postalCode":"3935","locality":"Bürchen","commune":{"key":"6193","name":"Bürchen","shortName":"Bürchen"},"district":{"key":"2309","name":"Bezirk Raron"},"canton":{"key":"23","code":"VS","name":"Valais / Wallis"},"status":"Real"},{"key":"10237398","name":"Dieschacherweg","postalCode":"3935","locality":"Bürchen","commune":{"key":"6193","name":"Bürchen","shortName":"Bürchen"},"district":{"key":"2309","name":"Bezirk Raron"},"canton":{"key":"23","code":"VS","name":"Valais / Wallis"},"status":"Real"},{"key":"10099832","name":"Eistmattenweg","postalCode":"3935","locality":"Bürchen","commune":{"key":"6193","name":"Bürchen","shortName":"Bürchen"},"district":{"key":"2309","name":"Bezirk Raron"},"canton":{"key":"23","code":"VS","name":"Valais / Wallis"},"status":"Real"},{"key":"10236157","name":"Erilweg","postalCode":"3935","locality":"Bürchen","commune":{"key":"6193","name":"Bürchen","shortName":"Bürchen"},"district":{"key":"2309","name":"Bezirk Raron"},"canton":{"key":"23","code":"VS","name":"Valais / Wallis"},"status":"Real"},{"key":"10236161","name":"Eschiweg","postalCode":"3935","locality":"Bürchen","commune":{"key":"6193","name":"Bürchen","shortName":"Bürchen"},"district":{"key":"2309","name":"Bezirk Raron"},"canton":{"key":"23","code":"VS","name":"Valais / Wallis"},"status":"Real"},{"key":"10125588","name":"Gärlichweg","postalCode":"3935","locality":"Bürchen","commune":{"key":"6193","name":"Bürchen","shortName":"Bürchen"},"district":{"key":"2309","name":"Bezirk Raron"},"canton":{"key":"23","code":"VS","name":"Valais / Wallis"},"status":"Real"},{"key":"10236159","name":"Gäwerwaldweg","postalCode":"3935","locality":"Bürchen","commune":{"key":"6193","name":"Bürchen","shortName":"Bürchen"},"district":{"key":"2309","name":"Bezirk Raron"},"canton":{"key":"23","code":"VS","name":"Valais / Wallis"},"status":"Real"},{"key":"10191705","name":"Gebreitenweg","postalCode":"3935","locality":"Bürchen","commune":{"key":"6193","name":"Bürchen","shortName":"Bürchen"},"district":{"key":"2309","name":"Bezirk Raron"},"canton":{"key":"23","code":"VS","name":"Valais / Wallis"},"status":"Real"},{"key":"10236158","name":"Guggineweg","postalCode":"3935","locality":"Bürchen","commune":{"key":"6193","name":"Bürchen","shortName":"Bürchen"},"district":{"key":"2309","name":"Bezirk Raron"},"canton":{"key":"23","code":"VS","name":"Valais / Wallis"},"status":"Real"},{"key":"10020090","name":"Haselgasse","postalCode":"3935","locality":"Bürchen","commune":{"key":"6193","name":"Bürchen","shortName":"Bürchen"},"district":{"key":"2309","name":"Bezirk Raron"},"canton":{"key":"23","code":"VS","name":"Valais / Wallis"},"status":"Real"},{"key":"10043949","name":"Haselpletschaweg","postalCode":"3935","locality":"Bürchen","commune":{"key":"6193","name":"Bürchen","shortName":"Bürchen"},"district":{"key":"2309","name":"Bezirk Raron"},"canton":{"key":"23","code":"VS","name":"Valais / Wallis"},"status":"Real"},{"key":"10043948","name":"Haselstrasse","postalCode":"3935","locality":"Bürchen","commune":{"key":"6193","name":"Bürchen","shortName":"Bürchen"},"district":{"key":"2309","name":"Bezirk Raron"},"canton":{"key":"23","code":"VS","name":"Valais / Wallis"},"status":"Real"},{"key":"10237178","name":"Hochastlerweg","postalCode":"3935","locality":"Bürchen","commune":{"key":"6193","name":"Bürchen","shortName":"Bürchen"},"district":{"key":"2309","name":"Bezirk Raron"},"canton":{"key":"23","code":"VS","name":"Valais / Wallis"},"status":"Real"},{"key":"10077280","name":"Holzweida","postalCode":"3935","locality":"Bürchen","commune":{"key":"6193","name":"Bürchen","shortName":"Bürchen"},"district":{"key":"2309","name":"Bezirk Raron"},"canton":{"key":"23","code":"VS","name":"Valais / Wallis"},"status":"Real"},{"key":"10205926","name":"Holzweidaweg","postalCode":"3935","locality":"Bürchen","commune":{"key":"6193","name":"Bürchen","shortName":"Bürchen"},"district":{"key":"2309","name":"Bezirk Raron"},"canton":{"key":"23","code":"VS","name":"Valais / Wallis"},"status":"Real"},{"key":"10171872","name":"Ibrichgasse","postalCode":"3935","locality":"Bürchen","commune":{"key":"6193","name":"Bürchen","shortName":"Bürchen"},"district":{"key":"2309","name":"Bezirk Raron"},"canton":{"key":"23","code":"VS","name":"Valais / Wallis"},"status":"Real"},{"key":"10043950","name":"Ibrichstrasse","postalCode":"3935","locality":"Bürchen","commune":{"key":"6193","name":"Bürchen","shortName":"Bürchen"},"district":{"key":"2309","name":"Bezirk Raron"},"canton":{"key":"23","code":"VS","name":"Valais / Wallis"},"status":"Real"},{"key":"10124834","name":"Ibrichweg","postalCode":"3935","locality":"Bürchen","commune":{"key":"6193","name":"Bürchen","shortName":"Bürchen"},"district":{"key":"2309","name":"Bezirk Raron"},"canton":{"key":"23","code":"VS","name":"Valais / Wallis"},"status":"Real"},{"key":"10077281","name":"Jostbiel","postalCode":"3935","locality":"Bürchen","commune":{"key":"6193","name":"Bürchen","shortName":"Bürchen"},"district":{"key":"2309","name":"Bezirk Raron"},"canton":{"key":"23","code":"VS","name":"Valais / Wallis"},"status":"Real"},{"key":"10115714","name":"Lischweidaweg","postalCode":"3935","locality":"Bürchen","commune":{"key":"6193","name":"Bürchen","shortName":"Bürchen"},"district":{"key":"2309","name":"Bezirk Raron"},"canton":{"key":"23","code":"VS","name":"Valais / Wallis"},"status":"Real"},{"key":"10020077","name":"Maurackergasse","postalCode":"3935","locality":"Bürchen","commune":{"key":"6193","name":"Bürchen","shortName":"Bürchen"},"district":{"key":"2309","name":"Bezirk Raron"},"canton":{"key":"23","code":"VS","name":"Valais / Wallis"},"status":"Real"},{"key":"10043951","name":"Maurackerstrasse","postalCode":"3935","locality":"Bürchen","commune":{"key":"6193","name":"Bürchen","shortName":"Bürchen"},"district":{"key":"2309","name":"Bezirk Raron"},"canton":{"key":"23","code":"VS","name":"Valais / Wallis"},"status":"Real"},{"key":"10167646","name":"Mühlegasse","postalCode":"3935","locality":"Bürchen","commune":{"key":"6193","name":"Bürchen","shortName":"Bürchen"},"district":{"key":"2309","name":"Bezirk Raron"},"canton":{"key":"23","code":"VS","name":"Valais / Wallis"},"status":"Real"},{"key":"10077898","name":"Nessjernweg","postalCode":"3935","locality":"Bürchen","commune":{"key":"6193","name":"Bürchen","shortName":"Bürchen"},"district":{"key":"2309","name":"Bezirk Raron"},"canton":{"key":"23","code":"VS","name":"Valais / Wallis"},"status":"Real"},{"key":"10043952","name":"Niwe Greechuweg","postalCode":"3935","locality":"Bürchen","commune":{"key":"6193","name":"Bürchen","shortName":"Bürchen"},"district":{"key":"2309","name":"Bezirk Raron"},"canton":{"key":"23","code":"VS","name":"Valais / Wallis"},"status":"Real"},{"key":"10077899","name":"Oberer Eggaweg","postalCode":"3935","locality":"Bürchen","commune":{"key":"6193","name":"Bürchen","shortName":"Bürchen"},"district":{"key":"2309","name":"Bezirk Raron"},"canton":{"key":"23","code":"VS","name":"Valais / Wallis"},"status":"Real"},{"key":"10099833","name":"Obere Ringstrasse","postalCode":"3935","locality":"Bürchen","commune":{"key":"6193","name":"Bürchen","shortName":"Bürchen"},"district":{"key":"2309","name":"Bezirk Raron"},"canton":{"key":"23","code":"VS","name":"Valais / Wallis"},"status":"Real"},{"key":"10043953","name":"Obschastrasse","postalCode":"3935","locality":"Bürchen","commune":{"key":"6193","name":"Bürchen","shortName":"Bürchen"},"district":{"key":"2309","name":"Bezirk Raron"},"canton":{"key":"23","code":"VS","name":"Valais / Wallis"},"status":"Real"},{"key":"10043954","name":"Panoramastrasse","postalCode":"3935","locality":"Bürchen","commune":{"key":"6193","name":"Bürchen","shortName":"Bürchen"},"district":{"key":"2309","name":"Bezirk Raron"},"canton":{"key":"23","code":"VS","name":"Valais / Wallis"},"status":"Real"},{"key":"10118725","name":"Panoramaweg","postalCode":"3935","locality":"Bürchen","commune":{"key":"6193","name":"Bürchen","shortName":"Bürchen"},"district":{"key":"2309","name":"Bezirk Raron"},"canton":{"key":"23","code":"VS","name":"Valais / Wallis"},"status":"Real"},{"key":"10237192","name":"Platjiniweg","postalCode":"3935","locality":"Bürchen","commune":{"key":"6193","name":"Bürchen","shortName":"Bürchen"},"district":{"key":"2309","name":"Bezirk Raron"},"canton":{"key":"23","code":"VS","name":"Valais / Wallis"},"status":"Real"},{"key":"10131892","name":"Räckholter","postalCode":"3935","locality":"Bürchen","commune":{"key":"6193","name":"Bürchen","shortName":"Bürchen"},"district":{"key":"2309","name":"Bezirk Raron"},"canton":{"key":"23","code":"VS","name":"Valais / Wallis"},"status":"Real"},{"key":"10043955","name":"Ronalpstrasse","postalCode":"3935","locality":"Bürchen","commune":{"key":"6193","name":"Bürchen","shortName":"Bürchen"},"district":{"key":"2309","name":"Bezirk Raron"},"canton":{"key":"23","code":"VS","name":"Valais / Wallis"},"status":"Real"},{"key":"10178367","name":"Stockjiweg","postalCode":"3935","locality":"Bürchen","commune":{"key":"6193","name":"Bürchen","shortName":"Bürchen"},"district":{"key":"2309","name":"Bezirk Raron"},"canton":{"key":"23","code":"VS","name":"Valais / Wallis"},"status":"Real"},{"key":"10237196","name":"Stuckjiniweg","postalCode":"3935","locality":"Bürchen","commune":{"key":"6193","name":"Bürchen","shortName":"Bürchen"},"district":{"key":"2309","name":"Bezirk Raron"},"canton":{"key":"23","code":"VS","name":"Valais / Wallis"},"status":"Real"},{"key":"10237200","name":"Unterbächstrasse","postalCode":"3935","locality":"Bürchen","commune":{"key":"6193","name":"Bürchen","shortName":"Bürchen"},"district":{"key":"2309","name":"Bezirk Raron"},"canton":{"key":"23","code":"VS","name":"Valais / Wallis"},"status":"Real"},{"key":"10099834","name":"Unterer Eggaweg","postalCode":"3935","locality":"Bürchen","commune":{"key":"6193","name":"Bürchen","shortName":"Bürchen"},"district":{"key":"2309","name":"Bezirk Raron"},"canton":{"key":"23","code":"VS","name":"Valais / Wallis"},"status":"Real"},{"key":"10191706","name":"Untere Ringstrasse","postalCode":"3935","locality":"Bürchen","commune":{"key":"6193","name":"Bürchen","shortName":"Bürchen"},"district":{"key":"2309","name":"Bezirk Raron"},"canton":{"key":"23","code":"VS","name":"Valais / Wallis"},"status":"Real"},{"key":"10043956","name":"Waldrandweg","postalCode":"3935","locality":"Bürchen","commune":{"key":"6193","name":"Bürchen","shortName":"Bürchen"},"district":{"key":"2309","name":"Bezirk Raron"},"canton":{"key":"23","code":"VS","name":"Valais / Wallis"},"status":"Real"},{"key":"10236149","name":"Waldstafelweg","postalCode":"3935","locality":"Bürchen","commune":{"key":"6193","name":"Bürchen","shortName":"Bürchen"},"district":{"key":"2309","name":"Bezirk Raron"},"canton":{"key":"23","code":"VS","name":"Valais / Wallis"},"status":"Real"},{"key":"10237198","name":"Wiisalpjiweg","postalCode":"3935","locality":"Bürchen","commune":{"key":"6193","name":"Bürchen","shortName":"Bürchen"},"district":{"key":"2309","name":"Bezirk Raron"},"canton":{"key":"23","code":"VS","name":"Valais / Wallis"},"status":"Real"},{"key":"10237707","name":"Wildiweg","postalCode":"3935","locality":"Bürchen","commune":{"key":"6193","name":"Bürchen","shortName":"Bürchen"},"district":{"key":"2309","name":"Bezirk Raron"},"canton":{"key":"23","code":"VS","name":"Valais / Wallis"},"status":"Real"},{"key":"10170862","name":"Windeggastrasse","postalCode":"3935","locality":"Bürchen","commune":{"key":"6193","name":"Bürchen","shortName":"Bürchen"},"district":{"key":"2309","name":"Bezirk Raron"},"canton":{"key":"23","code":"VS","name":"Valais / Wallis"},"status":"Real"},{"key":"10043957","name":"Zengerbernstrasse","postalCode":"3935","locality":"Bürchen","commune":{"key":"6193","name":"Bürchen","shortName":"Bürchen"},"district":{"key":"2309","name":"Bezirk Raron"},"canton":{"key":"23","code":"VS","name":"Valais / Wallis"},"status":"Real"},{"key":"10124840","name":"Zenhäuserngasse","postalCode":"3935","locality":"Bürchen","commune":{"key":"6193","name":"Bürchen","shortName":"Bürchen"},"district":{"key":"2309","name":"Bezirk Raron"},"canton":{"key":"23","code":"VS","name":"Valais / Wallis"},"status":"Real"},{"key":"10077900","name":"Zenhäusernstrasse","postalCode":"3935","locality":"Bürchen","commune":{"key":"6193","name":"Bürchen","shortName":"Bürchen"},"district":{"key":"2309","name":"Bezirk Raron"},"canton":{"key":"23","code":"VS","name":"Valais / Wallis"},"status":"Real"},{"key":"10168694","name":"Zentriegengasse","postalCode":"3935","locality":"Bürchen","commune":{"key":"6193","name":"Bürchen","shortName":"Bürchen"},"district":{"key":"2309","name":"Bezirk Raron"},"canton":{"key":"23","code":"VS","name":"Valais / Wallis"},"status":"Real"},{"key":"10043958","name":"Zentriegenstrasse","postalCode":"3935","locality":"Bürchen","commune":{"key":"6193","name":"Bürchen","shortName":"Bürchen"},"district":{"key":"2309","name":"Bezirk Raron"},"canton":{"key":"23","code":"VS","name":"Valais / Wallis"},"status":"Real"},{"key":"10099835","name":"Zumoberhausstrasse","postalCode":"3935","locality":"Bürchen","commune":{"key":"6193","name":"Bürchen","shortName":"Bürchen"},"district":{"key":"2309","name":"Bezirk Raron"},"canton":{"key":"23","code":"VS","name":"Valais / Wallis"},"status":"Real"},]