[{"name":"Ahornweg","postalCode":"39307","locality":"Elbe-Parey","municipality":{"key":"15086035","name":"Elbe-Parey","type":"Kreisangehörige_Gemeinde"},"district":{"key":"15086","name":"Jerichower Land","type":"Landkreis"},"federalState":{"key":"15","name":"Sachsen-Anhalt"}},{"name":"Ahornweg","postalCode":"39317","locality":"Elbe-Parey","municipality":{"key":"15086035","name":"Elbe-Parey","type":"Kreisangehörige_Gemeinde"},"district":{"key":"15086","name":"Jerichower Land","type":"Landkreis"},"federalState":{"key":"15","name":"Sachsen-Anhalt"}},{"name":"Am Bahnhof","postalCode":"39307","locality":"Elbe-Parey","municipality":{"key":"15086035","name":"Elbe-Parey","type":"Kreisangehörige_Gemeinde"},"district":{"key":"15086","name":"Jerichower Land","type":"Landkreis"},"federalState":{"key":"15","name":"Sachsen-Anhalt"}},{"name":"Am Deich","postalCode":"39317","locality":"Elbe-Parey","municipality":{"key":"15086035","name":"Elbe-Parey","type":"Kreisangehörige_Gemeinde"},"district":{"key":"15086","name":"Jerichower Land","type":"Landkreis"},"federalState":{"key":"15","name":"Sachsen-Anhalt"}},{"name":"Am Park","postalCode":"39317","locality":"Elbe-Parey","municipality":{"key":"15086035","name":"Elbe-Parey","type":"Kreisangehörige_Gemeinde"},"district":{"key":"15086","name":"Jerichower Land","type":"Landkreis"},"federalState":{"key":"15","name":"Sachsen-Anhalt"}},{"name":"Am Sportplatz","postalCode":"39317","locality":"Elbe-Parey","municipality":{"key":"15086035","name":"Elbe-Parey","type":"Kreisangehörige_Gemeinde"},"district":{"key":"15086","name":"Jerichower Land","type":"Landkreis"},"federalState":{"key":"15","name":"Sachsen-Anhalt"}},{"name":"Am Wasserwerk","postalCode":"39307","locality":"Elbe-Parey","municipality":{"key":"15086035","name":"Elbe-Parey","type":"Kreisangehörige_Gemeinde"},"district":{"key":"15086","name":"Jerichower Land","type":"Landkreis"},"federalState":{"key":"15","name":"Sachsen-Anhalt"}},{"name":"An den Eichen","postalCode":"39307","locality":"Elbe-Parey","municipality":{"key":"15086035","name":"Elbe-Parey","type":"Kreisangehörige_Gemeinde"},"district":{"key":"15086","name":"Jerichower Land","type":"Landkreis"},"federalState":{"key":"15","name":"Sachsen-Anhalt"}},{"name":"An den Reepen","postalCode":"39317","locality":"Elbe-Parey","municipality":{"key":"15086035","name":"Elbe-Parey","type":"Kreisangehörige_Gemeinde"},"district":{"key":"15086","name":"Jerichower Land","type":"Landkreis"},"federalState":{"key":"15","name":"Sachsen-Anhalt"}},{"name":"An der Alten Elbe","postalCode":"39317","locality":"Elbe-Parey","municipality":{"key":"15086035","name":"Elbe-Parey","type":"Kreisangehörige_Gemeinde"},"district":{"key":"15086","name":"Jerichower Land","type":"Landkreis"},"federalState":{"key":"15","name":"Sachsen-Anhalt"}},{"name":"An der Heide","postalCode":"39317","locality":"Elbe-Parey","municipality":{"key":"15086035","name":"Elbe-Parey","type":"Kreisangehörige_Gemeinde"},"district":{"key":"15086","name":"Jerichower Land","type":"Landkreis"},"federalState":{"key":"15","name":"Sachsen-Anhalt"}},{"name":"An der Sandeberghütung","postalCode":"39317","locality":"Elbe-Parey","municipality":{"key":"15086035","name":"Elbe-Parey","type":"Kreisangehörige_Gemeinde"},"district":{"key":"15086","name":"Jerichower Land","type":"Landkreis"},"federalState":{"key":"15","name":"Sachsen-Anhalt"}},{"name":"Apothekergasse","postalCode":"39317","locality":"Elbe-Parey","municipality":{"key":"15086035","name":"Elbe-Parey","type":"Kreisangehörige_Gemeinde"},"district":{"key":"15086","name":"Jerichower Land","type":"Landkreis"},"federalState":{"key":"15","name":"Sachsen-Anhalt"}},{"name":"August-Bebel-Str.","postalCode":"39317","locality":"Elbe-Parey","municipality":{"key":"15086035","name":"Elbe-Parey","type":"Kreisangehörige_Gemeinde"},"district":{"key":"15086","name":"Jerichower Land","type":"Landkreis"},"federalState":{"key":"15","name":"Sachsen-Anhalt"}},{"name":"Bäckergasse","postalCode":"39317","locality":"Elbe-Parey","municipality":{"key":"15086035","name":"Elbe-Parey","type":"Kreisangehörige_Gemeinde"},"district":{"key":"15086","name":"Jerichower Land","type":"Landkreis"},"federalState":{"key":"15","name":"Sachsen-Anhalt"}},{"name":"Bahnhofstr.","postalCode":"39307","locality":"Elbe-Parey","municipality":{"key":"15086035","name":"Elbe-Parey","type":"Kreisangehörige_Gemeinde"},"district":{"key":"15086","name":"Jerichower Land","type":"Landkreis"},"federalState":{"key":"15","name":"Sachsen-Anhalt"}},{"name":"Beethovenstr.","postalCode":"39317","locality":"Elbe-Parey","municipality":{"key":"15086035","name":"Elbe-Parey","type":"Kreisangehörige_Gemeinde"},"district":{"key":"15086","name":"Jerichower Land","type":"Landkreis"},"federalState":{"key":"15","name":"Sachsen-Anhalt"}},{"name":"Berg","postalCode":"39317","locality":"Elbe-Parey","municipality":{"key":"15086035","name":"Elbe-Parey","type":"Kreisangehörige_Gemeinde"},"district":{"key":"15086","name":"Jerichower Land","type":"Landkreis"},"federalState":{"key":"15","name":"Sachsen-Anhalt"}},{"name":"Bergstr.","postalCode":"39307","locality":"Elbe-Parey","municipality":{"key":"15086035","name":"Elbe-Parey","type":"Kreisangehörige_Gemeinde"},"district":{"key":"15086","name":"Jerichower Land","type":"Landkreis"},"federalState":{"key":"15","name":"Sachsen-Anhalt"}},{"name":"Bergstr.","postalCode":"39317","locality":"Elbe-Parey","municipality":{"key":"15086035","name":"Elbe-Parey","type":"Kreisangehörige_Gemeinde"},"district":{"key":"15086","name":"Jerichower Land","type":"Landkreis"},"federalState":{"key":"15","name":"Sachsen-Anhalt"}},{"name":"Bergzower Str.","postalCode":"39317","locality":"Elbe-Parey","municipality":{"key":"15086035","name":"Elbe-Parey","type":"Kreisangehörige_Gemeinde"},"district":{"key":"15086","name":"Jerichower Land","type":"Landkreis"},"federalState":{"key":"15","name":"Sachsen-Anhalt"}},{"name":"Berliner Chaussee","postalCode":"39307","locality":"Elbe-Parey","municipality":{"key":"15086035","name":"Elbe-Parey","type":"Kreisangehörige_Gemeinde"},"district":{"key":"15086","name":"Jerichower Land","type":"Landkreis"},"federalState":{"key":"15","name":"Sachsen-Anhalt"}},{"name":"Birkenweg","postalCode":"39317","locality":"Elbe-Parey","municipality":{"key":"15086035","name":"Elbe-Parey","type":"Kreisangehörige_Gemeinde"},"district":{"key":"15086","name":"Jerichower Land","type":"Landkreis"},"federalState":{"key":"15","name":"Sachsen-Anhalt"}},{"name":"Bittkauer Weg","postalCode":"39317","locality":"Elbe-Parey","municipality":{"key":"15086035","name":"Elbe-Parey","type":"Kreisangehörige_Gemeinde"},"district":{"key":"15086","name":"Jerichower Land","type":"Landkreis"},"federalState":{"key":"15","name":"Sachsen-Anhalt"}},{"name":"Brandensteiner Weg","postalCode":"39307","locality":"Elbe-Parey","municipality":{"key":"15086035","name":"Elbe-Parey","type":"Kreisangehörige_Gemeinde"},"district":{"key":"15086","name":"Jerichower Land","type":"Landkreis"},"federalState":{"key":"15","name":"Sachsen-Anhalt"}},{"name":"Breiter Weg","postalCode":"39317","locality":"Elbe-Parey","municipality":{"key":"15086035","name":"Elbe-Parey","type":"Kreisangehörige_Gemeinde"},"district":{"key":"15086","name":"Jerichower Land","type":"Landkreis"},"federalState":{"key":"15","name":"Sachsen-Anhalt"}},{"name":"Chausseestr.","postalCode":"39317","locality":"Elbe-Parey","municipality":{"key":"15086035","name":"Elbe-Parey","type":"Kreisangehörige_Gemeinde"},"district":{"key":"15086","name":"Jerichower Land","type":"Landkreis"},"federalState":{"key":"15","name":"Sachsen-Anhalt"}},{"name":"Deichstr.","postalCode":"39317","locality":"Elbe-Parey","municipality":{"key":"15086035","name":"Elbe-Parey","type":"Kreisangehörige_Gemeinde"},"district":{"key":"15086","name":"Jerichower Land","type":"Landkreis"},"federalState":{"key":"15","name":"Sachsen-Anhalt"}},{"name":"Derbener Weg","postalCode":"39307","locality":"Elbe-Parey","municipality":{"key":"15086035","name":"Elbe-Parey","type":"Kreisangehörige_Gemeinde"},"district":{"key":"15086","name":"Jerichower Land","type":"Landkreis"},"federalState":{"key":"15","name":"Sachsen-Anhalt"}},{"name":"Diebsteig","postalCode":"39317","locality":"Elbe-Parey","municipality":{"key":"15086035","name":"Elbe-Parey","type":"Kreisangehörige_Gemeinde"},"district":{"key":"15086","name":"Jerichower Land","type":"Landkreis"},"federalState":{"key":"15","name":"Sachsen-Anhalt"}},{"name":"Elberadweg","postalCode":"39317","locality":"Elbe-Parey","municipality":{"key":"15086035","name":"Elbe-Parey","type":"Kreisangehörige_Gemeinde"},"district":{"key":"15086","name":"Jerichower Land","type":"Landkreis"},"federalState":{"key":"15","name":"Sachsen-Anhalt"}},{"name":"Elbstr.","postalCode":"39317","locality":"Elbe-Parey","municipality":{"key":"15086035","name":"Elbe-Parey","type":"Kreisangehörige_Gemeinde"},"district":{"key":"15086","name":"Jerichower Land","type":"Landkreis"},"federalState":{"key":"15","name":"Sachsen-Anhalt"}},{"name":"Erich-Weinert-Ring","postalCode":"39317","locality":"Elbe-Parey","municipality":{"key":"15086035","name":"Elbe-Parey","type":"Kreisangehörige_Gemeinde"},"district":{"key":"15086","name":"Jerichower Land","type":"Landkreis"},"federalState":{"key":"15","name":"Sachsen-Anhalt"}},{"name":"Ernst-Thälmann-Str.","postalCode":"39317","locality":"Elbe-Parey","municipality":{"key":"15086035","name":"Elbe-Parey","type":"Kreisangehörige_Gemeinde"},"district":{"key":"15086","name":"Jerichower Land","type":"Landkreis"},"federalState":{"key":"15","name":"Sachsen-Anhalt"}},{"name":"Feldstr.","postalCode":"39317","locality":"Elbe-Parey","municipality":{"key":"15086035","name":"Elbe-Parey","type":"Kreisangehörige_Gemeinde"},"district":{"key":"15086","name":"Jerichower Land","type":"Landkreis"},"federalState":{"key":"15","name":"Sachsen-Anhalt"}},{"name":"Feldweg","postalCode":"39317","locality":"Elbe-Parey","municipality":{"key":"15086035","name":"Elbe-Parey","type":"Kreisangehörige_Gemeinde"},"district":{"key":"15086","name":"Jerichower Land","type":"Landkreis"},"federalState":{"key":"15","name":"Sachsen-Anhalt"}},{"name":"Fontanestr.","postalCode":"39317","locality":"Elbe-Parey","municipality":{"key":"15086035","name":"Elbe-Parey","type":"Kreisangehörige_Gemeinde"},"district":{"key":"15086","name":"Jerichower Land","type":"Landkreis"},"federalState":{"key":"15","name":"Sachsen-Anhalt"}},{"name":"Friedensplatz","postalCode":"39317","locality":"Elbe-Parey","municipality":{"key":"15086035","name":"Elbe-Parey","type":"Kreisangehörige_Gemeinde"},"district":{"key":"15086","name":"Jerichower Land","type":"Landkreis"},"federalState":{"key":"15","name":"Sachsen-Anhalt"}},{"name":"Friedenstr.","postalCode":"39307","locality":"Elbe-Parey","municipality":{"key":"15086035","name":"Elbe-Parey","type":"Kreisangehörige_Gemeinde"},"district":{"key":"15086","name":"Jerichower Land","type":"Landkreis"},"federalState":{"key":"15","name":"Sachsen-Anhalt"}},{"name":"Friedenstr.","postalCode":"39317","locality":"Elbe-Parey","municipality":{"key":"15086035","name":"Elbe-Parey","type":"Kreisangehörige_Gemeinde"},"district":{"key":"15086","name":"Jerichower Land","type":"Landkreis"},"federalState":{"key":"15","name":"Sachsen-Anhalt"}},{"name":"Gartenweg","postalCode":"39317","locality":"Elbe-Parey","municipality":{"key":"15086035","name":"Elbe-Parey","type":"Kreisangehörige_Gemeinde"},"district":{"key":"15086","name":"Jerichower Land","type":"Landkreis"},"federalState":{"key":"15","name":"Sachsen-Anhalt"}},{"name":"Genthiner Str.","postalCode":"39307","locality":"Elbe-Parey","municipality":{"key":"15086035","name":"Elbe-Parey","type":"Kreisangehörige_Gemeinde"},"district":{"key":"15086","name":"Jerichower Land","type":"Landkreis"},"federalState":{"key":"15","name":"Sachsen-Anhalt"}},{"name":"Genthiner Str.","postalCode":"39317","locality":"Elbe-Parey","municipality":{"key":"15086035","name":"Elbe-Parey","type":"Kreisangehörige_Gemeinde"},"district":{"key":"15086","name":"Jerichower Land","type":"Landkreis"},"federalState":{"key":"15","name":"Sachsen-Anhalt"}},{"name":"Geschwister-Scholl-Str.","postalCode":"39317","locality":"Elbe-Parey","municipality":{"key":"15086035","name":"Elbe-Parey","type":"Kreisangehörige_Gemeinde"},"district":{"key":"15086","name":"Jerichower Land","type":"Landkreis"},"federalState":{"key":"15","name":"Sachsen-Anhalt"}},{"name":"Goethestr.","postalCode":"39317","locality":"Elbe-Parey","municipality":{"key":"15086035","name":"Elbe-Parey","type":"Kreisangehörige_Gemeinde"},"district":{"key":"15086","name":"Jerichower Land","type":"Landkreis"},"federalState":{"key":"15","name":"Sachsen-Anhalt"}},{"name":"Große Schulstr.","postalCode":"39307","locality":"Elbe-Parey","municipality":{"key":"15086035","name":"Elbe-Parey","type":"Kreisangehörige_Gemeinde"},"district":{"key":"15086","name":"Jerichower Land","type":"Landkreis"},"federalState":{"key":"15","name":"Sachsen-Anhalt"}},{"name":"Grünearmstr.","postalCode":"39317","locality":"Elbe-Parey","municipality":{"key":"15086035","name":"Elbe-Parey","type":"Kreisangehörige_Gemeinde"},"district":{"key":"15086","name":"Jerichower Land","type":"Landkreis"},"federalState":{"key":"15","name":"Sachsen-Anhalt"}},{"name":"Güsener Str.","postalCode":"39307","locality":"Elbe-Parey","municipality":{"key":"15086035","name":"Elbe-Parey","type":"Kreisangehörige_Gemeinde"},"district":{"key":"15086","name":"Jerichower Land","type":"Landkreis"},"federalState":{"key":"15","name":"Sachsen-Anhalt"}},{"name":"Güsener Str.","postalCode":"39317","locality":"Elbe-Parey","municipality":{"key":"15086035","name":"Elbe-Parey","type":"Kreisangehörige_Gemeinde"},"district":{"key":"15086","name":"Jerichower Land","type":"Landkreis"},"federalState":{"key":"15","name":"Sachsen-Anhalt"}},{"name":"Haberlandweg","postalCode":"39317","locality":"Elbe-Parey","municipality":{"key":"15086035","name":"Elbe-Parey","type":"Kreisangehörige_Gemeinde"},"district":{"key":"15086","name":"Jerichower Land","type":"Landkreis"},"federalState":{"key":"15","name":"Sachsen-Anhalt"}},{"name":"Hauptstr.","postalCode":"39317","locality":"Elbe-Parey","municipality":{"key":"15086035","name":"Elbe-Parey","type":"Kreisangehörige_Gemeinde"},"district":{"key":"15086","name":"Jerichower Land","type":"Landkreis"},"federalState":{"key":"15","name":"Sachsen-Anhalt"}},{"name":"Heinrich-Heine-Str.","postalCode":"39317","locality":"Elbe-Parey","municipality":{"key":"15086035","name":"Elbe-Parey","type":"Kreisangehörige_Gemeinde"},"district":{"key":"15086","name":"Jerichower Land","type":"Landkreis"},"federalState":{"key":"15","name":"Sachsen-Anhalt"}},{"name":"Herderstr.","postalCode":"39317","locality":"Elbe-Parey","municipality":{"key":"15086035","name":"Elbe-Parey","type":"Kreisangehörige_Gemeinde"},"district":{"key":"15086","name":"Jerichower Land","type":"Landkreis"},"federalState":{"key":"15","name":"Sachsen-Anhalt"}},{"name":"Hirtenstr.","postalCode":"39317","locality":"Elbe-Parey","municipality":{"key":"15086035","name":"Elbe-Parey","type":"Kreisangehörige_Gemeinde"},"district":{"key":"15086","name":"Jerichower Land","type":"Landkreis"},"federalState":{"key":"15","name":"Sachsen-Anhalt"}},{"name":"Hopfensteg","postalCode":"39317","locality":"Elbe-Parey","municipality":{"key":"15086035","name":"Elbe-Parey","type":"Kreisangehörige_Gemeinde"},"district":{"key":"15086","name":"Jerichower Land","type":"Landkreis"},"federalState":{"key":"15","name":"Sachsen-Anhalt"}},{"name":"Insel","postalCode":"39317","locality":"Elbe-Parey","municipality":{"key":"15086035","name":"Elbe-Parey","type":"Kreisangehörige_Gemeinde"},"district":{"key":"15086","name":"Jerichower Land","type":"Landkreis"},"federalState":{"key":"15","name":"Sachsen-Anhalt"}},{"name":"Jägergasse","postalCode":"39317","locality":"Elbe-Parey","municipality":{"key":"15086035","name":"Elbe-Parey","type":"Kreisangehörige_Gemeinde"},"district":{"key":"15086","name":"Jerichower Land","type":"Landkreis"},"federalState":{"key":"15","name":"Sachsen-Anhalt"}},{"name":"Jägerstr.","postalCode":"39317","locality":"Elbe-Parey","municipality":{"key":"15086035","name":"Elbe-Parey","type":"Kreisangehörige_Gemeinde"},"district":{"key":"15086","name":"Jerichower Land","type":"Landkreis"},"federalState":{"key":"15","name":"Sachsen-Anhalt"}},{"name":"Jerichower Str.","postalCode":"39317","locality":"Elbe-Parey","municipality":{"key":"15086035","name":"Elbe-Parey","type":"Kreisangehörige_Gemeinde"},"district":{"key":"15086","name":"Jerichower Land","type":"Landkreis"},"federalState":{"key":"15","name":"Sachsen-Anhalt"}},{"name":"Kanalstr.","postalCode":"39317","locality":"Elbe-Parey","municipality":{"key":"15086035","name":"Elbe-Parey","type":"Kreisangehörige_Gemeinde"},"district":{"key":"15086","name":"Jerichower Land","type":"Landkreis"},"federalState":{"key":"15","name":"Sachsen-Anhalt"}},{"name":"Kanalweg","postalCode":"39307","locality":"Elbe-Parey","municipality":{"key":"15086035","name":"Elbe-Parey","type":"Kreisangehörige_Gemeinde"},"district":{"key":"15086","name":"Jerichower Land","type":"Landkreis"},"federalState":{"key":"15","name":"Sachsen-Anhalt"}},{"name":"Karl-Marx-Str.","postalCode":"39317","locality":"Elbe-Parey","municipality":{"key":"15086035","name":"Elbe-Parey","type":"Kreisangehörige_Gemeinde"},"district":{"key":"15086","name":"Jerichower Land","type":"Landkreis"},"federalState":{"key":"15","name":"Sachsen-Anhalt"}},{"name":"Kastanienweg","postalCode":"39307","locality":"Elbe-Parey","municipality":{"key":"15086035","name":"Elbe-Parey","type":"Kreisangehörige_Gemeinde"},"district":{"key":"15086","name":"Jerichower Land","type":"Landkreis"},"federalState":{"key":"15","name":"Sachsen-Anhalt"}},{"name":"Kellerberge","postalCode":"39317","locality":"Elbe-Parey","municipality":{"key":"15086035","name":"Elbe-Parey","type":"Kreisangehörige_Gemeinde"},"district":{"key":"15086","name":"Jerichower Land","type":"Landkreis"},"federalState":{"key":"15","name":"Sachsen-Anhalt"}},{"name":"Kirchenstr.","postalCode":"39317","locality":"Elbe-Parey","municipality":{"key":"15086035","name":"Elbe-Parey","type":"Kreisangehörige_Gemeinde"},"district":{"key":"15086","name":"Jerichower Land","type":"Landkreis"},"federalState":{"key":"15","name":"Sachsen-Anhalt"}},{"name":"Kirchplatz","postalCode":"39317","locality":"Elbe-Parey","municipality":{"key":"15086035","name":"Elbe-Parey","type":"Kreisangehörige_Gemeinde"},"district":{"key":"15086","name":"Jerichower Land","type":"Landkreis"},"federalState":{"key":"15","name":"Sachsen-Anhalt"}},{"name":"Kirchstr.","postalCode":"39317","locality":"Elbe-Parey","municipality":{"key":"15086035","name":"Elbe-Parey","type":"Kreisangehörige_Gemeinde"},"district":{"key":"15086","name":"Jerichower Land","type":"Landkreis"},"federalState":{"key":"15","name":"Sachsen-Anhalt"}},{"name":"Kleine Schulstr.","postalCode":"39307","locality":"Elbe-Parey","municipality":{"key":"15086035","name":"Elbe-Parey","type":"Kreisangehörige_Gemeinde"},"district":{"key":"15086","name":"Jerichower Land","type":"Landkreis"},"federalState":{"key":"15","name":"Sachsen-Anhalt"}},{"name":"Kleiststr.","postalCode":"39317","locality":"Elbe-Parey","municipality":{"key":"15086035","name":"Elbe-Parey","type":"Kreisangehörige_Gemeinde"},"district":{"key":"15086","name":"Jerichower Land","type":"Landkreis"},"federalState":{"key":"15","name":"Sachsen-Anhalt"}},{"name":"Kreuzgang","postalCode":"39317","locality":"Elbe-Parey","municipality":{"key":"15086035","name":"Elbe-Parey","type":"Kreisangehörige_Gemeinde"},"district":{"key":"15086","name":"Jerichower Land","type":"Landkreis"},"federalState":{"key":"15","name":"Sachsen-Anhalt"}},{"name":"Kurzer Steg","postalCode":"39317","locality":"Elbe-Parey","municipality":{"key":"15086035","name":"Elbe-Parey","type":"Kreisangehörige_Gemeinde"},"district":{"key":"15086","name":"Jerichower Land","type":"Landkreis"},"federalState":{"key":"15","name":"Sachsen-Anhalt"}},{"name":"Lange Str.","postalCode":"39317","locality":"Elbe-Parey","municipality":{"key":"15086035","name":"Elbe-Parey","type":"Kreisangehörige_Gemeinde"},"district":{"key":"15086","name":"Jerichower Land","type":"Landkreis"},"federalState":{"key":"15","name":"Sachsen-Anhalt"}},{"name":"Lessingstr.","postalCode":"39317","locality":"Elbe-Parey","municipality":{"key":"15086035","name":"Elbe-Parey","type":"Kreisangehörige_Gemeinde"},"district":{"key":"15086","name":"Jerichower Land","type":"Landkreis"},"federalState":{"key":"15","name":"Sachsen-Anhalt"}},{"name":"Lindenstr.","postalCode":"39307","locality":"Elbe-Parey","municipality":{"key":"15086035","name":"Elbe-Parey","type":"Kreisangehörige_Gemeinde"},"district":{"key":"15086","name":"Jerichower Land","type":"Landkreis"},"federalState":{"key":"15","name":"Sachsen-Anhalt"}},{"name":"Lindenstr.","postalCode":"39317","locality":"Elbe-Parey","municipality":{"key":"15086035","name":"Elbe-Parey","type":"Kreisangehörige_Gemeinde"},"district":{"key":"15086","name":"Jerichower Land","type":"Landkreis"},"federalState":{"key":"15","name":"Sachsen-Anhalt"}},{"name":"Luisenstr.","postalCode":"39317","locality":"Elbe-Parey","municipality":{"key":"15086035","name":"Elbe-Parey","type":"Kreisangehörige_Gemeinde"},"district":{"key":"15086","name":"Jerichower Land","type":"Landkreis"},"federalState":{"key":"15","name":"Sachsen-Anhalt"}},{"name":"Lustgarten","postalCode":"39317","locality":"Elbe-Parey","municipality":{"key":"15086035","name":"Elbe-Parey","type":"Kreisangehörige_Gemeinde"},"district":{"key":"15086","name":"Jerichower Land","type":"Landkreis"},"federalState":{"key":"15","name":"Sachsen-Anhalt"}},{"name":"Mauerstr.","postalCode":"39317","locality":"Elbe-Parey","municipality":{"key":"15086035","name":"Elbe-Parey","type":"Kreisangehörige_Gemeinde"},"district":{"key":"15086","name":"Jerichower Land","type":"Landkreis"},"federalState":{"key":"15","name":"Sachsen-Anhalt"}},{"name":"Meisterstr.","postalCode":"39317","locality":"Elbe-Parey","municipality":{"key":"15086035","name":"Elbe-Parey","type":"Kreisangehörige_Gemeinde"},"district":{"key":"15086","name":"Jerichower Land","type":"Landkreis"},"federalState":{"key":"15","name":"Sachsen-Anhalt"}},{"name":"Mittelstr.","postalCode":"39307","locality":"Elbe-Parey","municipality":{"key":"15086035","name":"Elbe-Parey","type":"Kreisangehörige_Gemeinde"},"district":{"key":"15086","name":"Jerichower Land","type":"Landkreis"},"federalState":{"key":"15","name":"Sachsen-Anhalt"}},{"name":"Mittelstr.","postalCode":"39317","locality":"Elbe-Parey","municipality":{"key":"15086035","name":"Elbe-Parey","type":"Kreisangehörige_Gemeinde"},"district":{"key":"15086","name":"Jerichower Land","type":"Landkreis"},"federalState":{"key":"15","name":"Sachsen-Anhalt"}},{"name":"Mittelweg","postalCode":"39317","locality":"Elbe-Parey","municipality":{"key":"15086035","name":"Elbe-Parey","type":"Kreisangehörige_Gemeinde"},"district":{"key":"15086","name":"Jerichower Land","type":"Landkreis"},"federalState":{"key":"15","name":"Sachsen-Anhalt"}},{"name":"Mozartstr.","postalCode":"39317","locality":"Elbe-Parey","municipality":{"key":"15086035","name":"Elbe-Parey","type":"Kreisangehörige_Gemeinde"},"district":{"key":"15086","name":"Jerichower Land","type":"Landkreis"},"federalState":{"key":"15","name":"Sachsen-Anhalt"}},{"name":"Mühlenstr.","postalCode":"39307","locality":"Elbe-Parey","municipality":{"key":"15086035","name":"Elbe-Parey","type":"Kreisangehörige_Gemeinde"},"district":{"key":"15086","name":"Jerichower Land","type":"Landkreis"},"federalState":{"key":"15","name":"Sachsen-Anhalt"}},{"name":"Mühlenstr.","postalCode":"39317","locality":"Elbe-Parey","municipality":{"key":"15086035","name":"Elbe-Parey","type":"Kreisangehörige_Gemeinde"},"district":{"key":"15086","name":"Jerichower Land","type":"Landkreis"},"federalState":{"key":"15","name":"Sachsen-Anhalt"}},{"name":"Nachtweide","postalCode":"39317","locality":"Elbe-Parey","municipality":{"key":"15086035","name":"Elbe-Parey","type":"Kreisangehörige_Gemeinde"},"district":{"key":"15086","name":"Jerichower Land","type":"Landkreis"},"federalState":{"key":"15","name":"Sachsen-Anhalt"}},{"name":"Neuer Weg","postalCode":"39317","locality":"Elbe-Parey","municipality":{"key":"15086035","name":"Elbe-Parey","type":"Kreisangehörige_Gemeinde"},"district":{"key":"15086","name":"Jerichower Land","type":"Landkreis"},"federalState":{"key":"15","name":"Sachsen-Anhalt"}},{"name":"Parchener Str.","postalCode":"39317","locality":"Elbe-Parey","municipality":{"key":"15086035","name":"Elbe-Parey","type":"Kreisangehörige_Gemeinde"},"district":{"key":"15086","name":"Jerichower Land","type":"Landkreis"},"federalState":{"key":"15","name":"Sachsen-Anhalt"}},{"name":"Pareyer Str.","postalCode":"39307","locality":"Elbe-Parey","municipality":{"key":"15086035","name":"Elbe-Parey","type":"Kreisangehörige_Gemeinde"},"district":{"key":"15086","name":"Jerichower Land","type":"Landkreis"},"federalState":{"key":"15","name":"Sachsen-Anhalt"}},{"name":"Pareyer Str.","postalCode":"39317","locality":"Elbe-Parey","municipality":{"key":"15086035","name":"Elbe-Parey","type":"Kreisangehörige_Gemeinde"},"district":{"key":"15086","name":"Jerichower Land","type":"Landkreis"},"federalState":{"key":"15","name":"Sachsen-Anhalt"}},{"name":"Redekiner Str.","postalCode":"39317","locality":"Elbe-Parey","municipality":{"key":"15086035","name":"Elbe-Parey","type":"Kreisangehörige_Gemeinde"},"district":{"key":"15086","name":"Jerichower Land","type":"Landkreis"},"federalState":{"key":"15","name":"Sachsen-Anhalt"}},{"name":"Rietzeler Weg","postalCode":"39307","locality":"Elbe-Parey","municipality":{"key":"15086035","name":"Elbe-Parey","type":"Kreisangehörige_Gemeinde"},"district":{"key":"15086","name":"Jerichower Land","type":"Landkreis"},"federalState":{"key":"15","name":"Sachsen-Anhalt"}},{"name":"Rohrschneiders Gang","postalCode":"39317","locality":"Elbe-Parey","municipality":{"key":"15086035","name":"Elbe-Parey","type":"Kreisangehörige_Gemeinde"},"district":{"key":"15086","name":"Jerichower Land","type":"Landkreis"},"federalState":{"key":"15","name":"Sachsen-Anhalt"}},{"name":"Rotdornstr.","postalCode":"39307","locality":"Elbe-Parey","municipality":{"key":"15086035","name":"Elbe-Parey","type":"Kreisangehörige_Gemeinde"},"district":{"key":"15086","name":"Jerichower Land","type":"Landkreis"},"federalState":{"key":"15","name":"Sachsen-Anhalt"}},{"name":"Rudolf-Breitscheid-Str.","postalCode":"39317","locality":"Elbe-Parey","municipality":{"key":"15086035","name":"Elbe-Parey","type":"Kreisangehörige_Gemeinde"},"district":{"key":"15086","name":"Jerichower Land","type":"Landkreis"},"federalState":{"key":"15","name":"Sachsen-Anhalt"}},{"name":"Schattberger Str.","postalCode":"39307","locality":"Elbe-Parey","municipality":{"key":"15086035","name":"Elbe-Parey","type":"Kreisangehörige_Gemeinde"},"district":{"key":"15086","name":"Jerichower Land","type":"Landkreis"},"federalState":{"key":"15","name":"Sachsen-Anhalt"}},{"name":"Schillerstr.","postalCode":"39317","locality":"Elbe-Parey","municipality":{"key":"15086035","name":"Elbe-Parey","type":"Kreisangehörige_Gemeinde"},"district":{"key":"15086","name":"Jerichower Land","type":"Landkreis"},"federalState":{"key":"15","name":"Sachsen-Anhalt"}},{"name":"Schleusengang","postalCode":"39307","locality":"Elbe-Parey","municipality":{"key":"15086035","name":"Elbe-Parey","type":"Kreisangehörige_Gemeinde"},"district":{"key":"15086","name":"Jerichower Land","type":"Landkreis"},"federalState":{"key":"15","name":"Sachsen-Anhalt"}},{"name":"Schluplatz","postalCode":"39307","locality":"Elbe-Parey","municipality":{"key":"15086035","name":"Elbe-Parey","type":"Kreisangehörige_Gemeinde"},"district":{"key":"15086","name":"Jerichower Land","type":"Landkreis"},"federalState":{"key":"15","name":"Sachsen-Anhalt"}},{"name":"Schlüterstr.","postalCode":"39317","locality":"Elbe-Parey","municipality":{"key":"15086035","name":"Elbe-Parey","type":"Kreisangehörige_Gemeinde"},"district":{"key":"15086","name":"Jerichower Land","type":"Landkreis"},"federalState":{"key":"15","name":"Sachsen-Anhalt"}},{"name":"Schulstr.","postalCode":"39317","locality":"Elbe-Parey","municipality":{"key":"15086035","name":"Elbe-Parey","type":"Kreisangehörige_Gemeinde"},"district":{"key":"15086","name":"Jerichower Land","type":"Landkreis"},"federalState":{"key":"15","name":"Sachsen-Anhalt"}},{"name":"Schwarzer Weg","postalCode":"39307","locality":"Elbe-Parey","municipality":{"key":"15086035","name":"Elbe-Parey","type":"Kreisangehörige_Gemeinde"},"district":{"key":"15086","name":"Jerichower Land","type":"Landkreis"},"federalState":{"key":"15","name":"Sachsen-Anhalt"}},{"name":"Seedorfer Weg","postalCode":"39307","locality":"Elbe-Parey","municipality":{"key":"15086035","name":"Elbe-Parey","type":"Kreisangehörige_Gemeinde"},"district":{"key":"15086","name":"Jerichower Land","type":"Landkreis"},"federalState":{"key":"15","name":"Sachsen-Anhalt"}},{"name":"Seedorfer Weg","postalCode":"39317","locality":"Elbe-Parey","municipality":{"key":"15086035","name":"Elbe-Parey","type":"Kreisangehörige_Gemeinde"},"district":{"key":"15086","name":"Jerichower Land","type":"Landkreis"},"federalState":{"key":"15","name":"Sachsen-Anhalt"}},{"name":"Siedlung","postalCode":"39317","locality":"Elbe-Parey","municipality":{"key":"15086035","name":"Elbe-Parey","type":"Kreisangehörige_Gemeinde"},"district":{"key":"15086","name":"Jerichower Land","type":"Landkreis"},"federalState":{"key":"15","name":"Sachsen-Anhalt"}},{"name":"Siepenweg","postalCode":"39317","locality":"Elbe-Parey","municipality":{"key":"15086035","name":"Elbe-Parey","type":"Kreisangehörige_Gemeinde"},"district":{"key":"15086","name":"Jerichower Land","type":"Landkreis"},"federalState":{"key":"15","name":"Sachsen-Anhalt"}},{"name":"Sportplatz Bergzow","postalCode":"39307","locality":"Elbe-Parey","municipality":{"key":"15086035","name":"Elbe-Parey","type":"Kreisangehörige_Gemeinde"},"district":{"key":"15086","name":"Jerichower Land","type":"Landkreis"},"federalState":{"key":"15","name":"Sachsen-Anhalt"}},{"name":"Steinstr.","postalCode":"39317","locality":"Elbe-Parey","municipality":{"key":"15086035","name":"Elbe-Parey","type":"Kreisangehörige_Gemeinde"},"district":{"key":"15086","name":"Jerichower Land","type":"Landkreis"},"federalState":{"key":"15","name":"Sachsen-Anhalt"}},{"name":"Str. der DSF","postalCode":"39317","locality":"Elbe-Parey","municipality":{"key":"15086035","name":"Elbe-Parey","type":"Kreisangehörige_Gemeinde"},"district":{"key":"15086","name":"Jerichower Land","type":"Landkreis"},"federalState":{"key":"15","name":"Sachsen-Anhalt"}},{"name":"Str. der Jugend","postalCode":"39307","locality":"Elbe-Parey","municipality":{"key":"15086035","name":"Elbe-Parey","type":"Kreisangehörige_Gemeinde"},"district":{"key":"15086","name":"Jerichower Land","type":"Landkreis"},"federalState":{"key":"15","name":"Sachsen-Anhalt"}},{"name":"Str. zum Kulturhaus","postalCode":"39307","locality":"Elbe-Parey","municipality":{"key":"15086035","name":"Elbe-Parey","type":"Kreisangehörige_Gemeinde"},"district":{"key":"15086","name":"Jerichower Land","type":"Landkreis"},"federalState":{"key":"15","name":"Sachsen-Anhalt"}},{"name":"Thomas-Mann-Str.","postalCode":"39317","locality":"Elbe-Parey","municipality":{"key":"15086035","name":"Elbe-Parey","type":"Kreisangehörige_Gemeinde"},"district":{"key":"15086","name":"Jerichower Land","type":"Landkreis"},"federalState":{"key":"15","name":"Sachsen-Anhalt"}},{"name":"Waldstr.","postalCode":"39307","locality":"Elbe-Parey","municipality":{"key":"15086035","name":"Elbe-Parey","type":"Kreisangehörige_Gemeinde"},"district":{"key":"15086","name":"Jerichower Land","type":"Landkreis"},"federalState":{"key":"15","name":"Sachsen-Anhalt"}},{"name":"Waldstr.","postalCode":"39317","locality":"Elbe-Parey","municipality":{"key":"15086035","name":"Elbe-Parey","type":"Kreisangehörige_Gemeinde"},"district":{"key":"15086","name":"Jerichower Land","type":"Landkreis"},"federalState":{"key":"15","name":"Sachsen-Anhalt"}},{"name":"Westkolonie","postalCode":"39317","locality":"Elbe-Parey","municipality":{"key":"15086035","name":"Elbe-Parey","type":"Kreisangehörige_Gemeinde"},"district":{"key":"15086","name":"Jerichower Land","type":"Landkreis"},"federalState":{"key":"15","name":"Sachsen-Anhalt"}},{"name":"Weststr.","postalCode":"39317","locality":"Elbe-Parey","municipality":{"key":"15086035","name":"Elbe-Parey","type":"Kreisangehörige_Gemeinde"},"district":{"key":"15086","name":"Jerichower Land","type":"Landkreis"},"federalState":{"key":"15","name":"Sachsen-Anhalt"}},{"name":"Wiesenweg","postalCode":"39317","locality":"Elbe-Parey","municipality":{"key":"15086035","name":"Elbe-Parey","type":"Kreisangehörige_Gemeinde"},"district":{"key":"15086","name":"Jerichower Land","type":"Landkreis"},"federalState":{"key":"15","name":"Sachsen-Anhalt"}},{"name":"Wilhelm-Pieck-Str.","postalCode":"39317","locality":"Elbe-Parey","municipality":{"key":"15086035","name":"Elbe-Parey","type":"Kreisangehörige_Gemeinde"},"district":{"key":"15086","name":"Jerichower Land","type":"Landkreis"},"federalState":{"key":"15","name":"Sachsen-Anhalt"}},{"name":"Wilhelmstr.","postalCode":"39317","locality":"Elbe-Parey","municipality":{"key":"15086035","name":"Elbe-Parey","type":"Kreisangehörige_Gemeinde"},"district":{"key":"15086","name":"Jerichower Land","type":"Landkreis"},"federalState":{"key":"15","name":"Sachsen-Anhalt"}},{"name":"Winkelstr.","postalCode":"39307","locality":"Elbe-Parey","municipality":{"key":"15086035","name":"Elbe-Parey","type":"Kreisangehörige_Gemeinde"},"district":{"key":"15086","name":"Jerichower Land","type":"Landkreis"},"federalState":{"key":"15","name":"Sachsen-Anhalt"}},{"name":"Winkelstr.","postalCode":"39317","locality":"Elbe-Parey","municipality":{"key":"15086035","name":"Elbe-Parey","type":"Kreisangehörige_Gemeinde"},"district":{"key":"15086","name":"Jerichower Land","type":"Landkreis"},"federalState":{"key":"15","name":"Sachsen-Anhalt"}},{"name":"Zerbener Str.","postalCode":"39317","locality":"Elbe-Parey","municipality":{"key":"15086035","name":"Elbe-Parey","type":"Kreisangehörige_Gemeinde"},"district":{"key":"15086","name":"Jerichower Land","type":"Landkreis"},"federalState":{"key":"15","name":"Sachsen-Anhalt"}},{"name":"Zu den Elbauen","postalCode":"39317","locality":"Elbe-Parey","municipality":{"key":"15086035","name":"Elbe-Parey","type":"Kreisangehörige_Gemeinde"},"district":{"key":"15086","name":"Jerichower Land","type":"Landkreis"},"federalState":{"key":"15","name":"Sachsen-Anhalt"}},]