[{"name":"Bergweg","postalCode":"56472","locality":"Nisterberg","municipality":{"key":"07132079","name":"Nisterberg","type":"Kreisangehörige_Gemeinde"},"district":{"key":"07132","name":"Altenkirchen (Westerwald)","type":"Landkreis"},"federalState":{"key":"07","name":"Rheinland-Pfalz"}},{"name":"Erlenhof","postalCode":"56472","locality":"Nisterberg","municipality":{"key":"07132079","name":"Nisterberg","type":"Kreisangehörige_Gemeinde"},"district":{"key":"07132","name":"Altenkirchen (Westerwald)","type":"Landkreis"},"federalState":{"key":"07","name":"Rheinland-Pfalz"}},{"name":"Gartenstr.","postalCode":"56472","locality":"Nisterberg","municipality":{"key":"07132079","name":"Nisterberg","type":"Kreisangehörige_Gemeinde"},"district":{"key":"07132","name":"Altenkirchen (Westerwald)","type":"Landkreis"},"federalState":{"key":"07","name":"Rheinland-Pfalz"}},{"name":"Hauptstr.","postalCode":"56472","locality":"Nisterberg","municipality":{"key":"07132079","name":"Nisterberg","type":"Kreisangehörige_Gemeinde"},"district":{"key":"07132","name":"Altenkirchen (Westerwald)","type":"Landkreis"},"federalState":{"key":"07","name":"Rheinland-Pfalz"}},{"name":"Heimbergsweg","postalCode":"56472","locality":"Nisterberg","municipality":{"key":"07132079","name":"Nisterberg","type":"Kreisangehörige_Gemeinde"},"district":{"key":"07132","name":"Altenkirchen (Westerwald)","type":"Landkreis"},"federalState":{"key":"07","name":"Rheinland-Pfalz"}},{"name":"Höhenweg","postalCode":"56472","locality":"Nisterberg","municipality":{"key":"07132079","name":"Nisterberg","type":"Kreisangehörige_Gemeinde"},"district":{"key":"07132","name":"Altenkirchen (Westerwald)","type":"Landkreis"},"federalState":{"key":"07","name":"Rheinland-Pfalz"}},{"name":"Kirchweg","postalCode":"56472","locality":"Nisterberg","municipality":{"key":"07132079","name":"Nisterberg","type":"Kreisangehörige_Gemeinde"},"district":{"key":"07132","name":"Altenkirchen (Westerwald)","type":"Landkreis"},"federalState":{"key":"07","name":"Rheinland-Pfalz"}},{"name":"Lindenhof","postalCode":"56472","locality":"Nisterberg","municipality":{"key":"07132079","name":"Nisterberg","type":"Kreisangehörige_Gemeinde"},"district":{"key":"07132","name":"Altenkirchen (Westerwald)","type":"Landkreis"},"federalState":{"key":"07","name":"Rheinland-Pfalz"}},{"name":"Lindenweg","postalCode":"56472","locality":"Nisterberg","municipality":{"key":"07132079","name":"Nisterberg","type":"Kreisangehörige_Gemeinde"},"district":{"key":"07132","name":"Altenkirchen (Westerwald)","type":"Landkreis"},"federalState":{"key":"07","name":"Rheinland-Pfalz"}},{"name":"Mittelstr.","postalCode":"56472","locality":"Nisterberg","municipality":{"key":"07132079","name":"Nisterberg","type":"Kreisangehörige_Gemeinde"},"district":{"key":"07132","name":"Altenkirchen (Westerwald)","type":"Landkreis"},"federalState":{"key":"07","name":"Rheinland-Pfalz"}},{"name":"Neuer Weg","postalCode":"56472","locality":"Nisterberg","municipality":{"key":"07132079","name":"Nisterberg","type":"Kreisangehörige_Gemeinde"},"district":{"key":"07132","name":"Altenkirchen (Westerwald)","type":"Landkreis"},"federalState":{"key":"07","name":"Rheinland-Pfalz"}},{"name":"Nisterstr.","postalCode":"56472","locality":"Nisterberg","municipality":{"key":"07132079","name":"Nisterberg","type":"Kreisangehörige_Gemeinde"},"district":{"key":"07132","name":"Altenkirchen (Westerwald)","type":"Landkreis"},"federalState":{"key":"07","name":"Rheinland-Pfalz"}},{"name":"Ringstr.","postalCode":"56472","locality":"Nisterberg","municipality":{"key":"07132079","name":"Nisterberg","type":"Kreisangehörige_Gemeinde"},"district":{"key":"07132","name":"Altenkirchen (Westerwald)","type":"Landkreis"},"federalState":{"key":"07","name":"Rheinland-Pfalz"}},{"name":"Schmiedegasse","postalCode":"56472","locality":"Nisterberg","municipality":{"key":"07132079","name":"Nisterberg","type":"Kreisangehörige_Gemeinde"},"district":{"key":"07132","name":"Altenkirchen (Westerwald)","type":"Landkreis"},"federalState":{"key":"07","name":"Rheinland-Pfalz"}},{"name":"Schulstr.","postalCode":"56472","locality":"Nisterberg","municipality":{"key":"07132079","name":"Nisterberg","type":"Kreisangehörige_Gemeinde"},"district":{"key":"07132","name":"Altenkirchen (Westerwald)","type":"Landkreis"},"federalState":{"key":"07","name":"Rheinland-Pfalz"}},{"name":"Waldstr.","postalCode":"56472","locality":"Nisterberg","municipality":{"key":"07132079","name":"Nisterberg","type":"Kreisangehörige_Gemeinde"},"district":{"key":"07132","name":"Altenkirchen (Westerwald)","type":"Landkreis"},"federalState":{"key":"07","name":"Rheinland-Pfalz"}},{"name":"Wiesenstr.","postalCode":"56472","locality":"Nisterberg","municipality":{"key":"07132079","name":"Nisterberg","type":"Kreisangehörige_Gemeinde"},"district":{"key":"07132","name":"Altenkirchen (Westerwald)","type":"Landkreis"},"federalState":{"key":"07","name":"Rheinland-Pfalz"}},]