[{"name":"Achtern Höben","postalCode":"21465","locality":"Wentorf bei Hamburg","municipality":{"key":"01053129","name":"Wentorf bei Hamburg","type":"Kreisangehörige_Gemeinde"},"district":{"key":"01053","name":"Herzogtum Lauenburg","type":"Kreis"},"federalState":{"key":"01","name":"Schleswig-Holstein"}},{"name":"Alter Frachtweg","postalCode":"21465","locality":"Wentorf bei Hamburg","municipality":{"key":"01053129","name":"Wentorf bei Hamburg","type":"Kreisangehörige_Gemeinde"},"district":{"key":"01053","name":"Herzogtum Lauenburg","type":"Kreis"},"federalState":{"key":"01","name":"Schleswig-Holstein"}},{"name":"Am alten Exerzierplatz","postalCode":"21465","locality":"Wentorf bei Hamburg","municipality":{"key":"01053129","name":"Wentorf bei Hamburg","type":"Kreisangehörige_Gemeinde"},"district":{"key":"01053","name":"Herzogtum Lauenburg","type":"Kreis"},"federalState":{"key":"01","name":"Schleswig-Holstein"}},{"name":"Amandas Garten","postalCode":"21465","locality":"Wentorf bei Hamburg","municipality":{"key":"01053129","name":"Wentorf bei Hamburg","type":"Kreisangehörige_Gemeinde"},"district":{"key":"01053","name":"Herzogtum Lauenburg","type":"Kreis"},"federalState":{"key":"01","name":"Schleswig-Holstein"}},{"name":"Am Buchenhain","postalCode":"21465","locality":"Wentorf bei Hamburg","municipality":{"key":"01053129","name":"Wentorf bei Hamburg","type":"Kreisangehörige_Gemeinde"},"district":{"key":"01053","name":"Herzogtum Lauenburg","type":"Kreis"},"federalState":{"key":"01","name":"Schleswig-Holstein"}},{"name":"Am Burgberg","postalCode":"21465","locality":"Wentorf bei Hamburg","municipality":{"key":"01053129","name":"Wentorf bei Hamburg","type":"Kreisangehörige_Gemeinde"},"district":{"key":"01053","name":"Herzogtum Lauenburg","type":"Kreis"},"federalState":{"key":"01","name":"Schleswig-Holstein"}},{"name":"Am Casinopark","postalCode":"21465","locality":"Wentorf bei Hamburg","municipality":{"key":"01053129","name":"Wentorf bei Hamburg","type":"Kreisangehörige_Gemeinde"},"district":{"key":"01053","name":"Herzogtum Lauenburg","type":"Kreis"},"federalState":{"key":"01","name":"Schleswig-Holstein"}},{"name":"Am Feldrand","postalCode":"21465","locality":"Wentorf bei Hamburg","municipality":{"key":"01053129","name":"Wentorf bei Hamburg","type":"Kreisangehörige_Gemeinde"},"district":{"key":"01053","name":"Herzogtum Lauenburg","type":"Kreis"},"federalState":{"key":"01","name":"Schleswig-Holstein"}},{"name":"Am Fuchsberg","postalCode":"21465","locality":"Wentorf bei Hamburg","municipality":{"key":"01053129","name":"Wentorf bei Hamburg","type":"Kreisangehörige_Gemeinde"},"district":{"key":"01053","name":"Herzogtum Lauenburg","type":"Kreis"},"federalState":{"key":"01","name":"Schleswig-Holstein"}},{"name":"Am Gehölz","postalCode":"21465","locality":"Wentorf bei Hamburg","municipality":{"key":"01053129","name":"Wentorf bei Hamburg","type":"Kreisangehörige_Gemeinde"},"district":{"key":"01053","name":"Herzogtum Lauenburg","type":"Kreis"},"federalState":{"key":"01","name":"Schleswig-Holstein"}},{"name":"Am Golfplatz","postalCode":"21465","locality":"Wentorf bei Hamburg","municipality":{"key":"01053129","name":"Wentorf bei Hamburg","type":"Kreisangehörige_Gemeinde"},"district":{"key":"01053","name":"Herzogtum Lauenburg","type":"Kreis"},"federalState":{"key":"01","name":"Schleswig-Holstein"}},{"name":"Am Grotensahl","postalCode":"21465","locality":"Wentorf bei Hamburg","municipality":{"key":"01053129","name":"Wentorf bei Hamburg","type":"Kreisangehörige_Gemeinde"},"district":{"key":"01053","name":"Herzogtum Lauenburg","type":"Kreis"},"federalState":{"key":"01","name":"Schleswig-Holstein"}},{"name":"Am Haidberg","postalCode":"21465","locality":"Wentorf bei Hamburg","municipality":{"key":"01053129","name":"Wentorf bei Hamburg","type":"Kreisangehörige_Gemeinde"},"district":{"key":"01053","name":"Herzogtum Lauenburg","type":"Kreis"},"federalState":{"key":"01","name":"Schleswig-Holstein"}},{"name":"Am Jägersbronn","postalCode":"21465","locality":"Wentorf bei Hamburg","municipality":{"key":"01053129","name":"Wentorf bei Hamburg","type":"Kreisangehörige_Gemeinde"},"district":{"key":"01053","name":"Herzogtum Lauenburg","type":"Kreis"},"federalState":{"key":"01","name":"Schleswig-Holstein"}},{"name":"Am Mühlenteich","postalCode":"21465","locality":"Wentorf bei Hamburg","municipality":{"key":"01053129","name":"Wentorf bei Hamburg","type":"Kreisangehörige_Gemeinde"},"district":{"key":"01053","name":"Herzogtum Lauenburg","type":"Kreis"},"federalState":{"key":"01","name":"Schleswig-Holstein"}},{"name":"Am Petersilienberg","postalCode":"21465","locality":"Wentorf bei Hamburg","municipality":{"key":"01053129","name":"Wentorf bei Hamburg","type":"Kreisangehörige_Gemeinde"},"district":{"key":"01053","name":"Herzogtum Lauenburg","type":"Kreis"},"federalState":{"key":"01","name":"Schleswig-Holstein"}},{"name":"Am Redder","postalCode":"21465","locality":"Wentorf bei Hamburg","municipality":{"key":"01053129","name":"Wentorf bei Hamburg","type":"Kreisangehörige_Gemeinde"},"district":{"key":"01053","name":"Herzogtum Lauenburg","type":"Kreis"},"federalState":{"key":"01","name":"Schleswig-Holstein"}},{"name":"Am Schulenbrook","postalCode":"21465","locality":"Wentorf bei Hamburg","municipality":{"key":"01053129","name":"Wentorf bei Hamburg","type":"Kreisangehörige_Gemeinde"},"district":{"key":"01053","name":"Herzogtum Lauenburg","type":"Kreis"},"federalState":{"key":"01","name":"Schleswig-Holstein"}},{"name":"Am Sportplatz","postalCode":"21465","locality":"Wentorf bei Hamburg","municipality":{"key":"01053129","name":"Wentorf bei Hamburg","type":"Kreisangehörige_Gemeinde"},"district":{"key":"01053","name":"Herzogtum Lauenburg","type":"Kreis"},"federalState":{"key":"01","name":"Schleswig-Holstein"}},{"name":"Am Stadtpark","postalCode":"21465","locality":"Wentorf bei Hamburg","municipality":{"key":"01053129","name":"Wentorf bei Hamburg","type":"Kreisangehörige_Gemeinde"},"district":{"key":"01053","name":"Herzogtum Lauenburg","type":"Kreis"},"federalState":{"key":"01","name":"Schleswig-Holstein"}},{"name":"An der Bergkoppel","postalCode":"21465","locality":"Wentorf bei Hamburg","municipality":{"key":"01053129","name":"Wentorf bei Hamburg","type":"Kreisangehörige_Gemeinde"},"district":{"key":"01053","name":"Herzogtum Lauenburg","type":"Kreis"},"federalState":{"key":"01","name":"Schleswig-Holstein"}},{"name":"An der Hege","postalCode":"21465","locality":"Wentorf bei Hamburg","municipality":{"key":"01053129","name":"Wentorf bei Hamburg","type":"Kreisangehörige_Gemeinde"},"district":{"key":"01053","name":"Herzogtum Lauenburg","type":"Kreis"},"federalState":{"key":"01","name":"Schleswig-Holstein"}},{"name":"An der Karlshöhe","postalCode":"21465","locality":"Wentorf bei Hamburg","municipality":{"key":"01053129","name":"Wentorf bei Hamburg","type":"Kreisangehörige_Gemeinde"},"district":{"key":"01053","name":"Herzogtum Lauenburg","type":"Kreis"},"federalState":{"key":"01","name":"Schleswig-Holstein"}},{"name":"An der Wache","postalCode":"21465","locality":"Wentorf bei Hamburg","municipality":{"key":"01053129","name":"Wentorf bei Hamburg","type":"Kreisangehörige_Gemeinde"},"district":{"key":"01053","name":"Herzogtum Lauenburg","type":"Kreis"},"federalState":{"key":"01","name":"Schleswig-Holstein"}},{"name":"An der Zöllnerkoppel","postalCode":"21465","locality":"Wentorf bei Hamburg","municipality":{"key":"01053129","name":"Wentorf bei Hamburg","type":"Kreisangehörige_Gemeinde"},"district":{"key":"01053","name":"Herzogtum Lauenburg","type":"Kreis"},"federalState":{"key":"01","name":"Schleswig-Holstein"}},{"name":"Askanierweg","postalCode":"21465","locality":"Wentorf bei Hamburg","municipality":{"key":"01053129","name":"Wentorf bei Hamburg","type":"Kreisangehörige_Gemeinde"},"district":{"key":"01053","name":"Herzogtum Lauenburg","type":"Kreis"},"federalState":{"key":"01","name":"Schleswig-Holstein"}},{"name":"Auf dem Ralande","postalCode":"21465","locality":"Wentorf bei Hamburg","municipality":{"key":"01053129","name":"Wentorf bei Hamburg","type":"Kreisangehörige_Gemeinde"},"district":{"key":"01053","name":"Herzogtum Lauenburg","type":"Kreis"},"federalState":{"key":"01","name":"Schleswig-Holstein"}},{"name":"Augustastr.","postalCode":"21465","locality":"Wentorf bei Hamburg","municipality":{"key":"01053129","name":"Wentorf bei Hamburg","type":"Kreisangehörige_Gemeinde"},"district":{"key":"01053","name":"Herzogtum Lauenburg","type":"Kreis"},"federalState":{"key":"01","name":"Schleswig-Holstein"}},{"name":"Bauernvogtskoppel","postalCode":"21465","locality":"Wentorf bei Hamburg","municipality":{"key":"01053129","name":"Wentorf bei Hamburg","type":"Kreisangehörige_Gemeinde"},"district":{"key":"01053","name":"Herzogtum Lauenburg","type":"Kreis"},"federalState":{"key":"01","name":"Schleswig-Holstein"}},{"name":"Bergedorfer Weg","postalCode":"21465","locality":"Wentorf bei Hamburg","municipality":{"key":"01053129","name":"Wentorf bei Hamburg","type":"Kreisangehörige_Gemeinde"},"district":{"key":"01053","name":"Herzogtum Lauenburg","type":"Kreis"},"federalState":{"key":"01","name":"Schleswig-Holstein"}},{"name":"Berliner Landstr.","postalCode":"21465","locality":"Wentorf bei Hamburg","municipality":{"key":"01053129","name":"Wentorf bei Hamburg","type":"Kreisangehörige_Gemeinde"},"district":{"key":"01053","name":"Herzogtum Lauenburg","type":"Kreis"},"federalState":{"key":"01","name":"Schleswig-Holstein"}},{"name":"Billeweg","postalCode":"21465","locality":"Wentorf bei Hamburg","municipality":{"key":"01053129","name":"Wentorf bei Hamburg","type":"Kreisangehörige_Gemeinde"},"district":{"key":"01053","name":"Herzogtum Lauenburg","type":"Kreis"},"federalState":{"key":"01","name":"Schleswig-Holstein"}},{"name":"Birkenhöhe","postalCode":"21465","locality":"Wentorf bei Hamburg","municipality":{"key":"01053129","name":"Wentorf bei Hamburg","type":"Kreisangehörige_Gemeinde"},"district":{"key":"01053","name":"Herzogtum Lauenburg","type":"Kreis"},"federalState":{"key":"01","name":"Schleswig-Holstein"}},{"name":"Birkenweg","postalCode":"21465","locality":"Wentorf bei Hamburg","municipality":{"key":"01053129","name":"Wentorf bei Hamburg","type":"Kreisangehörige_Gemeinde"},"district":{"key":"01053","name":"Herzogtum Lauenburg","type":"Kreis"},"federalState":{"key":"01","name":"Schleswig-Holstein"}},{"name":"Blautannenweg","postalCode":"21465","locality":"Wentorf bei Hamburg","municipality":{"key":"01053129","name":"Wentorf bei Hamburg","type":"Kreisangehörige_Gemeinde"},"district":{"key":"01053","name":"Herzogtum Lauenburg","type":"Kreis"},"federalState":{"key":"01","name":"Schleswig-Holstein"}},{"name":"Blumenweg","postalCode":"21465","locality":"Wentorf bei Hamburg","municipality":{"key":"01053129","name":"Wentorf bei Hamburg","type":"Kreisangehörige_Gemeinde"},"district":{"key":"01053","name":"Herzogtum Lauenburg","type":"Kreis"},"federalState":{"key":"01","name":"Schleswig-Holstein"}},{"name":"Breslauer Str.","postalCode":"21465","locality":"Wentorf bei Hamburg","municipality":{"key":"01053129","name":"Wentorf bei Hamburg","type":"Kreisangehörige_Gemeinde"},"district":{"key":"01053","name":"Herzogtum Lauenburg","type":"Kreis"},"federalState":{"key":"01","name":"Schleswig-Holstein"}},{"name":"Brinkweg","postalCode":"21465","locality":"Wentorf bei Hamburg","municipality":{"key":"01053129","name":"Wentorf bei Hamburg","type":"Kreisangehörige_Gemeinde"},"district":{"key":"01053","name":"Herzogtum Lauenburg","type":"Kreis"},"federalState":{"key":"01","name":"Schleswig-Holstein"}},{"name":"Brookgang","postalCode":"21465","locality":"Wentorf bei Hamburg","municipality":{"key":"01053129","name":"Wentorf bei Hamburg","type":"Kreisangehörige_Gemeinde"},"district":{"key":"01053","name":"Herzogtum Lauenburg","type":"Kreis"},"federalState":{"key":"01","name":"Schleswig-Holstein"}},{"name":"Brookweg","postalCode":"21465","locality":"Wentorf bei Hamburg","municipality":{"key":"01053129","name":"Wentorf bei Hamburg","type":"Kreisangehörige_Gemeinde"},"district":{"key":"01053","name":"Herzogtum Lauenburg","type":"Kreis"},"federalState":{"key":"01","name":"Schleswig-Holstein"}},{"name":"Danziger Str.","postalCode":"21465","locality":"Wentorf bei Hamburg","municipality":{"key":"01053129","name":"Wentorf bei Hamburg","type":"Kreisangehörige_Gemeinde"},"district":{"key":"01053","name":"Herzogtum Lauenburg","type":"Kreis"},"federalState":{"key":"01","name":"Schleswig-Holstein"}},{"name":"Echardusstieg","postalCode":"21465","locality":"Wentorf bei Hamburg","municipality":{"key":"01053129","name":"Wentorf bei Hamburg","type":"Kreisangehörige_Gemeinde"},"district":{"key":"01053","name":"Herzogtum Lauenburg","type":"Kreis"},"federalState":{"key":"01","name":"Schleswig-Holstein"}},{"name":"Eichenweg","postalCode":"21465","locality":"Wentorf bei Hamburg","municipality":{"key":"01053129","name":"Wentorf bei Hamburg","type":"Kreisangehörige_Gemeinde"},"district":{"key":"01053","name":"Herzogtum Lauenburg","type":"Kreis"},"federalState":{"key":"01","name":"Schleswig-Holstein"}},{"name":"Eulenkamp","postalCode":"21465","locality":"Wentorf bei Hamburg","municipality":{"key":"01053129","name":"Wentorf bei Hamburg","type":"Kreisangehörige_Gemeinde"},"district":{"key":"01053","name":"Herzogtum Lauenburg","type":"Kreis"},"federalState":{"key":"01","name":"Schleswig-Holstein"}},{"name":"Feldstr.","postalCode":"21465","locality":"Wentorf bei Hamburg","municipality":{"key":"01053129","name":"Wentorf bei Hamburg","type":"Kreisangehörige_Gemeinde"},"district":{"key":"01053","name":"Herzogtum Lauenburg","type":"Kreis"},"federalState":{"key":"01","name":"Schleswig-Holstein"}},{"name":"Flurstr.","postalCode":"21465","locality":"Wentorf bei Hamburg","municipality":{"key":"01053129","name":"Wentorf bei Hamburg","type":"Kreisangehörige_Gemeinde"},"district":{"key":"01053","name":"Herzogtum Lauenburg","type":"Kreis"},"federalState":{"key":"01","name":"Schleswig-Holstein"}},{"name":"Franz-Höltig-Weg","postalCode":"21465","locality":"Wentorf bei Hamburg","municipality":{"key":"01053129","name":"Wentorf bei Hamburg","type":"Kreisangehörige_Gemeinde"},"district":{"key":"01053","name":"Herzogtum Lauenburg","type":"Kreis"},"federalState":{"key":"01","name":"Schleswig-Holstein"}},{"name":"Friedrichsruher Ring","postalCode":"21465","locality":"Wentorf bei Hamburg","municipality":{"key":"01053129","name":"Wentorf bei Hamburg","type":"Kreisangehörige_Gemeinde"},"district":{"key":"01053","name":"Herzogtum Lauenburg","type":"Kreis"},"federalState":{"key":"01","name":"Schleswig-Holstein"}},{"name":"Friedrichsruher Weg","postalCode":"21465","locality":"Wentorf bei Hamburg","municipality":{"key":"01053129","name":"Wentorf bei Hamburg","type":"Kreisangehörige_Gemeinde"},"district":{"key":"01053","name":"Herzogtum Lauenburg","type":"Kreis"},"federalState":{"key":"01","name":"Schleswig-Holstein"}},{"name":"Fritz-Specht-Weg","postalCode":"21465","locality":"Wentorf bei Hamburg","municipality":{"key":"01053129","name":"Wentorf bei Hamburg","type":"Kreisangehörige_Gemeinde"},"district":{"key":"01053","name":"Herzogtum Lauenburg","type":"Kreis"},"federalState":{"key":"01","name":"Schleswig-Holstein"}},{"name":"Gärtnerstr.","postalCode":"21465","locality":"Wentorf bei Hamburg","municipality":{"key":"01053129","name":"Wentorf bei Hamburg","type":"Kreisangehörige_Gemeinde"},"district":{"key":"01053","name":"Herzogtum Lauenburg","type":"Kreis"},"federalState":{"key":"01","name":"Schleswig-Holstein"}},{"name":"Gartzer Ring","postalCode":"21465","locality":"Wentorf bei Hamburg","municipality":{"key":"01053129","name":"Wentorf bei Hamburg","type":"Kreisangehörige_Gemeinde"},"district":{"key":"01053","name":"Herzogtum Lauenburg","type":"Kreis"},"federalState":{"key":"01","name":"Schleswig-Holstein"}},{"name":"Golfstr.","postalCode":"21465","locality":"Wentorf bei Hamburg","municipality":{"key":"01053129","name":"Wentorf bei Hamburg","type":"Kreisangehörige_Gemeinde"},"district":{"key":"01053","name":"Herzogtum Lauenburg","type":"Kreis"},"federalState":{"key":"01","name":"Schleswig-Holstein"}},{"name":"Gorch-Fock-Str.","postalCode":"21465","locality":"Wentorf bei Hamburg","municipality":{"key":"01053129","name":"Wentorf bei Hamburg","type":"Kreisangehörige_Gemeinde"},"district":{"key":"01053","name":"Herzogtum Lauenburg","type":"Kreis"},"federalState":{"key":"01","name":"Schleswig-Holstein"}},{"name":"Grenzweg","postalCode":"21465","locality":"Wentorf bei Hamburg","municipality":{"key":"01053129","name":"Wentorf bei Hamburg","type":"Kreisangehörige_Gemeinde"},"district":{"key":"01053","name":"Herzogtum Lauenburg","type":"Kreis"},"federalState":{"key":"01","name":"Schleswig-Holstein"}},{"name":"Grübbenweg","postalCode":"21465","locality":"Wentorf bei Hamburg","municipality":{"key":"01053129","name":"Wentorf bei Hamburg","type":"Kreisangehörige_Gemeinde"},"district":{"key":"01053","name":"Herzogtum Lauenburg","type":"Kreis"},"federalState":{"key":"01","name":"Schleswig-Holstein"}},{"name":"Haberlands Grund","postalCode":"21465","locality":"Wentorf bei Hamburg","municipality":{"key":"01053129","name":"Wentorf bei Hamburg","type":"Kreisangehörige_Gemeinde"},"district":{"key":"01053","name":"Herzogtum Lauenburg","type":"Kreis"},"federalState":{"key":"01","name":"Schleswig-Holstein"}},{"name":"Haidehang","postalCode":"21465","locality":"Wentorf bei Hamburg","municipality":{"key":"01053129","name":"Wentorf bei Hamburg","type":"Kreisangehörige_Gemeinde"},"district":{"key":"01053","name":"Herzogtum Lauenburg","type":"Kreis"},"federalState":{"key":"01","name":"Schleswig-Holstein"}},{"name":"Haidgarten","postalCode":"21465","locality":"Wentorf bei Hamburg","municipality":{"key":"01053129","name":"Wentorf bei Hamburg","type":"Kreisangehörige_Gemeinde"},"district":{"key":"01053","name":"Herzogtum Lauenburg","type":"Kreis"},"federalState":{"key":"01","name":"Schleswig-Holstein"}},{"name":"Hamburger Landstr.","postalCode":"21465","locality":"Wentorf bei Hamburg","municipality":{"key":"01053129","name":"Wentorf bei Hamburg","type":"Kreisangehörige_Gemeinde"},"district":{"key":"01053","name":"Herzogtum Lauenburg","type":"Kreis"},"federalState":{"key":"01","name":"Schleswig-Holstein"}},{"name":"Hansestr.","postalCode":"21465","locality":"Wentorf bei Hamburg","municipality":{"key":"01053129","name":"Wentorf bei Hamburg","type":"Kreisangehörige_Gemeinde"},"district":{"key":"01053","name":"Herzogtum Lauenburg","type":"Kreis"},"federalState":{"key":"01","name":"Schleswig-Holstein"}},{"name":"Hans-Rubach-Weg","postalCode":"21465","locality":"Wentorf bei Hamburg","municipality":{"key":"01053129","name":"Wentorf bei Hamburg","type":"Kreisangehörige_Gemeinde"},"district":{"key":"01053","name":"Herzogtum Lauenburg","type":"Kreis"},"federalState":{"key":"01","name":"Schleswig-Holstein"}},{"name":"Hauptstr.","postalCode":"21465","locality":"Wentorf bei Hamburg","municipality":{"key":"01053129","name":"Wentorf bei Hamburg","type":"Kreisangehörige_Gemeinde"},"district":{"key":"01053","name":"Herzogtum Lauenburg","type":"Kreis"},"federalState":{"key":"01","name":"Schleswig-Holstein"}},{"name":"Heckenweg","postalCode":"21465","locality":"Wentorf bei Hamburg","municipality":{"key":"01053129","name":"Wentorf bei Hamburg","type":"Kreisangehörige_Gemeinde"},"district":{"key":"01053","name":"Herzogtum Lauenburg","type":"Kreis"},"federalState":{"key":"01","name":"Schleswig-Holstein"}},{"name":"Heideweg","postalCode":"21465","locality":"Wentorf bei Hamburg","municipality":{"key":"01053129","name":"Wentorf bei Hamburg","type":"Kreisangehörige_Gemeinde"},"district":{"key":"01053","name":"Herzogtum Lauenburg","type":"Kreis"},"federalState":{"key":"01","name":"Schleswig-Holstein"}},{"name":"Helmut-Zinner-Weg","postalCode":"21465","locality":"Wentorf bei Hamburg","municipality":{"key":"01053129","name":"Wentorf bei Hamburg","type":"Kreisangehörige_Gemeinde"},"district":{"key":"01053","name":"Herzogtum Lauenburg","type":"Kreis"},"federalState":{"key":"01","name":"Schleswig-Holstein"}},{"name":"Henkenhoop","postalCode":"21465","locality":"Wentorf bei Hamburg","municipality":{"key":"01053129","name":"Wentorf bei Hamburg","type":"Kreisangehörige_Gemeinde"},"district":{"key":"01053","name":"Herzogtum Lauenburg","type":"Kreis"},"federalState":{"key":"01","name":"Schleswig-Holstein"}},{"name":"Hochweg","postalCode":"21465","locality":"Wentorf bei Hamburg","municipality":{"key":"01053129","name":"Wentorf bei Hamburg","type":"Kreisangehörige_Gemeinde"},"district":{"key":"01053","name":"Herzogtum Lauenburg","type":"Kreis"},"federalState":{"key":"01","name":"Schleswig-Holstein"}},{"name":"Hoffredder","postalCode":"21465","locality":"Wentorf bei Hamburg","municipality":{"key":"01053129","name":"Wentorf bei Hamburg","type":"Kreisangehörige_Gemeinde"},"district":{"key":"01053","name":"Herzogtum Lauenburg","type":"Kreis"},"federalState":{"key":"01","name":"Schleswig-Holstein"}},{"name":"Hohler Weg","postalCode":"21465","locality":"Wentorf bei Hamburg","municipality":{"key":"01053129","name":"Wentorf bei Hamburg","type":"Kreisangehörige_Gemeinde"},"district":{"key":"01053","name":"Herzogtum Lauenburg","type":"Kreis"},"federalState":{"key":"01","name":"Schleswig-Holstein"}},{"name":"Höppnerallee","postalCode":"21465","locality":"Wentorf bei Hamburg","municipality":{"key":"01053129","name":"Wentorf bei Hamburg","type":"Kreisangehörige_Gemeinde"},"district":{"key":"01053","name":"Herzogtum Lauenburg","type":"Kreis"},"federalState":{"key":"01","name":"Schleswig-Holstein"}},{"name":"Immenberg","postalCode":"21465","locality":"Wentorf bei Hamburg","municipality":{"key":"01053129","name":"Wentorf bei Hamburg","type":"Kreisangehörige_Gemeinde"},"district":{"key":"01053","name":"Herzogtum Lauenburg","type":"Kreis"},"federalState":{"key":"01","name":"Schleswig-Holstein"}},{"name":"Jägerstieg","postalCode":"21465","locality":"Wentorf bei Hamburg","municipality":{"key":"01053129","name":"Wentorf bei Hamburg","type":"Kreisangehörige_Gemeinde"},"district":{"key":"01053","name":"Herzogtum Lauenburg","type":"Kreis"},"federalState":{"key":"01","name":"Schleswig-Holstein"}},{"name":"Kiefernhain","postalCode":"21465","locality":"Wentorf bei Hamburg","municipality":{"key":"01053129","name":"Wentorf bei Hamburg","type":"Kreisangehörige_Gemeinde"},"district":{"key":"01053","name":"Herzogtum Lauenburg","type":"Kreis"},"federalState":{"key":"01","name":"Schleswig-Holstein"}},{"name":"Kiehn'sche Koppel","postalCode":"21465","locality":"Wentorf bei Hamburg","municipality":{"key":"01053129","name":"Wentorf bei Hamburg","type":"Kreisangehörige_Gemeinde"},"district":{"key":"01053","name":"Herzogtum Lauenburg","type":"Kreis"},"federalState":{"key":"01","name":"Schleswig-Holstein"}},{"name":"Kirschkoppel","postalCode":"21465","locality":"Wentorf bei Hamburg","municipality":{"key":"01053129","name":"Wentorf bei Hamburg","type":"Kreisangehörige_Gemeinde"},"district":{"key":"01053","name":"Herzogtum Lauenburg","type":"Kreis"},"federalState":{"key":"01","name":"Schleswig-Holstein"}},{"name":"Knickweg","postalCode":"21465","locality":"Wentorf bei Hamburg","municipality":{"key":"01053129","name":"Wentorf bei Hamburg","type":"Kreisangehörige_Gemeinde"},"district":{"key":"01053","name":"Herzogtum Lauenburg","type":"Kreis"},"federalState":{"key":"01","name":"Schleswig-Holstein"}},{"name":"Königsberger Ring","postalCode":"21465","locality":"Wentorf bei Hamburg","municipality":{"key":"01053129","name":"Wentorf bei Hamburg","type":"Kreisangehörige_Gemeinde"},"district":{"key":"01053","name":"Herzogtum Lauenburg","type":"Kreis"},"federalState":{"key":"01","name":"Schleswig-Holstein"}},{"name":"Korte Asper","postalCode":"21465","locality":"Wentorf bei Hamburg","municipality":{"key":"01053129","name":"Wentorf bei Hamburg","type":"Kreisangehörige_Gemeinde"},"district":{"key":"01053","name":"Herzogtum Lauenburg","type":"Kreis"},"federalState":{"key":"01","name":"Schleswig-Holstein"}},{"name":"Lange Asper","postalCode":"21465","locality":"Wentorf bei Hamburg","municipality":{"key":"01053129","name":"Wentorf bei Hamburg","type":"Kreisangehörige_Gemeinde"},"district":{"key":"01053","name":"Herzogtum Lauenburg","type":"Kreis"},"federalState":{"key":"01","name":"Schleswig-Holstein"}},{"name":"Lehmried","postalCode":"21465","locality":"Wentorf bei Hamburg","municipality":{"key":"01053129","name":"Wentorf bei Hamburg","type":"Kreisangehörige_Gemeinde"},"district":{"key":"01053","name":"Herzogtum Lauenburg","type":"Kreis"},"federalState":{"key":"01","name":"Schleswig-Holstein"}},{"name":"Lönshöhe","postalCode":"21465","locality":"Wentorf bei Hamburg","municipality":{"key":"01053129","name":"Wentorf bei Hamburg","type":"Kreisangehörige_Gemeinde"},"district":{"key":"01053","name":"Herzogtum Lauenburg","type":"Kreis"},"federalState":{"key":"01","name":"Schleswig-Holstein"}},{"name":"Marienburgstr.","postalCode":"21465","locality":"Wentorf bei Hamburg","municipality":{"key":"01053129","name":"Wentorf bei Hamburg","type":"Kreisangehörige_Gemeinde"},"district":{"key":"01053","name":"Herzogtum Lauenburg","type":"Kreis"},"federalState":{"key":"01","name":"Schleswig-Holstein"}},{"name":"Moorkoppel","postalCode":"21465","locality":"Wentorf bei Hamburg","municipality":{"key":"01053129","name":"Wentorf bei Hamburg","type":"Kreisangehörige_Gemeinde"},"district":{"key":"01053","name":"Herzogtum Lauenburg","type":"Kreis"},"federalState":{"key":"01","name":"Schleswig-Holstein"}},{"name":"Mühlenstr.","postalCode":"21465","locality":"Wentorf bei Hamburg","municipality":{"key":"01053129","name":"Wentorf bei Hamburg","type":"Kreisangehörige_Gemeinde"},"district":{"key":"01053","name":"Herzogtum Lauenburg","type":"Kreis"},"federalState":{"key":"01","name":"Schleswig-Holstein"}},{"name":"Obere Bahnstr.","postalCode":"21465","locality":"Wentorf bei Hamburg","municipality":{"key":"01053129","name":"Wentorf bei Hamburg","type":"Kreisangehörige_Gemeinde"},"district":{"key":"01053","name":"Herzogtum Lauenburg","type":"Kreis"},"federalState":{"key":"01","name":"Schleswig-Holstein"}},{"name":"Op den Acker","postalCode":"21465","locality":"Wentorf bei Hamburg","municipality":{"key":"01053129","name":"Wentorf bei Hamburg","type":"Kreisangehörige_Gemeinde"},"district":{"key":"01053","name":"Herzogtum Lauenburg","type":"Kreis"},"federalState":{"key":"01","name":"Schleswig-Holstein"}},{"name":"Ostlandstr.","postalCode":"21465","locality":"Wentorf bei Hamburg","municipality":{"key":"01053129","name":"Wentorf bei Hamburg","type":"Kreisangehörige_Gemeinde"},"district":{"key":"01053","name":"Herzogtum Lauenburg","type":"Kreis"},"federalState":{"key":"01","name":"Schleswig-Holstein"}},{"name":"Ostring","postalCode":"21465","locality":"Wentorf bei Hamburg","municipality":{"key":"01053129","name":"Wentorf bei Hamburg","type":"Kreisangehörige_Gemeinde"},"district":{"key":"01053","name":"Herzogtum Lauenburg","type":"Kreis"},"federalState":{"key":"01","name":"Schleswig-Holstein"}},{"name":"Querweg","postalCode":"21465","locality":"Wentorf bei Hamburg","municipality":{"key":"01053129","name":"Wentorf bei Hamburg","type":"Kreisangehörige_Gemeinde"},"district":{"key":"01053","name":"Herzogtum Lauenburg","type":"Kreis"},"federalState":{"key":"01","name":"Schleswig-Holstein"}},{"name":"Reinbeker Weg","postalCode":"21465","locality":"Wentorf bei Hamburg","municipality":{"key":"01053129","name":"Wentorf bei Hamburg","type":"Kreisangehörige_Gemeinde"},"district":{"key":"01053","name":"Herzogtum Lauenburg","type":"Kreis"},"federalState":{"key":"01","name":"Schleswig-Holstein"}},{"name":"Reinhardtallee","postalCode":"21465","locality":"Wentorf bei Hamburg","municipality":{"key":"01053129","name":"Wentorf bei Hamburg","type":"Kreisangehörige_Gemeinde"},"district":{"key":"01053","name":"Herzogtum Lauenburg","type":"Kreis"},"federalState":{"key":"01","name":"Schleswig-Holstein"}},{"name":"Sachsenring","postalCode":"21465","locality":"Wentorf bei Hamburg","municipality":{"key":"01053129","name":"Wentorf bei Hamburg","type":"Kreisangehörige_Gemeinde"},"district":{"key":"01053","name":"Herzogtum Lauenburg","type":"Kreis"},"federalState":{"key":"01","name":"Schleswig-Holstein"}},{"name":"Sandweg","postalCode":"21465","locality":"Wentorf bei Hamburg","municipality":{"key":"01053129","name":"Wentorf bei Hamburg","type":"Kreisangehörige_Gemeinde"},"district":{"key":"01053","name":"Herzogtum Lauenburg","type":"Kreis"},"federalState":{"key":"01","name":"Schleswig-Holstein"}},{"name":"Schäferstieg","postalCode":"21465","locality":"Wentorf bei Hamburg","municipality":{"key":"01053129","name":"Wentorf bei Hamburg","type":"Kreisangehörige_Gemeinde"},"district":{"key":"01053","name":"Herzogtum Lauenburg","type":"Kreis"},"federalState":{"key":"01","name":"Schleswig-Holstein"}},{"name":"Schanze","postalCode":"21465","locality":"Wentorf bei Hamburg","municipality":{"key":"01053129","name":"Wentorf bei Hamburg","type":"Kreisangehörige_Gemeinde"},"district":{"key":"01053","name":"Herzogtum Lauenburg","type":"Kreis"},"federalState":{"key":"01","name":"Schleswig-Holstein"}},{"name":"Schmidtring","postalCode":"21465","locality":"Wentorf bei Hamburg","municipality":{"key":"01053129","name":"Wentorf bei Hamburg","type":"Kreisangehörige_Gemeinde"},"district":{"key":"01053","name":"Herzogtum Lauenburg","type":"Kreis"},"federalState":{"key":"01","name":"Schleswig-Holstein"}},{"name":"Schulstr.","postalCode":"21465","locality":"Wentorf bei Hamburg","municipality":{"key":"01053129","name":"Wentorf bei Hamburg","type":"Kreisangehörige_Gemeinde"},"district":{"key":"01053","name":"Herzogtum Lauenburg","type":"Kreis"},"federalState":{"key":"01","name":"Schleswig-Holstein"}},{"name":"Sollredder","postalCode":"21465","locality":"Wentorf bei Hamburg","municipality":{"key":"01053129","name":"Wentorf bei Hamburg","type":"Kreisangehörige_Gemeinde"},"district":{"key":"01053","name":"Herzogtum Lauenburg","type":"Kreis"},"federalState":{"key":"01","name":"Schleswig-Holstein"}},{"name":"Stadtparktreppe","postalCode":"21465","locality":"Wentorf bei Hamburg","municipality":{"key":"01053129","name":"Wentorf bei Hamburg","type":"Kreisangehörige_Gemeinde"},"district":{"key":"01053","name":"Herzogtum Lauenburg","type":"Kreis"},"federalState":{"key":"01","name":"Schleswig-Holstein"}},{"name":"Stadtparkwende","postalCode":"21465","locality":"Wentorf bei Hamburg","municipality":{"key":"01053129","name":"Wentorf bei Hamburg","type":"Kreisangehörige_Gemeinde"},"district":{"key":"01053","name":"Herzogtum Lauenburg","type":"Kreis"},"federalState":{"key":"01","name":"Schleswig-Holstein"}},{"name":"Stettiner Str.","postalCode":"21465","locality":"Wentorf bei Hamburg","municipality":{"key":"01053129","name":"Wentorf bei Hamburg","type":"Kreisangehörige_Gemeinde"},"district":{"key":"01053","name":"Herzogtum Lauenburg","type":"Kreis"},"federalState":{"key":"01","name":"Schleswig-Holstein"}},{"name":"Stöckenhoop","postalCode":"21465","locality":"Wentorf bei Hamburg","municipality":{"key":"01053129","name":"Wentorf bei Hamburg","type":"Kreisangehörige_Gemeinde"},"district":{"key":"01053","name":"Herzogtum Lauenburg","type":"Kreis"},"federalState":{"key":"01","name":"Schleswig-Holstein"}},{"name":"Südredder","postalCode":"21465","locality":"Wentorf bei Hamburg","municipality":{"key":"01053129","name":"Wentorf bei Hamburg","type":"Kreisangehörige_Gemeinde"},"district":{"key":"01053","name":"Herzogtum Lauenburg","type":"Kreis"},"federalState":{"key":"01","name":"Schleswig-Holstein"}},{"name":"Südring","postalCode":"21465","locality":"Wentorf bei Hamburg","municipality":{"key":"01053129","name":"Wentorf bei Hamburg","type":"Kreisangehörige_Gemeinde"},"district":{"key":"01053","name":"Herzogtum Lauenburg","type":"Kreis"},"federalState":{"key":"01","name":"Schleswig-Holstein"}},{"name":"Teichstr.","postalCode":"21465","locality":"Wentorf bei Hamburg","municipality":{"key":"01053129","name":"Wentorf bei Hamburg","type":"Kreisangehörige_Gemeinde"},"district":{"key":"01053","name":"Herzogtum Lauenburg","type":"Kreis"},"federalState":{"key":"01","name":"Schleswig-Holstein"}},{"name":"Tubben","postalCode":"21465","locality":"Wentorf bei Hamburg","municipality":{"key":"01053129","name":"Wentorf bei Hamburg","type":"Kreisangehörige_Gemeinde"},"district":{"key":"01053","name":"Herzogtum Lauenburg","type":"Kreis"},"federalState":{"key":"01","name":"Schleswig-Holstein"}},{"name":"Unter den Linden","postalCode":"21465","locality":"Wentorf bei Hamburg","municipality":{"key":"01053129","name":"Wentorf bei Hamburg","type":"Kreisangehörige_Gemeinde"},"district":{"key":"01053","name":"Herzogtum Lauenburg","type":"Kreis"},"federalState":{"key":"01","name":"Schleswig-Holstein"}},{"name":"Untere Bahnstr.","postalCode":"21465","locality":"Wentorf bei Hamburg","municipality":{"key":"01053129","name":"Wentorf bei Hamburg","type":"Kreisangehörige_Gemeinde"},"district":{"key":"01053","name":"Herzogtum Lauenburg","type":"Kreis"},"federalState":{"key":"01","name":"Schleswig-Holstein"}},{"name":"Waidmannsgrund","postalCode":"21465","locality":"Wentorf bei Hamburg","municipality":{"key":"01053129","name":"Wentorf bei Hamburg","type":"Kreisangehörige_Gemeinde"},"district":{"key":"01053","name":"Herzogtum Lauenburg","type":"Kreis"},"federalState":{"key":"01","name":"Schleswig-Holstein"}},{"name":"Waldweg","postalCode":"21465","locality":"Wentorf bei Hamburg","municipality":{"key":"01053129","name":"Wentorf bei Hamburg","type":"Kreisangehörige_Gemeinde"},"district":{"key":"01053","name":"Herzogtum Lauenburg","type":"Kreis"},"federalState":{"key":"01","name":"Schleswig-Holstein"}},{"name":"Wendenweg","postalCode":"21465","locality":"Wentorf bei Hamburg","municipality":{"key":"01053129","name":"Wentorf bei Hamburg","type":"Kreisangehörige_Gemeinde"},"district":{"key":"01053","name":"Herzogtum Lauenburg","type":"Kreis"},"federalState":{"key":"01","name":"Schleswig-Holstein"}},{"name":"Wischhoff","postalCode":"21465","locality":"Wentorf bei Hamburg","municipality":{"key":"01053129","name":"Wentorf bei Hamburg","type":"Kreisangehörige_Gemeinde"},"district":{"key":"01053","name":"Herzogtum Lauenburg","type":"Kreis"},"federalState":{"key":"01","name":"Schleswig-Holstein"}},{"name":"Wohltorfer Weg","postalCode":"21465","locality":"Wentorf bei Hamburg","municipality":{"key":"01053129","name":"Wentorf bei Hamburg","type":"Kreisangehörige_Gemeinde"},"district":{"key":"01053","name":"Herzogtum Lauenburg","type":"Kreis"},"federalState":{"key":"01","name":"Schleswig-Holstein"}},{"name":"Zollstr.","postalCode":"21465","locality":"Wentorf bei Hamburg","municipality":{"key":"01053129","name":"Wentorf bei Hamburg","type":"Kreisangehörige_Gemeinde"},"district":{"key":"01053","name":"Herzogtum Lauenburg","type":"Kreis"},"federalState":{"key":"01","name":"Schleswig-Holstein"}},{"name":"Zwischen den Toren","postalCode":"21465","locality":"Wentorf bei Hamburg","municipality":{"key":"01053129","name":"Wentorf bei Hamburg","type":"Kreisangehörige_Gemeinde"},"district":{"key":"01053","name":"Herzogtum Lauenburg","type":"Kreis"},"federalState":{"key":"01","name":"Schleswig-Holstein"}},]