[{"name":"Ahornstr.","postalCode":"65795","locality":"Hattersheim am Main","municipality":{"key":"06436005","name":"Hattersheim am Main, Stadt","type":"Stadt"},"district":{"key":"06436","name":"Main-Taunus-Kreis","type":"Landkreis"},"federalState":{"key":"06","name":"Hessen"}},{"name":"Akazienstr.","postalCode":"65795","locality":"Hattersheim am Main","municipality":{"key":"06436005","name":"Hattersheim am Main, Stadt","type":"Stadt"},"district":{"key":"06436","name":"Main-Taunus-Kreis","type":"Landkreis"},"federalState":{"key":"06","name":"Hessen"}},{"name":"Albanstr.","postalCode":"65795","locality":"Hattersheim am Main","municipality":{"key":"06436005","name":"Hattersheim am Main, Stadt","type":"Stadt"},"district":{"key":"06436","name":"Main-Taunus-Kreis","type":"Landkreis"},"federalState":{"key":"06","name":"Hessen"}},{"name":"Alberichweg","postalCode":"65795","locality":"Hattersheim am Main","municipality":{"key":"06436005","name":"Hattersheim am Main, Stadt","type":"Stadt"},"district":{"key":"06436","name":"Main-Taunus-Kreis","type":"Landkreis"},"federalState":{"key":"06","name":"Hessen"}},{"name":"Albert-Schweitzer-Str.","postalCode":"65795","locality":"Hattersheim am Main","municipality":{"key":"06436005","name":"Hattersheim am Main, Stadt","type":"Stadt"},"district":{"key":"06436","name":"Main-Taunus-Kreis","type":"Landkreis"},"federalState":{"key":"06","name":"Hessen"}},{"name":"Alfred-Embs-Anlage","postalCode":"65795","locality":"Hattersheim am Main","municipality":{"key":"06436005","name":"Hattersheim am Main, Stadt","type":"Stadt"},"district":{"key":"06436","name":"Main-Taunus-Kreis","type":"Landkreis"},"federalState":{"key":"06","name":"Hessen"}},{"name":"Alte Mainstr.","postalCode":"65795","locality":"Hattersheim am Main","municipality":{"key":"06436005","name":"Hattersheim am Main, Stadt","type":"Stadt"},"district":{"key":"06436","name":"Main-Taunus-Kreis","type":"Landkreis"},"federalState":{"key":"06","name":"Hessen"}},{"name":"Altkönigstr.","postalCode":"65795","locality":"Hattersheim am Main","municipality":{"key":"06436005","name":"Hattersheim am Main, Stadt","type":"Stadt"},"district":{"key":"06436","name":"Main-Taunus-Kreis","type":"Landkreis"},"federalState":{"key":"06","name":"Hessen"}},{"name":"Altmünsterstr.","postalCode":"65795","locality":"Hattersheim am Main","municipality":{"key":"06436005","name":"Hattersheim am Main, Stadt","type":"Stadt"},"district":{"key":"06436","name":"Main-Taunus-Kreis","type":"Landkreis"},"federalState":{"key":"06","name":"Hessen"}},{"name":"Am Balzerskreuz","postalCode":"65795","locality":"Hattersheim am Main","municipality":{"key":"06436005","name":"Hattersheim am Main, Stadt","type":"Stadt"},"district":{"key":"06436","name":"Main-Taunus-Kreis","type":"Landkreis"},"federalState":{"key":"06","name":"Hessen"}},{"name":"Am Eisernen Steg","postalCode":"65795","locality":"Hattersheim am Main","municipality":{"key":"06436005","name":"Hattersheim am Main, Stadt","type":"Stadt"},"district":{"key":"06436","name":"Main-Taunus-Kreis","type":"Landkreis"},"federalState":{"key":"06","name":"Hessen"}},{"name":"Am Goldbach","postalCode":"65795","locality":"Hattersheim am Main","municipality":{"key":"06436005","name":"Hattersheim am Main, Stadt","type":"Stadt"},"district":{"key":"06436","name":"Main-Taunus-Kreis","type":"Landkreis"},"federalState":{"key":"06","name":"Hessen"}},{"name":"Am Kesselhaus","postalCode":"65795","locality":"Hattersheim am Main","municipality":{"key":"06436005","name":"Hattersheim am Main, Stadt","type":"Stadt"},"district":{"key":"06436","name":"Main-Taunus-Kreis","type":"Landkreis"},"federalState":{"key":"06","name":"Hessen"}},{"name":"Am Rotenhof","postalCode":"65795","locality":"Hattersheim am Main","municipality":{"key":"06436005","name":"Hattersheim am Main, Stadt","type":"Stadt"},"district":{"key":"06436","name":"Main-Taunus-Kreis","type":"Landkreis"},"federalState":{"key":"06","name":"Hessen"}},{"name":"Am Schieferstein","postalCode":"65795","locality":"Hattersheim am Main","municipality":{"key":"06436005","name":"Hattersheim am Main, Stadt","type":"Stadt"},"district":{"key":"06436","name":"Main-Taunus-Kreis","type":"Landkreis"},"federalState":{"key":"06","name":"Hessen"}},{"name":"Am See","postalCode":"65795","locality":"Hattersheim am Main","municipality":{"key":"06436005","name":"Hattersheim am Main, Stadt","type":"Stadt"},"district":{"key":"06436","name":"Main-Taunus-Kreis","type":"Landkreis"},"federalState":{"key":"06","name":"Hessen"}},{"name":"Am Wäldchen","postalCode":"65795","locality":"Hattersheim am Main","municipality":{"key":"06436005","name":"Hattersheim am Main, Stadt","type":"Stadt"},"district":{"key":"06436","name":"Main-Taunus-Kreis","type":"Landkreis"},"federalState":{"key":"06","name":"Hessen"}},{"name":"Am Weißen Stein","postalCode":"65795","locality":"Hattersheim am Main","municipality":{"key":"06436005","name":"Hattersheim am Main, Stadt","type":"Stadt"},"district":{"key":"06436","name":"Main-Taunus-Kreis","type":"Landkreis"},"federalState":{"key":"06","name":"Hessen"}},{"name":"Am Welschgraben","postalCode":"65795","locality":"Hattersheim am Main","municipality":{"key":"06436005","name":"Hattersheim am Main, Stadt","type":"Stadt"},"district":{"key":"06436","name":"Main-Taunus-Kreis","type":"Landkreis"},"federalState":{"key":"06","name":"Hessen"}},{"name":"An der Fähre","postalCode":"65795","locality":"Hattersheim am Main","municipality":{"key":"06436005","name":"Hattersheim am Main, Stadt","type":"Stadt"},"district":{"key":"06436","name":"Main-Taunus-Kreis","type":"Landkreis"},"federalState":{"key":"06","name":"Hessen"}},{"name":"An der Lache","postalCode":"65795","locality":"Hattersheim am Main","municipality":{"key":"06436005","name":"Hattersheim am Main, Stadt","type":"Stadt"},"district":{"key":"06436","name":"Main-Taunus-Kreis","type":"Landkreis"},"federalState":{"key":"06","name":"Hessen"}},{"name":"An der Ölmühle","postalCode":"65795","locality":"Hattersheim am Main","municipality":{"key":"06436005","name":"Hattersheim am Main, Stadt","type":"Stadt"},"district":{"key":"06436","name":"Main-Taunus-Kreis","type":"Landkreis"},"federalState":{"key":"06","name":"Hessen"}},{"name":"An der Taunuseisenbahn","postalCode":"65795","locality":"Hattersheim am Main","municipality":{"key":"06436005","name":"Hattersheim am Main, Stadt","type":"Stadt"},"district":{"key":"06436","name":"Main-Taunus-Kreis","type":"Landkreis"},"federalState":{"key":"06","name":"Hessen"}},{"name":"An der Urbansmühle","postalCode":"65795","locality":"Hattersheim am Main","municipality":{"key":"06436005","name":"Hattersheim am Main, Stadt","type":"Stadt"},"district":{"key":"06436","name":"Main-Taunus-Kreis","type":"Landkreis"},"federalState":{"key":"06","name":"Hessen"}},{"name":"An der Zuckerfabrik","postalCode":"65795","locality":"Hattersheim am Main","municipality":{"key":"06436005","name":"Hattersheim am Main, Stadt","type":"Stadt"},"district":{"key":"06436","name":"Main-Taunus-Kreis","type":"Landkreis"},"federalState":{"key":"06","name":"Hessen"}},{"name":"Anemonenweg","postalCode":"65795","locality":"Hattersheim am Main","municipality":{"key":"06436005","name":"Hattersheim am Main, Stadt","type":"Stadt"},"district":{"key":"06436","name":"Main-Taunus-Kreis","type":"Landkreis"},"federalState":{"key":"06","name":"Hessen"}},{"name":"Ankerstr.","postalCode":"65795","locality":"Hattersheim am Main","municipality":{"key":"06436005","name":"Hattersheim am Main, Stadt","type":"Stadt"},"district":{"key":"06436","name":"Main-Taunus-Kreis","type":"Landkreis"},"federalState":{"key":"06","name":"Hessen"}},{"name":"Annabergstr.","postalCode":"65795","locality":"Hattersheim am Main","municipality":{"key":"06436005","name":"Hattersheim am Main, Stadt","type":"Stadt"},"district":{"key":"06436","name":"Main-Taunus-Kreis","type":"Landkreis"},"federalState":{"key":"06","name":"Hessen"}},{"name":"Annemarie-Jacob-Str.","postalCode":"65795","locality":"Hattersheim am Main","municipality":{"key":"06436005","name":"Hattersheim am Main, Stadt","type":"Stadt"},"district":{"key":"06436","name":"Main-Taunus-Kreis","type":"Landkreis"},"federalState":{"key":"06","name":"Hessen"}},{"name":"Anton-Flettner-Str.","postalCode":"65795","locality":"Hattersheim am Main","municipality":{"key":"06436005","name":"Hattersheim am Main, Stadt","type":"Stadt"},"district":{"key":"06436","name":"Main-Taunus-Kreis","type":"Landkreis"},"federalState":{"key":"06","name":"Hessen"}},{"name":"Anton-Hattemer-Str.","postalCode":"65795","locality":"Hattersheim am Main","municipality":{"key":"06436005","name":"Hattersheim am Main, Stadt","type":"Stadt"},"district":{"key":"06436","name":"Main-Taunus-Kreis","type":"Landkreis"},"federalState":{"key":"06","name":"Hessen"}},{"name":"Arnsburgstr.","postalCode":"65795","locality":"Hattersheim am Main","municipality":{"key":"06436005","name":"Hattersheim am Main, Stadt","type":"Stadt"},"district":{"key":"06436","name":"Main-Taunus-Kreis","type":"Landkreis"},"federalState":{"key":"06","name":"Hessen"}},{"name":"Asternweg","postalCode":"65795","locality":"Hattersheim am Main","municipality":{"key":"06436005","name":"Hattersheim am Main, Stadt","type":"Stadt"},"district":{"key":"06436","name":"Main-Taunus-Kreis","type":"Landkreis"},"federalState":{"key":"06","name":"Hessen"}},{"name":"Auf der Roos","postalCode":"65795","locality":"Hattersheim am Main","municipality":{"key":"06436005","name":"Hattersheim am Main, Stadt","type":"Stadt"},"district":{"key":"06436","name":"Main-Taunus-Kreis","type":"Landkreis"},"federalState":{"key":"06","name":"Hessen"}},{"name":"Backesstr.","postalCode":"65795","locality":"Hattersheim am Main","municipality":{"key":"06436005","name":"Hattersheim am Main, Stadt","type":"Stadt"},"district":{"key":"06436","name":"Main-Taunus-Kreis","type":"Landkreis"},"federalState":{"key":"06","name":"Hessen"}},{"name":"Bad Sodener Str.","postalCode":"65795","locality":"Hattersheim am Main","municipality":{"key":"06436005","name":"Hattersheim am Main, Stadt","type":"Stadt"},"district":{"key":"06436","name":"Main-Taunus-Kreis","type":"Landkreis"},"federalState":{"key":"06","name":"Hessen"}},{"name":"Bahnhofsplatz","postalCode":"65795","locality":"Hattersheim am Main","municipality":{"key":"06436005","name":"Hattersheim am Main, Stadt","type":"Stadt"},"district":{"key":"06436","name":"Main-Taunus-Kreis","type":"Landkreis"},"federalState":{"key":"06","name":"Hessen"}},{"name":"Bahnhofstr.","postalCode":"65795","locality":"Hattersheim am Main","municipality":{"key":"06436005","name":"Hattersheim am Main, Stadt","type":"Stadt"},"district":{"key":"06436","name":"Main-Taunus-Kreis","type":"Landkreis"},"federalState":{"key":"06","name":"Hessen"}},{"name":"Baumschulstr.","postalCode":"65795","locality":"Hattersheim am Main","municipality":{"key":"06436005","name":"Hattersheim am Main, Stadt","type":"Stadt"},"district":{"key":"06436","name":"Main-Taunus-Kreis","type":"Landkreis"},"federalState":{"key":"06","name":"Hessen"}},{"name":"Beethovenstr.","postalCode":"65795","locality":"Hattersheim am Main","municipality":{"key":"06436005","name":"Hattersheim am Main, Stadt","type":"Stadt"},"district":{"key":"06436","name":"Main-Taunus-Kreis","type":"Landkreis"},"federalState":{"key":"06","name":"Hessen"}},{"name":"Bergstr.","postalCode":"65795","locality":"Hattersheim am Main","municipality":{"key":"06436005","name":"Hattersheim am Main, Stadt","type":"Stadt"},"district":{"key":"06436","name":"Main-Taunus-Kreis","type":"Landkreis"},"federalState":{"key":"06","name":"Hessen"}},{"name":"Bertha-von-Suttner-Weg","postalCode":"65795","locality":"Hattersheim am Main","municipality":{"key":"06436005","name":"Hattersheim am Main, Stadt","type":"Stadt"},"district":{"key":"06436","name":"Main-Taunus-Kreis","type":"Landkreis"},"federalState":{"key":"06","name":"Hessen"}},{"name":"Birkenstr.","postalCode":"65795","locality":"Hattersheim am Main","municipality":{"key":"06436005","name":"Hattersheim am Main, Stadt","type":"Stadt"},"district":{"key":"06436","name":"Main-Taunus-Kreis","type":"Landkreis"},"federalState":{"key":"06","name":"Hessen"}},{"name":"Birsteinstr.","postalCode":"65795","locality":"Hattersheim am Main","municipality":{"key":"06436005","name":"Hattersheim am Main, Stadt","type":"Stadt"},"district":{"key":"06436","name":"Main-Taunus-Kreis","type":"Landkreis"},"federalState":{"key":"06","name":"Hessen"}},{"name":"Bleichstr.","postalCode":"65795","locality":"Hattersheim am Main","municipality":{"key":"06436005","name":"Hattersheim am Main, Stadt","type":"Stadt"},"district":{"key":"06436","name":"Main-Taunus-Kreis","type":"Landkreis"},"federalState":{"key":"06","name":"Hessen"}},{"name":"Brentanostr.","postalCode":"65795","locality":"Hattersheim am Main","municipality":{"key":"06436005","name":"Hattersheim am Main, Stadt","type":"Stadt"},"district":{"key":"06436","name":"Main-Taunus-Kreis","type":"Landkreis"},"federalState":{"key":"06","name":"Hessen"}},{"name":"Breslauer Str.","postalCode":"65795","locality":"Hattersheim am Main","municipality":{"key":"06436005","name":"Hattersheim am Main, Stadt","type":"Stadt"},"district":{"key":"06436","name":"Main-Taunus-Kreis","type":"Landkreis"},"federalState":{"key":"06","name":"Hessen"}},{"name":"Brückenstr.","postalCode":"65795","locality":"Hattersheim am Main","municipality":{"key":"06436005","name":"Hattersheim am Main, Stadt","type":"Stadt"},"district":{"key":"06436","name":"Main-Taunus-Kreis","type":"Landkreis"},"federalState":{"key":"06","name":"Hessen"}},{"name":"Brunnenstr.","postalCode":"65795","locality":"Hattersheim am Main","municipality":{"key":"06436005","name":"Hattersheim am Main, Stadt","type":"Stadt"},"district":{"key":"06436","name":"Main-Taunus-Kreis","type":"Landkreis"},"federalState":{"key":"06","name":"Hessen"}},{"name":"Buchenstr.","postalCode":"65795","locality":"Hattersheim am Main","municipality":{"key":"06436005","name":"Hattersheim am Main, Stadt","type":"Stadt"},"district":{"key":"06436","name":"Main-Taunus-Kreis","type":"Landkreis"},"federalState":{"key":"06","name":"Hessen"}},{"name":"Burgleweg","postalCode":"65795","locality":"Hattersheim am Main","municipality":{"key":"06436005","name":"Hattersheim am Main, Stadt","type":"Stadt"},"district":{"key":"06436","name":"Main-Taunus-Kreis","type":"Landkreis"},"federalState":{"key":"06","name":"Hessen"}},{"name":"Claudiusweg","postalCode":"65795","locality":"Hattersheim am Main","municipality":{"key":"06436005","name":"Hattersheim am Main, Stadt","type":"Stadt"},"district":{"key":"06436","name":"Main-Taunus-Kreis","type":"Landkreis"},"federalState":{"key":"06","name":"Hessen"}},{"name":"Danastr.","postalCode":"65795","locality":"Hattersheim am Main","municipality":{"key":"06436005","name":"Hattersheim am Main, Stadt","type":"Stadt"},"district":{"key":"06436","name":"Main-Taunus-Kreis","type":"Landkreis"},"federalState":{"key":"06","name":"Hessen"}},{"name":"Danziger Str.","postalCode":"65795","locality":"Hattersheim am Main","municipality":{"key":"06436005","name":"Hattersheim am Main, Stadt","type":"Stadt"},"district":{"key":"06436","name":"Main-Taunus-Kreis","type":"Landkreis"},"federalState":{"key":"06","name":"Hessen"}},{"name":"Diedenbergener Str.","postalCode":"65795","locality":"Hattersheim am Main","municipality":{"key":"06436005","name":"Hattersheim am Main, Stadt","type":"Stadt"},"district":{"key":"06436","name":"Main-Taunus-Kreis","type":"Landkreis"},"federalState":{"key":"06","name":"Hessen"}},{"name":"Domherrnstr.","postalCode":"65795","locality":"Hattersheim am Main","municipality":{"key":"06436005","name":"Hattersheim am Main, Stadt","type":"Stadt"},"district":{"key":"06436","name":"Main-Taunus-Kreis","type":"Landkreis"},"federalState":{"key":"06","name":"Hessen"}},{"name":"Dompfaffweg","postalCode":"65795","locality":"Hattersheim am Main","municipality":{"key":"06436005","name":"Hattersheim am Main, Stadt","type":"Stadt"},"district":{"key":"06436","name":"Main-Taunus-Kreis","type":"Landkreis"},"federalState":{"key":"06","name":"Hessen"}},{"name":"Dornröschenweg","postalCode":"65795","locality":"Hattersheim am Main","municipality":{"key":"06436005","name":"Hattersheim am Main, Stadt","type":"Stadt"},"district":{"key":"06436","name":"Main-Taunus-Kreis","type":"Landkreis"},"federalState":{"key":"06","name":"Hessen"}},{"name":"Drosselbartweg","postalCode":"65795","locality":"Hattersheim am Main","municipality":{"key":"06436005","name":"Hattersheim am Main, Stadt","type":"Stadt"},"district":{"key":"06436","name":"Main-Taunus-Kreis","type":"Landkreis"},"federalState":{"key":"06","name":"Hessen"}},{"name":"Dürerstr.","postalCode":"65795","locality":"Hattersheim am Main","municipality":{"key":"06436005","name":"Hattersheim am Main, Stadt","type":"Stadt"},"district":{"key":"06436","name":"Main-Taunus-Kreis","type":"Landkreis"},"federalState":{"key":"06","name":"Hessen"}},{"name":"Eddersheimer Str.","postalCode":"65795","locality":"Hattersheim am Main","municipality":{"key":"06436005","name":"Hattersheim am Main, Stadt","type":"Stadt"},"district":{"key":"06436","name":"Main-Taunus-Kreis","type":"Landkreis"},"federalState":{"key":"06","name":"Hessen"}},{"name":"Egerstr.","postalCode":"65795","locality":"Hattersheim am Main","municipality":{"key":"06436005","name":"Hattersheim am Main, Stadt","type":"Stadt"},"district":{"key":"06436","name":"Main-Taunus-Kreis","type":"Landkreis"},"federalState":{"key":"06","name":"Hessen"}},{"name":"Eichendorffring","postalCode":"65795","locality":"Hattersheim am Main","municipality":{"key":"06436005","name":"Hattersheim am Main, Stadt","type":"Stadt"},"district":{"key":"06436","name":"Main-Taunus-Kreis","type":"Landkreis"},"federalState":{"key":"06","name":"Hessen"}},{"name":"Eichenstr.","postalCode":"65795","locality":"Hattersheim am Main","municipality":{"key":"06436005","name":"Hattersheim am Main, Stadt","type":"Stadt"},"district":{"key":"06436","name":"Main-Taunus-Kreis","type":"Landkreis"},"federalState":{"key":"06","name":"Hessen"}},{"name":"Ellenbogengasse","postalCode":"65795","locality":"Hattersheim am Main","municipality":{"key":"06436005","name":"Hattersheim am Main, Stadt","type":"Stadt"},"district":{"key":"06436","name":"Main-Taunus-Kreis","type":"Landkreis"},"federalState":{"key":"06","name":"Hessen"}},{"name":"Elsa-Brändström-Str.","postalCode":"65795","locality":"Hattersheim am Main","municipality":{"key":"06436005","name":"Hattersheim am Main, Stadt","type":"Stadt"},"district":{"key":"06436","name":"Main-Taunus-Kreis","type":"Landkreis"},"federalState":{"key":"06","name":"Hessen"}},{"name":"Elsternpfad","postalCode":"65795","locality":"Hattersheim am Main","municipality":{"key":"06436005","name":"Hattersheim am Main, Stadt","type":"Stadt"},"district":{"key":"06436","name":"Main-Taunus-Kreis","type":"Landkreis"},"federalState":{"key":"06","name":"Hessen"}},{"name":"Engelthalstr.","postalCode":"65795","locality":"Hattersheim am Main","municipality":{"key":"06436005","name":"Hattersheim am Main, Stadt","type":"Stadt"},"district":{"key":"06436","name":"Main-Taunus-Kreis","type":"Landkreis"},"federalState":{"key":"06","name":"Hessen"}},{"name":"Eppsteiner Str.","postalCode":"65795","locality":"Hattersheim am Main","municipality":{"key":"06436005","name":"Hattersheim am Main, Stadt","type":"Stadt"},"district":{"key":"06436","name":"Main-Taunus-Kreis","type":"Landkreis"},"federalState":{"key":"06","name":"Hessen"}},{"name":"Erbsengasse","postalCode":"65795","locality":"Hattersheim am Main","municipality":{"key":"06436005","name":"Hattersheim am Main, Stadt","type":"Stadt"},"district":{"key":"06436","name":"Main-Taunus-Kreis","type":"Landkreis"},"federalState":{"key":"06","name":"Hessen"}},{"name":"Erlenstr.","postalCode":"65795","locality":"Hattersheim am Main","municipality":{"key":"06436005","name":"Hattersheim am Main, Stadt","type":"Stadt"},"district":{"key":"06436","name":"Main-Taunus-Kreis","type":"Landkreis"},"federalState":{"key":"06","name":"Hessen"}},{"name":"Erlesring","postalCode":"65795","locality":"Hattersheim am Main","municipality":{"key":"06436005","name":"Hattersheim am Main, Stadt","type":"Stadt"},"district":{"key":"06436","name":"Main-Taunus-Kreis","type":"Landkreis"},"federalState":{"key":"06","name":"Hessen"}},{"name":"Eschenbachstr.","postalCode":"65795","locality":"Hattersheim am Main","municipality":{"key":"06436005","name":"Hattersheim am Main, Stadt","type":"Stadt"},"district":{"key":"06436","name":"Main-Taunus-Kreis","type":"Landkreis"},"federalState":{"key":"06","name":"Hessen"}},{"name":"Eschenstr.","postalCode":"65795","locality":"Hattersheim am Main","municipality":{"key":"06436005","name":"Hattersheim am Main, Stadt","type":"Stadt"},"district":{"key":"06436","name":"Main-Taunus-Kreis","type":"Landkreis"},"federalState":{"key":"06","name":"Hessen"}},{"name":"Falkensteinstr.","postalCode":"65795","locality":"Hattersheim am Main","municipality":{"key":"06436005","name":"Hattersheim am Main, Stadt","type":"Stadt"},"district":{"key":"06436","name":"Main-Taunus-Kreis","type":"Landkreis"},"federalState":{"key":"06","name":"Hessen"}},{"name":"Feldbergstr.","postalCode":"65795","locality":"Hattersheim am Main","municipality":{"key":"06436005","name":"Hattersheim am Main, Stadt","type":"Stadt"},"district":{"key":"06436","name":"Main-Taunus-Kreis","type":"Landkreis"},"federalState":{"key":"06","name":"Hessen"}},{"name":"Festplatzstr.","postalCode":"65795","locality":"Hattersheim am Main","municipality":{"key":"06436005","name":"Hattersheim am Main, Stadt","type":"Stadt"},"district":{"key":"06436","name":"Main-Taunus-Kreis","type":"Landkreis"},"federalState":{"key":"06","name":"Hessen"}},{"name":"Fischergasse","postalCode":"65795","locality":"Hattersheim am Main","municipality":{"key":"06436005","name":"Hattersheim am Main, Stadt","type":"Stadt"},"district":{"key":"06436","name":"Main-Taunus-Kreis","type":"Landkreis"},"federalState":{"key":"06","name":"Hessen"}},{"name":"Fliederweg","postalCode":"65795","locality":"Hattersheim am Main","municipality":{"key":"06436005","name":"Hattersheim am Main, Stadt","type":"Stadt"},"district":{"key":"06436","name":"Main-Taunus-Kreis","type":"Landkreis"},"federalState":{"key":"06","name":"Hessen"}},{"name":"Flörsheimer Str.","postalCode":"65795","locality":"Hattersheim am Main","municipality":{"key":"06436005","name":"Hattersheim am Main, Stadt","type":"Stadt"},"district":{"key":"06436","name":"Main-Taunus-Kreis","type":"Landkreis"},"federalState":{"key":"06","name":"Hessen"}},{"name":"Frankenstr.","postalCode":"65795","locality":"Hattersheim am Main","municipality":{"key":"06436005","name":"Hattersheim am Main, Stadt","type":"Stadt"},"district":{"key":"06436","name":"Main-Taunus-Kreis","type":"Landkreis"},"federalState":{"key":"06","name":"Hessen"}},{"name":"Frankfurter Str.","postalCode":"65795","locality":"Hattersheim am Main","municipality":{"key":"06436005","name":"Hattersheim am Main, Stadt","type":"Stadt"},"district":{"key":"06436","name":"Main-Taunus-Kreis","type":"Landkreis"},"federalState":{"key":"06","name":"Hessen"}},{"name":"Freiäckerweg","postalCode":"65795","locality":"Hattersheim am Main","municipality":{"key":"06436005","name":"Hattersheim am Main, Stadt","type":"Stadt"},"district":{"key":"06436","name":"Main-Taunus-Kreis","type":"Landkreis"},"federalState":{"key":"06","name":"Hessen"}},{"name":"Friedensstr.","postalCode":"65795","locality":"Hattersheim am Main","municipality":{"key":"06436005","name":"Hattersheim am Main, Stadt","type":"Stadt"},"district":{"key":"06436","name":"Main-Taunus-Kreis","type":"Landkreis"},"federalState":{"key":"06","name":"Hessen"}},{"name":"Friedrich-Ebert-Str.","postalCode":"65795","locality":"Hattersheim am Main","municipality":{"key":"06436005","name":"Hattersheim am Main, Stadt","type":"Stadt"},"district":{"key":"06436","name":"Main-Taunus-Kreis","type":"Landkreis"},"federalState":{"key":"06","name":"Hessen"}},{"name":"Frisierstr.","postalCode":"65795","locality":"Hattersheim am Main","municipality":{"key":"06436005","name":"Hattersheim am Main, Stadt","type":"Stadt"},"district":{"key":"06436","name":"Main-Taunus-Kreis","type":"Landkreis"},"federalState":{"key":"06","name":"Hessen"}},{"name":"Fröbelweg","postalCode":"65795","locality":"Hattersheim am Main","municipality":{"key":"06436005","name":"Hattersheim am Main, Stadt","type":"Stadt"},"district":{"key":"06436","name":"Main-Taunus-Kreis","type":"Landkreis"},"federalState":{"key":"06","name":"Hessen"}},{"name":"Fuchstanzstr.","postalCode":"65795","locality":"Hattersheim am Main","municipality":{"key":"06436005","name":"Hattersheim am Main, Stadt","type":"Stadt"},"district":{"key":"06436","name":"Main-Taunus-Kreis","type":"Landkreis"},"federalState":{"key":"06","name":"Hessen"}},{"name":"Gabriele-Münter-Str.","postalCode":"65795","locality":"Hattersheim am Main","municipality":{"key":"06436005","name":"Hattersheim am Main, Stadt","type":"Stadt"},"district":{"key":"06436","name":"Main-Taunus-Kreis","type":"Landkreis"},"federalState":{"key":"06","name":"Hessen"}},{"name":"Gartenstr.","postalCode":"65795","locality":"Hattersheim am Main","municipality":{"key":"06436005","name":"Hattersheim am Main, Stadt","type":"Stadt"},"district":{"key":"06436","name":"Main-Taunus-Kreis","type":"Landkreis"},"federalState":{"key":"06","name":"Hessen"}},{"name":"Giselherstr.","postalCode":"65795","locality":"Hattersheim am Main","municipality":{"key":"06436005","name":"Hattersheim am Main, Stadt","type":"Stadt"},"district":{"key":"06436","name":"Main-Taunus-Kreis","type":"Landkreis"},"federalState":{"key":"06","name":"Hessen"}},{"name":"Glockwiesenweg","postalCode":"65795","locality":"Hattersheim am Main","municipality":{"key":"06436005","name":"Hattersheim am Main, Stadt","type":"Stadt"},"district":{"key":"06436","name":"Main-Taunus-Kreis","type":"Landkreis"},"federalState":{"key":"06","name":"Hessen"}},{"name":"Goethestr.","postalCode":"65795","locality":"Hattersheim am Main","municipality":{"key":"06436005","name":"Hattersheim am Main, Stadt","type":"Stadt"},"district":{"key":"06436","name":"Main-Taunus-Kreis","type":"Landkreis"},"federalState":{"key":"06","name":"Hessen"}},{"name":"Görlitzer Str.","postalCode":"65795","locality":"Hattersheim am Main","municipality":{"key":"06436005","name":"Hattersheim am Main, Stadt","type":"Stadt"},"district":{"key":"06436","name":"Main-Taunus-Kreis","type":"Landkreis"},"federalState":{"key":"06","name":"Hessen"}},{"name":"Gotenstr.","postalCode":"65795","locality":"Hattersheim am Main","municipality":{"key":"06436005","name":"Hattersheim am Main, Stadt","type":"Stadt"},"district":{"key":"06436","name":"Main-Taunus-Kreis","type":"Landkreis"},"federalState":{"key":"06","name":"Hessen"}},{"name":"Grabenstr.","postalCode":"65795","locality":"Hattersheim am Main","municipality":{"key":"06436005","name":"Hattersheim am Main, Stadt","type":"Stadt"},"district":{"key":"06436","name":"Main-Taunus-Kreis","type":"Landkreis"},"federalState":{"key":"06","name":"Hessen"}},{"name":"Gundhofstr.","postalCode":"65795","locality":"Hattersheim am Main","municipality":{"key":"06436005","name":"Hattersheim am Main, Stadt","type":"Stadt"},"district":{"key":"06436","name":"Main-Taunus-Kreis","type":"Landkreis"},"federalState":{"key":"06","name":"Hessen"}},{"name":"Gunterring","postalCode":"65795","locality":"Hattersheim am Main","municipality":{"key":"06436005","name":"Hattersheim am Main, Stadt","type":"Stadt"},"district":{"key":"06436","name":"Main-Taunus-Kreis","type":"Landkreis"},"federalState":{"key":"06","name":"Hessen"}},{"name":"Hahnenpfad","postalCode":"65795","locality":"Hattersheim am Main","municipality":{"key":"06436005","name":"Hattersheim am Main, Stadt","type":"Stadt"},"district":{"key":"06436","name":"Main-Taunus-Kreis","type":"Landkreis"},"federalState":{"key":"06","name":"Hessen"}},{"name":"Haidebirnbaumweg","postalCode":"65795","locality":"Hattersheim am Main","municipality":{"key":"06436005","name":"Hattersheim am Main, Stadt","type":"Stadt"},"district":{"key":"06436","name":"Main-Taunus-Kreis","type":"Landkreis"},"federalState":{"key":"06","name":"Hessen"}},{"name":"Händelstr.","postalCode":"65795","locality":"Hattersheim am Main","municipality":{"key":"06436005","name":"Hattersheim am Main, Stadt","type":"Stadt"},"district":{"key":"06436","name":"Main-Taunus-Kreis","type":"Landkreis"},"federalState":{"key":"06","name":"Hessen"}},{"name":"Hangeswiesenweg","postalCode":"65795","locality":"Hattersheim am Main","municipality":{"key":"06436005","name":"Hattersheim am Main, Stadt","type":"Stadt"},"district":{"key":"06436","name":"Main-Taunus-Kreis","type":"Landkreis"},"federalState":{"key":"06","name":"Hessen"}},{"name":"Hans-Riggenbach-Str.","postalCode":"65795","locality":"Hattersheim am Main","municipality":{"key":"06436005","name":"Hattersheim am Main, Stadt","type":"Stadt"},"district":{"key":"06436","name":"Main-Taunus-Kreis","type":"Landkreis"},"federalState":{"key":"06","name":"Hessen"}},{"name":"Hasenpfad","postalCode":"65795","locality":"Hattersheim am Main","municipality":{"key":"06436005","name":"Hattersheim am Main, Stadt","type":"Stadt"},"district":{"key":"06436","name":"Main-Taunus-Kreis","type":"Landkreis"},"federalState":{"key":"06","name":"Hessen"}},{"name":"Hattersheimer Weg","postalCode":"65795","locality":"Hattersheim am Main","municipality":{"key":"06436005","name":"Hattersheim am Main, Stadt","type":"Stadt"},"district":{"key":"06436","name":"Main-Taunus-Kreis","type":"Landkreis"},"federalState":{"key":"06","name":"Hessen"}},{"name":"Hauptstr.","postalCode":"65795","locality":"Hattersheim am Main","municipality":{"key":"06436005","name":"Hattersheim am Main, Stadt","type":"Stadt"},"district":{"key":"06436","name":"Main-Taunus-Kreis","type":"Landkreis"},"federalState":{"key":"06","name":"Hessen"}},{"name":"Heinestr.","postalCode":"65795","locality":"Hattersheim am Main","municipality":{"key":"06436005","name":"Hattersheim am Main, Stadt","type":"Stadt"},"district":{"key":"06436","name":"Main-Taunus-Kreis","type":"Landkreis"},"federalState":{"key":"06","name":"Hessen"}},{"name":"Herderstr.","postalCode":"65795","locality":"Hattersheim am Main","municipality":{"key":"06436005","name":"Hattersheim am Main, Stadt","type":"Stadt"},"district":{"key":"06436","name":"Main-Taunus-Kreis","type":"Landkreis"},"federalState":{"key":"06","name":"Hessen"}},{"name":"Hessendamm","postalCode":"65795","locality":"Hattersheim am Main","municipality":{"key":"06436005","name":"Hattersheim am Main, Stadt","type":"Stadt"},"district":{"key":"06436","name":"Main-Taunus-Kreis","type":"Landkreis"},"federalState":{"key":"06","name":"Hessen"}},{"name":"Hochheimer Str.","postalCode":"65795","locality":"Hattersheim am Main","municipality":{"key":"06436005","name":"Hattersheim am Main, Stadt","type":"Stadt"},"district":{"key":"06436","name":"Main-Taunus-Kreis","type":"Landkreis"},"federalState":{"key":"06","name":"Hessen"}},{"name":"Höchster Str.","postalCode":"65795","locality":"Hattersheim am Main","municipality":{"key":"06436005","name":"Hattersheim am Main, Stadt","type":"Stadt"},"district":{"key":"06436","name":"Main-Taunus-Kreis","type":"Landkreis"},"federalState":{"key":"06","name":"Hessen"}},{"name":"Hofheimer Str.","postalCode":"65795","locality":"Hattersheim am Main","municipality":{"key":"06436005","name":"Hattersheim am Main, Stadt","type":"Stadt"},"district":{"key":"06436","name":"Main-Taunus-Kreis","type":"Landkreis"},"federalState":{"key":"06","name":"Hessen"}},{"name":"Hölderlinring","postalCode":"65795","locality":"Hattersheim am Main","municipality":{"key":"06436005","name":"Hattersheim am Main, Stadt","type":"Stadt"},"district":{"key":"06436","name":"Main-Taunus-Kreis","type":"Landkreis"},"federalState":{"key":"06","name":"Hessen"}},{"name":"Hopfengarten","postalCode":"65795","locality":"Hattersheim am Main","municipality":{"key":"06436005","name":"Hattersheim am Main, Stadt","type":"Stadt"},"district":{"key":"06436","name":"Main-Taunus-Kreis","type":"Landkreis"},"federalState":{"key":"06","name":"Hessen"}},{"name":"Hugo-Hoffmann-Ring","postalCode":"65795","locality":"Hattersheim am Main","municipality":{"key":"06436005","name":"Hattersheim am Main, Stadt","type":"Stadt"},"district":{"key":"06436","name":"Main-Taunus-Kreis","type":"Landkreis"},"federalState":{"key":"06","name":"Hessen"}},{"name":"Hugo-von-Eltz-Str.","postalCode":"65795","locality":"Hattersheim am Main","municipality":{"key":"06436005","name":"Hattersheim am Main, Stadt","type":"Stadt"},"district":{"key":"06436","name":"Main-Taunus-Kreis","type":"Landkreis"},"federalState":{"key":"06","name":"Hessen"}},{"name":"Ida-Kerkovius-Platz","postalCode":"65795","locality":"Hattersheim am Main","municipality":{"key":"06436005","name":"Hattersheim am Main, Stadt","type":"Stadt"},"district":{"key":"06436","name":"Main-Taunus-Kreis","type":"Landkreis"},"federalState":{"key":"06","name":"Hessen"}},{"name":"Im Gotthelf","postalCode":"65795","locality":"Hattersheim am Main","municipality":{"key":"06436005","name":"Hattersheim am Main, Stadt","type":"Stadt"},"district":{"key":"06436","name":"Main-Taunus-Kreis","type":"Landkreis"},"federalState":{"key":"06","name":"Hessen"}},{"name":"Im Heideck","postalCode":"65795","locality":"Hattersheim am Main","municipality":{"key":"06436005","name":"Hattersheim am Main, Stadt","type":"Stadt"},"district":{"key":"06436","name":"Main-Taunus-Kreis","type":"Landkreis"},"federalState":{"key":"06","name":"Hessen"}},{"name":"Im Höhlchen","postalCode":"65795","locality":"Hattersheim am Main","municipality":{"key":"06436005","name":"Hattersheim am Main, Stadt","type":"Stadt"},"district":{"key":"06436","name":"Main-Taunus-Kreis","type":"Landkreis"},"federalState":{"key":"06","name":"Hessen"}},{"name":"Im Holzkreuz","postalCode":"65795","locality":"Hattersheim am Main","municipality":{"key":"06436005","name":"Hattersheim am Main, Stadt","type":"Stadt"},"district":{"key":"06436","name":"Main-Taunus-Kreis","type":"Landkreis"},"federalState":{"key":"06","name":"Hessen"}},{"name":"Im Kirchengewann","postalCode":"65795","locality":"Hattersheim am Main","municipality":{"key":"06436005","name":"Hattersheim am Main, Stadt","type":"Stadt"},"district":{"key":"06436","name":"Main-Taunus-Kreis","type":"Landkreis"},"federalState":{"key":"06","name":"Hessen"}},{"name":"Im Lerchenfeld","postalCode":"65795","locality":"Hattersheim am Main","municipality":{"key":"06436005","name":"Hattersheim am Main, Stadt","type":"Stadt"},"district":{"key":"06436","name":"Main-Taunus-Kreis","type":"Landkreis"},"federalState":{"key":"06","name":"Hessen"}},{"name":"Im Mühlenviertel","postalCode":"65795","locality":"Hattersheim am Main","municipality":{"key":"06436005","name":"Hattersheim am Main, Stadt","type":"Stadt"},"district":{"key":"06436","name":"Main-Taunus-Kreis","type":"Landkreis"},"federalState":{"key":"06","name":"Hessen"}},{"name":"Im Nex","postalCode":"65795","locality":"Hattersheim am Main","municipality":{"key":"06436005","name":"Hattersheim am Main, Stadt","type":"Stadt"},"district":{"key":"06436","name":"Main-Taunus-Kreis","type":"Landkreis"},"federalState":{"key":"06","name":"Hessen"}},{"name":"Im Wiesfeld","postalCode":"65795","locality":"Hattersheim am Main","municipality":{"key":"06436005","name":"Hattersheim am Main, Stadt","type":"Stadt"},"district":{"key":"06436","name":"Main-Taunus-Kreis","type":"Landkreis"},"federalState":{"key":"06","name":"Hessen"}},{"name":"In den Wiesen","postalCode":"65795","locality":"Hattersheim am Main","municipality":{"key":"06436005","name":"Hattersheim am Main, Stadt","type":"Stadt"},"district":{"key":"06436","name":"Main-Taunus-Kreis","type":"Landkreis"},"federalState":{"key":"06","name":"Hessen"}},{"name":"Isenburgstr.","postalCode":"65795","locality":"Hattersheim am Main","municipality":{"key":"06436005","name":"Hattersheim am Main, Stadt","type":"Stadt"},"district":{"key":"06436","name":"Main-Taunus-Kreis","type":"Landkreis"},"federalState":{"key":"06","name":"Hessen"}},{"name":"Jahnallee","postalCode":"65795","locality":"Hattersheim am Main","municipality":{"key":"06436005","name":"Hattersheim am Main, Stadt","type":"Stadt"},"district":{"key":"06436","name":"Main-Taunus-Kreis","type":"Landkreis"},"federalState":{"key":"06","name":"Hessen"}},{"name":"Johann-Sebastian-Bach-Str.","postalCode":"65795","locality":"Hattersheim am Main","municipality":{"key":"06436005","name":"Hattersheim am Main, Stadt","type":"Stadt"},"district":{"key":"06436","name":"Main-Taunus-Kreis","type":"Landkreis"},"federalState":{"key":"06","name":"Hessen"}},{"name":"Kapellenstr.","postalCode":"65795","locality":"Hattersheim am Main","municipality":{"key":"06436005","name":"Hattersheim am Main, Stadt","type":"Stadt"},"district":{"key":"06436","name":"Main-Taunus-Kreis","type":"Landkreis"},"federalState":{"key":"06","name":"Hessen"}},{"name":"Karl-Eckel-Weg","postalCode":"65795","locality":"Hattersheim am Main","municipality":{"key":"06436005","name":"Hattersheim am Main, Stadt","type":"Stadt"},"district":{"key":"06436","name":"Main-Taunus-Kreis","type":"Landkreis"},"federalState":{"key":"06","name":"Hessen"}},{"name":"Karl-Staib-Str.","postalCode":"65795","locality":"Hattersheim am Main","municipality":{"key":"06436005","name":"Hattersheim am Main, Stadt","type":"Stadt"},"district":{"key":"06436","name":"Main-Taunus-Kreis","type":"Landkreis"},"federalState":{"key":"06","name":"Hessen"}},{"name":"Kastanienstr.","postalCode":"65795","locality":"Hattersheim am Main","municipality":{"key":"06436005","name":"Hattersheim am Main, Stadt","type":"Stadt"},"district":{"key":"06436","name":"Main-Taunus-Kreis","type":"Landkreis"},"federalState":{"key":"06","name":"Hessen"}},{"name":"Kelsterbacher Str.","postalCode":"65795","locality":"Hattersheim am Main","municipality":{"key":"06436005","name":"Hattersheim am Main, Stadt","type":"Stadt"},"district":{"key":"06436","name":"Main-Taunus-Kreis","type":"Landkreis"},"federalState":{"key":"06","name":"Hessen"}},{"name":"Keltenpark","postalCode":"65795","locality":"Hattersheim am Main","municipality":{"key":"06436005","name":"Hattersheim am Main, Stadt","type":"Stadt"},"district":{"key":"06436","name":"Main-Taunus-Kreis","type":"Landkreis"},"federalState":{"key":"06","name":"Hessen"}},{"name":"Keltenstr.","postalCode":"65795","locality":"Hattersheim am Main","municipality":{"key":"06436005","name":"Hattersheim am Main, Stadt","type":"Stadt"},"district":{"key":"06436","name":"Main-Taunus-Kreis","type":"Landkreis"},"federalState":{"key":"06","name":"Hessen"}},{"name":"Kirchgrabenstr.","postalCode":"65795","locality":"Hattersheim am Main","municipality":{"key":"06436005","name":"Hattersheim am Main, Stadt","type":"Stadt"},"district":{"key":"06436","name":"Main-Taunus-Kreis","type":"Landkreis"},"federalState":{"key":"06","name":"Hessen"}},{"name":"Kirchplatz","postalCode":"65795","locality":"Hattersheim am Main","municipality":{"key":"06436005","name":"Hattersheim am Main, Stadt","type":"Stadt"},"district":{"key":"06436","name":"Main-Taunus-Kreis","type":"Landkreis"},"federalState":{"key":"06","name":"Hessen"}},{"name":"Klarabergstr.","postalCode":"65795","locality":"Hattersheim am Main","municipality":{"key":"06436005","name":"Hattersheim am Main, Stadt","type":"Stadt"},"district":{"key":"06436","name":"Main-Taunus-Kreis","type":"Landkreis"},"federalState":{"key":"06","name":"Hessen"}},{"name":"Kleine Feldstr.","postalCode":"65795","locality":"Hattersheim am Main","municipality":{"key":"06436005","name":"Hattersheim am Main, Stadt","type":"Stadt"},"district":{"key":"06436","name":"Main-Taunus-Kreis","type":"Landkreis"},"federalState":{"key":"06","name":"Hessen"}},{"name":"Kleine Kreuzstr.","postalCode":"65795","locality":"Hattersheim am Main","municipality":{"key":"06436005","name":"Hattersheim am Main, Stadt","type":"Stadt"},"district":{"key":"06436","name":"Main-Taunus-Kreis","type":"Landkreis"},"federalState":{"key":"06","name":"Hessen"}},{"name":"Kleine Str.","postalCode":"65795","locality":"Hattersheim am Main","municipality":{"key":"06436005","name":"Hattersheim am Main, Stadt","type":"Stadt"},"district":{"key":"06436","name":"Main-Taunus-Kreis","type":"Landkreis"},"federalState":{"key":"06","name":"Hessen"}},{"name":"Kleiststr.","postalCode":"65795","locality":"Hattersheim am Main","municipality":{"key":"06436005","name":"Hattersheim am Main, Stadt","type":"Stadt"},"district":{"key":"06436","name":"Main-Taunus-Kreis","type":"Landkreis"},"federalState":{"key":"06","name":"Hessen"}},{"name":"Königsberger Str.","postalCode":"65795","locality":"Hattersheim am Main","municipality":{"key":"06436005","name":"Hattersheim am Main, Stadt","type":"Stadt"},"district":{"key":"06436","name":"Main-Taunus-Kreis","type":"Landkreis"},"federalState":{"key":"06","name":"Hessen"}},{"name":"Kornmarkt","postalCode":"65795","locality":"Hattersheim am Main","municipality":{"key":"06436005","name":"Hattersheim am Main, Stadt","type":"Stadt"},"district":{"key":"06436","name":"Main-Taunus-Kreis","type":"Landkreis"},"federalState":{"key":"06","name":"Hessen"}},{"name":"Kraftwerkstr.","postalCode":"65795","locality":"Hattersheim am Main","municipality":{"key":"06436005","name":"Hattersheim am Main, Stadt","type":"Stadt"},"district":{"key":"06436","name":"Main-Taunus-Kreis","type":"Landkreis"},"federalState":{"key":"06","name":"Hessen"}},{"name":"Kreuzstr.","postalCode":"65795","locality":"Hattersheim am Main","municipality":{"key":"06436005","name":"Hattersheim am Main, Stadt","type":"Stadt"},"district":{"key":"06436","name":"Main-Taunus-Kreis","type":"Landkreis"},"federalState":{"key":"06","name":"Hessen"}},{"name":"Kriemhildring","postalCode":"65795","locality":"Hattersheim am Main","municipality":{"key":"06436005","name":"Hattersheim am Main, Stadt","type":"Stadt"},"district":{"key":"06436","name":"Main-Taunus-Kreis","type":"Landkreis"},"federalState":{"key":"06","name":"Hessen"}},{"name":"Krifteler Str.","postalCode":"65795","locality":"Hattersheim am Main","municipality":{"key":"06436005","name":"Hattersheim am Main, Stadt","type":"Stadt"},"district":{"key":"06436","name":"Main-Taunus-Kreis","type":"Landkreis"},"federalState":{"key":"06","name":"Hessen"}},{"name":"Kronstr.","postalCode":"65795","locality":"Hattersheim am Main","municipality":{"key":"06436005","name":"Hattersheim am Main, Stadt","type":"Stadt"},"district":{"key":"06436","name":"Main-Taunus-Kreis","type":"Landkreis"},"federalState":{"key":"06","name":"Hessen"}},{"name":"Kürenbergstr.","postalCode":"65795","locality":"Hattersheim am Main","municipality":{"key":"06436005","name":"Hattersheim am Main, Stadt","type":"Stadt"},"district":{"key":"06436","name":"Main-Taunus-Kreis","type":"Landkreis"},"federalState":{"key":"06","name":"Hessen"}},{"name":"Lachweg","postalCode":"65795","locality":"Hattersheim am Main","municipality":{"key":"06436005","name":"Hattersheim am Main, Stadt","type":"Stadt"},"district":{"key":"06436","name":"Main-Taunus-Kreis","type":"Landkreis"},"federalState":{"key":"06","name":"Hessen"}},{"name":"Ladislaus-Winterstein-Ring","postalCode":"65795","locality":"Hattersheim am Main","municipality":{"key":"06436005","name":"Hattersheim am Main, Stadt","type":"Stadt"},"district":{"key":"06436","name":"Main-Taunus-Kreis","type":"Landkreis"},"federalState":{"key":"06","name":"Hessen"}},{"name":"Langenhainer Weg","postalCode":"65795","locality":"Hattersheim am Main","municipality":{"key":"06436005","name":"Hattersheim am Main, Stadt","type":"Stadt"},"district":{"key":"06436","name":"Main-Taunus-Kreis","type":"Landkreis"},"federalState":{"key":"06","name":"Hessen"}},{"name":"Langgasse","postalCode":"65795","locality":"Hattersheim am Main","municipality":{"key":"06436005","name":"Hattersheim am Main, Stadt","type":"Stadt"},"district":{"key":"06436","name":"Main-Taunus-Kreis","type":"Landkreis"},"federalState":{"key":"06","name":"Hessen"}},{"name":"Leonhardstr.","postalCode":"65795","locality":"Hattersheim am Main","municipality":{"key":"06436005","name":"Hattersheim am Main, Stadt","type":"Stadt"},"district":{"key":"06436","name":"Main-Taunus-Kreis","type":"Landkreis"},"federalState":{"key":"06","name":"Hessen"}},{"name":"Lessingring","postalCode":"65795","locality":"Hattersheim am Main","municipality":{"key":"06436005","name":"Hattersheim am Main, Stadt","type":"Stadt"},"district":{"key":"06436","name":"Main-Taunus-Kreis","type":"Landkreis"},"federalState":{"key":"06","name":"Hessen"}},{"name":"Liederbacher Str.","postalCode":"65795","locality":"Hattersheim am Main","municipality":{"key":"06436005","name":"Hattersheim am Main, Stadt","type":"Stadt"},"district":{"key":"06436","name":"Main-Taunus-Kreis","type":"Landkreis"},"federalState":{"key":"06","name":"Hessen"}},{"name":"Lindenstr.","postalCode":"65795","locality":"Hattersheim am Main","municipality":{"key":"06436005","name":"Hattersheim am Main, Stadt","type":"Stadt"},"district":{"key":"06436","name":"Main-Taunus-Kreis","type":"Landkreis"},"federalState":{"key":"06","name":"Hessen"}},{"name":"Linsenberger Str.","postalCode":"65795","locality":"Hattersheim am Main","municipality":{"key":"06436005","name":"Hattersheim am Main, Stadt","type":"Stadt"},"district":{"key":"06436","name":"Main-Taunus-Kreis","type":"Landkreis"},"federalState":{"key":"06","name":"Hessen"}},{"name":"Lönsstr.","postalCode":"65795","locality":"Hattersheim am Main","municipality":{"key":"06436005","name":"Hattersheim am Main, Stadt","type":"Stadt"},"district":{"key":"06436","name":"Main-Taunus-Kreis","type":"Landkreis"},"federalState":{"key":"06","name":"Hessen"}},{"name":"Lorsbacher Str.","postalCode":"65795","locality":"Hattersheim am Main","municipality":{"key":"06436005","name":"Hattersheim am Main, Stadt","type":"Stadt"},"district":{"key":"06436","name":"Main-Taunus-Kreis","type":"Landkreis"},"federalState":{"key":"06","name":"Hessen"}},{"name":"Mainstr.","postalCode":"65795","locality":"Hattersheim am Main","municipality":{"key":"06436005","name":"Hattersheim am Main, Stadt","type":"Stadt"},"district":{"key":"06436","name":"Main-Taunus-Kreis","type":"Landkreis"},"federalState":{"key":"06","name":"Hessen"}},{"name":"Main-Taunus-Ring","postalCode":"65795","locality":"Hattersheim am Main","municipality":{"key":"06436005","name":"Hattersheim am Main, Stadt","type":"Stadt"},"district":{"key":"06436","name":"Main-Taunus-Kreis","type":"Landkreis"},"federalState":{"key":"06","name":"Hessen"}},{"name":"Mainzer Landstr.","postalCode":"65795","locality":"Hattersheim am Main","municipality":{"key":"06436005","name":"Hattersheim am Main, Stadt","type":"Stadt"},"district":{"key":"06436","name":"Main-Taunus-Kreis","type":"Landkreis"},"federalState":{"key":"06","name":"Hessen"}},{"name":"Marianne-von-Werefkin-Str.","postalCode":"65795","locality":"Hattersheim am Main","municipality":{"key":"06436005","name":"Hattersheim am Main, Stadt","type":"Stadt"},"district":{"key":"06436","name":"Main-Taunus-Kreis","type":"Landkreis"},"federalState":{"key":"06","name":"Hessen"}},{"name":"Martin-Luther-Str.","postalCode":"65795","locality":"Hattersheim am Main","municipality":{"key":"06436005","name":"Hattersheim am Main, Stadt","type":"Stadt"},"district":{"key":"06436","name":"Main-Taunus-Kreis","type":"Landkreis"},"federalState":{"key":"06","name":"Hessen"}},{"name":"Marxheimer Str.","postalCode":"65795","locality":"Hattersheim am Main","municipality":{"key":"06436005","name":"Hattersheim am Main, Stadt","type":"Stadt"},"district":{"key":"06436","name":"Main-Taunus-Kreis","type":"Landkreis"},"federalState":{"key":"06","name":"Hessen"}},{"name":"Merowingerstr.","postalCode":"65795","locality":"Hattersheim am Main","municipality":{"key":"06436005","name":"Hattersheim am Main, Stadt","type":"Stadt"},"district":{"key":"06436","name":"Main-Taunus-Kreis","type":"Landkreis"},"federalState":{"key":"06","name":"Hessen"}},{"name":"Mönchhofstr.","postalCode":"65795","locality":"Hattersheim am Main","municipality":{"key":"06436005","name":"Hattersheim am Main, Stadt","type":"Stadt"},"district":{"key":"06436","name":"Main-Taunus-Kreis","type":"Landkreis"},"federalState":{"key":"06","name":"Hessen"}},{"name":"Mörikestr.","postalCode":"65795","locality":"Hattersheim am Main","municipality":{"key":"06436005","name":"Hattersheim am Main, Stadt","type":"Stadt"},"district":{"key":"06436","name":"Main-Taunus-Kreis","type":"Landkreis"},"federalState":{"key":"06","name":"Hessen"}},{"name":"Morungenstr.","postalCode":"65795","locality":"Hattersheim am Main","municipality":{"key":"06436005","name":"Hattersheim am Main, Stadt","type":"Stadt"},"district":{"key":"06436","name":"Main-Taunus-Kreis","type":"Landkreis"},"federalState":{"key":"06","name":"Hessen"}},{"name":"Mozartstr.","postalCode":"65795","locality":"Hattersheim am Main","municipality":{"key":"06436005","name":"Hattersheim am Main, Stadt","type":"Stadt"},"district":{"key":"06436","name":"Main-Taunus-Kreis","type":"Landkreis"},"federalState":{"key":"06","name":"Hessen"}},{"name":"Nahering","postalCode":"65795","locality":"Hattersheim am Main","municipality":{"key":"06436005","name":"Hattersheim am Main, Stadt","type":"Stadt"},"district":{"key":"06436","name":"Main-Taunus-Kreis","type":"Landkreis"},"federalState":{"key":"06","name":"Hessen"}},{"name":"Nassauer-Hof-Garten","postalCode":"65795","locality":"Hattersheim am Main","municipality":{"key":"06436005","name":"Hattersheim am Main, Stadt","type":"Stadt"},"district":{"key":"06436","name":"Main-Taunus-Kreis","type":"Landkreis"},"federalState":{"key":"06","name":"Hessen"}},{"name":"Nassauer Str.","postalCode":"65795","locality":"Hattersheim am Main","municipality":{"key":"06436005","name":"Hattersheim am Main, Stadt","type":"Stadt"},"district":{"key":"06436","name":"Main-Taunus-Kreis","type":"Landkreis"},"federalState":{"key":"06","name":"Hessen"}},{"name":"Neckarstr.","postalCode":"65795","locality":"Hattersheim am Main","municipality":{"key":"06436005","name":"Hattersheim am Main, Stadt","type":"Stadt"},"district":{"key":"06436","name":"Main-Taunus-Kreis","type":"Landkreis"},"federalState":{"key":"06","name":"Hessen"}},{"name":"Nelkenweg","postalCode":"65795","locality":"Hattersheim am Main","municipality":{"key":"06436005","name":"Hattersheim am Main, Stadt","type":"Stadt"},"district":{"key":"06436","name":"Main-Taunus-Kreis","type":"Landkreis"},"federalState":{"key":"06","name":"Hessen"}},{"name":"Neue Heimat","postalCode":"65795","locality":"Hattersheim am Main","municipality":{"key":"06436005","name":"Hattersheim am Main, Stadt","type":"Stadt"},"district":{"key":"06436","name":"Main-Taunus-Kreis","type":"Landkreis"},"federalState":{"key":"06","name":"Hessen"}},{"name":"Neugasse","postalCode":"65795","locality":"Hattersheim am Main","municipality":{"key":"06436005","name":"Hattersheim am Main, Stadt","type":"Stadt"},"district":{"key":"06436","name":"Main-Taunus-Kreis","type":"Landkreis"},"federalState":{"key":"06","name":"Hessen"}},{"name":"Neustr.","postalCode":"65795","locality":"Hattersheim am Main","municipality":{"key":"06436005","name":"Hattersheim am Main, Stadt","type":"Stadt"},"district":{"key":"06436","name":"Main-Taunus-Kreis","type":"Landkreis"},"federalState":{"key":"06","name":"Hessen"}},{"name":"Nibelungenstr.","postalCode":"65795","locality":"Hattersheim am Main","municipality":{"key":"06436005","name":"Hattersheim am Main, Stadt","type":"Stadt"},"district":{"key":"06436","name":"Main-Taunus-Kreis","type":"Landkreis"},"federalState":{"key":"06","name":"Hessen"}},{"name":"Niedeckerstr.","postalCode":"65795","locality":"Hattersheim am Main","municipality":{"key":"06436005","name":"Hattersheim am Main, Stadt","type":"Stadt"},"district":{"key":"06436","name":"Main-Taunus-Kreis","type":"Landkreis"},"federalState":{"key":"06","name":"Hessen"}},{"name":"Nieder Str.","postalCode":"65795","locality":"Hattersheim am Main","municipality":{"key":"06436005","name":"Hattersheim am Main, Stadt","type":"Stadt"},"district":{"key":"06436","name":"Main-Taunus-Kreis","type":"Landkreis"},"federalState":{"key":"06","name":"Hessen"}},{"name":"Offenheimer Str.","postalCode":"65795","locality":"Hattersheim am Main","municipality":{"key":"06436005","name":"Hattersheim am Main, Stadt","type":"Stadt"},"district":{"key":"06436","name":"Main-Taunus-Kreis","type":"Landkreis"},"federalState":{"key":"06","name":"Hessen"}},{"name":"Ottilie-Roederstein-Platz","postalCode":"65795","locality":"Hattersheim am Main","municipality":{"key":"06436005","name":"Hattersheim am Main, Stadt","type":"Stadt"},"district":{"key":"06436","name":"Main-Taunus-Kreis","type":"Landkreis"},"federalState":{"key":"06","name":"Hessen"}},{"name":"Otto-und-Quantz-Str.","postalCode":"65795","locality":"Hattersheim am Main","municipality":{"key":"06436005","name":"Hattersheim am Main, Stadt","type":"Stadt"},"district":{"key":"06436","name":"Main-Taunus-Kreis","type":"Landkreis"},"federalState":{"key":"06","name":"Hessen"}},{"name":"Parkstr.","postalCode":"65795","locality":"Hattersheim am Main","municipality":{"key":"06436005","name":"Hattersheim am Main, Stadt","type":"Stadt"},"district":{"key":"06436","name":"Main-Taunus-Kreis","type":"Landkreis"},"federalState":{"key":"06","name":"Hessen"}},{"name":"Paul-Tiede-Str.","postalCode":"65795","locality":"Hattersheim am Main","municipality":{"key":"06436005","name":"Hattersheim am Main, Stadt","type":"Stadt"},"district":{"key":"06436","name":"Main-Taunus-Kreis","type":"Landkreis"},"federalState":{"key":"06","name":"Hessen"}},{"name":"Pestalozzistr.","postalCode":"65795","locality":"Hattersheim am Main","municipality":{"key":"06436005","name":"Hattersheim am Main, Stadt","type":"Stadt"},"district":{"key":"06436","name":"Main-Taunus-Kreis","type":"Landkreis"},"federalState":{"key":"06","name":"Hessen"}},{"name":"Philipp-Reis-Str.","postalCode":"65795","locality":"Hattersheim am Main","municipality":{"key":"06436005","name":"Hattersheim am Main, Stadt","type":"Stadt"},"district":{"key":"06436","name":"Main-Taunus-Kreis","type":"Landkreis"},"federalState":{"key":"06","name":"Hessen"}},{"name":"Platz der Deutschen Einheit","postalCode":"65795","locality":"Hattersheim am Main","municipality":{"key":"06436005","name":"Hattersheim am Main, Stadt","type":"Stadt"},"district":{"key":"06436","name":"Main-Taunus-Kreis","type":"Landkreis"},"federalState":{"key":"06","name":"Hessen"}},{"name":"Posten-19-Weg","postalCode":"65795","locality":"Hattersheim am Main","municipality":{"key":"06436005","name":"Hattersheim am Main, Stadt","type":"Stadt"},"district":{"key":"06436","name":"Main-Taunus-Kreis","type":"Landkreis"},"federalState":{"key":"06","name":"Hessen"}},{"name":"Pregelstr.","postalCode":"65795","locality":"Hattersheim am Main","municipality":{"key":"06436005","name":"Hattersheim am Main, Stadt","type":"Stadt"},"district":{"key":"06436","name":"Main-Taunus-Kreis","type":"Landkreis"},"federalState":{"key":"06","name":"Hessen"}},{"name":"Privatstr.","postalCode":"65795","locality":"Hattersheim am Main","municipality":{"key":"06436005","name":"Hattersheim am Main, Stadt","type":"Stadt"},"district":{"key":"06436","name":"Main-Taunus-Kreis","type":"Landkreis"},"federalState":{"key":"06","name":"Hessen"}},{"name":"Propsteistr.","postalCode":"65795","locality":"Hattersheim am Main","municipality":{"key":"06436005","name":"Hattersheim am Main, Stadt","type":"Stadt"},"district":{"key":"06436","name":"Main-Taunus-Kreis","type":"Landkreis"},"federalState":{"key":"06","name":"Hessen"}},{"name":"Rapunzelweg","postalCode":"65795","locality":"Hattersheim am Main","municipality":{"key":"06436005","name":"Hattersheim am Main, Stadt","type":"Stadt"},"district":{"key":"06436","name":"Main-Taunus-Kreis","type":"Landkreis"},"federalState":{"key":"06","name":"Hessen"}},{"name":"Rathausstr.","postalCode":"65795","locality":"Hattersheim am Main","municipality":{"key":"06436005","name":"Hattersheim am Main, Stadt","type":"Stadt"},"district":{"key":"06436","name":"Main-Taunus-Kreis","type":"Landkreis"},"federalState":{"key":"06","name":"Hessen"}},{"name":"Raunheimer Str.","postalCode":"65795","locality":"Hattersheim am Main","municipality":{"key":"06436005","name":"Hattersheim am Main, Stadt","type":"Stadt"},"district":{"key":"06436","name":"Main-Taunus-Kreis","type":"Landkreis"},"federalState":{"key":"06","name":"Hessen"}},{"name":"Rheinstr.","postalCode":"65795","locality":"Hattersheim am Main","municipality":{"key":"06436005","name":"Hattersheim am Main, Stadt","type":"Stadt"},"district":{"key":"06436","name":"Main-Taunus-Kreis","type":"Landkreis"},"federalState":{"key":"06","name":"Hessen"}},{"name":"Ritterstr.","postalCode":"65795","locality":"Hattersheim am Main","municipality":{"key":"06436005","name":"Hattersheim am Main, Stadt","type":"Stadt"},"district":{"key":"06436","name":"Main-Taunus-Kreis","type":"Landkreis"},"federalState":{"key":"06","name":"Hessen"}},{"name":"Römerstr.","postalCode":"65795","locality":"Hattersheim am Main","municipality":{"key":"06436005","name":"Hattersheim am Main, Stadt","type":"Stadt"},"district":{"key":"06436","name":"Main-Taunus-Kreis","type":"Landkreis"},"federalState":{"key":"06","name":"Hessen"}},{"name":"Ronneburgstr.","postalCode":"65795","locality":"Hattersheim am Main","municipality":{"key":"06436005","name":"Hattersheim am Main, Stadt","type":"Stadt"},"district":{"key":"06436","name":"Main-Taunus-Kreis","type":"Landkreis"},"federalState":{"key":"06","name":"Hessen"}},{"name":"Rosarium","postalCode":"65795","locality":"Hattersheim am Main","municipality":{"key":"06436005","name":"Hattersheim am Main, Stadt","type":"Stadt"},"district":{"key":"06436","name":"Main-Taunus-Kreis","type":"Landkreis"},"federalState":{"key":"06","name":"Hessen"}},{"name":"Roseggerweg","postalCode":"65795","locality":"Hattersheim am Main","municipality":{"key":"06436005","name":"Hattersheim am Main, Stadt","type":"Stadt"},"district":{"key":"06436","name":"Main-Taunus-Kreis","type":"Landkreis"},"federalState":{"key":"06","name":"Hessen"}},{"name":"Rosengarten","postalCode":"65795","locality":"Hattersheim am Main","municipality":{"key":"06436005","name":"Hattersheim am Main, Stadt","type":"Stadt"},"district":{"key":"06436","name":"Main-Taunus-Kreis","type":"Landkreis"},"federalState":{"key":"06","name":"Hessen"}},{"name":"Rosenpark","postalCode":"65795","locality":"Hattersheim am Main","municipality":{"key":"06436005","name":"Hattersheim am Main, Stadt","type":"Stadt"},"district":{"key":"06436","name":"Main-Taunus-Kreis","type":"Landkreis"},"federalState":{"key":"06","name":"Hessen"}},{"name":"Rossertstr.","postalCode":"65795","locality":"Hattersheim am Main","municipality":{"key":"06436005","name":"Hattersheim am Main, Stadt","type":"Stadt"},"district":{"key":"06436","name":"Main-Taunus-Kreis","type":"Landkreis"},"federalState":{"key":"06","name":"Hessen"}},{"name":"Rossertweg","postalCode":"65795","locality":"Hattersheim am Main","municipality":{"key":"06436005","name":"Hattersheim am Main, Stadt","type":"Stadt"},"district":{"key":"06436","name":"Main-Taunus-Kreis","type":"Landkreis"},"federalState":{"key":"06","name":"Hessen"}},{"name":"Rotenhofstr.","postalCode":"65795","locality":"Hattersheim am Main","municipality":{"key":"06436005","name":"Hattersheim am Main, Stadt","type":"Stadt"},"district":{"key":"06436","name":"Main-Taunus-Kreis","type":"Landkreis"},"federalState":{"key":"06","name":"Hessen"}},{"name":"Rotkäppchenweg","postalCode":"65795","locality":"Hattersheim am Main","municipality":{"key":"06436005","name":"Hattersheim am Main, Stadt","type":"Stadt"},"district":{"key":"06436","name":"Main-Taunus-Kreis","type":"Landkreis"},"federalState":{"key":"06","name":"Hessen"}},{"name":"Rüsselsheimer Str.","postalCode":"65795","locality":"Hattersheim am Main","municipality":{"key":"06436005","name":"Hattersheim am Main, Stadt","type":"Stadt"},"district":{"key":"06436","name":"Main-Taunus-Kreis","type":"Landkreis"},"federalState":{"key":"06","name":"Hessen"}},{"name":"Saalburgstr.","postalCode":"65795","locality":"Hattersheim am Main","municipality":{"key":"06436005","name":"Hattersheim am Main, Stadt","type":"Stadt"},"district":{"key":"06436","name":"Main-Taunus-Kreis","type":"Landkreis"},"federalState":{"key":"06","name":"Hessen"}},{"name":"Sackgasse","postalCode":"65795","locality":"Hattersheim am Main","municipality":{"key":"06436005","name":"Hattersheim am Main, Stadt","type":"Stadt"},"district":{"key":"06436","name":"Main-Taunus-Kreis","type":"Landkreis"},"federalState":{"key":"06","name":"Hessen"}},{"name":"Sandstr.","postalCode":"65795","locality":"Hattersheim am Main","municipality":{"key":"06436005","name":"Hattersheim am Main, Stadt","type":"Stadt"},"district":{"key":"06436","name":"Main-Taunus-Kreis","type":"Landkreis"},"federalState":{"key":"06","name":"Hessen"}},{"name":"Santa-Catarina-Allee","postalCode":"65795","locality":"Hattersheim am Main","municipality":{"key":"06436005","name":"Hattersheim am Main, Stadt","type":"Stadt"},"district":{"key":"06436","name":"Main-Taunus-Kreis","type":"Landkreis"},"federalState":{"key":"06","name":"Hessen"}},{"name":"Sarceller Str.","postalCode":"65795","locality":"Hattersheim am Main","municipality":{"key":"06436005","name":"Hattersheim am Main, Stadt","type":"Stadt"},"district":{"key":"06436","name":"Main-Taunus-Kreis","type":"Landkreis"},"federalState":{"key":"06","name":"Hessen"}},{"name":"Schillerring","postalCode":"65795","locality":"Hattersheim am Main","municipality":{"key":"06436005","name":"Hattersheim am Main, Stadt","type":"Stadt"},"district":{"key":"06436","name":"Main-Taunus-Kreis","type":"Landkreis"},"federalState":{"key":"06","name":"Hessen"}},{"name":"Schneewittchenweg","postalCode":"65795","locality":"Hattersheim am Main","municipality":{"key":"06436005","name":"Hattersheim am Main, Stadt","type":"Stadt"},"district":{"key":"06436","name":"Main-Taunus-Kreis","type":"Landkreis"},"federalState":{"key":"06","name":"Hessen"}},{"name":"Schokoladenring","postalCode":"65795","locality":"Hattersheim am Main","municipality":{"key":"06436005","name":"Hattersheim am Main, Stadt","type":"Stadt"},"district":{"key":"06436","name":"Main-Taunus-Kreis","type":"Landkreis"},"federalState":{"key":"06","name":"Hessen"}},{"name":"Schulstr.","postalCode":"65795","locality":"Hattersheim am Main","municipality":{"key":"06436005","name":"Hattersheim am Main, Stadt","type":"Stadt"},"district":{"key":"06436","name":"Main-Taunus-Kreis","type":"Landkreis"},"federalState":{"key":"06","name":"Hessen"}},{"name":"Schützenstr.","postalCode":"65795","locality":"Hattersheim am Main","municipality":{"key":"06436005","name":"Hattersheim am Main, Stadt","type":"Stadt"},"district":{"key":"06436","name":"Main-Taunus-Kreis","type":"Landkreis"},"federalState":{"key":"06","name":"Hessen"}},{"name":"Schwalbacher Str.","postalCode":"65795","locality":"Hattersheim am Main","municipality":{"key":"06436005","name":"Hattersheim am Main, Stadt","type":"Stadt"},"district":{"key":"06436","name":"Main-Taunus-Kreis","type":"Landkreis"},"federalState":{"key":"06","name":"Hessen"}},{"name":"Schwarzbachweg","postalCode":"65795","locality":"Hattersheim am Main","municipality":{"key":"06436005","name":"Hattersheim am Main, Stadt","type":"Stadt"},"district":{"key":"06436","name":"Main-Taunus-Kreis","type":"Landkreis"},"federalState":{"key":"06","name":"Hessen"}},{"name":"Schwarzer Weg","postalCode":"65795","locality":"Hattersheim am Main","municipality":{"key":"06436005","name":"Hattersheim am Main, Stadt","type":"Stadt"},"district":{"key":"06436","name":"Main-Taunus-Kreis","type":"Landkreis"},"federalState":{"key":"06","name":"Hessen"}},{"name":"Siebenmorgenweg","postalCode":"65795","locality":"Hattersheim am Main","municipality":{"key":"06436005","name":"Hattersheim am Main, Stadt","type":"Stadt"},"district":{"key":"06436","name":"Main-Taunus-Kreis","type":"Landkreis"},"federalState":{"key":"06","name":"Hessen"}},{"name":"Siegfriedring","postalCode":"65795","locality":"Hattersheim am Main","municipality":{"key":"06436005","name":"Hattersheim am Main, Stadt","type":"Stadt"},"district":{"key":"06436","name":"Main-Taunus-Kreis","type":"Landkreis"},"federalState":{"key":"06","name":"Hessen"}},{"name":"Sindlinger Str.","postalCode":"65795","locality":"Hattersheim am Main","municipality":{"key":"06436005","name":"Hattersheim am Main, Stadt","type":"Stadt"},"district":{"key":"06436","name":"Main-Taunus-Kreis","type":"Landkreis"},"federalState":{"key":"06","name":"Hessen"}},{"name":"Sironastr.","postalCode":"65795","locality":"Hattersheim am Main","municipality":{"key":"06436005","name":"Hattersheim am Main, Stadt","type":"Stadt"},"district":{"key":"06436","name":"Main-Taunus-Kreis","type":"Landkreis"},"federalState":{"key":"06","name":"Hessen"}},{"name":"Sossenheimer Str.","postalCode":"65795","locality":"Hattersheim am Main","municipality":{"key":"06436005","name":"Hattersheim am Main, Stadt","type":"Stadt"},"district":{"key":"06436","name":"Main-Taunus-Kreis","type":"Landkreis"},"federalState":{"key":"06","name":"Hessen"}},{"name":"Speierlingsallee","postalCode":"65795","locality":"Hattersheim am Main","municipality":{"key":"06436005","name":"Hattersheim am Main, Stadt","type":"Stadt"},"district":{"key":"06436","name":"Main-Taunus-Kreis","type":"Landkreis"},"federalState":{"key":"06","name":"Hessen"}},{"name":"Sperlingweg","postalCode":"65795","locality":"Hattersheim am Main","municipality":{"key":"06436005","name":"Hattersheim am Main, Stadt","type":"Stadt"},"district":{"key":"06436","name":"Main-Taunus-Kreis","type":"Landkreis"},"federalState":{"key":"06","name":"Hessen"}},{"name":"Spielplatzweg","postalCode":"65795","locality":"Hattersheim am Main","municipality":{"key":"06436005","name":"Hattersheim am Main, Stadt","type":"Stadt"},"district":{"key":"06436","name":"Main-Taunus-Kreis","type":"Landkreis"},"federalState":{"key":"06","name":"Hessen"}},{"name":"Spindelstr.","postalCode":"65795","locality":"Hattersheim am Main","municipality":{"key":"06436005","name":"Hattersheim am Main, Stadt","type":"Stadt"},"district":{"key":"06436","name":"Main-Taunus-Kreis","type":"Landkreis"},"federalState":{"key":"06","name":"Hessen"}},{"name":"Stadtpark","postalCode":"65795","locality":"Hattersheim am Main","municipality":{"key":"06436005","name":"Hattersheim am Main, Stadt","type":"Stadt"},"district":{"key":"06436","name":"Main-Taunus-Kreis","type":"Landkreis"},"federalState":{"key":"06","name":"Hessen"}},{"name":"Staufenstr.","postalCode":"65795","locality":"Hattersheim am Main","municipality":{"key":"06436005","name":"Hattersheim am Main, Stadt","type":"Stadt"},"district":{"key":"06436","name":"Main-Taunus-Kreis","type":"Landkreis"},"federalState":{"key":"06","name":"Hessen"}},{"name":"Stefanstr.","postalCode":"65795","locality":"Hattersheim am Main","municipality":{"key":"06436005","name":"Hattersheim am Main, Stadt","type":"Stadt"},"district":{"key":"06436","name":"Main-Taunus-Kreis","type":"Landkreis"},"federalState":{"key":"06","name":"Hessen"}},{"name":"Sterntalerweg","postalCode":"65795","locality":"Hattersheim am Main","municipality":{"key":"06436005","name":"Hattersheim am Main, Stadt","type":"Stadt"},"district":{"key":"06436","name":"Main-Taunus-Kreis","type":"Landkreis"},"federalState":{"key":"06","name":"Hessen"}},{"name":"Stettiner Str.","postalCode":"65795","locality":"Hattersheim am Main","municipality":{"key":"06436005","name":"Hattersheim am Main, Stadt","type":"Stadt"},"district":{"key":"06436","name":"Main-Taunus-Kreis","type":"Landkreis"},"federalState":{"key":"06","name":"Hessen"}},{"name":"Stifterstr.","postalCode":"65795","locality":"Hattersheim am Main","municipality":{"key":"06436005","name":"Hattersheim am Main, Stadt","type":"Stadt"},"district":{"key":"06436","name":"Main-Taunus-Kreis","type":"Landkreis"},"federalState":{"key":"06","name":"Hessen"}},{"name":"Südring","postalCode":"65795","locality":"Hattersheim am Main","municipality":{"key":"06436005","name":"Hattersheim am Main, Stadt","type":"Stadt"},"district":{"key":"06436","name":"Main-Taunus-Kreis","type":"Landkreis"},"federalState":{"key":"06","name":"Hessen"}},{"name":"Taunusstr.","postalCode":"65795","locality":"Hattersheim am Main","municipality":{"key":"06436005","name":"Hattersheim am Main, Stadt","type":"Stadt"},"district":{"key":"06436","name":"Main-Taunus-Kreis","type":"Landkreis"},"federalState":{"key":"06","name":"Hessen"}},{"name":"Teplitzer Str.","postalCode":"65795","locality":"Hattersheim am Main","municipality":{"key":"06436005","name":"Hattersheim am Main, Stadt","type":"Stadt"},"district":{"key":"06436","name":"Main-Taunus-Kreis","type":"Landkreis"},"federalState":{"key":"06","name":"Hessen"}},{"name":"Tierheimweg","postalCode":"65795","locality":"Hattersheim am Main","municipality":{"key":"06436005","name":"Hattersheim am Main, Stadt","type":"Stadt"},"district":{"key":"06436","name":"Main-Taunus-Kreis","type":"Landkreis"},"federalState":{"key":"06","name":"Hessen"}},{"name":"Tulpenweg","postalCode":"65795","locality":"Hattersheim am Main","municipality":{"key":"06436005","name":"Hattersheim am Main, Stadt","type":"Stadt"},"district":{"key":"06436","name":"Main-Taunus-Kreis","type":"Landkreis"},"federalState":{"key":"06","name":"Hessen"}},{"name":"Uhlandweg","postalCode":"65795","locality":"Hattersheim am Main","municipality":{"key":"06436005","name":"Hattersheim am Main, Stadt","type":"Stadt"},"district":{"key":"06436","name":"Main-Taunus-Kreis","type":"Landkreis"},"federalState":{"key":"06","name":"Hessen"}},{"name":"Ulmenstr.","postalCode":"65795","locality":"Hattersheim am Main","municipality":{"key":"06436005","name":"Hattersheim am Main, Stadt","type":"Stadt"},"district":{"key":"06436","name":"Main-Taunus-Kreis","type":"Landkreis"},"federalState":{"key":"06","name":"Hessen"}},{"name":"Untertorstr.","postalCode":"65795","locality":"Hattersheim am Main","municipality":{"key":"06436005","name":"Hattersheim am Main, Stadt","type":"Stadt"},"district":{"key":"06436","name":"Main-Taunus-Kreis","type":"Landkreis"},"federalState":{"key":"06","name":"Hessen"}},{"name":"Vogelweidestr.","postalCode":"65795","locality":"Hattersheim am Main","municipality":{"key":"06436005","name":"Hattersheim am Main, Stadt","type":"Stadt"},"district":{"key":"06436","name":"Main-Taunus-Kreis","type":"Landkreis"},"federalState":{"key":"06","name":"Hessen"}},{"name":"Volkerstr.","postalCode":"65795","locality":"Hattersheim am Main","municipality":{"key":"06436005","name":"Hattersheim am Main, Stadt","type":"Stadt"},"district":{"key":"06436","name":"Main-Taunus-Kreis","type":"Landkreis"},"federalState":{"key":"06","name":"Hessen"}},{"name":"Voltastr.","postalCode":"65795","locality":"Hattersheim am Main","municipality":{"key":"06436005","name":"Hattersheim am Main, Stadt","type":"Stadt"},"district":{"key":"06436","name":"Main-Taunus-Kreis","type":"Landkreis"},"federalState":{"key":"06","name":"Hessen"}},{"name":"Wehr am Schwarzbach","postalCode":"65795","locality":"Hattersheim am Main","municipality":{"key":"06436005","name":"Hattersheim am Main, Stadt","type":"Stadt"},"district":{"key":"06436","name":"Main-Taunus-Kreis","type":"Landkreis"},"federalState":{"key":"06","name":"Hessen"}},{"name":"Wehrstr.","postalCode":"65795","locality":"Hattersheim am Main","municipality":{"key":"06436005","name":"Hattersheim am Main, Stadt","type":"Stadt"},"district":{"key":"06436","name":"Main-Taunus-Kreis","type":"Landkreis"},"federalState":{"key":"06","name":"Hessen"}},{"name":"Weidenstr.","postalCode":"65795","locality":"Hattersheim am Main","municipality":{"key":"06436005","name":"Hattersheim am Main, Stadt","type":"Stadt"},"district":{"key":"06436","name":"Main-Taunus-Kreis","type":"Landkreis"},"federalState":{"key":"06","name":"Hessen"}},{"name":"Weidrichstr.","postalCode":"65795","locality":"Hattersheim am Main","municipality":{"key":"06436005","name":"Hattersheim am Main, Stadt","type":"Stadt"},"district":{"key":"06436","name":"Main-Taunus-Kreis","type":"Landkreis"},"federalState":{"key":"06","name":"Hessen"}},{"name":"Weilbacher Str.","postalCode":"65795","locality":"Hattersheim am Main","municipality":{"key":"06436005","name":"Hattersheim am Main, Stadt","type":"Stadt"},"district":{"key":"06436","name":"Main-Taunus-Kreis","type":"Landkreis"},"federalState":{"key":"06","name":"Hessen"}},{"name":"Weingartenstr.","postalCode":"65795","locality":"Hattersheim am Main","municipality":{"key":"06436005","name":"Hattersheim am Main, Stadt","type":"Stadt"},"district":{"key":"06436","name":"Main-Taunus-Kreis","type":"Landkreis"},"federalState":{"key":"06","name":"Hessen"}},{"name":"Weißer Steinweg","postalCode":"65795","locality":"Hattersheim am Main","municipality":{"key":"06436005","name":"Hattersheim am Main, Stadt","type":"Stadt"},"district":{"key":"06436","name":"Main-Taunus-Kreis","type":"Landkreis"},"federalState":{"key":"06","name":"Hessen"}},{"name":"Wickerer Weg","postalCode":"65795","locality":"Hattersheim am Main","municipality":{"key":"06436005","name":"Hattersheim am Main, Stadt","type":"Stadt"},"district":{"key":"06436","name":"Main-Taunus-Kreis","type":"Landkreis"},"federalState":{"key":"06","name":"Hessen"}},{"name":"Wiesbadener Str.","postalCode":"65795","locality":"Hattersheim am Main","municipality":{"key":"06436005","name":"Hattersheim am Main, Stadt","type":"Stadt"},"district":{"key":"06436","name":"Main-Taunus-Kreis","type":"Landkreis"},"federalState":{"key":"06","name":"Hessen"}},{"name":"Wiesenweg","postalCode":"65795","locality":"Hattersheim am Main","municipality":{"key":"06436005","name":"Hattersheim am Main, Stadt","type":"Stadt"},"district":{"key":"06436","name":"Main-Taunus-Kreis","type":"Landkreis"},"federalState":{"key":"06","name":"Hessen"}},{"name":"Wolfsweg","postalCode":"65795","locality":"Hattersheim am Main","municipality":{"key":"06436005","name":"Hattersheim am Main, Stadt","type":"Stadt"},"district":{"key":"06436","name":"Main-Taunus-Kreis","type":"Landkreis"},"federalState":{"key":"06","name":"Hessen"}},{"name":"Zanggasse","postalCode":"65795","locality":"Hattersheim am Main","municipality":{"key":"06436005","name":"Hattersheim am Main, Stadt","type":"Stadt"},"district":{"key":"06436","name":"Main-Taunus-Kreis","type":"Landkreis"},"federalState":{"key":"06","name":"Hessen"}},{"name":"Zaunkönigweg","postalCode":"65795","locality":"Hattersheim am Main","municipality":{"key":"06436005","name":"Hattersheim am Main, Stadt","type":"Stadt"},"district":{"key":"06436","name":"Main-Taunus-Kreis","type":"Landkreis"},"federalState":{"key":"06","name":"Hessen"}},{"name":"Zeilsheimer Str.","postalCode":"65795","locality":"Hattersheim am Main","municipality":{"key":"06436005","name":"Hattersheim am Main, Stadt","type":"Stadt"},"district":{"key":"06436","name":"Main-Taunus-Kreis","type":"Landkreis"},"federalState":{"key":"06","name":"Hessen"}},{"name":"Zeisigweg","postalCode":"65795","locality":"Hattersheim am Main","municipality":{"key":"06436005","name":"Hattersheim am Main, Stadt","type":"Stadt"},"district":{"key":"06436","name":"Main-Taunus-Kreis","type":"Landkreis"},"federalState":{"key":"06","name":"Hessen"}},{"name":"Zum Pumpwerk","postalCode":"65795","locality":"Hattersheim am Main","municipality":{"key":"06436005","name":"Hattersheim am Main, Stadt","type":"Stadt"},"district":{"key":"06436","name":"Main-Taunus-Kreis","type":"Landkreis"},"federalState":{"key":"06","name":"Hessen"}},]