[{"name":"Adenauerstr.","postalCode":"97232","locality":"Giebelstadt","municipality":{"key":"09679138","name":"Giebelstadt, M","type":"Markt"},"district":{"key":"09679","name":"Würzburg","type":"Landkreis"},"federalState":{"key":"09","name":"Bayern"}},{"name":"Ahornweg","postalCode":"97232","locality":"Giebelstadt","municipality":{"key":"09679138","name":"Giebelstadt, M","type":"Markt"},"district":{"key":"09679","name":"Würzburg","type":"Landkreis"},"federalState":{"key":"09","name":"Bayern"}},{"name":"Akazienweg","postalCode":"97232","locality":"Giebelstadt","municipality":{"key":"09679138","name":"Giebelstadt, M","type":"Markt"},"district":{"key":"09679","name":"Würzburg","type":"Landkreis"},"federalState":{"key":"09","name":"Bayern"}},{"name":"Allersheimer Str.","postalCode":"97232","locality":"Giebelstadt","municipality":{"key":"09679138","name":"Giebelstadt, M","type":"Markt"},"district":{"key":"09679","name":"Würzburg","type":"Landkreis"},"federalState":{"key":"09","name":"Bayern"}},{"name":"Alter Dorfgrabenweg","postalCode":"97232","locality":"Giebelstadt","municipality":{"key":"09679138","name":"Giebelstadt, M","type":"Markt"},"district":{"key":"09679","name":"Würzburg","type":"Landkreis"},"federalState":{"key":"09","name":"Bayern"}},{"name":"Am Bach","postalCode":"97232","locality":"Giebelstadt","municipality":{"key":"09679138","name":"Giebelstadt, M","type":"Markt"},"district":{"key":"09679","name":"Würzburg","type":"Landkreis"},"federalState":{"key":"09","name":"Bayern"}},{"name":"Am Berg","postalCode":"97232","locality":"Giebelstadt","municipality":{"key":"09679138","name":"Giebelstadt, M","type":"Markt"},"district":{"key":"09679","name":"Würzburg","type":"Landkreis"},"federalState":{"key":"09","name":"Bayern"}},{"name":"Am Geyerschloß","postalCode":"97232","locality":"Giebelstadt","municipality":{"key":"09679138","name":"Giebelstadt, M","type":"Markt"},"district":{"key":"09679","name":"Würzburg","type":"Landkreis"},"federalState":{"key":"09","name":"Bayern"}},{"name":"Am Gießgraben","postalCode":"97232","locality":"Giebelstadt","municipality":{"key":"09679138","name":"Giebelstadt, M","type":"Markt"},"district":{"key":"09679","name":"Würzburg","type":"Landkreis"},"federalState":{"key":"09","name":"Bayern"}},{"name":"Am Herrschaftsacker","postalCode":"97232","locality":"Giebelstadt","municipality":{"key":"09679138","name":"Giebelstadt, M","type":"Markt"},"district":{"key":"09679","name":"Würzburg","type":"Landkreis"},"federalState":{"key":"09","name":"Bayern"}},{"name":"Am Hofacker","postalCode":"97232","locality":"Giebelstadt","municipality":{"key":"09679138","name":"Giebelstadt, M","type":"Markt"},"district":{"key":"09679","name":"Würzburg","type":"Landkreis"},"federalState":{"key":"09","name":"Bayern"}},{"name":"Am See","postalCode":"97232","locality":"Giebelstadt","municipality":{"key":"09679138","name":"Giebelstadt, M","type":"Markt"},"district":{"key":"09679","name":"Würzburg","type":"Landkreis"},"federalState":{"key":"09","name":"Bayern"}},{"name":"Amselweg","postalCode":"97232","locality":"Giebelstadt","municipality":{"key":"09679138","name":"Giebelstadt, M","type":"Markt"},"district":{"key":"09679","name":"Würzburg","type":"Landkreis"},"federalState":{"key":"09","name":"Bayern"}},{"name":"Am Sonnenhang","postalCode":"97232","locality":"Giebelstadt","municipality":{"key":"09679138","name":"Giebelstadt, M","type":"Markt"},"district":{"key":"09679","name":"Würzburg","type":"Landkreis"},"federalState":{"key":"09","name":"Bayern"}},{"name":"Am Sportplatz","postalCode":"97232","locality":"Giebelstadt","municipality":{"key":"09679138","name":"Giebelstadt, M","type":"Markt"},"district":{"key":"09679","name":"Würzburg","type":"Landkreis"},"federalState":{"key":"09","name":"Bayern"}},{"name":"Am Trieb","postalCode":"97232","locality":"Giebelstadt","municipality":{"key":"09679138","name":"Giebelstadt, M","type":"Markt"},"district":{"key":"09679","name":"Würzburg","type":"Landkreis"},"federalState":{"key":"09","name":"Bayern"}},{"name":"Am Wiesenbach","postalCode":"97232","locality":"Giebelstadt","municipality":{"key":"09679138","name":"Giebelstadt, M","type":"Markt"},"district":{"key":"09679","name":"Würzburg","type":"Landkreis"},"federalState":{"key":"09","name":"Bayern"}},{"name":"An der Brunnenstube","postalCode":"97232","locality":"Giebelstadt","municipality":{"key":"09679138","name":"Giebelstadt, M","type":"Markt"},"district":{"key":"09679","name":"Würzburg","type":"Landkreis"},"federalState":{"key":"09","name":"Bayern"}},{"name":"An der Point","postalCode":"97232","locality":"Giebelstadt","municipality":{"key":"09679138","name":"Giebelstadt, M","type":"Markt"},"district":{"key":"09679","name":"Würzburg","type":"Landkreis"},"federalState":{"key":"09","name":"Bayern"}},{"name":"Andreas-Hermes-Str.","postalCode":"97232","locality":"Giebelstadt","municipality":{"key":"09679138","name":"Giebelstadt, M","type":"Markt"},"district":{"key":"09679","name":"Würzburg","type":"Landkreis"},"federalState":{"key":"09","name":"Bayern"}},{"name":"Asternweg","postalCode":"97232","locality":"Giebelstadt","municipality":{"key":"09679138","name":"Giebelstadt, M","type":"Markt"},"district":{"key":"09679","name":"Würzburg","type":"Landkreis"},"federalState":{"key":"09","name":"Bayern"}},{"name":"Bachgasse","postalCode":"97232","locality":"Giebelstadt","municipality":{"key":"09679138","name":"Giebelstadt, M","type":"Markt"},"district":{"key":"09679","name":"Würzburg","type":"Landkreis"},"federalState":{"key":"09","name":"Bayern"}},{"name":"Bachstr.","postalCode":"97232","locality":"Giebelstadt","municipality":{"key":"09679138","name":"Giebelstadt, M","type":"Markt"},"district":{"key":"09679","name":"Würzburg","type":"Landkreis"},"federalState":{"key":"09","name":"Bayern"}},{"name":"Bayernstr.","postalCode":"97232","locality":"Giebelstadt","municipality":{"key":"09679138","name":"Giebelstadt, M","type":"Markt"},"district":{"key":"09679","name":"Würzburg","type":"Landkreis"},"federalState":{"key":"09","name":"Bayern"}},{"name":"Bei den Linden","postalCode":"97232","locality":"Giebelstadt","municipality":{"key":"09679138","name":"Giebelstadt, M","type":"Markt"},"district":{"key":"09679","name":"Würzburg","type":"Landkreis"},"federalState":{"key":"09","name":"Bayern"}},{"name":"Beim Friedhof","postalCode":"97232","locality":"Giebelstadt","municipality":{"key":"09679138","name":"Giebelstadt, M","type":"Markt"},"district":{"key":"09679","name":"Würzburg","type":"Landkreis"},"federalState":{"key":"09","name":"Bayern"}},{"name":"Bergstr.","postalCode":"97232","locality":"Giebelstadt","municipality":{"key":"09679138","name":"Giebelstadt, M","type":"Markt"},"district":{"key":"09679","name":"Würzburg","type":"Landkreis"},"federalState":{"key":"09","name":"Bayern"}},{"name":"Birkenstr.","postalCode":"97232","locality":"Giebelstadt","municipality":{"key":"09679138","name":"Giebelstadt, M","type":"Markt"},"district":{"key":"09679","name":"Würzburg","type":"Landkreis"},"federalState":{"key":"09","name":"Bayern"}},{"name":"Bisamstr.","postalCode":"97232","locality":"Giebelstadt","municipality":{"key":"09679138","name":"Giebelstadt, M","type":"Markt"},"district":{"key":"09679","name":"Würzburg","type":"Landkreis"},"federalState":{"key":"09","name":"Bayern"}},{"name":"Bischof-Reissmann-Platz","postalCode":"97232","locality":"Giebelstadt","municipality":{"key":"09679138","name":"Giebelstadt, M","type":"Markt"},"district":{"key":"09679","name":"Würzburg","type":"Landkreis"},"federalState":{"key":"09","name":"Bayern"}},{"name":"Blumenstr.","postalCode":"97232","locality":"Giebelstadt","municipality":{"key":"09679138","name":"Giebelstadt, M","type":"Markt"},"district":{"key":"09679","name":"Würzburg","type":"Landkreis"},"federalState":{"key":"09","name":"Bayern"}},{"name":"Blütenstr.","postalCode":"97232","locality":"Giebelstadt","municipality":{"key":"09679138","name":"Giebelstadt, M","type":"Markt"},"district":{"key":"09679","name":"Würzburg","type":"Landkreis"},"federalState":{"key":"09","name":"Bayern"}},{"name":"Brunnengasse","postalCode":"97232","locality":"Giebelstadt","municipality":{"key":"09679138","name":"Giebelstadt, M","type":"Markt"},"district":{"key":"09679","name":"Würzburg","type":"Landkreis"},"federalState":{"key":"09","name":"Bayern"}},{"name":"Buchenhain","postalCode":"97232","locality":"Giebelstadt","municipality":{"key":"09679138","name":"Giebelstadt, M","type":"Markt"},"district":{"key":"09679","name":"Würzburg","type":"Landkreis"},"federalState":{"key":"09","name":"Bayern"}},{"name":"Calberlaher Damm","postalCode":"38518","locality":"Gifhorn","municipality":{"key":"03151009","name":"Gifhorn, Stadt","type":"Stadt"},"district":{"key":"03151","name":"Gifhorn","type":"Landkreis"},"federalState":{"key":"03","name":"Niedersachsen"}},{"name":"Camminer Str.","postalCode":"38518","locality":"Gifhorn","municipality":{"key":"03151009","name":"Gifhorn, Stadt","type":"Stadt"},"district":{"key":"03151","name":"Gifhorn","type":"Landkreis"},"federalState":{"key":"03","name":"Niedersachsen"}},{"name":"Campus","postalCode":"38518","locality":"Gifhorn","municipality":{"key":"03151009","name":"Gifhorn, Stadt","type":"Stadt"},"district":{"key":"03151","name":"Gifhorn","type":"Landkreis"},"federalState":{"key":"03","name":"Niedersachsen"}},{"name":"Cardenap","postalCode":"38518","locality":"Gifhorn","municipality":{"key":"03151009","name":"Gifhorn, Stadt","type":"Stadt"},"district":{"key":"03151","name":"Gifhorn","type":"Landkreis"},"federalState":{"key":"03","name":"Niedersachsen"}},{"name":"Carl-Diem-Str.","postalCode":"38518","locality":"Gifhorn","municipality":{"key":"03151009","name":"Gifhorn, Stadt","type":"Stadt"},"district":{"key":"03151","name":"Gifhorn","type":"Landkreis"},"federalState":{"key":"03","name":"Niedersachsen"}},{"name":"Carl-Goerdeler-Ring","postalCode":"38518","locality":"Gifhorn","municipality":{"key":"03151009","name":"Gifhorn, Stadt","type":"Stadt"},"district":{"key":"03151","name":"Gifhorn","type":"Landkreis"},"federalState":{"key":"03","name":"Niedersachsen"}},{"name":"Carl-Miele-Str.","postalCode":"38518","locality":"Gifhorn","municipality":{"key":"03151009","name":"Gifhorn, Stadt","type":"Stadt"},"district":{"key":"03151","name":"Gifhorn","type":"Landkreis"},"federalState":{"key":"03","name":"Niedersachsen"}},{"name":"Carl-Zeiss-Str.","postalCode":"38518","locality":"Gifhorn","municipality":{"key":"03151009","name":"Gifhorn, Stadt","type":"Stadt"},"district":{"key":"03151","name":"Gifhorn","type":"Landkreis"},"federalState":{"key":"03","name":"Niedersachsen"}},{"name":"Celler Str.","postalCode":"38518","locality":"Gifhorn","municipality":{"key":"03151009","name":"Gifhorn, Stadt","type":"Stadt"},"district":{"key":"03151","name":"Gifhorn","type":"Landkreis"},"federalState":{"key":"03","name":"Niedersachsen"}},{"name":"Celler Weg","postalCode":"38518","locality":"Gifhorn","municipality":{"key":"03151009","name":"Gifhorn, Stadt","type":"Stadt"},"district":{"key":"03151","name":"Gifhorn","type":"Landkreis"},"federalState":{"key":"03","name":"Niedersachsen"}},{"name":"Charlottenburger Str.","postalCode":"38518","locality":"Gifhorn","municipality":{"key":"03151009","name":"Gifhorn, Stadt","type":"Stadt"},"district":{"key":"03151","name":"Gifhorn","type":"Landkreis"},"federalState":{"key":"03","name":"Niedersachsen"}},{"name":"Christian-Olfermann-Str.","postalCode":"38518","locality":"Gifhorn","municipality":{"key":"03151009","name":"Gifhorn, Stadt","type":"Stadt"},"district":{"key":"03151","name":"Gifhorn","type":"Landkreis"},"federalState":{"key":"03","name":"Niedersachsen"}},{"name":"Claus-von-Stauffenberg-Str.","postalCode":"38518","locality":"Gifhorn","municipality":{"key":"03151009","name":"Gifhorn, Stadt","type":"Stadt"},"district":{"key":"03151","name":"Gifhorn","type":"Landkreis"},"federalState":{"key":"03","name":"Niedersachsen"}},{"name":"Danziger Weg","postalCode":"97232","locality":"Giebelstadt","municipality":{"key":"09679138","name":"Giebelstadt, M","type":"Markt"},"district":{"key":"09679","name":"Würzburg","type":"Landkreis"},"federalState":{"key":"09","name":"Bayern"}},{"name":"Dorfberg","postalCode":"97232","locality":"Giebelstadt","municipality":{"key":"09679138","name":"Giebelstadt, M","type":"Markt"},"district":{"key":"09679","name":"Würzburg","type":"Landkreis"},"federalState":{"key":"09","name":"Bayern"}},{"name":"Dorfstr.","postalCode":"97232","locality":"Giebelstadt","municipality":{"key":"09679138","name":"Giebelstadt, M","type":"Markt"},"district":{"key":"09679","name":"Würzburg","type":"Landkreis"},"federalState":{"key":"09","name":"Bayern"}},{"name":"Dr.-Amrhein-Str.","postalCode":"97232","locality":"Giebelstadt","municipality":{"key":"09679138","name":"Giebelstadt, M","type":"Markt"},"district":{"key":"09679","name":"Würzburg","type":"Landkreis"},"federalState":{"key":"09","name":"Bayern"}},{"name":"Dreibrunnenstr.","postalCode":"97232","locality":"Giebelstadt","municipality":{"key":"09679138","name":"Giebelstadt, M","type":"Markt"},"district":{"key":"09679","name":"Würzburg","type":"Landkreis"},"federalState":{"key":"09","name":"Bayern"}},{"name":"Dr.-Heim-Str.","postalCode":"97232","locality":"Giebelstadt","municipality":{"key":"09679138","name":"Giebelstadt, M","type":"Markt"},"district":{"key":"09679","name":"Würzburg","type":"Landkreis"},"federalState":{"key":"09","name":"Bayern"}},{"name":"Eichhornstr.","postalCode":"97232","locality":"Giebelstadt","municipality":{"key":"09679138","name":"Giebelstadt, M","type":"Markt"},"district":{"key":"09679","name":"Würzburg","type":"Landkreis"},"federalState":{"key":"09","name":"Bayern"}},{"name":"Fasanenring","postalCode":"97232","locality":"Giebelstadt","municipality":{"key":"09679138","name":"Giebelstadt, M","type":"Markt"},"district":{"key":"09679","name":"Würzburg","type":"Landkreis"},"federalState":{"key":"09","name":"Bayern"}},{"name":"Finkenstr.","postalCode":"97232","locality":"Giebelstadt","municipality":{"key":"09679138","name":"Giebelstadt, M","type":"Markt"},"district":{"key":"09679","name":"Würzburg","type":"Landkreis"},"federalState":{"key":"09","name":"Bayern"}},{"name":"Fliederweg","postalCode":"97232","locality":"Giebelstadt","municipality":{"key":"09679138","name":"Giebelstadt, M","type":"Markt"},"district":{"key":"09679","name":"Würzburg","type":"Landkreis"},"federalState":{"key":"09","name":"Bayern"}},{"name":"Florian-Geyer-Str.","postalCode":"97232","locality":"Giebelstadt","municipality":{"key":"09679138","name":"Giebelstadt, M","type":"Markt"},"district":{"key":"09679","name":"Würzburg","type":"Landkreis"},"federalState":{"key":"09","name":"Bayern"}},{"name":"Flugplatzstr.","postalCode":"97232","locality":"Giebelstadt","municipality":{"key":"09679138","name":"Giebelstadt, M","type":"Markt"},"district":{"key":"09679","name":"Würzburg","type":"Landkreis"},"federalState":{"key":"09","name":"Bayern"}},{"name":"Fontaneweg","postalCode":"97232","locality":"Giebelstadt","municipality":{"key":"09679138","name":"Giebelstadt, M","type":"Markt"},"district":{"key":"09679","name":"Würzburg","type":"Landkreis"},"federalState":{"key":"09","name":"Bayern"}},{"name":"Frankenstr.","postalCode":"97232","locality":"Giebelstadt","municipality":{"key":"09679138","name":"Giebelstadt, M","type":"Markt"},"district":{"key":"09679","name":"Würzburg","type":"Landkreis"},"federalState":{"key":"09","name":"Bayern"}},{"name":"Franz-Josef-Strauß-Str.","postalCode":"97232","locality":"Giebelstadt","municipality":{"key":"09679138","name":"Giebelstadt, M","type":"Markt"},"district":{"key":"09679","name":"Würzburg","type":"Landkreis"},"federalState":{"key":"09","name":"Bayern"}},{"name":"Friedenstr.","postalCode":"97232","locality":"Giebelstadt","municipality":{"key":"09679138","name":"Giebelstadt, M","type":"Markt"},"district":{"key":"09679","name":"Würzburg","type":"Landkreis"},"federalState":{"key":"09","name":"Bayern"}},{"name":"Froschgasse","postalCode":"97232","locality":"Giebelstadt","municipality":{"key":"09679138","name":"Giebelstadt, M","type":"Markt"},"district":{"key":"09679","name":"Würzburg","type":"Landkreis"},"federalState":{"key":"09","name":"Bayern"}},{"name":"Frühlingstr.","postalCode":"97232","locality":"Giebelstadt","municipality":{"key":"09679138","name":"Giebelstadt, M","type":"Markt"},"district":{"key":"09679","name":"Würzburg","type":"Landkreis"},"federalState":{"key":"09","name":"Bayern"}},{"name":"Gartenstr.","postalCode":"97232","locality":"Giebelstadt","municipality":{"key":"09679138","name":"Giebelstadt, M","type":"Markt"},"district":{"key":"09679","name":"Würzburg","type":"Landkreis"},"federalState":{"key":"09","name":"Bayern"}},{"name":"Gartenweg","postalCode":"97232","locality":"Giebelstadt","municipality":{"key":"09679138","name":"Giebelstadt, M","type":"Markt"},"district":{"key":"09679","name":"Würzburg","type":"Landkreis"},"federalState":{"key":"09","name":"Bayern"}},{"name":"Gaubüttelbrunner Str.","postalCode":"97232","locality":"Giebelstadt","municipality":{"key":"09679138","name":"Giebelstadt, M","type":"Markt"},"district":{"key":"09679","name":"Würzburg","type":"Landkreis"},"federalState":{"key":"09","name":"Bayern"}},{"name":"Geroldshäuser Str.","postalCode":"97232","locality":"Giebelstadt","municipality":{"key":"09679138","name":"Giebelstadt, M","type":"Markt"},"district":{"key":"09679","name":"Würzburg","type":"Landkreis"},"federalState":{"key":"09","name":"Bayern"}},{"name":"Giebelstr.","postalCode":"38470","locality":"Giebel","municipality":{"key":"03151501","name":"Giebel, gemfr. Gebiet","type":"Gemeindefreies_Gebiet_Unbewohnt"},"district":{"key":"03151","name":"Gifhorn","type":"Landkreis"},"federalState":{"key":"03","name":"Niedersachsen"}},{"name":"Goethestr.","postalCode":"97232","locality":"Giebelstadt","municipality":{"key":"09679138","name":"Giebelstadt, M","type":"Markt"},"district":{"key":"09679","name":"Würzburg","type":"Landkreis"},"federalState":{"key":"09","name":"Bayern"}},{"name":"Gützinger Weg","postalCode":"97232","locality":"Giebelstadt","municipality":{"key":"09679138","name":"Giebelstadt, M","type":"Markt"},"district":{"key":"09679","name":"Würzburg","type":"Landkreis"},"federalState":{"key":"09","name":"Bayern"}},{"name":"Hahnenhof","postalCode":"97232","locality":"Giebelstadt","municipality":{"key":"09679138","name":"Giebelstadt, M","type":"Markt"},"district":{"key":"09679","name":"Würzburg","type":"Landkreis"},"federalState":{"key":"09","name":"Bayern"}},{"name":"Hamsterweg","postalCode":"97232","locality":"Giebelstadt","municipality":{"key":"09679138","name":"Giebelstadt, M","type":"Markt"},"district":{"key":"09679","name":"Würzburg","type":"Landkreis"},"federalState":{"key":"09","name":"Bayern"}},{"name":"Hauptstr.","postalCode":"97232","locality":"Giebelstadt","municipality":{"key":"09679138","name":"Giebelstadt, M","type":"Markt"},"district":{"key":"09679","name":"Würzburg","type":"Landkreis"},"federalState":{"key":"09","name":"Bayern"}},{"name":"Heinestr.","postalCode":"97232","locality":"Giebelstadt","municipality":{"key":"09679138","name":"Giebelstadt, M","type":"Markt"},"district":{"key":"09679","name":"Würzburg","type":"Landkreis"},"federalState":{"key":"09","name":"Bayern"}},{"name":"Heinrich-Lanz-Str.","postalCode":"97232","locality":"Giebelstadt","municipality":{"key":"09679138","name":"Giebelstadt, M","type":"Markt"},"district":{"key":"09679","name":"Würzburg","type":"Landkreis"},"federalState":{"key":"09","name":"Bayern"}},{"name":"Herchsheimer Weg","postalCode":"97232","locality":"Giebelstadt","municipality":{"key":"09679138","name":"Giebelstadt, M","type":"Markt"},"district":{"key":"09679","name":"Würzburg","type":"Landkreis"},"federalState":{"key":"09","name":"Bayern"}},{"name":"Holzäckerweg","postalCode":"97232","locality":"Giebelstadt","municipality":{"key":"09679138","name":"Giebelstadt, M","type":"Markt"},"district":{"key":"09679","name":"Würzburg","type":"Landkreis"},"federalState":{"key":"09","name":"Bayern"}},{"name":"Hugo-von-Zobel-Str.","postalCode":"97232","locality":"Giebelstadt","municipality":{"key":"09679138","name":"Giebelstadt, M","type":"Markt"},"district":{"key":"09679","name":"Würzburg","type":"Landkreis"},"federalState":{"key":"09","name":"Bayern"}},{"name":"Igelweg","postalCode":"97232","locality":"Giebelstadt","municipality":{"key":"09679138","name":"Giebelstadt, M","type":"Markt"},"district":{"key":"09679","name":"Würzburg","type":"Landkreis"},"federalState":{"key":"09","name":"Bayern"}},{"name":"Industriestr.","postalCode":"97232","locality":"Giebelstadt","municipality":{"key":"09679138","name":"Giebelstadt, M","type":"Markt"},"district":{"key":"09679","name":"Würzburg","type":"Landkreis"},"federalState":{"key":"09","name":"Bayern"}},{"name":"Ingolstadter Str.","postalCode":"97232","locality":"Giebelstadt","municipality":{"key":"09679138","name":"Giebelstadt, M","type":"Markt"},"district":{"key":"09679","name":"Würzburg","type":"Landkreis"},"federalState":{"key":"09","name":"Bayern"}},{"name":"Joneckweg","postalCode":"38470","locality":"Giebel","municipality":{"key":"03151501","name":"Giebel, gemfr. Gebiet","type":"Gemeindefreies_Gebiet_Unbewohnt"},"district":{"key":"03151","name":"Gifhorn","type":"Landkreis"},"federalState":{"key":"03","name":"Niedersachsen"}},{"name":"Julius-Echter-Str.","postalCode":"97232","locality":"Giebelstadt","municipality":{"key":"09679138","name":"Giebelstadt, M","type":"Markt"},"district":{"key":"09679","name":"Würzburg","type":"Landkreis"},"federalState":{"key":"09","name":"Bayern"}},{"name":"Kapellenberg","postalCode":"97232","locality":"Giebelstadt","municipality":{"key":"09679138","name":"Giebelstadt, M","type":"Markt"},"district":{"key":"09679","name":"Würzburg","type":"Landkreis"},"federalState":{"key":"09","name":"Bayern"}},{"name":"Kästnerweg","postalCode":"97232","locality":"Giebelstadt","municipality":{"key":"09679138","name":"Giebelstadt, M","type":"Markt"},"district":{"key":"09679","name":"Würzburg","type":"Landkreis"},"federalState":{"key":"09","name":"Bayern"}},{"name":"Kautzenstr.","postalCode":"97232","locality":"Giebelstadt","municipality":{"key":"09679138","name":"Giebelstadt, M","type":"Markt"},"district":{"key":"09679","name":"Würzburg","type":"Landkreis"},"federalState":{"key":"09","name":"Bayern"}},{"name":"Kindergartenstr.","postalCode":"97232","locality":"Giebelstadt","municipality":{"key":"09679138","name":"Giebelstadt, M","type":"Markt"},"district":{"key":"09679","name":"Würzburg","type":"Landkreis"},"federalState":{"key":"09","name":"Bayern"}},{"name":"Kirchheimer Str.","postalCode":"97232","locality":"Giebelstadt","municipality":{"key":"09679138","name":"Giebelstadt, M","type":"Markt"},"district":{"key":"09679","name":"Würzburg","type":"Landkreis"},"federalState":{"key":"09","name":"Bayern"}},{"name":"Kirchplatz","postalCode":"97232","locality":"Giebelstadt","municipality":{"key":"09679138","name":"Giebelstadt, M","type":"Markt"},"district":{"key":"09679","name":"Würzburg","type":"Landkreis"},"federalState":{"key":"09","name":"Bayern"}},{"name":"Kirschenweg","postalCode":"97232","locality":"Giebelstadt","municipality":{"key":"09679138","name":"Giebelstadt, M","type":"Markt"},"district":{"key":"09679","name":"Würzburg","type":"Landkreis"},"federalState":{"key":"09","name":"Bayern"}},{"name":"Kräuterweg","postalCode":"97232","locality":"Giebelstadt","municipality":{"key":"09679138","name":"Giebelstadt, M","type":"Markt"},"district":{"key":"09679","name":"Würzburg","type":"Landkreis"},"federalState":{"key":"09","name":"Bayern"}},{"name":"Kurt-Hepperlin-Str.","postalCode":"97232","locality":"Giebelstadt","municipality":{"key":"09679138","name":"Giebelstadt, M","type":"Markt"},"district":{"key":"09679","name":"Würzburg","type":"Landkreis"},"federalState":{"key":"09","name":"Bayern"}},{"name":"Kurze Gasse","postalCode":"97232","locality":"Giebelstadt","municipality":{"key":"09679138","name":"Giebelstadt, M","type":"Markt"},"district":{"key":"09679","name":"Würzburg","type":"Landkreis"},"federalState":{"key":"09","name":"Bayern"}},{"name":"Lange Gasse","postalCode":"97232","locality":"Giebelstadt","municipality":{"key":"09679138","name":"Giebelstadt, M","type":"Markt"},"district":{"key":"09679","name":"Würzburg","type":"Landkreis"},"federalState":{"key":"09","name":"Bayern"}},{"name":"Lehmgrubenweg","postalCode":"97232","locality":"Giebelstadt","municipality":{"key":"09679138","name":"Giebelstadt, M","type":"Markt"},"district":{"key":"09679","name":"Würzburg","type":"Landkreis"},"federalState":{"key":"09","name":"Bayern"}},{"name":"Lerchenweg","postalCode":"97232","locality":"Giebelstadt","municipality":{"key":"09679138","name":"Giebelstadt, M","type":"Markt"},"district":{"key":"09679","name":"Würzburg","type":"Landkreis"},"federalState":{"key":"09","name":"Bayern"}},{"name":"Levi-Strauss-Str.","postalCode":"97232","locality":"Giebelstadt","municipality":{"key":"09679138","name":"Giebelstadt, M","type":"Markt"},"district":{"key":"09679","name":"Würzburg","type":"Landkreis"},"federalState":{"key":"09","name":"Bayern"}},{"name":"Lindenstr.","postalCode":"97232","locality":"Giebelstadt","municipality":{"key":"09679138","name":"Giebelstadt, M","type":"Markt"},"district":{"key":"09679","name":"Würzburg","type":"Landkreis"},"federalState":{"key":"09","name":"Bayern"}},{"name":"Ludwig-Bauer-Str.","postalCode":"97232","locality":"Giebelstadt","municipality":{"key":"09679138","name":"Giebelstadt, M","type":"Markt"},"district":{"key":"09679","name":"Würzburg","type":"Landkreis"},"federalState":{"key":"09","name":"Bayern"}},{"name":"Ludwig-Pfeuffer-Ring","postalCode":"97232","locality":"Giebelstadt","municipality":{"key":"09679138","name":"Giebelstadt, M","type":"Markt"},"district":{"key":"09679","name":"Würzburg","type":"Landkreis"},"federalState":{"key":"09","name":"Bayern"}},{"name":"Marktplatz","postalCode":"97232","locality":"Giebelstadt","municipality":{"key":"09679138","name":"Giebelstadt, M","type":"Markt"},"district":{"key":"09679","name":"Würzburg","type":"Landkreis"},"federalState":{"key":"09","name":"Bayern"}},{"name":"Marktring","postalCode":"97232","locality":"Giebelstadt","municipality":{"key":"09679138","name":"Giebelstadt, M","type":"Markt"},"district":{"key":"09679","name":"Würzburg","type":"Landkreis"},"federalState":{"key":"09","name":"Bayern"}},{"name":"Marktstr.","postalCode":"97232","locality":"Giebelstadt","municipality":{"key":"09679138","name":"Giebelstadt, M","type":"Markt"},"district":{"key":"09679","name":"Würzburg","type":"Landkreis"},"federalState":{"key":"09","name":"Bayern"}},{"name":"Max-Eyth-Str.","postalCode":"97232","locality":"Giebelstadt","municipality":{"key":"09679138","name":"Giebelstadt, M","type":"Markt"},"district":{"key":"09679","name":"Würzburg","type":"Landkreis"},"federalState":{"key":"09","name":"Bayern"}},{"name":"Meisenweg","postalCode":"97232","locality":"Giebelstadt","municipality":{"key":"09679138","name":"Giebelstadt, M","type":"Markt"},"district":{"key":"09679","name":"Würzburg","type":"Landkreis"},"federalState":{"key":"09","name":"Bayern"}},{"name":"Mergentheimer Str.","postalCode":"97232","locality":"Giebelstadt","municipality":{"key":"09679138","name":"Giebelstadt, M","type":"Markt"},"district":{"key":"09679","name":"Würzburg","type":"Landkreis"},"federalState":{"key":"09","name":"Bayern"}},{"name":"Michelsberg","postalCode":"97232","locality":"Giebelstadt","municipality":{"key":"09679138","name":"Giebelstadt, M","type":"Markt"},"district":{"key":"09679","name":"Würzburg","type":"Landkreis"},"federalState":{"key":"09","name":"Bayern"}},{"name":"Mittlere Kirchgasse","postalCode":"97232","locality":"Giebelstadt","municipality":{"key":"09679138","name":"Giebelstadt, M","type":"Markt"},"district":{"key":"09679","name":"Würzburg","type":"Landkreis"},"federalState":{"key":"09","name":"Bayern"}},{"name":"Mooser Weg","postalCode":"97232","locality":"Giebelstadt","municipality":{"key":"09679138","name":"Giebelstadt, M","type":"Markt"},"district":{"key":"09679","name":"Würzburg","type":"Landkreis"},"federalState":{"key":"09","name":"Bayern"}},{"name":"Mozartstr.","postalCode":"97232","locality":"Giebelstadt","municipality":{"key":"09679138","name":"Giebelstadt, M","type":"Markt"},"district":{"key":"09679","name":"Würzburg","type":"Landkreis"},"federalState":{"key":"09","name":"Bayern"}},{"name":"Nelkenstr.","postalCode":"97232","locality":"Giebelstadt","municipality":{"key":"09679138","name":"Giebelstadt, M","type":"Markt"},"district":{"key":"09679","name":"Würzburg","type":"Landkreis"},"federalState":{"key":"09","name":"Bayern"}},{"name":"Neubaustr.","postalCode":"97232","locality":"Giebelstadt","municipality":{"key":"09679138","name":"Giebelstadt, M","type":"Markt"},"district":{"key":"09679","name":"Würzburg","type":"Landkreis"},"federalState":{"key":"09","name":"Bayern"}},{"name":"Neuer Weg","postalCode":"97232","locality":"Giebelstadt","municipality":{"key":"09679138","name":"Giebelstadt, M","type":"Markt"},"district":{"key":"09679","name":"Würzburg","type":"Landkreis"},"federalState":{"key":"09","name":"Bayern"}},{"name":"Nikolaus-Fey-Str.","postalCode":"97232","locality":"Giebelstadt","municipality":{"key":"09679138","name":"Giebelstadt, M","type":"Markt"},"district":{"key":"09679","name":"Würzburg","type":"Landkreis"},"federalState":{"key":"09","name":"Bayern"}},{"name":"Nikolausweg","postalCode":"97232","locality":"Giebelstadt","municipality":{"key":"09679138","name":"Giebelstadt, M","type":"Markt"},"district":{"key":"09679","name":"Würzburg","type":"Landkreis"},"federalState":{"key":"09","name":"Bayern"}},{"name":"Obere Kirchgasse","postalCode":"97232","locality":"Giebelstadt","municipality":{"key":"09679138","name":"Giebelstadt, M","type":"Markt"},"district":{"key":"09679","name":"Würzburg","type":"Landkreis"},"federalState":{"key":"09","name":"Bayern"}},{"name":"Ochsenfurter Str.","postalCode":"97232","locality":"Giebelstadt","municipality":{"key":"09679138","name":"Giebelstadt, M","type":"Markt"},"district":{"key":"09679","name":"Würzburg","type":"Landkreis"},"federalState":{"key":"09","name":"Bayern"}},{"name":"Ostauweg","postalCode":"97232","locality":"Giebelstadt","municipality":{"key":"09679138","name":"Giebelstadt, M","type":"Markt"},"district":{"key":"09679","name":"Würzburg","type":"Landkreis"},"federalState":{"key":"09","name":"Bayern"}},{"name":"Otterstr.","postalCode":"97232","locality":"Giebelstadt","municipality":{"key":"09679138","name":"Giebelstadt, M","type":"Markt"},"district":{"key":"09679","name":"Würzburg","type":"Landkreis"},"federalState":{"key":"09","name":"Bayern"}},{"name":"Pfarrgasse","postalCode":"97232","locality":"Giebelstadt","municipality":{"key":"09679138","name":"Giebelstadt, M","type":"Markt"},"district":{"key":"09679","name":"Würzburg","type":"Landkreis"},"federalState":{"key":"09","name":"Bayern"}},{"name":"Querkamp","postalCode":"38518","locality":"Gifhorn","municipality":{"key":"03151009","name":"Gifhorn, Stadt","type":"Stadt"},"district":{"key":"03151","name":"Gifhorn","type":"Landkreis"},"federalState":{"key":"03","name":"Niedersachsen"}},{"name":"Querweg","postalCode":"38518","locality":"Gifhorn","municipality":{"key":"03151009","name":"Gifhorn, Stadt","type":"Stadt"},"district":{"key":"03151","name":"Gifhorn","type":"Landkreis"},"federalState":{"key":"03","name":"Niedersachsen"}},{"name":"Raiffeisenweg","postalCode":"97232","locality":"Giebelstadt","municipality":{"key":"09679138","name":"Giebelstadt, M","type":"Markt"},"district":{"key":"09679","name":"Würzburg","type":"Landkreis"},"federalState":{"key":"09","name":"Bayern"}},{"name":"Riedweg","postalCode":"97232","locality":"Giebelstadt","municipality":{"key":"09679138","name":"Giebelstadt, M","type":"Markt"},"district":{"key":"09679","name":"Würzburg","type":"Landkreis"},"federalState":{"key":"09","name":"Bayern"}},{"name":"Riemenschneiderstr.","postalCode":"97232","locality":"Giebelstadt","municipality":{"key":"09679138","name":"Giebelstadt, M","type":"Markt"},"district":{"key":"09679","name":"Würzburg","type":"Landkreis"},"federalState":{"key":"09","name":"Bayern"}},{"name":"Ringstr.","postalCode":"97232","locality":"Giebelstadt","municipality":{"key":"09679138","name":"Giebelstadt, M","type":"Markt"},"district":{"key":"09679","name":"Würzburg","type":"Landkreis"},"federalState":{"key":"09","name":"Bayern"}},{"name":"Rosengarten","postalCode":"97232","locality":"Giebelstadt","municipality":{"key":"09679138","name":"Giebelstadt, M","type":"Markt"},"district":{"key":"09679","name":"Würzburg","type":"Landkreis"},"federalState":{"key":"09","name":"Bayern"}},{"name":"Rosenweg","postalCode":"97232","locality":"Giebelstadt","municipality":{"key":"09679138","name":"Giebelstadt, M","type":"Markt"},"district":{"key":"09679","name":"Würzburg","type":"Landkreis"},"federalState":{"key":"09","name":"Bayern"}},{"name":"Rührgasse","postalCode":"97232","locality":"Giebelstadt","municipality":{"key":"09679138","name":"Giebelstadt, M","type":"Markt"},"district":{"key":"09679","name":"Würzburg","type":"Landkreis"},"federalState":{"key":"09","name":"Bayern"}},{"name":"Salamanderstr.","postalCode":"97232","locality":"Giebelstadt","municipality":{"key":"09679138","name":"Giebelstadt, M","type":"Markt"},"district":{"key":"09679","name":"Würzburg","type":"Landkreis"},"federalState":{"key":"09","name":"Bayern"}},{"name":"Salokenweg","postalCode":"38470","locality":"Giebel","municipality":{"key":"03151501","name":"Giebel, gemfr. Gebiet","type":"Gemeindefreies_Gebiet_Unbewohnt"},"district":{"key":"03151","name":"Gifhorn","type":"Landkreis"},"federalState":{"key":"03","name":"Niedersachsen"}},{"name":"Schillerstr.","postalCode":"97232","locality":"Giebelstadt","municipality":{"key":"09679138","name":"Giebelstadt, M","type":"Markt"},"district":{"key":"09679","name":"Würzburg","type":"Landkreis"},"federalState":{"key":"09","name":"Bayern"}},{"name":"Schleifweg","postalCode":"97232","locality":"Giebelstadt","municipality":{"key":"09679138","name":"Giebelstadt, M","type":"Markt"},"district":{"key":"09679","name":"Würzburg","type":"Landkreis"},"federalState":{"key":"09","name":"Bayern"}},{"name":"Schlesierstr.","postalCode":"97232","locality":"Giebelstadt","municipality":{"key":"09679138","name":"Giebelstadt, M","type":"Markt"},"district":{"key":"09679","name":"Würzburg","type":"Landkreis"},"federalState":{"key":"09","name":"Bayern"}},{"name":"Schloßstr.","postalCode":"97232","locality":"Giebelstadt","municipality":{"key":"09679138","name":"Giebelstadt, M","type":"Markt"},"district":{"key":"09679","name":"Würzburg","type":"Landkreis"},"federalState":{"key":"09","name":"Bayern"}},{"name":"Schulstr.","postalCode":"97232","locality":"Giebelstadt","municipality":{"key":"09679138","name":"Giebelstadt, M","type":"Markt"},"district":{"key":"09679","name":"Würzburg","type":"Landkreis"},"federalState":{"key":"09","name":"Bayern"}},{"name":"Schützenweg","postalCode":"97232","locality":"Giebelstadt","municipality":{"key":"09679138","name":"Giebelstadt, M","type":"Markt"},"district":{"key":"09679","name":"Würzburg","type":"Landkreis"},"federalState":{"key":"09","name":"Bayern"}},{"name":"Schwester-Assumpta-Weg","postalCode":"97232","locality":"Giebelstadt","municipality":{"key":"09679138","name":"Giebelstadt, M","type":"Markt"},"district":{"key":"09679","name":"Würzburg","type":"Landkreis"},"federalState":{"key":"09","name":"Bayern"}},{"name":"Seebachweg","postalCode":"97232","locality":"Giebelstadt","municipality":{"key":"09679138","name":"Giebelstadt, M","type":"Markt"},"district":{"key":"09679","name":"Würzburg","type":"Landkreis"},"federalState":{"key":"09","name":"Bayern"}},{"name":"Seewiese","postalCode":"97232","locality":"Giebelstadt","municipality":{"key":"09679138","name":"Giebelstadt, M","type":"Markt"},"district":{"key":"09679","name":"Würzburg","type":"Landkreis"},"federalState":{"key":"09","name":"Bayern"}},{"name":"Siebenbürgenstr.","postalCode":"97232","locality":"Giebelstadt","municipality":{"key":"09679138","name":"Giebelstadt, M","type":"Markt"},"district":{"key":"09679","name":"Würzburg","type":"Landkreis"},"federalState":{"key":"09","name":"Bayern"}},{"name":"Siedlungsstr.","postalCode":"97232","locality":"Giebelstadt","municipality":{"key":"09679138","name":"Giebelstadt, M","type":"Markt"},"district":{"key":"09679","name":"Würzburg","type":"Landkreis"},"federalState":{"key":"09","name":"Bayern"}},{"name":"Sommerleitenweg","postalCode":"97232","locality":"Giebelstadt","municipality":{"key":"09679138","name":"Giebelstadt, M","type":"Markt"},"district":{"key":"09679","name":"Würzburg","type":"Landkreis"},"federalState":{"key":"09","name":"Bayern"}},{"name":"Spiegelstr.","postalCode":"97232","locality":"Giebelstadt","municipality":{"key":"09679138","name":"Giebelstadt, M","type":"Markt"},"district":{"key":"09679","name":"Würzburg","type":"Landkreis"},"federalState":{"key":"09","name":"Bayern"}},{"name":"Sudetenstr.","postalCode":"97232","locality":"Giebelstadt","municipality":{"key":"09679138","name":"Giebelstadt, M","type":"Markt"},"district":{"key":"09679","name":"Würzburg","type":"Landkreis"},"federalState":{"key":"09","name":"Bayern"}},{"name":"Sulzdorfer Weg","postalCode":"97232","locality":"Giebelstadt","municipality":{"key":"09679138","name":"Giebelstadt, M","type":"Markt"},"district":{"key":"09679","name":"Würzburg","type":"Landkreis"},"federalState":{"key":"09","name":"Bayern"}},{"name":"Thüringer Str.","postalCode":"97232","locality":"Giebelstadt","municipality":{"key":"09679138","name":"Giebelstadt, M","type":"Markt"},"district":{"key":"09679","name":"Würzburg","type":"Landkreis"},"federalState":{"key":"09","name":"Bayern"}},{"name":"Torstr.","postalCode":"97232","locality":"Giebelstadt","municipality":{"key":"09679138","name":"Giebelstadt, M","type":"Markt"},"district":{"key":"09679","name":"Würzburg","type":"Landkreis"},"federalState":{"key":"09","name":"Bayern"}},{"name":"Tulpenstr.","postalCode":"97232","locality":"Giebelstadt","municipality":{"key":"09679138","name":"Giebelstadt, M","type":"Markt"},"district":{"key":"09679","name":"Würzburg","type":"Landkreis"},"federalState":{"key":"09","name":"Bayern"}},{"name":"Untere Kirchgasse","postalCode":"97232","locality":"Giebelstadt","municipality":{"key":"09679138","name":"Giebelstadt, M","type":"Markt"},"district":{"key":"09679","name":"Würzburg","type":"Landkreis"},"federalState":{"key":"09","name":"Bayern"}},{"name":"Vogelstr.","postalCode":"97232","locality":"Giebelstadt","municipality":{"key":"09679138","name":"Giebelstadt, M","type":"Markt"},"district":{"key":"09679","name":"Würzburg","type":"Landkreis"},"federalState":{"key":"09","name":"Bayern"}},{"name":"Von-Zweter-Weg","postalCode":"97232","locality":"Giebelstadt","municipality":{"key":"09679138","name":"Giebelstadt, M","type":"Markt"},"district":{"key":"09679","name":"Würzburg","type":"Landkreis"},"federalState":{"key":"09","name":"Bayern"}},{"name":"Weidenmühle","postalCode":"97232","locality":"Giebelstadt","municipality":{"key":"09679138","name":"Giebelstadt, M","type":"Markt"},"district":{"key":"09679","name":"Würzburg","type":"Landkreis"},"federalState":{"key":"09","name":"Bayern"}},{"name":"Weidenweg","postalCode":"97232","locality":"Giebelstadt","municipality":{"key":"09679138","name":"Giebelstadt, M","type":"Markt"},"district":{"key":"09679","name":"Würzburg","type":"Landkreis"},"federalState":{"key":"09","name":"Bayern"}},{"name":"Weiherweg","postalCode":"97232","locality":"Giebelstadt","municipality":{"key":"09679138","name":"Giebelstadt, M","type":"Markt"},"district":{"key":"09679","name":"Würzburg","type":"Landkreis"},"federalState":{"key":"09","name":"Bayern"}},{"name":"Wiesenweg","postalCode":"97232","locality":"Giebelstadt","municipality":{"key":"09679138","name":"Giebelstadt, M","type":"Markt"},"district":{"key":"09679","name":"Würzburg","type":"Landkreis"},"federalState":{"key":"09","name":"Bayern"}},{"name":"Wolkshäuser Str.","postalCode":"97232","locality":"Giebelstadt","municipality":{"key":"09679138","name":"Giebelstadt, M","type":"Markt"},"district":{"key":"09679","name":"Würzburg","type":"Landkreis"},"federalState":{"key":"09","name":"Bayern"}},{"name":"Würzburger Str.","postalCode":"97232","locality":"Giebelstadt","municipality":{"key":"09679138","name":"Giebelstadt, M","type":"Markt"},"district":{"key":"09679","name":"Würzburg","type":"Landkreis"},"federalState":{"key":"09","name":"Bayern"}},{"name":"Xanthistr.","postalCode":"38518","locality":"Gifhorn","municipality":{"key":"03151009","name":"Gifhorn, Stadt","type":"Stadt"},"district":{"key":"03151","name":"Gifhorn","type":"Landkreis"},"federalState":{"key":"03","name":"Niedersachsen"}},{"name":"Zanderweg","postalCode":"38518","locality":"Gifhorn","municipality":{"key":"03151009","name":"Gifhorn, Stadt","type":"Stadt"},"district":{"key":"03151","name":"Gifhorn","type":"Landkreis"},"federalState":{"key":"03","name":"Niedersachsen"}},{"name":"Zeisigweg","postalCode":"38518","locality":"Gifhorn","municipality":{"key":"03151009","name":"Gifhorn, Stadt","type":"Stadt"},"district":{"key":"03151","name":"Gifhorn","type":"Landkreis"},"federalState":{"key":"03","name":"Niedersachsen"}},{"name":"Zickengasse","postalCode":"38518","locality":"Gifhorn","municipality":{"key":"03151009","name":"Gifhorn, Stadt","type":"Stadt"},"district":{"key":"03151","name":"Gifhorn","type":"Landkreis"},"federalState":{"key":"03","name":"Niedersachsen"}},{"name":"Zimmererstr.","postalCode":"38518","locality":"Gifhorn","municipality":{"key":"03151009","name":"Gifhorn, Stadt","type":"Stadt"},"district":{"key":"03151","name":"Gifhorn","type":"Landkreis"},"federalState":{"key":"03","name":"Niedersachsen"}},{"name":"Zu den Kikenfuhren","postalCode":"38518","locality":"Gifhorn","municipality":{"key":"03151009","name":"Gifhorn, Stadt","type":"Stadt"},"district":{"key":"03151","name":"Gifhorn","type":"Landkreis"},"federalState":{"key":"03","name":"Niedersachsen"}},{"name":"Zu den Mushoren","postalCode":"38518","locality":"Gifhorn","municipality":{"key":"03151009","name":"Gifhorn, Stadt","type":"Stadt"},"district":{"key":"03151","name":"Gifhorn","type":"Landkreis"},"federalState":{"key":"03","name":"Niedersachsen"}},{"name":"Zum Isetal","postalCode":"38518","locality":"Gifhorn","municipality":{"key":"03151009","name":"Gifhorn, Stadt","type":"Stadt"},"district":{"key":"03151","name":"Gifhorn","type":"Landkreis"},"federalState":{"key":"03","name":"Niedersachsen"}},{"name":"Zum Lehmbusch","postalCode":"38518","locality":"Gifhorn","municipality":{"key":"03151009","name":"Gifhorn, Stadt","type":"Stadt"},"district":{"key":"03151","name":"Gifhorn","type":"Landkreis"},"federalState":{"key":"03","name":"Niedersachsen"}},{"name":"Zum Luisenhof","postalCode":"38518","locality":"Gifhorn","municipality":{"key":"03151009","name":"Gifhorn, Stadt","type":"Stadt"},"district":{"key":"03151","name":"Gifhorn","type":"Landkreis"},"federalState":{"key":"03","name":"Niedersachsen"}},{"name":"Zur Allerwelle","postalCode":"38518","locality":"Gifhorn","municipality":{"key":"03151009","name":"Gifhorn, Stadt","type":"Stadt"},"district":{"key":"03151","name":"Gifhorn","type":"Landkreis"},"federalState":{"key":"03","name":"Niedersachsen"}},{"name":"Zur Alten Schmiede","postalCode":"38518","locality":"Gifhorn","municipality":{"key":"03151009","name":"Gifhorn, Stadt","type":"Stadt"},"district":{"key":"03151","name":"Gifhorn","type":"Landkreis"},"federalState":{"key":"03","name":"Niedersachsen"}},{"name":"Zur Dannheide","postalCode":"38518","locality":"Gifhorn","municipality":{"key":"03151009","name":"Gifhorn, Stadt","type":"Stadt"},"district":{"key":"03151","name":"Gifhorn","type":"Landkreis"},"federalState":{"key":"03","name":"Niedersachsen"}},{"name":"Zur Laage","postalCode":"38518","locality":"Gifhorn","municipality":{"key":"03151009","name":"Gifhorn, Stadt","type":"Stadt"},"district":{"key":"03151","name":"Gifhorn","type":"Landkreis"},"federalState":{"key":"03","name":"Niedersachsen"}},{"name":"Zur Lehmkuhle","postalCode":"38518","locality":"Gifhorn","municipality":{"key":"03151009","name":"Gifhorn, Stadt","type":"Stadt"},"district":{"key":"03151","name":"Gifhorn","type":"Landkreis"},"federalState":{"key":"03","name":"Niedersachsen"}},{"name":"Zur Roten Riede","postalCode":"38518","locality":"Gifhorn","municipality":{"key":"03151009","name":"Gifhorn, Stadt","type":"Stadt"},"district":{"key":"03151","name":"Gifhorn","type":"Landkreis"},"federalState":{"key":"03","name":"Niedersachsen"}},{"name":"Zur Silbereiche","postalCode":"38518","locality":"Gifhorn","municipality":{"key":"03151009","name":"Gifhorn, Stadt","type":"Stadt"},"district":{"key":"03151","name":"Gifhorn","type":"Landkreis"},"federalState":{"key":"03","name":"Niedersachsen"}},{"name":"Ährenweg","postalCode":"38518","locality":"Gifhorn","municipality":{"key":"03151009","name":"Gifhorn, Stadt","type":"Stadt"},"district":{"key":"03151","name":"Gifhorn","type":"Landkreis"},"federalState":{"key":"03","name":"Niedersachsen"}},]