[{"name":"Alte Ziegelei","postalCode":"24113","locality":"Molfsee","municipality":{"key":"01058107","name":"Molfsee","type":"Kreisangehörige_Gemeinde"},"district":{"key":"01058","name":"Rendsburg-Eckernförde","type":"Kreis"},"federalState":{"key":"01","name":"Schleswig-Holstein"}},{"name":"Am Anger","postalCode":"24113","locality":"Molfsee","municipality":{"key":"01058107","name":"Molfsee","type":"Kreisangehörige_Gemeinde"},"district":{"key":"01058","name":"Rendsburg-Eckernförde","type":"Kreis"},"federalState":{"key":"01","name":"Schleswig-Holstein"}},{"name":"Am Hang","postalCode":"24113","locality":"Molfsee","municipality":{"key":"01058107","name":"Molfsee","type":"Kreisangehörige_Gemeinde"},"district":{"key":"01058","name":"Rendsburg-Eckernförde","type":"Kreis"},"federalState":{"key":"01","name":"Schleswig-Holstein"}},{"name":"Am Museum","postalCode":"24113","locality":"Molfsee","municipality":{"key":"01058107","name":"Molfsee","type":"Kreisangehörige_Gemeinde"},"district":{"key":"01058","name":"Rendsburg-Eckernförde","type":"Kreis"},"federalState":{"key":"01","name":"Schleswig-Holstein"}},{"name":"Am Osterfeld","postalCode":"24113","locality":"Molfsee","municipality":{"key":"01058107","name":"Molfsee","type":"Kreisangehörige_Gemeinde"},"district":{"key":"01058","name":"Rendsburg-Eckernförde","type":"Kreis"},"federalState":{"key":"01","name":"Schleswig-Holstein"}},{"name":"Am See","postalCode":"24113","locality":"Molfsee","municipality":{"key":"01058107","name":"Molfsee","type":"Kreisangehörige_Gemeinde"},"district":{"key":"01058","name":"Rendsburg-Eckernförde","type":"Kreis"},"federalState":{"key":"01","name":"Schleswig-Holstein"}},{"name":"Barstenkamp","postalCode":"24113","locality":"Molfsee","municipality":{"key":"01058107","name":"Molfsee","type":"Kreisangehörige_Gemeinde"},"district":{"key":"01058","name":"Rendsburg-Eckernförde","type":"Kreis"},"federalState":{"key":"01","name":"Schleswig-Holstein"}},{"name":"Bornkrogsweg","postalCode":"24113","locality":"Molfsee","municipality":{"key":"01058107","name":"Molfsee","type":"Kreisangehörige_Gemeinde"},"district":{"key":"01058","name":"Rendsburg-Eckernförde","type":"Kreis"},"federalState":{"key":"01","name":"Schleswig-Holstein"}},{"name":"Buschkoppel","postalCode":"24113","locality":"Molfsee","municipality":{"key":"01058107","name":"Molfsee","type":"Kreisangehörige_Gemeinde"},"district":{"key":"01058","name":"Rendsburg-Eckernförde","type":"Kreis"},"federalState":{"key":"01","name":"Schleswig-Holstein"}},{"name":"Butterberg","postalCode":"24113","locality":"Molfsee","municipality":{"key":"01058107","name":"Molfsee","type":"Kreisangehörige_Gemeinde"},"district":{"key":"01058","name":"Rendsburg-Eckernförde","type":"Kreis"},"federalState":{"key":"01","name":"Schleswig-Holstein"}},{"name":"Capt.-Thiessen-Weg","postalCode":"24113","locality":"Molfsee","municipality":{"key":"01058107","name":"Molfsee","type":"Kreisangehörige_Gemeinde"},"district":{"key":"01058","name":"Rendsburg-Eckernförde","type":"Kreis"},"federalState":{"key":"01","name":"Schleswig-Holstein"}},{"name":"Catharinenberg","postalCode":"24113","locality":"Molfsee","municipality":{"key":"01058107","name":"Molfsee","type":"Kreisangehörige_Gemeinde"},"district":{"key":"01058","name":"Rendsburg-Eckernförde","type":"Kreis"},"federalState":{"key":"01","name":"Schleswig-Holstein"}},{"name":"Delfsweg","postalCode":"24113","locality":"Molfsee","municipality":{"key":"01058107","name":"Molfsee","type":"Kreisangehörige_Gemeinde"},"district":{"key":"01058","name":"Rendsburg-Eckernförde","type":"Kreis"},"federalState":{"key":"01","name":"Schleswig-Holstein"}},{"name":"Dorfstede","postalCode":"24113","locality":"Molfsee","municipality":{"key":"01058107","name":"Molfsee","type":"Kreisangehörige_Gemeinde"},"district":{"key":"01058","name":"Rendsburg-Eckernförde","type":"Kreis"},"federalState":{"key":"01","name":"Schleswig-Holstein"}},{"name":"Dorfstr.","postalCode":"24113","locality":"Molfsee","municipality":{"key":"01058107","name":"Molfsee","type":"Kreisangehörige_Gemeinde"},"district":{"key":"01058","name":"Rendsburg-Eckernförde","type":"Kreis"},"federalState":{"key":"01","name":"Schleswig-Holstein"}},{"name":"Eiderblick","postalCode":"24113","locality":"Molfsee","municipality":{"key":"01058107","name":"Molfsee","type":"Kreisangehörige_Gemeinde"},"district":{"key":"01058","name":"Rendsburg-Eckernförde","type":"Kreis"},"federalState":{"key":"01","name":"Schleswig-Holstein"}},{"name":"Eidergrund","postalCode":"24113","locality":"Molfsee","municipality":{"key":"01058107","name":"Molfsee","type":"Kreisangehörige_Gemeinde"},"district":{"key":"01058","name":"Rendsburg-Eckernförde","type":"Kreis"},"federalState":{"key":"01","name":"Schleswig-Holstein"}},{"name":"Eiderwiesenweg","postalCode":"24113","locality":"Molfsee","municipality":{"key":"01058107","name":"Molfsee","type":"Kreisangehörige_Gemeinde"},"district":{"key":"01058","name":"Rendsburg-Eckernförde","type":"Kreis"},"federalState":{"key":"01","name":"Schleswig-Holstein"}},{"name":"Eschenbrook","postalCode":"24113","locality":"Molfsee","municipality":{"key":"01058107","name":"Molfsee","type":"Kreisangehörige_Gemeinde"},"district":{"key":"01058","name":"Rendsburg-Eckernförde","type":"Kreis"},"federalState":{"key":"01","name":"Schleswig-Holstein"}},{"name":"Gannerbarg","postalCode":"24113","locality":"Molfsee","municipality":{"key":"01058107","name":"Molfsee","type":"Kreisangehörige_Gemeinde"},"district":{"key":"01058","name":"Rendsburg-Eckernförde","type":"Kreis"},"federalState":{"key":"01","name":"Schleswig-Holstein"}},{"name":"Grasweg","postalCode":"24113","locality":"Molfsee","municipality":{"key":"01058107","name":"Molfsee","type":"Kreisangehörige_Gemeinde"},"district":{"key":"01058","name":"Rendsburg-Eckernförde","type":"Kreis"},"federalState":{"key":"01","name":"Schleswig-Holstein"}},{"name":"Großer Eiderkamp","postalCode":"24113","locality":"Molfsee","municipality":{"key":"01058107","name":"Molfsee","type":"Kreisangehörige_Gemeinde"},"district":{"key":"01058","name":"Rendsburg-Eckernförde","type":"Kreis"},"federalState":{"key":"01","name":"Schleswig-Holstein"}},{"name":"Hamburger Chaussee","postalCode":"24113","locality":"Molfsee","municipality":{"key":"01058107","name":"Molfsee","type":"Kreisangehörige_Gemeinde"},"district":{"key":"01058","name":"Rendsburg-Eckernförde","type":"Kreis"},"federalState":{"key":"01","name":"Schleswig-Holstein"}},{"name":"Hamburger Landstr.","postalCode":"24113","locality":"Molfsee","municipality":{"key":"01058107","name":"Molfsee","type":"Kreisangehörige_Gemeinde"},"district":{"key":"01058","name":"Rendsburg-Eckernförde","type":"Kreis"},"federalState":{"key":"01","name":"Schleswig-Holstein"}},{"name":"Hofberg","postalCode":"24113","locality":"Molfsee","municipality":{"key":"01058107","name":"Molfsee","type":"Kreisangehörige_Gemeinde"},"district":{"key":"01058","name":"Rendsburg-Eckernförde","type":"Kreis"},"federalState":{"key":"01","name":"Schleswig-Holstein"}},{"name":"Holm","postalCode":"24113","locality":"Molfsee","municipality":{"key":"01058107","name":"Molfsee","type":"Kreisangehörige_Gemeinde"},"district":{"key":"01058","name":"Rendsburg-Eckernförde","type":"Kreis"},"federalState":{"key":"01","name":"Schleswig-Holstein"}},{"name":"Holthagen","postalCode":"24113","locality":"Molfsee","municipality":{"key":"01058107","name":"Molfsee","type":"Kreisangehörige_Gemeinde"},"district":{"key":"01058","name":"Rendsburg-Eckernförde","type":"Kreis"},"federalState":{"key":"01","name":"Schleswig-Holstein"}},{"name":"Humberg","postalCode":"24113","locality":"Molfsee","municipality":{"key":"01058107","name":"Molfsee","type":"Kreisangehörige_Gemeinde"},"district":{"key":"01058","name":"Rendsburg-Eckernförde","type":"Kreis"},"federalState":{"key":"01","name":"Schleswig-Holstein"}},{"name":"Im Wiesengrund","postalCode":"24113","locality":"Molfsee","municipality":{"key":"01058107","name":"Molfsee","type":"Kreisangehörige_Gemeinde"},"district":{"key":"01058","name":"Rendsburg-Eckernförde","type":"Kreis"},"federalState":{"key":"01","name":"Schleswig-Holstein"}},{"name":"Jütwarder","postalCode":"24113","locality":"Molfsee","municipality":{"key":"01058107","name":"Molfsee","type":"Kreisangehörige_Gemeinde"},"district":{"key":"01058","name":"Rendsburg-Eckernförde","type":"Kreis"},"federalState":{"key":"01","name":"Schleswig-Holstein"}},{"name":"Kirchenweg","postalCode":"24113","locality":"Molfsee","municipality":{"key":"01058107","name":"Molfsee","type":"Kreisangehörige_Gemeinde"},"district":{"key":"01058","name":"Rendsburg-Eckernförde","type":"Kreis"},"federalState":{"key":"01","name":"Schleswig-Holstein"}},{"name":"Kleiner Eiderkamp","postalCode":"24113","locality":"Molfsee","municipality":{"key":"01058107","name":"Molfsee","type":"Kreisangehörige_Gemeinde"},"district":{"key":"01058","name":"Rendsburg-Eckernförde","type":"Kreis"},"federalState":{"key":"01","name":"Schleswig-Holstein"}},{"name":"Kolberg","postalCode":"24113","locality":"Molfsee","municipality":{"key":"01058107","name":"Molfsee","type":"Kreisangehörige_Gemeinde"},"district":{"key":"01058","name":"Rendsburg-Eckernförde","type":"Kreis"},"federalState":{"key":"01","name":"Schleswig-Holstein"}},{"name":"Lindenweg","postalCode":"24113","locality":"Molfsee","municipality":{"key":"01058107","name":"Molfsee","type":"Kreisangehörige_Gemeinde"},"district":{"key":"01058","name":"Rendsburg-Eckernförde","type":"Kreis"},"federalState":{"key":"01","name":"Schleswig-Holstein"}},{"name":"Lütten Born","postalCode":"24113","locality":"Molfsee","municipality":{"key":"01058107","name":"Molfsee","type":"Kreisangehörige_Gemeinde"},"district":{"key":"01058","name":"Rendsburg-Eckernförde","type":"Kreis"},"federalState":{"key":"01","name":"Schleswig-Holstein"}},{"name":"Mielkendorfer Weg","postalCode":"24113","locality":"Molfsee","municipality":{"key":"01058107","name":"Molfsee","type":"Kreisangehörige_Gemeinde"},"district":{"key":"01058","name":"Rendsburg-Eckernförde","type":"Kreis"},"federalState":{"key":"01","name":"Schleswig-Holstein"}},{"name":"Moorkoppel","postalCode":"24113","locality":"Molfsee","municipality":{"key":"01058107","name":"Molfsee","type":"Kreisangehörige_Gemeinde"},"district":{"key":"01058","name":"Rendsburg-Eckernförde","type":"Kreis"},"federalState":{"key":"01","name":"Schleswig-Holstein"}},{"name":"Möwenstr.","postalCode":"24113","locality":"Molfsee","municipality":{"key":"01058107","name":"Molfsee","type":"Kreisangehörige_Gemeinde"},"district":{"key":"01058","name":"Rendsburg-Eckernförde","type":"Kreis"},"federalState":{"key":"01","name":"Schleswig-Holstein"}},{"name":"Olendieksbarg","postalCode":"24113","locality":"Molfsee","municipality":{"key":"01058107","name":"Molfsee","type":"Kreisangehörige_Gemeinde"},"district":{"key":"01058","name":"Rendsburg-Eckernförde","type":"Kreis"},"federalState":{"key":"01","name":"Schleswig-Holstein"}},{"name":"Osterberg","postalCode":"24113","locality":"Molfsee","municipality":{"key":"01058107","name":"Molfsee","type":"Kreisangehörige_Gemeinde"},"district":{"key":"01058","name":"Rendsburg-Eckernförde","type":"Kreis"},"federalState":{"key":"01","name":"Schleswig-Holstein"}},{"name":"Osterwisch","postalCode":"24113","locality":"Molfsee","municipality":{"key":"01058107","name":"Molfsee","type":"Kreisangehörige_Gemeinde"},"district":{"key":"01058","name":"Rendsburg-Eckernförde","type":"Kreis"},"federalState":{"key":"01","name":"Schleswig-Holstein"}},{"name":"Poggenkrugsweg","postalCode":"24113","locality":"Molfsee","municipality":{"key":"01058107","name":"Molfsee","type":"Kreisangehörige_Gemeinde"},"district":{"key":"01058","name":"Rendsburg-Eckernförde","type":"Kreis"},"federalState":{"key":"01","name":"Schleswig-Holstein"}},{"name":"Rammseer Berg","postalCode":"24113","locality":"Molfsee","municipality":{"key":"01058107","name":"Molfsee","type":"Kreisangehörige_Gemeinde"},"district":{"key":"01058","name":"Rendsburg-Eckernförde","type":"Kreis"},"federalState":{"key":"01","name":"Schleswig-Holstein"}},{"name":"Rammseer Weg","postalCode":"24113","locality":"Molfsee","municipality":{"key":"01058107","name":"Molfsee","type":"Kreisangehörige_Gemeinde"},"district":{"key":"01058","name":"Rendsburg-Eckernförde","type":"Kreis"},"federalState":{"key":"01","name":"Schleswig-Holstein"}},{"name":"Rammsmoor","postalCode":"24113","locality":"Molfsee","municipality":{"key":"01058107","name":"Molfsee","type":"Kreisangehörige_Gemeinde"},"district":{"key":"01058","name":"Rendsburg-Eckernförde","type":"Kreis"},"federalState":{"key":"01","name":"Schleswig-Holstein"}},{"name":"Rosenweg","postalCode":"24113","locality":"Molfsee","municipality":{"key":"01058107","name":"Molfsee","type":"Kreisangehörige_Gemeinde"},"district":{"key":"01058","name":"Rendsburg-Eckernförde","type":"Kreis"},"federalState":{"key":"01","name":"Schleswig-Holstein"}},{"name":"Schmiedeweg","postalCode":"24113","locality":"Molfsee","municipality":{"key":"01058107","name":"Molfsee","type":"Kreisangehörige_Gemeinde"},"district":{"key":"01058","name":"Rendsburg-Eckernförde","type":"Kreis"},"federalState":{"key":"01","name":"Schleswig-Holstein"}},{"name":"Schulberg","postalCode":"24113","locality":"Molfsee","municipality":{"key":"01058107","name":"Molfsee","type":"Kreisangehörige_Gemeinde"},"district":{"key":"01058","name":"Rendsburg-Eckernförde","type":"Kreis"},"federalState":{"key":"01","name":"Schleswig-Holstein"}},{"name":"Schulenhof","postalCode":"24113","locality":"Molfsee","municipality":{"key":"01058107","name":"Molfsee","type":"Kreisangehörige_Gemeinde"},"district":{"key":"01058","name":"Rendsburg-Eckernförde","type":"Kreis"},"federalState":{"key":"01","name":"Schleswig-Holstein"}},{"name":"Schulstr.","postalCode":"24113","locality":"Molfsee","municipality":{"key":"01058107","name":"Molfsee","type":"Kreisangehörige_Gemeinde"},"district":{"key":"01058","name":"Rendsburg-Eckernförde","type":"Kreis"},"federalState":{"key":"01","name":"Schleswig-Holstein"}},{"name":"Seeblick","postalCode":"24113","locality":"Molfsee","municipality":{"key":"01058107","name":"Molfsee","type":"Kreisangehörige_Gemeinde"},"district":{"key":"01058","name":"Rendsburg-Eckernförde","type":"Kreis"},"federalState":{"key":"01","name":"Schleswig-Holstein"}},{"name":"Seehof","postalCode":"24113","locality":"Molfsee","municipality":{"key":"01058107","name":"Molfsee","type":"Kreisangehörige_Gemeinde"},"district":{"key":"01058","name":"Rendsburg-Eckernförde","type":"Kreis"},"federalState":{"key":"01","name":"Schleswig-Holstein"}},{"name":"Streitberg","postalCode":"24113","locality":"Molfsee","municipality":{"key":"01058107","name":"Molfsee","type":"Kreisangehörige_Gemeinde"},"district":{"key":"01058","name":"Rendsburg-Eckernförde","type":"Kreis"},"federalState":{"key":"01","name":"Schleswig-Holstein"}},{"name":"Stuthagen","postalCode":"24113","locality":"Molfsee","municipality":{"key":"01058107","name":"Molfsee","type":"Kreisangehörige_Gemeinde"},"district":{"key":"01058","name":"Rendsburg-Eckernförde","type":"Kreis"},"federalState":{"key":"01","name":"Schleswig-Holstein"}},{"name":"Tannenberg","postalCode":"24113","locality":"Molfsee","municipality":{"key":"01058107","name":"Molfsee","type":"Kreisangehörige_Gemeinde"},"district":{"key":"01058","name":"Rendsburg-Eckernförde","type":"Kreis"},"federalState":{"key":"01","name":"Schleswig-Holstein"}},{"name":"Tränkenberg","postalCode":"24113","locality":"Molfsee","municipality":{"key":"01058107","name":"Molfsee","type":"Kreisangehörige_Gemeinde"},"district":{"key":"01058","name":"Rendsburg-Eckernförde","type":"Kreis"},"federalState":{"key":"01","name":"Schleswig-Holstein"}},{"name":"Tunnelstr.","postalCode":"24113","locality":"Molfsee","municipality":{"key":"01058107","name":"Molfsee","type":"Kreisangehörige_Gemeinde"},"district":{"key":"01058","name":"Rendsburg-Eckernförde","type":"Kreis"},"federalState":{"key":"01","name":"Schleswig-Holstein"}},{"name":"Waldblick","postalCode":"24113","locality":"Molfsee","municipality":{"key":"01058107","name":"Molfsee","type":"Kreisangehörige_Gemeinde"},"district":{"key":"01058","name":"Rendsburg-Eckernförde","type":"Kreis"},"federalState":{"key":"01","name":"Schleswig-Holstein"}},{"name":"Wiesenweg","postalCode":"24113","locality":"Molfsee","municipality":{"key":"01058107","name":"Molfsee","type":"Kreisangehörige_Gemeinde"},"district":{"key":"01058","name":"Rendsburg-Eckernförde","type":"Kreis"},"federalState":{"key":"01","name":"Schleswig-Holstein"}},{"name":"Wischredder","postalCode":"24113","locality":"Molfsee","municipality":{"key":"01058107","name":"Molfsee","type":"Kreisangehörige_Gemeinde"},"district":{"key":"01058","name":"Rendsburg-Eckernförde","type":"Kreis"},"federalState":{"key":"01","name":"Schleswig-Holstein"}},{"name":"Wolfsberg","postalCode":"24113","locality":"Molfsee","municipality":{"key":"01058107","name":"Molfsee","type":"Kreisangehörige_Gemeinde"},"district":{"key":"01058","name":"Rendsburg-Eckernförde","type":"Kreis"},"federalState":{"key":"01","name":"Schleswig-Holstein"}},{"name":"Wolfskamp","postalCode":"24113","locality":"Molfsee","municipality":{"key":"01058107","name":"Molfsee","type":"Kreisangehörige_Gemeinde"},"district":{"key":"01058","name":"Rendsburg-Eckernförde","type":"Kreis"},"federalState":{"key":"01","name":"Schleswig-Holstein"}},{"name":"Wollbergsredder","postalCode":"24113","locality":"Molfsee","municipality":{"key":"01058107","name":"Molfsee","type":"Kreisangehörige_Gemeinde"},"district":{"key":"01058","name":"Rendsburg-Eckernförde","type":"Kreis"},"federalState":{"key":"01","name":"Schleswig-Holstein"}},]