[{"name":"Albert-Käs-Str.","postalCode":"95689","locality":"Fuchsmühl","municipality":{"key":"09377119","name":"Fuchsmühl, M","type":"Markt"},"district":{"key":"09377","name":"Tirschenreuth","type":"Landkreis"},"federalState":{"key":"09","name":"Bayern"}},{"name":"Alte Str.","postalCode":"95689","locality":"Fuchsmühl","municipality":{"key":"09377119","name":"Fuchsmühl, M","type":"Markt"},"district":{"key":"09377","name":"Tirschenreuth","type":"Landkreis"},"federalState":{"key":"09","name":"Bayern"}},{"name":"Am Bühl","postalCode":"95689","locality":"Fuchsmühl","municipality":{"key":"09377119","name":"Fuchsmühl, M","type":"Markt"},"district":{"key":"09377","name":"Tirschenreuth","type":"Landkreis"},"federalState":{"key":"09","name":"Bayern"}},{"name":"An der Waldstr.","postalCode":"95689","locality":"Fuchsmühl","municipality":{"key":"09377119","name":"Fuchsmühl, M","type":"Markt"},"district":{"key":"09377","name":"Tirschenreuth","type":"Landkreis"},"federalState":{"key":"09","name":"Bayern"}},{"name":"Augsburger Weg","postalCode":"95689","locality":"Fuchsmühl","municipality":{"key":"09377119","name":"Fuchsmühl, M","type":"Markt"},"district":{"key":"09377","name":"Tirschenreuth","type":"Landkreis"},"federalState":{"key":"09","name":"Bayern"}},{"name":"Bärlohweg","postalCode":"95689","locality":"Fuchsmühl","municipality":{"key":"09377119","name":"Fuchsmühl, M","type":"Markt"},"district":{"key":"09377","name":"Tirschenreuth","type":"Landkreis"},"federalState":{"key":"09","name":"Bayern"}},{"name":"Birkenschlagweg","postalCode":"95689","locality":"Fuchsmühl","municipality":{"key":"09377119","name":"Fuchsmühl, M","type":"Markt"},"district":{"key":"09377","name":"Tirschenreuth","type":"Landkreis"},"federalState":{"key":"09","name":"Bayern"}},{"name":"Birkenweg","postalCode":"95689","locality":"Fuchsmühl","municipality":{"key":"09377119","name":"Fuchsmühl, M","type":"Markt"},"district":{"key":"09377","name":"Tirschenreuth","type":"Landkreis"},"federalState":{"key":"09","name":"Bayern"}},{"name":"Brandweg","postalCode":"95689","locality":"Fuchsmühl","municipality":{"key":"09377119","name":"Fuchsmühl, M","type":"Markt"},"district":{"key":"09377","name":"Tirschenreuth","type":"Landkreis"},"federalState":{"key":"09","name":"Bayern"}},{"name":"Brücklweg","postalCode":"95689","locality":"Fuchsmühl","municipality":{"key":"09377119","name":"Fuchsmühl, M","type":"Markt"},"district":{"key":"09377","name":"Tirschenreuth","type":"Landkreis"},"federalState":{"key":"09","name":"Bayern"}},{"name":"Buchäckerweg","postalCode":"95689","locality":"Fuchsmühl","municipality":{"key":"09377119","name":"Fuchsmühl, M","type":"Markt"},"district":{"key":"09377","name":"Tirschenreuth","type":"Landkreis"},"federalState":{"key":"09","name":"Bayern"}},{"name":"Bühläcker","postalCode":"95689","locality":"Fuchsmühl","municipality":{"key":"09377119","name":"Fuchsmühl, M","type":"Markt"},"district":{"key":"09377","name":"Tirschenreuth","type":"Landkreis"},"federalState":{"key":"09","name":"Bayern"}},{"name":"Bürgermeister-Gustl-Fürst-Str.","postalCode":"95689","locality":"Fuchsmühl","municipality":{"key":"09377119","name":"Fuchsmühl, M","type":"Markt"},"district":{"key":"09377","name":"Tirschenreuth","type":"Landkreis"},"federalState":{"key":"09","name":"Bayern"}},{"name":"Carl-Ulrich-Str.","postalCode":"95689","locality":"Fuchsmühl","municipality":{"key":"09377119","name":"Fuchsmühl, M","type":"Markt"},"district":{"key":"09377","name":"Tirschenreuth","type":"Landkreis"},"federalState":{"key":"09","name":"Bayern"}},{"name":"Dahlienweg","postalCode":"95643","locality":"Tirschenreuth","municipality":{"key":"09377154","name":"Tirschenreuth, St","type":"Stadt"},"district":{"key":"09377","name":"Tirschenreuth","type":"Landkreis"},"federalState":{"key":"09","name":"Bayern"}},{"name":"Dammstr.","postalCode":"95643","locality":"Tirschenreuth","municipality":{"key":"09377154","name":"Tirschenreuth, St","type":"Stadt"},"district":{"key":"09377","name":"Tirschenreuth","type":"Landkreis"},"federalState":{"key":"09","name":"Bayern"}},{"name":"Deschplatz","postalCode":"95643","locality":"Tirschenreuth","municipality":{"key":"09377154","name":"Tirschenreuth, St","type":"Stadt"},"district":{"key":"09377","name":"Tirschenreuth","type":"Landkreis"},"federalState":{"key":"09","name":"Bayern"}},{"name":"Dorfweg","postalCode":"95643","locality":"Tirschenreuth","municipality":{"key":"09377154","name":"Tirschenreuth, St","type":"Stadt"},"district":{"key":"09377","name":"Tirschenreuth","type":"Landkreis"},"federalState":{"key":"09","name":"Bayern"}},{"name":"Dr.-Dobereiner-Weg","postalCode":"95643","locality":"Tirschenreuth","municipality":{"key":"09377154","name":"Tirschenreuth, St","type":"Stadt"},"district":{"key":"09377","name":"Tirschenreuth","type":"Landkreis"},"federalState":{"key":"09","name":"Bayern"}},{"name":"Dr.-Hauer-Weg","postalCode":"95643","locality":"Tirschenreuth","municipality":{"key":"09377154","name":"Tirschenreuth, St","type":"Stadt"},"district":{"key":"09377","name":"Tirschenreuth","type":"Landkreis"},"federalState":{"key":"09","name":"Bayern"}},{"name":"Dr.-Karl-Forster-Str.","postalCode":"95643","locality":"Tirschenreuth","municipality":{"key":"09377154","name":"Tirschenreuth, St","type":"Stadt"},"district":{"key":"09377","name":"Tirschenreuth","type":"Landkreis"},"federalState":{"key":"09","name":"Bayern"}},{"name":"Dr.-Üblacker-Weg","postalCode":"95643","locality":"Tirschenreuth","municipality":{"key":"09377154","name":"Tirschenreuth, St","type":"Stadt"},"district":{"key":"09377","name":"Tirschenreuth","type":"Landkreis"},"federalState":{"key":"09","name":"Bayern"}},{"name":"Eichenweg","postalCode":"95689","locality":"Fuchsmühl","municipality":{"key":"09377119","name":"Fuchsmühl, M","type":"Markt"},"district":{"key":"09377","name":"Tirschenreuth","type":"Landkreis"},"federalState":{"key":"09","name":"Bayern"}},{"name":"Erlenweg","postalCode":"95689","locality":"Fuchsmühl","municipality":{"key":"09377119","name":"Fuchsmühl, M","type":"Markt"},"district":{"key":"09377","name":"Tirschenreuth","type":"Landkreis"},"federalState":{"key":"09","name":"Bayern"}},{"name":"Finkenbühlweg","postalCode":"95689","locality":"Fuchsmühl","municipality":{"key":"09377119","name":"Fuchsmühl, M","type":"Markt"},"district":{"key":"09377","name":"Tirschenreuth","type":"Landkreis"},"federalState":{"key":"09","name":"Bayern"}},{"name":"Frank-v.-Römer-Weg","postalCode":"95689","locality":"Fuchsmühl","municipality":{"key":"09377119","name":"Fuchsmühl, M","type":"Markt"},"district":{"key":"09377","name":"Tirschenreuth","type":"Landkreis"},"federalState":{"key":"09","name":"Bayern"}},{"name":"Friedenfelser Str.","postalCode":"95689","locality":"Fuchsmühl","municipality":{"key":"09377119","name":"Fuchsmühl, M","type":"Markt"},"district":{"key":"09377","name":"Tirschenreuth","type":"Landkreis"},"federalState":{"key":"09","name":"Bayern"}},{"name":"Friedenfelserweg","postalCode":"95689","locality":"Fuchsmühl","municipality":{"key":"09377119","name":"Fuchsmühl, M","type":"Markt"},"district":{"key":"09377","name":"Tirschenreuth","type":"Landkreis"},"federalState":{"key":"09","name":"Bayern"}},{"name":"Friedhofweg","postalCode":"95689","locality":"Fuchsmühl","municipality":{"key":"09377119","name":"Fuchsmühl, M","type":"Markt"},"district":{"key":"09377","name":"Tirschenreuth","type":"Landkreis"},"federalState":{"key":"09","name":"Bayern"}},{"name":"Gartenstr.","postalCode":"95689","locality":"Fuchsmühl","municipality":{"key":"09377119","name":"Fuchsmühl, M","type":"Markt"},"district":{"key":"09377","name":"Tirschenreuth","type":"Landkreis"},"federalState":{"key":"09","name":"Bayern"}},{"name":"Gütterner Str.","postalCode":"95689","locality":"Fuchsmühl","municipality":{"key":"09377119","name":"Fuchsmühl, M","type":"Markt"},"district":{"key":"09377","name":"Tirschenreuth","type":"Landkreis"},"federalState":{"key":"09","name":"Bayern"}},{"name":"Hackelsteinweg","postalCode":"95689","locality":"Fuchsmühl","municipality":{"key":"09377119","name":"Fuchsmühl, M","type":"Markt"},"district":{"key":"09377","name":"Tirschenreuth","type":"Landkreis"},"federalState":{"key":"09","name":"Bayern"}},{"name":"Herzogöd","postalCode":"95689","locality":"Fuchsmühl","municipality":{"key":"09377119","name":"Fuchsmühl, M","type":"Markt"},"district":{"key":"09377","name":"Tirschenreuth","type":"Landkreis"},"federalState":{"key":"09","name":"Bayern"}},{"name":"Hubertusstr.","postalCode":"95689","locality":"Fuchsmühl","municipality":{"key":"09377119","name":"Fuchsmühl, M","type":"Markt"},"district":{"key":"09377","name":"Tirschenreuth","type":"Landkreis"},"federalState":{"key":"09","name":"Bayern"}},{"name":"Im Winkel","postalCode":"95689","locality":"Fuchsmühl","municipality":{"key":"09377119","name":"Fuchsmühl, M","type":"Markt"},"district":{"key":"09377","name":"Tirschenreuth","type":"Landkreis"},"federalState":{"key":"09","name":"Bayern"}},{"name":"Jahnweg","postalCode":"95689","locality":"Fuchsmühl","municipality":{"key":"09377119","name":"Fuchsmühl, M","type":"Markt"},"district":{"key":"09377","name":"Tirschenreuth","type":"Landkreis"},"federalState":{"key":"09","name":"Bayern"}},{"name":"Josef-Seitz-Str.","postalCode":"95689","locality":"Fuchsmühl","municipality":{"key":"09377119","name":"Fuchsmühl, M","type":"Markt"},"district":{"key":"09377","name":"Tirschenreuth","type":"Landkreis"},"federalState":{"key":"09","name":"Bayern"}},{"name":"Kaiserinweg","postalCode":"95689","locality":"Fuchsmühl","municipality":{"key":"09377119","name":"Fuchsmühl, M","type":"Markt"},"district":{"key":"09377","name":"Tirschenreuth","type":"Landkreis"},"federalState":{"key":"09","name":"Bayern"}},{"name":"Klostergasse","postalCode":"95689","locality":"Fuchsmühl","municipality":{"key":"09377119","name":"Fuchsmühl, M","type":"Markt"},"district":{"key":"09377","name":"Tirschenreuth","type":"Landkreis"},"federalState":{"key":"09","name":"Bayern"}},{"name":"Konrad-Adenauer-Str.","postalCode":"95689","locality":"Fuchsmühl","municipality":{"key":"09377119","name":"Fuchsmühl, M","type":"Markt"},"district":{"key":"09377","name":"Tirschenreuth","type":"Landkreis"},"federalState":{"key":"09","name":"Bayern"}},{"name":"Kreuzsteinweg","postalCode":"95689","locality":"Fuchsmühl","municipality":{"key":"09377119","name":"Fuchsmühl, M","type":"Markt"},"district":{"key":"09377","name":"Tirschenreuth","type":"Landkreis"},"federalState":{"key":"09","name":"Bayern"}},{"name":"Kuglerweg","postalCode":"95689","locality":"Fuchsmühl","municipality":{"key":"09377119","name":"Fuchsmühl, M","type":"Markt"},"district":{"key":"09377","name":"Tirschenreuth","type":"Landkreis"},"federalState":{"key":"09","name":"Bayern"}},{"name":"Kühtreuweg","postalCode":"95689","locality":"Fuchsmühl","municipality":{"key":"09377119","name":"Fuchsmühl, M","type":"Markt"},"district":{"key":"09377","name":"Tirschenreuth","type":"Landkreis"},"federalState":{"key":"09","name":"Bayern"}},{"name":"Kühtroiweg","postalCode":"95689","locality":"Fuchsmühl","municipality":{"key":"09377119","name":"Fuchsmühl, M","type":"Markt"},"district":{"key":"09377","name":"Tirschenreuth","type":"Landkreis"},"federalState":{"key":"09","name":"Bayern"}},{"name":"Kurt-Schumacher-Str.","postalCode":"95689","locality":"Fuchsmühl","municipality":{"key":"09377119","name":"Fuchsmühl, M","type":"Markt"},"district":{"key":"09377","name":"Tirschenreuth","type":"Landkreis"},"federalState":{"key":"09","name":"Bayern"}},{"name":"Lindenweg","postalCode":"95689","locality":"Fuchsmühl","municipality":{"key":"09377119","name":"Fuchsmühl, M","type":"Markt"},"district":{"key":"09377","name":"Tirschenreuth","type":"Landkreis"},"federalState":{"key":"09","name":"Bayern"}},{"name":"Marienstr.","postalCode":"95689","locality":"Fuchsmühl","municipality":{"key":"09377119","name":"Fuchsmühl, M","type":"Markt"},"district":{"key":"09377","name":"Tirschenreuth","type":"Landkreis"},"federalState":{"key":"09","name":"Bayern"}},{"name":"Marktredwitzer Str.","postalCode":"95689","locality":"Fuchsmühl","municipality":{"key":"09377119","name":"Fuchsmühl, M","type":"Markt"},"district":{"key":"09377","name":"Tirschenreuth","type":"Landkreis"},"federalState":{"key":"09","name":"Bayern"}},{"name":"Mühlenweg","postalCode":"95689","locality":"Fuchsmühl","municipality":{"key":"09377119","name":"Fuchsmühl, M","type":"Markt"},"district":{"key":"09377","name":"Tirschenreuth","type":"Landkreis"},"federalState":{"key":"09","name":"Bayern"}},{"name":"Narzissenweg","postalCode":"95643","locality":"Tirschenreuth","municipality":{"key":"09377154","name":"Tirschenreuth, St","type":"Stadt"},"district":{"key":"09377","name":"Tirschenreuth","type":"Landkreis"},"federalState":{"key":"09","name":"Bayern"}},{"name":"Neualbenreuther Str.","postalCode":"95643","locality":"Tirschenreuth","municipality":{"key":"09377154","name":"Tirschenreuth, St","type":"Stadt"},"district":{"key":"09377","name":"Tirschenreuth","type":"Landkreis"},"federalState":{"key":"09","name":"Bayern"}},{"name":"Neulerchenfeldweg","postalCode":"95643","locality":"Tirschenreuth","municipality":{"key":"09377154","name":"Tirschenreuth, St","type":"Stadt"},"district":{"key":"09377","name":"Tirschenreuth","type":"Landkreis"},"federalState":{"key":"09","name":"Bayern"}},{"name":"Otto-Freundl-Str.","postalCode":"95689","locality":"Fuchsmühl","municipality":{"key":"09377119","name":"Fuchsmühl, M","type":"Markt"},"district":{"key":"09377","name":"Tirschenreuth","type":"Landkreis"},"federalState":{"key":"09","name":"Bayern"}},{"name":"Pater-Rupert-Mayer-Weg","postalCode":"95643","locality":"Tirschenreuth","municipality":{"key":"09377154","name":"Tirschenreuth, St","type":"Stadt"},"district":{"key":"09377","name":"Tirschenreuth","type":"Landkreis"},"federalState":{"key":"09","name":"Bayern"}},{"name":"Paul-Straub-Str.","postalCode":"95643","locality":"Tirschenreuth","municipality":{"key":"09377154","name":"Tirschenreuth, St","type":"Stadt"},"district":{"key":"09377","name":"Tirschenreuth","type":"Landkreis"},"federalState":{"key":"09","name":"Bayern"}},{"name":"Paulusbrunner Weg","postalCode":"95643","locality":"Tirschenreuth","municipality":{"key":"09377154","name":"Tirschenreuth, St","type":"Stadt"},"district":{"key":"09377","name":"Tirschenreuth","type":"Landkreis"},"federalState":{"key":"09","name":"Bayern"}},{"name":"Peterangerstr.","postalCode":"95643","locality":"Tirschenreuth","municipality":{"key":"09377154","name":"Tirschenreuth, St","type":"Stadt"},"district":{"key":"09377","name":"Tirschenreuth","type":"Landkreis"},"federalState":{"key":"09","name":"Bayern"}},{"name":"Pilmersreuth a.d. Str.","postalCode":"95643","locality":"Tirschenreuth","municipality":{"key":"09377154","name":"Tirschenreuth, St","type":"Stadt"},"district":{"key":"09377","name":"Tirschenreuth","type":"Landkreis"},"federalState":{"key":"09","name":"Bayern"}},{"name":"Pilmersreuther Str.","postalCode":"95643","locality":"Tirschenreuth","municipality":{"key":"09377154","name":"Tirschenreuth, St","type":"Stadt"},"district":{"key":"09377","name":"Tirschenreuth","type":"Landkreis"},"federalState":{"key":"09","name":"Bayern"}},{"name":"Planer Str.","postalCode":"95643","locality":"Tirschenreuth","municipality":{"key":"09377154","name":"Tirschenreuth, St","type":"Stadt"},"district":{"key":"09377","name":"Tirschenreuth","type":"Landkreis"},"federalState":{"key":"09","name":"Bayern"}},{"name":"Planetenweg","postalCode":"95643","locality":"Tirschenreuth","municipality":{"key":"09377154","name":"Tirschenreuth, St","type":"Stadt"},"district":{"key":"09377","name":"Tirschenreuth","type":"Landkreis"},"federalState":{"key":"09","name":"Bayern"}},{"name":"Platz am See","postalCode":"95643","locality":"Tirschenreuth","municipality":{"key":"09377154","name":"Tirschenreuth, St","type":"Stadt"},"district":{"key":"09377","name":"Tirschenreuth","type":"Landkreis"},"federalState":{"key":"09","name":"Bayern"}},{"name":"Platz la Ville du Bois","postalCode":"95643","locality":"Tirschenreuth","municipality":{"key":"09377154","name":"Tirschenreuth, St","type":"Stadt"},"district":{"key":"09377","name":"Tirschenreuth","type":"Landkreis"},"federalState":{"key":"09","name":"Bayern"}},{"name":"Pleierstr.","postalCode":"95643","locality":"Tirschenreuth","municipality":{"key":"09377154","name":"Tirschenreuth, St","type":"Stadt"},"district":{"key":"09377","name":"Tirschenreuth","type":"Landkreis"},"federalState":{"key":"09","name":"Bayern"}},{"name":"Pointweg","postalCode":"95643","locality":"Tirschenreuth","municipality":{"key":"09377154","name":"Tirschenreuth, St","type":"Stadt"},"district":{"key":"09377","name":"Tirschenreuth","type":"Landkreis"},"federalState":{"key":"09","name":"Bayern"}},{"name":"Porzellinerstr.","postalCode":"95643","locality":"Tirschenreuth","municipality":{"key":"09377154","name":"Tirschenreuth, St","type":"Stadt"},"district":{"key":"09377","name":"Tirschenreuth","type":"Landkreis"},"federalState":{"key":"09","name":"Bayern"}},{"name":"Rathausstr.","postalCode":"95689","locality":"Fuchsmühl","municipality":{"key":"09377119","name":"Fuchsmühl, M","type":"Markt"},"district":{"key":"09377","name":"Tirschenreuth","type":"Landkreis"},"federalState":{"key":"09","name":"Bayern"}},{"name":"Rosenstr.","postalCode":"95689","locality":"Fuchsmühl","municipality":{"key":"09377119","name":"Fuchsmühl, M","type":"Markt"},"district":{"key":"09377","name":"Tirschenreuth","type":"Landkreis"},"federalState":{"key":"09","name":"Bayern"}},{"name":"Sauerbrunnenweg","postalCode":"95689","locality":"Fuchsmühl","municipality":{"key":"09377119","name":"Fuchsmühl, M","type":"Markt"},"district":{"key":"09377","name":"Tirschenreuth","type":"Landkreis"},"federalState":{"key":"09","name":"Bayern"}},{"name":"Schafbruck","postalCode":"95689","locality":"Fuchsmühl","municipality":{"key":"09377119","name":"Fuchsmühl, M","type":"Markt"},"district":{"key":"09377","name":"Tirschenreuth","type":"Landkreis"},"federalState":{"key":"09","name":"Bayern"}},{"name":"Schloßallee","postalCode":"95689","locality":"Fuchsmühl","municipality":{"key":"09377119","name":"Fuchsmühl, M","type":"Markt"},"district":{"key":"09377","name":"Tirschenreuth","type":"Landkreis"},"federalState":{"key":"09","name":"Bayern"}},{"name":"Schmellerweg","postalCode":"95689","locality":"Fuchsmühl","municipality":{"key":"09377119","name":"Fuchsmühl, M","type":"Markt"},"district":{"key":"09377","name":"Tirschenreuth","type":"Landkreis"},"federalState":{"key":"09","name":"Bayern"}},{"name":"Schulstr.","postalCode":"95689","locality":"Fuchsmühl","municipality":{"key":"09377119","name":"Fuchsmühl, M","type":"Markt"},"district":{"key":"09377","name":"Tirschenreuth","type":"Landkreis"},"federalState":{"key":"09","name":"Bayern"}},{"name":"Sonnenstr.","postalCode":"95689","locality":"Fuchsmühl","municipality":{"key":"09377119","name":"Fuchsmühl, M","type":"Markt"},"district":{"key":"09377","name":"Tirschenreuth","type":"Landkreis"},"federalState":{"key":"09","name":"Bayern"}},{"name":"Tulpenstr.","postalCode":"95689","locality":"Fuchsmühl","municipality":{"key":"09377119","name":"Fuchsmühl, M","type":"Markt"},"district":{"key":"09377","name":"Tirschenreuth","type":"Landkreis"},"federalState":{"key":"09","name":"Bayern"}},{"name":"Unnaplatz","postalCode":"95643","locality":"Tirschenreuth","municipality":{"key":"09377154","name":"Tirschenreuth, St","type":"Stadt"},"district":{"key":"09377","name":"Tirschenreuth","type":"Landkreis"},"federalState":{"key":"09","name":"Bayern"}},{"name":"Urbanstr.","postalCode":"95643","locality":"Tirschenreuth","municipality":{"key":"09377154","name":"Tirschenreuth, St","type":"Stadt"},"district":{"key":"09377","name":"Tirschenreuth","type":"Landkreis"},"federalState":{"key":"09","name":"Bayern"}},{"name":"Vizinalbahnradweg","postalCode":"95643","locality":"Tirschenreuth","municipality":{"key":"09377154","name":"Tirschenreuth, St","type":"Stadt"},"district":{"key":"09377","name":"Tirschenreuth","type":"Landkreis"},"federalState":{"key":"09","name":"Bayern"}},{"name":"Vorholzplatz","postalCode":"95643","locality":"Tirschenreuth","municipality":{"key":"09377154","name":"Tirschenreuth, St","type":"Stadt"},"district":{"key":"09377","name":"Tirschenreuth","type":"Landkreis"},"federalState":{"key":"09","name":"Bayern"}},{"name":"Vorholzweg","postalCode":"95643","locality":"Tirschenreuth","municipality":{"key":"09377154","name":"Tirschenreuth, St","type":"Stadt"},"district":{"key":"09377","name":"Tirschenreuth","type":"Landkreis"},"federalState":{"key":"09","name":"Bayern"}},{"name":"Waldstr.","postalCode":"95689","locality":"Fuchsmühl","municipality":{"key":"09377119","name":"Fuchsmühl, M","type":"Markt"},"district":{"key":"09377","name":"Tirschenreuth","type":"Landkreis"},"federalState":{"key":"09","name":"Bayern"}},{"name":"Wiesauer Str.","postalCode":"95689","locality":"Fuchsmühl","municipality":{"key":"09377119","name":"Fuchsmühl, M","type":"Markt"},"district":{"key":"09377","name":"Tirschenreuth","type":"Landkreis"},"federalState":{"key":"09","name":"Bayern"}},{"name":"Ziegelhütte","postalCode":"95643","locality":"Tirschenreuth","municipality":{"key":"09377154","name":"Tirschenreuth, St","type":"Stadt"},"district":{"key":"09377","name":"Tirschenreuth","type":"Landkreis"},"federalState":{"key":"09","name":"Bayern"}},{"name":"Äußere Regensburger Str.","postalCode":"95643","locality":"Tirschenreuth","municipality":{"key":"09377154","name":"Tirschenreuth, St","type":"Stadt"},"district":{"key":"09377","name":"Tirschenreuth","type":"Landkreis"},"federalState":{"key":"09","name":"Bayern"}},]