[{"name":"Aachtalstr.","postalCode":"88634","locality":"Herdwangen-Schönach","municipality":{"key":"08437124","name":"Herdwangen-Schönach","type":"Kreisangehörige_Gemeinde"},"district":{"key":"08437","name":"Sigmaringen","type":"Landkreis"},"federalState":{"key":"08","name":"Baden-Württemberg"}},{"name":"Adriatsweiler","postalCode":"88634","locality":"Herdwangen-Schönach","municipality":{"key":"08437124","name":"Herdwangen-Schönach","type":"Kreisangehörige_Gemeinde"},"district":{"key":"08437","name":"Sigmaringen","type":"Landkreis"},"federalState":{"key":"08","name":"Baden-Württemberg"}},{"name":"Alberweiler","postalCode":"88634","locality":"Herdwangen-Schönach","municipality":{"key":"08437124","name":"Herdwangen-Schönach","type":"Kreisangehörige_Gemeinde"},"district":{"key":"08437","name":"Sigmaringen","type":"Landkreis"},"federalState":{"key":"08","name":"Baden-Württemberg"}},{"name":"Am Sportplatz","postalCode":"88634","locality":"Herdwangen-Schönach","municipality":{"key":"08437124","name":"Herdwangen-Schönach","type":"Kreisangehörige_Gemeinde"},"district":{"key":"08437","name":"Sigmaringen","type":"Landkreis"},"federalState":{"key":"08","name":"Baden-Württemberg"}},{"name":"Barfußweg","postalCode":"88634","locality":"Herdwangen-Schönach","municipality":{"key":"08437124","name":"Herdwangen-Schönach","type":"Kreisangehörige_Gemeinde"},"district":{"key":"08437","name":"Sigmaringen","type":"Landkreis"},"federalState":{"key":"08","name":"Baden-Württemberg"}},{"name":"Bergstr.","postalCode":"88634","locality":"Herdwangen-Schönach","municipality":{"key":"08437124","name":"Herdwangen-Schönach","type":"Kreisangehörige_Gemeinde"},"district":{"key":"08437","name":"Sigmaringen","type":"Landkreis"},"federalState":{"key":"08","name":"Baden-Württemberg"}},{"name":"Bodenseestr.","postalCode":"88634","locality":"Herdwangen-Schönach","municipality":{"key":"08437124","name":"Herdwangen-Schönach","type":"Kreisangehörige_Gemeinde"},"district":{"key":"08437","name":"Sigmaringen","type":"Landkreis"},"federalState":{"key":"08","name":"Baden-Württemberg"}},{"name":"Bonhoefferstr.","postalCode":"88634","locality":"Herdwangen-Schönach","municipality":{"key":"08437124","name":"Herdwangen-Schönach","type":"Kreisangehörige_Gemeinde"},"district":{"key":"08437","name":"Sigmaringen","type":"Landkreis"},"federalState":{"key":"08","name":"Baden-Württemberg"}},{"name":"Brehmhof","postalCode":"88634","locality":"Herdwangen-Schönach","municipality":{"key":"08437124","name":"Herdwangen-Schönach","type":"Kreisangehörige_Gemeinde"},"district":{"key":"08437","name":"Sigmaringen","type":"Landkreis"},"federalState":{"key":"08","name":"Baden-Württemberg"}},{"name":"Burgstr.","postalCode":"88634","locality":"Herdwangen-Schönach","municipality":{"key":"08437124","name":"Herdwangen-Schönach","type":"Kreisangehörige_Gemeinde"},"district":{"key":"08437","name":"Sigmaringen","type":"Landkreis"},"federalState":{"key":"08","name":"Baden-Württemberg"}},{"name":"Buschhorn","postalCode":"88634","locality":"Herdwangen-Schönach","municipality":{"key":"08437124","name":"Herdwangen-Schönach","type":"Kreisangehörige_Gemeinde"},"district":{"key":"08437","name":"Sigmaringen","type":"Landkreis"},"federalState":{"key":"08","name":"Baden-Württemberg"}},{"name":"Carl-Ott-Weg","postalCode":"72488","locality":"Sigmaringen","municipality":{"key":"08437104","name":"Sigmaringen, Stadt","type":"Stadt"},"district":{"key":"08437","name":"Sigmaringen","type":"Landkreis"},"federalState":{"key":"08","name":"Baden-Württemberg"}},{"name":"Dobelhof","postalCode":"88634","locality":"Herdwangen-Schönach","municipality":{"key":"08437124","name":"Herdwangen-Schönach","type":"Kreisangehörige_Gemeinde"},"district":{"key":"08437","name":"Sigmaringen","type":"Landkreis"},"federalState":{"key":"08","name":"Baden-Württemberg"}},{"name":"Dorfstr.","postalCode":"88634","locality":"Herdwangen-Schönach","municipality":{"key":"08437124","name":"Herdwangen-Schönach","type":"Kreisangehörige_Gemeinde"},"district":{"key":"08437","name":"Sigmaringen","type":"Landkreis"},"federalState":{"key":"08","name":"Baden-Württemberg"}},{"name":"Ebratsweiler","postalCode":"88634","locality":"Herdwangen-Schönach","municipality":{"key":"08437124","name":"Herdwangen-Schönach","type":"Kreisangehörige_Gemeinde"},"district":{"key":"08437","name":"Sigmaringen","type":"Landkreis"},"federalState":{"key":"08","name":"Baden-Württemberg"}},{"name":"Egg","postalCode":"88634","locality":"Herdwangen-Schönach","municipality":{"key":"08437124","name":"Herdwangen-Schönach","type":"Kreisangehörige_Gemeinde"},"district":{"key":"08437","name":"Sigmaringen","type":"Landkreis"},"federalState":{"key":"08","name":"Baden-Württemberg"}},{"name":"Espen","postalCode":"88634","locality":"Herdwangen-Schönach","municipality":{"key":"08437124","name":"Herdwangen-Schönach","type":"Kreisangehörige_Gemeinde"},"district":{"key":"08437","name":"Sigmaringen","type":"Landkreis"},"federalState":{"key":"08","name":"Baden-Württemberg"}},{"name":"Eulogiusstr.","postalCode":"88634","locality":"Herdwangen-Schönach","municipality":{"key":"08437124","name":"Herdwangen-Schönach","type":"Kreisangehörige_Gemeinde"},"district":{"key":"08437","name":"Sigmaringen","type":"Landkreis"},"federalState":{"key":"08","name":"Baden-Württemberg"}},{"name":"Funkenweg","postalCode":"88634","locality":"Herdwangen-Schönach","municipality":{"key":"08437124","name":"Herdwangen-Schönach","type":"Kreisangehörige_Gemeinde"},"district":{"key":"08437","name":"Sigmaringen","type":"Landkreis"},"federalState":{"key":"08","name":"Baden-Württemberg"}},{"name":"Gartenstr.","postalCode":"88634","locality":"Herdwangen-Schönach","municipality":{"key":"08437124","name":"Herdwangen-Schönach","type":"Kreisangehörige_Gemeinde"},"district":{"key":"08437","name":"Sigmaringen","type":"Landkreis"},"federalState":{"key":"08","name":"Baden-Württemberg"}},{"name":"Gassenäcker","postalCode":"88634","locality":"Herdwangen-Schönach","municipality":{"key":"08437124","name":"Herdwangen-Schönach","type":"Kreisangehörige_Gemeinde"},"district":{"key":"08437","name":"Sigmaringen","type":"Landkreis"},"federalState":{"key":"08","name":"Baden-Württemberg"}},{"name":"Gewerbestr.","postalCode":"88634","locality":"Herdwangen-Schönach","municipality":{"key":"08437124","name":"Herdwangen-Schönach","type":"Kreisangehörige_Gemeinde"},"district":{"key":"08437","name":"Sigmaringen","type":"Landkreis"},"federalState":{"key":"08","name":"Baden-Württemberg"}},{"name":"Gustav-Fecht-Str.","postalCode":"88634","locality":"Herdwangen-Schönach","municipality":{"key":"08437124","name":"Herdwangen-Schönach","type":"Kreisangehörige_Gemeinde"},"district":{"key":"08437","name":"Sigmaringen","type":"Landkreis"},"federalState":{"key":"08","name":"Baden-Württemberg"}},{"name":"Hauptstr.","postalCode":"88634","locality":"Herdwangen-Schönach","municipality":{"key":"08437124","name":"Herdwangen-Schönach","type":"Kreisangehörige_Gemeinde"},"district":{"key":"08437","name":"Sigmaringen","type":"Landkreis"},"federalState":{"key":"08","name":"Baden-Württemberg"}},{"name":"Herrengasse","postalCode":"88634","locality":"Herdwangen-Schönach","municipality":{"key":"08437124","name":"Herdwangen-Schönach","type":"Kreisangehörige_Gemeinde"},"district":{"key":"08437","name":"Sigmaringen","type":"Landkreis"},"federalState":{"key":"08","name":"Baden-Württemberg"}},{"name":"Hohenfelsstr.","postalCode":"88634","locality":"Herdwangen-Schönach","municipality":{"key":"08437124","name":"Herdwangen-Schönach","type":"Kreisangehörige_Gemeinde"},"district":{"key":"08437","name":"Sigmaringen","type":"Landkreis"},"federalState":{"key":"08","name":"Baden-Württemberg"}},{"name":"Hubenmühle","postalCode":"88634","locality":"Herdwangen-Schönach","municipality":{"key":"08437124","name":"Herdwangen-Schönach","type":"Kreisangehörige_Gemeinde"},"district":{"key":"08437","name":"Sigmaringen","type":"Landkreis"},"federalState":{"key":"08","name":"Baden-Württemberg"}},{"name":"Hügelhof","postalCode":"88634","locality":"Herdwangen-Schönach","municipality":{"key":"08437124","name":"Herdwangen-Schönach","type":"Kreisangehörige_Gemeinde"},"district":{"key":"08437","name":"Sigmaringen","type":"Landkreis"},"federalState":{"key":"08","name":"Baden-Württemberg"}},{"name":"Im Branden","postalCode":"88634","locality":"Herdwangen-Schönach","municipality":{"key":"08437124","name":"Herdwangen-Schönach","type":"Kreisangehörige_Gemeinde"},"district":{"key":"08437","name":"Sigmaringen","type":"Landkreis"},"federalState":{"key":"08","name":"Baden-Württemberg"}},{"name":"Im Brühl","postalCode":"88634","locality":"Herdwangen-Schönach","municipality":{"key":"08437124","name":"Herdwangen-Schönach","type":"Kreisangehörige_Gemeinde"},"district":{"key":"08437","name":"Sigmaringen","type":"Landkreis"},"federalState":{"key":"08","name":"Baden-Württemberg"}},{"name":"Im Salen","postalCode":"88634","locality":"Herdwangen-Schönach","municipality":{"key":"08437124","name":"Herdwangen-Schönach","type":"Kreisangehörige_Gemeinde"},"district":{"key":"08437","name":"Sigmaringen","type":"Landkreis"},"federalState":{"key":"08","name":"Baden-Württemberg"}},{"name":"In der Wollreute","postalCode":"88634","locality":"Herdwangen-Schönach","municipality":{"key":"08437124","name":"Herdwangen-Schönach","type":"Kreisangehörige_Gemeinde"},"district":{"key":"08437","name":"Sigmaringen","type":"Landkreis"},"federalState":{"key":"08","name":"Baden-Württemberg"}},{"name":"Josef-Buchholz-Str.","postalCode":"88634","locality":"Herdwangen-Schönach","municipality":{"key":"08437124","name":"Herdwangen-Schönach","type":"Kreisangehörige_Gemeinde"},"district":{"key":"08437","name":"Sigmaringen","type":"Landkreis"},"federalState":{"key":"08","name":"Baden-Württemberg"}},{"name":"Kolping-Str.","postalCode":"88634","locality":"Herdwangen-Schönach","municipality":{"key":"08437124","name":"Herdwangen-Schönach","type":"Kreisangehörige_Gemeinde"},"district":{"key":"08437","name":"Sigmaringen","type":"Landkreis"},"federalState":{"key":"08","name":"Baden-Württemberg"}},{"name":"Lautenbach","postalCode":"88634","locality":"Herdwangen-Schönach","municipality":{"key":"08437124","name":"Herdwangen-Schönach","type":"Kreisangehörige_Gemeinde"},"district":{"key":"08437","name":"Sigmaringen","type":"Landkreis"},"federalState":{"key":"08","name":"Baden-Württemberg"}},{"name":"Lindenblütenweg","postalCode":"88634","locality":"Herdwangen-Schönach","municipality":{"key":"08437124","name":"Herdwangen-Schönach","type":"Kreisangehörige_Gemeinde"},"district":{"key":"08437","name":"Sigmaringen","type":"Landkreis"},"federalState":{"key":"08","name":"Baden-Württemberg"}},{"name":"Lindenstr.","postalCode":"88634","locality":"Herdwangen-Schönach","municipality":{"key":"08437124","name":"Herdwangen-Schönach","type":"Kreisangehörige_Gemeinde"},"district":{"key":"08437","name":"Sigmaringen","type":"Landkreis"},"federalState":{"key":"08","name":"Baden-Württemberg"}},{"name":"Linzgaustr.","postalCode":"88634","locality":"Herdwangen-Schönach","municipality":{"key":"08437124","name":"Herdwangen-Schönach","type":"Kreisangehörige_Gemeinde"},"district":{"key":"08437","name":"Sigmaringen","type":"Landkreis"},"federalState":{"key":"08","name":"Baden-Württemberg"}},{"name":"Marienstr.","postalCode":"88634","locality":"Herdwangen-Schönach","municipality":{"key":"08437124","name":"Herdwangen-Schönach","type":"Kreisangehörige_Gemeinde"},"district":{"key":"08437","name":"Sigmaringen","type":"Landkreis"},"federalState":{"key":"08","name":"Baden-Württemberg"}},{"name":"Mittlere Letten","postalCode":"88634","locality":"Herdwangen-Schönach","municipality":{"key":"08437124","name":"Herdwangen-Schönach","type":"Kreisangehörige_Gemeinde"},"district":{"key":"08437","name":"Sigmaringen","type":"Landkreis"},"federalState":{"key":"08","name":"Baden-Württemberg"}},{"name":"Mühlgasse","postalCode":"88634","locality":"Herdwangen-Schönach","municipality":{"key":"08437124","name":"Herdwangen-Schönach","type":"Kreisangehörige_Gemeinde"},"district":{"key":"08437","name":"Sigmaringen","type":"Landkreis"},"federalState":{"key":"08","name":"Baden-Württemberg"}},{"name":"Mühlhausen","postalCode":"88634","locality":"Herdwangen-Schönach","municipality":{"key":"08437124","name":"Herdwangen-Schönach","type":"Kreisangehörige_Gemeinde"},"district":{"key":"08437","name":"Sigmaringen","type":"Landkreis"},"federalState":{"key":"08","name":"Baden-Württemberg"}},{"name":"Nachtweide","postalCode":"88634","locality":"Herdwangen-Schönach","municipality":{"key":"08437124","name":"Herdwangen-Schönach","type":"Kreisangehörige_Gemeinde"},"district":{"key":"08437","name":"Sigmaringen","type":"Landkreis"},"federalState":{"key":"08","name":"Baden-Württemberg"}},{"name":"Oberndorf","postalCode":"88634","locality":"Herdwangen-Schönach","municipality":{"key":"08437124","name":"Herdwangen-Schönach","type":"Kreisangehörige_Gemeinde"},"district":{"key":"08437","name":"Sigmaringen","type":"Landkreis"},"federalState":{"key":"08","name":"Baden-Württemberg"}},{"name":"Otto-Osterwald-Str.","postalCode":"88634","locality":"Herdwangen-Schönach","municipality":{"key":"08437124","name":"Herdwangen-Schönach","type":"Kreisangehörige_Gemeinde"},"district":{"key":"08437","name":"Sigmaringen","type":"Landkreis"},"federalState":{"key":"08","name":"Baden-Württemberg"}},{"name":"Panoramaweg","postalCode":"88634","locality":"Herdwangen-Schönach","municipality":{"key":"08437124","name":"Herdwangen-Schönach","type":"Kreisangehörige_Gemeinde"},"district":{"key":"08437","name":"Sigmaringen","type":"Landkreis"},"federalState":{"key":"08","name":"Baden-Württemberg"}},{"name":"Pfullendorfer Str.","postalCode":"88634","locality":"Herdwangen-Schönach","municipality":{"key":"08437124","name":"Herdwangen-Schönach","type":"Kreisangehörige_Gemeinde"},"district":{"key":"08437","name":"Sigmaringen","type":"Landkreis"},"federalState":{"key":"08","name":"Baden-Württemberg"}},{"name":"Prälat-Hermann-Str.","postalCode":"88634","locality":"Herdwangen-Schönach","municipality":{"key":"08437124","name":"Herdwangen-Schönach","type":"Kreisangehörige_Gemeinde"},"district":{"key":"08437","name":"Sigmaringen","type":"Landkreis"},"federalState":{"key":"08","name":"Baden-Württemberg"}},{"name":"Ramsbergweg","postalCode":"88634","locality":"Herdwangen-Schönach","municipality":{"key":"08437124","name":"Herdwangen-Schönach","type":"Kreisangehörige_Gemeinde"},"district":{"key":"08437","name":"Sigmaringen","type":"Landkreis"},"federalState":{"key":"08","name":"Baden-Württemberg"}},{"name":"Säntisblick","postalCode":"88634","locality":"Herdwangen-Schönach","municipality":{"key":"08437124","name":"Herdwangen-Schönach","type":"Kreisangehörige_Gemeinde"},"district":{"key":"08437","name":"Sigmaringen","type":"Landkreis"},"federalState":{"key":"08","name":"Baden-Württemberg"}},{"name":"Schmalzbühl","postalCode":"88634","locality":"Herdwangen-Schönach","municipality":{"key":"08437124","name":"Herdwangen-Schönach","type":"Kreisangehörige_Gemeinde"},"district":{"key":"08437","name":"Sigmaringen","type":"Landkreis"},"federalState":{"key":"08","name":"Baden-Württemberg"}},{"name":"Schmiedegasse","postalCode":"88634","locality":"Herdwangen-Schönach","municipality":{"key":"08437124","name":"Herdwangen-Schönach","type":"Kreisangehörige_Gemeinde"},"district":{"key":"08437","name":"Sigmaringen","type":"Landkreis"},"federalState":{"key":"08","name":"Baden-Württemberg"}},{"name":"Schubertweg","postalCode":"88634","locality":"Herdwangen-Schönach","municipality":{"key":"08437124","name":"Herdwangen-Schönach","type":"Kreisangehörige_Gemeinde"},"district":{"key":"08437","name":"Sigmaringen","type":"Landkreis"},"federalState":{"key":"08","name":"Baden-Württemberg"}},{"name":"Schwende","postalCode":"88634","locality":"Herdwangen-Schönach","municipality":{"key":"08437124","name":"Herdwangen-Schönach","type":"Kreisangehörige_Gemeinde"},"district":{"key":"08437","name":"Sigmaringen","type":"Landkreis"},"federalState":{"key":"08","name":"Baden-Württemberg"}},{"name":"Sohl","postalCode":"88634","locality":"Herdwangen-Schönach","municipality":{"key":"08437124","name":"Herdwangen-Schönach","type":"Kreisangehörige_Gemeinde"},"district":{"key":"08437","name":"Sigmaringen","type":"Landkreis"},"federalState":{"key":"08","name":"Baden-Württemberg"}},{"name":"Sr.-Hildegard-Str.","postalCode":"88634","locality":"Herdwangen-Schönach","municipality":{"key":"08437124","name":"Herdwangen-Schönach","type":"Kreisangehörige_Gemeinde"},"district":{"key":"08437","name":"Sigmaringen","type":"Landkreis"},"federalState":{"key":"08","name":"Baden-Württemberg"}},{"name":"Steinrennen","postalCode":"88634","locality":"Herdwangen-Schönach","municipality":{"key":"08437124","name":"Herdwangen-Schönach","type":"Kreisangehörige_Gemeinde"},"district":{"key":"08437","name":"Sigmaringen","type":"Landkreis"},"federalState":{"key":"08","name":"Baden-Württemberg"}},{"name":"Stockfeld","postalCode":"88634","locality":"Herdwangen-Schönach","municipality":{"key":"08437124","name":"Herdwangen-Schönach","type":"Kreisangehörige_Gemeinde"},"district":{"key":"08437","name":"Sigmaringen","type":"Landkreis"},"federalState":{"key":"08","name":"Baden-Württemberg"}},{"name":"Stohrenhof","postalCode":"88634","locality":"Herdwangen-Schönach","municipality":{"key":"08437124","name":"Herdwangen-Schönach","type":"Kreisangehörige_Gemeinde"},"district":{"key":"08437","name":"Sigmaringen","type":"Landkreis"},"federalState":{"key":"08","name":"Baden-Württemberg"}},{"name":"Teckstr.","postalCode":"72488","locality":"Sigmaringen","municipality":{"key":"08437104","name":"Sigmaringen, Stadt","type":"Stadt"},"district":{"key":"08437","name":"Sigmaringen","type":"Landkreis"},"federalState":{"key":"08","name":"Baden-Württemberg"}},{"name":"Teiläcker","postalCode":"72517","locality":"Sigmaringendorf","municipality":{"key":"08437105","name":"Sigmaringendorf","type":"Kreisangehörige_Gemeinde"},"district":{"key":"08437","name":"Sigmaringen","type":"Landkreis"},"federalState":{"key":"08","name":"Baden-Württemberg"}},{"name":"Tizianstr.","postalCode":"72517","locality":"Sigmaringendorf","municipality":{"key":"08437105","name":"Sigmaringendorf","type":"Kreisangehörige_Gemeinde"},"district":{"key":"08437","name":"Sigmaringen","type":"Landkreis"},"federalState":{"key":"08","name":"Baden-Württemberg"}},{"name":"Tulpenstr.","postalCode":"72517","locality":"Sigmaringendorf","municipality":{"key":"08437105","name":"Sigmaringendorf","type":"Kreisangehörige_Gemeinde"},"district":{"key":"08437","name":"Sigmaringen","type":"Landkreis"},"federalState":{"key":"08","name":"Baden-Württemberg"}},{"name":"Uferweg","postalCode":"72488","locality":"Sigmaringen","municipality":{"key":"08437104","name":"Sigmaringen, Stadt","type":"Stadt"},"district":{"key":"08437","name":"Sigmaringen","type":"Landkreis"},"federalState":{"key":"08","name":"Baden-Württemberg"}},{"name":"Uhlandstr.","postalCode":"72488","locality":"Sigmaringen","municipality":{"key":"08437104","name":"Sigmaringen, Stadt","type":"Stadt"},"district":{"key":"08437","name":"Sigmaringen","type":"Landkreis"},"federalState":{"key":"08","name":"Baden-Württemberg"}},{"name":"Uhlandweg","postalCode":"72517","locality":"Sigmaringendorf","municipality":{"key":"08437105","name":"Sigmaringendorf","type":"Kreisangehörige_Gemeinde"},"district":{"key":"08437","name":"Sigmaringen","type":"Landkreis"},"federalState":{"key":"08","name":"Baden-Württemberg"}},{"name":"Ulmenstr.","postalCode":"72488","locality":"Sigmaringen","municipality":{"key":"08437104","name":"Sigmaringen, Stadt","type":"Stadt"},"district":{"key":"08437","name":"Sigmaringen","type":"Landkreis"},"federalState":{"key":"08","name":"Baden-Württemberg"}},{"name":"Unterbergenstr.","postalCode":"72488","locality":"Sigmaringen","municipality":{"key":"08437104","name":"Sigmaringen, Stadt","type":"Stadt"},"district":{"key":"08437","name":"Sigmaringen","type":"Landkreis"},"federalState":{"key":"08","name":"Baden-Württemberg"}},{"name":"Unterdorf","postalCode":"72517","locality":"Sigmaringendorf","municipality":{"key":"08437105","name":"Sigmaringendorf","type":"Kreisangehörige_Gemeinde"},"district":{"key":"08437","name":"Sigmaringen","type":"Landkreis"},"federalState":{"key":"08","name":"Baden-Württemberg"}},{"name":"Unterdorfstr.","postalCode":"72488","locality":"Sigmaringen","municipality":{"key":"08437104","name":"Sigmaringen, Stadt","type":"Stadt"},"district":{"key":"08437","name":"Sigmaringen","type":"Landkreis"},"federalState":{"key":"08","name":"Baden-Württemberg"}},{"name":"Unterer Weg","postalCode":"72488","locality":"Sigmaringen","municipality":{"key":"08437104","name":"Sigmaringen, Stadt","type":"Stadt"},"district":{"key":"08437","name":"Sigmaringen","type":"Landkreis"},"federalState":{"key":"08","name":"Baden-Württemberg"}},{"name":"Untere Volkwinhalde","postalCode":"72488","locality":"Sigmaringen","municipality":{"key":"08437104","name":"Sigmaringen, Stadt","type":"Stadt"},"district":{"key":"08437","name":"Sigmaringen","type":"Landkreis"},"federalState":{"key":"08","name":"Baden-Württemberg"}},{"name":"Untere Weidenstr.","postalCode":"72488","locality":"Sigmaringen","municipality":{"key":"08437104","name":"Sigmaringen, Stadt","type":"Stadt"},"district":{"key":"08437","name":"Sigmaringen","type":"Landkreis"},"federalState":{"key":"08","name":"Baden-Württemberg"}},{"name":"Vorstadt","postalCode":"88634","locality":"Herdwangen-Schönach","municipality":{"key":"08437124","name":"Herdwangen-Schönach","type":"Kreisangehörige_Gemeinde"},"district":{"key":"08437","name":"Sigmaringen","type":"Landkreis"},"federalState":{"key":"08","name":"Baden-Württemberg"}},{"name":"Waldhofstr.","postalCode":"88634","locality":"Herdwangen-Schönach","municipality":{"key":"08437124","name":"Herdwangen-Schönach","type":"Kreisangehörige_Gemeinde"},"district":{"key":"08437","name":"Sigmaringen","type":"Landkreis"},"federalState":{"key":"08","name":"Baden-Württemberg"}},{"name":"Waldsteig","postalCode":"88634","locality":"Herdwangen-Schönach","municipality":{"key":"08437124","name":"Herdwangen-Schönach","type":"Kreisangehörige_Gemeinde"},"district":{"key":"08437","name":"Sigmaringen","type":"Landkreis"},"federalState":{"key":"08","name":"Baden-Württemberg"}},{"name":"Wiesenstr.","postalCode":"88634","locality":"Herdwangen-Schönach","municipality":{"key":"08437124","name":"Herdwangen-Schönach","type":"Kreisangehörige_Gemeinde"},"district":{"key":"08437","name":"Sigmaringen","type":"Landkreis"},"federalState":{"key":"08","name":"Baden-Württemberg"}},{"name":"Willi-Siebler-Str.","postalCode":"88634","locality":"Herdwangen-Schönach","municipality":{"key":"08437124","name":"Herdwangen-Schönach","type":"Kreisangehörige_Gemeinde"},"district":{"key":"08437","name":"Sigmaringen","type":"Landkreis"},"federalState":{"key":"08","name":"Baden-Württemberg"}},{"name":"Zur Lochmühle","postalCode":"88634","locality":"Herdwangen-Schönach","municipality":{"key":"08437124","name":"Herdwangen-Schönach","type":"Kreisangehörige_Gemeinde"},"district":{"key":"08437","name":"Sigmaringen","type":"Landkreis"},"federalState":{"key":"08","name":"Baden-Württemberg"}},{"name":"Äußerer Ghaibühl","postalCode":"72488","locality":"Sigmaringen","municipality":{"key":"08437104","name":"Sigmaringen, Stadt","type":"Stadt"},"district":{"key":"08437","name":"Sigmaringen","type":"Landkreis"},"federalState":{"key":"08","name":"Baden-Württemberg"}},]