[{"name":"Algersweg","postalCode":"67583","locality":"Guntersblum","municipality":{"key":"07339024","name":"Guntersblum","type":"Kreisangehörige_Gemeinde"},"district":{"key":"07339","name":"Mainz-Bingen","type":"Landkreis"},"federalState":{"key":"07","name":"Rheinland-Pfalz"}},{"name":"Alsheimer Str.","postalCode":"67583","locality":"Guntersblum","municipality":{"key":"07339024","name":"Guntersblum","type":"Kreisangehörige_Gemeinde"},"district":{"key":"07339","name":"Mainz-Bingen","type":"Landkreis"},"federalState":{"key":"07","name":"Rheinland-Pfalz"}},{"name":"Am Bahnhof","postalCode":"67583","locality":"Guntersblum","municipality":{"key":"07339024","name":"Guntersblum","type":"Kreisangehörige_Gemeinde"},"district":{"key":"07339","name":"Mainz-Bingen","type":"Landkreis"},"federalState":{"key":"07","name":"Rheinland-Pfalz"}},{"name":"Am Julianenbrunnen","postalCode":"67583","locality":"Guntersblum","municipality":{"key":"07339024","name":"Guntersblum","type":"Kreisangehörige_Gemeinde"},"district":{"key":"07339","name":"Mainz-Bingen","type":"Landkreis"},"federalState":{"key":"07","name":"Rheinland-Pfalz"}},{"name":"Am Weiberdeich","postalCode":"67583","locality":"Guntersblum","municipality":{"key":"07339024","name":"Guntersblum","type":"Kreisangehörige_Gemeinde"},"district":{"key":"07339","name":"Mainz-Bingen","type":"Landkreis"},"federalState":{"key":"07","name":"Rheinland-Pfalz"}},{"name":"Am Wohnweg","postalCode":"67583","locality":"Guntersblum","municipality":{"key":"07339024","name":"Guntersblum","type":"Kreisangehörige_Gemeinde"},"district":{"key":"07339","name":"Mainz-Bingen","type":"Landkreis"},"federalState":{"key":"07","name":"Rheinland-Pfalz"}},{"name":"An der Kleier","postalCode":"67583","locality":"Guntersblum","municipality":{"key":"07339024","name":"Guntersblum","type":"Kreisangehörige_Gemeinde"},"district":{"key":"07339","name":"Mainz-Bingen","type":"Landkreis"},"federalState":{"key":"07","name":"Rheinland-Pfalz"}},{"name":"Berggasse","postalCode":"67583","locality":"Guntersblum","municipality":{"key":"07339024","name":"Guntersblum","type":"Kreisangehörige_Gemeinde"},"district":{"key":"07339","name":"Mainz-Bingen","type":"Landkreis"},"federalState":{"key":"07","name":"Rheinland-Pfalz"}},{"name":"Berliner Str.","postalCode":"67583","locality":"Guntersblum","municipality":{"key":"07339024","name":"Guntersblum","type":"Kreisangehörige_Gemeinde"},"district":{"key":"07339","name":"Mainz-Bingen","type":"Landkreis"},"federalState":{"key":"07","name":"Rheinland-Pfalz"}},{"name":"Bienengasse","postalCode":"67583","locality":"Guntersblum","municipality":{"key":"07339024","name":"Guntersblum","type":"Kreisangehörige_Gemeinde"},"district":{"key":"07339","name":"Mainz-Bingen","type":"Landkreis"},"federalState":{"key":"07","name":"Rheinland-Pfalz"}},{"name":"Bleichstr.","postalCode":"67583","locality":"Guntersblum","municipality":{"key":"07339024","name":"Guntersblum","type":"Kreisangehörige_Gemeinde"},"district":{"key":"07339","name":"Mainz-Bingen","type":"Landkreis"},"federalState":{"key":"07","name":"Rheinland-Pfalz"}},{"name":"Breslauer Str.","postalCode":"67583","locality":"Guntersblum","municipality":{"key":"07339024","name":"Guntersblum","type":"Kreisangehörige_Gemeinde"},"district":{"key":"07339","name":"Mainz-Bingen","type":"Landkreis"},"federalState":{"key":"07","name":"Rheinland-Pfalz"}},{"name":"Brunhildstr.","postalCode":"67583","locality":"Guntersblum","municipality":{"key":"07339024","name":"Guntersblum","type":"Kreisangehörige_Gemeinde"},"district":{"key":"07339","name":"Mainz-Bingen","type":"Landkreis"},"federalState":{"key":"07","name":"Rheinland-Pfalz"}},{"name":"Danziger Str.","postalCode":"67583","locality":"Guntersblum","municipality":{"key":"07339024","name":"Guntersblum","type":"Kreisangehörige_Gemeinde"},"district":{"key":"07339","name":"Mainz-Bingen","type":"Landkreis"},"federalState":{"key":"07","name":"Rheinland-Pfalz"}},{"name":"David-Rüb-Str.","postalCode":"67583","locality":"Guntersblum","municipality":{"key":"07339024","name":"Guntersblum","type":"Kreisangehörige_Gemeinde"},"district":{"key":"07339","name":"Mainz-Bingen","type":"Landkreis"},"federalState":{"key":"07","name":"Rheinland-Pfalz"}},{"name":"Donaustr.","postalCode":"67583","locality":"Guntersblum","municipality":{"key":"07339024","name":"Guntersblum","type":"Kreisangehörige_Gemeinde"},"district":{"key":"07339","name":"Mainz-Bingen","type":"Landkreis"},"federalState":{"key":"07","name":"Rheinland-Pfalz"}},{"name":"Dr.-Ernst-Huhn-Str.","postalCode":"67583","locality":"Guntersblum","municipality":{"key":"07339024","name":"Guntersblum","type":"Kreisangehörige_Gemeinde"},"district":{"key":"07339","name":"Mainz-Bingen","type":"Landkreis"},"federalState":{"key":"07","name":"Rheinland-Pfalz"}},{"name":"Dr.-Heinrich-F.-Paulitzky-Str.","postalCode":"67583","locality":"Guntersblum","municipality":{"key":"07339024","name":"Guntersblum","type":"Kreisangehörige_Gemeinde"},"district":{"key":"07339","name":"Mainz-Bingen","type":"Landkreis"},"federalState":{"key":"07","name":"Rheinland-Pfalz"}},{"name":"Eimsheimer Str.","postalCode":"67583","locality":"Guntersblum","municipality":{"key":"07339024","name":"Guntersblum","type":"Kreisangehörige_Gemeinde"},"district":{"key":"07339","name":"Mainz-Bingen","type":"Landkreis"},"federalState":{"key":"07","name":"Rheinland-Pfalz"}},{"name":"Eiserne Hand","postalCode":"67583","locality":"Guntersblum","municipality":{"key":"07339024","name":"Guntersblum","type":"Kreisangehörige_Gemeinde"},"district":{"key":"07339","name":"Mainz-Bingen","type":"Landkreis"},"federalState":{"key":"07","name":"Rheinland-Pfalz"}},{"name":"Gänsweide","postalCode":"67583","locality":"Guntersblum","municipality":{"key":"07339024","name":"Guntersblum","type":"Kreisangehörige_Gemeinde"},"district":{"key":"07339","name":"Mainz-Bingen","type":"Landkreis"},"federalState":{"key":"07","name":"Rheinland-Pfalz"}},{"name":"Gartenstr.","postalCode":"67583","locality":"Guntersblum","municipality":{"key":"07339024","name":"Guntersblum","type":"Kreisangehörige_Gemeinde"},"district":{"key":"07339","name":"Mainz-Bingen","type":"Landkreis"},"federalState":{"key":"07","name":"Rheinland-Pfalz"}},{"name":"Geisenmarkt","postalCode":"67583","locality":"Guntersblum","municipality":{"key":"07339024","name":"Guntersblum","type":"Kreisangehörige_Gemeinde"},"district":{"key":"07339","name":"Mainz-Bingen","type":"Landkreis"},"federalState":{"key":"07","name":"Rheinland-Pfalz"}},{"name":"Georg-K.-Glaser-Str.","postalCode":"67583","locality":"Guntersblum","municipality":{"key":"07339024","name":"Guntersblum","type":"Kreisangehörige_Gemeinde"},"district":{"key":"07339","name":"Mainz-Bingen","type":"Landkreis"},"federalState":{"key":"07","name":"Rheinland-Pfalz"}},{"name":"Gimbsheimer Str.","postalCode":"67583","locality":"Guntersblum","municipality":{"key":"07339024","name":"Guntersblum","type":"Kreisangehörige_Gemeinde"},"district":{"key":"07339","name":"Mainz-Bingen","type":"Landkreis"},"federalState":{"key":"07","name":"Rheinland-Pfalz"}},{"name":"Goldgrube","postalCode":"67583","locality":"Guntersblum","municipality":{"key":"07339024","name":"Guntersblum","type":"Kreisangehörige_Gemeinde"},"district":{"key":"07339","name":"Mainz-Bingen","type":"Landkreis"},"federalState":{"key":"07","name":"Rheinland-Pfalz"}},{"name":"Götzenstr.","postalCode":"67583","locality":"Guntersblum","municipality":{"key":"07339024","name":"Guntersblum","type":"Kreisangehörige_Gemeinde"},"district":{"key":"07339","name":"Mainz-Bingen","type":"Landkreis"},"federalState":{"key":"07","name":"Rheinland-Pfalz"}},{"name":"Grabengässchen","postalCode":"67583","locality":"Guntersblum","municipality":{"key":"07339024","name":"Guntersblum","type":"Kreisangehörige_Gemeinde"},"district":{"key":"07339","name":"Mainz-Bingen","type":"Landkreis"},"federalState":{"key":"07","name":"Rheinland-Pfalz"}},{"name":"Grabenstr.","postalCode":"67583","locality":"Guntersblum","municipality":{"key":"07339024","name":"Guntersblum","type":"Kreisangehörige_Gemeinde"},"district":{"key":"07339","name":"Mainz-Bingen","type":"Landkreis"},"federalState":{"key":"07","name":"Rheinland-Pfalz"}},{"name":"Guntersblumer Str.","postalCode":"67583","locality":"Guntersblum","municipality":{"key":"07339024","name":"Guntersblum","type":"Kreisangehörige_Gemeinde"},"district":{"key":"07339","name":"Mainz-Bingen","type":"Landkreis"},"federalState":{"key":"07","name":"Rheinland-Pfalz"}},{"name":"Hagenstr.","postalCode":"67583","locality":"Guntersblum","municipality":{"key":"07339024","name":"Guntersblum","type":"Kreisangehörige_Gemeinde"},"district":{"key":"07339","name":"Mainz-Bingen","type":"Landkreis"},"federalState":{"key":"07","name":"Rheinland-Pfalz"}},{"name":"Hauptstr.","postalCode":"67583","locality":"Guntersblum","municipality":{"key":"07339024","name":"Guntersblum","type":"Kreisangehörige_Gemeinde"},"district":{"key":"07339","name":"Mainz-Bingen","type":"Landkreis"},"federalState":{"key":"07","name":"Rheinland-Pfalz"}},{"name":"Herrngartenstr.","postalCode":"67583","locality":"Guntersblum","municipality":{"key":"07339024","name":"Guntersblum","type":"Kreisangehörige_Gemeinde"},"district":{"key":"07339","name":"Mainz-Bingen","type":"Landkreis"},"federalState":{"key":"07","name":"Rheinland-Pfalz"}},{"name":"Hinter der Weed","postalCode":"67583","locality":"Guntersblum","municipality":{"key":"07339024","name":"Guntersblum","type":"Kreisangehörige_Gemeinde"},"district":{"key":"07339","name":"Mainz-Bingen","type":"Landkreis"},"federalState":{"key":"07","name":"Rheinland-Pfalz"}},{"name":"Hollach","postalCode":"67583","locality":"Guntersblum","municipality":{"key":"07339024","name":"Guntersblum","type":"Kreisangehörige_Gemeinde"},"district":{"key":"07339","name":"Mainz-Bingen","type":"Landkreis"},"federalState":{"key":"07","name":"Rheinland-Pfalz"}},{"name":"Im Breitried","postalCode":"67583","locality":"Guntersblum","municipality":{"key":"07339024","name":"Guntersblum","type":"Kreisangehörige_Gemeinde"},"district":{"key":"07339","name":"Mainz-Bingen","type":"Landkreis"},"federalState":{"key":"07","name":"Rheinland-Pfalz"}},{"name":"Im Himmeltal","postalCode":"67583","locality":"Guntersblum","municipality":{"key":"07339024","name":"Guntersblum","type":"Kreisangehörige_Gemeinde"},"district":{"key":"07339","name":"Mainz-Bingen","type":"Landkreis"},"federalState":{"key":"07","name":"Rheinland-Pfalz"}},{"name":"Im Vogelsang","postalCode":"67583","locality":"Guntersblum","municipality":{"key":"07339024","name":"Guntersblum","type":"Kreisangehörige_Gemeinde"},"district":{"key":"07339","name":"Mainz-Bingen","type":"Landkreis"},"federalState":{"key":"07","name":"Rheinland-Pfalz"}},{"name":"In der Kehl","postalCode":"67583","locality":"Guntersblum","municipality":{"key":"07339024","name":"Guntersblum","type":"Kreisangehörige_Gemeinde"},"district":{"key":"07339","name":"Mainz-Bingen","type":"Landkreis"},"federalState":{"key":"07","name":"Rheinland-Pfalz"}},{"name":"Jahnstr.","postalCode":"67583","locality":"Guntersblum","municipality":{"key":"07339024","name":"Guntersblum","type":"Kreisangehörige_Gemeinde"},"district":{"key":"07339","name":"Mainz-Bingen","type":"Landkreis"},"federalState":{"key":"07","name":"Rheinland-Pfalz"}},{"name":"Julianenstr.","postalCode":"67583","locality":"Guntersblum","municipality":{"key":"07339024","name":"Guntersblum","type":"Kreisangehörige_Gemeinde"},"district":{"key":"07339","name":"Mainz-Bingen","type":"Landkreis"},"federalState":{"key":"07","name":"Rheinland-Pfalz"}},{"name":"Kalkofen","postalCode":"67583","locality":"Guntersblum","municipality":{"key":"07339024","name":"Guntersblum","type":"Kreisangehörige_Gemeinde"},"district":{"key":"07339","name":"Mainz-Bingen","type":"Landkreis"},"federalState":{"key":"07","name":"Rheinland-Pfalz"}},{"name":"Kellerweg","postalCode":"67583","locality":"Guntersblum","municipality":{"key":"07339024","name":"Guntersblum","type":"Kreisangehörige_Gemeinde"},"district":{"key":"07339","name":"Mainz-Bingen","type":"Landkreis"},"federalState":{"key":"07","name":"Rheinland-Pfalz"}},{"name":"Kirchstr.","postalCode":"67583","locality":"Guntersblum","municipality":{"key":"07339024","name":"Guntersblum","type":"Kreisangehörige_Gemeinde"},"district":{"key":"07339","name":"Mainz-Bingen","type":"Landkreis"},"federalState":{"key":"07","name":"Rheinland-Pfalz"}},{"name":"Kleierstr.","postalCode":"67583","locality":"Guntersblum","municipality":{"key":"07339024","name":"Guntersblum","type":"Kreisangehörige_Gemeinde"},"district":{"key":"07339","name":"Mainz-Bingen","type":"Landkreis"},"federalState":{"key":"07","name":"Rheinland-Pfalz"}},{"name":"Kleine Bleichstr.","postalCode":"67583","locality":"Guntersblum","municipality":{"key":"07339024","name":"Guntersblum","type":"Kreisangehörige_Gemeinde"},"district":{"key":"07339","name":"Mainz-Bingen","type":"Landkreis"},"federalState":{"key":"07","name":"Rheinland-Pfalz"}},{"name":"Kleine Götzenstr.","postalCode":"67583","locality":"Guntersblum","municipality":{"key":"07339024","name":"Guntersblum","type":"Kreisangehörige_Gemeinde"},"district":{"key":"07339","name":"Mainz-Bingen","type":"Landkreis"},"federalState":{"key":"07","name":"Rheinland-Pfalz"}},{"name":"Kleine Neustr.","postalCode":"67583","locality":"Guntersblum","municipality":{"key":"07339024","name":"Guntersblum","type":"Kreisangehörige_Gemeinde"},"district":{"key":"07339","name":"Mainz-Bingen","type":"Landkreis"},"federalState":{"key":"07","name":"Rheinland-Pfalz"}},{"name":"König-Etzel-Str.","postalCode":"67583","locality":"Guntersblum","municipality":{"key":"07339024","name":"Guntersblum","type":"Kreisangehörige_Gemeinde"},"district":{"key":"07339","name":"Mainz-Bingen","type":"Landkreis"},"federalState":{"key":"07","name":"Rheinland-Pfalz"}},{"name":"König-Gunther-Str.","postalCode":"67583","locality":"Guntersblum","municipality":{"key":"07339024","name":"Guntersblum","type":"Kreisangehörige_Gemeinde"},"district":{"key":"07339","name":"Mainz-Bingen","type":"Landkreis"},"federalState":{"key":"07","name":"Rheinland-Pfalz"}},{"name":"Kreuzstr.","postalCode":"67583","locality":"Guntersblum","municipality":{"key":"07339024","name":"Guntersblum","type":"Kreisangehörige_Gemeinde"},"district":{"key":"07339","name":"Mainz-Bingen","type":"Landkreis"},"federalState":{"key":"07","name":"Rheinland-Pfalz"}},{"name":"Kriemhildstr.","postalCode":"67583","locality":"Guntersblum","municipality":{"key":"07339024","name":"Guntersblum","type":"Kreisangehörige_Gemeinde"},"district":{"key":"07339","name":"Mainz-Bingen","type":"Landkreis"},"federalState":{"key":"07","name":"Rheinland-Pfalz"}},{"name":"Kurzer Flurweg","postalCode":"67583","locality":"Guntersblum","municipality":{"key":"07339024","name":"Guntersblum","type":"Kreisangehörige_Gemeinde"},"district":{"key":"07339","name":"Mainz-Bingen","type":"Landkreis"},"federalState":{"key":"07","name":"Rheinland-Pfalz"}},{"name":"Leiningerstr.","postalCode":"67583","locality":"Guntersblum","municipality":{"key":"07339024","name":"Guntersblum","type":"Kreisangehörige_Gemeinde"},"district":{"key":"07339","name":"Mainz-Bingen","type":"Landkreis"},"federalState":{"key":"07","name":"Rheinland-Pfalz"}},{"name":"Marktplatz","postalCode":"67583","locality":"Guntersblum","municipality":{"key":"07339024","name":"Guntersblum","type":"Kreisangehörige_Gemeinde"},"district":{"key":"07339","name":"Mainz-Bingen","type":"Landkreis"},"federalState":{"key":"07","name":"Rheinland-Pfalz"}},{"name":"Mittelstr.","postalCode":"67583","locality":"Guntersblum","municipality":{"key":"07339024","name":"Guntersblum","type":"Kreisangehörige_Gemeinde"},"district":{"key":"07339","name":"Mainz-Bingen","type":"Landkreis"},"federalState":{"key":"07","name":"Rheinland-Pfalz"}},{"name":"Mühlstr.","postalCode":"67583","locality":"Guntersblum","municipality":{"key":"07339024","name":"Guntersblum","type":"Kreisangehörige_Gemeinde"},"district":{"key":"07339","name":"Mainz-Bingen","type":"Landkreis"},"federalState":{"key":"07","name":"Rheinland-Pfalz"}},{"name":"Neustr.","postalCode":"67583","locality":"Guntersblum","municipality":{"key":"07339024","name":"Guntersblum","type":"Kreisangehörige_Gemeinde"},"district":{"key":"07339","name":"Mainz-Bingen","type":"Landkreis"},"federalState":{"key":"07","name":"Rheinland-Pfalz"}},{"name":"Nibelungenstr.","postalCode":"67583","locality":"Guntersblum","municipality":{"key":"07339024","name":"Guntersblum","type":"Kreisangehörige_Gemeinde"},"district":{"key":"07339","name":"Mainz-Bingen","type":"Landkreis"},"federalState":{"key":"07","name":"Rheinland-Pfalz"}},{"name":"Nordhöfer Str.","postalCode":"67583","locality":"Guntersblum","municipality":{"key":"07339024","name":"Guntersblum","type":"Kreisangehörige_Gemeinde"},"district":{"key":"07339","name":"Mainz-Bingen","type":"Landkreis"},"federalState":{"key":"07","name":"Rheinland-Pfalz"}},{"name":"Nordstr.","postalCode":"67583","locality":"Guntersblum","municipality":{"key":"07339024","name":"Guntersblum","type":"Kreisangehörige_Gemeinde"},"district":{"key":"07339","name":"Mainz-Bingen","type":"Landkreis"},"federalState":{"key":"07","name":"Rheinland-Pfalz"}},{"name":"Oppenheimer Torgasse","postalCode":"67583","locality":"Guntersblum","municipality":{"key":"07339024","name":"Guntersblum","type":"Kreisangehörige_Gemeinde"},"district":{"key":"07339","name":"Mainz-Bingen","type":"Landkreis"},"federalState":{"key":"07","name":"Rheinland-Pfalz"}},{"name":"Ostpreußenstr.","postalCode":"67583","locality":"Guntersblum","municipality":{"key":"07339024","name":"Guntersblum","type":"Kreisangehörige_Gemeinde"},"district":{"key":"07339","name":"Mainz-Bingen","type":"Landkreis"},"federalState":{"key":"07","name":"Rheinland-Pfalz"}},{"name":"Philipp-Kreißler-Str.","postalCode":"67583","locality":"Guntersblum","municipality":{"key":"07339024","name":"Guntersblum","type":"Kreisangehörige_Gemeinde"},"district":{"key":"07339","name":"Mainz-Bingen","type":"Landkreis"},"federalState":{"key":"07","name":"Rheinland-Pfalz"}},{"name":"Pommernstr.","postalCode":"67583","locality":"Guntersblum","municipality":{"key":"07339024","name":"Guntersblum","type":"Kreisangehörige_Gemeinde"},"district":{"key":"07339","name":"Mainz-Bingen","type":"Landkreis"},"federalState":{"key":"07","name":"Rheinland-Pfalz"}},{"name":"Prof.-Ferdinand-A.-Kehrer-Str.","postalCode":"67583","locality":"Guntersblum","municipality":{"key":"07339024","name":"Guntersblum","type":"Kreisangehörige_Gemeinde"},"district":{"key":"07339","name":"Mainz-Bingen","type":"Landkreis"},"federalState":{"key":"07","name":"Rheinland-Pfalz"}},{"name":"Promenade","postalCode":"67583","locality":"Guntersblum","municipality":{"key":"07339024","name":"Guntersblum","type":"Kreisangehörige_Gemeinde"},"district":{"key":"07339","name":"Mainz-Bingen","type":"Landkreis"},"federalState":{"key":"07","name":"Rheinland-Pfalz"}},{"name":"Römerstr.","postalCode":"67583","locality":"Guntersblum","municipality":{"key":"07339024","name":"Guntersblum","type":"Kreisangehörige_Gemeinde"},"district":{"key":"07339","name":"Mainz-Bingen","type":"Landkreis"},"federalState":{"key":"07","name":"Rheinland-Pfalz"}},{"name":"Sachsenring","postalCode":"67583","locality":"Guntersblum","municipality":{"key":"07339024","name":"Guntersblum","type":"Kreisangehörige_Gemeinde"},"district":{"key":"07339","name":"Mainz-Bingen","type":"Landkreis"},"federalState":{"key":"07","name":"Rheinland-Pfalz"}},{"name":"Sackgasse","postalCode":"67583","locality":"Guntersblum","municipality":{"key":"07339024","name":"Guntersblum","type":"Kreisangehörige_Gemeinde"},"district":{"key":"07339","name":"Mainz-Bingen","type":"Landkreis"},"federalState":{"key":"07","name":"Rheinland-Pfalz"}},{"name":"Schlesienstr.","postalCode":"67583","locality":"Guntersblum","municipality":{"key":"07339024","name":"Guntersblum","type":"Kreisangehörige_Gemeinde"},"district":{"key":"07339","name":"Mainz-Bingen","type":"Landkreis"},"federalState":{"key":"07","name":"Rheinland-Pfalz"}},{"name":"Schlossstr.","postalCode":"67583","locality":"Guntersblum","municipality":{"key":"07339024","name":"Guntersblum","type":"Kreisangehörige_Gemeinde"},"district":{"key":"07339","name":"Mainz-Bingen","type":"Landkreis"},"federalState":{"key":"07","name":"Rheinland-Pfalz"}},{"name":"Schulstr.","postalCode":"67583","locality":"Guntersblum","municipality":{"key":"07339024","name":"Guntersblum","type":"Kreisangehörige_Gemeinde"},"district":{"key":"07339","name":"Mainz-Bingen","type":"Landkreis"},"federalState":{"key":"07","name":"Rheinland-Pfalz"}},{"name":"Schwester-Frieda-Weg","postalCode":"67583","locality":"Guntersblum","municipality":{"key":"07339024","name":"Guntersblum","type":"Kreisangehörige_Gemeinde"},"district":{"key":"07339","name":"Mainz-Bingen","type":"Landkreis"},"federalState":{"key":"07","name":"Rheinland-Pfalz"}},{"name":"Siegfriedstr.","postalCode":"67583","locality":"Guntersblum","municipality":{"key":"07339024","name":"Guntersblum","type":"Kreisangehörige_Gemeinde"},"district":{"key":"07339","name":"Mainz-Bingen","type":"Landkreis"},"federalState":{"key":"07","name":"Rheinland-Pfalz"}},{"name":"Strengelweg","postalCode":"67583","locality":"Guntersblum","municipality":{"key":"07339024","name":"Guntersblum","type":"Kreisangehörige_Gemeinde"},"district":{"key":"07339","name":"Mainz-Bingen","type":"Landkreis"},"federalState":{"key":"07","name":"Rheinland-Pfalz"}},{"name":"Sudetenstr.","postalCode":"67583","locality":"Guntersblum","municipality":{"key":"07339024","name":"Guntersblum","type":"Kreisangehörige_Gemeinde"},"district":{"key":"07339","name":"Mainz-Bingen","type":"Landkreis"},"federalState":{"key":"07","name":"Rheinland-Pfalz"}},{"name":"Südstr.","postalCode":"67583","locality":"Guntersblum","municipality":{"key":"07339024","name":"Guntersblum","type":"Kreisangehörige_Gemeinde"},"district":{"key":"07339","name":"Mainz-Bingen","type":"Landkreis"},"federalState":{"key":"07","name":"Rheinland-Pfalz"}},{"name":"Utestr.","postalCode":"67583","locality":"Guntersblum","municipality":{"key":"07339024","name":"Guntersblum","type":"Kreisangehörige_Gemeinde"},"district":{"key":"07339","name":"Mainz-Bingen","type":"Landkreis"},"federalState":{"key":"07","name":"Rheinland-Pfalz"}},{"name":"Viehgasse","postalCode":"67583","locality":"Guntersblum","municipality":{"key":"07339024","name":"Guntersblum","type":"Kreisangehörige_Gemeinde"},"district":{"key":"07339","name":"Mainz-Bingen","type":"Landkreis"},"federalState":{"key":"07","name":"Rheinland-Pfalz"}},{"name":"Viertelstr.","postalCode":"67583","locality":"Guntersblum","municipality":{"key":"07339024","name":"Guntersblum","type":"Kreisangehörige_Gemeinde"},"district":{"key":"07339","name":"Mainz-Bingen","type":"Landkreis"},"federalState":{"key":"07","name":"Rheinland-Pfalz"}},{"name":"Volkerstr.","postalCode":"67583","locality":"Guntersblum","municipality":{"key":"07339024","name":"Guntersblum","type":"Kreisangehörige_Gemeinde"},"district":{"key":"07339","name":"Mainz-Bingen","type":"Landkreis"},"federalState":{"key":"07","name":"Rheinland-Pfalz"}},{"name":"Weinlehrpfad","postalCode":"67583","locality":"Guntersblum","municipality":{"key":"07339024","name":"Guntersblum","type":"Kreisangehörige_Gemeinde"},"district":{"key":"07339","name":"Mainz-Bingen","type":"Landkreis"},"federalState":{"key":"07","name":"Rheinland-Pfalz"}},{"name":"Wormser Str.","postalCode":"67583","locality":"Guntersblum","municipality":{"key":"07339024","name":"Guntersblum","type":"Kreisangehörige_Gemeinde"},"district":{"key":"07339","name":"Mainz-Bingen","type":"Landkreis"},"federalState":{"key":"07","name":"Rheinland-Pfalz"}},{"name":"Xantener Str.","postalCode":"67583","locality":"Guntersblum","municipality":{"key":"07339024","name":"Guntersblum","type":"Kreisangehörige_Gemeinde"},"district":{"key":"07339","name":"Mainz-Bingen","type":"Landkreis"},"federalState":{"key":"07","name":"Rheinland-Pfalz"}},{"name":"Zwerggasse","postalCode":"67583","locality":"Guntersblum","municipality":{"key":"07339024","name":"Guntersblum","type":"Kreisangehörige_Gemeinde"},"district":{"key":"07339","name":"Mainz-Bingen","type":"Landkreis"},"federalState":{"key":"07","name":"Rheinland-Pfalz"}},{"name":"Ölmühlstr.","postalCode":"67583","locality":"Guntersblum","municipality":{"key":"07339024","name":"Guntersblum","type":"Kreisangehörige_Gemeinde"},"district":{"key":"07339","name":"Mainz-Bingen","type":"Landkreis"},"federalState":{"key":"07","name":"Rheinland-Pfalz"}},]