[{"name":"Achterweg","postalCode":"56812","locality":"Dohr","municipality":{"key":"07135021","name":"Dohr","type":"Kreisangehörige_Gemeinde"},"district":{"key":"07135","name":"Cochem-Zell","type":"Landkreis"},"federalState":{"key":"07","name":"Rheinland-Pfalz"}},{"name":"Alte Dorfstr.","postalCode":"21255","locality":"Dohren","municipality":{"key":"03353006","name":"Dohren","type":"Kreisangehörige_Gemeinde"},"district":{"key":"03353","name":"Harburg","type":"Landkreis"},"federalState":{"key":"03","name":"Niedersachsen"}},{"name":"Am Esch","postalCode":"49770","locality":"Dohren","municipality":{"key":"03454009","name":"Dohren","type":"Kreisangehörige_Gemeinde"},"district":{"key":"03454","name":"Emsland","type":"Landkreis"},"federalState":{"key":"03","name":"Niedersachsen"}},{"name":"Am Felde","postalCode":"21255","locality":"Dohren","municipality":{"key":"03353006","name":"Dohren","type":"Kreisangehörige_Gemeinde"},"district":{"key":"03353","name":"Harburg","type":"Landkreis"},"federalState":{"key":"03","name":"Niedersachsen"}},{"name":"Am Felde","postalCode":"49770","locality":"Dohren","municipality":{"key":"03454009","name":"Dohren","type":"Kreisangehörige_Gemeinde"},"district":{"key":"03454","name":"Emsland","type":"Landkreis"},"federalState":{"key":"03","name":"Niedersachsen"}},{"name":"Am Holzfeld","postalCode":"21255","locality":"Dohren","municipality":{"key":"03353006","name":"Dohren","type":"Kreisangehörige_Gemeinde"},"district":{"key":"03353","name":"Harburg","type":"Landkreis"},"federalState":{"key":"03","name":"Niedersachsen"}},{"name":"Am Kohlhöfen","postalCode":"21255","locality":"Dohren","municipality":{"key":"03353006","name":"Dohren","type":"Kreisangehörige_Gemeinde"},"district":{"key":"03353","name":"Harburg","type":"Landkreis"},"federalState":{"key":"03","name":"Niedersachsen"}},{"name":"Am Mühlenbach","postalCode":"21255","locality":"Dohren","municipality":{"key":"03353006","name":"Dohren","type":"Kreisangehörige_Gemeinde"},"district":{"key":"03353","name":"Harburg","type":"Landkreis"},"federalState":{"key":"03","name":"Niedersachsen"}},{"name":"Am Schafstall","postalCode":"21255","locality":"Dohren","municipality":{"key":"03353006","name":"Dohren","type":"Kreisangehörige_Gemeinde"},"district":{"key":"03353","name":"Harburg","type":"Landkreis"},"federalState":{"key":"03","name":"Niedersachsen"}},{"name":"Am Schützenplatz","postalCode":"49770","locality":"Dohren","municipality":{"key":"03454009","name":"Dohren","type":"Kreisangehörige_Gemeinde"},"district":{"key":"03454","name":"Emsland","type":"Landkreis"},"federalState":{"key":"03","name":"Niedersachsen"}},{"name":"Am Sportplatz","postalCode":"49770","locality":"Dohren","municipality":{"key":"03454009","name":"Dohren","type":"Kreisangehörige_Gemeinde"},"district":{"key":"03454","name":"Emsland","type":"Landkreis"},"federalState":{"key":"03","name":"Niedersachsen"}},{"name":"Am Urnenfriedhof","postalCode":"21255","locality":"Dohren","municipality":{"key":"03353006","name":"Dohren","type":"Kreisangehörige_Gemeinde"},"district":{"key":"03353","name":"Harburg","type":"Landkreis"},"federalState":{"key":"03","name":"Niedersachsen"}},{"name":"Andruper Str.","postalCode":"49770","locality":"Dohren","municipality":{"key":"03454009","name":"Dohren","type":"Kreisangehörige_Gemeinde"},"district":{"key":"03454","name":"Emsland","type":"Landkreis"},"federalState":{"key":"03","name":"Niedersachsen"}},{"name":"Angelsportverein Dohren","postalCode":"21255","locality":"Dohren","municipality":{"key":"03353006","name":"Dohren","type":"Kreisangehörige_Gemeinde"},"district":{"key":"03353","name":"Harburg","type":"Landkreis"},"federalState":{"key":"03","name":"Niedersachsen"}},{"name":"Auf dem Hösten","postalCode":"56812","locality":"Dohr","municipality":{"key":"07135021","name":"Dohr","type":"Kreisangehörige_Gemeinde"},"district":{"key":"07135","name":"Cochem-Zell","type":"Landkreis"},"federalState":{"key":"07","name":"Rheinland-Pfalz"}},{"name":"Auf der Ahe","postalCode":"49770","locality":"Dohren","municipality":{"key":"03454009","name":"Dohren","type":"Kreisangehörige_Gemeinde"},"district":{"key":"03454","name":"Emsland","type":"Landkreis"},"federalState":{"key":"03","name":"Niedersachsen"}},{"name":"Auf der Landwehr","postalCode":"49770","locality":"Dohren","municipality":{"key":"03454009","name":"Dohren","type":"Kreisangehörige_Gemeinde"},"district":{"key":"03454","name":"Emsland","type":"Landkreis"},"federalState":{"key":"03","name":"Niedersachsen"}},{"name":"Avenser Weg","postalCode":"21255","locality":"Dohren","municipality":{"key":"03353006","name":"Dohren","type":"Kreisangehörige_Gemeinde"},"district":{"key":"03353","name":"Harburg","type":"Landkreis"},"federalState":{"key":"03","name":"Niedersachsen"}},{"name":"Birkenweg","postalCode":"49770","locality":"Dohren","municipality":{"key":"03454009","name":"Dohren","type":"Kreisangehörige_Gemeinde"},"district":{"key":"03454","name":"Emsland","type":"Landkreis"},"federalState":{"key":"03","name":"Niedersachsen"}},{"name":"Bötersheimer Weg","postalCode":"21255","locality":"Dohren","municipality":{"key":"03353006","name":"Dohren","type":"Kreisangehörige_Gemeinde"},"district":{"key":"03353","name":"Harburg","type":"Landkreis"},"federalState":{"key":"03","name":"Niedersachsen"}},{"name":"Dachsweg","postalCode":"49770","locality":"Dohren","municipality":{"key":"03454009","name":"Dohren","type":"Kreisangehörige_Gemeinde"},"district":{"key":"03454","name":"Emsland","type":"Landkreis"},"federalState":{"key":"03","name":"Niedersachsen"}},{"name":"Diekfehn","postalCode":"49770","locality":"Dohren","municipality":{"key":"03454009","name":"Dohren","type":"Kreisangehörige_Gemeinde"},"district":{"key":"03454","name":"Emsland","type":"Landkreis"},"federalState":{"key":"03","name":"Niedersachsen"}},{"name":"Dorfstr.","postalCode":"49770","locality":"Dohren","municipality":{"key":"03454009","name":"Dohren","type":"Kreisangehörige_Gemeinde"},"district":{"key":"03454","name":"Emsland","type":"Landkreis"},"federalState":{"key":"03","name":"Niedersachsen"}},{"name":"Eckernworth","postalCode":"21255","locality":"Dohren","municipality":{"key":"03353006","name":"Dohren","type":"Kreisangehörige_Gemeinde"},"district":{"key":"03353","name":"Harburg","type":"Landkreis"},"federalState":{"key":"03","name":"Niedersachsen"}},{"name":"Eichberg","postalCode":"56812","locality":"Dohr","municipality":{"key":"07135021","name":"Dohr","type":"Kreisangehörige_Gemeinde"},"district":{"key":"07135","name":"Cochem-Zell","type":"Landkreis"},"federalState":{"key":"07","name":"Rheinland-Pfalz"}},{"name":"Eichenstr.","postalCode":"49770","locality":"Dohren","municipality":{"key":"03454009","name":"Dohren","type":"Kreisangehörige_Gemeinde"},"district":{"key":"03454","name":"Emsland","type":"Landkreis"},"federalState":{"key":"03","name":"Niedersachsen"}},{"name":"Faider Weg","postalCode":"56812","locality":"Dohr","municipality":{"key":"07135021","name":"Dohr","type":"Kreisangehörige_Gemeinde"},"district":{"key":"07135","name":"Cochem-Zell","type":"Landkreis"},"federalState":{"key":"07","name":"Rheinland-Pfalz"}},{"name":"Falkenweg","postalCode":"21255","locality":"Dohren","municipality":{"key":"03353006","name":"Dohren","type":"Kreisangehörige_Gemeinde"},"district":{"key":"03353","name":"Harburg","type":"Landkreis"},"federalState":{"key":"03","name":"Niedersachsen"}},{"name":"Fillerberg","postalCode":"49770","locality":"Dohren","municipality":{"key":"03454009","name":"Dohren","type":"Kreisangehörige_Gemeinde"},"district":{"key":"03454","name":"Emsland","type":"Landkreis"},"federalState":{"key":"03","name":"Niedersachsen"}},{"name":"Fischteichenweg","postalCode":"21255","locality":"Dohren","municipality":{"key":"03353006","name":"Dohren","type":"Kreisangehörige_Gemeinde"},"district":{"key":"03353","name":"Harburg","type":"Landkreis"},"federalState":{"key":"03","name":"Niedersachsen"}},{"name":"Fliederstr.","postalCode":"49770","locality":"Dohren","municipality":{"key":"03454009","name":"Dohren","type":"Kreisangehörige_Gemeinde"},"district":{"key":"03454","name":"Emsland","type":"Landkreis"},"federalState":{"key":"03","name":"Niedersachsen"}},{"name":"Fuchsweg","postalCode":"49770","locality":"Dohren","municipality":{"key":"03454009","name":"Dohren","type":"Kreisangehörige_Gemeinde"},"district":{"key":"03454","name":"Emsland","type":"Landkreis"},"federalState":{"key":"03","name":"Niedersachsen"}},{"name":"Gottfried-Thielsen-Str.","postalCode":"21255","locality":"Dohren","municipality":{"key":"03353006","name":"Dohren","type":"Kreisangehörige_Gemeinde"},"district":{"key":"03353","name":"Harburg","type":"Landkreis"},"federalState":{"key":"03","name":"Niedersachsen"}},{"name":"Grafelder Str.","postalCode":"49770","locality":"Dohren","municipality":{"key":"03454009","name":"Dohren","type":"Kreisangehörige_Gemeinde"},"district":{"key":"03454","name":"Emsland","type":"Landkreis"},"federalState":{"key":"03","name":"Niedersachsen"}},{"name":"Günther-Erhorn-Str.","postalCode":"21255","locality":"Dohren","municipality":{"key":"03353006","name":"Dohren","type":"Kreisangehörige_Gemeinde"},"district":{"key":"03353","name":"Harburg","type":"Landkreis"},"federalState":{"key":"03","name":"Niedersachsen"}},{"name":"Hauptstr.","postalCode":"49770","locality":"Dohren","municipality":{"key":"03454009","name":"Dohren","type":"Kreisangehörige_Gemeinde"},"district":{"key":"03454","name":"Emsland","type":"Landkreis"},"federalState":{"key":"03","name":"Niedersachsen"}},{"name":"Hauptstr.","postalCode":"56812","locality":"Dohr","municipality":{"key":"07135021","name":"Dohr","type":"Kreisangehörige_Gemeinde"},"district":{"key":"07135","name":"Cochem-Zell","type":"Landkreis"},"federalState":{"key":"07","name":"Rheinland-Pfalz"}},{"name":"Hennenloch","postalCode":"56812","locality":"Dohr","municipality":{"key":"07135021","name":"Dohr","type":"Kreisangehörige_Gemeinde"},"district":{"key":"07135","name":"Cochem-Zell","type":"Landkreis"},"federalState":{"key":"07","name":"Rheinland-Pfalz"}},{"name":"Herzlaker Str.","postalCode":"49770","locality":"Dohren","municipality":{"key":"03454009","name":"Dohren","type":"Kreisangehörige_Gemeinde"},"district":{"key":"03454","name":"Emsland","type":"Landkreis"},"federalState":{"key":"03","name":"Niedersachsen"}},{"name":"Hollenstedter Str.","postalCode":"21255","locality":"Dohren","municipality":{"key":"03353006","name":"Dohren","type":"Kreisangehörige_Gemeinde"},"district":{"key":"03353","name":"Harburg","type":"Landkreis"},"federalState":{"key":"03","name":"Niedersachsen"}},{"name":"In der Acht","postalCode":"56812","locality":"Dohr","municipality":{"key":"07135021","name":"Dohr","type":"Kreisangehörige_Gemeinde"},"district":{"key":"07135","name":"Cochem-Zell","type":"Landkreis"},"federalState":{"key":"07","name":"Rheinland-Pfalz"}},{"name":"Irenes Eck","postalCode":"21255","locality":"Dohren","municipality":{"key":"03353006","name":"Dohren","type":"Kreisangehörige_Gemeinde"},"district":{"key":"03353","name":"Harburg","type":"Landkreis"},"federalState":{"key":"03","name":"Niedersachsen"}},{"name":"Jiddendahl","postalCode":"21255","locality":"Dohren","municipality":{"key":"03353006","name":"Dohren","type":"Kreisangehörige_Gemeinde"},"district":{"key":"03353","name":"Harburg","type":"Landkreis"},"federalState":{"key":"03","name":"Niedersachsen"}},{"name":"Johann-Fock-Str.","postalCode":"21255","locality":"Dohren","municipality":{"key":"03353006","name":"Dohren","type":"Kreisangehörige_Gemeinde"},"district":{"key":"03353","name":"Harburg","type":"Landkreis"},"federalState":{"key":"03","name":"Niedersachsen"}},{"name":"Kakenstorfer Weg","postalCode":"21255","locality":"Dohren","municipality":{"key":"03353006","name":"Dohren","type":"Kreisangehörige_Gemeinde"},"district":{"key":"03353","name":"Harburg","type":"Landkreis"},"federalState":{"key":"03","name":"Niedersachsen"}},{"name":"Kammeringer Esch","postalCode":"49770","locality":"Dohren","municipality":{"key":"03454009","name":"Dohren","type":"Kreisangehörige_Gemeinde"},"district":{"key":"03454","name":"Emsland","type":"Landkreis"},"federalState":{"key":"03","name":"Niedersachsen"}},{"name":"Kapellendamm","postalCode":"49770","locality":"Dohren","municipality":{"key":"03454009","name":"Dohren","type":"Kreisangehörige_Gemeinde"},"district":{"key":"03454","name":"Emsland","type":"Landkreis"},"federalState":{"key":"03","name":"Niedersachsen"}},{"name":"Kiefernweg","postalCode":"49770","locality":"Dohren","municipality":{"key":"03454009","name":"Dohren","type":"Kreisangehörige_Gemeinde"},"district":{"key":"03454","name":"Emsland","type":"Landkreis"},"federalState":{"key":"03","name":"Niedersachsen"}},{"name":"Kirchstr.","postalCode":"56812","locality":"Dohr","municipality":{"key":"07135021","name":"Dohr","type":"Kreisangehörige_Gemeinde"},"district":{"key":"07135","name":"Cochem-Zell","type":"Landkreis"},"federalState":{"key":"07","name":"Rheinland-Pfalz"}},{"name":"Kolpingstr.","postalCode":"49770","locality":"Dohren","municipality":{"key":"03454009","name":"Dohren","type":"Kreisangehörige_Gemeinde"},"district":{"key":"03454","name":"Emsland","type":"Landkreis"},"federalState":{"key":"03","name":"Niedersachsen"}},{"name":"Kreuzdamm","postalCode":"49770","locality":"Dohren","municipality":{"key":"03454009","name":"Dohren","type":"Kreisangehörige_Gemeinde"},"district":{"key":"03454","name":"Emsland","type":"Landkreis"},"federalState":{"key":"03","name":"Niedersachsen"}},{"name":"Lohworthsweg","postalCode":"21255","locality":"Dohren","municipality":{"key":"03353006","name":"Dohren","type":"Kreisangehörige_Gemeinde"},"district":{"key":"03353","name":"Harburg","type":"Landkreis"},"federalState":{"key":"03","name":"Niedersachsen"}},{"name":"Marderweg","postalCode":"49770","locality":"Dohren","municipality":{"key":"03454009","name":"Dohren","type":"Kreisangehörige_Gemeinde"},"district":{"key":"03454","name":"Emsland","type":"Landkreis"},"federalState":{"key":"03","name":"Niedersachsen"}},{"name":"Mittelstr.","postalCode":"56812","locality":"Dohr","municipality":{"key":"07135021","name":"Dohr","type":"Kreisangehörige_Gemeinde"},"district":{"key":"07135","name":"Cochem-Zell","type":"Landkreis"},"federalState":{"key":"07","name":"Rheinland-Pfalz"}},{"name":"Moorkamp","postalCode":"49770","locality":"Dohren","municipality":{"key":"03454009","name":"Dohren","type":"Kreisangehörige_Gemeinde"},"district":{"key":"03454","name":"Emsland","type":"Landkreis"},"federalState":{"key":"03","name":"Niedersachsen"}},{"name":"Moorstr.","postalCode":"49770","locality":"Dohren","municipality":{"key":"03454009","name":"Dohren","type":"Kreisangehörige_Gemeinde"},"district":{"key":"03454","name":"Emsland","type":"Landkreis"},"federalState":{"key":"03","name":"Niedersachsen"}},{"name":"Neuwiese","postalCode":"56812","locality":"Dohr","municipality":{"key":"07135021","name":"Dohr","type":"Kreisangehörige_Gemeinde"},"district":{"key":"07135","name":"Cochem-Zell","type":"Landkreis"},"federalState":{"key":"07","name":"Rheinland-Pfalz"}},{"name":"Obsthof","postalCode":"21255","locality":"Dohren","municipality":{"key":"03353006","name":"Dohren","type":"Kreisangehörige_Gemeinde"},"district":{"key":"03353","name":"Harburg","type":"Landkreis"},"federalState":{"key":"03","name":"Niedersachsen"}},{"name":"Ochtmannsbrucher Weg","postalCode":"21255","locality":"Dohren","municipality":{"key":"03353006","name":"Dohren","type":"Kreisangehörige_Gemeinde"},"district":{"key":"03353","name":"Harburg","type":"Landkreis"},"federalState":{"key":"03","name":"Niedersachsen"}},{"name":"Pappelweg","postalCode":"49770","locality":"Dohren","municipality":{"key":"03454009","name":"Dohren","type":"Kreisangehörige_Gemeinde"},"district":{"key":"03454","name":"Emsland","type":"Landkreis"},"federalState":{"key":"03","name":"Niedersachsen"}},{"name":"Pützweg","postalCode":"56812","locality":"Dohr","municipality":{"key":"07135021","name":"Dohr","type":"Kreisangehörige_Gemeinde"},"district":{"key":"07135","name":"Cochem-Zell","type":"Landkreis"},"federalState":{"key":"07","name":"Rheinland-Pfalz"}},{"name":"Reddernweg","postalCode":"21255","locality":"Dohren","municipality":{"key":"03353006","name":"Dohren","type":"Kreisangehörige_Gemeinde"},"district":{"key":"03353","name":"Harburg","type":"Landkreis"},"federalState":{"key":"03","name":"Niedersachsen"}},{"name":"Rosenstr.","postalCode":"49770","locality":"Dohren","municipality":{"key":"03454009","name":"Dohren","type":"Kreisangehörige_Gemeinde"},"district":{"key":"03454","name":"Emsland","type":"Landkreis"},"federalState":{"key":"03","name":"Niedersachsen"}},{"name":"Rotdornweg","postalCode":"49770","locality":"Dohren","municipality":{"key":"03454009","name":"Dohren","type":"Kreisangehörige_Gemeinde"},"district":{"key":"03454","name":"Emsland","type":"Landkreis"},"federalState":{"key":"03","name":"Niedersachsen"}},{"name":"Sandgrube","postalCode":"21255","locality":"Dohren","municipality":{"key":"03353006","name":"Dohren","type":"Kreisangehörige_Gemeinde"},"district":{"key":"03353","name":"Harburg","type":"Landkreis"},"federalState":{"key":"03","name":"Niedersachsen"}},{"name":"Schapsbecken","postalCode":"21255","locality":"Dohren","municipality":{"key":"03353006","name":"Dohren","type":"Kreisangehörige_Gemeinde"},"district":{"key":"03353","name":"Harburg","type":"Landkreis"},"federalState":{"key":"03","name":"Niedersachsen"}},{"name":"Schlaufstr.","postalCode":"56812","locality":"Dohr","municipality":{"key":"07135021","name":"Dohr","type":"Kreisangehörige_Gemeinde"},"district":{"key":"07135","name":"Cochem-Zell","type":"Landkreis"},"federalState":{"key":"07","name":"Rheinland-Pfalz"}},{"name":"Schulstr.","postalCode":"21255","locality":"Dohren","municipality":{"key":"03353006","name":"Dohren","type":"Kreisangehörige_Gemeinde"},"district":{"key":"03353","name":"Harburg","type":"Landkreis"},"federalState":{"key":"03","name":"Niedersachsen"}},{"name":"Seggernhoff","postalCode":"21255","locality":"Dohren","municipality":{"key":"03353006","name":"Dohren","type":"Kreisangehörige_Gemeinde"},"district":{"key":"03353","name":"Harburg","type":"Landkreis"},"federalState":{"key":"03","name":"Niedersachsen"}},{"name":"Sonneneck","postalCode":"56812","locality":"Dohr","municipality":{"key":"07135021","name":"Dohr","type":"Kreisangehörige_Gemeinde"},"district":{"key":"07135","name":"Cochem-Zell","type":"Landkreis"},"federalState":{"key":"07","name":"Rheinland-Pfalz"}},{"name":"Staerweg","postalCode":"21255","locality":"Dohren","municipality":{"key":"03353006","name":"Dohren","type":"Kreisangehörige_Gemeinde"},"district":{"key":"03353","name":"Harburg","type":"Landkreis"},"federalState":{"key":"03","name":"Niedersachsen"}},{"name":"Steinfeld","postalCode":"49770","locality":"Dohren","municipality":{"key":"03454009","name":"Dohren","type":"Kreisangehörige_Gemeinde"},"district":{"key":"03454","name":"Emsland","type":"Landkreis"},"federalState":{"key":"03","name":"Niedersachsen"}},{"name":"Up de Loog","postalCode":"21255","locality":"Dohren","municipality":{"key":"03353006","name":"Dohren","type":"Kreisangehörige_Gemeinde"},"district":{"key":"03353","name":"Harburg","type":"Landkreis"},"federalState":{"key":"03","name":"Niedersachsen"}},{"name":"Up'n Dieck","postalCode":"21255","locality":"Dohren","municipality":{"key":"03353006","name":"Dohren","type":"Kreisangehörige_Gemeinde"},"district":{"key":"03353","name":"Harburg","type":"Landkreis"},"federalState":{"key":"03","name":"Niedersachsen"}},{"name":"Up'n Saal","postalCode":"21255","locality":"Dohren","municipality":{"key":"03353006","name":"Dohren","type":"Kreisangehörige_Gemeinde"},"district":{"key":"03353","name":"Harburg","type":"Landkreis"},"federalState":{"key":"03","name":"Niedersachsen"}},{"name":"Waldstr.","postalCode":"49770","locality":"Dohren","municipality":{"key":"03454009","name":"Dohren","type":"Kreisangehörige_Gemeinde"},"district":{"key":"03454","name":"Emsland","type":"Landkreis"},"federalState":{"key":"03","name":"Niedersachsen"}},{"name":"Waldweg","postalCode":"56812","locality":"Dohr","municipality":{"key":"07135021","name":"Dohr","type":"Kreisangehörige_Gemeinde"},"district":{"key":"07135","name":"Cochem-Zell","type":"Landkreis"},"federalState":{"key":"07","name":"Rheinland-Pfalz"}},{"name":"Weidenweg","postalCode":"49770","locality":"Dohren","municipality":{"key":"03454009","name":"Dohren","type":"Kreisangehörige_Gemeinde"},"district":{"key":"03454","name":"Emsland","type":"Landkreis"},"federalState":{"key":"03","name":"Niedersachsen"}},{"name":"Wellenstr.","postalCode":"49770","locality":"Dohren","municipality":{"key":"03454009","name":"Dohren","type":"Kreisangehörige_Gemeinde"},"district":{"key":"03454","name":"Emsland","type":"Landkreis"},"federalState":{"key":"03","name":"Niedersachsen"}},{"name":"Wettruper Damm","postalCode":"49770","locality":"Dohren","municipality":{"key":"03454009","name":"Dohren","type":"Kreisangehörige_Gemeinde"},"district":{"key":"03454","name":"Emsland","type":"Landkreis"},"federalState":{"key":"03","name":"Niedersachsen"}},{"name":"Wettruper Moordamm","postalCode":"49770","locality":"Dohren","municipality":{"key":"03454009","name":"Dohren","type":"Kreisangehörige_Gemeinde"},"district":{"key":"03454","name":"Emsland","type":"Landkreis"},"federalState":{"key":"03","name":"Niedersachsen"}},{"name":"Wettruper Str.","postalCode":"49770","locality":"Dohren","municipality":{"key":"03454009","name":"Dohren","type":"Kreisangehörige_Gemeinde"},"district":{"key":"03454","name":"Emsland","type":"Landkreis"},"federalState":{"key":"03","name":"Niedersachsen"}},{"name":"Wiesenplatz","postalCode":"56812","locality":"Dohr","municipality":{"key":"07135021","name":"Dohr","type":"Kreisangehörige_Gemeinde"},"district":{"key":"07135","name":"Cochem-Zell","type":"Landkreis"},"federalState":{"key":"07","name":"Rheinland-Pfalz"}},{"name":"Wüstenhöfener Str.","postalCode":"21255","locality":"Dohren","municipality":{"key":"03353006","name":"Dohren","type":"Kreisangehörige_Gemeinde"},"district":{"key":"03353","name":"Harburg","type":"Landkreis"},"federalState":{"key":"03","name":"Niedersachsen"}},{"name":"Ziegeleiweg","postalCode":"49770","locality":"Dohren","municipality":{"key":"03454009","name":"Dohren","type":"Kreisangehörige_Gemeinde"},"district":{"key":"03454","name":"Emsland","type":"Landkreis"},"federalState":{"key":"03","name":"Niedersachsen"}},{"name":"Zur Höhe","postalCode":"56812","locality":"Dohr","municipality":{"key":"07135021","name":"Dohr","type":"Kreisangehörige_Gemeinde"},"district":{"key":"07135","name":"Cochem-Zell","type":"Landkreis"},"federalState":{"key":"07","name":"Rheinland-Pfalz"}},]