[{"name":"Ahornstr.","postalCode":"26835","locality":"Hesel","municipality":{"key":"03457010","name":"Hesel","type":"Kreisangehörige_Gemeinde"},"district":{"key":"03457","name":"Leer","type":"Landkreis"},"federalState":{"key":"03","name":"Niedersachsen"}},{"name":"Akazienstr.","postalCode":"26835","locality":"Hesel","municipality":{"key":"03457010","name":"Hesel","type":"Kreisangehörige_Gemeinde"},"district":{"key":"03457","name":"Leer","type":"Landkreis"},"federalState":{"key":"03","name":"Niedersachsen"}},{"name":"Alte Kreisstr.","postalCode":"26835","locality":"Hesel","municipality":{"key":"03457010","name":"Hesel","type":"Kreisangehörige_Gemeinde"},"district":{"key":"03457","name":"Leer","type":"Landkreis"},"federalState":{"key":"03","name":"Niedersachsen"}},{"name":"Alter Lammertsfehner Weg","postalCode":"26835","locality":"Hesel","municipality":{"key":"03457010","name":"Hesel","type":"Kreisangehörige_Gemeinde"},"district":{"key":"03457","name":"Leer","type":"Landkreis"},"federalState":{"key":"03","name":"Niedersachsen"}},{"name":"Alter Postweg","postalCode":"26835","locality":"Hesel","municipality":{"key":"03457010","name":"Hesel","type":"Kreisangehörige_Gemeinde"},"district":{"key":"03457","name":"Leer","type":"Landkreis"},"federalState":{"key":"03","name":"Niedersachsen"}},{"name":"Am Altenheim","postalCode":"26835","locality":"Hesel","municipality":{"key":"03457010","name":"Hesel","type":"Kreisangehörige_Gemeinde"},"district":{"key":"03457","name":"Leer","type":"Landkreis"},"federalState":{"key":"03","name":"Niedersachsen"}},{"name":"Am Dörphus","postalCode":"26835","locality":"Hesel","municipality":{"key":"03457010","name":"Hesel","type":"Kreisangehörige_Gemeinde"},"district":{"key":"03457","name":"Leer","type":"Landkreis"},"federalState":{"key":"03","name":"Niedersachsen"}},{"name":"Am Ehetief","postalCode":"26835","locality":"Hesel","municipality":{"key":"03457010","name":"Hesel","type":"Kreisangehörige_Gemeinde"},"district":{"key":"03457","name":"Leer","type":"Landkreis"},"federalState":{"key":"03","name":"Niedersachsen"}},{"name":"Am Ehrenmal","postalCode":"26835","locality":"Hesel","municipality":{"key":"03457010","name":"Hesel","type":"Kreisangehörige_Gemeinde"},"district":{"key":"03457","name":"Leer","type":"Landkreis"},"federalState":{"key":"03","name":"Niedersachsen"}},{"name":"Am Großen Stein","postalCode":"26835","locality":"Hesel","municipality":{"key":"03457010","name":"Hesel","type":"Kreisangehörige_Gemeinde"},"district":{"key":"03457","name":"Leer","type":"Landkreis"},"federalState":{"key":"03","name":"Niedersachsen"}},{"name":"Am Hohen Feld","postalCode":"26835","locality":"Hesel","municipality":{"key":"03457010","name":"Hesel","type":"Kreisangehörige_Gemeinde"},"district":{"key":"03457","name":"Leer","type":"Landkreis"},"federalState":{"key":"03","name":"Niedersachsen"}},{"name":"Amselstr.","postalCode":"26835","locality":"Hesel","municipality":{"key":"03457010","name":"Hesel","type":"Kreisangehörige_Gemeinde"},"district":{"key":"03457","name":"Leer","type":"Landkreis"},"federalState":{"key":"03","name":"Niedersachsen"}},{"name":"Am Timmersberge","postalCode":"26835","locality":"Hesel","municipality":{"key":"03457010","name":"Hesel","type":"Kreisangehörige_Gemeinde"},"district":{"key":"03457","name":"Leer","type":"Landkreis"},"federalState":{"key":"03","name":"Niedersachsen"}},{"name":"Am Walde","postalCode":"26835","locality":"Hesel","municipality":{"key":"03457010","name":"Hesel","type":"Kreisangehörige_Gemeinde"},"district":{"key":"03457","name":"Leer","type":"Landkreis"},"federalState":{"key":"03","name":"Niedersachsen"}},{"name":"Am Wall","postalCode":"26835","locality":"Hesel","municipality":{"key":"03457010","name":"Hesel","type":"Kreisangehörige_Gemeinde"},"district":{"key":"03457","name":"Leer","type":"Landkreis"},"federalState":{"key":"03","name":"Niedersachsen"}},{"name":"Am Wasserwerk","postalCode":"26835","locality":"Hesel","municipality":{"key":"03457010","name":"Hesel","type":"Kreisangehörige_Gemeinde"},"district":{"key":"03457","name":"Leer","type":"Landkreis"},"federalState":{"key":"03","name":"Niedersachsen"}},{"name":"An der Fabrik","postalCode":"26835","locality":"Hesel","municipality":{"key":"03457010","name":"Hesel","type":"Kreisangehörige_Gemeinde"},"district":{"key":"03457","name":"Leer","type":"Landkreis"},"federalState":{"key":"03","name":"Niedersachsen"}},{"name":"An der Schule","postalCode":"26835","locality":"Hesel","municipality":{"key":"03457010","name":"Hesel","type":"Kreisangehörige_Gemeinde"},"district":{"key":"03457","name":"Leer","type":"Landkreis"},"federalState":{"key":"03","name":"Niedersachsen"}},{"name":"An´t Bääk","postalCode":"26835","locality":"Hesel","municipality":{"key":"03457010","name":"Hesel","type":"Kreisangehörige_Gemeinde"},"district":{"key":"03457","name":"Leer","type":"Landkreis"},"federalState":{"key":"03","name":"Niedersachsen"}},{"name":"Auf der Gaste","postalCode":"26835","locality":"Hesel","municipality":{"key":"03457010","name":"Hesel","type":"Kreisangehörige_Gemeinde"},"district":{"key":"03457","name":"Leer","type":"Landkreis"},"federalState":{"key":"03","name":"Niedersachsen"}},{"name":"Auricher Str.","postalCode":"26835","locality":"Hesel","municipality":{"key":"03457010","name":"Hesel","type":"Kreisangehörige_Gemeinde"},"district":{"key":"03457","name":"Leer","type":"Landkreis"},"federalState":{"key":"03","name":"Niedersachsen"}},{"name":"Bagbander Str.","postalCode":"26835","locality":"Hesel","municipality":{"key":"03457010","name":"Hesel","type":"Kreisangehörige_Gemeinde"},"district":{"key":"03457","name":"Leer","type":"Landkreis"},"federalState":{"key":"03","name":"Niedersachsen"}},{"name":"Bahnhofstr.","postalCode":"26835","locality":"Hesel","municipality":{"key":"03457010","name":"Hesel","type":"Kreisangehörige_Gemeinde"},"district":{"key":"03457","name":"Leer","type":"Landkreis"},"federalState":{"key":"03","name":"Niedersachsen"}},{"name":"Barther Feldweg","postalCode":"26835","locality":"Hesel","municipality":{"key":"03457010","name":"Hesel","type":"Kreisangehörige_Gemeinde"},"district":{"key":"03457","name":"Leer","type":"Landkreis"},"federalState":{"key":"03","name":"Niedersachsen"}},{"name":"Barther Str.","postalCode":"26835","locality":"Hesel","municipality":{"key":"03457010","name":"Hesel","type":"Kreisangehörige_Gemeinde"},"district":{"key":"03457","name":"Leer","type":"Landkreis"},"federalState":{"key":"03","name":"Niedersachsen"}},{"name":"Barther Weidenweg","postalCode":"26835","locality":"Hesel","municipality":{"key":"03457010","name":"Hesel","type":"Kreisangehörige_Gemeinde"},"district":{"key":"03457","name":"Leer","type":"Landkreis"},"federalState":{"key":"03","name":"Niedersachsen"}},{"name":"Beningastr.","postalCode":"26835","locality":"Hesel","municipality":{"key":"03457010","name":"Hesel","type":"Kreisangehörige_Gemeinde"},"district":{"key":"03457","name":"Leer","type":"Landkreis"},"federalState":{"key":"03","name":"Niedersachsen"}},{"name":"Binsenweg","postalCode":"26835","locality":"Hesel","municipality":{"key":"03457010","name":"Hesel","type":"Kreisangehörige_Gemeinde"},"district":{"key":"03457","name":"Leer","type":"Landkreis"},"federalState":{"key":"03","name":"Niedersachsen"}},{"name":"Birkenstr.","postalCode":"26835","locality":"Hesel","municipality":{"key":"03457010","name":"Hesel","type":"Kreisangehörige_Gemeinde"},"district":{"key":"03457","name":"Leer","type":"Landkreis"},"federalState":{"key":"03","name":"Niedersachsen"}},{"name":"Blumenstr.","postalCode":"26835","locality":"Hesel","municipality":{"key":"03457010","name":"Hesel","type":"Kreisangehörige_Gemeinde"},"district":{"key":"03457","name":"Leer","type":"Landkreis"},"federalState":{"key":"03","name":"Niedersachsen"}},{"name":"Bohmhuser Weg","postalCode":"26835","locality":"Hesel","municipality":{"key":"03457010","name":"Hesel","type":"Kreisangehörige_Gemeinde"},"district":{"key":"03457","name":"Leer","type":"Landkreis"},"federalState":{"key":"03","name":"Niedersachsen"}},{"name":"Broeksweg","postalCode":"26835","locality":"Hesel","municipality":{"key":"03457010","name":"Hesel","type":"Kreisangehörige_Gemeinde"},"district":{"key":"03457","name":"Leer","type":"Landkreis"},"federalState":{"key":"03","name":"Niedersachsen"}},{"name":"Brunnenstr.","postalCode":"26835","locality":"Hesel","municipality":{"key":"03457010","name":"Hesel","type":"Kreisangehörige_Gemeinde"},"district":{"key":"03457","name":"Leer","type":"Landkreis"},"federalState":{"key":"03","name":"Niedersachsen"}},{"name":"Bullmeedenweg","postalCode":"26835","locality":"Hesel","municipality":{"key":"03457010","name":"Hesel","type":"Kreisangehörige_Gemeinde"},"district":{"key":"03457","name":"Leer","type":"Landkreis"},"federalState":{"key":"03","name":"Niedersachsen"}},{"name":"Bummert","postalCode":"26835","locality":"Hesel","municipality":{"key":"03457010","name":"Hesel","type":"Kreisangehörige_Gemeinde"},"district":{"key":"03457","name":"Leer","type":"Landkreis"},"federalState":{"key":"03","name":"Niedersachsen"}},{"name":"Bussardweg","postalCode":"26835","locality":"Hesel","municipality":{"key":"03457010","name":"Hesel","type":"Kreisangehörige_Gemeinde"},"district":{"key":"03457","name":"Leer","type":"Landkreis"},"federalState":{"key":"03","name":"Niedersachsen"}},{"name":"Chaukenstr.","postalCode":"26789","locality":"Leer","municipality":{"key":"03457013","name":"Leer (Ostfriesland), Stadt","type":"Stadt"},"district":{"key":"03457","name":"Leer","type":"Landkreis"},"federalState":{"key":"03","name":"Niedersachsen"}},{"name":"Cheruskerstr.","postalCode":"26789","locality":"Leer","municipality":{"key":"03457013","name":"Leer (Ostfriesland), Stadt","type":"Stadt"},"district":{"key":"03457","name":"Leer","type":"Landkreis"},"federalState":{"key":"03","name":"Niedersachsen"}},{"name":"Christine-Charlotten-Str.","postalCode":"26789","locality":"Leer","municipality":{"key":"03457013","name":"Leer (Ostfriesland), Stadt","type":"Stadt"},"district":{"key":"03457","name":"Leer","type":"Landkreis"},"federalState":{"key":"03","name":"Niedersachsen"}},{"name":"Cirksenastr.","postalCode":"26789","locality":"Leer","municipality":{"key":"03457013","name":"Leer (Ostfriesland), Stadt","type":"Stadt"},"district":{"key":"03457","name":"Leer","type":"Landkreis"},"federalState":{"key":"03","name":"Niedersachsen"}},{"name":"Claas-Wolff-Pad","postalCode":"26789","locality":"Leer","municipality":{"key":"03457013","name":"Leer (Ostfriesland), Stadt","type":"Stadt"},"district":{"key":"03457","name":"Leer","type":"Landkreis"},"federalState":{"key":"03","name":"Niedersachsen"}},{"name":"Coldamer Str.","postalCode":"26789","locality":"Leer","municipality":{"key":"03457013","name":"Leer (Ostfriesland), Stadt","type":"Stadt"},"district":{"key":"03457","name":"Leer","type":"Landkreis"},"federalState":{"key":"03","name":"Niedersachsen"}},{"name":"Conrebbersweg","postalCode":"26789","locality":"Leer","municipality":{"key":"03457013","name":"Leer (Ostfriesland), Stadt","type":"Stadt"},"district":{"key":"03457","name":"Leer","type":"Landkreis"},"federalState":{"key":"03","name":"Niedersachsen"}},{"name":"Cranachstr.","postalCode":"26789","locality":"Leer","municipality":{"key":"03457013","name":"Leer (Ostfriesland), Stadt","type":"Stadt"},"district":{"key":"03457","name":"Leer","type":"Landkreis"},"federalState":{"key":"03","name":"Niedersachsen"}},{"name":"Dannenkiel","postalCode":"26835","locality":"Hesel","municipality":{"key":"03457010","name":"Hesel","type":"Kreisangehörige_Gemeinde"},"district":{"key":"03457","name":"Leer","type":"Landkreis"},"federalState":{"key":"03","name":"Niedersachsen"}},{"name":"Dellerforstweg","postalCode":"26835","locality":"Hesel","municipality":{"key":"03457010","name":"Hesel","type":"Kreisangehörige_Gemeinde"},"district":{"key":"03457","name":"Leer","type":"Landkreis"},"federalState":{"key":"03","name":"Niedersachsen"}},{"name":"Dohle","postalCode":"26835","locality":"Hesel","municipality":{"key":"03457010","name":"Hesel","type":"Kreisangehörige_Gemeinde"},"district":{"key":"03457","name":"Leer","type":"Landkreis"},"federalState":{"key":"03","name":"Niedersachsen"}},{"name":"Dohlenweg","postalCode":"26835","locality":"Hesel","municipality":{"key":"03457010","name":"Hesel","type":"Kreisangehörige_Gemeinde"},"district":{"key":"03457","name":"Leer","type":"Landkreis"},"federalState":{"key":"03","name":"Niedersachsen"}},{"name":"Dorfstr.","postalCode":"26835","locality":"Hesel","municipality":{"key":"03457010","name":"Hesel","type":"Kreisangehörige_Gemeinde"},"district":{"key":"03457","name":"Leer","type":"Landkreis"},"federalState":{"key":"03","name":"Niedersachsen"}},{"name":"Edzardstr.","postalCode":"26835","locality":"Hesel","municipality":{"key":"03457010","name":"Hesel","type":"Kreisangehörige_Gemeinde"},"district":{"key":"03457","name":"Leer","type":"Landkreis"},"federalState":{"key":"03","name":"Niedersachsen"}},{"name":"Ellernweg","postalCode":"26835","locality":"Hesel","municipality":{"key":"03457010","name":"Hesel","type":"Kreisangehörige_Gemeinde"},"district":{"key":"03457","name":"Leer","type":"Landkreis"},"federalState":{"key":"03","name":"Niedersachsen"}},{"name":"Elsterweg","postalCode":"26835","locality":"Hesel","municipality":{"key":"03457010","name":"Hesel","type":"Kreisangehörige_Gemeinde"},"district":{"key":"03457","name":"Leer","type":"Landkreis"},"federalState":{"key":"03","name":"Niedersachsen"}},{"name":"Enzianweg","postalCode":"26835","locality":"Hesel","municipality":{"key":"03457010","name":"Hesel","type":"Kreisangehörige_Gemeinde"},"district":{"key":"03457","name":"Leer","type":"Landkreis"},"federalState":{"key":"03","name":"Niedersachsen"}},{"name":"Erlenweg","postalCode":"26835","locality":"Hesel","municipality":{"key":"03457010","name":"Hesel","type":"Kreisangehörige_Gemeinde"},"district":{"key":"03457","name":"Leer","type":"Landkreis"},"federalState":{"key":"03","name":"Niedersachsen"}},{"name":"Eulenweg","postalCode":"26835","locality":"Hesel","municipality":{"key":"03457010","name":"Hesel","type":"Kreisangehörige_Gemeinde"},"district":{"key":"03457","name":"Leer","type":"Landkreis"},"federalState":{"key":"03","name":"Niedersachsen"}},{"name":"Fabrikswieke","postalCode":"26835","locality":"Hesel","municipality":{"key":"03457010","name":"Hesel","type":"Kreisangehörige_Gemeinde"},"district":{"key":"03457","name":"Leer","type":"Landkreis"},"federalState":{"key":"03","name":"Niedersachsen"}},{"name":"Falkenstr.","postalCode":"26835","locality":"Hesel","municipality":{"key":"03457010","name":"Hesel","type":"Kreisangehörige_Gemeinde"},"district":{"key":"03457","name":"Leer","type":"Landkreis"},"federalState":{"key":"03","name":"Niedersachsen"}},{"name":"Farnweg","postalCode":"26835","locality":"Hesel","municipality":{"key":"03457010","name":"Hesel","type":"Kreisangehörige_Gemeinde"},"district":{"key":"03457","name":"Leer","type":"Landkreis"},"federalState":{"key":"03","name":"Niedersachsen"}},{"name":"Filsumer Str.","postalCode":"26835","locality":"Hesel","municipality":{"key":"03457010","name":"Hesel","type":"Kreisangehörige_Gemeinde"},"district":{"key":"03457","name":"Leer","type":"Landkreis"},"federalState":{"key":"03","name":"Niedersachsen"}},{"name":"Firreler Str.","postalCode":"26835","locality":"Hesel","municipality":{"key":"03457010","name":"Hesel","type":"Kreisangehörige_Gemeinde"},"district":{"key":"03457","name":"Leer","type":"Landkreis"},"federalState":{"key":"03","name":"Niedersachsen"}},{"name":"Fiskusweg","postalCode":"26835","locality":"Hesel","municipality":{"key":"03457010","name":"Hesel","type":"Kreisangehörige_Gemeinde"},"district":{"key":"03457","name":"Leer","type":"Landkreis"},"federalState":{"key":"03","name":"Niedersachsen"}},{"name":"Forstweg","postalCode":"26835","locality":"Hesel","municipality":{"key":"03457010","name":"Hesel","type":"Kreisangehörige_Gemeinde"},"district":{"key":"03457","name":"Leer","type":"Landkreis"},"federalState":{"key":"03","name":"Niedersachsen"}},{"name":"Friedewaldstr.","postalCode":"26835","locality":"Hesel","municipality":{"key":"03457010","name":"Hesel","type":"Kreisangehörige_Gemeinde"},"district":{"key":"03457","name":"Leer","type":"Landkreis"},"federalState":{"key":"03","name":"Niedersachsen"}},{"name":"Glockengießerstr.","postalCode":"26835","locality":"Hesel","municipality":{"key":"03457010","name":"Hesel","type":"Kreisangehörige_Gemeinde"},"district":{"key":"03457","name":"Leer","type":"Landkreis"},"federalState":{"key":"03","name":"Niedersachsen"}},{"name":"Grepelstr.","postalCode":"26835","locality":"Hesel","municipality":{"key":"03457010","name":"Hesel","type":"Kreisangehörige_Gemeinde"},"district":{"key":"03457","name":"Leer","type":"Landkreis"},"federalState":{"key":"03","name":"Niedersachsen"}},{"name":"Groote Kiel","postalCode":"26835","locality":"Hesel","municipality":{"key":"03457010","name":"Hesel","type":"Kreisangehörige_Gemeinde"},"district":{"key":"03457","name":"Leer","type":"Landkreis"},"federalState":{"key":"03","name":"Niedersachsen"}},{"name":"Großer Zehrbrocksweg","postalCode":"26835","locality":"Hesel","municipality":{"key":"03457010","name":"Hesel","type":"Kreisangehörige_Gemeinde"},"district":{"key":"03457","name":"Leer","type":"Landkreis"},"federalState":{"key":"03","name":"Niedersachsen"}},{"name":"Grüner Weg","postalCode":"26835","locality":"Hesel","municipality":{"key":"03457010","name":"Hesel","type":"Kreisangehörige_Gemeinde"},"district":{"key":"03457","name":"Leer","type":"Landkreis"},"federalState":{"key":"03","name":"Niedersachsen"}},{"name":"Gut Stikelkamp","postalCode":"26835","locality":"Hesel","municipality":{"key":"03457010","name":"Hesel","type":"Kreisangehörige_Gemeinde"},"district":{"key":"03457","name":"Leer","type":"Landkreis"},"federalState":{"key":"03","name":"Niedersachsen"}},{"name":"Gutsweg","postalCode":"26835","locality":"Hesel","municipality":{"key":"03457010","name":"Hesel","type":"Kreisangehörige_Gemeinde"},"district":{"key":"03457","name":"Leer","type":"Landkreis"},"federalState":{"key":"03","name":"Niedersachsen"}},{"name":"Habichtweg","postalCode":"26835","locality":"Hesel","municipality":{"key":"03457010","name":"Hesel","type":"Kreisangehörige_Gemeinde"},"district":{"key":"03457","name":"Leer","type":"Landkreis"},"federalState":{"key":"03","name":"Niedersachsen"}},{"name":"Hasselterfeldstr.","postalCode":"26835","locality":"Hesel","municipality":{"key":"03457010","name":"Hesel","type":"Kreisangehörige_Gemeinde"},"district":{"key":"03457","name":"Leer","type":"Landkreis"},"federalState":{"key":"03","name":"Niedersachsen"}},{"name":"Hasselter Str.","postalCode":"26835","locality":"Hesel","municipality":{"key":"03457010","name":"Hesel","type":"Kreisangehörige_Gemeinde"},"district":{"key":"03457","name":"Leer","type":"Landkreis"},"federalState":{"key":"03","name":"Niedersachsen"}},{"name":"Hauptstr.","postalCode":"26835","locality":"Hesel","municipality":{"key":"03457010","name":"Hesel","type":"Kreisangehörige_Gemeinde"},"district":{"key":"03457","name":"Leer","type":"Landkreis"},"federalState":{"key":"03","name":"Niedersachsen"}},{"name":"Haver Weg","postalCode":"26835","locality":"Hesel","municipality":{"key":"03457010","name":"Hesel","type":"Kreisangehörige_Gemeinde"},"district":{"key":"03457","name":"Leer","type":"Landkreis"},"federalState":{"key":"03","name":"Niedersachsen"}},{"name":"Heideweg","postalCode":"26835","locality":"Hesel","municipality":{"key":"03457010","name":"Hesel","type":"Kreisangehörige_Gemeinde"},"district":{"key":"03457","name":"Leer","type":"Landkreis"},"federalState":{"key":"03","name":"Niedersachsen"}},{"name":"Hempenmoorweg","postalCode":"26835","locality":"Hesel","municipality":{"key":"03457010","name":"Hesel","type":"Kreisangehörige_Gemeinde"},"district":{"key":"03457","name":"Leer","type":"Landkreis"},"federalState":{"key":"03","name":"Niedersachsen"}},{"name":"Hillershörn","postalCode":"26835","locality":"Hesel","municipality":{"key":"03457010","name":"Hesel","type":"Kreisangehörige_Gemeinde"},"district":{"key":"03457","name":"Leer","type":"Landkreis"},"federalState":{"key":"03","name":"Niedersachsen"}},{"name":"Hohefeldweg","postalCode":"26835","locality":"Hesel","municipality":{"key":"03457010","name":"Hesel","type":"Kreisangehörige_Gemeinde"},"district":{"key":"03457","name":"Leer","type":"Landkreis"},"federalState":{"key":"03","name":"Niedersachsen"}},{"name":"Hohe Gaste","postalCode":"26835","locality":"Hesel","municipality":{"key":"03457010","name":"Hesel","type":"Kreisangehörige_Gemeinde"},"district":{"key":"03457","name":"Leer","type":"Landkreis"},"federalState":{"key":"03","name":"Niedersachsen"}},{"name":"Hohe Orde","postalCode":"26835","locality":"Hesel","municipality":{"key":"03457010","name":"Hesel","type":"Kreisangehörige_Gemeinde"},"district":{"key":"03457","name":"Leer","type":"Landkreis"},"federalState":{"key":"03","name":"Niedersachsen"}},{"name":"Höster Str.","postalCode":"26835","locality":"Hesel","municipality":{"key":"03457010","name":"Hesel","type":"Kreisangehörige_Gemeinde"},"district":{"key":"03457","name":"Leer","type":"Landkreis"},"federalState":{"key":"03","name":"Niedersachsen"}},{"name":"Hüllenweg","postalCode":"26835","locality":"Hesel","municipality":{"key":"03457010","name":"Hesel","type":"Kreisangehörige_Gemeinde"},"district":{"key":"03457","name":"Leer","type":"Landkreis"},"federalState":{"key":"03","name":"Niedersachsen"}},{"name":"Im Brink","postalCode":"26835","locality":"Hesel","municipality":{"key":"03457010","name":"Hesel","type":"Kreisangehörige_Gemeinde"},"district":{"key":"03457","name":"Leer","type":"Landkreis"},"federalState":{"key":"03","name":"Niedersachsen"}},{"name":"Immegastr.","postalCode":"26835","locality":"Hesel","municipality":{"key":"03457010","name":"Hesel","type":"Kreisangehörige_Gemeinde"},"district":{"key":"03457","name":"Leer","type":"Landkreis"},"federalState":{"key":"03","name":"Niedersachsen"}},{"name":"Immenthun","postalCode":"26835","locality":"Hesel","municipality":{"key":"03457010","name":"Hesel","type":"Kreisangehörige_Gemeinde"},"district":{"key":"03457","name":"Leer","type":"Landkreis"},"federalState":{"key":"03","name":"Niedersachsen"}},{"name":"Im Strubben","postalCode":"26835","locality":"Hesel","municipality":{"key":"03457010","name":"Hesel","type":"Kreisangehörige_Gemeinde"},"district":{"key":"03457","name":"Leer","type":"Landkreis"},"federalState":{"key":"03","name":"Niedersachsen"}},{"name":"Im Waldwinkel","postalCode":"26835","locality":"Hesel","municipality":{"key":"03457010","name":"Hesel","type":"Kreisangehörige_Gemeinde"},"district":{"key":"03457","name":"Leer","type":"Landkreis"},"federalState":{"key":"03","name":"Niedersachsen"}},{"name":"Johann-Albers-Str.","postalCode":"26835","locality":"Hesel","municipality":{"key":"03457010","name":"Hesel","type":"Kreisangehörige_Gemeinde"},"district":{"key":"03457","name":"Leer","type":"Landkreis"},"federalState":{"key":"03","name":"Niedersachsen"}},{"name":"Kampsweg","postalCode":"26835","locality":"Hesel","municipality":{"key":"03457010","name":"Hesel","type":"Kreisangehörige_Gemeinde"},"district":{"key":"03457","name":"Leer","type":"Landkreis"},"federalState":{"key":"03","name":"Niedersachsen"}},{"name":"Kanalstr.","postalCode":"26835","locality":"Hesel","municipality":{"key":"03457010","name":"Hesel","type":"Kreisangehörige_Gemeinde"},"district":{"key":"03457","name":"Leer","type":"Landkreis"},"federalState":{"key":"03","name":"Niedersachsen"}},{"name":"Karl's Padd","postalCode":"26835","locality":"Hesel","municipality":{"key":"03457010","name":"Hesel","type":"Kreisangehörige_Gemeinde"},"district":{"key":"03457","name":"Leer","type":"Landkreis"},"federalState":{"key":"03","name":"Niedersachsen"}},{"name":"Kastanienstr.","postalCode":"26835","locality":"Hesel","municipality":{"key":"03457010","name":"Hesel","type":"Kreisangehörige_Gemeinde"},"district":{"key":"03457","name":"Leer","type":"Landkreis"},"federalState":{"key":"03","name":"Niedersachsen"}},{"name":"Kiefeldermoorweg","postalCode":"26835","locality":"Hesel","municipality":{"key":"03457010","name":"Hesel","type":"Kreisangehörige_Gemeinde"},"district":{"key":"03457","name":"Leer","type":"Landkreis"},"federalState":{"key":"03","name":"Niedersachsen"}},{"name":"Kiefelder Str.","postalCode":"26835","locality":"Hesel","municipality":{"key":"03457010","name":"Hesel","type":"Kreisangehörige_Gemeinde"},"district":{"key":"03457","name":"Leer","type":"Landkreis"},"federalState":{"key":"03","name":"Niedersachsen"}},{"name":"Kirchstr.","postalCode":"26835","locality":"Hesel","municipality":{"key":"03457010","name":"Hesel","type":"Kreisangehörige_Gemeinde"},"district":{"key":"03457","name":"Leer","type":"Landkreis"},"federalState":{"key":"03","name":"Niedersachsen"}},{"name":"Klaaverstücken","postalCode":"26835","locality":"Hesel","municipality":{"key":"03457010","name":"Hesel","type":"Kreisangehörige_Gemeinde"},"district":{"key":"03457","name":"Leer","type":"Landkreis"},"federalState":{"key":"03","name":"Niedersachsen"}},{"name":"Kleiner Postweg","postalCode":"26835","locality":"Hesel","municipality":{"key":"03457010","name":"Hesel","type":"Kreisangehörige_Gemeinde"},"district":{"key":"03457","name":"Leer","type":"Landkreis"},"federalState":{"key":"03","name":"Niedersachsen"}},{"name":"Kleiner Südermoorweg","postalCode":"26835","locality":"Hesel","municipality":{"key":"03457010","name":"Hesel","type":"Kreisangehörige_Gemeinde"},"district":{"key":"03457","name":"Leer","type":"Landkreis"},"federalState":{"key":"03","name":"Niedersachsen"}},{"name":"Kleiner Zehrbrocksweg","postalCode":"26835","locality":"Hesel","municipality":{"key":"03457010","name":"Hesel","type":"Kreisangehörige_Gemeinde"},"district":{"key":"03457","name":"Leer","type":"Landkreis"},"federalState":{"key":"03","name":"Niedersachsen"}},{"name":"Klosterweg","postalCode":"26835","locality":"Hesel","municipality":{"key":"03457010","name":"Hesel","type":"Kreisangehörige_Gemeinde"},"district":{"key":"03457","name":"Leer","type":"Landkreis"},"federalState":{"key":"03","name":"Niedersachsen"}},{"name":"Klöverstücken","postalCode":"26835","locality":"Hesel","municipality":{"key":"03457010","name":"Hesel","type":"Kreisangehörige_Gemeinde"},"district":{"key":"03457","name":"Leer","type":"Landkreis"},"federalState":{"key":"03","name":"Niedersachsen"}},{"name":"Knippelkamp","postalCode":"26835","locality":"Hesel","municipality":{"key":"03457010","name":"Hesel","type":"Kreisangehörige_Gemeinde"},"district":{"key":"03457","name":"Leer","type":"Landkreis"},"federalState":{"key":"03","name":"Niedersachsen"}},{"name":"Kurt-Becker-Str.","postalCode":"26835","locality":"Hesel","municipality":{"key":"03457010","name":"Hesel","type":"Kreisangehörige_Gemeinde"},"district":{"key":"03457","name":"Leer","type":"Landkreis"},"federalState":{"key":"03","name":"Niedersachsen"}},{"name":"Lammertsfehner Str.","postalCode":"26835","locality":"Hesel","municipality":{"key":"03457010","name":"Hesel","type":"Kreisangehörige_Gemeinde"},"district":{"key":"03457","name":"Leer","type":"Landkreis"},"federalState":{"key":"03","name":"Niedersachsen"}},{"name":"Leeraner Str.","postalCode":"26835","locality":"Hesel","municipality":{"key":"03457010","name":"Hesel","type":"Kreisangehörige_Gemeinde"},"district":{"key":"03457","name":"Leer","type":"Landkreis"},"federalState":{"key":"03","name":"Niedersachsen"}},{"name":"Lehmshörn","postalCode":"26835","locality":"Hesel","municipality":{"key":"03457010","name":"Hesel","type":"Kreisangehörige_Gemeinde"},"district":{"key":"03457","name":"Leer","type":"Landkreis"},"federalState":{"key":"03","name":"Niedersachsen"}},{"name":"Lindenstr.","postalCode":"26835","locality":"Hesel","municipality":{"key":"03457010","name":"Hesel","type":"Kreisangehörige_Gemeinde"},"district":{"key":"03457","name":"Leer","type":"Landkreis"},"federalState":{"key":"03","name":"Niedersachsen"}},{"name":"Lönsstr.","postalCode":"26835","locality":"Hesel","municipality":{"key":"03457010","name":"Hesel","type":"Kreisangehörige_Gemeinde"},"district":{"key":"03457","name":"Leer","type":"Landkreis"},"federalState":{"key":"03","name":"Niedersachsen"}},{"name":"Lübbersmoorweg","postalCode":"26835","locality":"Hesel","municipality":{"key":"03457010","name":"Hesel","type":"Kreisangehörige_Gemeinde"},"district":{"key":"03457","name":"Leer","type":"Landkreis"},"federalState":{"key":"03","name":"Niedersachsen"}},{"name":"Meedeweg","postalCode":"26835","locality":"Hesel","municipality":{"key":"03457010","name":"Hesel","type":"Kreisangehörige_Gemeinde"},"district":{"key":"03457","name":"Leer","type":"Landkreis"},"federalState":{"key":"03","name":"Niedersachsen"}},{"name":"Milchweg","postalCode":"26835","locality":"Hesel","municipality":{"key":"03457010","name":"Hesel","type":"Kreisangehörige_Gemeinde"},"district":{"key":"03457","name":"Leer","type":"Landkreis"},"federalState":{"key":"03","name":"Niedersachsen"}},{"name":"Möntkeweg","postalCode":"26835","locality":"Hesel","municipality":{"key":"03457010","name":"Hesel","type":"Kreisangehörige_Gemeinde"},"district":{"key":"03457","name":"Leer","type":"Landkreis"},"federalState":{"key":"03","name":"Niedersachsen"}},{"name":"Moormerlanderstr.","postalCode":"26835","locality":"Hesel","municipality":{"key":"03457010","name":"Hesel","type":"Kreisangehörige_Gemeinde"},"district":{"key":"03457","name":"Leer","type":"Landkreis"},"federalState":{"key":"03","name":"Niedersachsen"}},{"name":"Moorstückenweg","postalCode":"26835","locality":"Hesel","municipality":{"key":"03457010","name":"Hesel","type":"Kreisangehörige_Gemeinde"},"district":{"key":"03457","name":"Leer","type":"Landkreis"},"federalState":{"key":"03","name":"Niedersachsen"}},{"name":"Moorweg","postalCode":"26835","locality":"Hesel","municipality":{"key":"03457010","name":"Hesel","type":"Kreisangehörige_Gemeinde"},"district":{"key":"03457","name":"Leer","type":"Landkreis"},"federalState":{"key":"03","name":"Niedersachsen"}},{"name":"Mühlenstr.","postalCode":"26835","locality":"Hesel","municipality":{"key":"03457010","name":"Hesel","type":"Kreisangehörige_Gemeinde"},"district":{"key":"03457","name":"Leer","type":"Landkreis"},"federalState":{"key":"03","name":"Niedersachsen"}},{"name":"Nelkenstr.","postalCode":"26835","locality":"Hesel","municipality":{"key":"03457010","name":"Hesel","type":"Kreisangehörige_Gemeinde"},"district":{"key":"03457","name":"Leer","type":"Landkreis"},"federalState":{"key":"03","name":"Niedersachsen"}},{"name":"Neue Str.","postalCode":"26835","locality":"Hesel","municipality":{"key":"03457010","name":"Hesel","type":"Kreisangehörige_Gemeinde"},"district":{"key":"03457","name":"Leer","type":"Landkreis"},"federalState":{"key":"03","name":"Niedersachsen"}},{"name":"Nonnenweg","postalCode":"26835","locality":"Hesel","municipality":{"key":"03457010","name":"Hesel","type":"Kreisangehörige_Gemeinde"},"district":{"key":"03457","name":"Leer","type":"Landkreis"},"federalState":{"key":"03","name":"Niedersachsen"}},{"name":"Norderstr.","postalCode":"26835","locality":"Hesel","municipality":{"key":"03457010","name":"Hesel","type":"Kreisangehörige_Gemeinde"},"district":{"key":"03457","name":"Leer","type":"Landkreis"},"federalState":{"key":"03","name":"Niedersachsen"}},{"name":"Oldehaver Weg","postalCode":"26835","locality":"Hesel","municipality":{"key":"03457010","name":"Hesel","type":"Kreisangehörige_Gemeinde"},"district":{"key":"03457","name":"Leer","type":"Landkreis"},"federalState":{"key":"03","name":"Niedersachsen"}},{"name":"Oldenburger Str.","postalCode":"26835","locality":"Hesel","municipality":{"key":"03457010","name":"Hesel","type":"Kreisangehörige_Gemeinde"},"district":{"key":"03457","name":"Leer","type":"Landkreis"},"federalState":{"key":"03","name":"Niedersachsen"}},{"name":"Oßwaldstr.","postalCode":"26835","locality":"Hesel","municipality":{"key":"03457010","name":"Hesel","type":"Kreisangehörige_Gemeinde"},"district":{"key":"03457","name":"Leer","type":"Landkreis"},"federalState":{"key":"03","name":"Niedersachsen"}},{"name":"Ostermoorstr.","postalCode":"26835","locality":"Hesel","municipality":{"key":"03457010","name":"Hesel","type":"Kreisangehörige_Gemeinde"},"district":{"key":"03457","name":"Leer","type":"Landkreis"},"federalState":{"key":"03","name":"Niedersachsen"}},{"name":"Osterstr.","postalCode":"26835","locality":"Hesel","municipality":{"key":"03457010","name":"Hesel","type":"Kreisangehörige_Gemeinde"},"district":{"key":"03457","name":"Leer","type":"Landkreis"},"federalState":{"key":"03","name":"Niedersachsen"}},{"name":"Osterwarf","postalCode":"26835","locality":"Hesel","municipality":{"key":"03457010","name":"Hesel","type":"Kreisangehörige_Gemeinde"},"district":{"key":"03457","name":"Leer","type":"Landkreis"},"federalState":{"key":"03","name":"Niedersachsen"}},{"name":"Osterweidenweg","postalCode":"26835","locality":"Hesel","municipality":{"key":"03457010","name":"Hesel","type":"Kreisangehörige_Gemeinde"},"district":{"key":"03457","name":"Leer","type":"Landkreis"},"federalState":{"key":"03","name":"Niedersachsen"}},{"name":"Pferdekampstr.","postalCode":"26835","locality":"Hesel","municipality":{"key":"03457010","name":"Hesel","type":"Kreisangehörige_Gemeinde"},"district":{"key":"03457","name":"Leer","type":"Landkreis"},"federalState":{"key":"03","name":"Niedersachsen"}},{"name":"Poststr.","postalCode":"26835","locality":"Hesel","municipality":{"key":"03457010","name":"Hesel","type":"Kreisangehörige_Gemeinde"},"district":{"key":"03457","name":"Leer","type":"Landkreis"},"federalState":{"key":"03","name":"Niedersachsen"}},{"name":"Querweg","postalCode":"26789","locality":"Leer","municipality":{"key":"03457013","name":"Leer (Ostfriesland), Stadt","type":"Stadt"},"district":{"key":"03457","name":"Leer","type":"Landkreis"},"federalState":{"key":"03","name":"Niedersachsen"}},{"name":"Rathausstr.","postalCode":"26835","locality":"Hesel","municipality":{"key":"03457010","name":"Hesel","type":"Kreisangehörige_Gemeinde"},"district":{"key":"03457","name":"Leer","type":"Landkreis"},"federalState":{"key":"03","name":"Niedersachsen"}},{"name":"Rebeken","postalCode":"26835","locality":"Hesel","municipality":{"key":"03457010","name":"Hesel","type":"Kreisangehörige_Gemeinde"},"district":{"key":"03457","name":"Leer","type":"Landkreis"},"federalState":{"key":"03","name":"Niedersachsen"}},{"name":"Rispenweg","postalCode":"26835","locality":"Hesel","municipality":{"key":"03457010","name":"Hesel","type":"Kreisangehörige_Gemeinde"},"district":{"key":"03457","name":"Leer","type":"Landkreis"},"federalState":{"key":"03","name":"Niedersachsen"}},{"name":"Rosenstr.","postalCode":"26835","locality":"Hesel","municipality":{"key":"03457010","name":"Hesel","type":"Kreisangehörige_Gemeinde"},"district":{"key":"03457","name":"Leer","type":"Landkreis"},"federalState":{"key":"03","name":"Niedersachsen"}},{"name":"Rüschenweg","postalCode":"26835","locality":"Hesel","municipality":{"key":"03457010","name":"Hesel","type":"Kreisangehörige_Gemeinde"},"district":{"key":"03457","name":"Leer","type":"Landkreis"},"federalState":{"key":"03","name":"Niedersachsen"}},{"name":"Sandhörn","postalCode":"26835","locality":"Hesel","municipality":{"key":"03457010","name":"Hesel","type":"Kreisangehörige_Gemeinde"},"district":{"key":"03457","name":"Leer","type":"Landkreis"},"federalState":{"key":"03","name":"Niedersachsen"}},{"name":"Sandmühlenweg","postalCode":"26835","locality":"Hesel","municipality":{"key":"03457010","name":"Hesel","type":"Kreisangehörige_Gemeinde"},"district":{"key":"03457","name":"Leer","type":"Landkreis"},"federalState":{"key":"03","name":"Niedersachsen"}},{"name":"Sandwieke","postalCode":"26835","locality":"Hesel","municipality":{"key":"03457010","name":"Hesel","type":"Kreisangehörige_Gemeinde"},"district":{"key":"03457","name":"Leer","type":"Landkreis"},"federalState":{"key":"03","name":"Niedersachsen"}},{"name":"Saxhorn","postalCode":"26835","locality":"Hesel","municipality":{"key":"03457010","name":"Hesel","type":"Kreisangehörige_Gemeinde"},"district":{"key":"03457","name":"Leer","type":"Landkreis"},"federalState":{"key":"03","name":"Niedersachsen"}},{"name":"Schäferweg","postalCode":"26835","locality":"Hesel","municipality":{"key":"03457010","name":"Hesel","type":"Kreisangehörige_Gemeinde"},"district":{"key":"03457","name":"Leer","type":"Landkreis"},"federalState":{"key":"03","name":"Niedersachsen"}},{"name":"Schafweidenweg","postalCode":"26835","locality":"Hesel","municipality":{"key":"03457010","name":"Hesel","type":"Kreisangehörige_Gemeinde"},"district":{"key":"03457","name":"Leer","type":"Landkreis"},"federalState":{"key":"03","name":"Niedersachsen"}},{"name":"Schanzenstr.","postalCode":"26835","locality":"Hesel","municipality":{"key":"03457010","name":"Hesel","type":"Kreisangehörige_Gemeinde"},"district":{"key":"03457","name":"Leer","type":"Landkreis"},"federalState":{"key":"03","name":"Niedersachsen"}},{"name":"Schulstr.","postalCode":"26835","locality":"Hesel","municipality":{"key":"03457010","name":"Hesel","type":"Kreisangehörige_Gemeinde"},"district":{"key":"03457","name":"Leer","type":"Landkreis"},"federalState":{"key":"03","name":"Niedersachsen"}},{"name":"Schwerinsdorfer Str.","postalCode":"26835","locality":"Hesel","municipality":{"key":"03457010","name":"Hesel","type":"Kreisangehörige_Gemeinde"},"district":{"key":"03457","name":"Leer","type":"Landkreis"},"federalState":{"key":"03","name":"Niedersachsen"}},{"name":"Siebestocker Weg","postalCode":"26835","locality":"Hesel","municipality":{"key":"03457010","name":"Hesel","type":"Kreisangehörige_Gemeinde"},"district":{"key":"03457","name":"Leer","type":"Landkreis"},"federalState":{"key":"03","name":"Niedersachsen"}},{"name":"Spechtweg","postalCode":"26835","locality":"Hesel","municipality":{"key":"03457010","name":"Hesel","type":"Kreisangehörige_Gemeinde"},"district":{"key":"03457","name":"Leer","type":"Landkreis"},"federalState":{"key":"03","name":"Niedersachsen"}},{"name":"Sperberweg","postalCode":"26835","locality":"Hesel","municipality":{"key":"03457010","name":"Hesel","type":"Kreisangehörige_Gemeinde"},"district":{"key":"03457","name":"Leer","type":"Landkreis"},"federalState":{"key":"03","name":"Niedersachsen"}},{"name":"Sperlingweg","postalCode":"26835","locality":"Hesel","municipality":{"key":"03457010","name":"Hesel","type":"Kreisangehörige_Gemeinde"},"district":{"key":"03457","name":"Leer","type":"Landkreis"},"federalState":{"key":"03","name":"Niedersachsen"}},{"name":"Stikelkamper Str.","postalCode":"26835","locality":"Hesel","municipality":{"key":"03457010","name":"Hesel","type":"Kreisangehörige_Gemeinde"},"district":{"key":"03457","name":"Leer","type":"Landkreis"},"federalState":{"key":"03","name":"Niedersachsen"}},{"name":"Süderweidenweg","postalCode":"26835","locality":"Hesel","municipality":{"key":"03457010","name":"Hesel","type":"Kreisangehörige_Gemeinde"},"district":{"key":"03457","name":"Leer","type":"Landkreis"},"federalState":{"key":"03","name":"Niedersachsen"}},{"name":"Sundermannstr.","postalCode":"26835","locality":"Hesel","municipality":{"key":"03457010","name":"Hesel","type":"Kreisangehörige_Gemeinde"},"district":{"key":"03457","name":"Leer","type":"Landkreis"},"federalState":{"key":"03","name":"Niedersachsen"}},{"name":"Taubenweg","postalCode":"26835","locality":"Hesel","municipality":{"key":"03457010","name":"Hesel","type":"Kreisangehörige_Gemeinde"},"district":{"key":"03457","name":"Leer","type":"Landkreis"},"federalState":{"key":"03","name":"Niedersachsen"}},{"name":"Thymianstr.","postalCode":"26835","locality":"Hesel","municipality":{"key":"03457010","name":"Hesel","type":"Kreisangehörige_Gemeinde"},"district":{"key":"03457","name":"Leer","type":"Landkreis"},"federalState":{"key":"03","name":"Niedersachsen"}},{"name":"Ulmenstr.","postalCode":"26835","locality":"Hesel","municipality":{"key":"03457010","name":"Hesel","type":"Kreisangehörige_Gemeinde"},"district":{"key":"03457","name":"Leer","type":"Landkreis"},"federalState":{"key":"03","name":"Niedersachsen"}},{"name":"Unter den Eichen","postalCode":"26835","locality":"Hesel","municipality":{"key":"03457010","name":"Hesel","type":"Kreisangehörige_Gemeinde"},"district":{"key":"03457","name":"Leer","type":"Landkreis"},"federalState":{"key":"03","name":"Niedersachsen"}},{"name":"Uplengener Str.","postalCode":"26835","locality":"Hesel","municipality":{"key":"03457010","name":"Hesel","type":"Kreisangehörige_Gemeinde"},"district":{"key":"03457","name":"Leer","type":"Landkreis"},"federalState":{"key":"03","name":"Niedersachsen"}},{"name":"Von-Minden-Weg","postalCode":"26835","locality":"Hesel","municipality":{"key":"03457010","name":"Hesel","type":"Kreisangehörige_Gemeinde"},"district":{"key":"03457","name":"Leer","type":"Landkreis"},"federalState":{"key":"03","name":"Niedersachsen"}},{"name":"Vorwerker Str.","postalCode":"26835","locality":"Hesel","municipality":{"key":"03457010","name":"Hesel","type":"Kreisangehörige_Gemeinde"},"district":{"key":"03457","name":"Leer","type":"Landkreis"},"federalState":{"key":"03","name":"Niedersachsen"}},{"name":"Wacholderstr.","postalCode":"26835","locality":"Hesel","municipality":{"key":"03457010","name":"Hesel","type":"Kreisangehörige_Gemeinde"},"district":{"key":"03457","name":"Leer","type":"Landkreis"},"federalState":{"key":"03","name":"Niedersachsen"}},{"name":"Wasserpark Hasselt","postalCode":"26835","locality":"Hesel","municipality":{"key":"03457010","name":"Hesel","type":"Kreisangehörige_Gemeinde"},"district":{"key":"03457","name":"Leer","type":"Landkreis"},"federalState":{"key":"03","name":"Niedersachsen"}},{"name":"Wehrden","postalCode":"26835","locality":"Hesel","municipality":{"key":"03457010","name":"Hesel","type":"Kreisangehörige_Gemeinde"},"district":{"key":"03457","name":"Leer","type":"Landkreis"},"federalState":{"key":"03","name":"Niedersachsen"}},{"name":"Wehrden Ost","postalCode":"26835","locality":"Hesel","municipality":{"key":"03457010","name":"Hesel","type":"Kreisangehörige_Gemeinde"},"district":{"key":"03457","name":"Leer","type":"Landkreis"},"federalState":{"key":"03","name":"Niedersachsen"}},{"name":"Wehrden West","postalCode":"26835","locality":"Hesel","municipality":{"key":"03457010","name":"Hesel","type":"Kreisangehörige_Gemeinde"},"district":{"key":"03457","name":"Leer","type":"Landkreis"},"federalState":{"key":"03","name":"Niedersachsen"}},{"name":"Weidenweg","postalCode":"26835","locality":"Hesel","municipality":{"key":"03457010","name":"Hesel","type":"Kreisangehörige_Gemeinde"},"district":{"key":"03457","name":"Leer","type":"Landkreis"},"federalState":{"key":"03","name":"Niedersachsen"}},{"name":"Weidstückenweg","postalCode":"26835","locality":"Hesel","municipality":{"key":"03457010","name":"Hesel","type":"Kreisangehörige_Gemeinde"},"district":{"key":"03457","name":"Leer","type":"Landkreis"},"federalState":{"key":"03","name":"Niedersachsen"}},{"name":"Werkstr.","postalCode":"26835","locality":"Hesel","municipality":{"key":"03457010","name":"Hesel","type":"Kreisangehörige_Gemeinde"},"district":{"key":"03457","name":"Leer","type":"Landkreis"},"federalState":{"key":"03","name":"Niedersachsen"}},{"name":"Westermoorstr.","postalCode":"26835","locality":"Hesel","municipality":{"key":"03457010","name":"Hesel","type":"Kreisangehörige_Gemeinde"},"district":{"key":"03457","name":"Leer","type":"Landkreis"},"federalState":{"key":"03","name":"Niedersachsen"}},{"name":"Westerstr.","postalCode":"26835","locality":"Hesel","municipality":{"key":"03457010","name":"Hesel","type":"Kreisangehörige_Gemeinde"},"district":{"key":"03457","name":"Leer","type":"Landkreis"},"federalState":{"key":"03","name":"Niedersachsen"}},{"name":"Westerweidenweg","postalCode":"26835","locality":"Hesel","municipality":{"key":"03457010","name":"Hesel","type":"Kreisangehörige_Gemeinde"},"district":{"key":"03457","name":"Leer","type":"Landkreis"},"federalState":{"key":"03","name":"Niedersachsen"}},{"name":"Wiesengrund","postalCode":"26835","locality":"Hesel","municipality":{"key":"03457010","name":"Hesel","type":"Kreisangehörige_Gemeinde"},"district":{"key":"03457","name":"Leer","type":"Landkreis"},"federalState":{"key":"03","name":"Niedersachsen"}},{"name":"Wilhelm-Kemner-Str.","postalCode":"26835","locality":"Hesel","municipality":{"key":"03457010","name":"Hesel","type":"Kreisangehörige_Gemeinde"},"district":{"key":"03457","name":"Leer","type":"Landkreis"},"federalState":{"key":"03","name":"Niedersachsen"}},{"name":"Zeisigweg","postalCode":"26835","locality":"Hesel","municipality":{"key":"03457010","name":"Hesel","type":"Kreisangehörige_Gemeinde"},"district":{"key":"03457","name":"Leer","type":"Landkreis"},"federalState":{"key":"03","name":"Niedersachsen"}},{"name":"Zum Klärwerk","postalCode":"26835","locality":"Hesel","municipality":{"key":"03457010","name":"Hesel","type":"Kreisangehörige_Gemeinde"},"district":{"key":"03457","name":"Leer","type":"Landkreis"},"federalState":{"key":"03","name":"Niedersachsen"}},{"name":"Zuwegerfeld","postalCode":"26835","locality":"Hesel","municipality":{"key":"03457010","name":"Hesel","type":"Kreisangehörige_Gemeinde"},"district":{"key":"03457","name":"Leer","type":"Landkreis"},"federalState":{"key":"03","name":"Niedersachsen"}},]