[{"key":"10238674","name":"Ackerweg","postalCode":"5722","locality":"Gränichen","commune":{"key":"4006","name":"Gränichen","shortName":"Gränichen"},"district":{"key":"1901","name":"Bezirk Aarau"},"canton":{"key":"19","code":"AG","name":"Aargau"},"status":"Real"},{"key":"10071336","name":"Ahornweg","postalCode":"5722","locality":"Gränichen","commune":{"key":"4006","name":"Gränichen","shortName":"Gränichen"},"district":{"key":"1901","name":"Bezirk Aarau"},"canton":{"key":"19","code":"AG","name":"Aargau"},"status":"Real"},{"key":"10180793","name":"Alpenweg","postalCode":"5722","locality":"Gränichen","commune":{"key":"4006","name":"Gränichen","shortName":"Gränichen"},"district":{"key":"1901","name":"Bezirk Aarau"},"canton":{"key":"19","code":"AG","name":"Aargau"},"status":"Real"},{"key":"10117222","name":"Amselweg","postalCode":"5722","locality":"Gränichen","commune":{"key":"4006","name":"Gränichen","shortName":"Gränichen"},"district":{"key":"1901","name":"Bezirk Aarau"},"canton":{"key":"19","code":"AG","name":"Aargau"},"status":"Real"},{"key":"10093867","name":"Bachweg","postalCode":"5722","locality":"Gränichen","commune":{"key":"4006","name":"Gränichen","shortName":"Gränichen"},"district":{"key":"1901","name":"Bezirk Aarau"},"canton":{"key":"19","code":"AG","name":"Aargau"},"status":"Real"},{"key":"10029884","name":"Bäckerstrasse","postalCode":"5722","locality":"Gränichen","commune":{"key":"4006","name":"Gränichen","shortName":"Gränichen"},"district":{"key":"1901","name":"Bezirk Aarau"},"canton":{"key":"19","code":"AG","name":"Aargau"},"status":"Real"},{"key":"10029877","name":"Badstrasse","postalCode":"5722","locality":"Gränichen","commune":{"key":"4006","name":"Gränichen","shortName":"Gränichen"},"district":{"key":"1901","name":"Bezirk Aarau"},"canton":{"key":"19","code":"AG","name":"Aargau"},"status":"Real"},{"key":"10071337","name":"Bahnhofstrasse","postalCode":"5722","locality":"Gränichen","commune":{"key":"4006","name":"Gränichen","shortName":"Gränichen"},"district":{"key":"1901","name":"Bezirk Aarau"},"canton":{"key":"19","code":"AG","name":"Aargau"},"status":"Real"},{"key":"10148216","name":"Bänelimatte","postalCode":"5722","locality":"Gränichen","commune":{"key":"4006","name":"Gränichen","shortName":"Gränichen"},"district":{"key":"1901","name":"Bezirk Aarau"},"canton":{"key":"19","code":"AG","name":"Aargau"},"status":"Real"},{"key":"10029878","name":"Baumgartenweg","postalCode":"5722","locality":"Gränichen","commune":{"key":"4006","name":"Gränichen","shortName":"Gränichen"},"district":{"key":"1901","name":"Bezirk Aarau"},"canton":{"key":"19","code":"AG","name":"Aargau"},"status":"Real"},{"key":"10029879","name":"Belchenweg","postalCode":"5722","locality":"Gränichen","commune":{"key":"4006","name":"Gränichen","shortName":"Gränichen"},"district":{"key":"1901","name":"Bezirk Aarau"},"canton":{"key":"19","code":"AG","name":"Aargau"},"status":"Real"},{"key":"10093868","name":"Bergmattenweg","postalCode":"5722","locality":"Gränichen","commune":{"key":"4006","name":"Gränichen","shortName":"Gränichen"},"district":{"key":"1901","name":"Bezirk Aarau"},"canton":{"key":"19","code":"AG","name":"Aargau"},"status":"Real"},{"key":"10029880","name":"Bienstelstrasse","postalCode":"5722","locality":"Gränichen","commune":{"key":"4006","name":"Gränichen","shortName":"Gränichen"},"district":{"key":"1901","name":"Bezirk Aarau"},"canton":{"key":"19","code":"AG","name":"Aargau"},"status":"Real"},{"key":"10180794","name":"Bifangstrasse","postalCode":"5722","locality":"Gränichen","commune":{"key":"4006","name":"Gränichen","shortName":"Gränichen"},"district":{"key":"1901","name":"Bezirk Aarau"},"canton":{"key":"19","code":"AG","name":"Aargau"},"status":"Real"},{"key":"10071338","name":"Birkenweg","postalCode":"5722","locality":"Gränichen","commune":{"key":"4006","name":"Gränichen","shortName":"Gränichen"},"district":{"key":"1901","name":"Bezirk Aarau"},"canton":{"key":"19","code":"AG","name":"Aargau"},"status":"Real"},{"key":"10140724","name":"Bläienfeldweg","postalCode":"5722","locality":"Gränichen","commune":{"key":"4006","name":"Gränichen","shortName":"Gränichen"},"district":{"key":"1901","name":"Bezirk Aarau"},"canton":{"key":"19","code":"AG","name":"Aargau"},"status":"Real"},{"key":"10238675","name":"Bläienmattenweg","postalCode":"5722","locality":"Gränichen","commune":{"key":"4006","name":"Gränichen","shortName":"Gränichen"},"district":{"key":"1901","name":"Bezirk Aarau"},"canton":{"key":"19","code":"AG","name":"Aargau"},"status":"Real"},{"key":"10029881","name":"Bläienring","postalCode":"5722","locality":"Gränichen","commune":{"key":"4006","name":"Gränichen","shortName":"Gränichen"},"district":{"key":"1901","name":"Bezirk Aarau"},"canton":{"key":"19","code":"AG","name":"Aargau"},"status":"Real"},{"key":"10029882","name":"Bläienstrasse","postalCode":"5722","locality":"Gränichen","commune":{"key":"4006","name":"Gränichen","shortName":"Gränichen"},"district":{"key":"1901","name":"Bezirk Aarau"},"canton":{"key":"19","code":"AG","name":"Aargau"},"status":"Real"},{"key":"10093869","name":"Blumenweg","postalCode":"5722","locality":"Gränichen","commune":{"key":"4006","name":"Gränichen","shortName":"Gränichen"},"district":{"key":"1901","name":"Bezirk Aarau"},"canton":{"key":"19","code":"AG","name":"Aargau"},"status":"Real"},{"key":"10109557","name":"Brüggliweg","postalCode":"5722","locality":"Gränichen","commune":{"key":"4006","name":"Gränichen","shortName":"Gränichen"},"district":{"key":"1901","name":"Bezirk Aarau"},"canton":{"key":"19","code":"AG","name":"Aargau"},"status":"Real"},{"key":"10190184","name":"Brütschenbächliweg","postalCode":"5722","locality":"Gränichen","commune":{"key":"4006","name":"Gränichen","shortName":"Gränichen"},"district":{"key":"1901","name":"Bezirk Aarau"},"canton":{"key":"19","code":"AG","name":"Aargau"},"status":"Real"},{"key":"10029883","name":"Buchenweg","postalCode":"5722","locality":"Gränichen","commune":{"key":"4006","name":"Gränichen","shortName":"Gränichen"},"district":{"key":"1901","name":"Bezirk Aarau"},"canton":{"key":"19","code":"AG","name":"Aargau"},"status":"Real"},{"key":"10119165","name":"Bündtenweg","postalCode":"5722","locality":"Gränichen","commune":{"key":"4006","name":"Gränichen","shortName":"Gränichen"},"district":{"key":"1901","name":"Bezirk Aarau"},"canton":{"key":"19","code":"AG","name":"Aargau"},"status":"Real"},{"key":"10112738","name":"Burghalde","postalCode":"5722","locality":"Gränichen","commune":{"key":"4006","name":"Gränichen","shortName":"Gränichen"},"district":{"key":"1901","name":"Bezirk Aarau"},"canton":{"key":"19","code":"AG","name":"Aargau"},"status":"Real"},{"key":"10146632","name":"Chilematt","postalCode":"5722","locality":"Gränichen","commune":{"key":"4006","name":"Gränichen","shortName":"Gränichen"},"district":{"key":"1901","name":"Bezirk Aarau"},"canton":{"key":"19","code":"AG","name":"Aargau"},"status":"Real"},{"key":"10191498","name":"Chrotewynli","postalCode":"5722","locality":"Gränichen","commune":{"key":"4006","name":"Gränichen","shortName":"Gränichen"},"district":{"key":"1901","name":"Bezirk Aarau"},"canton":{"key":"19","code":"AG","name":"Aargau"},"status":"Real"},{"key":"10093870","name":"Chrumbwoogstrasse","postalCode":"5722","locality":"Gränichen","commune":{"key":"4006","name":"Gränichen","shortName":"Gränichen"},"district":{"key":"1901","name":"Bezirk Aarau"},"canton":{"key":"19","code":"AG","name":"Aargau"},"status":"Real"},{"key":"10117223","name":"Döggeligasse","postalCode":"5722","locality":"Gränichen","commune":{"key":"4006","name":"Gränichen","shortName":"Gränichen"},"district":{"key":"1901","name":"Bezirk Aarau"},"canton":{"key":"19","code":"AG","name":"Aargau"},"status":"Real"},{"key":"10029885","name":"Doossenweg","postalCode":"5722","locality":"Gränichen","commune":{"key":"4006","name":"Gränichen","shortName":"Gränichen"},"district":{"key":"1901","name":"Bezirk Aarau"},"canton":{"key":"19","code":"AG","name":"Aargau"},"status":"Real"},{"key":"10144401","name":"Drosselweg","postalCode":"5722","locality":"Gränichen","commune":{"key":"4006","name":"Gränichen","shortName":"Gränichen"},"district":{"key":"1901","name":"Bezirk Aarau"},"canton":{"key":"19","code":"AG","name":"Aargau"},"status":"Real"},{"key":"10131123","name":"Eichenweg","postalCode":"5722","locality":"Gränichen","commune":{"key":"4006","name":"Gränichen","shortName":"Gränichen"},"district":{"key":"1901","name":"Bezirk Aarau"},"canton":{"key":"19","code":"AG","name":"Aargau"},"status":"Real"},{"key":"10029886","name":"Eifeldstrasse","postalCode":"5722","locality":"Gränichen","commune":{"key":"4006","name":"Gränichen","shortName":"Gränichen"},"district":{"key":"1901","name":"Bezirk Aarau"},"canton":{"key":"19","code":"AG","name":"Aargau"},"status":"Real"},{"key":"10180795","name":"Eihaldenweg","postalCode":"5722","locality":"Gränichen","commune":{"key":"4006","name":"Gränichen","shortName":"Gränichen"},"district":{"key":"1901","name":"Bezirk Aarau"},"canton":{"key":"19","code":"AG","name":"Aargau"},"status":"Real"},{"key":"10093871","name":"Eizopfstrasse","postalCode":"5722","locality":"Gränichen","commune":{"key":"4006","name":"Gränichen","shortName":"Gränichen"},"district":{"key":"1901","name":"Bezirk Aarau"},"canton":{"key":"19","code":"AG","name":"Aargau"},"status":"Real"},{"key":"10122145","name":"Erlenweg","postalCode":"5722","locality":"Gränichen","commune":{"key":"4006","name":"Gränichen","shortName":"Gränichen"},"district":{"key":"1901","name":"Bezirk Aarau"},"canton":{"key":"19","code":"AG","name":"Aargau"},"status":"Real"},{"key":"10144476","name":"Eschenweg","postalCode":"5722","locality":"Gränichen","commune":{"key":"4006","name":"Gränichen","shortName":"Gränichen"},"district":{"key":"1901","name":"Bezirk Aarau"},"canton":{"key":"19","code":"AG","name":"Aargau"},"status":"Real"},{"key":"10127158","name":"Farnweg","postalCode":"5722","locality":"Gränichen","commune":{"key":"4006","name":"Gränichen","shortName":"Gränichen"},"district":{"key":"1901","name":"Bezirk Aarau"},"canton":{"key":"19","code":"AG","name":"Aargau"},"status":"Real"},{"key":"10132647","name":"Feldmattenweg","postalCode":"5722","locality":"Gränichen","commune":{"key":"4006","name":"Gränichen","shortName":"Gränichen"},"district":{"key":"1901","name":"Bezirk Aarau"},"canton":{"key":"19","code":"AG","name":"Aargau"},"status":"Real"},{"key":"10029887","name":"Feldring","postalCode":"5722","locality":"Gränichen","commune":{"key":"4006","name":"Gränichen","shortName":"Gränichen"},"district":{"key":"1901","name":"Bezirk Aarau"},"canton":{"key":"19","code":"AG","name":"Aargau"},"status":"Real"},{"key":"10029888","name":"Fichtenweg","postalCode":"5722","locality":"Gränichen","commune":{"key":"4006","name":"Gränichen","shortName":"Gränichen"},"district":{"key":"1901","name":"Bezirk Aarau"},"canton":{"key":"19","code":"AG","name":"Aargau"},"status":"Real"},{"key":"10151126","name":"Finkenweg","postalCode":"5722","locality":"Gränichen","commune":{"key":"4006","name":"Gränichen","shortName":"Gränichen"},"district":{"key":"1901","name":"Bezirk Aarau"},"canton":{"key":"19","code":"AG","name":"Aargau"},"status":"Real"},{"key":"10093872","name":"Fisimattenweg","postalCode":"5722","locality":"Gränichen","commune":{"key":"4006","name":"Gränichen","shortName":"Gränichen"},"district":{"key":"1901","name":"Bezirk Aarau"},"canton":{"key":"19","code":"AG","name":"Aargau"},"status":"Real"},{"key":"10071339","name":"Fliederweg","postalCode":"5722","locality":"Gränichen","commune":{"key":"4006","name":"Gränichen","shortName":"Gränichen"},"district":{"key":"1901","name":"Bezirk Aarau"},"canton":{"key":"19","code":"AG","name":"Aargau"},"status":"Real"},{"key":"10052688","name":"Föhrenweg","postalCode":"5722","locality":"Gränichen","commune":{"key":"4006","name":"Gränichen","shortName":"Gränichen"},"district":{"key":"1901","name":"Bezirk Aarau"},"canton":{"key":"19","code":"AG","name":"Aargau"},"status":"Real"},{"key":"10242979","name":"Gänstelblick","postalCode":"5722","locality":"Gränichen","commune":{"key":"4006","name":"Gränichen","shortName":"Gränichen"},"district":{"key":"1901","name":"Bezirk Aarau"},"canton":{"key":"19","code":"AG","name":"Aargau"},"status":"Real"},{"key":"10029889","name":"Gänstelfeldweg","postalCode":"5722","locality":"Gränichen","commune":{"key":"4006","name":"Gränichen","shortName":"Gränichen"},"district":{"key":"1901","name":"Bezirk Aarau"},"canton":{"key":"19","code":"AG","name":"Aargau"},"status":"Real"},{"key":"10164160","name":"Gänstelhalde","postalCode":"5722","locality":"Gränichen","commune":{"key":"4006","name":"Gränichen","shortName":"Gränichen"},"district":{"key":"1901","name":"Bezirk Aarau"},"canton":{"key":"19","code":"AG","name":"Aargau"},"status":"Real"},{"key":"10112739","name":"Gänstelstrasse","postalCode":"5722","locality":"Gränichen","commune":{"key":"4006","name":"Gränichen","shortName":"Gränichen"},"district":{"key":"1901","name":"Bezirk Aarau"},"canton":{"key":"19","code":"AG","name":"Aargau"},"status":"Real"},{"key":"10029890","name":"Gartenweg","postalCode":"5722","locality":"Gränichen","commune":{"key":"4006","name":"Gränichen","shortName":"Gränichen"},"district":{"key":"1901","name":"Bezirk Aarau"},"canton":{"key":"19","code":"AG","name":"Aargau"},"status":"Real"},{"key":"10167795","name":"Geissflueweg","postalCode":"5722","locality":"Gränichen","commune":{"key":"4006","name":"Gränichen","shortName":"Gränichen"},"district":{"key":"1901","name":"Bezirk Aarau"},"canton":{"key":"19","code":"AG","name":"Aargau"},"status":"Real"},{"key":"10100891","name":"Gisliflueweg","postalCode":"5722","locality":"Gränichen","commune":{"key":"4006","name":"Gränichen","shortName":"Gränichen"},"district":{"key":"1901","name":"Bezirk Aarau"},"canton":{"key":"19","code":"AG","name":"Aargau"},"status":"Real"},{"key":"10093873","name":"Grubenweg","postalCode":"5722","locality":"Gränichen","commune":{"key":"4006","name":"Gränichen","shortName":"Gränichen"},"district":{"key":"1901","name":"Bezirk Aarau"},"canton":{"key":"19","code":"AG","name":"Aargau"},"status":"Real"},{"key":"10052856","name":"Gulm","postalCode":"5722","locality":"Gränichen","commune":{"key":"4006","name":"Gränichen","shortName":"Gränichen"},"district":{"key":"1901","name":"Bezirk Aarau"},"canton":{"key":"19","code":"AG","name":"Aargau"},"status":"Real"},{"key":"10128316","name":"Gulmhof","postalCode":"5722","locality":"Gränichen","commune":{"key":"4006","name":"Gränichen","shortName":"Gränichen"},"district":{"key":"1901","name":"Bezirk Aarau"},"canton":{"key":"19","code":"AG","name":"Aargau"},"status":"Real"},{"key":"10052689","name":"Hangweg","postalCode":"5722","locality":"Gränichen","commune":{"key":"4006","name":"Gränichen","shortName":"Gränichen"},"district":{"key":"1901","name":"Bezirk Aarau"},"canton":{"key":"19","code":"AG","name":"Aargau"},"status":"Real"},{"key":"10180796","name":"Haselweg","postalCode":"5722","locality":"Gränichen","commune":{"key":"4006","name":"Gränichen","shortName":"Gränichen"},"district":{"key":"1901","name":"Bezirk Aarau"},"canton":{"key":"19","code":"AG","name":"Aargau"},"status":"Real"},{"key":"10136171","name":"Herbstweg","postalCode":"5722","locality":"Gränichen","commune":{"key":"4006","name":"Gränichen","shortName":"Gränichen"},"district":{"key":"1901","name":"Bezirk Aarau"},"canton":{"key":"19","code":"AG","name":"Aargau"},"status":"Real"},{"key":"10052690","name":"Herzbergweg","postalCode":"5722","locality":"Gränichen","commune":{"key":"4006","name":"Gränichen","shortName":"Gränichen"},"district":{"key":"1901","name":"Bezirk Aarau"},"canton":{"key":"19","code":"AG","name":"Aargau"},"status":"Real"},{"key":"10242155","name":"Heuweg","postalCode":"5722","locality":"Gränichen","commune":{"key":"4006","name":"Gränichen","shortName":"Gränichen"},"district":{"key":"1901","name":"Bezirk Aarau"},"canton":{"key":"19","code":"AG","name":"Aargau"},"status":"Real"},{"key":"10029891","name":"Hintere Gasse","postalCode":"5722","locality":"Gränichen","commune":{"key":"4006","name":"Gränichen","shortName":"Gränichen"},"district":{"key":"1901","name":"Bezirk Aarau"},"canton":{"key":"19","code":"AG","name":"Aargau"},"status":"Real"},{"key":"10093874","name":"Hinterer Badweg","postalCode":"5722","locality":"Gränichen","commune":{"key":"4006","name":"Gränichen","shortName":"Gränichen"},"district":{"key":"1901","name":"Bezirk Aarau"},"canton":{"key":"19","code":"AG","name":"Aargau"},"status":"Real"},{"key":"10071340","name":"Hinterhagweg","postalCode":"5722","locality":"Gränichen","commune":{"key":"4006","name":"Gränichen","shortName":"Gränichen"},"district":{"key":"1901","name":"Bezirk Aarau"},"canton":{"key":"19","code":"AG","name":"Aargau"},"status":"Real"},{"key":"10052691","name":"Hochspüelstrasse","postalCode":"5722","locality":"Gränichen","commune":{"key":"4006","name":"Gränichen","shortName":"Gränichen"},"district":{"key":"1901","name":"Bezirk Aarau"},"canton":{"key":"19","code":"AG","name":"Aargau"},"status":"Real"},{"key":"10029892","name":"Hofmatt","postalCode":"5722","locality":"Gränichen","commune":{"key":"4006","name":"Gränichen","shortName":"Gränichen"},"district":{"key":"1901","name":"Bezirk Aarau"},"canton":{"key":"19","code":"AG","name":"Aargau"},"status":"Real"},{"key":"10071341","name":"Höhenweg","postalCode":"5722","locality":"Gränichen","commune":{"key":"4006","name":"Gränichen","shortName":"Gränichen"},"district":{"key":"1901","name":"Bezirk Aarau"},"canton":{"key":"19","code":"AG","name":"Aargau"},"status":"Real"},{"key":"10238676","name":"Hohlgasse","postalCode":"5722","locality":"Gränichen","commune":{"key":"4006","name":"Gränichen","shortName":"Gränichen"},"district":{"key":"1901","name":"Bezirk Aarau"},"canton":{"key":"19","code":"AG","name":"Aargau"},"status":"Real"},{"key":"10093875","name":"Höllstutz","postalCode":"5722","locality":"Gränichen","commune":{"key":"4006","name":"Gränichen","shortName":"Gränichen"},"district":{"key":"1901","name":"Bezirk Aarau"},"canton":{"key":"19","code":"AG","name":"Aargau"},"status":"Real"},{"key":"10029893","name":"Holtengraben","postalCode":"5722","locality":"Gränichen","commune":{"key":"4006","name":"Gränichen","shortName":"Gränichen"},"district":{"key":"1901","name":"Bezirk Aarau"},"canton":{"key":"19","code":"AG","name":"Aargau"},"status":"Real"},{"key":"10029894","name":"Holtenstrasse","postalCode":"5722","locality":"Gränichen","commune":{"key":"4006","name":"Gränichen","shortName":"Gränichen"},"district":{"key":"1901","name":"Bezirk Aarau"},"canton":{"key":"19","code":"AG","name":"Aargau"},"status":"Real"},{"key":"10168204","name":"Hübelmatt","postalCode":"5722","locality":"Gränichen","commune":{"key":"4006","name":"Gränichen","shortName":"Gränichen"},"district":{"key":"1901","name":"Bezirk Aarau"},"canton":{"key":"19","code":"AG","name":"Aargau"},"status":"Real"},{"key":"10052692","name":"Hübelweg","postalCode":"5722","locality":"Gränichen","commune":{"key":"4006","name":"Gränichen","shortName":"Gränichen"},"district":{"key":"1901","name":"Bezirk Aarau"},"canton":{"key":"19","code":"AG","name":"Aargau"},"status":"Real"},{"key":"10144374","name":"Hummelweg","postalCode":"5722","locality":"Gränichen","commune":{"key":"4006","name":"Gränichen","shortName":"Gränichen"},"district":{"key":"1901","name":"Bezirk Aarau"},"canton":{"key":"19","code":"AG","name":"Aargau"},"status":"Real"},{"key":"10118641","name":"Igelweg","postalCode":"5722","locality":"Gränichen","commune":{"key":"4006","name":"Gränichen","shortName":"Gränichen"},"district":{"key":"1901","name":"Bezirk Aarau"},"canton":{"key":"19","code":"AG","name":"Aargau"},"status":"Real"},{"key":"10117224","name":"Im Grund","postalCode":"5722","locality":"Gränichen","commune":{"key":"4006","name":"Gränichen","shortName":"Gränichen"},"district":{"key":"1901","name":"Bezirk Aarau"},"canton":{"key":"19","code":"AG","name":"Aargau"},"status":"Real"},{"key":"10180797","name":"In der Ei","postalCode":"5722","locality":"Gränichen","commune":{"key":"4006","name":"Gränichen","shortName":"Gränichen"},"district":{"key":"1901","name":"Bezirk Aarau"},"canton":{"key":"19","code":"AG","name":"Aargau"},"status":"Real"},{"key":"10071342","name":"Industriestrasse","postalCode":"5722","locality":"Gränichen","commune":{"key":"4006","name":"Gränichen","shortName":"Gränichen"},"district":{"key":"1901","name":"Bezirk Aarau"},"canton":{"key":"19","code":"AG","name":"Aargau"},"status":"Real"},{"key":"10093876","name":"Jurablick","postalCode":"5722","locality":"Gränichen","commune":{"key":"4006","name":"Gränichen","shortName":"Gränichen"},"district":{"key":"1901","name":"Bezirk Aarau"},"canton":{"key":"19","code":"AG","name":"Aargau"},"status":"Real"},{"key":"10029895","name":"Juraweg","postalCode":"5722","locality":"Gränichen","commune":{"key":"4006","name":"Gränichen","shortName":"Gränichen"},"district":{"key":"1901","name":"Bezirk Aarau"},"canton":{"key":"19","code":"AG","name":"Aargau"},"status":"Real"},{"key":"10052693","name":"Kapellenweg","postalCode":"5722","locality":"Gränichen","commune":{"key":"4006","name":"Gränichen","shortName":"Gränichen"},"district":{"key":"1901","name":"Bezirk Aarau"},"canton":{"key":"19","code":"AG","name":"Aargau"},"status":"Real"},{"key":"10117262","name":"Käsereiweg","postalCode":"5722","locality":"Gränichen","commune":{"key":"4006","name":"Gränichen","shortName":"Gränichen"},"district":{"key":"1901","name":"Bezirk Aarau"},"canton":{"key":"19","code":"AG","name":"Aargau"},"status":"Real"},{"key":"10029896","name":"Kirchenbündten","postalCode":"5722","locality":"Gränichen","commune":{"key":"4006","name":"Gränichen","shortName":"Gränichen"},"district":{"key":"1901","name":"Bezirk Aarau"},"canton":{"key":"19","code":"AG","name":"Aargau"},"status":"Real"},{"key":"10093877","name":"Kirchenfeldstrasse","postalCode":"5722","locality":"Gränichen","commune":{"key":"4006","name":"Gränichen","shortName":"Gränichen"},"district":{"key":"1901","name":"Bezirk Aarau"},"canton":{"key":"19","code":"AG","name":"Aargau"},"status":"Real"},{"key":"10071343","name":"Kirchhübelweg","postalCode":"5722","locality":"Gränichen","commune":{"key":"4006","name":"Gränichen","shortName":"Gränichen"},"district":{"key":"1901","name":"Bezirk Aarau"},"canton":{"key":"19","code":"AG","name":"Aargau"},"status":"Real"},{"key":"10100892","name":"Kirchweg","postalCode":"5722","locality":"Gränichen","commune":{"key":"4006","name":"Gränichen","shortName":"Gränichen"},"district":{"key":"1901","name":"Bezirk Aarau"},"canton":{"key":"19","code":"AG","name":"Aargau"},"status":"Real"},{"key":"10029897","name":"Kornweg","postalCode":"5722","locality":"Gränichen","commune":{"key":"4006","name":"Gränichen","shortName":"Gränichen"},"district":{"key":"1901","name":"Bezirk Aarau"},"canton":{"key":"19","code":"AG","name":"Aargau"},"status":"Real"},{"key":"10029898","name":"Kröttligasse","postalCode":"5722","locality":"Gränichen","commune":{"key":"4006","name":"Gränichen","shortName":"Gränichen"},"district":{"key":"1901","name":"Bezirk Aarau"},"canton":{"key":"19","code":"AG","name":"Aargau"},"status":"Real"},{"key":"10029899","name":"Küferweg","postalCode":"5722","locality":"Gränichen","commune":{"key":"4006","name":"Gränichen","shortName":"Gränichen"},"district":{"key":"1901","name":"Bezirk Aarau"},"canton":{"key":"19","code":"AG","name":"Aargau"},"status":"Real"},{"key":"10030185","name":"Leerber","postalCode":"5722","locality":"Gränichen","commune":{"key":"4006","name":"Gränichen","shortName":"Gränichen"},"district":{"key":"1901","name":"Bezirk Aarau"},"canton":{"key":"19","code":"AG","name":"Aargau"},"status":"Real"},{"key":"10093878","name":"Lerchenweg","postalCode":"5722","locality":"Gränichen","commune":{"key":"4006","name":"Gränichen","shortName":"Gränichen"},"district":{"key":"1901","name":"Bezirk Aarau"},"canton":{"key":"19","code":"AG","name":"Aargau"},"status":"Real"},{"key":"10172164","name":"Libellenweg","postalCode":"5722","locality":"Gränichen","commune":{"key":"4006","name":"Gränichen","shortName":"Gränichen"},"district":{"key":"1901","name":"Bezirk Aarau"},"canton":{"key":"19","code":"AG","name":"Aargau"},"status":"Real"},{"key":"10191499","name":"Liebegg","postalCode":"5722","locality":"Gränichen","commune":{"key":"4006","name":"Gränichen","shortName":"Gränichen"},"district":{"key":"1901","name":"Bezirk Aarau"},"canton":{"key":"19","code":"AG","name":"Aargau"},"status":"Real"},{"key":"10180798","name":"Lindenplatz","postalCode":"5722","locality":"Gränichen","commune":{"key":"4006","name":"Gränichen","shortName":"Gränichen"},"district":{"key":"1901","name":"Bezirk Aarau"},"canton":{"key":"19","code":"AG","name":"Aargau"},"status":"Real"},{"key":"10052694","name":"Lochgasse","postalCode":"5722","locality":"Gränichen","commune":{"key":"4006","name":"Gränichen","shortName":"Gränichen"},"district":{"key":"1901","name":"Bezirk Aarau"},"canton":{"key":"19","code":"AG","name":"Aargau"},"status":"Real"},{"key":"10138156","name":"Lochweg","postalCode":"5722","locality":"Gränichen","commune":{"key":"4006","name":"Gränichen","shortName":"Gränichen"},"district":{"key":"1901","name":"Bezirk Aarau"},"canton":{"key":"19","code":"AG","name":"Aargau"},"status":"Real"},{"key":"10071344","name":"Mattenstrasse","postalCode":"5722","locality":"Gränichen","commune":{"key":"4006","name":"Gränichen","shortName":"Gränichen"},"district":{"key":"1901","name":"Bezirk Aarau"},"canton":{"key":"19","code":"AG","name":"Aargau"},"status":"Real"},{"key":"10108127","name":"Meisenweg","postalCode":"5722","locality":"Gränichen","commune":{"key":"4006","name":"Gränichen","shortName":"Gränichen"},"district":{"key":"1901","name":"Bezirk Aarau"},"canton":{"key":"19","code":"AG","name":"Aargau"},"status":"Real"},{"key":"10030186","name":"Mitteldorfstrasse","postalCode":"5722","locality":"Gränichen","commune":{"key":"4006","name":"Gränichen","shortName":"Gränichen"},"district":{"key":"1901","name":"Bezirk Aarau"},"canton":{"key":"19","code":"AG","name":"Aargau"},"status":"Real"},{"key":"10093879","name":"Moortalstrasse","postalCode":"5722","locality":"Gränichen","commune":{"key":"4006","name":"Gränichen","shortName":"Gränichen"},"district":{"key":"1901","name":"Bezirk Aarau"},"canton":{"key":"19","code":"AG","name":"Aargau"},"status":"Real"},{"key":"10052695","name":"Moosweg","postalCode":"5722","locality":"Gränichen","commune":{"key":"4006","name":"Gränichen","shortName":"Gränichen"},"district":{"key":"1901","name":"Bezirk Aarau"},"canton":{"key":"19","code":"AG","name":"Aargau"},"status":"Real"},{"key":"10126409","name":"Mühlemattweg","postalCode":"5722","locality":"Gränichen","commune":{"key":"4006","name":"Gränichen","shortName":"Gränichen"},"district":{"key":"1901","name":"Bezirk Aarau"},"canton":{"key":"19","code":"AG","name":"Aargau"},"status":"Real"},{"key":"10100893","name":"Mühleweg","postalCode":"5722","locality":"Gränichen","commune":{"key":"4006","name":"Gränichen","shortName":"Gränichen"},"district":{"key":"1901","name":"Bezirk Aarau"},"canton":{"key":"19","code":"AG","name":"Aargau"},"status":"Real"},{"key":"10030187","name":"Muracherstrasse","postalCode":"5722","locality":"Gränichen","commune":{"key":"4006","name":"Gränichen","shortName":"Gränichen"},"district":{"key":"1901","name":"Bezirk Aarau"},"canton":{"key":"19","code":"AG","name":"Aargau"},"status":"Real"},{"key":"10071345","name":"Niderfeldweg","postalCode":"5722","locality":"Gränichen","commune":{"key":"4006","name":"Gränichen","shortName":"Gränichen"},"district":{"key":"1901","name":"Bezirk Aarau"},"canton":{"key":"19","code":"AG","name":"Aargau"},"status":"Real"},{"key":"10030188","name":"Nordring","postalCode":"5722","locality":"Gränichen","commune":{"key":"4006","name":"Gränichen","shortName":"Gränichen"},"district":{"key":"1901","name":"Bezirk Aarau"},"canton":{"key":"19","code":"AG","name":"Aargau"},"status":"Real"},{"key":"10052696","name":"Nordstrasse","postalCode":"5722","locality":"Gränichen","commune":{"key":"4006","name":"Gränichen","shortName":"Gränichen"},"district":{"key":"1901","name":"Bezirk Aarau"},"canton":{"key":"19","code":"AG","name":"Aargau"},"status":"Real"},{"key":"10093880","name":"Oberdorfstrasse","postalCode":"5722","locality":"Gränichen","commune":{"key":"4006","name":"Gränichen","shortName":"Gränichen"},"district":{"key":"1901","name":"Bezirk Aarau"},"canton":{"key":"19","code":"AG","name":"Aargau"},"status":"Real"},{"key":"10030189","name":"Oberer Badweg","postalCode":"5722","locality":"Gränichen","commune":{"key":"4006","name":"Gränichen","shortName":"Gränichen"},"district":{"key":"1901","name":"Bezirk Aarau"},"canton":{"key":"19","code":"AG","name":"Aargau"},"status":"Real"},{"key":"10030190","name":"Oberes Refental","postalCode":"5722","locality":"Gränichen","commune":{"key":"4006","name":"Gränichen","shortName":"Gränichen"},"district":{"key":"1901","name":"Bezirk Aarau"},"canton":{"key":"19","code":"AG","name":"Aargau"},"status":"Real"},{"key":"10120078","name":"Oberfeldstrasse","postalCode":"5722","locality":"Gränichen","commune":{"key":"4006","name":"Gränichen","shortName":"Gränichen"},"district":{"key":"1901","name":"Bezirk Aarau"},"canton":{"key":"19","code":"AG","name":"Aargau"},"status":"Real"},{"key":"10071346","name":"Obstgartenweg","postalCode":"5722","locality":"Gränichen","commune":{"key":"4006","name":"Gränichen","shortName":"Gränichen"},"district":{"key":"1901","name":"Bezirk Aarau"},"canton":{"key":"19","code":"AG","name":"Aargau"},"status":"Real"},{"key":"10093881","name":"Pfendelweg","postalCode":"5722","locality":"Gränichen","commune":{"key":"4006","name":"Gränichen","shortName":"Gränichen"},"district":{"key":"1901","name":"Bezirk Aarau"},"canton":{"key":"19","code":"AG","name":"Aargau"},"status":"Real"},{"key":"10180799","name":"Pilatusweg","postalCode":"5722","locality":"Gränichen","commune":{"key":"4006","name":"Gränichen","shortName":"Gränichen"},"district":{"key":"1901","name":"Bezirk Aarau"},"canton":{"key":"19","code":"AG","name":"Aargau"},"status":"Real"},{"key":"10052697","name":"Postweg","postalCode":"5722","locality":"Gränichen","commune":{"key":"4006","name":"Gränichen","shortName":"Gränichen"},"district":{"key":"1901","name":"Bezirk Aarau"},"canton":{"key":"19","code":"AG","name":"Aargau"},"status":"Real"},{"key":"10030191","name":"Quellstrasse","postalCode":"5722","locality":"Gränichen","commune":{"key":"4006","name":"Gränichen","shortName":"Gränichen"},"district":{"key":"1901","name":"Bezirk Aarau"},"canton":{"key":"19","code":"AG","name":"Aargau"},"status":"Real"},{"key":"10052698","name":"Rainweg","postalCode":"5722","locality":"Gränichen","commune":{"key":"4006","name":"Gränichen","shortName":"Gränichen"},"district":{"key":"1901","name":"Bezirk Aarau"},"canton":{"key":"19","code":"AG","name":"Aargau"},"status":"Real"},{"key":"10030192","name":"Rankrain","postalCode":"5722","locality":"Gränichen","commune":{"key":"4006","name":"Gränichen","shortName":"Gränichen"},"district":{"key":"1901","name":"Bezirk Aarau"},"canton":{"key":"19","code":"AG","name":"Aargau"},"status":"Real"},{"key":"10071347","name":"Rebenweg","postalCode":"5722","locality":"Gränichen","commune":{"key":"4006","name":"Gränichen","shortName":"Gränichen"},"district":{"key":"1901","name":"Bezirk Aarau"},"canton":{"key":"19","code":"AG","name":"Aargau"},"status":"Real"},{"key":"10093882","name":"Rebhaldenweg","postalCode":"5722","locality":"Gränichen","commune":{"key":"4006","name":"Gränichen","shortName":"Gränichen"},"district":{"key":"1901","name":"Bezirk Aarau"},"canton":{"key":"19","code":"AG","name":"Aargau"},"status":"Real"},{"key":"10100894","name":"Refentalstrasse","postalCode":"5722","locality":"Gränichen","commune":{"key":"4006","name":"Gränichen","shortName":"Gränichen"},"district":{"key":"1901","name":"Bezirk Aarau"},"canton":{"key":"19","code":"AG","name":"Aargau"},"status":"Real"},{"key":"10071348","name":"Risi","postalCode":"5722","locality":"Gränichen","commune":{"key":"4006","name":"Gränichen","shortName":"Gränichen"},"district":{"key":"1901","name":"Bezirk Aarau"},"canton":{"key":"19","code":"AG","name":"Aargau"},"status":"Real"},{"key":"10030193","name":"Rosenweg","postalCode":"5722","locality":"Gränichen","commune":{"key":"4006","name":"Gränichen","shortName":"Gränichen"},"district":{"key":"1901","name":"Bezirk Aarau"},"canton":{"key":"19","code":"AG","name":"Aargau"},"status":"Real"},{"key":"10180800","name":"Rütenenstrasse","postalCode":"5722","locality":"Gränichen","commune":{"key":"4006","name":"Gränichen","shortName":"Gränichen"},"district":{"key":"1901","name":"Bezirk Aarau"},"canton":{"key":"19","code":"AG","name":"Aargau"},"status":"Real"},{"key":"10051815","name":"Rütihof","postalCode":"5722","locality":"Gränichen","commune":{"key":"4006","name":"Gränichen","shortName":"Gränichen"},"district":{"key":"1901","name":"Bezirk Aarau"},"canton":{"key":"19","code":"AG","name":"Aargau"},"status":"Real"},{"key":"10109558","name":"Rütihofstrasse","postalCode":"5722","locality":"Gränichen","commune":{"key":"4006","name":"Gränichen","shortName":"Gränichen"},"district":{"key":"1901","name":"Bezirk Aarau"},"canton":{"key":"19","code":"AG","name":"Aargau"},"status":"Real"},{"key":"10071349","name":"Ruus","postalCode":"5722","locality":"Gränichen","commune":{"key":"4006","name":"Gränichen","shortName":"Gränichen"},"district":{"key":"1901","name":"Bezirk Aarau"},"canton":{"key":"19","code":"AG","name":"Aargau"},"status":"Real"},{"key":"10158717","name":"Rynetelgasse","postalCode":"5722","locality":"Gränichen","commune":{"key":"4006","name":"Gränichen","shortName":"Gränichen"},"district":{"key":"1901","name":"Bezirk Aarau"},"canton":{"key":"19","code":"AG","name":"Aargau"},"status":"Real"},{"key":"10093883","name":"Rynetelstrasse","postalCode":"5722","locality":"Gränichen","commune":{"key":"4006","name":"Gränichen","shortName":"Gränichen"},"district":{"key":"1901","name":"Bezirk Aarau"},"canton":{"key":"19","code":"AG","name":"Aargau"},"status":"Real"},{"key":"10030194","name":"Sagiweg","postalCode":"5722","locality":"Gränichen","commune":{"key":"4006","name":"Gränichen","shortName":"Gränichen"},"district":{"key":"1901","name":"Bezirk Aarau"},"canton":{"key":"19","code":"AG","name":"Aargau"},"status":"Real"},{"key":"10112740","name":"Salbeiweg","postalCode":"5722","locality":"Gränichen","commune":{"key":"4006","name":"Gränichen","shortName":"Gränichen"},"district":{"key":"1901","name":"Bezirk Aarau"},"canton":{"key":"19","code":"AG","name":"Aargau"},"status":"Real"},{"key":"10093884","name":"Sattelmätteliweg","postalCode":"5722","locality":"Gränichen","commune":{"key":"4006","name":"Gränichen","shortName":"Gränichen"},"district":{"key":"1901","name":"Bezirk Aarau"},"canton":{"key":"19","code":"AG","name":"Aargau"},"status":"Real"},{"key":"10030195","name":"Schachen","postalCode":"5722","locality":"Gränichen","commune":{"key":"4006","name":"Gränichen","shortName":"Gränichen"},"district":{"key":"1901","name":"Bezirk Aarau"},"canton":{"key":"19","code":"AG","name":"Aargau"},"status":"Real"},{"key":"10030196","name":"Schaltenmattweg","postalCode":"5722","locality":"Gränichen","commune":{"key":"4006","name":"Gränichen","shortName":"Gränichen"},"district":{"key":"1901","name":"Bezirk Aarau"},"canton":{"key":"19","code":"AG","name":"Aargau"},"status":"Real"},{"key":"10191500","name":"Schiffländi","postalCode":"5722","locality":"Gränichen","commune":{"key":"4006","name":"Gränichen","shortName":"Gränichen"},"district":{"key":"1901","name":"Bezirk Aarau"},"canton":{"key":"19","code":"AG","name":"Aargau"},"status":"Real"},{"key":"10030197","name":"Schmiedgasse","postalCode":"5722","locality":"Gränichen","commune":{"key":"4006","name":"Gränichen","shortName":"Gränichen"},"district":{"key":"1901","name":"Bezirk Aarau"},"canton":{"key":"19","code":"AG","name":"Aargau"},"status":"Real"},{"key":"10164161","name":"Schulthessweg","postalCode":"5722","locality":"Gränichen","commune":{"key":"4006","name":"Gränichen","shortName":"Gränichen"},"district":{"key":"1901","name":"Bezirk Aarau"},"canton":{"key":"19","code":"AG","name":"Aargau"},"status":"Real"},{"key":"10030198","name":"Schulweg","postalCode":"5722","locality":"Gränichen","commune":{"key":"4006","name":"Gränichen","shortName":"Gränichen"},"district":{"key":"1901","name":"Bezirk Aarau"},"canton":{"key":"19","code":"AG","name":"Aargau"},"status":"Real"},{"key":"10093885","name":"Schürbergstrasse","postalCode":"5722","locality":"Gränichen","commune":{"key":"4006","name":"Gränichen","shortName":"Gränichen"},"district":{"key":"1901","name":"Bezirk Aarau"},"canton":{"key":"19","code":"AG","name":"Aargau"},"status":"Real"},{"key":"10122146","name":"Schützenmauerweg","postalCode":"5722","locality":"Gränichen","commune":{"key":"4006","name":"Gränichen","shortName":"Gränichen"},"district":{"key":"1901","name":"Bezirk Aarau"},"canton":{"key":"19","code":"AG","name":"Aargau"},"status":"Real"},{"key":"10030199","name":"Schützenweg","postalCode":"5722","locality":"Gränichen","commune":{"key":"4006","name":"Gränichen","shortName":"Gränichen"},"district":{"key":"1901","name":"Bezirk Aarau"},"canton":{"key":"19","code":"AG","name":"Aargau"},"status":"Real"},{"key":"10030200","name":"Sommerstrasse","postalCode":"5722","locality":"Gränichen","commune":{"key":"4006","name":"Gränichen","shortName":"Gränichen"},"district":{"key":"1901","name":"Bezirk Aarau"},"canton":{"key":"19","code":"AG","name":"Aargau"},"status":"Real"},{"key":"10180801","name":"Sonnhalde","postalCode":"5722","locality":"Gränichen","commune":{"key":"4006","name":"Gränichen","shortName":"Gränichen"},"district":{"key":"1901","name":"Bezirk Aarau"},"canton":{"key":"19","code":"AG","name":"Aargau"},"status":"Real"},{"key":"10134428","name":"Spatzenweg","postalCode":"5722","locality":"Gränichen","commune":{"key":"4006","name":"Gränichen","shortName":"Gränichen"},"district":{"key":"1901","name":"Bezirk Aarau"},"canton":{"key":"19","code":"AG","name":"Aargau"},"status":"Real"},{"key":"10093886","name":"Sportplatzweg","postalCode":"5722","locality":"Gränichen","commune":{"key":"4006","name":"Gränichen","shortName":"Gränichen"},"district":{"key":"1901","name":"Bezirk Aarau"},"canton":{"key":"19","code":"AG","name":"Aargau"},"status":"Real"},{"key":"10146631","name":"Spycherweg","postalCode":"5722","locality":"Gränichen","commune":{"key":"4006","name":"Gränichen","shortName":"Gränichen"},"district":{"key":"1901","name":"Bezirk Aarau"},"canton":{"key":"19","code":"AG","name":"Aargau"},"status":"Real"},{"key":"10071350","name":"Strassäcker","postalCode":"5722","locality":"Gränichen","commune":{"key":"4006","name":"Gränichen","shortName":"Gränichen"},"district":{"key":"1901","name":"Bezirk Aarau"},"canton":{"key":"19","code":"AG","name":"Aargau"},"status":"Real"},{"key":"10030201","name":"Strickweg","postalCode":"5722","locality":"Gränichen","commune":{"key":"4006","name":"Gränichen","shortName":"Gränichen"},"district":{"key":"1901","name":"Bezirk Aarau"},"canton":{"key":"19","code":"AG","name":"Aargau"},"status":"Real"},{"key":"10030202","name":"Suhrerstrasse","postalCode":"5722","locality":"Gränichen","commune":{"key":"4006","name":"Gränichen","shortName":"Gränichen"},"district":{"key":"1901","name":"Bezirk Aarau"},"canton":{"key":"19","code":"AG","name":"Aargau"},"status":"Real"},{"key":"10030203","name":"Suhrzelgweg","postalCode":"5722","locality":"Gränichen","commune":{"key":"4006","name":"Gränichen","shortName":"Gränichen"},"district":{"key":"1901","name":"Bezirk Aarau"},"canton":{"key":"19","code":"AG","name":"Aargau"},"status":"Real"},{"key":"10105596","name":"Talbachstrasse","postalCode":"5722","locality":"Gränichen","commune":{"key":"4006","name":"Gränichen","shortName":"Gränichen"},"district":{"key":"1901","name":"Bezirk Aarau"},"canton":{"key":"19","code":"AG","name":"Aargau"},"status":"Real"},{"key":"10030204","name":"Taudelweg","postalCode":"5722","locality":"Gränichen","commune":{"key":"4006","name":"Gränichen","shortName":"Gränichen"},"district":{"key":"1901","name":"Bezirk Aarau"},"canton":{"key":"19","code":"AG","name":"Aargau"},"status":"Real"},{"key":"10093887","name":"Terrassenweg","postalCode":"5722","locality":"Gränichen","commune":{"key":"4006","name":"Gränichen","shortName":"Gränichen"},"district":{"key":"1901","name":"Bezirk Aarau"},"canton":{"key":"19","code":"AG","name":"Aargau"},"status":"Real"},{"key":"10071351","name":"Töndler","postalCode":"5722","locality":"Gränichen","commune":{"key":"4006","name":"Gränichen","shortName":"Gränichen"},"district":{"key":"1901","name":"Bezirk Aarau"},"canton":{"key":"19","code":"AG","name":"Aargau"},"status":"Real"},{"key":"10180802","name":"Tüele","postalCode":"5722","locality":"Gränichen","commune":{"key":"4006","name":"Gränichen","shortName":"Gränichen"},"district":{"key":"1901","name":"Bezirk Aarau"},"canton":{"key":"19","code":"AG","name":"Aargau"},"status":"Real"},{"key":"10117225","name":"Tulpenweg","postalCode":"5722","locality":"Gränichen","commune":{"key":"4006","name":"Gränichen","shortName":"Gränichen"},"district":{"key":"1901","name":"Bezirk Aarau"},"canton":{"key":"19","code":"AG","name":"Aargau"},"status":"Real"},{"key":"10112741","name":"Tunau","postalCode":"5722","locality":"Gränichen","commune":{"key":"4006","name":"Gränichen","shortName":"Gränichen"},"district":{"key":"1901","name":"Bezirk Aarau"},"canton":{"key":"19","code":"AG","name":"Aargau"},"status":"Real"},{"key":"10093888","name":"Unterdorfstrasse","postalCode":"5722","locality":"Gränichen","commune":{"key":"4006","name":"Gränichen","shortName":"Gränichen"},"district":{"key":"1901","name":"Bezirk Aarau"},"canton":{"key":"19","code":"AG","name":"Aargau"},"status":"Real"},{"key":"10071352","name":"Unteres Refental","postalCode":"5722","locality":"Gränichen","commune":{"key":"4006","name":"Gränichen","shortName":"Gränichen"},"district":{"key":"1901","name":"Bezirk Aarau"},"canton":{"key":"19","code":"AG","name":"Aargau"},"status":"Real"},{"key":"10030205","name":"Unterfeldstrasse","postalCode":"5722","locality":"Gränichen","commune":{"key":"4006","name":"Gränichen","shortName":"Gränichen"},"district":{"key":"1901","name":"Bezirk Aarau"},"canton":{"key":"19","code":"AG","name":"Aargau"},"status":"Real"},{"key":"10030206","name":"Vogelhütteweg","postalCode":"5722","locality":"Gränichen","commune":{"key":"4006","name":"Gränichen","shortName":"Gränichen"},"district":{"key":"1901","name":"Bezirk Aarau"},"canton":{"key":"19","code":"AG","name":"Aargau"},"status":"Real"},{"key":"10132648","name":"Vogelsang","postalCode":"5722","locality":"Gränichen","commune":{"key":"4006","name":"Gränichen","shortName":"Gränichen"},"district":{"key":"1901","name":"Bezirk Aarau"},"canton":{"key":"19","code":"AG","name":"Aargau"},"status":"Real"},{"key":"10030207","name":"Vogtsweg","postalCode":"5722","locality":"Gränichen","commune":{"key":"4006","name":"Gränichen","shortName":"Gränichen"},"district":{"key":"1901","name":"Bezirk Aarau"},"canton":{"key":"19","code":"AG","name":"Aargau"},"status":"Real"},{"key":"10071353","name":"Vorgasse","postalCode":"5722","locality":"Gränichen","commune":{"key":"4006","name":"Gränichen","shortName":"Gränichen"},"district":{"key":"1901","name":"Bezirk Aarau"},"canton":{"key":"19","code":"AG","name":"Aargau"},"status":"Real"},{"key":"10093889","name":"Vorstadtstrasse","postalCode":"5722","locality":"Gränichen","commune":{"key":"4006","name":"Gränichen","shortName":"Gränichen"},"district":{"key":"1901","name":"Bezirk Aarau"},"canton":{"key":"19","code":"AG","name":"Aargau"},"status":"Real"},{"key":"10180803","name":"Waldegg","postalCode":"5722","locality":"Gränichen","commune":{"key":"4006","name":"Gränichen","shortName":"Gränichen"},"district":{"key":"1901","name":"Bezirk Aarau"},"canton":{"key":"19","code":"AG","name":"Aargau"},"status":"Real"},{"key":"10030208","name":"Wasserflueweg","postalCode":"5722","locality":"Gränichen","commune":{"key":"4006","name":"Gränichen","shortName":"Gränichen"},"district":{"key":"1901","name":"Bezirk Aarau"},"canton":{"key":"19","code":"AG","name":"Aargau"},"status":"Real"},{"key":"10071354","name":"Wasserweg","postalCode":"5722","locality":"Gränichen","commune":{"key":"4006","name":"Gränichen","shortName":"Gränichen"},"district":{"key":"1901","name":"Bezirk Aarau"},"canton":{"key":"19","code":"AG","name":"Aargau"},"status":"Real"},{"key":"10112742","name":"Weidweg","postalCode":"5722","locality":"Gränichen","commune":{"key":"4006","name":"Gränichen","shortName":"Gränichen"},"district":{"key":"1901","name":"Bezirk Aarau"},"canton":{"key":"19","code":"AG","name":"Aargau"},"status":"Real"},{"key":"10093890","name":"Weierbachweg","postalCode":"5722","locality":"Gränichen","commune":{"key":"4006","name":"Gränichen","shortName":"Gränichen"},"district":{"key":"1901","name":"Bezirk Aarau"},"canton":{"key":"19","code":"AG","name":"Aargau"},"status":"Real"},{"key":"10030209","name":"Weiermatt","postalCode":"5722","locality":"Gränichen","commune":{"key":"4006","name":"Gränichen","shortName":"Gränichen"},"district":{"key":"1901","name":"Bezirk Aarau"},"canton":{"key":"19","code":"AG","name":"Aargau"},"status":"Real"},{"key":"10204767","name":"Weierwandweg","postalCode":"5722","locality":"Gränichen","commune":{"key":"4006","name":"Gränichen","shortName":"Gränichen"},"district":{"key":"1901","name":"Bezirk Aarau"},"canton":{"key":"19","code":"AG","name":"Aargau"},"status":"Real"},{"key":"10030210","name":"Weierweg","postalCode":"5722","locality":"Gränichen","commune":{"key":"4006","name":"Gränichen","shortName":"Gränichen"},"district":{"key":"1901","name":"Bezirk Aarau"},"canton":{"key":"19","code":"AG","name":"Aargau"},"status":"Real"},{"key":"10071355","name":"Wiesenweg","postalCode":"5722","locality":"Gränichen","commune":{"key":"4006","name":"Gränichen","shortName":"Gränichen"},"district":{"key":"1901","name":"Bezirk Aarau"},"canton":{"key":"19","code":"AG","name":"Aargau"},"status":"Real"},{"key":"10146227","name":"Winkelgasse","postalCode":"5722","locality":"Gränichen","commune":{"key":"4006","name":"Gränichen","shortName":"Gränichen"},"district":{"key":"1901","name":"Bezirk Aarau"},"canton":{"key":"19","code":"AG","name":"Aargau"},"status":"Real"},{"key":"10030211","name":"Winkelweg","postalCode":"5722","locality":"Gränichen","commune":{"key":"4006","name":"Gränichen","shortName":"Gränichen"},"district":{"key":"1901","name":"Bezirk Aarau"},"canton":{"key":"19","code":"AG","name":"Aargau"},"status":"Real"},{"key":"10130084","name":"Winterweg","postalCode":"5722","locality":"Gränichen","commune":{"key":"4006","name":"Gränichen","shortName":"Gränichen"},"district":{"key":"1901","name":"Bezirk Aarau"},"canton":{"key":"19","code":"AG","name":"Aargau"},"status":"Real"},{"key":"10030212","name":"Wydenweg","postalCode":"5722","locality":"Gränichen","commune":{"key":"4006","name":"Gränichen","shortName":"Gränichen"},"district":{"key":"1901","name":"Bezirk Aarau"},"canton":{"key":"19","code":"AG","name":"Aargau"},"status":"Real"},{"key":"10132219","name":"Wynenmattenweg","postalCode":"5722","locality":"Gränichen","commune":{"key":"4006","name":"Gränichen","shortName":"Gränichen"},"district":{"key":"1901","name":"Bezirk Aarau"},"canton":{"key":"19","code":"AG","name":"Aargau"},"status":"Real"},{"key":"10209381","name":"Zelg","postalCode":"5722","locality":"Gränichen","commune":{"key":"4006","name":"Gränichen","shortName":"Gränichen"},"district":{"key":"1901","name":"Bezirk Aarau"},"canton":{"key":"19","code":"AG","name":"Aargau"},"status":"Real"},{"key":"10093891","name":"Zilstrasse","postalCode":"5722","locality":"Gränichen","commune":{"key":"4006","name":"Gränichen","shortName":"Gränichen"},"district":{"key":"1901","name":"Bezirk Aarau"},"canton":{"key":"19","code":"AG","name":"Aargau"},"status":"Real"},{"key":"10180804","name":"Zopfweg","postalCode":"5722","locality":"Gränichen","commune":{"key":"4006","name":"Gränichen","shortName":"Gränichen"},"district":{"key":"1901","name":"Bezirk Aarau"},"canton":{"key":"19","code":"AG","name":"Aargau"},"status":"Real"},]