[{"name":"Absang","postalCode":"07366","locality":"Rosenthal am Rennsteig","municipality":{"key":"16075136","name":"Rosenthal am Rennsteig","type":"Kreisangehörige_Gemeinde"},"district":{"key":"16075","name":"Saale-Orla-Kreis","type":"Landkreis"},"federalState":{"key":"16","name":"Thüringen"}},{"name":"Absangerstr.","postalCode":"07366","locality":"Rosenthal am Rennsteig","municipality":{"key":"16075136","name":"Rosenthal am Rennsteig","type":"Kreisangehörige_Gemeinde"},"district":{"key":"16075","name":"Saale-Orla-Kreis","type":"Landkreis"},"federalState":{"key":"16","name":"Thüringen"}},{"name":"Alfred-Völkel-Str.","postalCode":"07366","locality":"Rosenthal am Rennsteig","municipality":{"key":"16075136","name":"Rosenthal am Rennsteig","type":"Kreisangehörige_Gemeinde"},"district":{"key":"16075","name":"Saale-Orla-Kreis","type":"Landkreis"},"federalState":{"key":"16","name":"Thüringen"}},{"name":"Alte 1","postalCode":"01824","locality":"Rosenthal-Bielatal","municipality":{"key":"14628340","name":"Rosenthal-Bielatal","type":"Kreisangehörige_Gemeinde"},"district":{"key":"14628","name":"Sächsische Schweiz-Osterzgebirge","type":"Landkreis"},"federalState":{"key":"14","name":"Sachsen"}},{"name":"Alter Heuweg","postalCode":"01824","locality":"Rosenthal-Bielatal","municipality":{"key":"14628340","name":"Rosenthal-Bielatal","type":"Kreisangehörige_Gemeinde"},"district":{"key":"14628","name":"Sächsische Schweiz-Osterzgebirge","type":"Landkreis"},"federalState":{"key":"14","name":"Sachsen"}},{"name":"Alte Rosenthaler Str.","postalCode":"01824","locality":"Rosenthal-Bielatal","municipality":{"key":"14628340","name":"Rosenthal-Bielatal","type":"Kreisangehörige_Gemeinde"},"district":{"key":"14628","name":"Sächsische Schweiz-Osterzgebirge","type":"Landkreis"},"federalState":{"key":"14","name":"Sachsen"}},{"name":"Alte Str.","postalCode":"01920","locality":"Ralbitz-Rosenthal","municipality":{"key":"14625500","name":"Ralbitz-Rosenthal / Ralbicy-Róžant","type":"Kreisangehörige_Gemeinde"},"district":{"key":"14625","name":"Bautzen","type":"Landkreis"},"federalState":{"key":"14","name":"Sachsen"}},{"name":"Alte Tetschener Str.","postalCode":"01824","locality":"Rosenthal-Bielatal","municipality":{"key":"14628340","name":"Rosenthal-Bielatal","type":"Kreisangehörige_Gemeinde"},"district":{"key":"14628","name":"Sächsische Schweiz-Osterzgebirge","type":"Landkreis"},"federalState":{"key":"14","name":"Sachsen"}},{"name":"Am Acker","postalCode":"07366","locality":"Rosenthal am Rennsteig","municipality":{"key":"16075136","name":"Rosenthal am Rennsteig","type":"Kreisangehörige_Gemeinde"},"district":{"key":"16075","name":"Saale-Orla-Kreis","type":"Landkreis"},"federalState":{"key":"16","name":"Thüringen"}},{"name":"Am Auenwald","postalCode":"01920","locality":"Ralbitz-Rosenthal","municipality":{"key":"14625500","name":"Ralbitz-Rosenthal / Ralbicy-Róžant","type":"Kreisangehörige_Gemeinde"},"district":{"key":"14625","name":"Bautzen","type":"Landkreis"},"federalState":{"key":"14","name":"Sachsen"}},{"name":"Am Bad","postalCode":"01824","locality":"Rosenthal-Bielatal","municipality":{"key":"14628340","name":"Rosenthal-Bielatal","type":"Kreisangehörige_Gemeinde"},"district":{"key":"14628","name":"Sächsische Schweiz-Osterzgebirge","type":"Landkreis"},"federalState":{"key":"14","name":"Sachsen"}},{"name":"Am Berg","postalCode":"35119","locality":"Rosenthal","municipality":{"key":"06635017","name":"Rosenthal, Stadt","type":"Stadt"},"district":{"key":"06635","name":"Waldeck-Frankenberg","type":"Landkreis"},"federalState":{"key":"06","name":"Hessen"}},{"name":"Am Bühl","postalCode":"07366","locality":"Rosenthal am Rennsteig","municipality":{"key":"16075136","name":"Rosenthal am Rennsteig","type":"Kreisangehörige_Gemeinde"},"district":{"key":"16075","name":"Saale-Orla-Kreis","type":"Landkreis"},"federalState":{"key":"16","name":"Thüringen"}},{"name":"Am Dammrasen","postalCode":"35119","locality":"Rosenthal","municipality":{"key":"06635017","name":"Rosenthal, Stadt","type":"Stadt"},"district":{"key":"06635","name":"Waldeck-Frankenberg","type":"Landkreis"},"federalState":{"key":"06","name":"Hessen"}},{"name":"Am Eichberg","postalCode":"01824","locality":"Rosenthal-Bielatal","municipality":{"key":"14628340","name":"Rosenthal-Bielatal","type":"Kreisangehörige_Gemeinde"},"district":{"key":"14628","name":"Sächsische Schweiz-Osterzgebirge","type":"Landkreis"},"federalState":{"key":"14","name":"Sachsen"}},{"name":"Am Graben","postalCode":"35119","locality":"Rosenthal","municipality":{"key":"06635017","name":"Rosenthal, Stadt","type":"Stadt"},"district":{"key":"06635","name":"Waldeck-Frankenberg","type":"Landkreis"},"federalState":{"key":"06","name":"Hessen"}},{"name":"Am Griesbühl","postalCode":"07366","locality":"Rosenthal am Rennsteig","municipality":{"key":"16075136","name":"Rosenthal am Rennsteig","type":"Kreisangehörige_Gemeinde"},"district":{"key":"16075","name":"Saale-Orla-Kreis","type":"Landkreis"},"federalState":{"key":"16","name":"Thüringen"}},{"name":"Am Hügel","postalCode":"01920","locality":"Ralbitz-Rosenthal","municipality":{"key":"14625500","name":"Ralbitz-Rosenthal / Ralbicy-Róžant","type":"Kreisangehörige_Gemeinde"},"district":{"key":"14625","name":"Bautzen","type":"Landkreis"},"federalState":{"key":"14","name":"Sachsen"}},{"name":"Am Käseküppel","postalCode":"35119","locality":"Rosenthal","municipality":{"key":"06635017","name":"Rosenthal, Stadt","type":"Stadt"},"district":{"key":"06635","name":"Waldeck-Frankenberg","type":"Landkreis"},"federalState":{"key":"06","name":"Hessen"}},{"name":"Am Klosterwasser","postalCode":"01920","locality":"Ralbitz-Rosenthal","municipality":{"key":"14625500","name":"Ralbitz-Rosenthal / Ralbicy-Róžant","type":"Kreisangehörige_Gemeinde"},"district":{"key":"14625","name":"Bautzen","type":"Landkreis"},"federalState":{"key":"14","name":"Sachsen"}},{"name":"Am Kohlberg","postalCode":"01824","locality":"Rosenthal-Bielatal","municipality":{"key":"14628340","name":"Rosenthal-Bielatal","type":"Kreisangehörige_Gemeinde"},"district":{"key":"14628","name":"Sächsische Schweiz-Osterzgebirge","type":"Landkreis"},"federalState":{"key":"14","name":"Sachsen"}},{"name":"Am Lauschebühl","postalCode":"07366","locality":"Rosenthal am Rennsteig","municipality":{"key":"16075136","name":"Rosenthal am Rennsteig","type":"Kreisangehörige_Gemeinde"},"district":{"key":"16075","name":"Saale-Orla-Kreis","type":"Landkreis"},"federalState":{"key":"16","name":"Thüringen"}},{"name":"Am Lohberg","postalCode":"35119","locality":"Rosenthal","municipality":{"key":"06635017","name":"Rosenthal, Stadt","type":"Stadt"},"district":{"key":"06635","name":"Waldeck-Frankenberg","type":"Landkreis"},"federalState":{"key":"06","name":"Hessen"}},{"name":"Am Marienbrunnen","postalCode":"01920","locality":"Ralbitz-Rosenthal","municipality":{"key":"14625500","name":"Ralbitz-Rosenthal / Ralbicy-Róžant","type":"Kreisangehörige_Gemeinde"},"district":{"key":"14625","name":"Bautzen","type":"Landkreis"},"federalState":{"key":"14","name":"Sachsen"}},{"name":"Am Moosberg","postalCode":"35119","locality":"Rosenthal","municipality":{"key":"06635017","name":"Rosenthal, Stadt","type":"Stadt"},"district":{"key":"06635","name":"Waldeck-Frankenberg","type":"Landkreis"},"federalState":{"key":"06","name":"Hessen"}},{"name":"Am Pfädchen","postalCode":"35119","locality":"Rosenthal","municipality":{"key":"06635017","name":"Rosenthal, Stadt","type":"Stadt"},"district":{"key":"06635","name":"Waldeck-Frankenberg","type":"Landkreis"},"federalState":{"key":"06","name":"Hessen"}},{"name":"Am Poststeig","postalCode":"01824","locality":"Rosenthal-Bielatal","municipality":{"key":"14628340","name":"Rosenthal-Bielatal","type":"Kreisangehörige_Gemeinde"},"district":{"key":"14628","name":"Sächsische Schweiz-Osterzgebirge","type":"Landkreis"},"federalState":{"key":"14","name":"Sachsen"}},{"name":"Am Rathaus","postalCode":"35119","locality":"Rosenthal","municipality":{"key":"06635017","name":"Rosenthal, Stadt","type":"Stadt"},"district":{"key":"06635","name":"Waldeck-Frankenberg","type":"Landkreis"},"federalState":{"key":"06","name":"Hessen"}},{"name":"Am Rennsteig","postalCode":"07366","locality":"Rosenthal am Rennsteig","municipality":{"key":"16075136","name":"Rosenthal am Rennsteig","type":"Kreisangehörige_Gemeinde"},"district":{"key":"16075","name":"Saale-Orla-Kreis","type":"Landkreis"},"federalState":{"key":"16","name":"Thüringen"}},{"name":"Am Sägewerk","postalCode":"01920","locality":"Ralbitz-Rosenthal","municipality":{"key":"14625500","name":"Ralbitz-Rosenthal / Ralbicy-Róžant","type":"Kreisangehörige_Gemeinde"},"district":{"key":"14625","name":"Bautzen","type":"Landkreis"},"federalState":{"key":"14","name":"Sachsen"}},{"name":"Am Schleifersberg","postalCode":"01824","locality":"Rosenthal-Bielatal","municipality":{"key":"14628340","name":"Rosenthal-Bielatal","type":"Kreisangehörige_Gemeinde"},"district":{"key":"14628","name":"Sächsische Schweiz-Osterzgebirge","type":"Landkreis"},"federalState":{"key":"14","name":"Sachsen"}},{"name":"Amselweg","postalCode":"35119","locality":"Rosenthal","municipality":{"key":"06635017","name":"Rosenthal, Stadt","type":"Stadt"},"district":{"key":"06635","name":"Waldeck-Frankenberg","type":"Landkreis"},"federalState":{"key":"06","name":"Hessen"}},{"name":"Am Stausee","postalCode":"07366","locality":"Rosenthal am Rennsteig","municipality":{"key":"16075136","name":"Rosenthal am Rennsteig","type":"Kreisangehörige_Gemeinde"},"district":{"key":"16075","name":"Saale-Orla-Kreis","type":"Landkreis"},"federalState":{"key":"16","name":"Thüringen"}},{"name":"Am Steinbruch","postalCode":"07366","locality":"Rosenthal am Rennsteig","municipality":{"key":"16075136","name":"Rosenthal am Rennsteig","type":"Kreisangehörige_Gemeinde"},"district":{"key":"16075","name":"Saale-Orla-Kreis","type":"Landkreis"},"federalState":{"key":"16","name":"Thüringen"}},{"name":"Am Suhl","postalCode":"07366","locality":"Rosenthal am Rennsteig","municipality":{"key":"16075136","name":"Rosenthal am Rennsteig","type":"Kreisangehörige_Gemeinde"},"district":{"key":"16075","name":"Saale-Orla-Kreis","type":"Landkreis"},"federalState":{"key":"16","name":"Thüringen"}},{"name":"Am Teichdamm","postalCode":"01920","locality":"Ralbitz-Rosenthal","municipality":{"key":"14625500","name":"Ralbitz-Rosenthal / Ralbicy-Róžant","type":"Kreisangehörige_Gemeinde"},"district":{"key":"14625","name":"Bautzen","type":"Landkreis"},"federalState":{"key":"14","name":"Sachsen"}},{"name":"Am Teiche","postalCode":"07366","locality":"Rosenthal am Rennsteig","municipality":{"key":"16075136","name":"Rosenthal am Rennsteig","type":"Kreisangehörige_Gemeinde"},"district":{"key":"16075","name":"Saale-Orla-Kreis","type":"Landkreis"},"federalState":{"key":"16","name":"Thüringen"}},{"name":"Am Wachhügel","postalCode":"07366","locality":"Rosenthal am Rennsteig","municipality":{"key":"16075136","name":"Rosenthal am Rennsteig","type":"Kreisangehörige_Gemeinde"},"district":{"key":"16075","name":"Saale-Orla-Kreis","type":"Landkreis"},"federalState":{"key":"16","name":"Thüringen"}},{"name":"Am Winkel","postalCode":"07366","locality":"Rosenthal am Rennsteig","municipality":{"key":"16075136","name":"Rosenthal am Rennsteig","type":"Kreisangehörige_Gemeinde"},"district":{"key":"16075","name":"Saale-Orla-Kreis","type":"Landkreis"},"federalState":{"key":"16","name":"Thüringen"}},{"name":"Am Winkel","postalCode":"35119","locality":"Rosenthal","municipality":{"key":"06635017","name":"Rosenthal, Stadt","type":"Stadt"},"district":{"key":"06635","name":"Waldeck-Frankenberg","type":"Landkreis"},"federalState":{"key":"06","name":"Hessen"}},{"name":"An den Linden","postalCode":"01824","locality":"Rosenthal-Bielatal","municipality":{"key":"14628340","name":"Rosenthal-Bielatal","type":"Kreisangehörige_Gemeinde"},"district":{"key":"14628","name":"Sächsische Schweiz-Osterzgebirge","type":"Landkreis"},"federalState":{"key":"14","name":"Sachsen"}},{"name":"An der Bent","postalCode":"07366","locality":"Rosenthal am Rennsteig","municipality":{"key":"16075136","name":"Rosenthal am Rennsteig","type":"Kreisangehörige_Gemeinde"},"district":{"key":"16075","name":"Saale-Orla-Kreis","type":"Landkreis"},"federalState":{"key":"16","name":"Thüringen"}},{"name":"An der Kuppel","postalCode":"07366","locality":"Rosenthal am Rennsteig","municipality":{"key":"16075136","name":"Rosenthal am Rennsteig","type":"Kreisangehörige_Gemeinde"},"district":{"key":"16075","name":"Saale-Orla-Kreis","type":"Landkreis"},"federalState":{"key":"16","name":"Thüringen"}},{"name":"An der Leite","postalCode":"07366","locality":"Rosenthal am Rennsteig","municipality":{"key":"16075136","name":"Rosenthal am Rennsteig","type":"Kreisangehörige_Gemeinde"},"district":{"key":"16075","name":"Saale-Orla-Kreis","type":"Landkreis"},"federalState":{"key":"16","name":"Thüringen"}},{"name":"An der Not","postalCode":"07366","locality":"Rosenthal am Rennsteig","municipality":{"key":"16075136","name":"Rosenthal am Rennsteig","type":"Kreisangehörige_Gemeinde"},"district":{"key":"16075","name":"Saale-Orla-Kreis","type":"Landkreis"},"federalState":{"key":"16","name":"Thüringen"}},{"name":"An der Seit","postalCode":"07366","locality":"Rosenthal am Rennsteig","municipality":{"key":"16075136","name":"Rosenthal am Rennsteig","type":"Kreisangehörige_Gemeinde"},"district":{"key":"16075","name":"Saale-Orla-Kreis","type":"Landkreis"},"federalState":{"key":"16","name":"Thüringen"}},{"name":"Anger","postalCode":"07366","locality":"Rosenthal am Rennsteig","municipality":{"key":"16075136","name":"Rosenthal am Rennsteig","type":"Kreisangehörige_Gemeinde"},"district":{"key":"16075","name":"Saale-Orla-Kreis","type":"Landkreis"},"federalState":{"key":"16","name":"Thüringen"}},{"name":"Anton-Wiede-Str.","postalCode":"07366","locality":"Rosenthal am Rennsteig","municipality":{"key":"16075136","name":"Rosenthal am Rennsteig","type":"Kreisangehörige_Gemeinde"},"district":{"key":"16075","name":"Saale-Orla-Kreis","type":"Landkreis"},"federalState":{"key":"16","name":"Thüringen"}},{"name":"Arlas","postalCode":"07366","locality":"Rosenthal am Rennsteig","municipality":{"key":"16075136","name":"Rosenthal am Rennsteig","type":"Kreisangehörige_Gemeinde"},"district":{"key":"16075","name":"Saale-Orla-Kreis","type":"Landkreis"},"federalState":{"key":"16","name":"Thüringen"}},{"name":"Arlaser Weg","postalCode":"07366","locality":"Rosenthal am Rennsteig","municipality":{"key":"16075136","name":"Rosenthal am Rennsteig","type":"Kreisangehörige_Gemeinde"},"district":{"key":"16075","name":"Saale-Orla-Kreis","type":"Landkreis"},"federalState":{"key":"16","name":"Thüringen"}},{"name":"Bahnhofstr.","postalCode":"07366","locality":"Rosenthal am Rennsteig","municipality":{"key":"16075136","name":"Rosenthal am Rennsteig","type":"Kreisangehörige_Gemeinde"},"district":{"key":"16075","name":"Saale-Orla-Kreis","type":"Landkreis"},"federalState":{"key":"16","name":"Thüringen"}},{"name":"Bahraer Str.","postalCode":"01824","locality":"Rosenthal-Bielatal","municipality":{"key":"14628340","name":"Rosenthal-Bielatal","type":"Kreisangehörige_Gemeinde"},"district":{"key":"14628","name":"Sächsische Schweiz-Osterzgebirge","type":"Landkreis"},"federalState":{"key":"14","name":"Sachsen"}},{"name":"Baumgartenweg","postalCode":"07366","locality":"Rosenthal am Rennsteig","municipality":{"key":"16075136","name":"Rosenthal am Rennsteig","type":"Kreisangehörige_Gemeinde"},"district":{"key":"16075","name":"Saale-Orla-Kreis","type":"Landkreis"},"federalState":{"key":"16","name":"Thüringen"}},{"name":"Bayrische Str.","postalCode":"07366","locality":"Rosenthal am Rennsteig","municipality":{"key":"16075136","name":"Rosenthal am Rennsteig","type":"Kreisangehörige_Gemeinde"},"district":{"key":"16075","name":"Saale-Orla-Kreis","type":"Landkreis"},"federalState":{"key":"16","name":"Thüringen"}},{"name":"Beerholzweg","postalCode":"07366","locality":"Rosenthal am Rennsteig","municipality":{"key":"16075136","name":"Rosenthal am Rennsteig","type":"Kreisangehörige_Gemeinde"},"district":{"key":"16075","name":"Saale-Orla-Kreis","type":"Landkreis"},"federalState":{"key":"16","name":"Thüringen"}},{"name":"Bendorfer Weg","postalCode":"35119","locality":"Rosenthal","municipality":{"key":"06635017","name":"Rosenthal, Stadt","type":"Stadt"},"district":{"key":"06635","name":"Waldeck-Frankenberg","type":"Landkreis"},"federalState":{"key":"06","name":"Hessen"}},{"name":"Bendweg","postalCode":"35119","locality":"Rosenthal","municipality":{"key":"06635017","name":"Rosenthal, Stadt","type":"Stadt"},"district":{"key":"06635","name":"Waldeck-Frankenberg","type":"Landkreis"},"federalState":{"key":"06","name":"Hessen"}},{"name":"Bergstr.","postalCode":"01824","locality":"Rosenthal-Bielatal","municipality":{"key":"14628340","name":"Rosenthal-Bielatal","type":"Kreisangehörige_Gemeinde"},"district":{"key":"14628","name":"Sächsische Schweiz-Osterzgebirge","type":"Landkreis"},"federalState":{"key":"14","name":"Sachsen"}},{"name":"Bergstr.","postalCode":"35119","locality":"Rosenthal","municipality":{"key":"06635017","name":"Rosenthal, Stadt","type":"Stadt"},"district":{"key":"06635","name":"Waldeck-Frankenberg","type":"Landkreis"},"federalState":{"key":"06","name":"Hessen"}},{"name":"Bergweg","postalCode":"07366","locality":"Rosenthal am Rennsteig","municipality":{"key":"16075136","name":"Rosenthal am Rennsteig","type":"Kreisangehörige_Gemeinde"},"district":{"key":"16075","name":"Saale-Orla-Kreis","type":"Landkreis"},"federalState":{"key":"16","name":"Thüringen"}},{"name":"Berliner Str.","postalCode":"35119","locality":"Rosenthal","municipality":{"key":"06635017","name":"Rosenthal, Stadt","type":"Stadt"},"district":{"key":"06635","name":"Waldeck-Frankenberg","type":"Landkreis"},"federalState":{"key":"06","name":"Hessen"}},{"name":"Beutwaldweg","postalCode":"01824","locality":"Rosenthal-Bielatal","municipality":{"key":"14628340","name":"Rosenthal-Bielatal","type":"Kreisangehörige_Gemeinde"},"district":{"key":"14628","name":"Sächsische Schweiz-Osterzgebirge","type":"Landkreis"},"federalState":{"key":"14","name":"Sachsen"}},{"name":"Birkenkopfweg","postalCode":"35119","locality":"Rosenthal","municipality":{"key":"06635017","name":"Rosenthal, Stadt","type":"Stadt"},"district":{"key":"06635","name":"Waldeck-Frankenberg","type":"Landkreis"},"federalState":{"key":"06","name":"Hessen"}},{"name":"Birkenweg","postalCode":"07366","locality":"Rosenthal am Rennsteig","municipality":{"key":"16075136","name":"Rosenthal am Rennsteig","type":"Kreisangehörige_Gemeinde"},"district":{"key":"16075","name":"Saale-Orla-Kreis","type":"Landkreis"},"federalState":{"key":"16","name":"Thüringen"}},{"name":"Blankensteiner Str.","postalCode":"07366","locality":"Rosenthal am Rennsteig","municipality":{"key":"16075136","name":"Rosenthal am Rennsteig","type":"Kreisangehörige_Gemeinde"},"district":{"key":"16075","name":"Saale-Orla-Kreis","type":"Landkreis"},"federalState":{"key":"16","name":"Thüringen"}},{"name":"Borngasse","postalCode":"35119","locality":"Rosenthal","municipality":{"key":"06635017","name":"Rosenthal, Stadt","type":"Stadt"},"district":{"key":"06635","name":"Waldeck-Frankenberg","type":"Landkreis"},"federalState":{"key":"06","name":"Hessen"}},{"name":"Bösebörner","postalCode":"35119","locality":"Rosenthal","municipality":{"key":"06635017","name":"Rosenthal, Stadt","type":"Stadt"},"district":{"key":"06635","name":"Waldeck-Frankenberg","type":"Landkreis"},"federalState":{"key":"06","name":"Hessen"}},{"name":"Brachter Pfad","postalCode":"35119","locality":"Rosenthal","municipality":{"key":"06635017","name":"Rosenthal, Stadt","type":"Stadt"},"district":{"key":"06635","name":"Waldeck-Frankenberg","type":"Landkreis"},"federalState":{"key":"06","name":"Hessen"}},{"name":"Brandweg","postalCode":"01824","locality":"Rosenthal-Bielatal","municipality":{"key":"14628340","name":"Rosenthal-Bielatal","type":"Kreisangehörige_Gemeinde"},"district":{"key":"14628","name":"Sächsische Schweiz-Osterzgebirge","type":"Landkreis"},"federalState":{"key":"14","name":"Sachsen"}},{"name":"Brausensteiner Str.","postalCode":"01824","locality":"Rosenthal-Bielatal","municipality":{"key":"14628340","name":"Rosenthal-Bielatal","type":"Kreisangehörige_Gemeinde"},"district":{"key":"14628","name":"Sächsische Schweiz-Osterzgebirge","type":"Landkreis"},"federalState":{"key":"14","name":"Sachsen"}},{"name":"Breslauer Str.","postalCode":"35119","locality":"Rosenthal","municipality":{"key":"06635017","name":"Rosenthal, Stadt","type":"Stadt"},"district":{"key":"06635","name":"Waldeck-Frankenberg","type":"Landkreis"},"federalState":{"key":"06","name":"Hessen"}},{"name":"Brückweg","postalCode":"01824","locality":"Rosenthal-Bielatal","municipality":{"key":"14628340","name":"Rosenthal-Bielatal","type":"Kreisangehörige_Gemeinde"},"district":{"key":"14628","name":"Sächsische Schweiz-Osterzgebirge","type":"Landkreis"},"federalState":{"key":"14","name":"Sachsen"}},{"name":"Buchenring","postalCode":"35119","locality":"Rosenthal","municipality":{"key":"06635017","name":"Rosenthal, Stadt","type":"Stadt"},"district":{"key":"06635","name":"Waldeck-Frankenberg","type":"Landkreis"},"federalState":{"key":"06","name":"Hessen"}},{"name":"Burgwaldstr.","postalCode":"35119","locality":"Rosenthal","municipality":{"key":"06635017","name":"Rosenthal, Stadt","type":"Stadt"},"district":{"key":"06635","name":"Waldeck-Frankenberg","type":"Landkreis"},"federalState":{"key":"06","name":"Hessen"}},{"name":"Buschschänke","postalCode":"01920","locality":"Ralbitz-Rosenthal","municipality":{"key":"14625500","name":"Ralbitz-Rosenthal / Ralbicy-Róžant","type":"Kreisangehörige_Gemeinde"},"district":{"key":"14625","name":"Bautzen","type":"Landkreis"},"federalState":{"key":"14","name":"Sachsen"}},{"name":"Caßlauer Str.","postalCode":"01920","locality":"Ralbitz-Rosenthal","municipality":{"key":"14625500","name":"Ralbitz-Rosenthal / Ralbicy-Róžant","type":"Kreisangehörige_Gemeinde"},"district":{"key":"14625","name":"Bautzen","type":"Landkreis"},"federalState":{"key":"14","name":"Sachsen"}},{"name":"Christenbergweg","postalCode":"35119","locality":"Rosenthal","municipality":{"key":"06635017","name":"Rosenthal, Stadt","type":"Stadt"},"district":{"key":"06635","name":"Waldeck-Frankenberg","type":"Landkreis"},"federalState":{"key":"06","name":"Hessen"}},{"name":"Cunnersdorfer Str.","postalCode":"01824","locality":"Rosenthal-Bielatal","municipality":{"key":"14628340","name":"Rosenthal-Bielatal","type":"Kreisangehörige_Gemeinde"},"district":{"key":"14628","name":"Sächsische Schweiz-Osterzgebirge","type":"Landkreis"},"federalState":{"key":"14","name":"Sachsen"}},{"name":"Dammtor","postalCode":"35119","locality":"Rosenthal","municipality":{"key":"06635017","name":"Rosenthal, Stadt","type":"Stadt"},"district":{"key":"06635","name":"Waldeck-Frankenberg","type":"Landkreis"},"federalState":{"key":"06","name":"Hessen"}},{"name":"Delanska","postalCode":"01920","locality":"Ralbitz-Rosenthal","municipality":{"key":"14625500","name":"Ralbitz-Rosenthal / Ralbicy-Róžant","type":"Kreisangehörige_Gemeinde"},"district":{"key":"14625","name":"Bautzen","type":"Landkreis"},"federalState":{"key":"14","name":"Sachsen"}},{"name":"Dorfbachweg","postalCode":"07366","locality":"Rosenthal am Rennsteig","municipality":{"key":"16075136","name":"Rosenthal am Rennsteig","type":"Kreisangehörige_Gemeinde"},"district":{"key":"16075","name":"Saale-Orla-Kreis","type":"Landkreis"},"federalState":{"key":"16","name":"Thüringen"}},{"name":"Dorfplatz","postalCode":"01920","locality":"Ralbitz-Rosenthal","municipality":{"key":"14625500","name":"Ralbitz-Rosenthal / Ralbicy-Róžant","type":"Kreisangehörige_Gemeinde"},"district":{"key":"14625","name":"Bautzen","type":"Landkreis"},"federalState":{"key":"14","name":"Sachsen"}},{"name":"Dorfplatz","postalCode":"07366","locality":"Rosenthal am Rennsteig","municipality":{"key":"16075136","name":"Rosenthal am Rennsteig","type":"Kreisangehörige_Gemeinde"},"district":{"key":"16075","name":"Saale-Orla-Kreis","type":"Landkreis"},"federalState":{"key":"16","name":"Thüringen"}},{"name":"Dorfstr.","postalCode":"01920","locality":"Ralbitz-Rosenthal","municipality":{"key":"14625500","name":"Ralbitz-Rosenthal / Ralbicy-Róžant","type":"Kreisangehörige_Gemeinde"},"district":{"key":"14625","name":"Bautzen","type":"Landkreis"},"federalState":{"key":"14","name":"Sachsen"}},{"name":"Dreihäuser Str.","postalCode":"35119","locality":"Rosenthal","municipality":{"key":"06635017","name":"Rosenthal, Stadt","type":"Stadt"},"district":{"key":"06635","name":"Waldeck-Frankenberg","type":"Landkreis"},"federalState":{"key":"06","name":"Hessen"}},{"name":"Dreimeterweg","postalCode":"35119","locality":"Rosenthal","municipality":{"key":"06635017","name":"Rosenthal, Stadt","type":"Stadt"},"district":{"key":"06635","name":"Waldeck-Frankenberg","type":"Landkreis"},"federalState":{"key":"06","name":"Hessen"}},{"name":"Dr.-Georg-Möller-Str.","postalCode":"01920","locality":"Ralbitz-Rosenthal","municipality":{"key":"14625500","name":"Ralbitz-Rosenthal / Ralbicy-Róžant","type":"Kreisangehörige_Gemeinde"},"district":{"key":"14625","name":"Bautzen","type":"Landkreis"},"federalState":{"key":"14","name":"Sachsen"}},{"name":"Eckweg","postalCode":"35119","locality":"Rosenthal","municipality":{"key":"06635017","name":"Rosenthal, Stadt","type":"Stadt"},"district":{"key":"06635","name":"Waldeck-Frankenberg","type":"Landkreis"},"federalState":{"key":"06","name":"Hessen"}},{"name":"Eichenweg","postalCode":"01920","locality":"Ralbitz-Rosenthal","municipality":{"key":"14625500","name":"Ralbitz-Rosenthal / Ralbicy-Róžant","type":"Kreisangehörige_Gemeinde"},"district":{"key":"14625","name":"Bautzen","type":"Landkreis"},"federalState":{"key":"14","name":"Sachsen"}},{"name":"Eichenweg","postalCode":"35119","locality":"Rosenthal","municipality":{"key":"06635017","name":"Rosenthal, Stadt","type":"Stadt"},"district":{"key":"06635","name":"Waldeck-Frankenberg","type":"Landkreis"},"federalState":{"key":"06","name":"Hessen"}},{"name":"Eutricher Str.","postalCode":"01920","locality":"Ralbitz-Rosenthal","municipality":{"key":"14625500","name":"Ralbitz-Rosenthal / Ralbicy-Róžant","type":"Kreisangehörige_Gemeinde"},"district":{"key":"14625","name":"Bautzen","type":"Landkreis"},"federalState":{"key":"14","name":"Sachsen"}},{"name":"Fabrikstr.","postalCode":"01920","locality":"Ralbitz-Rosenthal","municipality":{"key":"14625500","name":"Ralbitz-Rosenthal / Ralbicy-Róžant","type":"Kreisangehörige_Gemeinde"},"district":{"key":"14625","name":"Bautzen","type":"Landkreis"},"federalState":{"key":"14","name":"Sachsen"}},{"name":"Feldgasse","postalCode":"35119","locality":"Rosenthal","municipality":{"key":"06635017","name":"Rosenthal, Stadt","type":"Stadt"},"district":{"key":"06635","name":"Waldeck-Frankenberg","type":"Landkreis"},"federalState":{"key":"06","name":"Hessen"}},{"name":"Felsenkellerweg","postalCode":"07366","locality":"Rosenthal am Rennsteig","municipality":{"key":"16075136","name":"Rosenthal am Rennsteig","type":"Kreisangehörige_Gemeinde"},"district":{"key":"16075","name":"Saale-Orla-Kreis","type":"Landkreis"},"federalState":{"key":"16","name":"Thüringen"}},{"name":"Ferdinand-Flinsch-Str.","postalCode":"07366","locality":"Rosenthal am Rennsteig","municipality":{"key":"16075136","name":"Rosenthal am Rennsteig","type":"Kreisangehörige_Gemeinde"},"district":{"key":"16075","name":"Saale-Orla-Kreis","type":"Landkreis"},"federalState":{"key":"16","name":"Thüringen"}},{"name":"Fichtere Graben","postalCode":"07366","locality":"Rosenthal am Rennsteig","municipality":{"key":"16075136","name":"Rosenthal am Rennsteig","type":"Kreisangehörige_Gemeinde"},"district":{"key":"16075","name":"Saale-Orla-Kreis","type":"Landkreis"},"federalState":{"key":"16","name":"Thüringen"}},{"name":"Finkenweg","postalCode":"35119","locality":"Rosenthal","municipality":{"key":"06635017","name":"Rosenthal, Stadt","type":"Stadt"},"district":{"key":"06635","name":"Waldeck-Frankenberg","type":"Landkreis"},"federalState":{"key":"06","name":"Hessen"}},{"name":"Fischbachweg","postalCode":"35119","locality":"Rosenthal","municipality":{"key":"06635017","name":"Rosenthal, Stadt","type":"Stadt"},"district":{"key":"06635","name":"Waldeck-Frankenberg","type":"Landkreis"},"federalState":{"key":"06","name":"Hessen"}},{"name":"Fischtor","postalCode":"35119","locality":"Rosenthal","municipality":{"key":"06635017","name":"Rosenthal, Stadt","type":"Stadt"},"district":{"key":"06635","name":"Waldeck-Frankenberg","type":"Landkreis"},"federalState":{"key":"06","name":"Hessen"}},{"name":"Flügel B","postalCode":"01824","locality":"Rosenthal-Bielatal","municipality":{"key":"14628340","name":"Rosenthal-Bielatal","type":"Kreisangehörige_Gemeinde"},"district":{"key":"14628","name":"Sächsische Schweiz-Osterzgebirge","type":"Landkreis"},"federalState":{"key":"14","name":"Sachsen"}},{"name":"Flügel H","postalCode":"01824","locality":"Rosenthal-Bielatal","municipality":{"key":"14628340","name":"Rosenthal-Bielatal","type":"Kreisangehörige_Gemeinde"},"district":{"key":"14628","name":"Sächsische Schweiz-Osterzgebirge","type":"Landkreis"},"federalState":{"key":"14","name":"Sachsen"}},{"name":"Flügel M","postalCode":"01824","locality":"Rosenthal-Bielatal","municipality":{"key":"14628340","name":"Rosenthal-Bielatal","type":"Kreisangehörige_Gemeinde"},"district":{"key":"14628","name":"Sächsische Schweiz-Osterzgebirge","type":"Landkreis"},"federalState":{"key":"14","name":"Sachsen"}},{"name":"Flurweg","postalCode":"07366","locality":"Rosenthal am Rennsteig","municipality":{"key":"16075136","name":"Rosenthal am Rennsteig","type":"Kreisangehörige_Gemeinde"},"district":{"key":"16075","name":"Saale-Orla-Kreis","type":"Landkreis"},"federalState":{"key":"16","name":"Thüringen"}},{"name":"Förstereistr.","postalCode":"01824","locality":"Rosenthal-Bielatal","municipality":{"key":"14628340","name":"Rosenthal-Bielatal","type":"Kreisangehörige_Gemeinde"},"district":{"key":"14628","name":"Sächsische Schweiz-Osterzgebirge","type":"Landkreis"},"federalState":{"key":"14","name":"Sachsen"}},{"name":"Forster Weg","postalCode":"35119","locality":"Rosenthal","municipality":{"key":"06635017","name":"Rosenthal, Stadt","type":"Stadt"},"district":{"key":"06635","name":"Waldeck-Frankenberg","type":"Landkreis"},"federalState":{"key":"06","name":"Hessen"}},{"name":"Forstwiesenweg","postalCode":"01824","locality":"Rosenthal-Bielatal","municipality":{"key":"14628340","name":"Rosenthal-Bielatal","type":"Kreisangehörige_Gemeinde"},"district":{"key":"14628","name":"Sächsische Schweiz-Osterzgebirge","type":"Landkreis"},"federalState":{"key":"14","name":"Sachsen"}},{"name":"Frankenberger Str.","postalCode":"35119","locality":"Rosenthal","municipality":{"key":"06635017","name":"Rosenthal, Stadt","type":"Stadt"},"district":{"key":"06635","name":"Waldeck-Frankenberg","type":"Landkreis"},"federalState":{"key":"06","name":"Hessen"}},{"name":"Freundschaftsweg","postalCode":"01824","locality":"Rosenthal-Bielatal","municipality":{"key":"14628340","name":"Rosenthal-Bielatal","type":"Kreisangehörige_Gemeinde"},"district":{"key":"14628","name":"Sächsische Schweiz-Osterzgebirge","type":"Landkreis"},"federalState":{"key":"14","name":"Sachsen"}},{"name":"Friedensweg","postalCode":"01824","locality":"Rosenthal-Bielatal","municipality":{"key":"14628340","name":"Rosenthal-Bielatal","type":"Kreisangehörige_Gemeinde"},"district":{"key":"14628","name":"Sächsische Schweiz-Osterzgebirge","type":"Landkreis"},"federalState":{"key":"14","name":"Sachsen"}},{"name":"Friedhofstr.","postalCode":"07366","locality":"Rosenthal am Rennsteig","municipality":{"key":"16075136","name":"Rosenthal am Rennsteig","type":"Kreisangehörige_Gemeinde"},"district":{"key":"16075","name":"Saale-Orla-Kreis","type":"Landkreis"},"federalState":{"key":"16","name":"Thüringen"}},{"name":"Friedhofstr.","postalCode":"35119","locality":"Rosenthal","municipality":{"key":"06635017","name":"Rosenthal, Stadt","type":"Stadt"},"district":{"key":"06635","name":"Waldeck-Frankenberg","type":"Landkreis"},"federalState":{"key":"06","name":"Hessen"}},{"name":"Friedhofsweg","postalCode":"07366","locality":"Rosenthal am Rennsteig","municipality":{"key":"16075136","name":"Rosenthal am Rennsteig","type":"Kreisangehörige_Gemeinde"},"district":{"key":"16075","name":"Saale-Orla-Kreis","type":"Landkreis"},"federalState":{"key":"16","name":"Thüringen"}},{"name":"Friedhofsweg","postalCode":"35119","locality":"Rosenthal","municipality":{"key":"06635017","name":"Rosenthal, Stadt","type":"Stadt"},"district":{"key":"06635","name":"Waldeck-Frankenberg","type":"Landkreis"},"federalState":{"key":"06","name":"Hessen"}},{"name":"Fritz-Himmelmann-Str.","postalCode":"35119","locality":"Rosenthal","municipality":{"key":"06635017","name":"Rosenthal, Stadt","type":"Stadt"},"district":{"key":"06635","name":"Waldeck-Frankenberg","type":"Landkreis"},"federalState":{"key":"06","name":"Hessen"}},{"name":"Fuchsbachstr.","postalCode":"01824","locality":"Rosenthal-Bielatal","municipality":{"key":"14628340","name":"Rosenthal-Bielatal","type":"Kreisangehörige_Gemeinde"},"district":{"key":"14628","name":"Sächsische Schweiz-Osterzgebirge","type":"Landkreis"},"federalState":{"key":"14","name":"Sachsen"}},{"name":"Fuchsbachweg","postalCode":"01824","locality":"Rosenthal-Bielatal","municipality":{"key":"14628340","name":"Rosenthal-Bielatal","type":"Kreisangehörige_Gemeinde"},"district":{"key":"14628","name":"Sächsische Schweiz-Osterzgebirge","type":"Landkreis"},"federalState":{"key":"14","name":"Sachsen"}},{"name":"Gänsebergweg","postalCode":"35119","locality":"Rosenthal","municipality":{"key":"06635017","name":"Rosenthal, Stadt","type":"Stadt"},"district":{"key":"06635","name":"Waldeck-Frankenberg","type":"Landkreis"},"federalState":{"key":"06","name":"Hessen"}},{"name":"Gänsehügel","postalCode":"07366","locality":"Rosenthal am Rennsteig","municipality":{"key":"16075136","name":"Rosenthal am Rennsteig","type":"Kreisangehörige_Gemeinde"},"district":{"key":"16075","name":"Saale-Orla-Kreis","type":"Landkreis"},"federalState":{"key":"16","name":"Thüringen"}},{"name":"Gänsewiesenweg","postalCode":"35119","locality":"Rosenthal","municipality":{"key":"06635017","name":"Rosenthal, Stadt","type":"Stadt"},"district":{"key":"06635","name":"Waldeck-Frankenberg","type":"Landkreis"},"federalState":{"key":"06","name":"Hessen"}},{"name":"Gartenstr.","postalCode":"07366","locality":"Rosenthal am Rennsteig","municipality":{"key":"16075136","name":"Rosenthal am Rennsteig","type":"Kreisangehörige_Gemeinde"},"district":{"key":"16075","name":"Saale-Orla-Kreis","type":"Landkreis"},"federalState":{"key":"16","name":"Thüringen"}},{"name":"Gartenweg","postalCode":"01824","locality":"Rosenthal-Bielatal","municipality":{"key":"14628340","name":"Rosenthal-Bielatal","type":"Kreisangehörige_Gemeinde"},"district":{"key":"14628","name":"Sächsische Schweiz-Osterzgebirge","type":"Landkreis"},"federalState":{"key":"14","name":"Sachsen"}},{"name":"Gartenweg","postalCode":"35119","locality":"Rosenthal","municipality":{"key":"06635017","name":"Rosenthal, Stadt","type":"Stadt"},"district":{"key":"06635","name":"Waldeck-Frankenberg","type":"Landkreis"},"federalState":{"key":"06","name":"Hessen"}},{"name":"Gartenwiese","postalCode":"07366","locality":"Rosenthal am Rennsteig","municipality":{"key":"16075136","name":"Rosenthal am Rennsteig","type":"Kreisangehörige_Gemeinde"},"district":{"key":"16075","name":"Saale-Orla-Kreis","type":"Landkreis"},"federalState":{"key":"16","name":"Thüringen"}},{"name":"Gässle","postalCode":"07366","locality":"Rosenthal am Rennsteig","municipality":{"key":"16075136","name":"Rosenthal am Rennsteig","type":"Kreisangehörige_Gemeinde"},"district":{"key":"16075","name":"Saale-Orla-Kreis","type":"Landkreis"},"federalState":{"key":"16","name":"Thüringen"}},{"name":"Geheege","postalCode":"07366","locality":"Rosenthal am Rennsteig","municipality":{"key":"16075136","name":"Rosenthal am Rennsteig","type":"Kreisangehörige_Gemeinde"},"district":{"key":"16075","name":"Saale-Orla-Kreis","type":"Landkreis"},"federalState":{"key":"16","name":"Thüringen"}},{"name":"Gemündener Weg","postalCode":"35119","locality":"Rosenthal","municipality":{"key":"06635017","name":"Rosenthal, Stadt","type":"Stadt"},"district":{"key":"06635","name":"Waldeck-Frankenberg","type":"Landkreis"},"federalState":{"key":"06","name":"Hessen"}},{"name":"Georg-Schäfer-Str.","postalCode":"01920","locality":"Ralbitz-Rosenthal","municipality":{"key":"14625500","name":"Ralbitz-Rosenthal / Ralbicy-Róžant","type":"Kreisangehörige_Gemeinde"},"district":{"key":"14625","name":"Bautzen","type":"Landkreis"},"federalState":{"key":"14","name":"Sachsen"}},{"name":"Grabenacker","postalCode":"35119","locality":"Rosenthal","municipality":{"key":"06635017","name":"Rosenthal, Stadt","type":"Stadt"},"district":{"key":"06635","name":"Waldeck-Frankenberg","type":"Landkreis"},"federalState":{"key":"06","name":"Hessen"}},{"name":"Grabenstr.","postalCode":"07366","locality":"Rosenthal am Rennsteig","municipality":{"key":"16075136","name":"Rosenthal am Rennsteig","type":"Kreisangehörige_Gemeinde"},"district":{"key":"16075","name":"Saale-Orla-Kreis","type":"Landkreis"},"federalState":{"key":"16","name":"Thüringen"}},{"name":"Grabenweg","postalCode":"35119","locality":"Rosenthal","municipality":{"key":"06635017","name":"Rosenthal, Stadt","type":"Stadt"},"district":{"key":"06635","name":"Waldeck-Frankenberg","type":"Landkreis"},"federalState":{"key":"06","name":"Hessen"}},{"name":"Grabweg","postalCode":"01824","locality":"Rosenthal-Bielatal","municipality":{"key":"14628340","name":"Rosenthal-Bielatal","type":"Kreisangehörige_Gemeinde"},"district":{"key":"14628","name":"Sächsische Schweiz-Osterzgebirge","type":"Landkreis"},"federalState":{"key":"14","name":"Sachsen"}},{"name":"Grubenweg","postalCode":"35119","locality":"Rosenthal","municipality":{"key":"06635017","name":"Rosenthal, Stadt","type":"Stadt"},"district":{"key":"06635","name":"Waldeck-Frankenberg","type":"Landkreis"},"federalState":{"key":"06","name":"Hessen"}},{"name":"Grüne Band Brücke","postalCode":"07366","locality":"Rosenthal am Rennsteig","municipality":{"key":"16075136","name":"Rosenthal am Rennsteig","type":"Kreisangehörige_Gemeinde"},"district":{"key":"16075","name":"Saale-Orla-Kreis","type":"Landkreis"},"federalState":{"key":"16","name":"Thüringen"}},{"name":"Hainbachsweg","postalCode":"35119","locality":"Rosenthal","municipality":{"key":"06635017","name":"Rosenthal, Stadt","type":"Stadt"},"district":{"key":"06635","name":"Waldeck-Frankenberg","type":"Landkreis"},"federalState":{"key":"06","name":"Hessen"}},{"name":"Hammerweg","postalCode":"01824","locality":"Rosenthal-Bielatal","municipality":{"key":"14628340","name":"Rosenthal-Bielatal","type":"Kreisangehörige_Gemeinde"},"district":{"key":"14628","name":"Sächsische Schweiz-Osterzgebirge","type":"Landkreis"},"federalState":{"key":"14","name":"Sachsen"}},{"name":"Hans-Glas-Str.","postalCode":"35119","locality":"Rosenthal","municipality":{"key":"06635017","name":"Rosenthal, Stadt","type":"Stadt"},"district":{"key":"06635","name":"Waldeck-Frankenberg","type":"Landkreis"},"federalState":{"key":"06","name":"Hessen"}},{"name":"Hans-Glas-Weg","postalCode":"35119","locality":"Rosenthal","municipality":{"key":"06635017","name":"Rosenthal, Stadt","type":"Stadt"},"district":{"key":"06635","name":"Waldeck-Frankenberg","type":"Landkreis"},"federalState":{"key":"06","name":"Hessen"}},{"name":"Harraer Str.","postalCode":"07366","locality":"Rosenthal am Rennsteig","municipality":{"key":"16075136","name":"Rosenthal am Rennsteig","type":"Kreisangehörige_Gemeinde"},"district":{"key":"16075","name":"Saale-Orla-Kreis","type":"Landkreis"},"federalState":{"key":"16","name":"Thüringen"}},{"name":"Hauptstr.","postalCode":"01824","locality":"Rosenthal-Bielatal","municipality":{"key":"14628340","name":"Rosenthal-Bielatal","type":"Kreisangehörige_Gemeinde"},"district":{"key":"14628","name":"Sächsische Schweiz-Osterzgebirge","type":"Landkreis"},"federalState":{"key":"14","name":"Sachsen"}},{"name":"Hauptstr.","postalCode":"01920","locality":"Ralbitz-Rosenthal","municipality":{"key":"14625500","name":"Ralbitz-Rosenthal / Ralbicy-Róžant","type":"Kreisangehörige_Gemeinde"},"district":{"key":"14625","name":"Bautzen","type":"Landkreis"},"federalState":{"key":"14","name":"Sachsen"}},{"name":"Hauptstr.","postalCode":"07366","locality":"Rosenthal am Rennsteig","municipality":{"key":"16075136","name":"Rosenthal am Rennsteig","type":"Kreisangehörige_Gemeinde"},"district":{"key":"16075","name":"Saale-Orla-Kreis","type":"Landkreis"},"federalState":{"key":"16","name":"Thüringen"}},{"name":"Hauptstr.","postalCode":"35119","locality":"Rosenthal","municipality":{"key":"06635017","name":"Rosenthal, Stadt","type":"Stadt"},"district":{"key":"06635","name":"Waldeck-Frankenberg","type":"Landkreis"},"federalState":{"key":"06","name":"Hessen"}},{"name":"Haus am Wald","postalCode":"07366","locality":"Rosenthal am Rennsteig","municipality":{"key":"16075136","name":"Rosenthal am Rennsteig","type":"Kreisangehörige_Gemeinde"},"district":{"key":"16075","name":"Saale-Orla-Kreis","type":"Landkreis"},"federalState":{"key":"16","name":"Thüringen"}},{"name":"Heideweg","postalCode":"01824","locality":"Rosenthal-Bielatal","municipality":{"key":"14628340","name":"Rosenthal-Bielatal","type":"Kreisangehörige_Gemeinde"},"district":{"key":"14628","name":"Sächsische Schweiz-Osterzgebirge","type":"Landkreis"},"federalState":{"key":"14","name":"Sachsen"}},{"name":"Heimstättenweg","postalCode":"07366","locality":"Rosenthal am Rennsteig","municipality":{"key":"16075136","name":"Rosenthal am Rennsteig","type":"Kreisangehörige_Gemeinde"},"district":{"key":"16075","name":"Saale-Orla-Kreis","type":"Landkreis"},"federalState":{"key":"16","name":"Thüringen"}},{"name":"Heinrichsgasse","postalCode":"07366","locality":"Rosenthal am Rennsteig","municipality":{"key":"16075136","name":"Rosenthal am Rennsteig","type":"Kreisangehörige_Gemeinde"},"district":{"key":"16075","name":"Saale-Orla-Kreis","type":"Landkreis"},"federalState":{"key":"16","name":"Thüringen"}},{"name":"Heringsbachflügel","postalCode":"01824","locality":"Rosenthal-Bielatal","municipality":{"key":"14628340","name":"Rosenthal-Bielatal","type":"Kreisangehörige_Gemeinde"},"district":{"key":"14628","name":"Sächsische Schweiz-Osterzgebirge","type":"Landkreis"},"federalState":{"key":"14","name":"Sachsen"}},{"name":"Hermann-Götze-Weg","postalCode":"07366","locality":"Rosenthal am Rennsteig","municipality":{"key":"16075136","name":"Rosenthal am Rennsteig","type":"Kreisangehörige_Gemeinde"},"district":{"key":"16075","name":"Saale-Orla-Kreis","type":"Landkreis"},"federalState":{"key":"16","name":"Thüringen"}},{"name":"Herrengarten","postalCode":"07366","locality":"Rosenthal am Rennsteig","municipality":{"key":"16075136","name":"Rosenthal am Rennsteig","type":"Kreisangehörige_Gemeinde"},"district":{"key":"16075","name":"Saale-Orla-Kreis","type":"Landkreis"},"federalState":{"key":"16","name":"Thüringen"}},{"name":"Herrenweg","postalCode":"35119","locality":"Rosenthal","municipality":{"key":"06635017","name":"Rosenthal, Stadt","type":"Stadt"},"district":{"key":"06635","name":"Waldeck-Frankenberg","type":"Landkreis"},"federalState":{"key":"06","name":"Hessen"}},{"name":"Herzhäuser Weg","postalCode":"35119","locality":"Rosenthal","municipality":{"key":"06635017","name":"Rosenthal, Stadt","type":"Stadt"},"district":{"key":"06635","name":"Waldeck-Frankenberg","type":"Landkreis"},"federalState":{"key":"06","name":"Hessen"}},{"name":"Heuscheuerweg","postalCode":"35119","locality":"Rosenthal","municipality":{"key":"06635017","name":"Rosenthal, Stadt","type":"Stadt"},"district":{"key":"06635","name":"Waldeck-Frankenberg","type":"Landkreis"},"federalState":{"key":"06","name":"Hessen"}},{"name":"Heuweg","postalCode":"01824","locality":"Rosenthal-Bielatal","municipality":{"key":"14628340","name":"Rosenthal-Bielatal","type":"Kreisangehörige_Gemeinde"},"district":{"key":"14628","name":"Sächsische Schweiz-Osterzgebirge","type":"Landkreis"},"federalState":{"key":"14","name":"Sachsen"}},{"name":"Hilgermannstr.","postalCode":"35119","locality":"Rosenthal","municipality":{"key":"06635017","name":"Rosenthal, Stadt","type":"Stadt"},"district":{"key":"06635","name":"Waldeck-Frankenberg","type":"Landkreis"},"federalState":{"key":"06","name":"Hessen"}},{"name":"Hinter den Höfen","postalCode":"35119","locality":"Rosenthal","municipality":{"key":"06635017","name":"Rosenthal, Stadt","type":"Stadt"},"district":{"key":"06635","name":"Waldeck-Frankenberg","type":"Landkreis"},"federalState":{"key":"06","name":"Hessen"}},{"name":"Hinter der Burg","postalCode":"35119","locality":"Rosenthal","municipality":{"key":"06635017","name":"Rosenthal, Stadt","type":"Stadt"},"district":{"key":"06635","name":"Waldeck-Frankenberg","type":"Landkreis"},"federalState":{"key":"06","name":"Hessen"}},{"name":"Hintergasse","postalCode":"35119","locality":"Rosenthal","municipality":{"key":"06635017","name":"Rosenthal, Stadt","type":"Stadt"},"district":{"key":"06635","name":"Waldeck-Frankenberg","type":"Landkreis"},"federalState":{"key":"06","name":"Hessen"}},{"name":"Hirschbornweg","postalCode":"01824","locality":"Rosenthal-Bielatal","municipality":{"key":"14628340","name":"Rosenthal-Bielatal","type":"Kreisangehörige_Gemeinde"},"district":{"key":"14628","name":"Sächsische Schweiz-Osterzgebirge","type":"Landkreis"},"federalState":{"key":"14","name":"Sachsen"}},{"name":"Hohe Str.","postalCode":"01824","locality":"Rosenthal-Bielatal","municipality":{"key":"14628340","name":"Rosenthal-Bielatal","type":"Kreisangehörige_Gemeinde"},"district":{"key":"14628","name":"Sächsische Schweiz-Osterzgebirge","type":"Landkreis"},"federalState":{"key":"14","name":"Sachsen"}},{"name":"Hohlweg","postalCode":"07366","locality":"Rosenthal am Rennsteig","municipality":{"key":"16075136","name":"Rosenthal am Rennsteig","type":"Kreisangehörige_Gemeinde"},"district":{"key":"16075","name":"Saale-Orla-Kreis","type":"Landkreis"},"federalState":{"key":"16","name":"Thüringen"}},{"name":"Höllenbach","postalCode":"35119","locality":"Rosenthal","municipality":{"key":"06635017","name":"Rosenthal, Stadt","type":"Stadt"},"district":{"key":"06635","name":"Waldeck-Frankenberg","type":"Landkreis"},"federalState":{"key":"06","name":"Hessen"}},{"name":"Hölllochweg","postalCode":"01824","locality":"Rosenthal-Bielatal","municipality":{"key":"14628340","name":"Rosenthal-Bielatal","type":"Kreisangehörige_Gemeinde"},"district":{"key":"14628","name":"Sächsische Schweiz-Osterzgebirge","type":"Landkreis"},"federalState":{"key":"14","name":"Sachsen"}},{"name":"Hühnerbergweg","postalCode":"01824","locality":"Rosenthal-Bielatal","municipality":{"key":"14628340","name":"Rosenthal-Bielatal","type":"Kreisangehörige_Gemeinde"},"district":{"key":"14628","name":"Sächsische Schweiz-Osterzgebirge","type":"Landkreis"},"federalState":{"key":"14","name":"Sachsen"}},{"name":"Huteweg","postalCode":"35119","locality":"Rosenthal","municipality":{"key":"06635017","name":"Rosenthal, Stadt","type":"Stadt"},"district":{"key":"06635","name":"Waldeck-Frankenberg","type":"Landkreis"},"federalState":{"key":"06","name":"Hessen"}},{"name":"Igelsweg","postalCode":"35119","locality":"Rosenthal","municipality":{"key":"06635017","name":"Rosenthal, Stadt","type":"Stadt"},"district":{"key":"06635","name":"Waldeck-Frankenberg","type":"Landkreis"},"federalState":{"key":"06","name":"Hessen"}},{"name":"Im Feldchen","postalCode":"35119","locality":"Rosenthal","municipality":{"key":"06635017","name":"Rosenthal, Stadt","type":"Stadt"},"district":{"key":"06635","name":"Waldeck-Frankenberg","type":"Landkreis"},"federalState":{"key":"06","name":"Hessen"}},{"name":"Im Grund","postalCode":"35119","locality":"Rosenthal","municipality":{"key":"06635017","name":"Rosenthal, Stadt","type":"Stadt"},"district":{"key":"06635","name":"Waldeck-Frankenberg","type":"Landkreis"},"federalState":{"key":"06","name":"Hessen"}},{"name":"Im Neuen Garten","postalCode":"35119","locality":"Rosenthal","municipality":{"key":"06635017","name":"Rosenthal, Stadt","type":"Stadt"},"district":{"key":"06635","name":"Waldeck-Frankenberg","type":"Landkreis"},"federalState":{"key":"06","name":"Hessen"}},{"name":"Im Sack","postalCode":"35119","locality":"Rosenthal","municipality":{"key":"06635017","name":"Rosenthal, Stadt","type":"Stadt"},"district":{"key":"06635","name":"Waldeck-Frankenberg","type":"Landkreis"},"federalState":{"key":"06","name":"Hessen"}},{"name":"Im Tal","postalCode":"35119","locality":"Rosenthal","municipality":{"key":"06635017","name":"Rosenthal, Stadt","type":"Stadt"},"district":{"key":"06635","name":"Waldeck-Frankenberg","type":"Landkreis"},"federalState":{"key":"06","name":"Hessen"}},{"name":"Im Wall","postalCode":"35119","locality":"Rosenthal","municipality":{"key":"06635017","name":"Rosenthal, Stadt","type":"Stadt"},"district":{"key":"06635","name":"Waldeck-Frankenberg","type":"Landkreis"},"federalState":{"key":"06","name":"Hessen"}},{"name":"In der Tränke","postalCode":"35119","locality":"Rosenthal","municipality":{"key":"06635017","name":"Rosenthal, Stadt","type":"Stadt"},"district":{"key":"06635","name":"Waldeck-Frankenberg","type":"Landkreis"},"federalState":{"key":"06","name":"Hessen"}},{"name":"Issigauer Str.","postalCode":"07366","locality":"Rosenthal am Rennsteig","municipality":{"key":"16075136","name":"Rosenthal am Rennsteig","type":"Kreisangehörige_Gemeinde"},"district":{"key":"16075","name":"Saale-Orla-Kreis","type":"Landkreis"},"federalState":{"key":"16","name":"Thüringen"}},{"name":"Kaltenbachweg","postalCode":"35119","locality":"Rosenthal","municipality":{"key":"06635017","name":"Rosenthal, Stadt","type":"Stadt"},"district":{"key":"06635","name":"Waldeck-Frankenberg","type":"Landkreis"},"federalState":{"key":"06","name":"Hessen"}},{"name":"Kamenzer Str.","postalCode":"01920","locality":"Ralbitz-Rosenthal","municipality":{"key":"14625500","name":"Ralbitz-Rosenthal / Ralbicy-Róžant","type":"Kreisangehörige_Gemeinde"},"district":{"key":"14625","name":"Bautzen","type":"Landkreis"},"federalState":{"key":"14","name":"Sachsen"}},{"name":"Karl-Marx-Str.","postalCode":"07366","locality":"Rosenthal am Rennsteig","municipality":{"key":"16075136","name":"Rosenthal am Rennsteig","type":"Kreisangehörige_Gemeinde"},"district":{"key":"16075","name":"Saale-Orla-Kreis","type":"Landkreis"},"federalState":{"key":"16","name":"Thüringen"}},{"name":"Katzenkopfweg","postalCode":"01824","locality":"Rosenthal-Bielatal","municipality":{"key":"14628340","name":"Rosenthal-Bielatal","type":"Kreisangehörige_Gemeinde"},"district":{"key":"14628","name":"Sächsische Schweiz-Osterzgebirge","type":"Landkreis"},"federalState":{"key":"14","name":"Sachsen"}},{"name":"Kießlinger Str.","postalCode":"07366","locality":"Rosenthal am Rennsteig","municipality":{"key":"16075136","name":"Rosenthal am Rennsteig","type":"Kreisangehörige_Gemeinde"},"district":{"key":"16075","name":"Saale-Orla-Kreis","type":"Landkreis"},"federalState":{"key":"16","name":"Thüringen"}},{"name":"Kirchberg","postalCode":"07366","locality":"Rosenthal am Rennsteig","municipality":{"key":"16075136","name":"Rosenthal am Rennsteig","type":"Kreisangehörige_Gemeinde"},"district":{"key":"16075","name":"Saale-Orla-Kreis","type":"Landkreis"},"federalState":{"key":"16","name":"Thüringen"}},{"name":"Kirchgasse","postalCode":"01824","locality":"Rosenthal-Bielatal","municipality":{"key":"14628340","name":"Rosenthal-Bielatal","type":"Kreisangehörige_Gemeinde"},"district":{"key":"14628","name":"Sächsische Schweiz-Osterzgebirge","type":"Landkreis"},"federalState":{"key":"14","name":"Sachsen"}},{"name":"Kirchhainer Str.","postalCode":"35119","locality":"Rosenthal","municipality":{"key":"06635017","name":"Rosenthal, Stadt","type":"Stadt"},"district":{"key":"06635","name":"Waldeck-Frankenberg","type":"Landkreis"},"federalState":{"key":"06","name":"Hessen"}},{"name":"Kirchleitenstr.","postalCode":"01824","locality":"Rosenthal-Bielatal","municipality":{"key":"14628340","name":"Rosenthal-Bielatal","type":"Kreisangehörige_Gemeinde"},"district":{"key":"14628","name":"Sächsische Schweiz-Osterzgebirge","type":"Landkreis"},"federalState":{"key":"14","name":"Sachsen"}},{"name":"Kirchweg","postalCode":"35119","locality":"Rosenthal","municipality":{"key":"06635017","name":"Rosenthal, Stadt","type":"Stadt"},"district":{"key":"06635","name":"Waldeck-Frankenberg","type":"Landkreis"},"federalState":{"key":"06","name":"Hessen"}},{"name":"Knollenweg","postalCode":"07366","locality":"Rosenthal am Rennsteig","municipality":{"key":"16075136","name":"Rosenthal am Rennsteig","type":"Kreisangehörige_Gemeinde"},"district":{"key":"16075","name":"Saale-Orla-Kreis","type":"Landkreis"},"federalState":{"key":"16","name":"Thüringen"}},{"name":"Knöppelsbornweg","postalCode":"35119","locality":"Rosenthal","municipality":{"key":"06635017","name":"Rosenthal, Stadt","type":"Stadt"},"district":{"key":"06635","name":"Waldeck-Frankenberg","type":"Landkreis"},"federalState":{"key":"06","name":"Hessen"}},{"name":"Kohlweg","postalCode":"01824","locality":"Rosenthal-Bielatal","municipality":{"key":"14628340","name":"Rosenthal-Bielatal","type":"Kreisangehörige_Gemeinde"},"district":{"key":"14628","name":"Sächsische Schweiz-Osterzgebirge","type":"Landkreis"},"federalState":{"key":"14","name":"Sachsen"}},{"name":"Kolonnenweg","postalCode":"07366","locality":"Rosenthal am Rennsteig","municipality":{"key":"16075136","name":"Rosenthal am Rennsteig","type":"Kreisangehörige_Gemeinde"},"district":{"key":"16075","name":"Saale-Orla-Kreis","type":"Landkreis"},"federalState":{"key":"16","name":"Thüringen"}},{"name":"Königsberger Str.","postalCode":"35119","locality":"Rosenthal","municipality":{"key":"06635017","name":"Rosenthal, Stadt","type":"Stadt"},"district":{"key":"06635","name":"Waldeck-Frankenberg","type":"Landkreis"},"federalState":{"key":"06","name":"Hessen"}},{"name":"Königsteiner Str.","postalCode":"01824","locality":"Rosenthal-Bielatal","municipality":{"key":"14628340","name":"Rosenthal-Bielatal","type":"Kreisangehörige_Gemeinde"},"district":{"key":"14628","name":"Sächsische Schweiz-Osterzgebirge","type":"Landkreis"},"federalState":{"key":"14","name":"Sachsen"}},{"name":"Korbfeilenweg","postalCode":"01824","locality":"Rosenthal-Bielatal","municipality":{"key":"14628340","name":"Rosenthal-Bielatal","type":"Kreisangehörige_Gemeinde"},"district":{"key":"14628","name":"Sächsische Schweiz-Osterzgebirge","type":"Landkreis"},"federalState":{"key":"14","name":"Sachsen"}},{"name":"Köseleweg","postalCode":"07366","locality":"Rosenthal am Rennsteig","municipality":{"key":"16075136","name":"Rosenthal am Rennsteig","type":"Kreisangehörige_Gemeinde"},"district":{"key":"16075","name":"Saale-Orla-Kreis","type":"Landkreis"},"federalState":{"key":"16","name":"Thüringen"}},{"name":"Krallersbachweg","postalCode":"07366","locality":"Rosenthal am Rennsteig","municipality":{"key":"16075136","name":"Rosenthal am Rennsteig","type":"Kreisangehörige_Gemeinde"},"district":{"key":"16075","name":"Saale-Orla-Kreis","type":"Landkreis"},"federalState":{"key":"16","name":"Thüringen"}},{"name":"Ladeweg","postalCode":"01824","locality":"Rosenthal-Bielatal","municipality":{"key":"14628340","name":"Rosenthal-Bielatal","type":"Kreisangehörige_Gemeinde"},"district":{"key":"14628","name":"Sächsische Schweiz-Osterzgebirge","type":"Landkreis"},"federalState":{"key":"14","name":"Sachsen"}},{"name":"Lampertsstr.","postalCode":"01824","locality":"Rosenthal-Bielatal","municipality":{"key":"14628340","name":"Rosenthal-Bielatal","type":"Kreisangehörige_Gemeinde"},"district":{"key":"14628","name":"Sächsische Schweiz-Osterzgebirge","type":"Landkreis"},"federalState":{"key":"14","name":"Sachsen"}},{"name":"Lampertstr.","postalCode":"01824","locality":"Rosenthal-Bielatal","municipality":{"key":"14628340","name":"Rosenthal-Bielatal","type":"Kreisangehörige_Gemeinde"},"district":{"key":"14628","name":"Sächsische Schweiz-Osterzgebirge","type":"Landkreis"},"federalState":{"key":"14","name":"Sachsen"}},{"name":"Lange Str.","postalCode":"01824","locality":"Rosenthal-Bielatal","municipality":{"key":"14628340","name":"Rosenthal-Bielatal","type":"Kreisangehörige_Gemeinde"},"district":{"key":"14628","name":"Sächsische Schweiz-Osterzgebirge","type":"Landkreis"},"federalState":{"key":"14","name":"Sachsen"}},{"name":"Lärchenweg","postalCode":"35119","locality":"Rosenthal","municipality":{"key":"06635017","name":"Rosenthal, Stadt","type":"Stadt"},"district":{"key":"06635","name":"Waldeck-Frankenberg","type":"Landkreis"},"federalState":{"key":"06","name":"Hessen"}},{"name":"Lasker Weg","postalCode":"01920","locality":"Ralbitz-Rosenthal","municipality":{"key":"14625500","name":"Ralbitz-Rosenthal / Ralbicy-Róžant","type":"Kreisangehörige_Gemeinde"},"district":{"key":"14625","name":"Bautzen","type":"Landkreis"},"federalState":{"key":"14","name":"Sachsen"}},{"name":"Lattenweg","postalCode":"01824","locality":"Rosenthal-Bielatal","municipality":{"key":"14628340","name":"Rosenthal-Bielatal","type":"Kreisangehörige_Gemeinde"},"district":{"key":"14628","name":"Sächsische Schweiz-Osterzgebirge","type":"Landkreis"},"federalState":{"key":"14","name":"Sachsen"}},{"name":"Leichenweg","postalCode":"01824","locality":"Rosenthal-Bielatal","municipality":{"key":"14628340","name":"Rosenthal-Bielatal","type":"Kreisangehörige_Gemeinde"},"district":{"key":"14628","name":"Sächsische Schweiz-Osterzgebirge","type":"Landkreis"},"federalState":{"key":"14","name":"Sachsen"}},{"name":"Lerchenweg","postalCode":"07366","locality":"Rosenthal am Rennsteig","municipality":{"key":"16075136","name":"Rosenthal am Rennsteig","type":"Kreisangehörige_Gemeinde"},"district":{"key":"16075","name":"Saale-Orla-Kreis","type":"Landkreis"},"federalState":{"key":"16","name":"Thüringen"}},{"name":"Lindenrain","postalCode":"35119","locality":"Rosenthal","municipality":{"key":"06635017","name":"Rosenthal, Stadt","type":"Stadt"},"district":{"key":"06635","name":"Waldeck-Frankenberg","type":"Landkreis"},"federalState":{"key":"06","name":"Hessen"}},{"name":"Lindenstr.","postalCode":"01920","locality":"Ralbitz-Rosenthal","municipality":{"key":"14625500","name":"Ralbitz-Rosenthal / Ralbicy-Róžant","type":"Kreisangehörige_Gemeinde"},"district":{"key":"14625","name":"Bautzen","type":"Landkreis"},"federalState":{"key":"14","name":"Sachsen"}},{"name":"Lindenstr.","postalCode":"07366","locality":"Rosenthal am Rennsteig","municipality":{"key":"16075136","name":"Rosenthal am Rennsteig","type":"Kreisangehörige_Gemeinde"},"district":{"key":"16075","name":"Saale-Orla-Kreis","type":"Landkreis"},"federalState":{"key":"16","name":"Thüringen"}},{"name":"Lindenstr.","postalCode":"35119","locality":"Rosenthal","municipality":{"key":"06635017","name":"Rosenthal, Stadt","type":"Stadt"},"district":{"key":"06635","name":"Waldeck-Frankenberg","type":"Landkreis"},"federalState":{"key":"06","name":"Hessen"}},{"name":"Lindenweg","postalCode":"01824","locality":"Rosenthal-Bielatal","municipality":{"key":"14628340","name":"Rosenthal-Bielatal","type":"Kreisangehörige_Gemeinde"},"district":{"key":"14628","name":"Sächsische Schweiz-Osterzgebirge","type":"Landkreis"},"federalState":{"key":"14","name":"Sachsen"}},{"name":"Lindenweg","postalCode":"01920","locality":"Ralbitz-Rosenthal","municipality":{"key":"14625500","name":"Ralbitz-Rosenthal / Ralbicy-Róžant","type":"Kreisangehörige_Gemeinde"},"district":{"key":"14625","name":"Bautzen","type":"Landkreis"},"federalState":{"key":"14","name":"Sachsen"}},{"name":"Lindenweg","postalCode":"35119","locality":"Rosenthal","municipality":{"key":"06635017","name":"Rosenthal, Stadt","type":"Stadt"},"district":{"key":"06635","name":"Waldeck-Frankenberg","type":"Landkreis"},"federalState":{"key":"06","name":"Hessen"}},{"name":"Lobensteiner Str.","postalCode":"07366","locality":"Rosenthal am Rennsteig","municipality":{"key":"16075136","name":"Rosenthal am Rennsteig","type":"Kreisangehörige_Gemeinde"},"district":{"key":"16075","name":"Saale-Orla-Kreis","type":"Landkreis"},"federalState":{"key":"16","name":"Thüringen"}},{"name":"LPG-Str.","postalCode":"07366","locality":"Rosenthal am Rennsteig","municipality":{"key":"16075136","name":"Rosenthal am Rennsteig","type":"Kreisangehörige_Gemeinde"},"district":{"key":"16075","name":"Saale-Orla-Kreis","type":"Landkreis"},"federalState":{"key":"16","name":"Thüringen"}},{"name":"Marburger Str.","postalCode":"35119","locality":"Rosenthal","municipality":{"key":"06635017","name":"Rosenthal, Stadt","type":"Stadt"},"district":{"key":"06635","name":"Waldeck-Frankenberg","type":"Landkreis"},"federalState":{"key":"06","name":"Hessen"}},{"name":"Markersbacher Str.","postalCode":"01824","locality":"Rosenthal-Bielatal","municipality":{"key":"14628340","name":"Rosenthal-Bielatal","type":"Kreisangehörige_Gemeinde"},"district":{"key":"14628","name":"Sächsische Schweiz-Osterzgebirge","type":"Landkreis"},"federalState":{"key":"14","name":"Sachsen"}},{"name":"Markt","postalCode":"07366","locality":"Rosenthal am Rennsteig","municipality":{"key":"16075136","name":"Rosenthal am Rennsteig","type":"Kreisangehörige_Gemeinde"},"district":{"key":"16075","name":"Saale-Orla-Kreis","type":"Landkreis"},"federalState":{"key":"16","name":"Thüringen"}},{"name":"Marktgasse","postalCode":"07366","locality":"Rosenthal am Rennsteig","municipality":{"key":"16075136","name":"Rosenthal am Rennsteig","type":"Kreisangehörige_Gemeinde"},"district":{"key":"16075","name":"Saale-Orla-Kreis","type":"Landkreis"},"federalState":{"key":"16","name":"Thüringen"}},{"name":"Mastenweg","postalCode":"01824","locality":"Rosenthal-Bielatal","municipality":{"key":"14628340","name":"Rosenthal-Bielatal","type":"Kreisangehörige_Gemeinde"},"district":{"key":"14628","name":"Sächsische Schweiz-Osterzgebirge","type":"Landkreis"},"federalState":{"key":"14","name":"Sachsen"}},{"name":"Mathens Hohlweg","postalCode":"01824","locality":"Rosenthal-Bielatal","municipality":{"key":"14628340","name":"Rosenthal-Bielatal","type":"Kreisangehörige_Gemeinde"},"district":{"key":"14628","name":"Sächsische Schweiz-Osterzgebirge","type":"Landkreis"},"federalState":{"key":"14","name":"Sachsen"}},{"name":"Matheusweg","postalCode":"01824","locality":"Rosenthal-Bielatal","municipality":{"key":"14628340","name":"Rosenthal-Bielatal","type":"Kreisangehörige_Gemeinde"},"district":{"key":"14628","name":"Sächsische Schweiz-Osterzgebirge","type":"Landkreis"},"federalState":{"key":"14","name":"Sachsen"}},{"name":"Mäusebornweg","postalCode":"01824","locality":"Rosenthal-Bielatal","municipality":{"key":"14628340","name":"Rosenthal-Bielatal","type":"Kreisangehörige_Gemeinde"},"district":{"key":"14628","name":"Sächsische Schweiz-Osterzgebirge","type":"Landkreis"},"federalState":{"key":"14","name":"Sachsen"}},{"name":"Mehlsteig","postalCode":"01824","locality":"Rosenthal-Bielatal","municipality":{"key":"14628340","name":"Rosenthal-Bielatal","type":"Kreisangehörige_Gemeinde"},"district":{"key":"14628","name":"Sächsische Schweiz-Osterzgebirge","type":"Landkreis"},"federalState":{"key":"14","name":"Sachsen"}},{"name":"Michael-Bedrich-Str.","postalCode":"01920","locality":"Ralbitz-Rosenthal","municipality":{"key":"14625500","name":"Ralbitz-Rosenthal / Ralbicy-Róžant","type":"Kreisangehörige_Gemeinde"},"district":{"key":"14625","name":"Bautzen","type":"Landkreis"},"federalState":{"key":"14","name":"Sachsen"}},{"name":"Mittelhangweg","postalCode":"01824","locality":"Rosenthal-Bielatal","municipality":{"key":"14628340","name":"Rosenthal-Bielatal","type":"Kreisangehörige_Gemeinde"},"district":{"key":"14628","name":"Sächsische Schweiz-Osterzgebirge","type":"Landkreis"},"federalState":{"key":"14","name":"Sachsen"}},{"name":"Mittelweg","postalCode":"01824","locality":"Rosenthal-Bielatal","municipality":{"key":"14628340","name":"Rosenthal-Bielatal","type":"Kreisangehörige_Gemeinde"},"district":{"key":"14628","name":"Sächsische Schweiz-Osterzgebirge","type":"Landkreis"},"federalState":{"key":"14","name":"Sachsen"}},{"name":"Mittlerer Hühnerbergweg","postalCode":"01824","locality":"Rosenthal-Bielatal","municipality":{"key":"14628340","name":"Rosenthal-Bielatal","type":"Kreisangehörige_Gemeinde"},"district":{"key":"14628","name":"Sächsische Schweiz-Osterzgebirge","type":"Landkreis"},"federalState":{"key":"14","name":"Sachsen"}},{"name":"Mordgründel","postalCode":"01824","locality":"Rosenthal-Bielatal","municipality":{"key":"14628340","name":"Rosenthal-Bielatal","type":"Kreisangehörige_Gemeinde"},"district":{"key":"14628","name":"Sächsische Schweiz-Osterzgebirge","type":"Landkreis"},"federalState":{"key":"14","name":"Sachsen"}},{"name":"Mühlenweg","postalCode":"07366","locality":"Rosenthal am Rennsteig","municipality":{"key":"16075136","name":"Rosenthal am Rennsteig","type":"Kreisangehörige_Gemeinde"},"district":{"key":"16075","name":"Saale-Orla-Kreis","type":"Landkreis"},"federalState":{"key":"16","name":"Thüringen"}},{"name":"Mühlenweg","postalCode":"35119","locality":"Rosenthal","municipality":{"key":"06635017","name":"Rosenthal, Stadt","type":"Stadt"},"district":{"key":"06635","name":"Waldeck-Frankenberg","type":"Landkreis"},"federalState":{"key":"06","name":"Hessen"}},{"name":"Mühlweg","postalCode":"01824","locality":"Rosenthal-Bielatal","municipality":{"key":"14628340","name":"Rosenthal-Bielatal","type":"Kreisangehörige_Gemeinde"},"district":{"key":"14628","name":"Sächsische Schweiz-Osterzgebirge","type":"Landkreis"},"federalState":{"key":"14","name":"Sachsen"}},{"name":"Mühlweg","postalCode":"01920","locality":"Ralbitz-Rosenthal","municipality":{"key":"14625500","name":"Ralbitz-Rosenthal / Ralbicy-Róžant","type":"Kreisangehörige_Gemeinde"},"district":{"key":"14625","name":"Bautzen","type":"Landkreis"},"federalState":{"key":"14","name":"Sachsen"}},{"name":"Münchhäuser Weg","postalCode":"35119","locality":"Rosenthal","municipality":{"key":"06635017","name":"Rosenthal, Stadt","type":"Stadt"},"district":{"key":"06635","name":"Waldeck-Frankenberg","type":"Landkreis"},"federalState":{"key":"06","name":"Hessen"}},{"name":"Nässeweg","postalCode":"01824","locality":"Rosenthal-Bielatal","municipality":{"key":"14628340","name":"Rosenthal-Bielatal","type":"Kreisangehörige_Gemeinde"},"district":{"key":"14628","name":"Sächsische Schweiz-Osterzgebirge","type":"Landkreis"},"federalState":{"key":"14","name":"Sachsen"}},{"name":"Neidbergstr.","postalCode":"01824","locality":"Rosenthal-Bielatal","municipality":{"key":"14628340","name":"Rosenthal-Bielatal","type":"Kreisangehörige_Gemeinde"},"district":{"key":"14628","name":"Sächsische Schweiz-Osterzgebirge","type":"Landkreis"},"federalState":{"key":"14","name":"Sachsen"}},{"name":"Neuer Anbau","postalCode":"01824","locality":"Rosenthal-Bielatal","municipality":{"key":"14628340","name":"Rosenthal-Bielatal","type":"Kreisangehörige_Gemeinde"},"district":{"key":"14628","name":"Sächsische Schweiz-Osterzgebirge","type":"Landkreis"},"federalState":{"key":"14","name":"Sachsen"}},{"name":"Neuer Weg","postalCode":"07366","locality":"Rosenthal am Rennsteig","municipality":{"key":"16075136","name":"Rosenthal am Rennsteig","type":"Kreisangehörige_Gemeinde"},"district":{"key":"16075","name":"Saale-Orla-Kreis","type":"Landkreis"},"federalState":{"key":"16","name":"Thüringen"}},{"name":"Neue Str.","postalCode":"01824","locality":"Rosenthal-Bielatal","municipality":{"key":"14628340","name":"Rosenthal-Bielatal","type":"Kreisangehörige_Gemeinde"},"district":{"key":"14628","name":"Sächsische Schweiz-Osterzgebirge","type":"Landkreis"},"federalState":{"key":"14","name":"Sachsen"}},{"name":"Neustadt","postalCode":"07366","locality":"Rosenthal am Rennsteig","municipality":{"key":"16075136","name":"Rosenthal am Rennsteig","type":"Kreisangehörige_Gemeinde"},"district":{"key":"16075","name":"Saale-Orla-Kreis","type":"Landkreis"},"federalState":{"key":"16","name":"Thüringen"}},{"name":"Nikolaus-Andricki-Str.","postalCode":"01920","locality":"Ralbitz-Rosenthal","municipality":{"key":"14625500","name":"Ralbitz-Rosenthal / Ralbicy-Róžant","type":"Kreisangehörige_Gemeinde"},"district":{"key":"14625","name":"Bautzen","type":"Landkreis"},"federalState":{"key":"14","name":"Sachsen"}},{"name":"Nikolsdorfer Weg","postalCode":"01824","locality":"Rosenthal-Bielatal","municipality":{"key":"14628340","name":"Rosenthal-Bielatal","type":"Kreisangehörige_Gemeinde"},"district":{"key":"14628","name":"Sächsische Schweiz-Osterzgebirge","type":"Landkreis"},"federalState":{"key":"14","name":"Sachsen"}},{"name":"Oberer Fleischerweg","postalCode":"01824","locality":"Rosenthal-Bielatal","municipality":{"key":"14628340","name":"Rosenthal-Bielatal","type":"Kreisangehörige_Gemeinde"},"district":{"key":"14628","name":"Sächsische Schweiz-Osterzgebirge","type":"Landkreis"},"federalState":{"key":"14","name":"Sachsen"}},{"name":"Oberer Hühnerbergweg","postalCode":"01824","locality":"Rosenthal-Bielatal","municipality":{"key":"14628340","name":"Rosenthal-Bielatal","type":"Kreisangehörige_Gemeinde"},"district":{"key":"14628","name":"Sächsische Schweiz-Osterzgebirge","type":"Landkreis"},"federalState":{"key":"14","name":"Sachsen"}},{"name":"Oberer Lampertweg","postalCode":"01824","locality":"Rosenthal-Bielatal","municipality":{"key":"14628340","name":"Rosenthal-Bielatal","type":"Kreisangehörige_Gemeinde"},"district":{"key":"14628","name":"Sächsische Schweiz-Osterzgebirge","type":"Landkreis"},"federalState":{"key":"14","name":"Sachsen"}},{"name":"Oberer Mühlsteig","postalCode":"01824","locality":"Rosenthal-Bielatal","municipality":{"key":"14628340","name":"Rosenthal-Bielatal","type":"Kreisangehörige_Gemeinde"},"district":{"key":"14628","name":"Sächsische Schweiz-Osterzgebirge","type":"Landkreis"},"federalState":{"key":"14","name":"Sachsen"}},{"name":"Oberer Weg","postalCode":"07366","locality":"Rosenthal am Rennsteig","municipality":{"key":"16075136","name":"Rosenthal am Rennsteig","type":"Kreisangehörige_Gemeinde"},"district":{"key":"16075","name":"Saale-Orla-Kreis","type":"Landkreis"},"federalState":{"key":"16","name":"Thüringen"}},{"name":"Oberes Schwarzviertel","postalCode":"07366","locality":"Rosenthal am Rennsteig","municipality":{"key":"16075136","name":"Rosenthal am Rennsteig","type":"Kreisangehörige_Gemeinde"},"district":{"key":"16075","name":"Saale-Orla-Kreis","type":"Landkreis"},"federalState":{"key":"16","name":"Thüringen"}},{"name":"Obertor","postalCode":"35119","locality":"Rosenthal","municipality":{"key":"06635017","name":"Rosenthal, Stadt","type":"Stadt"},"district":{"key":"06635","name":"Waldeck-Frankenberg","type":"Landkreis"},"federalState":{"key":"06","name":"Hessen"}},{"name":"Ortsstr.","postalCode":"07366","locality":"Rosenthal am Rennsteig","municipality":{"key":"16075136","name":"Rosenthal am Rennsteig","type":"Kreisangehörige_Gemeinde"},"district":{"key":"16075","name":"Saale-Orla-Kreis","type":"Landkreis"},"federalState":{"key":"16","name":"Thüringen"}},{"name":"Osterreiterweg","postalCode":"01920","locality":"Ralbitz-Rosenthal","municipality":{"key":"14625500","name":"Ralbitz-Rosenthal / Ralbicy-Róžant","type":"Kreisangehörige_Gemeinde"},"district":{"key":"14625","name":"Bautzen","type":"Landkreis"},"federalState":{"key":"14","name":"Sachsen"}},{"name":"Ottersbergweg","postalCode":"35119","locality":"Rosenthal","municipality":{"key":"06635017","name":"Rosenthal, Stadt","type":"Stadt"},"district":{"key":"06635","name":"Waldeck-Frankenberg","type":"Landkreis"},"federalState":{"key":"06","name":"Hessen"}},{"name":"Ottomühle","postalCode":"01824","locality":"Rosenthal-Bielatal","municipality":{"key":"14628340","name":"Rosenthal-Bielatal","type":"Kreisangehörige_Gemeinde"},"district":{"key":"14628","name":"Sächsische Schweiz-Osterzgebirge","type":"Landkreis"},"federalState":{"key":"14","name":"Sachsen"}},{"name":"Park Seniorenresidenz","postalCode":"01824","locality":"Rosenthal-Bielatal","municipality":{"key":"14628340","name":"Rosenthal-Bielatal","type":"Kreisangehörige_Gemeinde"},"district":{"key":"14628","name":"Sächsische Schweiz-Osterzgebirge","type":"Landkreis"},"federalState":{"key":"14","name":"Sachsen"}},{"name":"Pechweg","postalCode":"01824","locality":"Rosenthal-Bielatal","municipality":{"key":"14628340","name":"Rosenthal-Bielatal","type":"Kreisangehörige_Gemeinde"},"district":{"key":"14628","name":"Sächsische Schweiz-Osterzgebirge","type":"Landkreis"},"federalState":{"key":"14","name":"Sachsen"}},{"name":"Pirnaer Str.","postalCode":"01824","locality":"Rosenthal-Bielatal","municipality":{"key":"14628340","name":"Rosenthal-Bielatal","type":"Kreisangehörige_Gemeinde"},"district":{"key":"14628","name":"Sächsische Schweiz-Osterzgebirge","type":"Landkreis"},"federalState":{"key":"14","name":"Sachsen"}},{"name":"Quellweg","postalCode":"01824","locality":"Rosenthal-Bielatal","municipality":{"key":"14628340","name":"Rosenthal-Bielatal","type":"Kreisangehörige_Gemeinde"},"district":{"key":"14628","name":"Sächsische Schweiz-Osterzgebirge","type":"Landkreis"},"federalState":{"key":"14","name":"Sachsen"}},{"name":"Rabenboden","postalCode":"35119","locality":"Rosenthal","municipality":{"key":"06635017","name":"Rosenthal, Stadt","type":"Stadt"},"district":{"key":"06635","name":"Waldeck-Frankenberg","type":"Landkreis"},"federalState":{"key":"06","name":"Hessen"}},{"name":"Radlubinstr.","postalCode":"01920","locality":"Ralbitz-Rosenthal","municipality":{"key":"14625500","name":"Ralbitz-Rosenthal / Ralbicy-Róžant","type":"Kreisangehörige_Gemeinde"},"district":{"key":"14625","name":"Bautzen","type":"Landkreis"},"federalState":{"key":"14","name":"Sachsen"}},{"name":"Raublochstr.","postalCode":"01824","locality":"Rosenthal-Bielatal","municipality":{"key":"14628340","name":"Rosenthal-Bielatal","type":"Kreisangehörige_Gemeinde"},"district":{"key":"14628","name":"Sächsische Schweiz-Osterzgebirge","type":"Landkreis"},"federalState":{"key":"14","name":"Sachsen"}},{"name":"Raumstr.","postalCode":"01824","locality":"Rosenthal-Bielatal","municipality":{"key":"14628340","name":"Rosenthal-Bielatal","type":"Kreisangehörige_Gemeinde"},"district":{"key":"14628","name":"Sächsische Schweiz-Osterzgebirge","type":"Landkreis"},"federalState":{"key":"14","name":"Sachsen"}},{"name":"Rehberg","postalCode":"07366","locality":"Rosenthal am Rennsteig","municipality":{"key":"16075136","name":"Rosenthal am Rennsteig","type":"Kreisangehörige_Gemeinde"},"district":{"key":"16075","name":"Saale-Orla-Kreis","type":"Landkreis"},"federalState":{"key":"16","name":"Thüringen"}},{"name":"Reichenstr.","postalCode":"01920","locality":"Ralbitz-Rosenthal","municipality":{"key":"14625500","name":"Ralbitz-Rosenthal / Ralbicy-Róžant","type":"Kreisangehörige_Gemeinde"},"district":{"key":"14625","name":"Bautzen","type":"Landkreis"},"federalState":{"key":"14","name":"Sachsen"}},{"name":"Reichsteiner Str.","postalCode":"01824","locality":"Rosenthal-Bielatal","municipality":{"key":"14628340","name":"Rosenthal-Bielatal","type":"Kreisangehörige_Gemeinde"},"district":{"key":"14628","name":"Sächsische Schweiz-Osterzgebirge","type":"Landkreis"},"federalState":{"key":"14","name":"Sachsen"}},{"name":"Reisbergstr.","postalCode":"35119","locality":"Rosenthal","municipality":{"key":"06635017","name":"Rosenthal, Stadt","type":"Stadt"},"district":{"key":"06635","name":"Waldeck-Frankenberg","type":"Landkreis"},"federalState":{"key":"06","name":"Hessen"}},{"name":"Rennsteig","postalCode":"07366","locality":"Rosenthal am Rennsteig","municipality":{"key":"16075136","name":"Rosenthal am Rennsteig","type":"Kreisangehörige_Gemeinde"},"district":{"key":"16075","name":"Saale-Orla-Kreis","type":"Landkreis"},"federalState":{"key":"16","name":"Thüringen"}},{"name":"Rennsteigpark","postalCode":"07366","locality":"Rosenthal am Rennsteig","municipality":{"key":"16075136","name":"Rosenthal am Rennsteig","type":"Kreisangehörige_Gemeinde"},"district":{"key":"16075","name":"Saale-Orla-Kreis","type":"Landkreis"},"federalState":{"key":"16","name":"Thüringen"}},{"name":"Riedweg","postalCode":"35119","locality":"Rosenthal","municipality":{"key":"06635017","name":"Rosenthal, Stadt","type":"Stadt"},"district":{"key":"06635","name":"Waldeck-Frankenberg","type":"Landkreis"},"federalState":{"key":"06","name":"Hessen"}},{"name":"Ringstr.","postalCode":"35119","locality":"Rosenthal","municipality":{"key":"06635017","name":"Rosenthal, Stadt","type":"Stadt"},"district":{"key":"06635","name":"Waldeck-Frankenberg","type":"Landkreis"},"federalState":{"key":"06","name":"Hessen"}},{"name":"Rodaer Str.","postalCode":"35119","locality":"Rosenthal","municipality":{"key":"06635017","name":"Rosenthal, Stadt","type":"Stadt"},"district":{"key":"06635","name":"Waldeck-Frankenberg","type":"Landkreis"},"federalState":{"key":"06","name":"Hessen"}},{"name":"Rodebachweg","postalCode":"35119","locality":"Rosenthal","municipality":{"key":"06635017","name":"Rosenthal, Stadt","type":"Stadt"},"district":{"key":"06635","name":"Waldeck-Frankenberg","type":"Landkreis"},"federalState":{"key":"06","name":"Hessen"}},{"name":"Romuald-Domaschke-Str.","postalCode":"01920","locality":"Ralbitz-Rosenthal","municipality":{"key":"14625500","name":"Ralbitz-Rosenthal / Ralbicy-Róžant","type":"Kreisangehörige_Gemeinde"},"district":{"key":"14625","name":"Bautzen","type":"Landkreis"},"federalState":{"key":"14","name":"Sachsen"}},{"name":"Rondel","postalCode":"35119","locality":"Rosenthal","municipality":{"key":"06635017","name":"Rosenthal, Stadt","type":"Stadt"},"district":{"key":"06635","name":"Waldeck-Frankenberg","type":"Landkreis"},"federalState":{"key":"06","name":"Hessen"}},{"name":"Rosenstr.","postalCode":"35119","locality":"Rosenthal","municipality":{"key":"06635017","name":"Rosenthal, Stadt","type":"Stadt"},"district":{"key":"06635","name":"Waldeck-Frankenberg","type":"Landkreis"},"federalState":{"key":"06","name":"Hessen"}},{"name":"Rosenthal","postalCode":"01824","locality":"Rosenthal-Bielatal","municipality":{"key":"14628340","name":"Rosenthal-Bielatal","type":"Kreisangehörige_Gemeinde"},"district":{"key":"14628","name":"Sächsische Schweiz-Osterzgebirge","type":"Landkreis"},"federalState":{"key":"14","name":"Sachsen"}},{"name":"Rosenthaler Str.","postalCode":"01824","locality":"Rosenthal-Bielatal","municipality":{"key":"14628340","name":"Rosenthal-Bielatal","type":"Kreisangehörige_Gemeinde"},"district":{"key":"14628","name":"Sächsische Schweiz-Osterzgebirge","type":"Landkreis"},"federalState":{"key":"14","name":"Sachsen"}},{"name":"Rosenthaler Str.","postalCode":"01920","locality":"Ralbitz-Rosenthal","municipality":{"key":"14625500","name":"Ralbitz-Rosenthal / Ralbicy-Róžant","type":"Kreisangehörige_Gemeinde"},"district":{"key":"14625","name":"Bautzen","type":"Landkreis"},"federalState":{"key":"14","name":"Sachsen"}},{"name":"Rosenthaler Weg","postalCode":"01920","locality":"Ralbitz-Rosenthal","municipality":{"key":"14625500","name":"Ralbitz-Rosenthal / Ralbicy-Róžant","type":"Kreisangehörige_Gemeinde"},"district":{"key":"14625","name":"Bautzen","type":"Landkreis"},"federalState":{"key":"14","name":"Sachsen"}},{"name":"Rosenweg","postalCode":"07366","locality":"Rosenthal am Rennsteig","municipality":{"key":"16075136","name":"Rosenthal am Rennsteig","type":"Kreisangehörige_Gemeinde"},"district":{"key":"16075","name":"Saale-Orla-Kreis","type":"Landkreis"},"federalState":{"key":"16","name":"Thüringen"}},{"name":"Rübengarten","postalCode":"35119","locality":"Rosenthal","municipality":{"key":"06635017","name":"Rosenthal, Stadt","type":"Stadt"},"district":{"key":"06635","name":"Waldeck-Frankenberg","type":"Landkreis"},"federalState":{"key":"06","name":"Hessen"}},{"name":"Saalbachweg","postalCode":"07366","locality":"Rosenthal am Rennsteig","municipality":{"key":"16075136","name":"Rosenthal am Rennsteig","type":"Kreisangehörige_Gemeinde"},"district":{"key":"16075","name":"Saale-Orla-Kreis","type":"Landkreis"},"federalState":{"key":"16","name":"Thüringen"}},{"name":"Sandweg","postalCode":"35119","locality":"Rosenthal","municipality":{"key":"06635017","name":"Rosenthal, Stadt","type":"Stadt"},"district":{"key":"06635","name":"Waldeck-Frankenberg","type":"Landkreis"},"federalState":{"key":"06","name":"Hessen"}},{"name":"Sauergrundweg","postalCode":"35119","locality":"Rosenthal","municipality":{"key":"06635017","name":"Rosenthal, Stadt","type":"Stadt"},"district":{"key":"06635","name":"Waldeck-Frankenberg","type":"Landkreis"},"federalState":{"key":"06","name":"Hessen"}},{"name":"Schaftwaldweg","postalCode":"01824","locality":"Rosenthal-Bielatal","municipality":{"key":"14628340","name":"Rosenthal-Bielatal","type":"Kreisangehörige_Gemeinde"},"district":{"key":"14628","name":"Sächsische Schweiz-Osterzgebirge","type":"Landkreis"},"federalState":{"key":"14","name":"Sachsen"}},{"name":"Schießstandweg","postalCode":"35119","locality":"Rosenthal","municipality":{"key":"06635017","name":"Rosenthal, Stadt","type":"Stadt"},"district":{"key":"06635","name":"Waldeck-Frankenberg","type":"Landkreis"},"federalState":{"key":"06","name":"Hessen"}},{"name":"Schillerplatz","postalCode":"07366","locality":"Rosenthal am Rennsteig","municipality":{"key":"16075136","name":"Rosenthal am Rennsteig","type":"Kreisangehörige_Gemeinde"},"district":{"key":"16075","name":"Saale-Orla-Kreis","type":"Landkreis"},"federalState":{"key":"16","name":"Thüringen"}},{"name":"Schlegeler Str.","postalCode":"07366","locality":"Rosenthal am Rennsteig","municipality":{"key":"16075136","name":"Rosenthal am Rennsteig","type":"Kreisangehörige_Gemeinde"},"district":{"key":"16075","name":"Saale-Orla-Kreis","type":"Landkreis"},"federalState":{"key":"16","name":"Thüringen"}},{"name":"Schloßberg","postalCode":"07366","locality":"Rosenthal am Rennsteig","municipality":{"key":"16075136","name":"Rosenthal am Rennsteig","type":"Kreisangehörige_Gemeinde"},"district":{"key":"16075","name":"Saale-Orla-Kreis","type":"Landkreis"},"federalState":{"key":"16","name":"Thüringen"}},{"name":"Schneebergblick","postalCode":"01824","locality":"Rosenthal-Bielatal","municipality":{"key":"14628340","name":"Rosenthal-Bielatal","type":"Kreisangehörige_Gemeinde"},"district":{"key":"14628","name":"Sächsische Schweiz-Osterzgebirge","type":"Landkreis"},"federalState":{"key":"14","name":"Sachsen"}},{"name":"Schneeberger Str.","postalCode":"01824","locality":"Rosenthal-Bielatal","municipality":{"key":"14628340","name":"Rosenthal-Bielatal","type":"Kreisangehörige_Gemeinde"},"district":{"key":"14628","name":"Sächsische Schweiz-Osterzgebirge","type":"Landkreis"},"federalState":{"key":"14","name":"Sachsen"}},{"name":"Schnepfenrückweg","postalCode":"35119","locality":"Rosenthal","municipality":{"key":"06635017","name":"Rosenthal, Stadt","type":"Stadt"},"district":{"key":"06635","name":"Waldeck-Frankenberg","type":"Landkreis"},"federalState":{"key":"06","name":"Hessen"}},{"name":"Schönauer Str.","postalCode":"01920","locality":"Ralbitz-Rosenthal","municipality":{"key":"14625500","name":"Ralbitz-Rosenthal / Ralbicy-Róžant","type":"Kreisangehörige_Gemeinde"},"district":{"key":"14625","name":"Bautzen","type":"Landkreis"},"federalState":{"key":"14","name":"Sachsen"}},{"name":"Schulmeisterstr.","postalCode":"07366","locality":"Rosenthal am Rennsteig","municipality":{"key":"16075136","name":"Rosenthal am Rennsteig","type":"Kreisangehörige_Gemeinde"},"district":{"key":"16075","name":"Saale-Orla-Kreis","type":"Landkreis"},"federalState":{"key":"16","name":"Thüringen"}},{"name":"Schulstr.","postalCode":"01824","locality":"Rosenthal-Bielatal","municipality":{"key":"14628340","name":"Rosenthal-Bielatal","type":"Kreisangehörige_Gemeinde"},"district":{"key":"14628","name":"Sächsische Schweiz-Osterzgebirge","type":"Landkreis"},"federalState":{"key":"14","name":"Sachsen"}},{"name":"Schulstr.","postalCode":"01920","locality":"Ralbitz-Rosenthal","municipality":{"key":"14625500","name":"Ralbitz-Rosenthal / Ralbicy-Róžant","type":"Kreisangehörige_Gemeinde"},"district":{"key":"14625","name":"Bautzen","type":"Landkreis"},"federalState":{"key":"14","name":"Sachsen"}},{"name":"Schulstr.","postalCode":"07366","locality":"Rosenthal am Rennsteig","municipality":{"key":"16075136","name":"Rosenthal am Rennsteig","type":"Kreisangehörige_Gemeinde"},"district":{"key":"16075","name":"Saale-Orla-Kreis","type":"Landkreis"},"federalState":{"key":"16","name":"Thüringen"}},{"name":"Schulstr.","postalCode":"35119","locality":"Rosenthal","municipality":{"key":"06635017","name":"Rosenthal, Stadt","type":"Stadt"},"district":{"key":"06635","name":"Waldeck-Frankenberg","type":"Landkreis"},"federalState":{"key":"06","name":"Hessen"}},{"name":"Schulweg","postalCode":"01920","locality":"Ralbitz-Rosenthal","municipality":{"key":"14625500","name":"Ralbitz-Rosenthal / Ralbicy-Róžant","type":"Kreisangehörige_Gemeinde"},"district":{"key":"14625","name":"Bautzen","type":"Landkreis"},"federalState":{"key":"14","name":"Sachsen"}},{"name":"Schulweg","postalCode":"07366","locality":"Rosenthal am Rennsteig","municipality":{"key":"16075136","name":"Rosenthal am Rennsteig","type":"Kreisangehörige_Gemeinde"},"district":{"key":"16075","name":"Saale-Orla-Kreis","type":"Landkreis"},"federalState":{"key":"16","name":"Thüringen"}},{"name":"Schweizermühle","postalCode":"01824","locality":"Rosenthal-Bielatal","municipality":{"key":"14628340","name":"Rosenthal-Bielatal","type":"Kreisangehörige_Gemeinde"},"district":{"key":"14628","name":"Sächsische Schweiz-Osterzgebirge","type":"Landkreis"},"federalState":{"key":"14","name":"Sachsen"}},{"name":"Sehlener Str.","postalCode":"35119","locality":"Rosenthal","municipality":{"key":"06635017","name":"Rosenthal, Stadt","type":"Stadt"},"district":{"key":"06635","name":"Waldeck-Frankenberg","type":"Landkreis"},"federalState":{"key":"06","name":"Hessen"}},{"name":"Seibiser Str.","postalCode":"07366","locality":"Rosenthal am Rennsteig","municipality":{"key":"16075136","name":"Rosenthal am Rennsteig","type":"Kreisangehörige_Gemeinde"},"district":{"key":"16075","name":"Saale-Orla-Kreis","type":"Landkreis"},"federalState":{"key":"16","name":"Thüringen"}},{"name":"Seidau","postalCode":"01920","locality":"Ralbitz-Rosenthal","municipality":{"key":"14625500","name":"Ralbitz-Rosenthal / Ralbicy-Róžant","type":"Kreisangehörige_Gemeinde"},"district":{"key":"14625","name":"Bautzen","type":"Landkreis"},"federalState":{"key":"14","name":"Sachsen"}},{"name":"Seigertshäuser Weg","postalCode":"35119","locality":"Rosenthal","municipality":{"key":"06635017","name":"Rosenthal, Stadt","type":"Stadt"},"district":{"key":"06635","name":"Waldeck-Frankenberg","type":"Landkreis"},"federalState":{"key":"06","name":"Hessen"}},{"name":"Siedlung","postalCode":"01824","locality":"Rosenthal-Bielatal","municipality":{"key":"14628340","name":"Rosenthal-Bielatal","type":"Kreisangehörige_Gemeinde"},"district":{"key":"14628","name":"Sächsische Schweiz-Osterzgebirge","type":"Landkreis"},"federalState":{"key":"14","name":"Sachsen"}},{"name":"Siedlungsweg","postalCode":"01920","locality":"Ralbitz-Rosenthal","municipality":{"key":"14625500","name":"Ralbitz-Rosenthal / Ralbicy-Róžant","type":"Kreisangehörige_Gemeinde"},"district":{"key":"14625","name":"Bautzen","type":"Landkreis"},"federalState":{"key":"14","name":"Sachsen"}},{"name":"Siedlungsweg","postalCode":"07366","locality":"Rosenthal am Rennsteig","municipality":{"key":"16075136","name":"Rosenthal am Rennsteig","type":"Kreisangehörige_Gemeinde"},"district":{"key":"16075","name":"Saale-Orla-Kreis","type":"Landkreis"},"federalState":{"key":"16","name":"Thüringen"}},{"name":"Sommerhübelweg","postalCode":"01824","locality":"Rosenthal-Bielatal","municipality":{"key":"14628340","name":"Rosenthal-Bielatal","type":"Kreisangehörige_Gemeinde"},"district":{"key":"14628","name":"Sächsische Schweiz-Osterzgebirge","type":"Landkreis"},"federalState":{"key":"14","name":"Sachsen"}},{"name":"Spitzsteinweg","postalCode":"01824","locality":"Rosenthal-Bielatal","municipality":{"key":"14628340","name":"Rosenthal-Bielatal","type":"Kreisangehörige_Gemeinde"},"district":{"key":"14628","name":"Sächsische Schweiz-Osterzgebirge","type":"Landkreis"},"federalState":{"key":"14","name":"Sachsen"}},{"name":"Spratzberg","postalCode":"07366","locality":"Rosenthal am Rennsteig","municipality":{"key":"16075136","name":"Rosenthal am Rennsteig","type":"Kreisangehörige_Gemeinde"},"district":{"key":"16075","name":"Saale-Orla-Kreis","type":"Landkreis"},"federalState":{"key":"16","name":"Thüringen"}},{"name":"Stadtpark","postalCode":"35119","locality":"Rosenthal","municipality":{"key":"06635017","name":"Rosenthal, Stadt","type":"Stadt"},"district":{"key":"06635","name":"Waldeck-Frankenberg","type":"Landkreis"},"federalState":{"key":"06","name":"Hessen"}},{"name":"Staudenwiese","postalCode":"07366","locality":"Rosenthal am Rennsteig","municipality":{"key":"16075136","name":"Rosenthal am Rennsteig","type":"Kreisangehörige_Gemeinde"},"district":{"key":"16075","name":"Saale-Orla-Kreis","type":"Landkreis"},"federalState":{"key":"16","name":"Thüringen"}},{"name":"Steinbornweg","postalCode":"01824","locality":"Rosenthal-Bielatal","municipality":{"key":"14628340","name":"Rosenthal-Bielatal","type":"Kreisangehörige_Gemeinde"},"district":{"key":"14628","name":"Sächsische Schweiz-Osterzgebirge","type":"Landkreis"},"federalState":{"key":"14","name":"Sachsen"}},{"name":"Stempelweg","postalCode":"35119","locality":"Rosenthal","municipality":{"key":"06635017","name":"Rosenthal, Stadt","type":"Stadt"},"district":{"key":"06635","name":"Waldeck-Frankenberg","type":"Landkreis"},"federalState":{"key":"06","name":"Hessen"}},{"name":"Stollenweg","postalCode":"07366","locality":"Rosenthal am Rennsteig","municipality":{"key":"16075136","name":"Rosenthal am Rennsteig","type":"Kreisangehörige_Gemeinde"},"district":{"key":"16075","name":"Saale-Orla-Kreis","type":"Landkreis"},"federalState":{"key":"16","name":"Thüringen"}},{"name":"Str. der Einheit","postalCode":"07366","locality":"Rosenthal am Rennsteig","municipality":{"key":"16075136","name":"Rosenthal am Rennsteig","type":"Kreisangehörige_Gemeinde"},"district":{"key":"16075","name":"Saale-Orla-Kreis","type":"Landkreis"},"federalState":{"key":"16","name":"Thüringen"}},{"name":"Str. des Friedens","postalCode":"07366","locality":"Rosenthal am Rennsteig","municipality":{"key":"16075136","name":"Rosenthal am Rennsteig","type":"Kreisangehörige_Gemeinde"},"district":{"key":"16075","name":"Saale-Orla-Kreis","type":"Landkreis"},"federalState":{"key":"16","name":"Thüringen"}},{"name":"Talhäuserweg","postalCode":"35119","locality":"Rosenthal","municipality":{"key":"06635017","name":"Rosenthal, Stadt","type":"Stadt"},"district":{"key":"06635","name":"Waldeck-Frankenberg","type":"Landkreis"},"federalState":{"key":"06","name":"Hessen"}},{"name":"Talhäuser Weg","postalCode":"35119","locality":"Rosenthal","municipality":{"key":"06635017","name":"Rosenthal, Stadt","type":"Stadt"},"district":{"key":"06635","name":"Waldeck-Frankenberg","type":"Landkreis"},"federalState":{"key":"06","name":"Hessen"}},{"name":"Talstr.","postalCode":"01824","locality":"Rosenthal-Bielatal","municipality":{"key":"14628340","name":"Rosenthal-Bielatal","type":"Kreisangehörige_Gemeinde"},"district":{"key":"14628","name":"Sächsische Schweiz-Osterzgebirge","type":"Landkreis"},"federalState":{"key":"14","name":"Sachsen"}},{"name":"Taubengründelweg","postalCode":"01824","locality":"Rosenthal-Bielatal","municipality":{"key":"14628340","name":"Rosenthal-Bielatal","type":"Kreisangehörige_Gemeinde"},"district":{"key":"14628","name":"Sächsische Schweiz-Osterzgebirge","type":"Landkreis"},"federalState":{"key":"14","name":"Sachsen"}},{"name":"Teichstr.","postalCode":"01920","locality":"Ralbitz-Rosenthal","municipality":{"key":"14625500","name":"Ralbitz-Rosenthal / Ralbicy-Róžant","type":"Kreisangehörige_Gemeinde"},"district":{"key":"14625","name":"Bautzen","type":"Landkreis"},"federalState":{"key":"14","name":"Sachsen"}},{"name":"Teichstr.","postalCode":"07366","locality":"Rosenthal am Rennsteig","municipality":{"key":"16075136","name":"Rosenthal am Rennsteig","type":"Kreisangehörige_Gemeinde"},"district":{"key":"16075","name":"Saale-Orla-Kreis","type":"Landkreis"},"federalState":{"key":"16","name":"Thüringen"}},{"name":"Teichweg","postalCode":"01824","locality":"Rosenthal-Bielatal","municipality":{"key":"14628340","name":"Rosenthal-Bielatal","type":"Kreisangehörige_Gemeinde"},"district":{"key":"14628","name":"Sächsische Schweiz-Osterzgebirge","type":"Landkreis"},"federalState":{"key":"14","name":"Sachsen"}},{"name":"Teichweg","postalCode":"35119","locality":"Rosenthal","municipality":{"key":"06635017","name":"Rosenthal, Stadt","type":"Stadt"},"district":{"key":"06635","name":"Waldeck-Frankenberg","type":"Landkreis"},"federalState":{"key":"06","name":"Hessen"}},{"name":"Theilemannweg","postalCode":"01824","locality":"Rosenthal-Bielatal","municipality":{"key":"14628340","name":"Rosenthal-Bielatal","type":"Kreisangehörige_Gemeinde"},"district":{"key":"14628","name":"Sächsische Schweiz-Osterzgebirge","type":"Landkreis"},"federalState":{"key":"14","name":"Sachsen"}},{"name":"Tiergarten","postalCode":"07366","locality":"Rosenthal am Rennsteig","municipality":{"key":"16075136","name":"Rosenthal am Rennsteig","type":"Kreisangehörige_Gemeinde"},"district":{"key":"16075","name":"Saale-Orla-Kreis","type":"Landkreis"},"federalState":{"key":"16","name":"Thüringen"}},{"name":"Tivoli","postalCode":"07366","locality":"Rosenthal am Rennsteig","municipality":{"key":"16075136","name":"Rosenthal am Rennsteig","type":"Kreisangehörige_Gemeinde"},"district":{"key":"16075","name":"Saale-Orla-Kreis","type":"Landkreis"},"federalState":{"key":"16","name":"Thüringen"}},{"name":"Torstr.","postalCode":"35119","locality":"Rosenthal","municipality":{"key":"06635017","name":"Rosenthal, Stadt","type":"Stadt"},"district":{"key":"06635","name":"Waldeck-Frankenberg","type":"Landkreis"},"federalState":{"key":"06","name":"Hessen"}},{"name":"Truppener Str.","postalCode":"01920","locality":"Ralbitz-Rosenthal","municipality":{"key":"14625500","name":"Ralbitz-Rosenthal / Ralbicy-Róžant","type":"Kreisangehörige_Gemeinde"},"district":{"key":"14625","name":"Bautzen","type":"Landkreis"},"federalState":{"key":"14","name":"Sachsen"}},{"name":"Unter der Schule","postalCode":"35119","locality":"Rosenthal","municipality":{"key":"06635017","name":"Rosenthal, Stadt","type":"Stadt"},"district":{"key":"06635","name":"Waldeck-Frankenberg","type":"Landkreis"},"federalState":{"key":"06","name":"Hessen"}},{"name":"Unterer Fleischerweg","postalCode":"01824","locality":"Rosenthal-Bielatal","municipality":{"key":"14628340","name":"Rosenthal-Bielatal","type":"Kreisangehörige_Gemeinde"},"district":{"key":"14628","name":"Sächsische Schweiz-Osterzgebirge","type":"Landkreis"},"federalState":{"key":"14","name":"Sachsen"}},{"name":"Unterer Hühnerbergweg","postalCode":"01824","locality":"Rosenthal-Bielatal","municipality":{"key":"14628340","name":"Rosenthal-Bielatal","type":"Kreisangehörige_Gemeinde"},"district":{"key":"14628","name":"Sächsische Schweiz-Osterzgebirge","type":"Landkreis"},"federalState":{"key":"14","name":"Sachsen"}},{"name":"Unterer Weg","postalCode":"07366","locality":"Rosenthal am Rennsteig","municipality":{"key":"16075136","name":"Rosenthal am Rennsteig","type":"Kreisangehörige_Gemeinde"},"district":{"key":"16075","name":"Saale-Orla-Kreis","type":"Landkreis"},"federalState":{"key":"16","name":"Thüringen"}},{"name":"Unteres Schwarzviertel","postalCode":"07366","locality":"Rosenthal am Rennsteig","municipality":{"key":"16075136","name":"Rosenthal am Rennsteig","type":"Kreisangehörige_Gemeinde"},"district":{"key":"16075","name":"Saale-Orla-Kreis","type":"Landkreis"},"federalState":{"key":"16","name":"Thüringen"}},{"name":"Urbachweg","postalCode":"35119","locality":"Rosenthal","municipality":{"key":"06635017","name":"Rosenthal, Stadt","type":"Stadt"},"district":{"key":"06635","name":"Waldeck-Frankenberg","type":"Landkreis"},"federalState":{"key":"06","name":"Hessen"}},{"name":"Vor dem Reisberg","postalCode":"35119","locality":"Rosenthal","municipality":{"key":"06635017","name":"Rosenthal, Stadt","type":"Stadt"},"district":{"key":"06635","name":"Waldeck-Frankenberg","type":"Landkreis"},"federalState":{"key":"06","name":"Hessen"}},{"name":"Vorwerkweg","postalCode":"01824","locality":"Rosenthal-Bielatal","municipality":{"key":"14628340","name":"Rosenthal-Bielatal","type":"Kreisangehörige_Gemeinde"},"district":{"key":"14628","name":"Sächsische Schweiz-Osterzgebirge","type":"Landkreis"},"federalState":{"key":"14","name":"Sachsen"}},{"name":"Waldstr.","postalCode":"07366","locality":"Rosenthal am Rennsteig","municipality":{"key":"16075136","name":"Rosenthal am Rennsteig","type":"Kreisangehörige_Gemeinde"},"district":{"key":"16075","name":"Saale-Orla-Kreis","type":"Landkreis"},"federalState":{"key":"16","name":"Thüringen"}},{"name":"Waldstr.","postalCode":"35119","locality":"Rosenthal","municipality":{"key":"06635017","name":"Rosenthal, Stadt","type":"Stadt"},"district":{"key":"06635","name":"Waldeck-Frankenberg","type":"Landkreis"},"federalState":{"key":"06","name":"Hessen"}},{"name":"Waldweg","postalCode":"01920","locality":"Ralbitz-Rosenthal","municipality":{"key":"14625500","name":"Ralbitz-Rosenthal / Ralbicy-Róžant","type":"Kreisangehörige_Gemeinde"},"district":{"key":"14625","name":"Bautzen","type":"Landkreis"},"federalState":{"key":"14","name":"Sachsen"}},{"name":"Wallfahrtsweg","postalCode":"01920","locality":"Ralbitz-Rosenthal","municipality":{"key":"14625500","name":"Ralbitz-Rosenthal / Ralbicy-Róžant","type":"Kreisangehörige_Gemeinde"},"district":{"key":"14625","name":"Bautzen","type":"Landkreis"},"federalState":{"key":"14","name":"Sachsen"}},{"name":"Warthestr.","postalCode":"07366","locality":"Rosenthal am Rennsteig","municipality":{"key":"16075136","name":"Rosenthal am Rennsteig","type":"Kreisangehörige_Gemeinde"},"district":{"key":"16075","name":"Saale-Orla-Kreis","type":"Landkreis"},"federalState":{"key":"16","name":"Thüringen"}},{"name":"Wasserbergweg","postalCode":"35119","locality":"Rosenthal","municipality":{"key":"06635017","name":"Rosenthal, Stadt","type":"Stadt"},"district":{"key":"06635","name":"Waldeck-Frankenberg","type":"Landkreis"},"federalState":{"key":"06","name":"Hessen"}},{"name":"Weißtannenweg","postalCode":"35119","locality":"Rosenthal","municipality":{"key":"06635017","name":"Rosenthal, Stadt","type":"Stadt"},"district":{"key":"06635","name":"Waldeck-Frankenberg","type":"Landkreis"},"federalState":{"key":"06","name":"Hessen"}},{"name":"Wetterweg","postalCode":"35119","locality":"Rosenthal","municipality":{"key":"06635017","name":"Rosenthal, Stadt","type":"Stadt"},"district":{"key":"06635","name":"Waldeck-Frankenberg","type":"Landkreis"},"federalState":{"key":"06","name":"Hessen"}},{"name":"Wettschafttalstr.","postalCode":"35119","locality":"Rosenthal","municipality":{"key":"06635017","name":"Rosenthal, Stadt","type":"Stadt"},"district":{"key":"06635","name":"Waldeck-Frankenberg","type":"Landkreis"},"federalState":{"key":"06","name":"Hessen"}},{"name":"Wickenhohle","postalCode":"35119","locality":"Rosenthal","municipality":{"key":"06635017","name":"Rosenthal, Stadt","type":"Stadt"},"district":{"key":"06635","name":"Waldeck-Frankenberg","type":"Landkreis"},"federalState":{"key":"06","name":"Hessen"}},{"name":"Wiesenstr.","postalCode":"07366","locality":"Rosenthal am Rennsteig","municipality":{"key":"16075136","name":"Rosenthal am Rennsteig","type":"Kreisangehörige_Gemeinde"},"district":{"key":"16075","name":"Saale-Orla-Kreis","type":"Landkreis"},"federalState":{"key":"16","name":"Thüringen"}},{"name":"Wiesenweg","postalCode":"01824","locality":"Rosenthal-Bielatal","municipality":{"key":"14628340","name":"Rosenthal-Bielatal","type":"Kreisangehörige_Gemeinde"},"district":{"key":"14628","name":"Sächsische Schweiz-Osterzgebirge","type":"Landkreis"},"federalState":{"key":"14","name":"Sachsen"}},{"name":"Willershäuser Str.","postalCode":"35119","locality":"Rosenthal","municipality":{"key":"06635017","name":"Rosenthal, Stadt","type":"Stadt"},"district":{"key":"06635","name":"Waldeck-Frankenberg","type":"Landkreis"},"federalState":{"key":"06","name":"Hessen"}},{"name":"Winterleitenstr.","postalCode":"01824","locality":"Rosenthal-Bielatal","municipality":{"key":"14628340","name":"Rosenthal-Bielatal","type":"Kreisangehörige_Gemeinde"},"district":{"key":"14628","name":"Sächsische Schweiz-Osterzgebirge","type":"Landkreis"},"federalState":{"key":"14","name":"Sachsen"}},{"name":"Wittichenauer Str.","postalCode":"01920","locality":"Ralbitz-Rosenthal","municipality":{"key":"14625500","name":"Ralbitz-Rosenthal / Ralbicy-Róžant","type":"Kreisangehörige_Gemeinde"},"district":{"key":"14625","name":"Bautzen","type":"Landkreis"},"federalState":{"key":"14","name":"Sachsen"}},{"name":"Wolfsstall","postalCode":"35119","locality":"Rosenthal","municipality":{"key":"06635017","name":"Rosenthal, Stadt","type":"Stadt"},"district":{"key":"06635","name":"Waldeck-Frankenberg","type":"Landkreis"},"federalState":{"key":"06","name":"Hessen"}},{"name":"Wormsbergweg","postalCode":"01824","locality":"Rosenthal-Bielatal","municipality":{"key":"14628340","name":"Rosenthal-Bielatal","type":"Kreisangehörige_Gemeinde"},"district":{"key":"14628","name":"Sächsische Schweiz-Osterzgebirge","type":"Landkreis"},"federalState":{"key":"14","name":"Sachsen"}},{"name":"Wurzelweg","postalCode":"01824","locality":"Rosenthal-Bielatal","municipality":{"key":"14628340","name":"Rosenthal-Bielatal","type":"Kreisangehörige_Gemeinde"},"district":{"key":"14628","name":"Sächsische Schweiz-Osterzgebirge","type":"Landkreis"},"federalState":{"key":"14","name":"Sachsen"}},{"name":"Zeche","postalCode":"07366","locality":"Rosenthal am Rennsteig","municipality":{"key":"16075136","name":"Rosenthal am Rennsteig","type":"Kreisangehörige_Gemeinde"},"district":{"key":"16075","name":"Saale-Orla-Kreis","type":"Landkreis"},"federalState":{"key":"16","name":"Thüringen"}},{"name":"Zehntstr.","postalCode":"35119","locality":"Rosenthal","municipality":{"key":"06635017","name":"Rosenthal, Stadt","type":"Stadt"},"district":{"key":"06635","name":"Waldeck-Frankenberg","type":"Landkreis"},"federalState":{"key":"06","name":"Hessen"}},{"name":"Zernaer Str.","postalCode":"01920","locality":"Ralbitz-Rosenthal","municipality":{"key":"14625500","name":"Ralbitz-Rosenthal / Ralbicy-Róžant","type":"Kreisangehörige_Gemeinde"},"district":{"key":"14625","name":"Bautzen","type":"Landkreis"},"federalState":{"key":"14","name":"Sachsen"}},{"name":"Zum Stumpf","postalCode":"35119","locality":"Rosenthal","municipality":{"key":"06635017","name":"Rosenthal, Stadt","type":"Stadt"},"district":{"key":"06635","name":"Waldeck-Frankenberg","type":"Landkreis"},"federalState":{"key":"06","name":"Hessen"}},{"name":"Zum Vorwerk","postalCode":"01920","locality":"Ralbitz-Rosenthal","municipality":{"key":"14625500","name":"Ralbitz-Rosenthal / Ralbicy-Róžant","type":"Kreisangehörige_Gemeinde"},"district":{"key":"14625","name":"Bautzen","type":"Landkreis"},"federalState":{"key":"14","name":"Sachsen"}},{"name":"Zur alten Schule","postalCode":"07366","locality":"Rosenthal am Rennsteig","municipality":{"key":"16075136","name":"Rosenthal am Rennsteig","type":"Kreisangehörige_Gemeinde"},"district":{"key":"16075","name":"Saale-Orla-Kreis","type":"Landkreis"},"federalState":{"key":"16","name":"Thüringen"}},{"name":"Zur Harth","postalCode":"35119","locality":"Rosenthal","municipality":{"key":"06635017","name":"Rosenthal, Stadt","type":"Stadt"},"district":{"key":"06635","name":"Waldeck-Frankenberg","type":"Landkreis"},"federalState":{"key":"06","name":"Hessen"}},{"name":"Zur Marienkirche","postalCode":"01920","locality":"Ralbitz-Rosenthal","municipality":{"key":"14625500","name":"Ralbitz-Rosenthal / Ralbicy-Róžant","type":"Kreisangehörige_Gemeinde"},"district":{"key":"14625","name":"Bautzen","type":"Landkreis"},"federalState":{"key":"14","name":"Sachsen"}},{"name":"Zur Schmiede","postalCode":"01920","locality":"Ralbitz-Rosenthal","municipality":{"key":"14625500","name":"Ralbitz-Rosenthal / Ralbicy-Róžant","type":"Kreisangehörige_Gemeinde"},"district":{"key":"14625","name":"Bautzen","type":"Landkreis"},"federalState":{"key":"14","name":"Sachsen"}},]