[{"name":"Am Anger","postalCode":"06528","locality":"Edersleben","municipality":{"key":"15087125","name":"Edersleben","type":"Kreisangehörige_Gemeinde"},"district":{"key":"15087","name":"Mansfeld-Südharz","type":"Landkreis"},"federalState":{"key":"15","name":"Sachsen-Anhalt"}},{"name":"Am Borxlebener Weg","postalCode":"06528","locality":"Edersleben","municipality":{"key":"15087125","name":"Edersleben","type":"Kreisangehörige_Gemeinde"},"district":{"key":"15087","name":"Mansfeld-Südharz","type":"Landkreis"},"federalState":{"key":"15","name":"Sachsen-Anhalt"}},{"name":"An der Schule","postalCode":"06458","locality":"Hedersleben","municipality":{"key":"15085160","name":"Hedersleben","type":"Kreisangehörige_Gemeinde"},"district":{"key":"15085","name":"Harz","type":"Landkreis"},"federalState":{"key":"15","name":"Sachsen-Anhalt"}},{"name":"Angermühle","postalCode":"06458","locality":"Hedersleben","municipality":{"key":"15085160","name":"Hedersleben","type":"Kreisangehörige_Gemeinde"},"district":{"key":"15085","name":"Harz","type":"Landkreis"},"federalState":{"key":"15","name":"Sachsen-Anhalt"}},{"name":"Angerstr.","postalCode":"06458","locality":"Hedersleben","municipality":{"key":"15085160","name":"Hedersleben","type":"Kreisangehörige_Gemeinde"},"district":{"key":"15085","name":"Harz","type":"Landkreis"},"federalState":{"key":"15","name":"Sachsen-Anhalt"}},{"name":"Breite Str.","postalCode":"06458","locality":"Hedersleben","municipality":{"key":"15085160","name":"Hedersleben","type":"Kreisangehörige_Gemeinde"},"district":{"key":"15085","name":"Harz","type":"Landkreis"},"federalState":{"key":"15","name":"Sachsen-Anhalt"}},{"name":"Dr.-Külz-Str.","postalCode":"06528","locality":"Edersleben","municipality":{"key":"15087125","name":"Edersleben","type":"Kreisangehörige_Gemeinde"},"district":{"key":"15087","name":"Mansfeld-Südharz","type":"Landkreis"},"federalState":{"key":"15","name":"Sachsen-Anhalt"}},{"name":"Enge Gasse","postalCode":"06528","locality":"Edersleben","municipality":{"key":"15087125","name":"Edersleben","type":"Kreisangehörige_Gemeinde"},"district":{"key":"15087","name":"Mansfeld-Südharz","type":"Landkreis"},"federalState":{"key":"15","name":"Sachsen-Anhalt"}},{"name":"Ernst-Thälmann-Str.","postalCode":"06528","locality":"Edersleben","municipality":{"key":"15087125","name":"Edersleben","type":"Kreisangehörige_Gemeinde"},"district":{"key":"15087","name":"Mansfeld-Südharz","type":"Landkreis"},"federalState":{"key":"15","name":"Sachsen-Anhalt"}},{"name":"Feldstr.","postalCode":"06458","locality":"Hedersleben","municipality":{"key":"15085160","name":"Hedersleben","type":"Kreisangehörige_Gemeinde"},"district":{"key":"15085","name":"Harz","type":"Landkreis"},"federalState":{"key":"15","name":"Sachsen-Anhalt"}},{"name":"Friedensstr.","postalCode":"06458","locality":"Hedersleben","municipality":{"key":"15085160","name":"Hedersleben","type":"Kreisangehörige_Gemeinde"},"district":{"key":"15085","name":"Harz","type":"Landkreis"},"federalState":{"key":"15","name":"Sachsen-Anhalt"}},{"name":"Friedrich-Engels-Berg","postalCode":"06528","locality":"Edersleben","municipality":{"key":"15087125","name":"Edersleben","type":"Kreisangehörige_Gemeinde"},"district":{"key":"15087","name":"Mansfeld-Südharz","type":"Landkreis"},"federalState":{"key":"15","name":"Sachsen-Anhalt"}},{"name":"Gartenstr.","postalCode":"06458","locality":"Hedersleben","municipality":{"key":"15085160","name":"Hedersleben","type":"Kreisangehörige_Gemeinde"},"district":{"key":"15085","name":"Harz","type":"Landkreis"},"federalState":{"key":"15","name":"Sachsen-Anhalt"}},{"name":"Grüne Gasse","postalCode":"06528","locality":"Edersleben","municipality":{"key":"15087125","name":"Edersleben","type":"Kreisangehörige_Gemeinde"},"district":{"key":"15087","name":"Mansfeld-Südharz","type":"Landkreis"},"federalState":{"key":"15","name":"Sachsen-Anhalt"}},{"name":"Hakelstr.","postalCode":"06458","locality":"Hedersleben","municipality":{"key":"15085160","name":"Hedersleben","type":"Kreisangehörige_Gemeinde"},"district":{"key":"15085","name":"Harz","type":"Landkreis"},"federalState":{"key":"15","name":"Sachsen-Anhalt"}},{"name":"Halberstädter Str.","postalCode":"06458","locality":"Hedersleben","municipality":{"key":"15085160","name":"Hedersleben","type":"Kreisangehörige_Gemeinde"},"district":{"key":"15085","name":"Harz","type":"Landkreis"},"federalState":{"key":"15","name":"Sachsen-Anhalt"}},{"name":"Hausneindorfer Str.","postalCode":"06458","locality":"Hedersleben","municipality":{"key":"15085160","name":"Hedersleben","type":"Kreisangehörige_Gemeinde"},"district":{"key":"15085","name":"Harz","type":"Landkreis"},"federalState":{"key":"15","name":"Sachsen-Anhalt"}},{"name":"Hederslebener Weg","postalCode":"06458","locality":"Hedersleben","municipality":{"key":"15085160","name":"Hedersleben","type":"Kreisangehörige_Gemeinde"},"district":{"key":"15085","name":"Harz","type":"Landkreis"},"federalState":{"key":"15","name":"Sachsen-Anhalt"}},{"name":"Hüttenstr.","postalCode":"06458","locality":"Hedersleben","municipality":{"key":"15085160","name":"Hedersleben","type":"Kreisangehörige_Gemeinde"},"district":{"key":"15085","name":"Harz","type":"Landkreis"},"federalState":{"key":"15","name":"Sachsen-Anhalt"}},{"name":"Im Voigtstedter Feld","postalCode":"06528","locality":"Edersleben","municipality":{"key":"15087125","name":"Edersleben","type":"Kreisangehörige_Gemeinde"},"district":{"key":"15087","name":"Mansfeld-Südharz","type":"Landkreis"},"federalState":{"key":"15","name":"Sachsen-Anhalt"}},{"name":"Im Winkel","postalCode":"06458","locality":"Hedersleben","municipality":{"key":"15085160","name":"Hedersleben","type":"Kreisangehörige_Gemeinde"},"district":{"key":"15085","name":"Harz","type":"Landkreis"},"federalState":{"key":"15","name":"Sachsen-Anhalt"}},{"name":"Jordanstr.","postalCode":"06458","locality":"Hedersleben","municipality":{"key":"15085160","name":"Hedersleben","type":"Kreisangehörige_Gemeinde"},"district":{"key":"15085","name":"Harz","type":"Landkreis"},"federalState":{"key":"15","name":"Sachsen-Anhalt"}},{"name":"Karl-Liebknecht-Str.","postalCode":"06528","locality":"Edersleben","municipality":{"key":"15087125","name":"Edersleben","type":"Kreisangehörige_Gemeinde"},"district":{"key":"15087","name":"Mansfeld-Südharz","type":"Landkreis"},"federalState":{"key":"15","name":"Sachsen-Anhalt"}},{"name":"Karl-Marx-Str.","postalCode":"06528","locality":"Edersleben","municipality":{"key":"15087125","name":"Edersleben","type":"Kreisangehörige_Gemeinde"},"district":{"key":"15087","name":"Mansfeld-Südharz","type":"Landkreis"},"federalState":{"key":"15","name":"Sachsen-Anhalt"}},{"name":"Klosterstr.","postalCode":"06458","locality":"Hedersleben","municipality":{"key":"15085160","name":"Hedersleben","type":"Kreisangehörige_Gemeinde"},"district":{"key":"15085","name":"Harz","type":"Landkreis"},"federalState":{"key":"15","name":"Sachsen-Anhalt"}},{"name":"Krumme Str.","postalCode":"06458","locality":"Hedersleben","municipality":{"key":"15085160","name":"Hedersleben","type":"Kreisangehörige_Gemeinde"},"district":{"key":"15085","name":"Harz","type":"Landkreis"},"federalState":{"key":"15","name":"Sachsen-Anhalt"}},{"name":"Lindenstr.","postalCode":"06458","locality":"Hedersleben","municipality":{"key":"15085160","name":"Hedersleben","type":"Kreisangehörige_Gemeinde"},"district":{"key":"15085","name":"Harz","type":"Landkreis"},"federalState":{"key":"15","name":"Sachsen-Anhalt"}},{"name":"Magdeburger Str.","postalCode":"06458","locality":"Hedersleben","municipality":{"key":"15085160","name":"Hedersleben","type":"Kreisangehörige_Gemeinde"},"district":{"key":"15085","name":"Harz","type":"Landkreis"},"federalState":{"key":"15","name":"Sachsen-Anhalt"}},{"name":"Markbergstr.","postalCode":"06458","locality":"Hedersleben","municipality":{"key":"15085160","name":"Hedersleben","type":"Kreisangehörige_Gemeinde"},"district":{"key":"15085","name":"Harz","type":"Landkreis"},"federalState":{"key":"15","name":"Sachsen-Anhalt"}},{"name":"Mittelgasse","postalCode":"06528","locality":"Edersleben","municipality":{"key":"15087125","name":"Edersleben","type":"Kreisangehörige_Gemeinde"},"district":{"key":"15087","name":"Mansfeld-Südharz","type":"Landkreis"},"federalState":{"key":"15","name":"Sachsen-Anhalt"}},{"name":"Morgenstr.","postalCode":"06458","locality":"Hedersleben","municipality":{"key":"15085160","name":"Hedersleben","type":"Kreisangehörige_Gemeinde"},"district":{"key":"15085","name":"Harz","type":"Landkreis"},"federalState":{"key":"15","name":"Sachsen-Anhalt"}},{"name":"Mühlenstr.","postalCode":"06458","locality":"Hedersleben","municipality":{"key":"15085160","name":"Hedersleben","type":"Kreisangehörige_Gemeinde"},"district":{"key":"15085","name":"Harz","type":"Landkreis"},"federalState":{"key":"15","name":"Sachsen-Anhalt"}},{"name":"Neudorf","postalCode":"06528","locality":"Edersleben","municipality":{"key":"15087125","name":"Edersleben","type":"Kreisangehörige_Gemeinde"},"district":{"key":"15087","name":"Mansfeld-Südharz","type":"Landkreis"},"federalState":{"key":"15","name":"Sachsen-Anhalt"}},{"name":"Neue Siedlung","postalCode":"06528","locality":"Edersleben","municipality":{"key":"15087125","name":"Edersleben","type":"Kreisangehörige_Gemeinde"},"district":{"key":"15087","name":"Mansfeld-Südharz","type":"Landkreis"},"federalState":{"key":"15","name":"Sachsen-Anhalt"}},{"name":"Neue Str.","postalCode":"06528","locality":"Edersleben","municipality":{"key":"15087125","name":"Edersleben","type":"Kreisangehörige_Gemeinde"},"district":{"key":"15087","name":"Mansfeld-Südharz","type":"Landkreis"},"federalState":{"key":"15","name":"Sachsen-Anhalt"}},{"name":"Oberdorfstr.","postalCode":"06528","locality":"Edersleben","municipality":{"key":"15087125","name":"Edersleben","type":"Kreisangehörige_Gemeinde"},"district":{"key":"15087","name":"Mansfeld-Südharz","type":"Landkreis"},"federalState":{"key":"15","name":"Sachsen-Anhalt"}},{"name":"Planstr.","postalCode":"06458","locality":"Hedersleben","municipality":{"key":"15085160","name":"Hedersleben","type":"Kreisangehörige_Gemeinde"},"district":{"key":"15085","name":"Harz","type":"Landkreis"},"federalState":{"key":"15","name":"Sachsen-Anhalt"}},{"name":"Quedlinburger Str.","postalCode":"06458","locality":"Hedersleben","municipality":{"key":"15085160","name":"Hedersleben","type":"Kreisangehörige_Gemeinde"},"district":{"key":"15085","name":"Harz","type":"Landkreis"},"federalState":{"key":"15","name":"Sachsen-Anhalt"}},{"name":"Riethnordhäuser Str.","postalCode":"06528","locality":"Edersleben","municipality":{"key":"15087125","name":"Edersleben","type":"Kreisangehörige_Gemeinde"},"district":{"key":"15087","name":"Mansfeld-Südharz","type":"Landkreis"},"federalState":{"key":"15","name":"Sachsen-Anhalt"}},{"name":"Ritterstr.","postalCode":"06458","locality":"Hedersleben","municipality":{"key":"15085160","name":"Hedersleben","type":"Kreisangehörige_Gemeinde"},"district":{"key":"15085","name":"Harz","type":"Landkreis"},"federalState":{"key":"15","name":"Sachsen-Anhalt"}},{"name":"Schadelebener Weg","postalCode":"06458","locality":"Hedersleben","municipality":{"key":"15085160","name":"Hedersleben","type":"Kreisangehörige_Gemeinde"},"district":{"key":"15085","name":"Harz","type":"Landkreis"},"federalState":{"key":"15","name":"Sachsen-Anhalt"}},{"name":"Schmale Str.","postalCode":"06458","locality":"Hedersleben","municipality":{"key":"15085160","name":"Hedersleben","type":"Kreisangehörige_Gemeinde"},"district":{"key":"15085","name":"Harz","type":"Landkreis"},"federalState":{"key":"15","name":"Sachsen-Anhalt"}},{"name":"Schuhhof","postalCode":"06458","locality":"Hedersleben","municipality":{"key":"15085160","name":"Hedersleben","type":"Kreisangehörige_Gemeinde"},"district":{"key":"15085","name":"Harz","type":"Landkreis"},"federalState":{"key":"15","name":"Sachsen-Anhalt"}},{"name":"Schulstr.","postalCode":"06458","locality":"Hedersleben","municipality":{"key":"15085160","name":"Hedersleben","type":"Kreisangehörige_Gemeinde"},"district":{"key":"15085","name":"Harz","type":"Landkreis"},"federalState":{"key":"15","name":"Sachsen-Anhalt"}},{"name":"Schützenstr.","postalCode":"06458","locality":"Hedersleben","municipality":{"key":"15085160","name":"Hedersleben","type":"Kreisangehörige_Gemeinde"},"district":{"key":"15085","name":"Harz","type":"Landkreis"},"federalState":{"key":"15","name":"Sachsen-Anhalt"}},{"name":"Siedlung","postalCode":"06458","locality":"Hedersleben","municipality":{"key":"15085160","name":"Hedersleben","type":"Kreisangehörige_Gemeinde"},"district":{"key":"15085","name":"Harz","type":"Landkreis"},"federalState":{"key":"15","name":"Sachsen-Anhalt"}},{"name":"Siedlung","postalCode":"06528","locality":"Edersleben","municipality":{"key":"15087125","name":"Edersleben","type":"Kreisangehörige_Gemeinde"},"district":{"key":"15087","name":"Mansfeld-Südharz","type":"Landkreis"},"federalState":{"key":"15","name":"Sachsen-Anhalt"}},{"name":"Spenglerweg","postalCode":"06528","locality":"Edersleben","municipality":{"key":"15087125","name":"Edersleben","type":"Kreisangehörige_Gemeinde"},"district":{"key":"15087","name":"Mansfeld-Südharz","type":"Landkreis"},"federalState":{"key":"15","name":"Sachsen-Anhalt"}},{"name":"Stegstr.","postalCode":"06458","locality":"Hedersleben","municipality":{"key":"15085160","name":"Hedersleben","type":"Kreisangehörige_Gemeinde"},"district":{"key":"15085","name":"Harz","type":"Landkreis"},"federalState":{"key":"15","name":"Sachsen-Anhalt"}},{"name":"Tieforte","postalCode":"06458","locality":"Hedersleben","municipality":{"key":"15085160","name":"Hedersleben","type":"Kreisangehörige_Gemeinde"},"district":{"key":"15085","name":"Harz","type":"Landkreis"},"federalState":{"key":"15","name":"Sachsen-Anhalt"}},{"name":"Tiefortenstr.","postalCode":"06458","locality":"Hedersleben","municipality":{"key":"15085160","name":"Hedersleben","type":"Kreisangehörige_Gemeinde"},"district":{"key":"15085","name":"Harz","type":"Landkreis"},"federalState":{"key":"15","name":"Sachsen-Anhalt"}},{"name":"Verlorener Weg","postalCode":"06458","locality":"Hedersleben","municipality":{"key":"15085160","name":"Hedersleben","type":"Kreisangehörige_Gemeinde"},"district":{"key":"15085","name":"Harz","type":"Landkreis"},"federalState":{"key":"15","name":"Sachsen-Anhalt"}},{"name":"Walter-Rathenau-Str.","postalCode":"06528","locality":"Edersleben","municipality":{"key":"15087125","name":"Edersleben","type":"Kreisangehörige_Gemeinde"},"district":{"key":"15087","name":"Mansfeld-Südharz","type":"Landkreis"},"federalState":{"key":"15","name":"Sachsen-Anhalt"}},{"name":"Wasserstr.","postalCode":"06458","locality":"Hedersleben","municipality":{"key":"15085160","name":"Hedersleben","type":"Kreisangehörige_Gemeinde"},"district":{"key":"15085","name":"Harz","type":"Landkreis"},"federalState":{"key":"15","name":"Sachsen-Anhalt"}},{"name":"Winkelbreite","postalCode":"06458","locality":"Hedersleben","municipality":{"key":"15085160","name":"Hedersleben","type":"Kreisangehörige_Gemeinde"},"district":{"key":"15085","name":"Harz","type":"Landkreis"},"federalState":{"key":"15","name":"Sachsen-Anhalt"}},{"name":"Ziegelei","postalCode":"06528","locality":"Edersleben","municipality":{"key":"15087125","name":"Edersleben","type":"Kreisangehörige_Gemeinde"},"district":{"key":"15087","name":"Mansfeld-Südharz","type":"Landkreis"},"federalState":{"key":"15","name":"Sachsen-Anhalt"}},{"name":"Zum langen Stein","postalCode":"06528","locality":"Edersleben","municipality":{"key":"15087125","name":"Edersleben","type":"Kreisangehörige_Gemeinde"},"district":{"key":"15087","name":"Mansfeld-Südharz","type":"Landkreis"},"federalState":{"key":"15","name":"Sachsen-Anhalt"}},{"name":"zur Selkemündung","postalCode":"06458","locality":"Hedersleben","municipality":{"key":"15085160","name":"Hedersleben","type":"Kreisangehörige_Gemeinde"},"district":{"key":"15085","name":"Harz","type":"Landkreis"},"federalState":{"key":"15","name":"Sachsen-Anhalt"}},]