[{"name":"Adamsgarten","postalCode":"66346","locality":"Püttlingen","municipality":{"key":"10041515","name":"Püttlingen, Stadt","type":"Stadt"},"district":{"key":"10041","name":"Regionalverband Saarbrücken","type":"Regionalverband"},"federalState":{"key":"10","name":"Saarland"}},{"name":"Adlerweg","postalCode":"66346","locality":"Püttlingen","municipality":{"key":"10041515","name":"Püttlingen, Stadt","type":"Stadt"},"district":{"key":"10041","name":"Regionalverband Saarbrücken","type":"Regionalverband"},"federalState":{"key":"10","name":"Saarland"}},{"name":"Adolph-Kolping-Str.","postalCode":"66346","locality":"Püttlingen","municipality":{"key":"10041515","name":"Püttlingen, Stadt","type":"Stadt"},"district":{"key":"10041","name":"Regionalverband Saarbrücken","type":"Regionalverband"},"federalState":{"key":"10","name":"Saarland"}},{"name":"Ahornstr.","postalCode":"66346","locality":"Püttlingen","municipality":{"key":"10041515","name":"Püttlingen, Stadt","type":"Stadt"},"district":{"key":"10041","name":"Regionalverband Saarbrücken","type":"Regionalverband"},"federalState":{"key":"10","name":"Saarland"}},{"name":"Albert-Einstein-Str.","postalCode":"66346","locality":"Püttlingen","municipality":{"key":"10041515","name":"Püttlingen, Stadt","type":"Stadt"},"district":{"key":"10041","name":"Regionalverband Saarbrücken","type":"Regionalverband"},"federalState":{"key":"10","name":"Saarland"}},{"name":"Albert-Schweitzer-Str.","postalCode":"66346","locality":"Püttlingen","municipality":{"key":"10041515","name":"Püttlingen, Stadt","type":"Stadt"},"district":{"key":"10041","name":"Regionalverband Saarbrücken","type":"Regionalverband"},"federalState":{"key":"10","name":"Saarland"}},{"name":"Alfred-Delp-Str.","postalCode":"66346","locality":"Püttlingen","municipality":{"key":"10041515","name":"Püttlingen, Stadt","type":"Stadt"},"district":{"key":"10041","name":"Regionalverband Saarbrücken","type":"Regionalverband"},"federalState":{"key":"10","name":"Saarland"}},{"name":"Alleestr.","postalCode":"66346","locality":"Püttlingen","municipality":{"key":"10041515","name":"Püttlingen, Stadt","type":"Stadt"},"district":{"key":"10041","name":"Regionalverband Saarbrücken","type":"Regionalverband"},"federalState":{"key":"10","name":"Saarland"}},{"name":"Altenkesseler Str.","postalCode":"66346","locality":"Püttlingen","municipality":{"key":"10041515","name":"Püttlingen, Stadt","type":"Stadt"},"district":{"key":"10041","name":"Regionalverband Saarbrücken","type":"Regionalverband"},"federalState":{"key":"10","name":"Saarland"}},{"name":"Am Almeshofen","postalCode":"66346","locality":"Püttlingen","municipality":{"key":"10041515","name":"Püttlingen, Stadt","type":"Stadt"},"district":{"key":"10041","name":"Regionalverband Saarbrücken","type":"Regionalverband"},"federalState":{"key":"10","name":"Saarland"}},{"name":"Am Amelsberg","postalCode":"66346","locality":"Püttlingen","municipality":{"key":"10041515","name":"Püttlingen, Stadt","type":"Stadt"},"district":{"key":"10041","name":"Regionalverband Saarbrücken","type":"Regionalverband"},"federalState":{"key":"10","name":"Saarland"}},{"name":"Am Axknöpfchen","postalCode":"66346","locality":"Püttlingen","municipality":{"key":"10041515","name":"Püttlingen, Stadt","type":"Stadt"},"district":{"key":"10041","name":"Regionalverband Saarbrücken","type":"Regionalverband"},"federalState":{"key":"10","name":"Saarland"}},{"name":"Am Berg","postalCode":"66346","locality":"Püttlingen","municipality":{"key":"10041515","name":"Püttlingen, Stadt","type":"Stadt"},"district":{"key":"10041","name":"Regionalverband Saarbrücken","type":"Regionalverband"},"federalState":{"key":"10","name":"Saarland"}},{"name":"Am Bouser Weg","postalCode":"66346","locality":"Püttlingen","municipality":{"key":"10041515","name":"Püttlingen, Stadt","type":"Stadt"},"district":{"key":"10041","name":"Regionalverband Saarbrücken","type":"Regionalverband"},"federalState":{"key":"10","name":"Saarland"}},{"name":"Am Burgplatz","postalCode":"66346","locality":"Püttlingen","municipality":{"key":"10041515","name":"Püttlingen, Stadt","type":"Stadt"},"district":{"key":"10041","name":"Regionalverband Saarbrücken","type":"Regionalverband"},"federalState":{"key":"10","name":"Saarland"}},{"name":"Am Entenpfuhl","postalCode":"66346","locality":"Püttlingen","municipality":{"key":"10041515","name":"Püttlingen, Stadt","type":"Stadt"},"district":{"key":"10041","name":"Regionalverband Saarbrücken","type":"Regionalverband"},"federalState":{"key":"10","name":"Saarland"}},{"name":"Am Forst","postalCode":"66346","locality":"Püttlingen","municipality":{"key":"10041515","name":"Püttlingen, Stadt","type":"Stadt"},"district":{"key":"10041","name":"Regionalverband Saarbrücken","type":"Regionalverband"},"federalState":{"key":"10","name":"Saarland"}},{"name":"Am Friedhof","postalCode":"66346","locality":"Püttlingen","municipality":{"key":"10041515","name":"Püttlingen, Stadt","type":"Stadt"},"district":{"key":"10041","name":"Regionalverband Saarbrücken","type":"Regionalverband"},"federalState":{"key":"10","name":"Saarland"}},{"name":"Am Grubenbahnhof","postalCode":"66346","locality":"Püttlingen","municipality":{"key":"10041515","name":"Püttlingen, Stadt","type":"Stadt"},"district":{"key":"10041","name":"Regionalverband Saarbrücken","type":"Regionalverband"},"federalState":{"key":"10","name":"Saarland"}},{"name":"Am Güterbahnhof","postalCode":"66346","locality":"Püttlingen","municipality":{"key":"10041515","name":"Püttlingen, Stadt","type":"Stadt"},"district":{"key":"10041","name":"Regionalverband Saarbrücken","type":"Regionalverband"},"federalState":{"key":"10","name":"Saarland"}},{"name":"Am Heidknüppel","postalCode":"66346","locality":"Püttlingen","municipality":{"key":"10041515","name":"Püttlingen, Stadt","type":"Stadt"},"district":{"key":"10041","name":"Regionalverband Saarbrücken","type":"Regionalverband"},"federalState":{"key":"10","name":"Saarland"}},{"name":"Am Hermesbach","postalCode":"66346","locality":"Püttlingen","municipality":{"key":"10041515","name":"Püttlingen, Stadt","type":"Stadt"},"district":{"key":"10041","name":"Regionalverband Saarbrücken","type":"Regionalverband"},"federalState":{"key":"10","name":"Saarland"}},{"name":"Am Kirchenpfad","postalCode":"66346","locality":"Püttlingen","municipality":{"key":"10041515","name":"Püttlingen, Stadt","type":"Stadt"},"district":{"key":"10041","name":"Regionalverband Saarbrücken","type":"Regionalverband"},"federalState":{"key":"10","name":"Saarland"}},{"name":"Am Marienberg","postalCode":"66346","locality":"Püttlingen","municipality":{"key":"10041515","name":"Püttlingen, Stadt","type":"Stadt"},"district":{"key":"10041","name":"Regionalverband Saarbrücken","type":"Regionalverband"},"federalState":{"key":"10","name":"Saarland"}},{"name":"Am Marktplatz","postalCode":"66346","locality":"Püttlingen","municipality":{"key":"10041515","name":"Püttlingen, Stadt","type":"Stadt"},"district":{"key":"10041","name":"Regionalverband Saarbrücken","type":"Regionalverband"},"federalState":{"key":"10","name":"Saarland"}},{"name":"Am Morgenstern","postalCode":"66346","locality":"Püttlingen","municipality":{"key":"10041515","name":"Püttlingen, Stadt","type":"Stadt"},"district":{"key":"10041","name":"Regionalverband Saarbrücken","type":"Regionalverband"},"federalState":{"key":"10","name":"Saarland"}},{"name":"Am Mühlenberg","postalCode":"66346","locality":"Püttlingen","municipality":{"key":"10041515","name":"Püttlingen, Stadt","type":"Stadt"},"district":{"key":"10041","name":"Regionalverband Saarbrücken","type":"Regionalverband"},"federalState":{"key":"10","name":"Saarland"}},{"name":"Am Pfarrgarten","postalCode":"66346","locality":"Püttlingen","municipality":{"key":"10041515","name":"Püttlingen, Stadt","type":"Stadt"},"district":{"key":"10041","name":"Regionalverband Saarbrücken","type":"Regionalverband"},"federalState":{"key":"10","name":"Saarland"}},{"name":"Am Rebenberg","postalCode":"66346","locality":"Püttlingen","municipality":{"key":"10041515","name":"Püttlingen, Stadt","type":"Stadt"},"district":{"key":"10041","name":"Regionalverband Saarbrücken","type":"Regionalverband"},"federalState":{"key":"10","name":"Saarland"}},{"name":"Am Schlösschen","postalCode":"66346","locality":"Püttlingen","municipality":{"key":"10041515","name":"Püttlingen, Stadt","type":"Stadt"},"district":{"key":"10041","name":"Regionalverband Saarbrücken","type":"Regionalverband"},"federalState":{"key":"10","name":"Saarland"}},{"name":"Amselweg","postalCode":"66346","locality":"Püttlingen","municipality":{"key":"10041515","name":"Püttlingen, Stadt","type":"Stadt"},"district":{"key":"10041","name":"Regionalverband Saarbrücken","type":"Regionalverband"},"federalState":{"key":"10","name":"Saarland"}},{"name":"Am Viktoriaschacht","postalCode":"66346","locality":"Püttlingen","municipality":{"key":"10041515","name":"Püttlingen, Stadt","type":"Stadt"},"district":{"key":"10041","name":"Regionalverband Saarbrücken","type":"Regionalverband"},"federalState":{"key":"10","name":"Saarland"}},{"name":"Am Wäldchen","postalCode":"66346","locality":"Püttlingen","municipality":{"key":"10041515","name":"Püttlingen, Stadt","type":"Stadt"},"district":{"key":"10041","name":"Regionalverband Saarbrücken","type":"Regionalverband"},"federalState":{"key":"10","name":"Saarland"}},{"name":"Am Weiher","postalCode":"66346","locality":"Püttlingen","municipality":{"key":"10041515","name":"Püttlingen, Stadt","type":"Stadt"},"district":{"key":"10041","name":"Regionalverband Saarbrücken","type":"Regionalverband"},"federalState":{"key":"10","name":"Saarland"}},{"name":"Anne-Frank-Str.","postalCode":"66346","locality":"Püttlingen","municipality":{"key":"10041515","name":"Püttlingen, Stadt","type":"Stadt"},"district":{"key":"10041","name":"Regionalverband Saarbrücken","type":"Regionalverband"},"federalState":{"key":"10","name":"Saarland"}},{"name":"Arndtstr.","postalCode":"66346","locality":"Püttlingen","municipality":{"key":"10041515","name":"Püttlingen, Stadt","type":"Stadt"},"district":{"key":"10041","name":"Regionalverband Saarbrücken","type":"Regionalverband"},"federalState":{"key":"10","name":"Saarland"}},{"name":"Auener Str.","postalCode":"66346","locality":"Püttlingen","municipality":{"key":"10041515","name":"Püttlingen, Stadt","type":"Stadt"},"district":{"key":"10041","name":"Regionalverband Saarbrücken","type":"Regionalverband"},"federalState":{"key":"10","name":"Saarland"}},{"name":"Auf dem Hoff","postalCode":"66346","locality":"Püttlingen","municipality":{"key":"10041515","name":"Püttlingen, Stadt","type":"Stadt"},"district":{"key":"10041","name":"Regionalverband Saarbrücken","type":"Regionalverband"},"federalState":{"key":"10","name":"Saarland"}},{"name":"Auf der Mühlenwies","postalCode":"66346","locality":"Püttlingen","municipality":{"key":"10041515","name":"Püttlingen, Stadt","type":"Stadt"},"district":{"key":"10041","name":"Regionalverband Saarbrücken","type":"Regionalverband"},"federalState":{"key":"10","name":"Saarland"}},{"name":"Auf der Raht","postalCode":"66346","locality":"Püttlingen","municipality":{"key":"10041515","name":"Püttlingen, Stadt","type":"Stadt"},"district":{"key":"10041","name":"Regionalverband Saarbrücken","type":"Regionalverband"},"federalState":{"key":"10","name":"Saarland"}},{"name":"Auf der Schlecht","postalCode":"66346","locality":"Püttlingen","municipality":{"key":"10041515","name":"Püttlingen, Stadt","type":"Stadt"},"district":{"key":"10041","name":"Regionalverband Saarbrücken","type":"Regionalverband"},"federalState":{"key":"10","name":"Saarland"}},{"name":"Auf Rottern","postalCode":"66346","locality":"Püttlingen","municipality":{"key":"10041515","name":"Püttlingen, Stadt","type":"Stadt"},"district":{"key":"10041","name":"Regionalverband Saarbrücken","type":"Regionalverband"},"federalState":{"key":"10","name":"Saarland"}},{"name":"Bahnhofstr.","postalCode":"66346","locality":"Püttlingen","municipality":{"key":"10041515","name":"Püttlingen, Stadt","type":"Stadt"},"district":{"key":"10041","name":"Regionalverband Saarbrücken","type":"Regionalverband"},"federalState":{"key":"10","name":"Saarland"}},{"name":"Baptist-Himbert-Str.","postalCode":"66346","locality":"Püttlingen","municipality":{"key":"10041515","name":"Püttlingen, Stadt","type":"Stadt"},"district":{"key":"10041","name":"Regionalverband Saarbrücken","type":"Regionalverband"},"federalState":{"key":"10","name":"Saarland"}},{"name":"Bärenbergstr.","postalCode":"66346","locality":"Püttlingen","municipality":{"key":"10041515","name":"Püttlingen, Stadt","type":"Stadt"},"district":{"key":"10041","name":"Regionalverband Saarbrücken","type":"Regionalverband"},"federalState":{"key":"10","name":"Saarland"}},{"name":"Baustr. KA","postalCode":"66346","locality":"Püttlingen","municipality":{"key":"10041515","name":"Püttlingen, Stadt","type":"Stadt"},"district":{"key":"10041","name":"Regionalverband Saarbrücken","type":"Regionalverband"},"federalState":{"key":"10","name":"Saarland"}},{"name":"Beethovenstr.","postalCode":"66346","locality":"Püttlingen","municipality":{"key":"10041515","name":"Püttlingen, Stadt","type":"Stadt"},"district":{"key":"10041","name":"Regionalverband Saarbrücken","type":"Regionalverband"},"federalState":{"key":"10","name":"Saarland"}},{"name":"Behringstr.","postalCode":"66346","locality":"Püttlingen","municipality":{"key":"10041515","name":"Püttlingen, Stadt","type":"Stadt"},"district":{"key":"10041","name":"Regionalverband Saarbrücken","type":"Regionalverband"},"federalState":{"key":"10","name":"Saarland"}},{"name":"Beim Hölzernen Steg","postalCode":"66346","locality":"Püttlingen","municipality":{"key":"10041515","name":"Püttlingen, Stadt","type":"Stadt"},"district":{"key":"10041","name":"Regionalverband Saarbrücken","type":"Regionalverband"},"federalState":{"key":"10","name":"Saarland"}},{"name":"Beim Kreuz","postalCode":"66346","locality":"Püttlingen","municipality":{"key":"10041515","name":"Püttlingen, Stadt","type":"Stadt"},"district":{"key":"10041","name":"Regionalverband Saarbrücken","type":"Regionalverband"},"federalState":{"key":"10","name":"Saarland"}},{"name":"Beim Wölfelsbrunnen","postalCode":"66346","locality":"Püttlingen","municipality":{"key":"10041515","name":"Püttlingen, Stadt","type":"Stadt"},"district":{"key":"10041","name":"Regionalverband Saarbrücken","type":"Regionalverband"},"federalState":{"key":"10","name":"Saarland"}},{"name":"Bengeser Str.","postalCode":"66346","locality":"Püttlingen","municipality":{"key":"10041515","name":"Püttlingen, Stadt","type":"Stadt"},"district":{"key":"10041","name":"Regionalverband Saarbrücken","type":"Regionalverband"},"federalState":{"key":"10","name":"Saarland"}},{"name":"Bergmannsweg","postalCode":"66346","locality":"Püttlingen","municipality":{"key":"10041515","name":"Püttlingen, Stadt","type":"Stadt"},"district":{"key":"10041","name":"Regionalverband Saarbrücken","type":"Regionalverband"},"federalState":{"key":"10","name":"Saarland"}},{"name":"Bergstr.","postalCode":"66346","locality":"Püttlingen","municipality":{"key":"10041515","name":"Püttlingen, Stadt","type":"Stadt"},"district":{"key":"10041","name":"Regionalverband Saarbrücken","type":"Regionalverband"},"federalState":{"key":"10","name":"Saarland"}},{"name":"Bildchenstr.","postalCode":"66346","locality":"Püttlingen","municipality":{"key":"10041515","name":"Püttlingen, Stadt","type":"Stadt"},"district":{"key":"10041","name":"Regionalverband Saarbrücken","type":"Regionalverband"},"federalState":{"key":"10","name":"Saarland"}},{"name":"Birkenstr.","postalCode":"66346","locality":"Püttlingen","municipality":{"key":"10041515","name":"Püttlingen, Stadt","type":"Stadt"},"district":{"key":"10041","name":"Regionalverband Saarbrücken","type":"Regionalverband"},"federalState":{"key":"10","name":"Saarland"}},{"name":"Blumenstr.","postalCode":"66346","locality":"Püttlingen","municipality":{"key":"10041515","name":"Püttlingen, Stadt","type":"Stadt"},"district":{"key":"10041","name":"Regionalverband Saarbrücken","type":"Regionalverband"},"federalState":{"key":"10","name":"Saarland"}},{"name":"Breitfeldstr.","postalCode":"66346","locality":"Püttlingen","municipality":{"key":"10041515","name":"Püttlingen, Stadt","type":"Stadt"},"district":{"key":"10041","name":"Regionalverband Saarbrücken","type":"Regionalverband"},"federalState":{"key":"10","name":"Saarland"}},{"name":"Brückenweg","postalCode":"66346","locality":"Püttlingen","municipality":{"key":"10041515","name":"Püttlingen, Stadt","type":"Stadt"},"district":{"key":"10041","name":"Regionalverband Saarbrücken","type":"Regionalverband"},"federalState":{"key":"10","name":"Saarland"}},{"name":"Brunnenstr.","postalCode":"66346","locality":"Püttlingen","municipality":{"key":"10041515","name":"Püttlingen, Stadt","type":"Stadt"},"district":{"key":"10041","name":"Regionalverband Saarbrücken","type":"Regionalverband"},"federalState":{"key":"10","name":"Saarland"}},{"name":"Danziger Str.","postalCode":"66346","locality":"Püttlingen","municipality":{"key":"10041515","name":"Püttlingen, Stadt","type":"Stadt"},"district":{"key":"10041","name":"Regionalverband Saarbrücken","type":"Regionalverband"},"federalState":{"key":"10","name":"Saarland"}},{"name":"Dasbachstr.","postalCode":"66346","locality":"Püttlingen","municipality":{"key":"10041515","name":"Püttlingen, Stadt","type":"Stadt"},"district":{"key":"10041","name":"Regionalverband Saarbrücken","type":"Regionalverband"},"federalState":{"key":"10","name":"Saarland"}},{"name":"Derler Str.","postalCode":"66346","locality":"Püttlingen","municipality":{"key":"10041515","name":"Püttlingen, Stadt","type":"Stadt"},"district":{"key":"10041","name":"Regionalverband Saarbrücken","type":"Regionalverband"},"federalState":{"key":"10","name":"Saarland"}},{"name":"Dickenberg","postalCode":"66346","locality":"Püttlingen","municipality":{"key":"10041515","name":"Püttlingen, Stadt","type":"Stadt"},"district":{"key":"10041","name":"Regionalverband Saarbrücken","type":"Regionalverband"},"federalState":{"key":"10","name":"Saarland"}},{"name":"Dietrich-Bonhoeffer-Str.","postalCode":"66346","locality":"Püttlingen","municipality":{"key":"10041515","name":"Püttlingen, Stadt","type":"Stadt"},"district":{"key":"10041","name":"Regionalverband Saarbrücken","type":"Regionalverband"},"federalState":{"key":"10","name":"Saarland"}},{"name":"Dorfplatz Herchenbach","postalCode":"66346","locality":"Püttlingen","municipality":{"key":"10041515","name":"Püttlingen, Stadt","type":"Stadt"},"district":{"key":"10041","name":"Regionalverband Saarbrücken","type":"Regionalverband"},"federalState":{"key":"10","name":"Saarland"}},{"name":"Drosselweg","postalCode":"66346","locality":"Püttlingen","municipality":{"key":"10041515","name":"Püttlingen, Stadt","type":"Stadt"},"district":{"key":"10041","name":"Regionalverband Saarbrücken","type":"Regionalverband"},"federalState":{"key":"10","name":"Saarland"}},{"name":"Dr. Plaßmann-Str.","postalCode":"66346","locality":"Püttlingen","municipality":{"key":"10041515","name":"Püttlingen, Stadt","type":"Stadt"},"district":{"key":"10041","name":"Regionalverband Saarbrücken","type":"Regionalverband"},"federalState":{"key":"10","name":"Saarland"}},{"name":"Eberschweilerweg","postalCode":"66346","locality":"Püttlingen","municipality":{"key":"10041515","name":"Püttlingen, Stadt","type":"Stadt"},"district":{"key":"10041","name":"Regionalverband Saarbrücken","type":"Regionalverband"},"federalState":{"key":"10","name":"Saarland"}},{"name":"Edith-Stein-Str.","postalCode":"66346","locality":"Püttlingen","municipality":{"key":"10041515","name":"Püttlingen, Stadt","type":"Stadt"},"district":{"key":"10041","name":"Regionalverband Saarbrücken","type":"Regionalverband"},"federalState":{"key":"10","name":"Saarland"}},{"name":"Eisenbahnstr.","postalCode":"66346","locality":"Püttlingen","municipality":{"key":"10041515","name":"Püttlingen, Stadt","type":"Stadt"},"district":{"key":"10041","name":"Regionalverband Saarbrücken","type":"Regionalverband"},"federalState":{"key":"10","name":"Saarland"}},{"name":"Elmer Weg","postalCode":"66346","locality":"Püttlingen","municipality":{"key":"10041515","name":"Püttlingen, Stadt","type":"Stadt"},"district":{"key":"10041","name":"Regionalverband Saarbrücken","type":"Regionalverband"},"federalState":{"key":"10","name":"Saarland"}},{"name":"Elsässer Str.","postalCode":"66346","locality":"Püttlingen","municipality":{"key":"10041515","name":"Püttlingen, Stadt","type":"Stadt"},"district":{"key":"10041","name":"Regionalverband Saarbrücken","type":"Regionalverband"},"federalState":{"key":"10","name":"Saarland"}},{"name":"Engelfanger Str.","postalCode":"66346","locality":"Püttlingen","municipality":{"key":"10041515","name":"Püttlingen, Stadt","type":"Stadt"},"district":{"key":"10041","name":"Regionalverband Saarbrücken","type":"Regionalverband"},"federalState":{"key":"10","name":"Saarland"}},{"name":"Erbachstr.","postalCode":"66346","locality":"Püttlingen","municipality":{"key":"10041515","name":"Püttlingen, Stadt","type":"Stadt"},"district":{"key":"10041","name":"Regionalverband Saarbrücken","type":"Regionalverband"},"federalState":{"key":"10","name":"Saarland"}},{"name":"Erich-Kästner-Str.","postalCode":"66346","locality":"Püttlingen","municipality":{"key":"10041515","name":"Püttlingen, Stadt","type":"Stadt"},"district":{"key":"10041","name":"Regionalverband Saarbrücken","type":"Regionalverband"},"federalState":{"key":"10","name":"Saarland"}},{"name":"Espen-Sommerberg","postalCode":"66346","locality":"Püttlingen","municipality":{"key":"10041515","name":"Püttlingen, Stadt","type":"Stadt"},"district":{"key":"10041","name":"Regionalverband Saarbrücken","type":"Regionalverband"},"federalState":{"key":"10","name":"Saarland"}},{"name":"Espenstr.","postalCode":"66346","locality":"Püttlingen","municipality":{"key":"10041515","name":"Püttlingen, Stadt","type":"Stadt"},"district":{"key":"10041","name":"Regionalverband Saarbrücken","type":"Regionalverband"},"federalState":{"key":"10","name":"Saarland"}},{"name":"Etzenhofer Str.","postalCode":"66346","locality":"Püttlingen","municipality":{"key":"10041515","name":"Püttlingen, Stadt","type":"Stadt"},"district":{"key":"10041","name":"Regionalverband Saarbrücken","type":"Regionalverband"},"federalState":{"key":"10","name":"Saarland"}},{"name":"Falkenweg","postalCode":"66346","locality":"Püttlingen","municipality":{"key":"10041515","name":"Püttlingen, Stadt","type":"Stadt"},"district":{"key":"10041","name":"Regionalverband Saarbrücken","type":"Regionalverband"},"federalState":{"key":"10","name":"Saarland"}},{"name":"Feldstr.","postalCode":"66346","locality":"Püttlingen","municipality":{"key":"10041515","name":"Püttlingen, Stadt","type":"Stadt"},"district":{"key":"10041","name":"Regionalverband Saarbrücken","type":"Regionalverband"},"federalState":{"key":"10","name":"Saarland"}},{"name":"Fichtestr.","postalCode":"66346","locality":"Püttlingen","municipality":{"key":"10041515","name":"Püttlingen, Stadt","type":"Stadt"},"district":{"key":"10041","name":"Regionalverband Saarbrücken","type":"Regionalverband"},"federalState":{"key":"10","name":"Saarland"}},{"name":"Finkenweg","postalCode":"66346","locality":"Püttlingen","municipality":{"key":"10041515","name":"Püttlingen, Stadt","type":"Stadt"},"district":{"key":"10041","name":"Regionalverband Saarbrücken","type":"Regionalverband"},"federalState":{"key":"10","name":"Saarland"}},{"name":"Fliederweg","postalCode":"66346","locality":"Püttlingen","municipality":{"key":"10041515","name":"Püttlingen, Stadt","type":"Stadt"},"district":{"key":"10041","name":"Regionalverband Saarbrücken","type":"Regionalverband"},"federalState":{"key":"10","name":"Saarland"}},{"name":"Fresagrandinariastr.","postalCode":"66346","locality":"Püttlingen","municipality":{"key":"10041515","name":"Püttlingen, Stadt","type":"Stadt"},"district":{"key":"10041","name":"Regionalverband Saarbrücken","type":"Regionalverband"},"federalState":{"key":"10","name":"Saarland"}},{"name":"Friedhofstr.","postalCode":"66346","locality":"Püttlingen","municipality":{"key":"10041515","name":"Püttlingen, Stadt","type":"Stadt"},"district":{"key":"10041","name":"Regionalverband Saarbrücken","type":"Regionalverband"},"federalState":{"key":"10","name":"Saarland"}},{"name":"Friedrichstr.","postalCode":"66346","locality":"Püttlingen","municipality":{"key":"10041515","name":"Püttlingen, Stadt","type":"Stadt"},"district":{"key":"10041","name":"Regionalverband Saarbrücken","type":"Regionalverband"},"federalState":{"key":"10","name":"Saarland"}},{"name":"Geisbergstr.","postalCode":"66346","locality":"Püttlingen","municipality":{"key":"10041515","name":"Püttlingen, Stadt","type":"Stadt"},"district":{"key":"10041","name":"Regionalverband Saarbrücken","type":"Regionalverband"},"federalState":{"key":"10","name":"Saarland"}},{"name":"Geschwister-Scholl-Str.","postalCode":"66346","locality":"Püttlingen","municipality":{"key":"10041515","name":"Püttlingen, Stadt","type":"Stadt"},"district":{"key":"10041","name":"Regionalverband Saarbrücken","type":"Regionalverband"},"federalState":{"key":"10","name":"Saarland"}},{"name":"Goethestr.","postalCode":"66346","locality":"Püttlingen","municipality":{"key":"10041515","name":"Püttlingen, Stadt","type":"Stadt"},"district":{"key":"10041","name":"Regionalverband Saarbrücken","type":"Regionalverband"},"federalState":{"key":"10","name":"Saarland"}},{"name":"Grubenstr.","postalCode":"66346","locality":"Püttlingen","municipality":{"key":"10041515","name":"Püttlingen, Stadt","type":"Stadt"},"district":{"key":"10041","name":"Regionalverband Saarbrücken","type":"Regionalverband"},"federalState":{"key":"10","name":"Saarland"}},{"name":"Güchenbacher Weg","postalCode":"66346","locality":"Püttlingen","municipality":{"key":"10041515","name":"Püttlingen, Stadt","type":"Stadt"},"district":{"key":"10041","name":"Regionalverband Saarbrücken","type":"Regionalverband"},"federalState":{"key":"10","name":"Saarland"}},{"name":"Hauptstr.","postalCode":"66346","locality":"Püttlingen","municipality":{"key":"10041515","name":"Püttlingen, Stadt","type":"Stadt"},"district":{"key":"10041","name":"Regionalverband Saarbrücken","type":"Regionalverband"},"federalState":{"key":"10","name":"Saarland"}},{"name":"Hebbelstr.","postalCode":"66346","locality":"Püttlingen","municipality":{"key":"10041515","name":"Püttlingen, Stadt","type":"Stadt"},"district":{"key":"10041","name":"Regionalverband Saarbrücken","type":"Regionalverband"},"federalState":{"key":"10","name":"Saarland"}},{"name":"Heinrich-Heine-Str.","postalCode":"66346","locality":"Püttlingen","municipality":{"key":"10041515","name":"Püttlingen, Stadt","type":"Stadt"},"district":{"key":"10041","name":"Regionalverband Saarbrücken","type":"Regionalverband"},"federalState":{"key":"10","name":"Saarland"}},{"name":"Heinrichstr.","postalCode":"66346","locality":"Püttlingen","municipality":{"key":"10041515","name":"Püttlingen, Stadt","type":"Stadt"},"district":{"key":"10041","name":"Regionalverband Saarbrücken","type":"Regionalverband"},"federalState":{"key":"10","name":"Saarland"}},{"name":"Heinrich-von-Kleist-Str.","postalCode":"66346","locality":"Püttlingen","municipality":{"key":"10041515","name":"Püttlingen, Stadt","type":"Stadt"},"district":{"key":"10041","name":"Regionalverband Saarbrücken","type":"Regionalverband"},"federalState":{"key":"10","name":"Saarland"}},{"name":"Hengstwaldstr.","postalCode":"66346","locality":"Püttlingen","municipality":{"key":"10041515","name":"Püttlingen, Stadt","type":"Stadt"},"district":{"key":"10041","name":"Regionalverband Saarbrücken","type":"Regionalverband"},"federalState":{"key":"10","name":"Saarland"}},{"name":"Herchenbacher Str.","postalCode":"66346","locality":"Püttlingen","municipality":{"key":"10041515","name":"Püttlingen, Stadt","type":"Stadt"},"district":{"key":"10041","name":"Regionalverband Saarbrücken","type":"Regionalverband"},"federalState":{"key":"10","name":"Saarland"}},{"name":"Herderstr.","postalCode":"66346","locality":"Püttlingen","municipality":{"key":"10041515","name":"Püttlingen, Stadt","type":"Stadt"},"district":{"key":"10041","name":"Regionalverband Saarbrücken","type":"Regionalverband"},"federalState":{"key":"10","name":"Saarland"}},{"name":"Hermannstr.","postalCode":"66346","locality":"Püttlingen","municipality":{"key":"10041515","name":"Püttlingen, Stadt","type":"Stadt"},"district":{"key":"10041","name":"Regionalverband Saarbrücken","type":"Regionalverband"},"federalState":{"key":"10","name":"Saarland"}},{"name":"Hermesbornstr.","postalCode":"66346","locality":"Püttlingen","municipality":{"key":"10041515","name":"Püttlingen, Stadt","type":"Stadt"},"district":{"key":"10041","name":"Regionalverband Saarbrücken","type":"Regionalverband"},"federalState":{"key":"10","name":"Saarland"}},{"name":"Hirtenberg","postalCode":"66346","locality":"Püttlingen","municipality":{"key":"10041515","name":"Püttlingen, Stadt","type":"Stadt"},"district":{"key":"10041","name":"Regionalverband Saarbrücken","type":"Regionalverband"},"federalState":{"key":"10","name":"Saarland"}},{"name":"Hixberger Weg","postalCode":"66346","locality":"Püttlingen","municipality":{"key":"10041515","name":"Püttlingen, Stadt","type":"Stadt"},"district":{"key":"10041","name":"Regionalverband Saarbrücken","type":"Regionalverband"},"federalState":{"key":"10","name":"Saarland"}},{"name":"Hohbergstr.","postalCode":"66346","locality":"Püttlingen","municipality":{"key":"10041515","name":"Püttlingen, Stadt","type":"Stadt"},"district":{"key":"10041","name":"Regionalverband Saarbrücken","type":"Regionalverband"},"federalState":{"key":"10","name":"Saarland"}},{"name":"Hohlweg","postalCode":"66346","locality":"Püttlingen","municipality":{"key":"10041515","name":"Püttlingen, Stadt","type":"Stadt"},"district":{"key":"10041","name":"Regionalverband Saarbrücken","type":"Regionalverband"},"federalState":{"key":"10","name":"Saarland"}},{"name":"Hugolinus-Dörr-Str.","postalCode":"66346","locality":"Püttlingen","municipality":{"key":"10041515","name":"Püttlingen, Stadt","type":"Stadt"},"district":{"key":"10041","name":"Regionalverband Saarbrücken","type":"Regionalverband"},"federalState":{"key":"10","name":"Saarland"}},{"name":"Im Bungert","postalCode":"66346","locality":"Püttlingen","municipality":{"key":"10041515","name":"Püttlingen, Stadt","type":"Stadt"},"district":{"key":"10041","name":"Regionalverband Saarbrücken","type":"Regionalverband"},"federalState":{"key":"10","name":"Saarland"}},{"name":"Im Dorf","postalCode":"66346","locality":"Püttlingen","municipality":{"key":"10041515","name":"Püttlingen, Stadt","type":"Stadt"},"district":{"key":"10041","name":"Regionalverband Saarbrücken","type":"Regionalverband"},"federalState":{"key":"10","name":"Saarland"}},{"name":"Im Grünen Winkel","postalCode":"66346","locality":"Püttlingen","municipality":{"key":"10041515","name":"Püttlingen, Stadt","type":"Stadt"},"district":{"key":"10041","name":"Regionalverband Saarbrücken","type":"Regionalverband"},"federalState":{"key":"10","name":"Saarland"}},{"name":"Im Hanfgarten","postalCode":"66346","locality":"Püttlingen","municipality":{"key":"10041515","name":"Püttlingen, Stadt","type":"Stadt"},"district":{"key":"10041","name":"Regionalverband Saarbrücken","type":"Regionalverband"},"federalState":{"key":"10","name":"Saarland"}},{"name":"Im Jungenfeld","postalCode":"66346","locality":"Püttlingen","municipality":{"key":"10041515","name":"Püttlingen, Stadt","type":"Stadt"},"district":{"key":"10041","name":"Regionalverband Saarbrücken","type":"Regionalverband"},"federalState":{"key":"10","name":"Saarland"}},{"name":"Im Mühlengrund","postalCode":"66346","locality":"Püttlingen","municipality":{"key":"10041515","name":"Püttlingen, Stadt","type":"Stadt"},"district":{"key":"10041","name":"Regionalverband Saarbrücken","type":"Regionalverband"},"federalState":{"key":"10","name":"Saarland"}},{"name":"Im Sommergarten","postalCode":"66346","locality":"Püttlingen","municipality":{"key":"10041515","name":"Püttlingen, Stadt","type":"Stadt"},"district":{"key":"10041","name":"Regionalverband Saarbrücken","type":"Regionalverband"},"federalState":{"key":"10","name":"Saarland"}},{"name":"Im Steinbruch","postalCode":"66346","locality":"Püttlingen","municipality":{"key":"10041515","name":"Püttlingen, Stadt","type":"Stadt"},"district":{"key":"10041","name":"Regionalverband Saarbrücken","type":"Regionalverband"},"federalState":{"key":"10","name":"Saarland"}},{"name":"In den Siefen","postalCode":"66346","locality":"Püttlingen","municipality":{"key":"10041515","name":"Püttlingen, Stadt","type":"Stadt"},"district":{"key":"10041","name":"Regionalverband Saarbrücken","type":"Regionalverband"},"federalState":{"key":"10","name":"Saarland"}},{"name":"In der Humes","postalCode":"66346","locality":"Püttlingen","municipality":{"key":"10041515","name":"Püttlingen, Stadt","type":"Stadt"},"district":{"key":"10041","name":"Regionalverband Saarbrücken","type":"Regionalverband"},"federalState":{"key":"10","name":"Saarland"}},{"name":"In der Rösselwies","postalCode":"66346","locality":"Püttlingen","municipality":{"key":"10041515","name":"Püttlingen, Stadt","type":"Stadt"},"district":{"key":"10041","name":"Regionalverband Saarbrücken","type":"Regionalverband"},"federalState":{"key":"10","name":"Saarland"}},{"name":"In der Schäferei","postalCode":"66346","locality":"Püttlingen","municipality":{"key":"10041515","name":"Püttlingen, Stadt","type":"Stadt"},"district":{"key":"10041","name":"Regionalverband Saarbrücken","type":"Regionalverband"},"federalState":{"key":"10","name":"Saarland"}},{"name":"In der Wasch","postalCode":"66346","locality":"Püttlingen","municipality":{"key":"10041515","name":"Püttlingen, Stadt","type":"Stadt"},"district":{"key":"10041","name":"Regionalverband Saarbrücken","type":"Regionalverband"},"federalState":{"key":"10","name":"Saarland"}},{"name":"Industriegelände Am Bahnhof","postalCode":"66346","locality":"Püttlingen","municipality":{"key":"10041515","name":"Püttlingen, Stadt","type":"Stadt"},"district":{"key":"10041","name":"Regionalverband Saarbrücken","type":"Regionalverband"},"federalState":{"key":"10","name":"Saarland"}},{"name":"Industriegelände Steinritsch","postalCode":"66346","locality":"Püttlingen","municipality":{"key":"10041515","name":"Püttlingen, Stadt","type":"Stadt"},"district":{"key":"10041","name":"Regionalverband Saarbrücken","type":"Regionalverband"},"federalState":{"key":"10","name":"Saarland"}},{"name":"Ismertstr.","postalCode":"66346","locality":"Püttlingen","municipality":{"key":"10041515","name":"Püttlingen, Stadt","type":"Stadt"},"district":{"key":"10041","name":"Regionalverband Saarbrücken","type":"Regionalverband"},"federalState":{"key":"10","name":"Saarland"}},{"name":"Jahnstr.","postalCode":"66346","locality":"Püttlingen","municipality":{"key":"10041515","name":"Püttlingen, Stadt","type":"Stadt"},"district":{"key":"10041","name":"Regionalverband Saarbrücken","type":"Regionalverband"},"federalState":{"key":"10","name":"Saarland"}},{"name":"Jakob-Schommer-Str.","postalCode":"66346","locality":"Püttlingen","municipality":{"key":"10041515","name":"Püttlingen, Stadt","type":"Stadt"},"district":{"key":"10041","name":"Regionalverband Saarbrücken","type":"Regionalverband"},"federalState":{"key":"10","name":"Saarland"}},{"name":"Jakobstr.","postalCode":"66346","locality":"Püttlingen","municipality":{"key":"10041515","name":"Püttlingen, Stadt","type":"Stadt"},"district":{"key":"10041","name":"Regionalverband Saarbrücken","type":"Regionalverband"},"federalState":{"key":"10","name":"Saarland"}},{"name":"Josefstr.","postalCode":"66346","locality":"Püttlingen","municipality":{"key":"10041515","name":"Püttlingen, Stadt","type":"Stadt"},"district":{"key":"10041","name":"Regionalverband Saarbrücken","type":"Regionalverband"},"federalState":{"key":"10","name":"Saarland"}},{"name":"Justus-von-Liebig-Str.","postalCode":"66346","locality":"Püttlingen","municipality":{"key":"10041515","name":"Püttlingen, Stadt","type":"Stadt"},"district":{"key":"10041","name":"Regionalverband Saarbrücken","type":"Regionalverband"},"federalState":{"key":"10","name":"Saarland"}},{"name":"Kantstr.","postalCode":"66346","locality":"Püttlingen","municipality":{"key":"10041515","name":"Püttlingen, Stadt","type":"Stadt"},"district":{"key":"10041","name":"Regionalverband Saarbrücken","type":"Regionalverband"},"federalState":{"key":"10","name":"Saarland"}},{"name":"Kaplan-Schwickerath-Weg","postalCode":"66346","locality":"Püttlingen","municipality":{"key":"10041515","name":"Püttlingen, Stadt","type":"Stadt"},"district":{"key":"10041","name":"Regionalverband Saarbrücken","type":"Regionalverband"},"federalState":{"key":"10","name":"Saarland"}},{"name":"Kardinal-Maurer-Str.","postalCode":"66346","locality":"Püttlingen","municipality":{"key":"10041515","name":"Püttlingen, Stadt","type":"Stadt"},"district":{"key":"10041","name":"Regionalverband Saarbrücken","type":"Regionalverband"},"federalState":{"key":"10","name":"Saarland"}},{"name":"Karl-Benz-Str.","postalCode":"66346","locality":"Püttlingen","municipality":{"key":"10041515","name":"Püttlingen, Stadt","type":"Stadt"},"district":{"key":"10041","name":"Regionalverband Saarbrücken","type":"Regionalverband"},"federalState":{"key":"10","name":"Saarland"}},{"name":"Karlstr.","postalCode":"66346","locality":"Püttlingen","municipality":{"key":"10041515","name":"Püttlingen, Stadt","type":"Stadt"},"district":{"key":"10041","name":"Regionalverband Saarbrücken","type":"Regionalverband"},"federalState":{"key":"10","name":"Saarland"}},{"name":"Kettelerstr.","postalCode":"66346","locality":"Püttlingen","municipality":{"key":"10041515","name":"Püttlingen, Stadt","type":"Stadt"},"district":{"key":"10041","name":"Regionalverband Saarbrücken","type":"Regionalverband"},"federalState":{"key":"10","name":"Saarland"}},{"name":"Kirchgartenstr.","postalCode":"66346","locality":"Püttlingen","municipality":{"key":"10041515","name":"Püttlingen, Stadt","type":"Stadt"},"district":{"key":"10041","name":"Regionalverband Saarbrücken","type":"Regionalverband"},"federalState":{"key":"10","name":"Saarland"}},{"name":"Kirchstr.","postalCode":"66346","locality":"Püttlingen","municipality":{"key":"10041515","name":"Püttlingen, Stadt","type":"Stadt"},"district":{"key":"10041","name":"Regionalverband Saarbrücken","type":"Regionalverband"},"federalState":{"key":"10","name":"Saarland"}},{"name":"Köllertalstr.","postalCode":"66346","locality":"Püttlingen","municipality":{"key":"10041515","name":"Püttlingen, Stadt","type":"Stadt"},"district":{"key":"10041","name":"Regionalverband Saarbrücken","type":"Regionalverband"},"federalState":{"key":"10","name":"Saarland"}},{"name":"Köllner Str.","postalCode":"66346","locality":"Püttlingen","municipality":{"key":"10041515","name":"Püttlingen, Stadt","type":"Stadt"},"district":{"key":"10041","name":"Regionalverband Saarbrücken","type":"Regionalverband"},"federalState":{"key":"10","name":"Saarland"}},{"name":"Konrad-Adenauer-Str.","postalCode":"66346","locality":"Püttlingen","municipality":{"key":"10041515","name":"Püttlingen, Stadt","type":"Stadt"},"district":{"key":"10041","name":"Regionalverband Saarbrücken","type":"Regionalverband"},"federalState":{"key":"10","name":"Saarland"}},{"name":"Kreuzbergstr.","postalCode":"66346","locality":"Püttlingen","municipality":{"key":"10041515","name":"Püttlingen, Stadt","type":"Stadt"},"district":{"key":"10041","name":"Regionalverband Saarbrücken","type":"Regionalverband"},"federalState":{"key":"10","name":"Saarland"}},{"name":"Krichingerstr.","postalCode":"66346","locality":"Püttlingen","municipality":{"key":"10041515","name":"Püttlingen, Stadt","type":"Stadt"},"district":{"key":"10041","name":"Regionalverband Saarbrücken","type":"Regionalverband"},"federalState":{"key":"10","name":"Saarland"}},{"name":"Kurt-Schumacher-Str.","postalCode":"66346","locality":"Püttlingen","municipality":{"key":"10041515","name":"Püttlingen, Stadt","type":"Stadt"},"district":{"key":"10041","name":"Regionalverband Saarbrücken","type":"Regionalverband"},"federalState":{"key":"10","name":"Saarland"}},{"name":"Kyllbergstr.","postalCode":"66346","locality":"Püttlingen","municipality":{"key":"10041515","name":"Püttlingen, Stadt","type":"Stadt"},"district":{"key":"10041","name":"Regionalverband Saarbrücken","type":"Regionalverband"},"federalState":{"key":"10","name":"Saarland"}},{"name":"L 136","postalCode":"66346","locality":"Püttlingen","municipality":{"key":"10041515","name":"Püttlingen, Stadt","type":"Stadt"},"district":{"key":"10041","name":"Regionalverband Saarbrücken","type":"Regionalverband"},"federalState":{"key":"10","name":"Saarland"}},{"name":"Lessingstr.","postalCode":"66346","locality":"Püttlingen","municipality":{"key":"10041515","name":"Püttlingen, Stadt","type":"Stadt"},"district":{"key":"10041","name":"Regionalverband Saarbrücken","type":"Regionalverband"},"federalState":{"key":"10","name":"Saarland"}},{"name":"Liebfrauenweg","postalCode":"66346","locality":"Püttlingen","municipality":{"key":"10041515","name":"Püttlingen, Stadt","type":"Stadt"},"district":{"key":"10041","name":"Regionalverband Saarbrücken","type":"Regionalverband"},"federalState":{"key":"10","name":"Saarland"}},{"name":"Lindenstr.","postalCode":"66346","locality":"Püttlingen","municipality":{"key":"10041515","name":"Püttlingen, Stadt","type":"Stadt"},"district":{"key":"10041","name":"Regionalverband Saarbrücken","type":"Regionalverband"},"federalState":{"key":"10","name":"Saarland"}},{"name":"Lothringer Str.","postalCode":"66346","locality":"Püttlingen","municipality":{"key":"10041515","name":"Püttlingen, Stadt","type":"Stadt"},"district":{"key":"10041","name":"Regionalverband Saarbrücken","type":"Regionalverband"},"federalState":{"key":"10","name":"Saarland"}},{"name":"Louis-Pasteur-Str.","postalCode":"66346","locality":"Püttlingen","municipality":{"key":"10041515","name":"Püttlingen, Stadt","type":"Stadt"},"district":{"key":"10041","name":"Regionalverband Saarbrücken","type":"Regionalverband"},"federalState":{"key":"10","name":"Saarland"}},{"name":"Ludwigstr.","postalCode":"66346","locality":"Püttlingen","municipality":{"key":"10041515","name":"Püttlingen, Stadt","type":"Stadt"},"district":{"key":"10041","name":"Regionalverband Saarbrücken","type":"Regionalverband"},"federalState":{"key":"10","name":"Saarland"}},{"name":"Marienstr.","postalCode":"66346","locality":"Püttlingen","municipality":{"key":"10041515","name":"Püttlingen, Stadt","type":"Stadt"},"district":{"key":"10041","name":"Regionalverband Saarbrücken","type":"Regionalverband"},"federalState":{"key":"10","name":"Saarland"}},{"name":"Marktstr.","postalCode":"66346","locality":"Püttlingen","municipality":{"key":"10041515","name":"Püttlingen, Stadt","type":"Stadt"},"district":{"key":"10041","name":"Regionalverband Saarbrücken","type":"Regionalverband"},"federalState":{"key":"10","name":"Saarland"}},{"name":"Martinstr.","postalCode":"66346","locality":"Püttlingen","municipality":{"key":"10041515","name":"Püttlingen, Stadt","type":"Stadt"},"district":{"key":"10041","name":"Regionalverband Saarbrücken","type":"Regionalverband"},"federalState":{"key":"10","name":"Saarland"}},{"name":"Matthias-Nickels-Str.","postalCode":"66346","locality":"Püttlingen","municipality":{"key":"10041515","name":"Püttlingen, Stadt","type":"Stadt"},"district":{"key":"10041","name":"Regionalverband Saarbrücken","type":"Regionalverband"},"federalState":{"key":"10","name":"Saarland"}},{"name":"Maximilian-Kolbe-Str.","postalCode":"66346","locality":"Püttlingen","municipality":{"key":"10041515","name":"Püttlingen, Stadt","type":"Stadt"},"district":{"key":"10041","name":"Regionalverband Saarbrücken","type":"Regionalverband"},"federalState":{"key":"10","name":"Saarland"}},{"name":"Mecklenburger Weg","postalCode":"66346","locality":"Püttlingen","municipality":{"key":"10041515","name":"Püttlingen, Stadt","type":"Stadt"},"district":{"key":"10041","name":"Regionalverband Saarbrücken","type":"Regionalverband"},"federalState":{"key":"10","name":"Saarland"}},{"name":"Meisenweg","postalCode":"66346","locality":"Püttlingen","municipality":{"key":"10041515","name":"Püttlingen, Stadt","type":"Stadt"},"district":{"key":"10041","name":"Regionalverband Saarbrücken","type":"Regionalverband"},"federalState":{"key":"10","name":"Saarland"}},{"name":"Mozartstr.","postalCode":"66346","locality":"Püttlingen","municipality":{"key":"10041515","name":"Püttlingen, Stadt","type":"Stadt"},"district":{"key":"10041","name":"Regionalverband Saarbrücken","type":"Regionalverband"},"federalState":{"key":"10","name":"Saarland"}},{"name":"Mühlenstr.","postalCode":"66346","locality":"Püttlingen","municipality":{"key":"10041515","name":"Püttlingen, Stadt","type":"Stadt"},"district":{"key":"10041","name":"Regionalverband Saarbrücken","type":"Regionalverband"},"federalState":{"key":"10","name":"Saarland"}},{"name":"Nauwieserstr.","postalCode":"66346","locality":"Püttlingen","municipality":{"key":"10041515","name":"Püttlingen, Stadt","type":"Stadt"},"district":{"key":"10041","name":"Regionalverband Saarbrücken","type":"Regionalverband"},"federalState":{"key":"10","name":"Saarland"}},{"name":"Nelkenweg","postalCode":"66346","locality":"Püttlingen","municipality":{"key":"10041515","name":"Püttlingen, Stadt","type":"Stadt"},"district":{"key":"10041","name":"Regionalverband Saarbrücken","type":"Regionalverband"},"federalState":{"key":"10","name":"Saarland"}},{"name":"Obere Schulstr.","postalCode":"66346","locality":"Püttlingen","municipality":{"key":"10041515","name":"Püttlingen, Stadt","type":"Stadt"},"district":{"key":"10041","name":"Regionalverband Saarbrücken","type":"Regionalverband"},"federalState":{"key":"10","name":"Saarland"}},{"name":"Oberwies","postalCode":"66346","locality":"Püttlingen","municipality":{"key":"10041515","name":"Püttlingen, Stadt","type":"Stadt"},"district":{"key":"10041","name":"Regionalverband Saarbrücken","type":"Regionalverband"},"federalState":{"key":"10","name":"Saarland"}},{"name":"Ostpreußenweg","postalCode":"66346","locality":"Püttlingen","municipality":{"key":"10041515","name":"Püttlingen, Stadt","type":"Stadt"},"district":{"key":"10041","name":"Regionalverband Saarbrücken","type":"Regionalverband"},"federalState":{"key":"10","name":"Saarland"}},{"name":"Otto-Hahn-Str.","postalCode":"66346","locality":"Püttlingen","municipality":{"key":"10041515","name":"Püttlingen, Stadt","type":"Stadt"},"district":{"key":"10041","name":"Regionalverband Saarbrücken","type":"Regionalverband"},"federalState":{"key":"10","name":"Saarland"}},{"name":"Parallelstr.","postalCode":"66346","locality":"Püttlingen","municipality":{"key":"10041515","name":"Püttlingen, Stadt","type":"Stadt"},"district":{"key":"10041","name":"Regionalverband Saarbrücken","type":"Regionalverband"},"federalState":{"key":"10","name":"Saarland"}},{"name":"Pastor-Hennes-Str.","postalCode":"66346","locality":"Püttlingen","municipality":{"key":"10041515","name":"Püttlingen, Stadt","type":"Stadt"},"district":{"key":"10041","name":"Regionalverband Saarbrücken","type":"Regionalverband"},"federalState":{"key":"10","name":"Saarland"}},{"name":"Pastor-Lermen-Weg","postalCode":"66346","locality":"Püttlingen","municipality":{"key":"10041515","name":"Püttlingen, Stadt","type":"Stadt"},"district":{"key":"10041","name":"Regionalverband Saarbrücken","type":"Regionalverband"},"federalState":{"key":"10","name":"Saarland"}},{"name":"Paul-Marien-Str.","postalCode":"66346","locality":"Püttlingen","municipality":{"key":"10041515","name":"Püttlingen, Stadt","type":"Stadt"},"district":{"key":"10041","name":"Regionalverband Saarbrücken","type":"Regionalverband"},"federalState":{"key":"10","name":"Saarland"}},{"name":"Penselfeld","postalCode":"66346","locality":"Püttlingen","municipality":{"key":"10041515","name":"Püttlingen, Stadt","type":"Stadt"},"district":{"key":"10041","name":"Regionalverband Saarbrücken","type":"Regionalverband"},"federalState":{"key":"10","name":"Saarland"}},{"name":"Pestalozzistr.","postalCode":"66346","locality":"Püttlingen","municipality":{"key":"10041515","name":"Püttlingen, Stadt","type":"Stadt"},"district":{"key":"10041","name":"Regionalverband Saarbrücken","type":"Regionalverband"},"federalState":{"key":"10","name":"Saarland"}},{"name":"Peter-Fechter-Str.","postalCode":"66346","locality":"Püttlingen","municipality":{"key":"10041515","name":"Püttlingen, Stadt","type":"Stadt"},"district":{"key":"10041","name":"Regionalverband Saarbrücken","type":"Regionalverband"},"federalState":{"key":"10","name":"Saarland"}},{"name":"Peter-Gleßner-Str.","postalCode":"66346","locality":"Püttlingen","municipality":{"key":"10041515","name":"Püttlingen, Stadt","type":"Stadt"},"district":{"key":"10041","name":"Regionalverband Saarbrücken","type":"Regionalverband"},"federalState":{"key":"10","name":"Saarland"}},{"name":"Peter-Maas-Str.","postalCode":"66346","locality":"Püttlingen","municipality":{"key":"10041515","name":"Püttlingen, Stadt","type":"Stadt"},"district":{"key":"10041","name":"Regionalverband Saarbrücken","type":"Regionalverband"},"federalState":{"key":"10","name":"Saarland"}},{"name":"Peterstr.","postalCode":"66346","locality":"Püttlingen","municipality":{"key":"10041515","name":"Püttlingen, Stadt","type":"Stadt"},"district":{"key":"10041","name":"Regionalverband Saarbrücken","type":"Regionalverband"},"federalState":{"key":"10","name":"Saarland"}},{"name":"Pfarrer-Rug-Park","postalCode":"66346","locality":"Püttlingen","municipality":{"key":"10041515","name":"Püttlingen, Stadt","type":"Stadt"},"district":{"key":"10041","name":"Regionalverband Saarbrücken","type":"Regionalverband"},"federalState":{"key":"10","name":"Saarland"}},{"name":"Pickardstr.","postalCode":"66346","locality":"Püttlingen","municipality":{"key":"10041515","name":"Püttlingen, Stadt","type":"Stadt"},"district":{"key":"10041","name":"Regionalverband Saarbrücken","type":"Regionalverband"},"federalState":{"key":"10","name":"Saarland"}},{"name":"Pommernweg","postalCode":"66346","locality":"Püttlingen","municipality":{"key":"10041515","name":"Püttlingen, Stadt","type":"Stadt"},"district":{"key":"10041","name":"Regionalverband Saarbrücken","type":"Regionalverband"},"federalState":{"key":"10","name":"Saarland"}},{"name":"Professor-Hirschmann-Str.","postalCode":"66346","locality":"Püttlingen","municipality":{"key":"10041515","name":"Püttlingen, Stadt","type":"Stadt"},"district":{"key":"10041","name":"Regionalverband Saarbrücken","type":"Regionalverband"},"federalState":{"key":"10","name":"Saarland"}},{"name":"Püttlinger Str.","postalCode":"66346","locality":"Püttlingen","municipality":{"key":"10041515","name":"Püttlingen, Stadt","type":"Stadt"},"district":{"key":"10041","name":"Regionalverband Saarbrücken","type":"Regionalverband"},"federalState":{"key":"10","name":"Saarland"}},{"name":"Raabestr.","postalCode":"66346","locality":"Püttlingen","municipality":{"key":"10041515","name":"Püttlingen, Stadt","type":"Stadt"},"district":{"key":"10041","name":"Regionalverband Saarbrücken","type":"Regionalverband"},"federalState":{"key":"10","name":"Saarland"}},{"name":"Rathausplatz","postalCode":"66346","locality":"Püttlingen","municipality":{"key":"10041515","name":"Püttlingen, Stadt","type":"Stadt"},"district":{"key":"10041","name":"Regionalverband Saarbrücken","type":"Regionalverband"},"federalState":{"key":"10","name":"Saarland"}},{"name":"Riegelsberger Str.","postalCode":"66346","locality":"Püttlingen","municipality":{"key":"10041515","name":"Püttlingen, Stadt","type":"Stadt"},"district":{"key":"10041","name":"Regionalverband Saarbrücken","type":"Regionalverband"},"federalState":{"key":"10","name":"Saarland"}},{"name":"Rilkestr.","postalCode":"66346","locality":"Püttlingen","municipality":{"key":"10041515","name":"Püttlingen, Stadt","type":"Stadt"},"district":{"key":"10041","name":"Regionalverband Saarbrücken","type":"Regionalverband"},"federalState":{"key":"10","name":"Saarland"}},{"name":"Ringstr.","postalCode":"66346","locality":"Püttlingen","municipality":{"key":"10041515","name":"Püttlingen, Stadt","type":"Stadt"},"district":{"key":"10041","name":"Regionalverband Saarbrücken","type":"Regionalverband"},"federalState":{"key":"10","name":"Saarland"}},{"name":"Rittenhofer Str.","postalCode":"66346","locality":"Püttlingen","municipality":{"key":"10041515","name":"Püttlingen, Stadt","type":"Stadt"},"district":{"key":"10041","name":"Regionalverband Saarbrücken","type":"Regionalverband"},"federalState":{"key":"10","name":"Saarland"}},{"name":"Ritterstr.","postalCode":"66346","locality":"Püttlingen","municipality":{"key":"10041515","name":"Püttlingen, Stadt","type":"Stadt"},"district":{"key":"10041","name":"Regionalverband Saarbrücken","type":"Regionalverband"},"federalState":{"key":"10","name":"Saarland"}},{"name":"Robert-Koch-Str.","postalCode":"66346","locality":"Püttlingen","municipality":{"key":"10041515","name":"Püttlingen, Stadt","type":"Stadt"},"district":{"key":"10041","name":"Regionalverband Saarbrücken","type":"Regionalverband"},"federalState":{"key":"10","name":"Saarland"}},{"name":"Robert-Schuman-Str.","postalCode":"66346","locality":"Püttlingen","municipality":{"key":"10041515","name":"Püttlingen, Stadt","type":"Stadt"},"district":{"key":"10041","name":"Regionalverband Saarbrücken","type":"Regionalverband"},"federalState":{"key":"10","name":"Saarland"}},{"name":"Römerstr.","postalCode":"66346","locality":"Püttlingen","municipality":{"key":"10041515","name":"Püttlingen, Stadt","type":"Stadt"},"district":{"key":"10041","name":"Regionalverband Saarbrücken","type":"Regionalverband"},"federalState":{"key":"10","name":"Saarland"}},{"name":"Röntgenstr.","postalCode":"66346","locality":"Püttlingen","municipality":{"key":"10041515","name":"Püttlingen, Stadt","type":"Stadt"},"district":{"key":"10041","name":"Regionalverband Saarbrücken","type":"Regionalverband"},"federalState":{"key":"10","name":"Saarland"}},{"name":"Rosenweg","postalCode":"66346","locality":"Püttlingen","municipality":{"key":"10041515","name":"Püttlingen, Stadt","type":"Stadt"},"district":{"key":"10041","name":"Regionalverband Saarbrücken","type":"Regionalverband"},"federalState":{"key":"10","name":"Saarland"}},{"name":"Rösselstr.","postalCode":"66346","locality":"Püttlingen","municipality":{"key":"10041515","name":"Püttlingen, Stadt","type":"Stadt"},"district":{"key":"10041","name":"Regionalverband Saarbrücken","type":"Regionalverband"},"federalState":{"key":"10","name":"Saarland"}},{"name":"Rudolf-Diesel-Str.","postalCode":"66346","locality":"Püttlingen","municipality":{"key":"10041515","name":"Püttlingen, Stadt","type":"Stadt"},"district":{"key":"10041","name":"Regionalverband Saarbrücken","type":"Regionalverband"},"federalState":{"key":"10","name":"Saarland"}},{"name":"Saarbrücker Str.","postalCode":"66346","locality":"Püttlingen","municipality":{"key":"10041515","name":"Püttlingen, Stadt","type":"Stadt"},"district":{"key":"10041","name":"Regionalverband Saarbrücken","type":"Regionalverband"},"federalState":{"key":"10","name":"Saarland"}},{"name":"Saarlouiser Str.","postalCode":"66346","locality":"Püttlingen","municipality":{"key":"10041515","name":"Püttlingen, Stadt","type":"Stadt"},"district":{"key":"10041","name":"Regionalverband Saarbrücken","type":"Regionalverband"},"federalState":{"key":"10","name":"Saarland"}},{"name":"Sauwasen","postalCode":"66346","locality":"Püttlingen","municipality":{"key":"10041515","name":"Püttlingen, Stadt","type":"Stadt"},"district":{"key":"10041","name":"Regionalverband Saarbrücken","type":"Regionalverband"},"federalState":{"key":"10","name":"Saarland"}},{"name":"Schachtstr.","postalCode":"66346","locality":"Püttlingen","municipality":{"key":"10041515","name":"Püttlingen, Stadt","type":"Stadt"},"district":{"key":"10041","name":"Regionalverband Saarbrücken","type":"Regionalverband"},"federalState":{"key":"10","name":"Saarland"}},{"name":"Schäferweg","postalCode":"66346","locality":"Püttlingen","municipality":{"key":"10041515","name":"Püttlingen, Stadt","type":"Stadt"},"district":{"key":"10041","name":"Regionalverband Saarbrücken","type":"Regionalverband"},"federalState":{"key":"10","name":"Saarland"}},{"name":"Schillerstr.","postalCode":"66346","locality":"Püttlingen","municipality":{"key":"10041515","name":"Püttlingen, Stadt","type":"Stadt"},"district":{"key":"10041","name":"Regionalverband Saarbrücken","type":"Regionalverband"},"federalState":{"key":"10","name":"Saarland"}},{"name":"Schlehbachstr.","postalCode":"66346","locality":"Püttlingen","municipality":{"key":"10041515","name":"Püttlingen, Stadt","type":"Stadt"},"district":{"key":"10041","name":"Regionalverband Saarbrücken","type":"Regionalverband"},"federalState":{"key":"10","name":"Saarland"}},{"name":"Schleitenstr.","postalCode":"66346","locality":"Püttlingen","municipality":{"key":"10041515","name":"Püttlingen, Stadt","type":"Stadt"},"district":{"key":"10041","name":"Regionalverband Saarbrücken","type":"Regionalverband"},"federalState":{"key":"10","name":"Saarland"}},{"name":"Schlenderweg","postalCode":"66346","locality":"Püttlingen","municipality":{"key":"10041515","name":"Püttlingen, Stadt","type":"Stadt"},"district":{"key":"10041","name":"Regionalverband Saarbrücken","type":"Regionalverband"},"federalState":{"key":"10","name":"Saarland"}},{"name":"Schlesische Str.","postalCode":"66346","locality":"Püttlingen","municipality":{"key":"10041515","name":"Püttlingen, Stadt","type":"Stadt"},"district":{"key":"10041","name":"Regionalverband Saarbrücken","type":"Regionalverband"},"federalState":{"key":"10","name":"Saarland"}},{"name":"Schopenhauerstr.","postalCode":"66346","locality":"Püttlingen","municipality":{"key":"10041515","name":"Püttlingen, Stadt","type":"Stadt"},"district":{"key":"10041","name":"Regionalverband Saarbrücken","type":"Regionalverband"},"federalState":{"key":"10","name":"Saarland"}},{"name":"Schubertstr.","postalCode":"66346","locality":"Püttlingen","municipality":{"key":"10041515","name":"Püttlingen, Stadt","type":"Stadt"},"district":{"key":"10041","name":"Regionalverband Saarbrücken","type":"Regionalverband"},"federalState":{"key":"10","name":"Saarland"}},{"name":"Schulstr.","postalCode":"66346","locality":"Püttlingen","municipality":{"key":"10041515","name":"Püttlingen, Stadt","type":"Stadt"},"district":{"key":"10041","name":"Regionalverband Saarbrücken","type":"Regionalverband"},"federalState":{"key":"10","name":"Saarland"}},{"name":"Schwarzenholzer Weg","postalCode":"66346","locality":"Püttlingen","municipality":{"key":"10041515","name":"Püttlingen, Stadt","type":"Stadt"},"district":{"key":"10041","name":"Regionalverband Saarbrücken","type":"Regionalverband"},"federalState":{"key":"10","name":"Saarland"}},{"name":"Sellerbacher Str.","postalCode":"66346","locality":"Püttlingen","municipality":{"key":"10041515","name":"Püttlingen, Stadt","type":"Stadt"},"district":{"key":"10041","name":"Regionalverband Saarbrücken","type":"Regionalverband"},"federalState":{"key":"10","name":"Saarland"}},{"name":"Siedlerstr.","postalCode":"66346","locality":"Püttlingen","municipality":{"key":"10041515","name":"Püttlingen, Stadt","type":"Stadt"},"district":{"key":"10041","name":"Regionalverband Saarbrücken","type":"Regionalverband"},"federalState":{"key":"10","name":"Saarland"}},{"name":"Sommerbergstr.","postalCode":"66346","locality":"Püttlingen","municipality":{"key":"10041515","name":"Püttlingen, Stadt","type":"Stadt"},"district":{"key":"10041","name":"Regionalverband Saarbrücken","type":"Regionalverband"},"federalState":{"key":"10","name":"Saarland"}},{"name":"Sprenger Str.","postalCode":"66346","locality":"Püttlingen","municipality":{"key":"10041515","name":"Püttlingen, Stadt","type":"Stadt"},"district":{"key":"10041","name":"Regionalverband Saarbrücken","type":"Regionalverband"},"federalState":{"key":"10","name":"Saarland"}},{"name":"Starenweg","postalCode":"66346","locality":"Püttlingen","municipality":{"key":"10041515","name":"Püttlingen, Stadt","type":"Stadt"},"district":{"key":"10041","name":"Regionalverband Saarbrücken","type":"Regionalverband"},"federalState":{"key":"10","name":"Saarland"}},{"name":"Steinkreuzstr.","postalCode":"66346","locality":"Püttlingen","municipality":{"key":"10041515","name":"Püttlingen, Stadt","type":"Stadt"},"district":{"key":"10041","name":"Regionalverband Saarbrücken","type":"Regionalverband"},"federalState":{"key":"10","name":"Saarland"}},{"name":"Stollenweg","postalCode":"66346","locality":"Püttlingen","municipality":{"key":"10041515","name":"Püttlingen, Stadt","type":"Stadt"},"district":{"key":"10041","name":"Regionalverband Saarbrücken","type":"Regionalverband"},"federalState":{"key":"10","name":"Saarland"}},{"name":"Strassersbergstr.","postalCode":"66346","locality":"Püttlingen","municipality":{"key":"10041515","name":"Püttlingen, Stadt","type":"Stadt"},"district":{"key":"10041","name":"Regionalverband Saarbrücken","type":"Regionalverband"},"federalState":{"key":"10","name":"Saarland"}},{"name":"Theodolinde-Katzenmaier-Str.","postalCode":"66346","locality":"Püttlingen","municipality":{"key":"10041515","name":"Püttlingen, Stadt","type":"Stadt"},"district":{"key":"10041","name":"Regionalverband Saarbrücken","type":"Regionalverband"},"federalState":{"key":"10","name":"Saarland"}},{"name":"Theodor-Heuss-Str.","postalCode":"66346","locality":"Püttlingen","municipality":{"key":"10041515","name":"Püttlingen, Stadt","type":"Stadt"},"district":{"key":"10041","name":"Regionalverband Saarbrücken","type":"Regionalverband"},"federalState":{"key":"10","name":"Saarland"}},{"name":"Thüringer Weg","postalCode":"66346","locality":"Püttlingen","municipality":{"key":"10041515","name":"Püttlingen, Stadt","type":"Stadt"},"district":{"key":"10041","name":"Regionalverband Saarbrücken","type":"Regionalverband"},"federalState":{"key":"10","name":"Saarland"}},{"name":"Traubenweg","postalCode":"66346","locality":"Püttlingen","municipality":{"key":"10041515","name":"Püttlingen, Stadt","type":"Stadt"},"district":{"key":"10041","name":"Regionalverband Saarbrücken","type":"Regionalverband"},"federalState":{"key":"10","name":"Saarland"}},{"name":"Tulpenweg","postalCode":"66346","locality":"Püttlingen","municipality":{"key":"10041515","name":"Püttlingen, Stadt","type":"Stadt"},"district":{"key":"10041","name":"Regionalverband Saarbrücken","type":"Regionalverband"},"federalState":{"key":"10","name":"Saarland"}},{"name":"Verbindungsstr.","postalCode":"66346","locality":"Püttlingen","municipality":{"key":"10041515","name":"Püttlingen, Stadt","type":"Stadt"},"district":{"key":"10041","name":"Regionalverband Saarbrücken","type":"Regionalverband"},"federalState":{"key":"10","name":"Saarland"}},{"name":"Viktoriastr.","postalCode":"66346","locality":"Püttlingen","municipality":{"key":"10041515","name":"Püttlingen, Stadt","type":"Stadt"},"district":{"key":"10041","name":"Regionalverband Saarbrücken","type":"Regionalverband"},"federalState":{"key":"10","name":"Saarland"}},{"name":"Virchowstr.","postalCode":"66346","locality":"Püttlingen","municipality":{"key":"10041515","name":"Püttlingen, Stadt","type":"Stadt"},"district":{"key":"10041","name":"Regionalverband Saarbrücken","type":"Regionalverband"},"federalState":{"key":"10","name":"Saarland"}},{"name":"Vitusstr.","postalCode":"66346","locality":"Püttlingen","municipality":{"key":"10041515","name":"Püttlingen, Stadt","type":"Stadt"},"district":{"key":"10041","name":"Regionalverband Saarbrücken","type":"Regionalverband"},"federalState":{"key":"10","name":"Saarland"}},{"name":"Vogesenweg","postalCode":"66346","locality":"Püttlingen","municipality":{"key":"10041515","name":"Püttlingen, Stadt","type":"Stadt"},"district":{"key":"10041","name":"Regionalverband Saarbrücken","type":"Regionalverband"},"federalState":{"key":"10","name":"Saarland"}},{"name":"Völklinger Str.","postalCode":"66346","locality":"Püttlingen","municipality":{"key":"10041515","name":"Püttlingen, Stadt","type":"Stadt"},"district":{"key":"10041","name":"Regionalverband Saarbrücken","type":"Regionalverband"},"federalState":{"key":"10","name":"Saarland"}},{"name":"Von-der-Heydt-Str.","postalCode":"66346","locality":"Püttlingen","municipality":{"key":"10041515","name":"Püttlingen, Stadt","type":"Stadt"},"district":{"key":"10041","name":"Regionalverband Saarbrücken","type":"Regionalverband"},"federalState":{"key":"10","name":"Saarland"}},{"name":"Vor Nack","postalCode":"66346","locality":"Püttlingen","municipality":{"key":"10041515","name":"Püttlingen, Stadt","type":"Stadt"},"district":{"key":"10041","name":"Regionalverband Saarbrücken","type":"Regionalverband"},"federalState":{"key":"10","name":"Saarland"}},{"name":"Vor Pfuhlbüsch","postalCode":"66346","locality":"Püttlingen","municipality":{"key":"10041515","name":"Püttlingen, Stadt","type":"Stadt"},"district":{"key":"10041","name":"Regionalverband Saarbrücken","type":"Regionalverband"},"federalState":{"key":"10","name":"Saarland"}},{"name":"Walpershofer Str.","postalCode":"66346","locality":"Püttlingen","municipality":{"key":"10041515","name":"Püttlingen, Stadt","type":"Stadt"},"district":{"key":"10041","name":"Regionalverband Saarbrücken","type":"Regionalverband"},"federalState":{"key":"10","name":"Saarland"}},{"name":"Weiherbachstr.","postalCode":"66346","locality":"Püttlingen","municipality":{"key":"10041515","name":"Püttlingen, Stadt","type":"Stadt"},"district":{"key":"10041","name":"Regionalverband Saarbrücken","type":"Regionalverband"},"federalState":{"key":"10","name":"Saarland"}},{"name":"Weiherbergstr.","postalCode":"66346","locality":"Püttlingen","municipality":{"key":"10041515","name":"Püttlingen, Stadt","type":"Stadt"},"district":{"key":"10041","name":"Regionalverband Saarbrücken","type":"Regionalverband"},"federalState":{"key":"10","name":"Saarland"}},{"name":"Weinbergstr.","postalCode":"66346","locality":"Püttlingen","municipality":{"key":"10041515","name":"Püttlingen, Stadt","type":"Stadt"},"district":{"key":"10041","name":"Regionalverband Saarbrücken","type":"Regionalverband"},"federalState":{"key":"10","name":"Saarland"}},{"name":"Wendalinusweg","postalCode":"66346","locality":"Püttlingen","municipality":{"key":"10041515","name":"Püttlingen, Stadt","type":"Stadt"},"district":{"key":"10041","name":"Regionalverband Saarbrücken","type":"Regionalverband"},"federalState":{"key":"10","name":"Saarland"}},{"name":"Westpreußenweg","postalCode":"66346","locality":"Püttlingen","municipality":{"key":"10041515","name":"Püttlingen, Stadt","type":"Stadt"},"district":{"key":"10041","name":"Regionalverband Saarbrücken","type":"Regionalverband"},"federalState":{"key":"10","name":"Saarland"}},{"name":"Wilhelmstr.","postalCode":"66346","locality":"Püttlingen","municipality":{"key":"10041515","name":"Püttlingen, Stadt","type":"Stadt"},"district":{"key":"10041","name":"Regionalverband Saarbrücken","type":"Regionalverband"},"federalState":{"key":"10","name":"Saarland"}},{"name":"Willi-Graf-Str.","postalCode":"66346","locality":"Püttlingen","municipality":{"key":"10041515","name":"Püttlingen, Stadt","type":"Stadt"},"district":{"key":"10041","name":"Regionalverband Saarbrücken","type":"Regionalverband"},"federalState":{"key":"10","name":"Saarland"}},{"name":"Zum Alten Schwimmbad","postalCode":"66346","locality":"Püttlingen","municipality":{"key":"10041515","name":"Püttlingen, Stadt","type":"Stadt"},"district":{"key":"10041","name":"Regionalverband Saarbrücken","type":"Regionalverband"},"federalState":{"key":"10","name":"Saarland"}},{"name":"Zum Birkenbruch","postalCode":"66346","locality":"Püttlingen","municipality":{"key":"10041515","name":"Püttlingen, Stadt","type":"Stadt"},"district":{"key":"10041","name":"Regionalverband Saarbrücken","type":"Regionalverband"},"federalState":{"key":"10","name":"Saarland"}},{"name":"Zum Engelfanger Schacht","postalCode":"66346","locality":"Püttlingen","municipality":{"key":"10041515","name":"Püttlingen, Stadt","type":"Stadt"},"district":{"key":"10041","name":"Regionalverband Saarbrücken","type":"Regionalverband"},"federalState":{"key":"10","name":"Saarland"}},{"name":"Zum Veltheimstollen","postalCode":"66346","locality":"Püttlingen","municipality":{"key":"10041515","name":"Püttlingen, Stadt","type":"Stadt"},"district":{"key":"10041","name":"Regionalverband Saarbrücken","type":"Regionalverband"},"federalState":{"key":"10","name":"Saarland"}},{"name":"Zur Bergehalde","postalCode":"66346","locality":"Püttlingen","municipality":{"key":"10041515","name":"Püttlingen, Stadt","type":"Stadt"},"district":{"key":"10041","name":"Regionalverband Saarbrücken","type":"Regionalverband"},"federalState":{"key":"10","name":"Saarland"}},{"name":"Zur Sporthalle","postalCode":"66346","locality":"Püttlingen","municipality":{"key":"10041515","name":"Püttlingen, Stadt","type":"Stadt"},"district":{"key":"10041","name":"Regionalverband Saarbrücken","type":"Regionalverband"},"federalState":{"key":"10","name":"Saarland"}},{"name":"Überhofer Str.","postalCode":"66346","locality":"Püttlingen","municipality":{"key":"10041515","name":"Püttlingen, Stadt","type":"Stadt"},"district":{"key":"10041","name":"Regionalverband Saarbrücken","type":"Regionalverband"},"federalState":{"key":"10","name":"Saarland"}},]