[{"name":"Alter Weg","postalCode":"69239","locality":"Neckarsteinach","municipality":{"key":"06431018","name":"Neckarsteinach, Stadt","type":"Stadt"},"district":{"key":"06431","name":"Bergstraße","type":"Landkreis"},"federalState":{"key":"06","name":"Hessen"}},{"name":"Am Bischofswald","postalCode":"69239","locality":"Neckarsteinach","municipality":{"key":"06431018","name":"Neckarsteinach, Stadt","type":"Stadt"},"district":{"key":"06431","name":"Bergstraße","type":"Landkreis"},"federalState":{"key":"06","name":"Hessen"}},{"name":"Am Darsberger Pfad","postalCode":"69239","locality":"Neckarsteinach","municipality":{"key":"06431018","name":"Neckarsteinach, Stadt","type":"Stadt"},"district":{"key":"06431","name":"Bergstraße","type":"Landkreis"},"federalState":{"key":"06","name":"Hessen"}},{"name":"Am Eichelberg","postalCode":"69239","locality":"Neckarsteinach","municipality":{"key":"06431018","name":"Neckarsteinach, Stadt","type":"Stadt"},"district":{"key":"06431","name":"Bergstraße","type":"Landkreis"},"federalState":{"key":"06","name":"Hessen"}},{"name":"Am Heidenberg","postalCode":"69239","locality":"Neckarsteinach","municipality":{"key":"06431018","name":"Neckarsteinach, Stadt","type":"Stadt"},"district":{"key":"06431","name":"Bergstraße","type":"Landkreis"},"federalState":{"key":"06","name":"Hessen"}},{"name":"Am Klingen","postalCode":"69239","locality":"Neckarsteinach","municipality":{"key":"06431018","name":"Neckarsteinach, Stadt","type":"Stadt"},"district":{"key":"06431","name":"Bergstraße","type":"Landkreis"},"federalState":{"key":"06","name":"Hessen"}},{"name":"Am Leerberg","postalCode":"69239","locality":"Neckarsteinach","municipality":{"key":"06431018","name":"Neckarsteinach, Stadt","type":"Stadt"},"district":{"key":"06431","name":"Bergstraße","type":"Landkreis"},"federalState":{"key":"06","name":"Hessen"}},{"name":"Am Leiersberg","postalCode":"69239","locality":"Neckarsteinach","municipality":{"key":"06431018","name":"Neckarsteinach, Stadt","type":"Stadt"},"district":{"key":"06431","name":"Bergstraße","type":"Landkreis"},"federalState":{"key":"06","name":"Hessen"}},{"name":"Am Leimenbuckel","postalCode":"69239","locality":"Neckarsteinach","municipality":{"key":"06431018","name":"Neckarsteinach, Stadt","type":"Stadt"},"district":{"key":"06431","name":"Bergstraße","type":"Landkreis"},"federalState":{"key":"06","name":"Hessen"}},{"name":"Am Pfaffenrain","postalCode":"69239","locality":"Neckarsteinach","municipality":{"key":"06431018","name":"Neckarsteinach, Stadt","type":"Stadt"},"district":{"key":"06431","name":"Bergstraße","type":"Landkreis"},"federalState":{"key":"06","name":"Hessen"}},{"name":"Am Rösenbrunnen","postalCode":"69239","locality":"Neckarsteinach","municipality":{"key":"06431018","name":"Neckarsteinach, Stadt","type":"Stadt"},"district":{"key":"06431","name":"Bergstraße","type":"Landkreis"},"federalState":{"key":"06","name":"Hessen"}},{"name":"Amselweg","postalCode":"69239","locality":"Neckarsteinach","municipality":{"key":"06431018","name":"Neckarsteinach, Stadt","type":"Stadt"},"district":{"key":"06431","name":"Bergstraße","type":"Landkreis"},"federalState":{"key":"06","name":"Hessen"}},{"name":"Am Sonnenhang","postalCode":"69239","locality":"Neckarsteinach","municipality":{"key":"06431018","name":"Neckarsteinach, Stadt","type":"Stadt"},"district":{"key":"06431","name":"Bergstraße","type":"Landkreis"},"federalState":{"key":"06","name":"Hessen"}},{"name":"Am Stangenberg","postalCode":"69239","locality":"Neckarsteinach","municipality":{"key":"06431018","name":"Neckarsteinach, Stadt","type":"Stadt"},"district":{"key":"06431","name":"Bergstraße","type":"Landkreis"},"federalState":{"key":"06","name":"Hessen"}},{"name":"Am Vogelsang","postalCode":"69239","locality":"Neckarsteinach","municipality":{"key":"06431018","name":"Neckarsteinach, Stadt","type":"Stadt"},"district":{"key":"06431","name":"Bergstraße","type":"Landkreis"},"federalState":{"key":"06","name":"Hessen"}},{"name":"Am Wingertsacker","postalCode":"69239","locality":"Neckarsteinach","municipality":{"key":"06431018","name":"Neckarsteinach, Stadt","type":"Stadt"},"district":{"key":"06431","name":"Bergstraße","type":"Landkreis"},"federalState":{"key":"06","name":"Hessen"}},{"name":"Bachweg","postalCode":"69239","locality":"Neckarsteinach","municipality":{"key":"06431018","name":"Neckarsteinach, Stadt","type":"Stadt"},"district":{"key":"06431","name":"Bergstraße","type":"Landkreis"},"federalState":{"key":"06","name":"Hessen"}},{"name":"Bahnhofstr.","postalCode":"69239","locality":"Neckarsteinach","municipality":{"key":"06431018","name":"Neckarsteinach, Stadt","type":"Stadt"},"district":{"key":"06431","name":"Bergstraße","type":"Landkreis"},"federalState":{"key":"06","name":"Hessen"}},{"name":"Bittersbachweg","postalCode":"69239","locality":"Neckarsteinach","municipality":{"key":"06431018","name":"Neckarsteinach, Stadt","type":"Stadt"},"district":{"key":"06431","name":"Bergstraße","type":"Landkreis"},"federalState":{"key":"06","name":"Hessen"}},{"name":"Bliggergasse","postalCode":"69239","locality":"Neckarsteinach","municipality":{"key":"06431018","name":"Neckarsteinach, Stadt","type":"Stadt"},"district":{"key":"06431","name":"Bergstraße","type":"Landkreis"},"federalState":{"key":"06","name":"Hessen"}},{"name":"Blumenstr.","postalCode":"69239","locality":"Neckarsteinach","municipality":{"key":"06431018","name":"Neckarsteinach, Stadt","type":"Stadt"},"district":{"key":"06431","name":"Bergstraße","type":"Landkreis"},"federalState":{"key":"06","name":"Hessen"}},{"name":"Bossmannbuckelweg","postalCode":"69239","locality":"Neckarsteinach","municipality":{"key":"06431018","name":"Neckarsteinach, Stadt","type":"Stadt"},"district":{"key":"06431","name":"Bergstraße","type":"Landkreis"},"federalState":{"key":"06","name":"Hessen"}},{"name":"Brunnenbergweg","postalCode":"69239","locality":"Neckarsteinach","municipality":{"key":"06431018","name":"Neckarsteinach, Stadt","type":"Stadt"},"district":{"key":"06431","name":"Bergstraße","type":"Landkreis"},"federalState":{"key":"06","name":"Hessen"}},{"name":"Brunnenweg","postalCode":"69239","locality":"Neckarsteinach","municipality":{"key":"06431018","name":"Neckarsteinach, Stadt","type":"Stadt"},"district":{"key":"06431","name":"Bergstraße","type":"Landkreis"},"federalState":{"key":"06","name":"Hessen"}},{"name":"Buchhellenweg","postalCode":"69239","locality":"Neckarsteinach","municipality":{"key":"06431018","name":"Neckarsteinach, Stadt","type":"Stadt"},"district":{"key":"06431","name":"Bergstraße","type":"Landkreis"},"federalState":{"key":"06","name":"Hessen"}},{"name":"Burgenstr.","postalCode":"69239","locality":"Neckarsteinach","municipality":{"key":"06431018","name":"Neckarsteinach, Stadt","type":"Stadt"},"district":{"key":"06431","name":"Bergstraße","type":"Landkreis"},"federalState":{"key":"06","name":"Hessen"}},{"name":"Burgenweg","postalCode":"69239","locality":"Neckarsteinach","municipality":{"key":"06431018","name":"Neckarsteinach, Stadt","type":"Stadt"},"district":{"key":"06431","name":"Bergstraße","type":"Landkreis"},"federalState":{"key":"06","name":"Hessen"}},{"name":"Carl-Diem-Weg","postalCode":"69493","locality":"Hirschberg an der Bergstraße","municipality":{"key":"08226107","name":"Hirschberg an der Bergstraße","type":"Kreisangehörige_Gemeinde"},"district":{"key":"08226","name":"Rhein-Neckar-Kreis","type":"Landkreis"},"federalState":{"key":"08","name":"Baden-Württemberg"}},{"name":"Darsberger Pfad","postalCode":"69239","locality":"Neckarsteinach","municipality":{"key":"06431018","name":"Neckarsteinach, Stadt","type":"Stadt"},"district":{"key":"06431","name":"Bergstraße","type":"Landkreis"},"federalState":{"key":"06","name":"Hessen"}},{"name":"Darsberger Str.","postalCode":"69239","locality":"Neckarsteinach","municipality":{"key":"06431018","name":"Neckarsteinach, Stadt","type":"Stadt"},"district":{"key":"06431","name":"Bergstraße","type":"Landkreis"},"federalState":{"key":"06","name":"Hessen"}},{"name":"Darsberger Weg","postalCode":"69239","locality":"Neckarsteinach","municipality":{"key":"06431018","name":"Neckarsteinach, Stadt","type":"Stadt"},"district":{"key":"06431","name":"Bergstraße","type":"Landkreis"},"federalState":{"key":"06","name":"Hessen"}},{"name":"Drosselweg","postalCode":"69239","locality":"Neckarsteinach","municipality":{"key":"06431018","name":"Neckarsteinach, Stadt","type":"Stadt"},"district":{"key":"06431","name":"Bergstraße","type":"Landkreis"},"federalState":{"key":"06","name":"Hessen"}},{"name":"Eichendorffstr.","postalCode":"69239","locality":"Neckarsteinach","municipality":{"key":"06431018","name":"Neckarsteinach, Stadt","type":"Stadt"},"district":{"key":"06431","name":"Bergstraße","type":"Landkreis"},"federalState":{"key":"06","name":"Hessen"}},{"name":"Fährweg","postalCode":"69239","locality":"Neckarsteinach","municipality":{"key":"06431018","name":"Neckarsteinach, Stadt","type":"Stadt"},"district":{"key":"06431","name":"Bergstraße","type":"Landkreis"},"federalState":{"key":"06","name":"Hessen"}},{"name":"Finkenweg","postalCode":"69239","locality":"Neckarsteinach","municipality":{"key":"06431018","name":"Neckarsteinach, Stadt","type":"Stadt"},"district":{"key":"06431","name":"Bergstraße","type":"Landkreis"},"federalState":{"key":"06","name":"Hessen"}},{"name":"Forsthausweg","postalCode":"69239","locality":"Neckarsteinach","municipality":{"key":"06431018","name":"Neckarsteinach, Stadt","type":"Stadt"},"district":{"key":"06431","name":"Bergstraße","type":"Landkreis"},"federalState":{"key":"06","name":"Hessen"}},{"name":"Freudenbergstr.","postalCode":"69239","locality":"Neckarsteinach","municipality":{"key":"06431018","name":"Neckarsteinach, Stadt","type":"Stadt"},"district":{"key":"06431","name":"Bergstraße","type":"Landkreis"},"federalState":{"key":"06","name":"Hessen"}},{"name":"Friedrich-Ebert-Str.","postalCode":"69239","locality":"Neckarsteinach","municipality":{"key":"06431018","name":"Neckarsteinach, Stadt","type":"Stadt"},"district":{"key":"06431","name":"Bergstraße","type":"Landkreis"},"federalState":{"key":"06","name":"Hessen"}},{"name":"Galgenbergweg","postalCode":"69239","locality":"Neckarsteinach","municipality":{"key":"06431018","name":"Neckarsteinach, Stadt","type":"Stadt"},"district":{"key":"06431","name":"Bergstraße","type":"Landkreis"},"federalState":{"key":"06","name":"Hessen"}},{"name":"Gartenstr.","postalCode":"69239","locality":"Neckarsteinach","municipality":{"key":"06431018","name":"Neckarsteinach, Stadt","type":"Stadt"},"district":{"key":"06431","name":"Bergstraße","type":"Landkreis"},"federalState":{"key":"06","name":"Hessen"}},{"name":"Gerbergasse","postalCode":"69239","locality":"Neckarsteinach","municipality":{"key":"06431018","name":"Neckarsteinach, Stadt","type":"Stadt"},"district":{"key":"06431","name":"Bergstraße","type":"Landkreis"},"federalState":{"key":"06","name":"Hessen"}},{"name":"Goethestr.","postalCode":"69239","locality":"Neckarsteinach","municipality":{"key":"06431018","name":"Neckarsteinach, Stadt","type":"Stadt"},"district":{"key":"06431","name":"Bergstraße","type":"Landkreis"},"federalState":{"key":"06","name":"Hessen"}},{"name":"Greiner-Eck-Weg","postalCode":"69239","locality":"Neckarsteinach","municipality":{"key":"06431018","name":"Neckarsteinach, Stadt","type":"Stadt"},"district":{"key":"06431","name":"Bergstraße","type":"Landkreis"},"federalState":{"key":"06","name":"Hessen"}},{"name":"Greiner Str.","postalCode":"69239","locality":"Neckarsteinach","municipality":{"key":"06431018","name":"Neckarsteinach, Stadt","type":"Stadt"},"district":{"key":"06431","name":"Bergstraße","type":"Landkreis"},"federalState":{"key":"06","name":"Hessen"}},{"name":"Grenzweg","postalCode":"69239","locality":"Neckarsteinach","municipality":{"key":"06431018","name":"Neckarsteinach, Stadt","type":"Stadt"},"district":{"key":"06431","name":"Bergstraße","type":"Landkreis"},"federalState":{"key":"06","name":"Hessen"}},{"name":"Hauptstr.","postalCode":"69239","locality":"Neckarsteinach","municipality":{"key":"06431018","name":"Neckarsteinach, Stadt","type":"Stadt"},"district":{"key":"06431","name":"Bergstraße","type":"Landkreis"},"federalState":{"key":"06","name":"Hessen"}},{"name":"Heidenbergweg","postalCode":"69239","locality":"Neckarsteinach","municipality":{"key":"06431018","name":"Neckarsteinach, Stadt","type":"Stadt"},"district":{"key":"06431","name":"Bergstraße","type":"Landkreis"},"federalState":{"key":"06","name":"Hessen"}},{"name":"Hirschgasse","postalCode":"69239","locality":"Neckarsteinach","municipality":{"key":"06431018","name":"Neckarsteinach, Stadt","type":"Stadt"},"district":{"key":"06431","name":"Bergstraße","type":"Landkreis"},"federalState":{"key":"06","name":"Hessen"}},{"name":"Hirschhorner Str.","postalCode":"69239","locality":"Neckarsteinach","municipality":{"key":"06431018","name":"Neckarsteinach, Stadt","type":"Stadt"},"district":{"key":"06431","name":"Bergstraße","type":"Landkreis"},"federalState":{"key":"06","name":"Hessen"}},{"name":"Hirschhornerweg","postalCode":"69239","locality":"Neckarsteinach","municipality":{"key":"06431018","name":"Neckarsteinach, Stadt","type":"Stadt"},"district":{"key":"06431","name":"Bergstraße","type":"Landkreis"},"federalState":{"key":"06","name":"Hessen"}},{"name":"Hirtweg","postalCode":"69239","locality":"Neckarsteinach","municipality":{"key":"06431018","name":"Neckarsteinach, Stadt","type":"Stadt"},"district":{"key":"06431","name":"Bergstraße","type":"Landkreis"},"federalState":{"key":"06","name":"Hessen"}},{"name":"Hochbehälterweg","postalCode":"69239","locality":"Neckarsteinach","municipality":{"key":"06431018","name":"Neckarsteinach, Stadt","type":"Stadt"},"district":{"key":"06431","name":"Bergstraße","type":"Landkreis"},"federalState":{"key":"06","name":"Hessen"}},{"name":"Höhenstr.","postalCode":"69239","locality":"Neckarsteinach","municipality":{"key":"06431018","name":"Neckarsteinach, Stadt","type":"Stadt"},"district":{"key":"06431","name":"Bergstraße","type":"Landkreis"},"federalState":{"key":"06","name":"Hessen"}},{"name":"Höllenwaldweg","postalCode":"69239","locality":"Neckarsteinach","municipality":{"key":"06431018","name":"Neckarsteinach, Stadt","type":"Stadt"},"district":{"key":"06431","name":"Bergstraße","type":"Landkreis"},"federalState":{"key":"06","name":"Hessen"}},{"name":"Hopfengartenweg","postalCode":"69239","locality":"Neckarsteinach","municipality":{"key":"06431018","name":"Neckarsteinach, Stadt","type":"Stadt"},"district":{"key":"06431","name":"Bergstraße","type":"Landkreis"},"federalState":{"key":"06","name":"Hessen"}},{"name":"Im Bühl","postalCode":"69239","locality":"Neckarsteinach","municipality":{"key":"06431018","name":"Neckarsteinach, Stadt","type":"Stadt"},"district":{"key":"06431","name":"Bergstraße","type":"Landkreis"},"federalState":{"key":"06","name":"Hessen"}},{"name":"Im Langenmorgen","postalCode":"69239","locality":"Neckarsteinach","municipality":{"key":"06431018","name":"Neckarsteinach, Stadt","type":"Stadt"},"district":{"key":"06431","name":"Bergstraße","type":"Landkreis"},"federalState":{"key":"06","name":"Hessen"}},{"name":"In der Gasse","postalCode":"69239","locality":"Neckarsteinach","municipality":{"key":"06431018","name":"Neckarsteinach, Stadt","type":"Stadt"},"district":{"key":"06431","name":"Bergstraße","type":"Landkreis"},"federalState":{"key":"06","name":"Hessen"}},{"name":"Industriestr.","postalCode":"69239","locality":"Neckarsteinach","municipality":{"key":"06431018","name":"Neckarsteinach, Stadt","type":"Stadt"},"district":{"key":"06431","name":"Bergstraße","type":"Landkreis"},"federalState":{"key":"06","name":"Hessen"}},{"name":"Jahnstr.","postalCode":"69493","locality":"Hirschberg an der Bergstraße","municipality":{"key":"08226107","name":"Hirschberg an der Bergstraße","type":"Kreisangehörige_Gemeinde"},"district":{"key":"08226","name":"Rhein-Neckar-Kreis","type":"Landkreis"},"federalState":{"key":"08","name":"Baden-Württemberg"}},{"name":"Johann-Dörk-Str.","postalCode":"69493","locality":"Hirschberg an der Bergstraße","municipality":{"key":"08226107","name":"Hirschberg an der Bergstraße","type":"Kreisangehörige_Gemeinde"},"district":{"key":"08226","name":"Rhein-Neckar-Kreis","type":"Landkreis"},"federalState":{"key":"08","name":"Baden-Württemberg"}},{"name":"Johann-Sebastian-Bach-Str.","postalCode":"69493","locality":"Hirschberg an der Bergstraße","municipality":{"key":"08226107","name":"Hirschberg an der Bergstraße","type":"Kreisangehörige_Gemeinde"},"district":{"key":"08226","name":"Rhein-Neckar-Kreis","type":"Landkreis"},"federalState":{"key":"08","name":"Baden-Württemberg"}},{"name":"Kapellenstr.","postalCode":"69239","locality":"Neckarsteinach","municipality":{"key":"06431018","name":"Neckarsteinach, Stadt","type":"Stadt"},"district":{"key":"06431","name":"Bergstraße","type":"Landkreis"},"federalState":{"key":"06","name":"Hessen"}},{"name":"Karl-Schmitt-Str.","postalCode":"69239","locality":"Neckarsteinach","municipality":{"key":"06431018","name":"Neckarsteinach, Stadt","type":"Stadt"},"district":{"key":"06431","name":"Bergstraße","type":"Landkreis"},"federalState":{"key":"06","name":"Hessen"}},{"name":"Katzelterweg","postalCode":"69239","locality":"Neckarsteinach","municipality":{"key":"06431018","name":"Neckarsteinach, Stadt","type":"Stadt"},"district":{"key":"06431","name":"Bergstraße","type":"Landkreis"},"federalState":{"key":"06","name":"Hessen"}},{"name":"Kirchenstr.","postalCode":"69239","locality":"Neckarsteinach","municipality":{"key":"06431018","name":"Neckarsteinach, Stadt","type":"Stadt"},"district":{"key":"06431","name":"Bergstraße","type":"Landkreis"},"federalState":{"key":"06","name":"Hessen"}},{"name":"Kniebigweg","postalCode":"69239","locality":"Neckarsteinach","municipality":{"key":"06431018","name":"Neckarsteinach, Stadt","type":"Stadt"},"district":{"key":"06431","name":"Bergstraße","type":"Landkreis"},"federalState":{"key":"06","name":"Hessen"}},{"name":"Kreuzbaumweg","postalCode":"69239","locality":"Neckarsteinach","municipality":{"key":"06431018","name":"Neckarsteinach, Stadt","type":"Stadt"},"district":{"key":"06431","name":"Bergstraße","type":"Landkreis"},"federalState":{"key":"06","name":"Hessen"}},{"name":"Ladenrampenweg","postalCode":"69239","locality":"Neckarsteinach","municipality":{"key":"06431018","name":"Neckarsteinach, Stadt","type":"Stadt"},"district":{"key":"06431","name":"Bergstraße","type":"Landkreis"},"federalState":{"key":"06","name":"Hessen"}},{"name":"Langenthaler Str.","postalCode":"69239","locality":"Neckarsteinach","municipality":{"key":"06431018","name":"Neckarsteinach, Stadt","type":"Stadt"},"district":{"key":"06431","name":"Bergstraße","type":"Landkreis"},"federalState":{"key":"06","name":"Hessen"}},{"name":"Langenthalerweg","postalCode":"69239","locality":"Neckarsteinach","municipality":{"key":"06431018","name":"Neckarsteinach, Stadt","type":"Stadt"},"district":{"key":"06431","name":"Bergstraße","type":"Landkreis"},"federalState":{"key":"06","name":"Hessen"}},{"name":"Lanzenbach","postalCode":"69239","locality":"Neckarsteinach","municipality":{"key":"06431018","name":"Neckarsteinach, Stadt","type":"Stadt"},"district":{"key":"06431","name":"Bergstraße","type":"Landkreis"},"federalState":{"key":"06","name":"Hessen"}},{"name":"Lanzenbachweg","postalCode":"69239","locality":"Neckarsteinach","municipality":{"key":"06431018","name":"Neckarsteinach, Stadt","type":"Stadt"},"district":{"key":"06431","name":"Bergstraße","type":"Landkreis"},"federalState":{"key":"06","name":"Hessen"}},{"name":"Lärchenweg","postalCode":"69239","locality":"Neckarsteinach","municipality":{"key":"06431018","name":"Neckarsteinach, Stadt","type":"Stadt"},"district":{"key":"06431","name":"Bergstraße","type":"Landkreis"},"federalState":{"key":"06","name":"Hessen"}},{"name":"Leegweg","postalCode":"69239","locality":"Neckarsteinach","municipality":{"key":"06431018","name":"Neckarsteinach, Stadt","type":"Stadt"},"district":{"key":"06431","name":"Bergstraße","type":"Landkreis"},"federalState":{"key":"06","name":"Hessen"}},{"name":"Lessingstr.","postalCode":"69239","locality":"Neckarsteinach","municipality":{"key":"06431018","name":"Neckarsteinach, Stadt","type":"Stadt"},"district":{"key":"06431","name":"Bergstraße","type":"Landkreis"},"federalState":{"key":"06","name":"Hessen"}},{"name":"Loogweg","postalCode":"69239","locality":"Neckarsteinach","municipality":{"key":"06431018","name":"Neckarsteinach, Stadt","type":"Stadt"},"district":{"key":"06431","name":"Bergstraße","type":"Landkreis"},"federalState":{"key":"06","name":"Hessen"}},{"name":"Meisenweg","postalCode":"69239","locality":"Neckarsteinach","municipality":{"key":"06431018","name":"Neckarsteinach, Stadt","type":"Stadt"},"district":{"key":"06431","name":"Bergstraße","type":"Landkreis"},"federalState":{"key":"06","name":"Hessen"}},{"name":"Michelbucher Str.","postalCode":"69239","locality":"Neckarsteinach","municipality":{"key":"06431018","name":"Neckarsteinach, Stadt","type":"Stadt"},"district":{"key":"06431","name":"Bergstraße","type":"Landkreis"},"federalState":{"key":"06","name":"Hessen"}},{"name":"Mittlerer Viehgrundweg","postalCode":"69239","locality":"Neckarsteinach","municipality":{"key":"06431018","name":"Neckarsteinach, Stadt","type":"Stadt"},"district":{"key":"06431","name":"Bergstraße","type":"Landkreis"},"federalState":{"key":"06","name":"Hessen"}},{"name":"motec-data","postalCode":"69239","locality":"Neckarsteinach","municipality":{"key":"06431018","name":"Neckarsteinach, Stadt","type":"Stadt"},"district":{"key":"06431","name":"Bergstraße","type":"Landkreis"},"federalState":{"key":"06","name":"Hessen"}},{"name":"Mühlackerweg","postalCode":"69239","locality":"Neckarsteinach","municipality":{"key":"06431018","name":"Neckarsteinach, Stadt","type":"Stadt"},"district":{"key":"06431","name":"Bergstraße","type":"Landkreis"},"federalState":{"key":"06","name":"Hessen"}},{"name":"Mühlgasse","postalCode":"69239","locality":"Neckarsteinach","municipality":{"key":"06431018","name":"Neckarsteinach, Stadt","type":"Stadt"},"district":{"key":"06431","name":"Bergstraße","type":"Landkreis"},"federalState":{"key":"06","name":"Hessen"}},{"name":"Neckargemünder Str.","postalCode":"69239","locality":"Neckarsteinach","municipality":{"key":"06431018","name":"Neckarsteinach, Stadt","type":"Stadt"},"district":{"key":"06431","name":"Bergstraße","type":"Landkreis"},"federalState":{"key":"06","name":"Hessen"}},{"name":"Neckargemünderweg","postalCode":"69239","locality":"Neckarsteinach","municipality":{"key":"06431018","name":"Neckarsteinach, Stadt","type":"Stadt"},"district":{"key":"06431","name":"Bergstraße","type":"Landkreis"},"federalState":{"key":"06","name":"Hessen"}},{"name":"Neckarsteinacher Str.","postalCode":"69239","locality":"Neckarsteinach","municipality":{"key":"06431018","name":"Neckarsteinach, Stadt","type":"Stadt"},"district":{"key":"06431","name":"Bergstraße","type":"Landkreis"},"federalState":{"key":"06","name":"Hessen"}},{"name":"Neckarstr.","postalCode":"69239","locality":"Neckarsteinach","municipality":{"key":"06431018","name":"Neckarsteinach, Stadt","type":"Stadt"},"district":{"key":"06431","name":"Bergstraße","type":"Landkreis"},"federalState":{"key":"06","name":"Hessen"}},{"name":"Neuer Weg","postalCode":"69239","locality":"Neckarsteinach","municipality":{"key":"06431018","name":"Neckarsteinach, Stadt","type":"Stadt"},"district":{"key":"06431","name":"Bergstraße","type":"Landkreis"},"federalState":{"key":"06","name":"Hessen"}},{"name":"Ober der Lehmgrube","postalCode":"69239","locality":"Neckarsteinach","municipality":{"key":"06431018","name":"Neckarsteinach, Stadt","type":"Stadt"},"district":{"key":"06431","name":"Bergstraße","type":"Landkreis"},"federalState":{"key":"06","name":"Hessen"}},{"name":"Ochsenkopfweg","postalCode":"69239","locality":"Neckarsteinach","municipality":{"key":"06431018","name":"Neckarsteinach, Stadt","type":"Stadt"},"district":{"key":"06431","name":"Bergstraße","type":"Landkreis"},"federalState":{"key":"06","name":"Hessen"}},{"name":"Odenwaldstr.","postalCode":"69239","locality":"Neckarsteinach","municipality":{"key":"06431018","name":"Neckarsteinach, Stadt","type":"Stadt"},"district":{"key":"06431","name":"Bergstraße","type":"Landkreis"},"federalState":{"key":"06","name":"Hessen"}},{"name":"Otto-Bartning-Str.","postalCode":"69239","locality":"Neckarsteinach","municipality":{"key":"06431018","name":"Neckarsteinach, Stadt","type":"Stadt"},"district":{"key":"06431","name":"Bergstraße","type":"Landkreis"},"federalState":{"key":"06","name":"Hessen"}},{"name":"Partikulierstr.","postalCode":"69239","locality":"Neckarsteinach","municipality":{"key":"06431018","name":"Neckarsteinach, Stadt","type":"Stadt"},"district":{"key":"06431","name":"Bergstraße","type":"Landkreis"},"federalState":{"key":"06","name":"Hessen"}},{"name":"Philosophenweg","postalCode":"69239","locality":"Neckarsteinach","municipality":{"key":"06431018","name":"Neckarsteinach, Stadt","type":"Stadt"},"district":{"key":"06431","name":"Bergstraße","type":"Landkreis"},"federalState":{"key":"06","name":"Hessen"}},{"name":"Rosenweg","postalCode":"69239","locality":"Neckarsteinach","municipality":{"key":"06431018","name":"Neckarsteinach, Stadt","type":"Stadt"},"district":{"key":"06431","name":"Bergstraße","type":"Landkreis"},"federalState":{"key":"06","name":"Hessen"}},{"name":"Roter Sandweg","postalCode":"69239","locality":"Neckarsteinach","municipality":{"key":"06431018","name":"Neckarsteinach, Stadt","type":"Stadt"},"district":{"key":"06431","name":"Bergstraße","type":"Landkreis"},"federalState":{"key":"06","name":"Hessen"}},{"name":"Scheffelstr.","postalCode":"69239","locality":"Neckarsteinach","municipality":{"key":"06431018","name":"Neckarsteinach, Stadt","type":"Stadt"},"district":{"key":"06431","name":"Bergstraße","type":"Landkreis"},"federalState":{"key":"06","name":"Hessen"}},{"name":"Schiedweg","postalCode":"69239","locality":"Neckarsteinach","municipality":{"key":"06431018","name":"Neckarsteinach, Stadt","type":"Stadt"},"district":{"key":"06431","name":"Bergstraße","type":"Landkreis"},"federalState":{"key":"06","name":"Hessen"}},{"name":"Schiffshelleweg","postalCode":"69239","locality":"Neckarsteinach","municipality":{"key":"06431018","name":"Neckarsteinach, Stadt","type":"Stadt"},"district":{"key":"06431","name":"Bergstraße","type":"Landkreis"},"federalState":{"key":"06","name":"Hessen"}},{"name":"Schillerstr.","postalCode":"69239","locality":"Neckarsteinach","municipality":{"key":"06431018","name":"Neckarsteinach, Stadt","type":"Stadt"},"district":{"key":"06431","name":"Bergstraße","type":"Landkreis"},"federalState":{"key":"06","name":"Hessen"}},{"name":"Schindwasenweg","postalCode":"69239","locality":"Neckarsteinach","municipality":{"key":"06431018","name":"Neckarsteinach, Stadt","type":"Stadt"},"district":{"key":"06431","name":"Bergstraße","type":"Landkreis"},"federalState":{"key":"06","name":"Hessen"}},{"name":"Schloßsteige","postalCode":"69239","locality":"Neckarsteinach","municipality":{"key":"06431018","name":"Neckarsteinach, Stadt","type":"Stadt"},"district":{"key":"06431","name":"Bergstraße","type":"Landkreis"},"federalState":{"key":"06","name":"Hessen"}},{"name":"Schloßweg","postalCode":"69239","locality":"Neckarsteinach","municipality":{"key":"06431018","name":"Neckarsteinach, Stadt","type":"Stadt"},"district":{"key":"06431","name":"Bergstraße","type":"Landkreis"},"federalState":{"key":"06","name":"Hessen"}},{"name":"Schönauer Str.","postalCode":"69239","locality":"Neckarsteinach","municipality":{"key":"06431018","name":"Neckarsteinach, Stadt","type":"Stadt"},"district":{"key":"06431","name":"Bergstraße","type":"Landkreis"},"federalState":{"key":"06","name":"Hessen"}},{"name":"Schulweg","postalCode":"69239","locality":"Neckarsteinach","municipality":{"key":"06431018","name":"Neckarsteinach, Stadt","type":"Stadt"},"district":{"key":"06431","name":"Bergstraße","type":"Landkreis"},"federalState":{"key":"06","name":"Hessen"}},{"name":"Schwarzerweg","postalCode":"69239","locality":"Neckarsteinach","municipality":{"key":"06431018","name":"Neckarsteinach, Stadt","type":"Stadt"},"district":{"key":"06431","name":"Bergstraße","type":"Landkreis"},"federalState":{"key":"06","name":"Hessen"}},{"name":"Seilerweg","postalCode":"69239","locality":"Neckarsteinach","municipality":{"key":"06431018","name":"Neckarsteinach, Stadt","type":"Stadt"},"district":{"key":"06431","name":"Bergstraße","type":"Landkreis"},"federalState":{"key":"06","name":"Hessen"}},{"name":"Seitzweg","postalCode":"69239","locality":"Neckarsteinach","municipality":{"key":"06431018","name":"Neckarsteinach, Stadt","type":"Stadt"},"district":{"key":"06431","name":"Bergstraße","type":"Landkreis"},"federalState":{"key":"06","name":"Hessen"}},{"name":"Sendelweg","postalCode":"69239","locality":"Neckarsteinach","municipality":{"key":"06431018","name":"Neckarsteinach, Stadt","type":"Stadt"},"district":{"key":"06431","name":"Bergstraße","type":"Landkreis"},"federalState":{"key":"06","name":"Hessen"}},{"name":"Steinach-Radweg","postalCode":"69239","locality":"Neckarsteinach","municipality":{"key":"06431018","name":"Neckarsteinach, Stadt","type":"Stadt"},"district":{"key":"06431","name":"Bergstraße","type":"Landkreis"},"federalState":{"key":"06","name":"Hessen"}},{"name":"Talstr.","postalCode":"69239","locality":"Neckarsteinach","municipality":{"key":"06431018","name":"Neckarsteinach, Stadt","type":"Stadt"},"district":{"key":"06431","name":"Bergstraße","type":"Landkreis"},"federalState":{"key":"06","name":"Hessen"}},{"name":"Teufelsteinweg","postalCode":"69239","locality":"Neckarsteinach","municipality":{"key":"06431018","name":"Neckarsteinach, Stadt","type":"Stadt"},"district":{"key":"06431","name":"Bergstraße","type":"Landkreis"},"federalState":{"key":"06","name":"Hessen"}},{"name":"Uhlandweg","postalCode":"69239","locality":"Neckarsteinach","municipality":{"key":"06431018","name":"Neckarsteinach, Stadt","type":"Stadt"},"district":{"key":"06431","name":"Bergstraße","type":"Landkreis"},"federalState":{"key":"06","name":"Hessen"}},{"name":"Viehgrundsträßle","postalCode":"69239","locality":"Neckarsteinach","municipality":{"key":"06431018","name":"Neckarsteinach, Stadt","type":"Stadt"},"district":{"key":"06431","name":"Bergstraße","type":"Landkreis"},"federalState":{"key":"06","name":"Hessen"}},{"name":"Waldstr.","postalCode":"69239","locality":"Neckarsteinach","municipality":{"key":"06431018","name":"Neckarsteinach, Stadt","type":"Stadt"},"district":{"key":"06431","name":"Bergstraße","type":"Landkreis"},"federalState":{"key":"06","name":"Hessen"}},{"name":"Werftweg","postalCode":"69239","locality":"Neckarsteinach","municipality":{"key":"06431018","name":"Neckarsteinach, Stadt","type":"Stadt"},"district":{"key":"06431","name":"Bergstraße","type":"Landkreis"},"federalState":{"key":"06","name":"Hessen"}},{"name":"Zinkenbergweg","postalCode":"69493","locality":"Hirschberg an der Bergstraße","municipality":{"key":"08226107","name":"Hirschberg an der Bergstraße","type":"Kreisangehörige_Gemeinde"},"district":{"key":"08226","name":"Rhein-Neckar-Kreis","type":"Landkreis"},"federalState":{"key":"08","name":"Baden-Württemberg"}},]