[{"name":"Adam-Kraft-Str.","postalCode":"90562","locality":"Heroldsberg","municipality":{"key":"09572131","name":"Heroldsberg, M","type":"Markt"},"district":{"key":"09572","name":"Erlangen-Höchstadt","type":"Landkreis"},"federalState":{"key":"09","name":"Bayern"}},{"name":"Adlerstr.","postalCode":"90562","locality":"Heroldsberg","municipality":{"key":"09572131","name":"Heroldsberg, M","type":"Markt"},"district":{"key":"09572","name":"Erlangen-Höchstadt","type":"Landkreis"},"federalState":{"key":"09","name":"Bayern"}},{"name":"Albrecht-Dürer-Str.","postalCode":"90562","locality":"Heroldsberg","municipality":{"key":"09572131","name":"Heroldsberg, M","type":"Markt"},"district":{"key":"09572","name":"Erlangen-Höchstadt","type":"Landkreis"},"federalState":{"key":"09","name":"Bayern"}},{"name":"Am Bahnhof","postalCode":"90562","locality":"Heroldsberg","municipality":{"key":"09572131","name":"Heroldsberg, M","type":"Markt"},"district":{"key":"09572","name":"Erlangen-Höchstadt","type":"Landkreis"},"federalState":{"key":"09","name":"Bayern"}},{"name":"Am Bühl","postalCode":"90562","locality":"Heroldsberg","municipality":{"key":"09572131","name":"Heroldsberg, M","type":"Markt"},"district":{"key":"09572","name":"Erlangen-Höchstadt","type":"Landkreis"},"federalState":{"key":"09","name":"Bayern"}},{"name":"Am Eichenwäldchen","postalCode":"90562","locality":"Heroldsberg","municipality":{"key":"09572131","name":"Heroldsberg, M","type":"Markt"},"district":{"key":"09572","name":"Erlangen-Höchstadt","type":"Landkreis"},"federalState":{"key":"09","name":"Bayern"}},{"name":"Am Festplatz","postalCode":"90562","locality":"Heroldsberg","municipality":{"key":"09572131","name":"Heroldsberg, M","type":"Markt"},"district":{"key":"09572","name":"Erlangen-Höchstadt","type":"Landkreis"},"federalState":{"key":"09","name":"Bayern"}},{"name":"Am Ruhstein","postalCode":"90562","locality":"Heroldsberg","municipality":{"key":"09572131","name":"Heroldsberg, M","type":"Markt"},"district":{"key":"09572","name":"Erlangen-Höchstadt","type":"Landkreis"},"federalState":{"key":"09","name":"Bayern"}},{"name":"Amselweg","postalCode":"90562","locality":"Heroldsberg","municipality":{"key":"09572131","name":"Heroldsberg, M","type":"Markt"},"district":{"key":"09572","name":"Erlangen-Höchstadt","type":"Landkreis"},"federalState":{"key":"09","name":"Bayern"}},{"name":"Am Wasserturm","postalCode":"90562","locality":"Heroldsberg","municipality":{"key":"09572131","name":"Heroldsberg, M","type":"Markt"},"district":{"key":"09572","name":"Erlangen-Höchstadt","type":"Landkreis"},"federalState":{"key":"09","name":"Bayern"}},{"name":"Bäckengasse","postalCode":"90562","locality":"Heroldsberg","municipality":{"key":"09572131","name":"Heroldsberg, M","type":"Markt"},"district":{"key":"09572","name":"Erlangen-Höchstadt","type":"Landkreis"},"federalState":{"key":"09","name":"Bayern"}},{"name":"Behringersdorfer Str.","postalCode":"90562","locality":"Heroldsberg","municipality":{"key":"09572131","name":"Heroldsberg, M","type":"Markt"},"district":{"key":"09572","name":"Erlangen-Höchstadt","type":"Landkreis"},"federalState":{"key":"09","name":"Bayern"}},{"name":"Bienenweg","postalCode":"90562","locality":"Heroldsberg","municipality":{"key":"09572131","name":"Heroldsberg, M","type":"Markt"},"district":{"key":"09572","name":"Erlangen-Höchstadt","type":"Landkreis"},"federalState":{"key":"09","name":"Bayern"}},{"name":"Bolystr.","postalCode":"90562","locality":"Heroldsberg","municipality":{"key":"09572131","name":"Heroldsberg, M","type":"Markt"},"district":{"key":"09572","name":"Erlangen-Höchstadt","type":"Landkreis"},"federalState":{"key":"09","name":"Bayern"}},{"name":"Brunnenstr.","postalCode":"90562","locality":"Heroldsberg","municipality":{"key":"09572131","name":"Heroldsberg, M","type":"Markt"},"district":{"key":"09572","name":"Erlangen-Höchstadt","type":"Landkreis"},"federalState":{"key":"09","name":"Bayern"}},{"name":"Buchenweg","postalCode":"90562","locality":"Heroldsberg","municipality":{"key":"09572131","name":"Heroldsberg, M","type":"Markt"},"district":{"key":"09572","name":"Erlangen-Höchstadt","type":"Landkreis"},"federalState":{"key":"09","name":"Bayern"}},{"name":"Bühlweg","postalCode":"90562","locality":"Heroldsberg","municipality":{"key":"09572131","name":"Heroldsberg, M","type":"Markt"},"district":{"key":"09572","name":"Erlangen-Höchstadt","type":"Landkreis"},"federalState":{"key":"09","name":"Bayern"}},{"name":"Demmerweg","postalCode":"90562","locality":"Heroldsberg","municipality":{"key":"09572131","name":"Heroldsberg, M","type":"Markt"},"district":{"key":"09572","name":"Erlangen-Höchstadt","type":"Landkreis"},"federalState":{"key":"09","name":"Bayern"}},{"name":"Dieselstr.","postalCode":"90562","locality":"Heroldsberg","municipality":{"key":"09572131","name":"Heroldsberg, M","type":"Markt"},"district":{"key":"09572","name":"Erlangen-Höchstadt","type":"Landkreis"},"federalState":{"key":"09","name":"Bayern"}},{"name":"Dr.-Gustav-Schickedanz-Str.","postalCode":"90562","locality":"Heroldsberg","municipality":{"key":"09572131","name":"Heroldsberg, M","type":"Markt"},"district":{"key":"09572","name":"Erlangen-Höchstadt","type":"Landkreis"},"federalState":{"key":"09","name":"Bayern"}},{"name":"Drosselweg","postalCode":"90562","locality":"Heroldsberg","municipality":{"key":"09572131","name":"Heroldsberg, M","type":"Markt"},"district":{"key":"09572","name":"Erlangen-Höchstadt","type":"Landkreis"},"federalState":{"key":"09","name":"Bayern"}},{"name":"Egerlandstr.","postalCode":"90562","locality":"Heroldsberg","municipality":{"key":"09572131","name":"Heroldsberg, M","type":"Markt"},"district":{"key":"09572","name":"Erlangen-Höchstadt","type":"Landkreis"},"federalState":{"key":"09","name":"Bayern"}},{"name":"Eichenstr.","postalCode":"90562","locality":"Heroldsberg","municipality":{"key":"09572131","name":"Heroldsberg, M","type":"Markt"},"district":{"key":"09572","name":"Erlangen-Höchstadt","type":"Landkreis"},"federalState":{"key":"09","name":"Bayern"}},{"name":"Erhardstr.","postalCode":"90562","locality":"Heroldsberg","municipality":{"key":"09572131","name":"Heroldsberg, M","type":"Markt"},"district":{"key":"09572","name":"Erlangen-Höchstadt","type":"Landkreis"},"federalState":{"key":"09","name":"Bayern"}},{"name":"Erlenweg","postalCode":"90562","locality":"Heroldsberg","municipality":{"key":"09572131","name":"Heroldsberg, M","type":"Markt"},"district":{"key":"09572","name":"Erlangen-Höchstadt","type":"Landkreis"},"federalState":{"key":"09","name":"Bayern"}},{"name":"Eschenweg","postalCode":"90562","locality":"Heroldsberg","municipality":{"key":"09572131","name":"Heroldsberg, M","type":"Markt"},"district":{"key":"09572","name":"Erlangen-Höchstadt","type":"Landkreis"},"federalState":{"key":"09","name":"Bayern"}},{"name":"Fabrikstr.","postalCode":"90562","locality":"Heroldsberg","municipality":{"key":"09572131","name":"Heroldsberg, M","type":"Markt"},"district":{"key":"09572","name":"Erlangen-Höchstadt","type":"Landkreis"},"federalState":{"key":"09","name":"Bayern"}},{"name":"Falkenstr.","postalCode":"90562","locality":"Heroldsberg","municipality":{"key":"09572131","name":"Heroldsberg, M","type":"Markt"},"district":{"key":"09572","name":"Erlangen-Höchstadt","type":"Landkreis"},"federalState":{"key":"09","name":"Bayern"}},{"name":"Finkenweg","postalCode":"90562","locality":"Heroldsberg","municipality":{"key":"09572131","name":"Heroldsberg, M","type":"Markt"},"district":{"key":"09572","name":"Erlangen-Höchstadt","type":"Landkreis"},"federalState":{"key":"09","name":"Bayern"}},{"name":"Fliederweg","postalCode":"90562","locality":"Heroldsberg","municipality":{"key":"09572131","name":"Heroldsberg, M","type":"Markt"},"district":{"key":"09572","name":"Erlangen-Höchstadt","type":"Landkreis"},"federalState":{"key":"09","name":"Bayern"}},{"name":"Flurstr.","postalCode":"90562","locality":"Heroldsberg","municipality":{"key":"09572131","name":"Heroldsberg, M","type":"Markt"},"district":{"key":"09572","name":"Erlangen-Höchstadt","type":"Landkreis"},"federalState":{"key":"09","name":"Bayern"}},{"name":"Föhrenweg","postalCode":"90562","locality":"Heroldsberg","municipality":{"key":"09572131","name":"Heroldsberg, M","type":"Markt"},"district":{"key":"09572","name":"Erlangen-Höchstadt","type":"Landkreis"},"federalState":{"key":"09","name":"Bayern"}},{"name":"Forstweg","postalCode":"90562","locality":"Heroldsberg","municipality":{"key":"09572131","name":"Heroldsberg, M","type":"Markt"},"district":{"key":"09572","name":"Erlangen-Höchstadt","type":"Landkreis"},"federalState":{"key":"09","name":"Bayern"}},{"name":"Friedhofstr.","postalCode":"90562","locality":"Heroldsberg","municipality":{"key":"09572131","name":"Heroldsberg, M","type":"Markt"},"district":{"key":"09572","name":"Erlangen-Höchstadt","type":"Landkreis"},"federalState":{"key":"09","name":"Bayern"}},{"name":"Fritz-Griebel-Str.","postalCode":"90562","locality":"Heroldsberg","municipality":{"key":"09572131","name":"Heroldsberg, M","type":"Markt"},"district":{"key":"09572","name":"Erlangen-Höchstadt","type":"Landkreis"},"federalState":{"key":"09","name":"Bayern"}},{"name":"Fuchsweg","postalCode":"90562","locality":"Heroldsberg","municipality":{"key":"09572131","name":"Heroldsberg, M","type":"Markt"},"district":{"key":"09572","name":"Erlangen-Höchstadt","type":"Landkreis"},"federalState":{"key":"09","name":"Bayern"}},{"name":"Geranienweg","postalCode":"90562","locality":"Heroldsberg","municipality":{"key":"09572131","name":"Heroldsberg, M","type":"Markt"},"district":{"key":"09572","name":"Erlangen-Höchstadt","type":"Landkreis"},"federalState":{"key":"09","name":"Bayern"}},{"name":"Gerichtsweg","postalCode":"90562","locality":"Heroldsberg","municipality":{"key":"09572131","name":"Heroldsberg, M","type":"Markt"},"district":{"key":"09572","name":"Erlangen-Höchstadt","type":"Landkreis"},"federalState":{"key":"09","name":"Bayern"}},{"name":"Günthersbühler Str.","postalCode":"90562","locality":"Heroldsberg","municipality":{"key":"09572131","name":"Heroldsberg, M","type":"Markt"},"district":{"key":"09572","name":"Erlangen-Höchstadt","type":"Landkreis"},"federalState":{"key":"09","name":"Bayern"}},{"name":"Haidbergweg","postalCode":"90562","locality":"Heroldsberg","municipality":{"key":"09572131","name":"Heroldsberg, M","type":"Markt"},"district":{"key":"09572","name":"Erlangen-Höchstadt","type":"Landkreis"},"federalState":{"key":"09","name":"Bayern"}},{"name":"Hallerstr.","postalCode":"90562","locality":"Heroldsberg","municipality":{"key":"09572131","name":"Heroldsberg, M","type":"Markt"},"district":{"key":"09572","name":"Erlangen-Höchstadt","type":"Landkreis"},"federalState":{"key":"09","name":"Bayern"}},{"name":"Hans-Sachs-Platz","postalCode":"90562","locality":"Heroldsberg","municipality":{"key":"09572131","name":"Heroldsberg, M","type":"Markt"},"district":{"key":"09572","name":"Erlangen-Höchstadt","type":"Landkreis"},"federalState":{"key":"09","name":"Bayern"}},{"name":"Hans-Sachs-Str.","postalCode":"90562","locality":"Heroldsberg","municipality":{"key":"09572131","name":"Heroldsberg, M","type":"Markt"},"district":{"key":"09572","name":"Erlangen-Höchstadt","type":"Landkreis"},"federalState":{"key":"09","name":"Bayern"}},{"name":"Hauptstr.","postalCode":"90562","locality":"Heroldsberg","municipality":{"key":"09572131","name":"Heroldsberg, M","type":"Markt"},"district":{"key":"09572","name":"Erlangen-Höchstadt","type":"Landkreis"},"federalState":{"key":"09","name":"Bayern"}},{"name":"Heroldsberger Weg","postalCode":"90562","locality":"Heroldsberg","municipality":{"key":"09572131","name":"Heroldsberg, M","type":"Markt"},"district":{"key":"09572","name":"Erlangen-Höchstadt","type":"Landkreis"},"federalState":{"key":"09","name":"Bayern"}},{"name":"Herrmannsgäßchen","postalCode":"90562","locality":"Heroldsberg","municipality":{"key":"09572131","name":"Heroldsberg, M","type":"Markt"},"district":{"key":"09572","name":"Erlangen-Höchstadt","type":"Landkreis"},"federalState":{"key":"09","name":"Bayern"}},{"name":"Hersbrucker Str.","postalCode":"90562","locality":"Heroldsberg","municipality":{"key":"09572131","name":"Heroldsberg, M","type":"Markt"},"district":{"key":"09572","name":"Erlangen-Höchstadt","type":"Landkreis"},"federalState":{"key":"09","name":"Bayern"}},{"name":"Heuweg","postalCode":"90562","locality":"Heroldsberg","municipality":{"key":"09572131","name":"Heroldsberg, M","type":"Markt"},"district":{"key":"09572","name":"Erlangen-Höchstadt","type":"Landkreis"},"federalState":{"key":"09","name":"Bayern"}},{"name":"Hirtengasse","postalCode":"90562","locality":"Heroldsberg","municipality":{"key":"09572131","name":"Heroldsberg, M","type":"Markt"},"district":{"key":"09572","name":"Erlangen-Höchstadt","type":"Landkreis"},"federalState":{"key":"09","name":"Bayern"}},{"name":"Holzschuherstr.","postalCode":"90562","locality":"Heroldsberg","municipality":{"key":"09572131","name":"Heroldsberg, M","type":"Markt"},"district":{"key":"09572","name":"Erlangen-Höchstadt","type":"Landkreis"},"federalState":{"key":"09","name":"Bayern"}},{"name":"Imkerweg","postalCode":"90562","locality":"Heroldsberg","municipality":{"key":"09572131","name":"Heroldsberg, M","type":"Markt"},"district":{"key":"09572","name":"Erlangen-Höchstadt","type":"Landkreis"},"federalState":{"key":"09","name":"Bayern"}},{"name":"Jagdweg","postalCode":"90562","locality":"Heroldsberg","municipality":{"key":"09572131","name":"Heroldsberg, M","type":"Markt"},"district":{"key":"09572","name":"Erlangen-Höchstadt","type":"Landkreis"},"federalState":{"key":"09","name":"Bayern"}},{"name":"Kalchreuther Weg","postalCode":"90562","locality":"Heroldsberg","municipality":{"key":"09572131","name":"Heroldsberg, M","type":"Markt"},"district":{"key":"09572","name":"Erlangen-Höchstadt","type":"Landkreis"},"federalState":{"key":"09","name":"Bayern"}},{"name":"Kirchenweg","postalCode":"90562","locality":"Heroldsberg","municipality":{"key":"09572131","name":"Heroldsberg, M","type":"Markt"},"district":{"key":"09572","name":"Erlangen-Höchstadt","type":"Landkreis"},"federalState":{"key":"09","name":"Bayern"}},{"name":"Kohlengasse","postalCode":"90562","locality":"Heroldsberg","municipality":{"key":"09572131","name":"Heroldsberg, M","type":"Markt"},"district":{"key":"09572","name":"Erlangen-Höchstadt","type":"Landkreis"},"federalState":{"key":"09","name":"Bayern"}},{"name":"Kunzengasse","postalCode":"90562","locality":"Heroldsberg","municipality":{"key":"09572131","name":"Heroldsberg, M","type":"Markt"},"district":{"key":"09572","name":"Erlangen-Höchstadt","type":"Landkreis"},"federalState":{"key":"09","name":"Bayern"}},{"name":"Lange Gasse","postalCode":"90562","locality":"Heroldsberg","municipality":{"key":"09572131","name":"Heroldsberg, M","type":"Markt"},"district":{"key":"09572","name":"Erlangen-Höchstadt","type":"Landkreis"},"federalState":{"key":"09","name":"Bayern"}},{"name":"Laufer Weg","postalCode":"90562","locality":"Heroldsberg","municipality":{"key":"09572131","name":"Heroldsberg, M","type":"Markt"},"district":{"key":"09572","name":"Erlangen-Höchstadt","type":"Landkreis"},"federalState":{"key":"09","name":"Bayern"}},{"name":"Lerchenstr.","postalCode":"90562","locality":"Heroldsberg","municipality":{"key":"09572131","name":"Heroldsberg, M","type":"Markt"},"district":{"key":"09572","name":"Erlangen-Höchstadt","type":"Landkreis"},"federalState":{"key":"09","name":"Bayern"}},{"name":"Martin-Behaim-Str.","postalCode":"90562","locality":"Heroldsberg","municipality":{"key":"09572131","name":"Heroldsberg, M","type":"Markt"},"district":{"key":"09572","name":"Erlangen-Höchstadt","type":"Landkreis"},"federalState":{"key":"09","name":"Bayern"}},{"name":"Maxenlohe","postalCode":"90562","locality":"Heroldsberg","municipality":{"key":"09572131","name":"Heroldsberg, M","type":"Markt"},"district":{"key":"09572","name":"Erlangen-Höchstadt","type":"Landkreis"},"federalState":{"key":"09","name":"Bayern"}},{"name":"Meisenweg","postalCode":"90562","locality":"Heroldsberg","municipality":{"key":"09572131","name":"Heroldsberg, M","type":"Markt"},"district":{"key":"09572","name":"Erlangen-Höchstadt","type":"Landkreis"},"federalState":{"key":"09","name":"Bayern"}},{"name":"Mühlstr.","postalCode":"90562","locality":"Heroldsberg","municipality":{"key":"09572131","name":"Heroldsberg, M","type":"Markt"},"district":{"key":"09572","name":"Erlangen-Höchstadt","type":"Landkreis"},"federalState":{"key":"09","name":"Bayern"}},{"name":"Neue Gasse","postalCode":"90562","locality":"Heroldsberg","municipality":{"key":"09572131","name":"Heroldsberg, M","type":"Markt"},"district":{"key":"09572","name":"Erlangen-Höchstadt","type":"Landkreis"},"federalState":{"key":"09","name":"Bayern"}},{"name":"Neuenkruger Weg","postalCode":"90562","locality":"Heroldsberg","municipality":{"key":"09572131","name":"Heroldsberg, M","type":"Markt"},"district":{"key":"09572","name":"Erlangen-Höchstadt","type":"Landkreis"},"federalState":{"key":"09","name":"Bayern"}},{"name":"Nürnberger Str.","postalCode":"90562","locality":"Heroldsberg","municipality":{"key":"09572131","name":"Heroldsberg, M","type":"Markt"},"district":{"key":"09572","name":"Erlangen-Höchstadt","type":"Landkreis"},"federalState":{"key":"09","name":"Bayern"}},{"name":"Nuschelberger Weg","postalCode":"90562","locality":"Heroldsberg","municipality":{"key":"09572131","name":"Heroldsberg, M","type":"Markt"},"district":{"key":"09572","name":"Erlangen-Höchstadt","type":"Landkreis"},"federalState":{"key":"09","name":"Bayern"}},{"name":"Obere Bergstr.","postalCode":"90562","locality":"Heroldsberg","municipality":{"key":"09572131","name":"Heroldsberg, M","type":"Markt"},"district":{"key":"09572","name":"Erlangen-Höchstadt","type":"Landkreis"},"federalState":{"key":"09","name":"Bayern"}},{"name":"Oberer Markt","postalCode":"90562","locality":"Heroldsberg","municipality":{"key":"09572131","name":"Heroldsberg, M","type":"Markt"},"district":{"key":"09572","name":"Erlangen-Höchstadt","type":"Landkreis"},"federalState":{"key":"09","name":"Bayern"}},{"name":"Obere Seelach","postalCode":"90562","locality":"Heroldsberg","municipality":{"key":"09572131","name":"Heroldsberg, M","type":"Markt"},"district":{"key":"09572","name":"Erlangen-Höchstadt","type":"Landkreis"},"federalState":{"key":"09","name":"Bayern"}},{"name":"Oedenberger Weg","postalCode":"90562","locality":"Heroldsberg","municipality":{"key":"09572131","name":"Heroldsberg, M","type":"Markt"},"district":{"key":"09572","name":"Erlangen-Höchstadt","type":"Landkreis"},"federalState":{"key":"09","name":"Bayern"}},{"name":"Oskar-Rosenfelder-Str.","postalCode":"90562","locality":"Heroldsberg","municipality":{"key":"09572131","name":"Heroldsberg, M","type":"Markt"},"district":{"key":"09572","name":"Erlangen-Höchstadt","type":"Landkreis"},"federalState":{"key":"09","name":"Bayern"}},{"name":"Peter-Henlein-Str.","postalCode":"90562","locality":"Heroldsberg","municipality":{"key":"09572131","name":"Heroldsberg, M","type":"Markt"},"district":{"key":"09572","name":"Erlangen-Höchstadt","type":"Landkreis"},"federalState":{"key":"09","name":"Bayern"}},{"name":"Peter-Vischer-Weg","postalCode":"90562","locality":"Heroldsberg","municipality":{"key":"09572131","name":"Heroldsberg, M","type":"Markt"},"district":{"key":"09572","name":"Erlangen-Höchstadt","type":"Landkreis"},"federalState":{"key":"09","name":"Bayern"}},{"name":"Postgäßchen","postalCode":"90562","locality":"Heroldsberg","municipality":{"key":"09572131","name":"Heroldsberg, M","type":"Markt"},"district":{"key":"09572","name":"Erlangen-Höchstadt","type":"Landkreis"},"federalState":{"key":"09","name":"Bayern"}},{"name":"Reichswaldstr.","postalCode":"90562","locality":"Heroldsberg","municipality":{"key":"09572131","name":"Heroldsberg, M","type":"Markt"},"district":{"key":"09572","name":"Erlangen-Höchstadt","type":"Landkreis"},"federalState":{"key":"09","name":"Bayern"}},{"name":"Rosenweg","postalCode":"90562","locality":"Heroldsberg","municipality":{"key":"09572131","name":"Heroldsberg, M","type":"Markt"},"district":{"key":"09572","name":"Erlangen-Höchstadt","type":"Landkreis"},"federalState":{"key":"09","name":"Bayern"}},{"name":"Röthenbacher Str.","postalCode":"90562","locality":"Heroldsberg","municipality":{"key":"09572131","name":"Heroldsberg, M","type":"Markt"},"district":{"key":"09572","name":"Erlangen-Höchstadt","type":"Landkreis"},"federalState":{"key":"09","name":"Bayern"}},{"name":"Rückersdorfer Str.","postalCode":"90562","locality":"Heroldsberg","municipality":{"key":"09572131","name":"Heroldsberg, M","type":"Markt"},"district":{"key":"09572","name":"Erlangen-Höchstadt","type":"Landkreis"},"federalState":{"key":"09","name":"Bayern"}},{"name":"Rudolf-Schiestl-Str.","postalCode":"90562","locality":"Heroldsberg","municipality":{"key":"09572131","name":"Heroldsberg, M","type":"Markt"},"district":{"key":"09572","name":"Erlangen-Höchstadt","type":"Landkreis"},"federalState":{"key":"09","name":"Bayern"}},{"name":"Sackweg","postalCode":"90562","locality":"Heroldsberg","municipality":{"key":"09572131","name":"Heroldsberg, M","type":"Markt"},"district":{"key":"09572","name":"Erlangen-Höchstadt","type":"Landkreis"},"federalState":{"key":"09","name":"Bayern"}},{"name":"Saranskstr.","postalCode":"90562","locality":"Heroldsberg","municipality":{"key":"09572131","name":"Heroldsberg, M","type":"Markt"},"district":{"key":"09572","name":"Erlangen-Höchstadt","type":"Landkreis"},"federalState":{"key":"09","name":"Bayern"}},{"name":"Schimmelleitenweg","postalCode":"90562","locality":"Heroldsberg","municipality":{"key":"09572131","name":"Heroldsberg, M","type":"Markt"},"district":{"key":"09572","name":"Erlangen-Höchstadt","type":"Landkreis"},"federalState":{"key":"09","name":"Bayern"}},{"name":"Schlesierstr.","postalCode":"90562","locality":"Heroldsberg","municipality":{"key":"09572131","name":"Heroldsberg, M","type":"Markt"},"district":{"key":"09572","name":"Erlangen-Höchstadt","type":"Landkreis"},"federalState":{"key":"09","name":"Bayern"}},{"name":"Schlosshof","postalCode":"90562","locality":"Heroldsberg","municipality":{"key":"09572131","name":"Heroldsberg, M","type":"Markt"},"district":{"key":"09572","name":"Erlangen-Höchstadt","type":"Landkreis"},"federalState":{"key":"09","name":"Bayern"}},{"name":"Schlotfegergasse","postalCode":"90562","locality":"Heroldsberg","municipality":{"key":"09572131","name":"Heroldsberg, M","type":"Markt"},"district":{"key":"09572","name":"Erlangen-Höchstadt","type":"Landkreis"},"federalState":{"key":"09","name":"Bayern"}},{"name":"Schnaittacher Str.","postalCode":"90562","locality":"Heroldsberg","municipality":{"key":"09572131","name":"Heroldsberg, M","type":"Markt"},"district":{"key":"09572","name":"Erlangen-Höchstadt","type":"Landkreis"},"federalState":{"key":"09","name":"Bayern"}},{"name":"Schustergasse","postalCode":"90562","locality":"Heroldsberg","municipality":{"key":"09572131","name":"Heroldsberg, M","type":"Markt"},"district":{"key":"09572","name":"Erlangen-Höchstadt","type":"Landkreis"},"federalState":{"key":"09","name":"Bayern"}},{"name":"Schützenstr.","postalCode":"90562","locality":"Heroldsberg","municipality":{"key":"09572131","name":"Heroldsberg, M","type":"Markt"},"district":{"key":"09572","name":"Erlangen-Höchstadt","type":"Landkreis"},"federalState":{"key":"09","name":"Bayern"}},{"name":"Schwalbenweg","postalCode":"90562","locality":"Heroldsberg","municipality":{"key":"09572131","name":"Heroldsberg, M","type":"Markt"},"district":{"key":"09572","name":"Erlangen-Höchstadt","type":"Landkreis"},"federalState":{"key":"09","name":"Bayern"}},{"name":"Schwanweg","postalCode":"90562","locality":"Heroldsberg","municipality":{"key":"09572131","name":"Heroldsberg, M","type":"Markt"},"district":{"key":"09572","name":"Erlangen-Höchstadt","type":"Landkreis"},"federalState":{"key":"09","name":"Bayern"}},{"name":"Sebastian-Lindenast-Str.","postalCode":"90562","locality":"Heroldsberg","municipality":{"key":"09572131","name":"Heroldsberg, M","type":"Markt"},"district":{"key":"09572","name":"Erlangen-Höchstadt","type":"Landkreis"},"federalState":{"key":"09","name":"Bayern"}},{"name":"Seelachweg","postalCode":"90562","locality":"Heroldsberg","municipality":{"key":"09572131","name":"Heroldsberg, M","type":"Markt"},"district":{"key":"09572","name":"Erlangen-Höchstadt","type":"Landkreis"},"federalState":{"key":"09","name":"Bayern"}},{"name":"Simmelberger Weg","postalCode":"90562","locality":"Heroldsberg","municipality":{"key":"09572131","name":"Heroldsberg, M","type":"Markt"},"district":{"key":"09572","name":"Erlangen-Höchstadt","type":"Landkreis"},"federalState":{"key":"09","name":"Bayern"}},{"name":"Sophienhöhe","postalCode":"90562","locality":"Heroldsberg","municipality":{"key":"09572131","name":"Heroldsberg, M","type":"Markt"},"district":{"key":"09572","name":"Erlangen-Höchstadt","type":"Landkreis"},"federalState":{"key":"09","name":"Bayern"}},{"name":"Spechtweg","postalCode":"90562","locality":"Heroldsberg","municipality":{"key":"09572131","name":"Heroldsberg, M","type":"Markt"},"district":{"key":"09572","name":"Erlangen-Höchstadt","type":"Landkreis"},"federalState":{"key":"09","name":"Bayern"}},{"name":"Spindäckerstr.","postalCode":"90562","locality":"Heroldsberg","municipality":{"key":"09572131","name":"Heroldsberg, M","type":"Markt"},"district":{"key":"09572","name":"Erlangen-Höchstadt","type":"Landkreis"},"federalState":{"key":"09","name":"Bayern"}},{"name":"Sportplatzweg","postalCode":"90562","locality":"Heroldsberg","municipality":{"key":"09572131","name":"Heroldsberg, M","type":"Markt"},"district":{"key":"09572","name":"Erlangen-Höchstadt","type":"Landkreis"},"federalState":{"key":"09","name":"Bayern"}},{"name":"Stettenberger Weg","postalCode":"90562","locality":"Heroldsberg","municipality":{"key":"09572131","name":"Heroldsberg, M","type":"Markt"},"district":{"key":"09572","name":"Erlangen-Höchstadt","type":"Landkreis"},"federalState":{"key":"09","name":"Bayern"}},{"name":"Stieglitzweg","postalCode":"90562","locality":"Heroldsberg","municipality":{"key":"09572131","name":"Heroldsberg, M","type":"Markt"},"district":{"key":"09572","name":"Erlangen-Höchstadt","type":"Landkreis"},"federalState":{"key":"09","name":"Bayern"}},{"name":"Sudetenstr.","postalCode":"90562","locality":"Heroldsberg","municipality":{"key":"09572131","name":"Heroldsberg, M","type":"Markt"},"district":{"key":"09572","name":"Erlangen-Höchstadt","type":"Landkreis"},"federalState":{"key":"09","name":"Bayern"}},{"name":"Taiostr.","postalCode":"90562","locality":"Heroldsberg","municipality":{"key":"09572131","name":"Heroldsberg, M","type":"Markt"},"district":{"key":"09572","name":"Erlangen-Höchstadt","type":"Landkreis"},"federalState":{"key":"09","name":"Bayern"}},{"name":"Thomas-Flad-Weg","postalCode":"90562","locality":"Heroldsberg","municipality":{"key":"09572131","name":"Heroldsberg, M","type":"Markt"},"district":{"key":"09572","name":"Erlangen-Höchstadt","type":"Landkreis"},"federalState":{"key":"09","name":"Bayern"}},{"name":"Tilman-Riemenschneider-Str.","postalCode":"90562","locality":"Heroldsberg","municipality":{"key":"09572131","name":"Heroldsberg, M","type":"Markt"},"district":{"key":"09572","name":"Erlangen-Höchstadt","type":"Landkreis"},"federalState":{"key":"09","name":"Bayern"}},{"name":"Tucherstr.","postalCode":"90562","locality":"Heroldsberg","municipality":{"key":"09572131","name":"Heroldsberg, M","type":"Markt"},"district":{"key":"09572","name":"Erlangen-Höchstadt","type":"Landkreis"},"federalState":{"key":"09","name":"Bayern"}},{"name":"Tulpenweg","postalCode":"90562","locality":"Heroldsberg","municipality":{"key":"09572131","name":"Heroldsberg, M","type":"Markt"},"district":{"key":"09572","name":"Erlangen-Höchstadt","type":"Landkreis"},"federalState":{"key":"09","name":"Bayern"}},{"name":"Untere Bergstr.","postalCode":"90562","locality":"Heroldsberg","municipality":{"key":"09572131","name":"Heroldsberg, M","type":"Markt"},"district":{"key":"09572","name":"Erlangen-Höchstadt","type":"Landkreis"},"federalState":{"key":"09","name":"Bayern"}},{"name":"Untere Seelach","postalCode":"90562","locality":"Heroldsberg","municipality":{"key":"09572131","name":"Heroldsberg, M","type":"Markt"},"district":{"key":"09572","name":"Erlangen-Höchstadt","type":"Landkreis"},"federalState":{"key":"09","name":"Bayern"}},{"name":"Veit-Stoß-Weg","postalCode":"90562","locality":"Heroldsberg","municipality":{"key":"09572131","name":"Heroldsberg, M","type":"Markt"},"district":{"key":"09572","name":"Erlangen-Höchstadt","type":"Landkreis"},"federalState":{"key":"09","name":"Bayern"}},{"name":"Vollandsgässchen","postalCode":"90562","locality":"Heroldsberg","municipality":{"key":"09572131","name":"Heroldsberg, M","type":"Markt"},"district":{"key":"09572","name":"Erlangen-Höchstadt","type":"Landkreis"},"federalState":{"key":"09","name":"Bayern"}},{"name":"von-Geuder-Str.","postalCode":"90562","locality":"Heroldsberg","municipality":{"key":"09572131","name":"Heroldsberg, M","type":"Markt"},"district":{"key":"09572","name":"Erlangen-Höchstadt","type":"Landkreis"},"federalState":{"key":"09","name":"Bayern"}},{"name":"Weinmayrsbergstr.","postalCode":"90562","locality":"Heroldsberg","municipality":{"key":"09572131","name":"Heroldsberg, M","type":"Markt"},"district":{"key":"09572","name":"Erlangen-Höchstadt","type":"Landkreis"},"federalState":{"key":"09","name":"Bayern"}},{"name":"Welserstr.","postalCode":"90562","locality":"Heroldsberg","municipality":{"key":"09572131","name":"Heroldsberg, M","type":"Markt"},"district":{"key":"09572","name":"Erlangen-Höchstadt","type":"Landkreis"},"federalState":{"key":"09","name":"Bayern"}},{"name":"Wiesenweg","postalCode":"90562","locality":"Heroldsberg","municipality":{"key":"09572131","name":"Heroldsberg, M","type":"Markt"},"district":{"key":"09572","name":"Erlangen-Höchstadt","type":"Landkreis"},"federalState":{"key":"09","name":"Bayern"}},{"name":"Willibald-Pirckheimer-Str.","postalCode":"90562","locality":"Heroldsberg","municipality":{"key":"09572131","name":"Heroldsberg, M","type":"Markt"},"district":{"key":"09572","name":"Erlangen-Höchstadt","type":"Landkreis"},"federalState":{"key":"09","name":"Bayern"}},{"name":"Wolgemutstr.","postalCode":"90562","locality":"Heroldsberg","municipality":{"key":"09572131","name":"Heroldsberg, M","type":"Markt"},"district":{"key":"09572","name":"Erlangen-Höchstadt","type":"Landkreis"},"federalState":{"key":"09","name":"Bayern"}},{"name":"Zeisigweg","postalCode":"90562","locality":"Heroldsberg","municipality":{"key":"09572131","name":"Heroldsberg, M","type":"Markt"},"district":{"key":"09572","name":"Erlangen-Höchstadt","type":"Landkreis"},"federalState":{"key":"09","name":"Bayern"}},{"name":"Ziegelweg","postalCode":"90562","locality":"Heroldsberg","municipality":{"key":"09572131","name":"Heroldsberg, M","type":"Markt"},"district":{"key":"09572","name":"Erlangen-Höchstadt","type":"Landkreis"},"federalState":{"key":"09","name":"Bayern"}},{"name":"Zum Bären","postalCode":"90562","locality":"Heroldsberg","municipality":{"key":"09572131","name":"Heroldsberg, M","type":"Markt"},"district":{"key":"09572","name":"Erlangen-Höchstadt","type":"Landkreis"},"federalState":{"key":"09","name":"Bayern"}},{"name":"Zum Blech","postalCode":"90562","locality":"Heroldsberg","municipality":{"key":"09572131","name":"Heroldsberg, M","type":"Markt"},"district":{"key":"09572","name":"Erlangen-Höchstadt","type":"Landkreis"},"federalState":{"key":"09","name":"Bayern"}},]