[{"key":"10159515","name":"Acherstrasse","postalCode":"6442","locality":"Gersau","commune":{"key":"1311","name":"Gersau","shortName":"Gersau"},"district":{"key":"502","name":"Bezirk Gersau"},"canton":{"key":"5","code":"SZ","name":"Schwyz"},"status":"Real"},{"key":"10058628","name":"Aegeten","postalCode":"6442","locality":"Gersau","commune":{"key":"1311","name":"Gersau","shortName":"Gersau"},"district":{"key":"502","name":"Bezirk Gersau"},"canton":{"key":"5","code":"SZ","name":"Schwyz"},"status":"Real"},{"key":"10247002","name":"Altstafel","postalCode":"6442","locality":"Gersau","commune":{"key":"1311","name":"Gersau","shortName":"Gersau"},"district":{"key":"502","name":"Bezirk Gersau"},"canton":{"key":"5","code":"SZ","name":"Schwyz"},"status":"Real"},{"key":"10018798","name":"Ausserdorfstrasse","postalCode":"6442","locality":"Gersau","commune":{"key":"1311","name":"Gersau","shortName":"Gersau"},"district":{"key":"502","name":"Bezirk Gersau"},"canton":{"key":"5","code":"SZ","name":"Schwyz"},"status":"Real"},{"key":"10019097","name":"Ausser Urmi","postalCode":"6442","locality":"Gersau","commune":{"key":"1311","name":"Gersau","shortName":"Gersau"},"district":{"key":"502","name":"Bezirk Gersau"},"canton":{"key":"5","code":"SZ","name":"Schwyz"},"status":"Real"},{"key":"10177750","name":"Bachstrasse","postalCode":"6442","locality":"Gersau","commune":{"key":"1311","name":"Gersau","shortName":"Gersau"},"district":{"key":"502","name":"Bezirk Gersau"},"canton":{"key":"5","code":"SZ","name":"Schwyz"},"status":"Real"},{"key":"10018803","name":"Berchtrüti","postalCode":"6442","locality":"Gersau","commune":{"key":"1311","name":"Gersau","shortName":"Gersau"},"district":{"key":"502","name":"Bezirk Gersau"},"canton":{"key":"5","code":"SZ","name":"Schwyz"},"status":"Real"},{"key":"10081356","name":"Bergli","postalCode":"6442","locality":"Gersau","commune":{"key":"1311","name":"Gersau","shortName":"Gersau"},"district":{"key":"502","name":"Bezirk Gersau"},"canton":{"key":"5","code":"SZ","name":"Schwyz"},"status":"Real"},{"key":"10223197","name":"Bergstrasse","postalCode":"6442","locality":"Gersau","commune":{"key":"1311","name":"Gersau","shortName":"Gersau"},"district":{"key":"502","name":"Bezirk Gersau"},"canton":{"key":"5","code":"SZ","name":"Schwyz"},"status":"Real"},{"key":"10018799","name":"Blätzen","postalCode":"6442","locality":"Gersau","commune":{"key":"1311","name":"Gersau","shortName":"Gersau"},"district":{"key":"502","name":"Bezirk Gersau"},"canton":{"key":"5","code":"SZ","name":"Schwyz"},"status":"Real"},{"key":"10104816","name":"Bläuistrasse","postalCode":"6442","locality":"Gersau","commune":{"key":"1311","name":"Gersau","shortName":"Gersau"},"district":{"key":"502","name":"Bezirk Gersau"},"canton":{"key":"5","code":"SZ","name":"Schwyz"},"status":"Real"},{"key":"10018800","name":"Brand","postalCode":"6442","locality":"Gersau","commune":{"key":"1311","name":"Gersau","shortName":"Gersau"},"district":{"key":"502","name":"Bezirk Gersau"},"canton":{"key":"5","code":"SZ","name":"Schwyz"},"status":"Real"},{"key":"10117427","name":"Breitebnet","postalCode":"6442","locality":"Gersau","commune":{"key":"1311","name":"Gersau","shortName":"Gersau"},"district":{"key":"502","name":"Bezirk Gersau"},"canton":{"key":"5","code":"SZ","name":"Schwyz"},"status":"Real"},{"key":"10112278","name":"Breitloh","postalCode":"6442","locality":"Gersau","commune":{"key":"1311","name":"Gersau","shortName":"Gersau"},"district":{"key":"502","name":"Bezirk Gersau"},"canton":{"key":"5","code":"SZ","name":"Schwyz"},"status":"Real"},{"key":"10081357","name":"Brüggen","postalCode":"6442","locality":"Gersau","commune":{"key":"1311","name":"Gersau","shortName":"Gersau"},"district":{"key":"502","name":"Bezirk Gersau"},"canton":{"key":"5","code":"SZ","name":"Schwyz"},"status":"Real"},{"key":"10066498","name":"Buchgrindeln","postalCode":"6442","locality":"Gersau","commune":{"key":"1311","name":"Gersau","shortName":"Gersau"},"district":{"key":"502","name":"Bezirk Gersau"},"canton":{"key":"5","code":"SZ","name":"Schwyz"},"status":"Real"},{"key":"10128973","name":"Büelstrasse","postalCode":"6442","locality":"Gersau","commune":{"key":"1311","name":"Gersau","shortName":"Gersau"},"district":{"key":"502","name":"Bezirk Gersau"},"canton":{"key":"5","code":"SZ","name":"Schwyz"},"status":"Real"},{"key":"10018808","name":"Büelweg","postalCode":"6442","locality":"Gersau","commune":{"key":"1311","name":"Gersau","shortName":"Gersau"},"district":{"key":"502","name":"Bezirk Gersau"},"canton":{"key":"5","code":"SZ","name":"Schwyz"},"status":"Real"},{"key":"10018801","name":"Buochenstrasse","postalCode":"6442","locality":"Gersau","commune":{"key":"1311","name":"Gersau","shortName":"Gersau"},"district":{"key":"502","name":"Bezirk Gersau"},"canton":{"key":"5","code":"SZ","name":"Schwyz"},"status":"Real"},{"key":"10081358","name":"Buochhölzli","postalCode":"6442","locality":"Gersau","commune":{"key":"1311","name":"Gersau","shortName":"Gersau"},"district":{"key":"502","name":"Bezirk Gersau"},"canton":{"key":"5","code":"SZ","name":"Schwyz"},"status":"Real"},{"key":"10018802","name":"Buurendorfweg","postalCode":"6442","locality":"Gersau","commune":{"key":"1311","name":"Gersau","shortName":"Gersau"},"district":{"key":"502","name":"Bezirk Gersau"},"canton":{"key":"5","code":"SZ","name":"Schwyz"},"status":"Real"},{"key":"10247001","name":"Chellensack","postalCode":"6442","locality":"Gersau","commune":{"key":"1311","name":"Gersau","shortName":"Gersau"},"district":{"key":"502","name":"Bezirk Gersau"},"canton":{"key":"5","code":"SZ","name":"Schwyz"},"status":"Real"},{"key":"10201573","name":"Chollerboden","postalCode":"6442","locality":"Gersau","commune":{"key":"1311","name":"Gersau","shortName":"Gersau"},"district":{"key":"502","name":"Bezirk Gersau"},"canton":{"key":"5","code":"SZ","name":"Schwyz"},"status":"Real"},{"key":"10247121","name":"Chrüz","postalCode":"6442","locality":"Gersau","commune":{"key":"1311","name":"Gersau","shortName":"Gersau"},"district":{"key":"502","name":"Bezirk Gersau"},"canton":{"key":"5","code":"SZ","name":"Schwyz"},"status":"Real"},{"key":"10081359","name":"Dorfstrasse","postalCode":"6442","locality":"Gersau","commune":{"key":"1311","name":"Gersau","shortName":"Gersau"},"district":{"key":"502","name":"Bezirk Gersau"},"canton":{"key":"5","code":"SZ","name":"Schwyz"},"status":"Real"},{"key":"10116507","name":"Ebnet","postalCode":"6442","locality":"Gersau","commune":{"key":"1311","name":"Gersau","shortName":"Gersau"},"district":{"key":"502","name":"Bezirk Gersau"},"canton":{"key":"5","code":"SZ","name":"Schwyz"},"status":"Real"},{"key":"10171298","name":"Eggen","postalCode":"6442","locality":"Gersau","commune":{"key":"1311","name":"Gersau","shortName":"Gersau"},"district":{"key":"502","name":"Bezirk Gersau"},"canton":{"key":"5","code":"SZ","name":"Schwyz"},"status":"Real"},{"key":"10177751","name":"Eggistrasse","postalCode":"6442","locality":"Gersau","commune":{"key":"1311","name":"Gersau","shortName":"Gersau"},"district":{"key":"502","name":"Bezirk Gersau"},"canton":{"key":"5","code":"SZ","name":"Schwyz"},"status":"Real"},{"key":"10237899","name":"Erikaweg","postalCode":"6442","locality":"Gersau","commune":{"key":"1311","name":"Gersau","shortName":"Gersau"},"district":{"key":"502","name":"Bezirk Gersau"},"canton":{"key":"5","code":"SZ","name":"Schwyz"},"status":"Real"},{"key":"10018804","name":"Feissenboden","postalCode":"6442","locality":"Gersau","commune":{"key":"1311","name":"Gersau","shortName":"Gersau"},"district":{"key":"502","name":"Bezirk Gersau"},"canton":{"key":"5","code":"SZ","name":"Schwyz"},"status":"Real"},{"key":"10066499","name":"Fidmenstrasse","postalCode":"6442","locality":"Gersau","commune":{"key":"1311","name":"Gersau","shortName":"Gersau"},"district":{"key":"502","name":"Bezirk Gersau"},"canton":{"key":"5","code":"SZ","name":"Schwyz"},"status":"Real"},{"key":"10112680","name":"Föhnenberg","postalCode":"6442","locality":"Gersau","commune":{"key":"1311","name":"Gersau","shortName":"Gersau"},"district":{"key":"502","name":"Bezirk Gersau"},"canton":{"key":"5","code":"SZ","name":"Schwyz"},"status":"Real"},{"key":"10018805","name":"Furrenstrasse","postalCode":"6442","locality":"Gersau","commune":{"key":"1311","name":"Gersau","shortName":"Gersau"},"district":{"key":"502","name":"Bezirk Gersau"},"canton":{"key":"5","code":"SZ","name":"Schwyz"},"status":"Real"},{"key":"10185558","name":"Furt","postalCode":"6442","locality":"Gersau","commune":{"key":"1311","name":"Gersau","shortName":"Gersau"},"district":{"key":"502","name":"Bezirk Gersau"},"canton":{"key":"5","code":"SZ","name":"Schwyz"},"status":"Real"},{"key":"10114389","name":"Gätterli","postalCode":"6442","locality":"Gersau","commune":{"key":"1311","name":"Gersau","shortName":"Gersau"},"district":{"key":"502","name":"Bezirk Gersau"},"canton":{"key":"5","code":"SZ","name":"Schwyz"},"status":"Real"},{"key":"10223200","name":"Gillenweg","postalCode":"6442","locality":"Gersau","commune":{"key":"1311","name":"Gersau","shortName":"Gersau"},"district":{"key":"502","name":"Bezirk Gersau"},"canton":{"key":"5","code":"SZ","name":"Schwyz"},"status":"Real"},{"key":"10188537","name":"Glattenberg","postalCode":"6442","locality":"Gersau","commune":{"key":"1311","name":"Gersau","shortName":"Gersau"},"district":{"key":"502","name":"Bezirk Gersau"},"canton":{"key":"5","code":"SZ","name":"Schwyz"},"status":"Real"},{"key":"10247009","name":"Grat","postalCode":"6442","locality":"Gersau","commune":{"key":"1311","name":"Gersau","shortName":"Gersau"},"district":{"key":"502","name":"Bezirk Gersau"},"canton":{"key":"5","code":"SZ","name":"Schwyz"},"status":"Real"},{"key":"10223204","name":"Gsäs","postalCode":"6442","locality":"Gersau","commune":{"key":"1311","name":"Gersau","shortName":"Gersau"},"district":{"key":"502","name":"Bezirk Gersau"},"canton":{"key":"5","code":"SZ","name":"Schwyz"},"status":"Real"},{"key":"10114675","name":"Gschwendstrasse","postalCode":"6442","locality":"Gersau","commune":{"key":"1311","name":"Gersau","shortName":"Gersau"},"district":{"key":"502","name":"Bezirk Gersau"},"canton":{"key":"5","code":"SZ","name":"Schwyz"},"status":"Real"},{"key":"10018806","name":"Gurgeli","postalCode":"6442","locality":"Gersau","commune":{"key":"1311","name":"Gersau","shortName":"Gersau"},"district":{"key":"502","name":"Bezirk Gersau"},"canton":{"key":"5","code":"SZ","name":"Schwyz"},"status":"Real"},{"key":"10177752","name":"Gütschstrasse","postalCode":"6442","locality":"Gersau","commune":{"key":"1311","name":"Gersau","shortName":"Gersau"},"district":{"key":"502","name":"Bezirk Gersau"},"canton":{"key":"5","code":"SZ","name":"Schwyz"},"status":"Real"},{"key":"10081361","name":"Halten","postalCode":"6442","locality":"Gersau","commune":{"key":"1311","name":"Gersau","shortName":"Gersau"},"district":{"key":"502","name":"Bezirk Gersau"},"canton":{"key":"5","code":"SZ","name":"Schwyz"},"status":"Real"},{"key":"10066500","name":"Hinter Gibel","postalCode":"6442","locality":"Gersau","commune":{"key":"1311","name":"Gersau","shortName":"Gersau"},"district":{"key":"502","name":"Bezirk Gersau"},"canton":{"key":"5","code":"SZ","name":"Schwyz"},"status":"Real"},{"key":"10180334","name":"Hinter Schwanden","postalCode":"6442","locality":"Gersau","commune":{"key":"1311","name":"Gersau","shortName":"Gersau"},"district":{"key":"502","name":"Bezirk Gersau"},"canton":{"key":"5","code":"SZ","name":"Schwyz"},"status":"Real"},{"key":"10112279","name":"Hostet","postalCode":"6442","locality":"Gersau","commune":{"key":"1311","name":"Gersau","shortName":"Gersau"},"district":{"key":"502","name":"Bezirk Gersau"},"canton":{"key":"5","code":"SZ","name":"Schwyz"},"status":"Real"},{"key":"10175351","name":"Huob","postalCode":"6442","locality":"Gersau","commune":{"key":"1311","name":"Gersau","shortName":"Gersau"},"district":{"key":"502","name":"Bezirk Gersau"},"canton":{"key":"5","code":"SZ","name":"Schwyz"},"status":"Real"},{"key":"10018807","name":"Hüttenboden","postalCode":"6442","locality":"Gersau","commune":{"key":"1311","name":"Gersau","shortName":"Gersau"},"district":{"key":"502","name":"Bezirk Gersau"},"canton":{"key":"5","code":"SZ","name":"Schwyz"},"status":"Real"},{"key":"10066497","name":"Im Acher","postalCode":"6442","locality":"Gersau","commune":{"key":"1311","name":"Gersau","shortName":"Gersau"},"district":{"key":"502","name":"Bezirk Gersau"},"canton":{"key":"5","code":"SZ","name":"Schwyz"},"status":"Real"},{"key":"10115671","name":"Käppeliberg","postalCode":"6442","locality":"Gersau","commune":{"key":"1311","name":"Gersau","shortName":"Gersau"},"district":{"key":"502","name":"Bezirk Gersau"},"canton":{"key":"5","code":"SZ","name":"Schwyz"},"status":"Real"},{"key":"10081362","name":"Kerngasse","postalCode":"6442","locality":"Gersau","commune":{"key":"1311","name":"Gersau","shortName":"Gersau"},"district":{"key":"502","name":"Bezirk Gersau"},"canton":{"key":"5","code":"SZ","name":"Schwyz"},"status":"Real"},{"key":"10161177","name":"Kindli","postalCode":"6442","locality":"Gersau","commune":{"key":"1311","name":"Gersau","shortName":"Gersau"},"district":{"key":"502","name":"Bezirk Gersau"},"canton":{"key":"5","code":"SZ","name":"Schwyz"},"status":"Real"},{"key":"10247143","name":"Kirchenplatz","postalCode":"6442","locality":"Gersau","commune":{"key":"1311","name":"Gersau","shortName":"Gersau"},"district":{"key":"502","name":"Bezirk Gersau"},"canton":{"key":"5","code":"SZ","name":"Schwyz"},"status":"Real"},{"key":"10058342","name":"Kuorez","postalCode":"6442","locality":"Gersau","commune":{"key":"1311","name":"Gersau","shortName":"Gersau"},"district":{"key":"502","name":"Bezirk Gersau"},"canton":{"key":"5","code":"SZ","name":"Schwyz"},"status":"Real"},{"key":"10066501","name":"Landammannstrasse","postalCode":"6442","locality":"Gersau","commune":{"key":"1311","name":"Gersau","shortName":"Gersau"},"district":{"key":"502","name":"Bezirk Gersau"},"canton":{"key":"5","code":"SZ","name":"Schwyz"},"status":"Real"},{"key":"10247008","name":"Linderegg","postalCode":"6442","locality":"Gersau","commune":{"key":"1311","name":"Gersau","shortName":"Gersau"},"district":{"key":"502","name":"Bezirk Gersau"},"canton":{"key":"5","code":"SZ","name":"Schwyz"},"status":"Real"},{"key":"10247003","name":"Lücken","postalCode":"6442","locality":"Gersau","commune":{"key":"1311","name":"Gersau","shortName":"Gersau"},"district":{"key":"502","name":"Bezirk Gersau"},"canton":{"key":"5","code":"SZ","name":"Schwyz"},"status":"Real"},{"key":"10223208","name":"Matt","postalCode":"6442","locality":"Gersau","commune":{"key":"1311","name":"Gersau","shortName":"Gersau"},"district":{"key":"502","name":"Bezirk Gersau"},"canton":{"key":"5","code":"SZ","name":"Schwyz"},"status":"Real"},{"key":"10018809","name":"Menschenacher","postalCode":"6442","locality":"Gersau","commune":{"key":"1311","name":"Gersau","shortName":"Gersau"},"district":{"key":"502","name":"Bezirk Gersau"},"canton":{"key":"5","code":"SZ","name":"Schwyz"},"status":"Real"},{"key":"10223214","name":"Mettlenstrasse","postalCode":"6442","locality":"Gersau","commune":{"key":"1311","name":"Gersau","shortName":"Gersau"},"district":{"key":"502","name":"Bezirk Gersau"},"canton":{"key":"5","code":"SZ","name":"Schwyz"},"status":"Real"},{"key":"10171589","name":"Mittel Gschwend","postalCode":"6442","locality":"Gersau","commune":{"key":"1311","name":"Gersau","shortName":"Gersau"},"district":{"key":"502","name":"Bezirk Gersau"},"canton":{"key":"5","code":"SZ","name":"Schwyz"},"status":"Real"},{"key":"10058343","name":"Mittel Urmi","postalCode":"6442","locality":"Gersau","commune":{"key":"1311","name":"Gersau","shortName":"Gersau"},"district":{"key":"502","name":"Bezirk Gersau"},"canton":{"key":"5","code":"SZ","name":"Schwyz"},"status":"Real"},{"key":"10018810","name":"Mürg","postalCode":"6442","locality":"Gersau","commune":{"key":"1311","name":"Gersau","shortName":"Gersau"},"district":{"key":"502","name":"Bezirk Gersau"},"canton":{"key":"5","code":"SZ","name":"Schwyz"},"status":"Real"},{"key":"10245104","name":"Neuheim","postalCode":"6442","locality":"Gersau","commune":{"key":"1311","name":"Gersau","shortName":"Gersau"},"district":{"key":"502","name":"Bezirk Gersau"},"canton":{"key":"5","code":"SZ","name":"Schwyz"},"status":"Planned"},{"key":"10191027","name":"Nüden","postalCode":"6442","locality":"Gersau","commune":{"key":"1311","name":"Gersau","shortName":"Gersau"},"district":{"key":"502","name":"Bezirk Gersau"},"canton":{"key":"5","code":"SZ","name":"Schwyz"},"status":"Real"},{"key":"10018811","name":"Nüdli","postalCode":"6442","locality":"Gersau","commune":{"key":"1311","name":"Gersau","shortName":"Gersau"},"district":{"key":"502","name":"Bezirk Gersau"},"canton":{"key":"5","code":"SZ","name":"Schwyz"},"status":"Real"},{"key":"10247006","name":"Nüobermatt","postalCode":"6442","locality":"Gersau","commune":{"key":"1311","name":"Gersau","shortName":"Gersau"},"district":{"key":"502","name":"Bezirk Gersau"},"canton":{"key":"5","code":"SZ","name":"Schwyz"},"status":"Real"},{"key":"10247005","name":"Nüstafel","postalCode":"6442","locality":"Gersau","commune":{"key":"1311","name":"Gersau","shortName":"Gersau"},"district":{"key":"502","name":"Bezirk Gersau"},"canton":{"key":"5","code":"SZ","name":"Schwyz"},"status":"Real"},{"key":"10169567","name":"Oberacherweg","postalCode":"6442","locality":"Gersau","commune":{"key":"1311","name":"Gersau","shortName":"Gersau"},"district":{"key":"502","name":"Bezirk Gersau"},"canton":{"key":"5","code":"SZ","name":"Schwyz"},"status":"Real"},{"key":"10112681","name":"Ober Biregg","postalCode":"6442","locality":"Gersau","commune":{"key":"1311","name":"Gersau","shortName":"Gersau"},"district":{"key":"502","name":"Bezirk Gersau"},"canton":{"key":"5","code":"SZ","name":"Schwyz"},"status":"Real"},{"key":"10178574","name":"Oberbrüggen","postalCode":"6442","locality":"Gersau","commune":{"key":"1311","name":"Gersau","shortName":"Gersau"},"district":{"key":"502","name":"Bezirk Gersau"},"canton":{"key":"5","code":"SZ","name":"Schwyz"},"status":"Real"},{"key":"10066503","name":"Obere Nase","postalCode":"6442","locality":"Gersau","commune":{"key":"1311","name":"Gersau","shortName":"Gersau"},"district":{"key":"502","name":"Bezirk Gersau"},"canton":{"key":"5","code":"SZ","name":"Schwyz"},"status":"Real"},{"key":"10117971","name":"Ober Gibel","postalCode":"6442","locality":"Gersau","commune":{"key":"1311","name":"Gersau","shortName":"Gersau"},"district":{"key":"502","name":"Bezirk Gersau"},"canton":{"key":"5","code":"SZ","name":"Schwyz"},"status":"Real"},{"key":"10081360","name":"Ober Gschwend","postalCode":"6442","locality":"Gersau","commune":{"key":"1311","name":"Gersau","shortName":"Gersau"},"district":{"key":"502","name":"Bezirk Gersau"},"canton":{"key":"5","code":"SZ","name":"Schwyz"},"status":"Real"},{"key":"10247010","name":"Oberholz","postalCode":"6442","locality":"Gersau","commune":{"key":"1311","name":"Gersau","shortName":"Gersau"},"district":{"key":"502","name":"Bezirk Gersau"},"canton":{"key":"5","code":"SZ","name":"Schwyz"},"status":"Real"},{"key":"10223221","name":"Oberholzstrasse","postalCode":"6442","locality":"Gersau","commune":{"key":"1311","name":"Gersau","shortName":"Gersau"},"district":{"key":"502","name":"Bezirk Gersau"},"canton":{"key":"5","code":"SZ","name":"Schwyz"},"status":"Real"},{"key":"10066502","name":"Oberlinden","postalCode":"6442","locality":"Gersau","commune":{"key":"1311","name":"Gersau","shortName":"Gersau"},"district":{"key":"502","name":"Bezirk Gersau"},"canton":{"key":"5","code":"SZ","name":"Schwyz"},"status":"Real"},{"key":"10018814","name":"Obermatt","postalCode":"6442","locality":"Gersau","commune":{"key":"1311","name":"Gersau","shortName":"Gersau"},"district":{"key":"502","name":"Bezirk Gersau"},"canton":{"key":"5","code":"SZ","name":"Schwyz"},"status":"Real"},{"key":"10018812","name":"Ober Rengg","postalCode":"6442","locality":"Gersau","commune":{"key":"1311","name":"Gersau","shortName":"Gersau"},"district":{"key":"502","name":"Bezirk Gersau"},"canton":{"key":"5","code":"SZ","name":"Schwyz"},"status":"Real"},{"key":"10112280","name":"Oberried","postalCode":"6442","locality":"Gersau","commune":{"key":"1311","name":"Gersau","shortName":"Gersau"},"district":{"key":"502","name":"Bezirk Gersau"},"canton":{"key":"5","code":"SZ","name":"Schwyz"},"status":"Real"},{"key":"10169275","name":"Ober Rotflüelen","postalCode":"6442","locality":"Gersau","commune":{"key":"1311","name":"Gersau","shortName":"Gersau"},"district":{"key":"502","name":"Bezirk Gersau"},"canton":{"key":"5","code":"SZ","name":"Schwyz"},"status":"Real"},{"key":"10058344","name":"Ober Rotzingel","postalCode":"6442","locality":"Gersau","commune":{"key":"1311","name":"Gersau","shortName":"Gersau"},"district":{"key":"502","name":"Bezirk Gersau"},"canton":{"key":"5","code":"SZ","name":"Schwyz"},"status":"Real"},{"key":"10018813","name":"Ober Strick","postalCode":"6442","locality":"Gersau","commune":{"key":"1311","name":"Gersau","shortName":"Gersau"},"district":{"key":"502","name":"Bezirk Gersau"},"canton":{"key":"5","code":"SZ","name":"Schwyz"},"status":"Real"},{"key":"10081363","name":"Ober Urmi","postalCode":"6442","locality":"Gersau","commune":{"key":"1311","name":"Gersau","shortName":"Gersau"},"district":{"key":"502","name":"Bezirk Gersau"},"canton":{"key":"5","code":"SZ","name":"Schwyz"},"status":"Real"},{"key":"10247000","name":"Pfäng","postalCode":"6442","locality":"Gersau","commune":{"key":"1311","name":"Gersau","shortName":"Gersau"},"district":{"key":"502","name":"Bezirk Gersau"},"canton":{"key":"5","code":"SZ","name":"Schwyz"},"status":"Real"},{"key":"10247144","name":"Platten","postalCode":"6442","locality":"Gersau","commune":{"key":"1311","name":"Gersau","shortName":"Gersau"},"district":{"key":"502","name":"Bezirk Gersau"},"canton":{"key":"5","code":"SZ","name":"Schwyz"},"status":"Real"},{"key":"10246998","name":"Plattenhüttli","postalCode":"6442","locality":"Gersau","commune":{"key":"1311","name":"Gersau","shortName":"Gersau"},"district":{"key":"502","name":"Bezirk Gersau"},"canton":{"key":"5","code":"SZ","name":"Schwyz"},"status":"Real"},{"key":"10188538","name":"Plattenweg","postalCode":"6442","locality":"Gersau","commune":{"key":"1311","name":"Gersau","shortName":"Gersau"},"district":{"key":"502","name":"Bezirk Gersau"},"canton":{"key":"5","code":"SZ","name":"Schwyz"},"status":"Real"},{"key":"10066504","name":"Poststrasse","postalCode":"6442","locality":"Gersau","commune":{"key":"1311","name":"Gersau","shortName":"Gersau"},"district":{"key":"502","name":"Bezirk Gersau"},"canton":{"key":"5","code":"SZ","name":"Schwyz"},"status":"Real"},{"key":"10081364","name":"Rathausgasse","postalCode":"6442","locality":"Gersau","commune":{"key":"1311","name":"Gersau","shortName":"Gersau"},"district":{"key":"502","name":"Bezirk Gersau"},"canton":{"key":"5","code":"SZ","name":"Schwyz"},"status":"Real"},{"key":"10018815","name":"Renggstrasse","postalCode":"6442","locality":"Gersau","commune":{"key":"1311","name":"Gersau","shortName":"Gersau"},"district":{"key":"502","name":"Bezirk Gersau"},"canton":{"key":"5","code":"SZ","name":"Schwyz"},"status":"Real"},{"key":"10018816","name":"Ried","postalCode":"6442","locality":"Gersau","commune":{"key":"1311","name":"Gersau","shortName":"Gersau"},"district":{"key":"502","name":"Bezirk Gersau"},"canton":{"key":"5","code":"SZ","name":"Schwyz"},"status":"Real"},{"key":"10066505","name":"Rigi Burggeist","postalCode":"6442","locality":"Gersau","commune":{"key":"1311","name":"Gersau","shortName":"Gersau"},"district":{"key":"502","name":"Bezirk Gersau"},"canton":{"key":"5","code":"SZ","name":"Schwyz"},"status":"Real"},{"key":"10058345","name":"Rotacher","postalCode":"6442","locality":"Gersau","commune":{"key":"1311","name":"Gersau","shortName":"Gersau"},"district":{"key":"502","name":"Bezirk Gersau"},"canton":{"key":"5","code":"SZ","name":"Schwyz"},"status":"Real"},{"key":"10019088","name":"Rotacherstrasse","postalCode":"6442","locality":"Gersau","commune":{"key":"1311","name":"Gersau","shortName":"Gersau"},"district":{"key":"502","name":"Bezirk Gersau"},"canton":{"key":"5","code":"SZ","name":"Schwyz"},"status":"Real"},{"key":"10166610","name":"Rotflüelen","postalCode":"6442","locality":"Gersau","commune":{"key":"1311","name":"Gersau","shortName":"Gersau"},"district":{"key":"502","name":"Bezirk Gersau"},"canton":{"key":"5","code":"SZ","name":"Schwyz"},"status":"Real"},{"key":"10177753","name":"Rotkreuz","postalCode":"6442","locality":"Gersau","commune":{"key":"1311","name":"Gersau","shortName":"Gersau"},"district":{"key":"502","name":"Bezirk Gersau"},"canton":{"key":"5","code":"SZ","name":"Schwyz"},"status":"Real"},{"key":"10066506","name":"Rotschuo","postalCode":"6442","locality":"Gersau","commune":{"key":"1311","name":"Gersau","shortName":"Gersau"},"district":{"key":"502","name":"Bezirk Gersau"},"canton":{"key":"5","code":"SZ","name":"Schwyz"},"status":"Real"},{"key":"10246997","name":"Rotstock","postalCode":"6442","locality":"Gersau","commune":{"key":"1311","name":"Gersau","shortName":"Gersau"},"district":{"key":"502","name":"Bezirk Gersau"},"canton":{"key":"5","code":"SZ","name":"Schwyz"},"status":"Real"},{"key":"10019090","name":"Rübi","postalCode":"6442","locality":"Gersau","commune":{"key":"1311","name":"Gersau","shortName":"Gersau"},"district":{"key":"502","name":"Bezirk Gersau"},"canton":{"key":"5","code":"SZ","name":"Schwyz"},"status":"Real"},{"key":"10019089","name":"Ruchenberg","postalCode":"6442","locality":"Gersau","commune":{"key":"1311","name":"Gersau","shortName":"Gersau"},"district":{"key":"502","name":"Bezirk Gersau"},"canton":{"key":"5","code":"SZ","name":"Schwyz"},"status":"Real"},{"key":"10058346","name":"Ruoplis","postalCode":"6442","locality":"Gersau","commune":{"key":"1311","name":"Gersau","shortName":"Gersau"},"district":{"key":"502","name":"Bezirk Gersau"},"canton":{"key":"5","code":"SZ","name":"Schwyz"},"status":"Real"},{"key":"10066507","name":"Rütelistrasse","postalCode":"6442","locality":"Gersau","commune":{"key":"1311","name":"Gersau","shortName":"Gersau"},"district":{"key":"502","name":"Bezirk Gersau"},"canton":{"key":"5","code":"SZ","name":"Schwyz"},"status":"Real"},{"key":"10081365","name":"Sagenbachstrasse","postalCode":"6442","locality":"Gersau","commune":{"key":"1311","name":"Gersau","shortName":"Gersau"},"district":{"key":"502","name":"Bezirk Gersau"},"canton":{"key":"5","code":"SZ","name":"Schwyz"},"status":"Real"},{"key":"10115672","name":"Schäfweg","postalCode":"6442","locality":"Gersau","commune":{"key":"1311","name":"Gersau","shortName":"Gersau"},"district":{"key":"502","name":"Bezirk Gersau"},"canton":{"key":"5","code":"SZ","name":"Schwyz"},"status":"Real"},{"key":"10247016","name":"Scharteggli","postalCode":"6442","locality":"Gersau","commune":{"key":"1311","name":"Gersau","shortName":"Gersau"},"district":{"key":"502","name":"Bezirk Gersau"},"canton":{"key":"5","code":"SZ","name":"Schwyz"},"status":"Real"},{"key":"10223226","name":"Schattenhalbstrasse","postalCode":"6442","locality":"Gersau","commune":{"key":"1311","name":"Gersau","shortName":"Gersau"},"district":{"key":"502","name":"Bezirk Gersau"},"canton":{"key":"5","code":"SZ","name":"Schwyz"},"status":"Real"},{"key":"10117428","name":"Schlag","postalCode":"6442","locality":"Gersau","commune":{"key":"1311","name":"Gersau","shortName":"Gersau"},"district":{"key":"502","name":"Bezirk Gersau"},"canton":{"key":"5","code":"SZ","name":"Schwyz"},"status":"Real"},{"key":"10019091","name":"Schulhausplatz","postalCode":"6442","locality":"Gersau","commune":{"key":"1311","name":"Gersau","shortName":"Gersau"},"district":{"key":"502","name":"Bezirk Gersau"},"canton":{"key":"5","code":"SZ","name":"Schwyz"},"status":"Real"},{"key":"10167311","name":"Schuoholz","postalCode":"6442","locality":"Gersau","commune":{"key":"1311","name":"Gersau","shortName":"Gersau"},"district":{"key":"502","name":"Bezirk Gersau"},"canton":{"key":"5","code":"SZ","name":"Schwyz"},"status":"Real"},{"key":"10188820","name":"Schwändi","postalCode":"6442","locality":"Gersau","commune":{"key":"1311","name":"Gersau","shortName":"Gersau"},"district":{"key":"502","name":"Bezirk Gersau"},"canton":{"key":"5","code":"SZ","name":"Schwyz"},"status":"Real"},{"key":"10081366","name":"Seestrasse","postalCode":"6442","locality":"Gersau","commune":{"key":"1311","name":"Gersau","shortName":"Gersau"},"district":{"key":"502","name":"Bezirk Gersau"},"canton":{"key":"5","code":"SZ","name":"Schwyz"},"status":"Real"},{"key":"10177754","name":"Sellen","postalCode":"6442","locality":"Gersau","commune":{"key":"1311","name":"Gersau","shortName":"Gersau"},"district":{"key":"502","name":"Bezirk Gersau"},"canton":{"key":"5","code":"SZ","name":"Schwyz"},"status":"Real"},{"key":"10125394","name":"Sellenweid","postalCode":"6442","locality":"Gersau","commune":{"key":"1311","name":"Gersau","shortName":"Gersau"},"district":{"key":"502","name":"Bezirk Gersau"},"canton":{"key":"5","code":"SZ","name":"Schwyz"},"status":"Real"},{"key":"10243566","name":"Stalden","postalCode":"6442","locality":"Gersau","commune":{"key":"1311","name":"Gersau","shortName":"Gersau"},"district":{"key":"502","name":"Bezirk Gersau"},"canton":{"key":"5","code":"SZ","name":"Schwyz"},"status":"Real"},{"key":"10146718","name":"Stockbachweg","postalCode":"6442","locality":"Gersau","commune":{"key":"1311","name":"Gersau","shortName":"Gersau"},"district":{"key":"502","name":"Bezirk Gersau"},"canton":{"key":"5","code":"SZ","name":"Schwyz"},"status":"Real"},{"key":"10129760","name":"Stocklistrasse","postalCode":"6442","locality":"Gersau","commune":{"key":"1311","name":"Gersau","shortName":"Gersau"},"district":{"key":"502","name":"Bezirk Gersau"},"canton":{"key":"5","code":"SZ","name":"Schwyz"},"status":"Real"},{"key":"10019092","name":"Stückistrasse","postalCode":"6442","locality":"Gersau","commune":{"key":"1311","name":"Gersau","shortName":"Gersau"},"district":{"key":"502","name":"Bezirk Gersau"},"canton":{"key":"5","code":"SZ","name":"Schwyz"},"status":"Real"},{"key":"10081367","name":"Talstrasse","postalCode":"6442","locality":"Gersau","commune":{"key":"1311","name":"Gersau","shortName":"Gersau"},"district":{"key":"502","name":"Bezirk Gersau"},"canton":{"key":"5","code":"SZ","name":"Schwyz"},"status":"Real"},{"key":"10019093","name":"Tannen","postalCode":"6442","locality":"Gersau","commune":{"key":"1311","name":"Gersau","shortName":"Gersau"},"district":{"key":"502","name":"Bezirk Gersau"},"canton":{"key":"5","code":"SZ","name":"Schwyz"},"status":"Real"},{"key":"10058347","name":"Tannenboden","postalCode":"6442","locality":"Gersau","commune":{"key":"1311","name":"Gersau","shortName":"Gersau"},"district":{"key":"502","name":"Bezirk Gersau"},"canton":{"key":"5","code":"SZ","name":"Schwyz"},"status":"Real"},{"key":"10019094","name":"Tschalungasse","postalCode":"6442","locality":"Gersau","commune":{"key":"1311","name":"Gersau","shortName":"Gersau"},"district":{"key":"502","name":"Bezirk Gersau"},"canton":{"key":"5","code":"SZ","name":"Schwyz"},"status":"Real"},{"key":"10019095","name":"Tschuoplis","postalCode":"6442","locality":"Gersau","commune":{"key":"1311","name":"Gersau","shortName":"Gersau"},"district":{"key":"502","name":"Bezirk Gersau"},"canton":{"key":"5","code":"SZ","name":"Schwyz"},"status":"Real"},{"key":"10177755","name":"Unter Biregg","postalCode":"6442","locality":"Gersau","commune":{"key":"1311","name":"Gersau","shortName":"Gersau"},"district":{"key":"502","name":"Bezirk Gersau"},"canton":{"key":"5","code":"SZ","name":"Schwyz"},"status":"Real"},{"key":"10066508","name":"Unterer Talweg","postalCode":"6442","locality":"Gersau","commune":{"key":"1311","name":"Gersau","shortName":"Gersau"},"district":{"key":"502","name":"Bezirk Gersau"},"canton":{"key":"5","code":"SZ","name":"Schwyz"},"status":"Real"},{"key":"10081369","name":"Unter Föhnenberg","postalCode":"6442","locality":"Gersau","commune":{"key":"1311","name":"Gersau","shortName":"Gersau"},"district":{"key":"502","name":"Bezirk Gersau"},"canton":{"key":"5","code":"SZ","name":"Schwyz"},"status":"Real"},{"key":"10169274","name":"Unter Käppeliberg","postalCode":"6442","locality":"Gersau","commune":{"key":"1311","name":"Gersau","shortName":"Gersau"},"district":{"key":"502","name":"Bezirk Gersau"},"canton":{"key":"5","code":"SZ","name":"Schwyz"},"status":"Real"},{"key":"10191028","name":"Unter Linden","postalCode":"6442","locality":"Gersau","commune":{"key":"1311","name":"Gersau","shortName":"Gersau"},"district":{"key":"502","name":"Bezirk Gersau"},"canton":{"key":"5","code":"SZ","name":"Schwyz"},"status":"Real"},{"key":"10081368","name":"Unter Rengg","postalCode":"6442","locality":"Gersau","commune":{"key":"1311","name":"Gersau","shortName":"Gersau"},"district":{"key":"502","name":"Bezirk Gersau"},"canton":{"key":"5","code":"SZ","name":"Schwyz"},"status":"Real"},{"key":"10058348","name":"Unter Rotzingel","postalCode":"6442","locality":"Gersau","commune":{"key":"1311","name":"Gersau","shortName":"Gersau"},"district":{"key":"502","name":"Bezirk Gersau"},"canton":{"key":"5","code":"SZ","name":"Schwyz"},"status":"Real"},{"key":"10019096","name":"Unterrütlenstrasse","postalCode":"6442","locality":"Gersau","commune":{"key":"1311","name":"Gersau","shortName":"Gersau"},"district":{"key":"502","name":"Bezirk Gersau"},"canton":{"key":"5","code":"SZ","name":"Schwyz"},"status":"Real"},{"key":"10169450","name":"Unterstrickstrasse","postalCode":"6442","locality":"Gersau","commune":{"key":"1311","name":"Gersau","shortName":"Gersau"},"district":{"key":"502","name":"Bezirk Gersau"},"canton":{"key":"5","code":"SZ","name":"Schwyz"},"status":"Real"},{"key":"10223230","name":"Urmistrasse","postalCode":"6442","locality":"Gersau","commune":{"key":"1311","name":"Gersau","shortName":"Gersau"},"district":{"key":"502","name":"Bezirk Gersau"},"canton":{"key":"5","code":"SZ","name":"Schwyz"},"status":"Real"},{"key":"10019098","name":"Vorder Gibel","postalCode":"6442","locality":"Gersau","commune":{"key":"1311","name":"Gersau","shortName":"Gersau"},"district":{"key":"502","name":"Bezirk Gersau"},"canton":{"key":"5","code":"SZ","name":"Schwyz"},"status":"Real"},{"key":"10170951","name":"Vorder Schwanden","postalCode":"6442","locality":"Gersau","commune":{"key":"1311","name":"Gersau","shortName":"Gersau"},"district":{"key":"502","name":"Bezirk Gersau"},"canton":{"key":"5","code":"SZ","name":"Schwyz"},"status":"Real"},{"key":"10058627","name":"Weidli","postalCode":"6442","locality":"Gersau","commune":{"key":"1311","name":"Gersau","shortName":"Gersau"},"district":{"key":"502","name":"Bezirk Gersau"},"canton":{"key":"5","code":"SZ","name":"Schwyz"},"status":"Real"},{"key":"10019099","name":"Wichel","postalCode":"6442","locality":"Gersau","commune":{"key":"1311","name":"Gersau","shortName":"Gersau"},"district":{"key":"502","name":"Bezirk Gersau"},"canton":{"key":"5","code":"SZ","name":"Schwyz"},"status":"Real"},{"key":"10112682","name":"Windegg","postalCode":"6442","locality":"Gersau","commune":{"key":"1311","name":"Gersau","shortName":"Gersau"},"district":{"key":"502","name":"Bezirk Gersau"},"canton":{"key":"5","code":"SZ","name":"Schwyz"},"status":"Real"},{"key":"10019100","name":"Wintermies","postalCode":"6442","locality":"Gersau","commune":{"key":"1311","name":"Gersau","shortName":"Gersau"},"district":{"key":"502","name":"Bezirk Gersau"},"canton":{"key":"5","code":"SZ","name":"Schwyz"},"status":"Real"},{"key":"10081370","name":"Wyssgerbistrasse","postalCode":"6442","locality":"Gersau","commune":{"key":"1311","name":"Gersau","shortName":"Gersau"},"district":{"key":"502","name":"Bezirk Gersau"},"canton":{"key":"5","code":"SZ","name":"Schwyz"},"status":"Real"},{"key":"10247015","name":"Zilistock","postalCode":"6442","locality":"Gersau","commune":{"key":"1311","name":"Gersau","shortName":"Gersau"},"district":{"key":"502","name":"Bezirk Gersau"},"canton":{"key":"5","code":"SZ","name":"Schwyz"},"status":"Real"},]