[{"name":"Alte Hölle","postalCode":"14827","locality":"Wiesenburg/Mark","municipality":{"key":"12069665","name":"Wiesenburg/Mark","type":"Kreisangehörige_Gemeinde"},"district":{"key":"12069","name":"Potsdam-Mittelmark","type":"Landkreis"},"federalState":{"key":"12","name":"Brandenburg"}},{"name":"Altrabener Weg","postalCode":"14827","locality":"Wiesenburg/Mark","municipality":{"key":"12069665","name":"Wiesenburg/Mark","type":"Kreisangehörige_Gemeinde"},"district":{"key":"12069","name":"Potsdam-Mittelmark","type":"Landkreis"},"federalState":{"key":"12","name":"Brandenburg"}},{"name":"Am Bahnhof","postalCode":"14827","locality":"Wiesenburg/Mark","municipality":{"key":"12069665","name":"Wiesenburg/Mark","type":"Kreisangehörige_Gemeinde"},"district":{"key":"12069","name":"Potsdam-Mittelmark","type":"Landkreis"},"federalState":{"key":"12","name":"Brandenburg"}},{"name":"Am Feldrain","postalCode":"14827","locality":"Wiesenburg/Mark","municipality":{"key":"12069665","name":"Wiesenburg/Mark","type":"Kreisangehörige_Gemeinde"},"district":{"key":"12069","name":"Potsdam-Mittelmark","type":"Landkreis"},"federalState":{"key":"12","name":"Brandenburg"}},{"name":"Am Fichtenberg","postalCode":"14827","locality":"Wiesenburg/Mark","municipality":{"key":"12069665","name":"Wiesenburg/Mark","type":"Kreisangehörige_Gemeinde"},"district":{"key":"12069","name":"Potsdam-Mittelmark","type":"Landkreis"},"federalState":{"key":"12","name":"Brandenburg"}},{"name":"Am Hesselberg","postalCode":"14827","locality":"Wiesenburg/Mark","municipality":{"key":"12069665","name":"Wiesenburg/Mark","type":"Kreisangehörige_Gemeinde"},"district":{"key":"12069","name":"Potsdam-Mittelmark","type":"Landkreis"},"federalState":{"key":"12","name":"Brandenburg"}},{"name":"Am Postplatz","postalCode":"14827","locality":"Wiesenburg/Mark","municipality":{"key":"12069665","name":"Wiesenburg/Mark","type":"Kreisangehörige_Gemeinde"},"district":{"key":"12069","name":"Potsdam-Mittelmark","type":"Landkreis"},"federalState":{"key":"12","name":"Brandenburg"}},{"name":"Am Spring","postalCode":"14827","locality":"Wiesenburg/Mark","municipality":{"key":"12069665","name":"Wiesenburg/Mark","type":"Kreisangehörige_Gemeinde"},"district":{"key":"12069","name":"Potsdam-Mittelmark","type":"Landkreis"},"federalState":{"key":"12","name":"Brandenburg"}},{"name":"Am Stadion","postalCode":"14827","locality":"Wiesenburg/Mark","municipality":{"key":"12069665","name":"Wiesenburg/Mark","type":"Kreisangehörige_Gemeinde"},"district":{"key":"12069","name":"Potsdam-Mittelmark","type":"Landkreis"},"federalState":{"key":"12","name":"Brandenburg"}},{"name":"Am Wasserwerk","postalCode":"14827","locality":"Wiesenburg/Mark","municipality":{"key":"12069665","name":"Wiesenburg/Mark","type":"Kreisangehörige_Gemeinde"},"district":{"key":"12069","name":"Potsdam-Mittelmark","type":"Landkreis"},"federalState":{"key":"12","name":"Brandenburg"}},{"name":"An der Linde","postalCode":"14827","locality":"Wiesenburg/Mark","municipality":{"key":"12069665","name":"Wiesenburg/Mark","type":"Kreisangehörige_Gemeinde"},"district":{"key":"12069","name":"Potsdam-Mittelmark","type":"Landkreis"},"federalState":{"key":"12","name":"Brandenburg"}},{"name":"An der Wiese","postalCode":"14827","locality":"Wiesenburg/Mark","municipality":{"key":"12069665","name":"Wiesenburg/Mark","type":"Kreisangehörige_Gemeinde"},"district":{"key":"12069","name":"Potsdam-Mittelmark","type":"Landkreis"},"federalState":{"key":"12","name":"Brandenburg"}},{"name":"Bäckerstr.","postalCode":"14827","locality":"Wiesenburg/Mark","municipality":{"key":"12069665","name":"Wiesenburg/Mark","type":"Kreisangehörige_Gemeinde"},"district":{"key":"12069","name":"Potsdam-Mittelmark","type":"Landkreis"},"federalState":{"key":"12","name":"Brandenburg"}},{"name":"Bahnhofsallee","postalCode":"14827","locality":"Wiesenburg/Mark","municipality":{"key":"12069665","name":"Wiesenburg/Mark","type":"Kreisangehörige_Gemeinde"},"district":{"key":"12069","name":"Potsdam-Mittelmark","type":"Landkreis"},"federalState":{"key":"12","name":"Brandenburg"}},{"name":"Bahnhofstr.","postalCode":"14827","locality":"Wiesenburg/Mark","municipality":{"key":"12069665","name":"Wiesenburg/Mark","type":"Kreisangehörige_Gemeinde"},"district":{"key":"12069","name":"Potsdam-Mittelmark","type":"Landkreis"},"federalState":{"key":"12","name":"Brandenburg"}},{"name":"Baumhaselweg","postalCode":"14827","locality":"Wiesenburg/Mark","municipality":{"key":"12069665","name":"Wiesenburg/Mark","type":"Kreisangehörige_Gemeinde"},"district":{"key":"12069","name":"Potsdam-Mittelmark","type":"Landkreis"},"federalState":{"key":"12","name":"Brandenburg"}},{"name":"Belziger Landstr.","postalCode":"14827","locality":"Wiesenburg/Mark","municipality":{"key":"12069665","name":"Wiesenburg/Mark","type":"Kreisangehörige_Gemeinde"},"district":{"key":"12069","name":"Potsdam-Mittelmark","type":"Landkreis"},"federalState":{"key":"12","name":"Brandenburg"}},{"name":"Belziger Str.","postalCode":"14827","locality":"Wiesenburg/Mark","municipality":{"key":"12069665","name":"Wiesenburg/Mark","type":"Kreisangehörige_Gemeinde"},"district":{"key":"12069","name":"Potsdam-Mittelmark","type":"Landkreis"},"federalState":{"key":"12","name":"Brandenburg"}},{"name":"Benkener Dorfstr.","postalCode":"14827","locality":"Wiesenburg/Mark","municipality":{"key":"12069665","name":"Wiesenburg/Mark","type":"Kreisangehörige_Gemeinde"},"district":{"key":"12069","name":"Potsdam-Mittelmark","type":"Landkreis"},"federalState":{"key":"12","name":"Brandenburg"}},{"name":"Bergholzer Str.","postalCode":"14827","locality":"Wiesenburg/Mark","municipality":{"key":"12069665","name":"Wiesenburg/Mark","type":"Kreisangehörige_Gemeinde"},"district":{"key":"12069","name":"Potsdam-Mittelmark","type":"Landkreis"},"federalState":{"key":"12","name":"Brandenburg"}},{"name":"Bergstr.","postalCode":"14827","locality":"Wiesenburg/Mark","municipality":{"key":"12069665","name":"Wiesenburg/Mark","type":"Kreisangehörige_Gemeinde"},"district":{"key":"12069","name":"Potsdam-Mittelmark","type":"Landkreis"},"federalState":{"key":"12","name":"Brandenburg"}},{"name":"Borner Str.","postalCode":"14827","locality":"Wiesenburg/Mark","municipality":{"key":"12069665","name":"Wiesenburg/Mark","type":"Kreisangehörige_Gemeinde"},"district":{"key":"12069","name":"Potsdam-Mittelmark","type":"Landkreis"},"federalState":{"key":"12","name":"Brandenburg"}},{"name":"Borner Weg","postalCode":"14827","locality":"Wiesenburg/Mark","municipality":{"key":"12069665","name":"Wiesenburg/Mark","type":"Kreisangehörige_Gemeinde"},"district":{"key":"12069","name":"Potsdam-Mittelmark","type":"Landkreis"},"federalState":{"key":"12","name":"Brandenburg"}},{"name":"Brunnenstr.","postalCode":"14827","locality":"Wiesenburg/Mark","municipality":{"key":"12069665","name":"Wiesenburg/Mark","type":"Kreisangehörige_Gemeinde"},"district":{"key":"12069","name":"Potsdam-Mittelmark","type":"Landkreis"},"federalState":{"key":"12","name":"Brandenburg"}},{"name":"Coswiger Str.","postalCode":"14827","locality":"Wiesenburg/Mark","municipality":{"key":"12069665","name":"Wiesenburg/Mark","type":"Kreisangehörige_Gemeinde"},"district":{"key":"12069","name":"Potsdam-Mittelmark","type":"Landkreis"},"federalState":{"key":"12","name":"Brandenburg"}},{"name":"Dickspfühlallee","postalCode":"14827","locality":"Wiesenburg/Mark","municipality":{"key":"12069665","name":"Wiesenburg/Mark","type":"Kreisangehörige_Gemeinde"},"district":{"key":"12069","name":"Potsdam-Mittelmark","type":"Landkreis"},"federalState":{"key":"12","name":"Brandenburg"}},{"name":"Dorfstr.","postalCode":"14827","locality":"Wiesenburg/Mark","municipality":{"key":"12069665","name":"Wiesenburg/Mark","type":"Kreisangehörige_Gemeinde"},"district":{"key":"12069","name":"Potsdam-Mittelmark","type":"Landkreis"},"federalState":{"key":"12","name":"Brandenburg"}},{"name":"Ernst-Thälmann-Str.","postalCode":"14827","locality":"Wiesenburg/Mark","municipality":{"key":"12069665","name":"Wiesenburg/Mark","type":"Kreisangehörige_Gemeinde"},"district":{"key":"12069","name":"Potsdam-Mittelmark","type":"Landkreis"},"federalState":{"key":"12","name":"Brandenburg"}},{"name":"Feldstr.","postalCode":"14827","locality":"Wiesenburg/Mark","municipality":{"key":"12069665","name":"Wiesenburg/Mark","type":"Kreisangehörige_Gemeinde"},"district":{"key":"12069","name":"Potsdam-Mittelmark","type":"Landkreis"},"federalState":{"key":"12","name":"Brandenburg"}},{"name":"Feldweg","postalCode":"14827","locality":"Wiesenburg/Mark","municipality":{"key":"12069665","name":"Wiesenburg/Mark","type":"Kreisangehörige_Gemeinde"},"district":{"key":"12069","name":"Potsdam-Mittelmark","type":"Landkreis"},"federalState":{"key":"12","name":"Brandenburg"}},{"name":"Friedhofsweg","postalCode":"14827","locality":"Wiesenburg/Mark","municipality":{"key":"12069665","name":"Wiesenburg/Mark","type":"Kreisangehörige_Gemeinde"},"district":{"key":"12069","name":"Potsdam-Mittelmark","type":"Landkreis"},"federalState":{"key":"12","name":"Brandenburg"}},{"name":"Friedrich-Ebert-Str.","postalCode":"14827","locality":"Wiesenburg/Mark","municipality":{"key":"12069665","name":"Wiesenburg/Mark","type":"Kreisangehörige_Gemeinde"},"district":{"key":"12069","name":"Potsdam-Mittelmark","type":"Landkreis"},"federalState":{"key":"12","name":"Brandenburg"}},{"name":"Gartenstr.","postalCode":"14827","locality":"Wiesenburg/Mark","municipality":{"key":"12069665","name":"Wiesenburg/Mark","type":"Kreisangehörige_Gemeinde"},"district":{"key":"12069","name":"Potsdam-Mittelmark","type":"Landkreis"},"federalState":{"key":"12","name":"Brandenburg"}},{"name":"Glashütte","postalCode":"14827","locality":"Wiesenburg/Mark","municipality":{"key":"12069665","name":"Wiesenburg/Mark","type":"Kreisangehörige_Gemeinde"},"district":{"key":"12069","name":"Potsdam-Mittelmark","type":"Landkreis"},"federalState":{"key":"12","name":"Brandenburg"}},{"name":"Glashüttenweg","postalCode":"14827","locality":"Wiesenburg/Mark","municipality":{"key":"12069665","name":"Wiesenburg/Mark","type":"Kreisangehörige_Gemeinde"},"district":{"key":"12069","name":"Potsdam-Mittelmark","type":"Landkreis"},"federalState":{"key":"12","name":"Brandenburg"}},{"name":"Glasshüttenallee","postalCode":"14827","locality":"Wiesenburg/Mark","municipality":{"key":"12069665","name":"Wiesenburg/Mark","type":"Kreisangehörige_Gemeinde"},"district":{"key":"12069","name":"Potsdam-Mittelmark","type":"Landkreis"},"federalState":{"key":"12","name":"Brandenburg"}},{"name":"Gliener Str.","postalCode":"14827","locality":"Wiesenburg/Mark","municipality":{"key":"12069665","name":"Wiesenburg/Mark","type":"Kreisangehörige_Gemeinde"},"district":{"key":"12069","name":"Potsdam-Mittelmark","type":"Landkreis"},"federalState":{"key":"12","name":"Brandenburg"}},{"name":"Göritz-Klepzig-Raben","postalCode":"14827","locality":"Wiesenburg/Mark","municipality":{"key":"12069665","name":"Wiesenburg/Mark","type":"Kreisangehörige_Gemeinde"},"district":{"key":"12069","name":"Potsdam-Mittelmark","type":"Landkreis"},"federalState":{"key":"12","name":"Brandenburg"}},{"name":"Göritz-Klepzig-Zehrendorf-Raben","postalCode":"14827","locality":"Wiesenburg/Mark","municipality":{"key":"12069665","name":"Wiesenburg/Mark","type":"Kreisangehörige_Gemeinde"},"district":{"key":"12069","name":"Potsdam-Mittelmark","type":"Landkreis"},"federalState":{"key":"12","name":"Brandenburg"}},{"name":"Görzker Str.","postalCode":"14827","locality":"Wiesenburg/Mark","municipality":{"key":"12069665","name":"Wiesenburg/Mark","type":"Kreisangehörige_Gemeinde"},"district":{"key":"12069","name":"Potsdam-Mittelmark","type":"Landkreis"},"federalState":{"key":"12","name":"Brandenburg"}},{"name":"Große Allee","postalCode":"14827","locality":"Wiesenburg/Mark","municipality":{"key":"12069665","name":"Wiesenburg/Mark","type":"Kreisangehörige_Gemeinde"},"district":{"key":"12069","name":"Potsdam-Mittelmark","type":"Landkreis"},"federalState":{"key":"12","name":"Brandenburg"}},{"name":"Gruboer Hauptstr.","postalCode":"14827","locality":"Wiesenburg/Mark","municipality":{"key":"12069665","name":"Wiesenburg/Mark","type":"Kreisangehörige_Gemeinde"},"district":{"key":"12069","name":"Potsdam-Mittelmark","type":"Landkreis"},"federalState":{"key":"12","name":"Brandenburg"}},{"name":"Gruboer Str.","postalCode":"14827","locality":"Wiesenburg/Mark","municipality":{"key":"12069665","name":"Wiesenburg/Mark","type":"Kreisangehörige_Gemeinde"},"district":{"key":"12069","name":"Potsdam-Mittelmark","type":"Landkreis"},"federalState":{"key":"12","name":"Brandenburg"}},{"name":"Grüne Grund","postalCode":"14827","locality":"Wiesenburg/Mark","municipality":{"key":"12069665","name":"Wiesenburg/Mark","type":"Kreisangehörige_Gemeinde"},"district":{"key":"12069","name":"Potsdam-Mittelmark","type":"Landkreis"},"federalState":{"key":"12","name":"Brandenburg"}},{"name":"Grüne-Grund-Str.","postalCode":"14827","locality":"Wiesenburg/Mark","municipality":{"key":"12069665","name":"Wiesenburg/Mark","type":"Kreisangehörige_Gemeinde"},"district":{"key":"12069","name":"Potsdam-Mittelmark","type":"Landkreis"},"federalState":{"key":"12","name":"Brandenburg"}},{"name":"Hagelberger Str.","postalCode":"14827","locality":"Wiesenburg/Mark","municipality":{"key":"12069665","name":"Wiesenburg/Mark","type":"Kreisangehörige_Gemeinde"},"district":{"key":"12069","name":"Potsdam-Mittelmark","type":"Landkreis"},"federalState":{"key":"12","name":"Brandenburg"}},{"name":"Hauptstr.","postalCode":"14827","locality":"Wiesenburg/Mark","municipality":{"key":"12069665","name":"Wiesenburg/Mark","type":"Kreisangehörige_Gemeinde"},"district":{"key":"12069","name":"Potsdam-Mittelmark","type":"Landkreis"},"federalState":{"key":"12","name":"Brandenburg"}},{"name":"Heckertsberg","postalCode":"14827","locality":"Wiesenburg/Mark","municipality":{"key":"12069665","name":"Wiesenburg/Mark","type":"Kreisangehörige_Gemeinde"},"district":{"key":"12069","name":"Potsdam-Mittelmark","type":"Landkreis"},"federalState":{"key":"12","name":"Brandenburg"}},{"name":"Herrmann-Boßdorf-Str.","postalCode":"14827","locality":"Wiesenburg/Mark","municipality":{"key":"12069665","name":"Wiesenburg/Mark","type":"Kreisangehörige_Gemeinde"},"district":{"key":"12069","name":"Potsdam-Mittelmark","type":"Landkreis"},"federalState":{"key":"12","name":"Brandenburg"}},{"name":"Hinter den Gärten","postalCode":"14827","locality":"Wiesenburg/Mark","municipality":{"key":"12069665","name":"Wiesenburg/Mark","type":"Kreisangehörige_Gemeinde"},"district":{"key":"12069","name":"Potsdam-Mittelmark","type":"Landkreis"},"federalState":{"key":"12","name":"Brandenburg"}},{"name":"Hohenlobbeser Weg","postalCode":"14827","locality":"Wiesenburg/Mark","municipality":{"key":"12069665","name":"Wiesenburg/Mark","type":"Kreisangehörige_Gemeinde"},"district":{"key":"12069","name":"Potsdam-Mittelmark","type":"Landkreis"},"federalState":{"key":"12","name":"Brandenburg"}},{"name":"Holzhof","postalCode":"14827","locality":"Wiesenburg/Mark","municipality":{"key":"12069665","name":"Wiesenburg/Mark","type":"Kreisangehörige_Gemeinde"},"district":{"key":"12069","name":"Potsdam-Mittelmark","type":"Landkreis"},"federalState":{"key":"12","name":"Brandenburg"}},{"name":"Hüttenallee","postalCode":"14827","locality":"Wiesenburg/Mark","municipality":{"key":"12069665","name":"Wiesenburg/Mark","type":"Kreisangehörige_Gemeinde"},"district":{"key":"12069","name":"Potsdam-Mittelmark","type":"Landkreis"},"federalState":{"key":"12","name":"Brandenburg"}},{"name":"Im Hack","postalCode":"14827","locality":"Wiesenburg/Mark","municipality":{"key":"12069665","name":"Wiesenburg/Mark","type":"Kreisangehörige_Gemeinde"},"district":{"key":"12069","name":"Potsdam-Mittelmark","type":"Landkreis"},"federalState":{"key":"12","name":"Brandenburg"}},{"name":"In der Springheide","postalCode":"14827","locality":"Wiesenburg/Mark","municipality":{"key":"12069665","name":"Wiesenburg/Mark","type":"Kreisangehörige_Gemeinde"},"district":{"key":"12069","name":"Potsdam-Mittelmark","type":"Landkreis"},"federalState":{"key":"12","name":"Brandenburg"}},{"name":"Karls Hütten Allee","postalCode":"14827","locality":"Wiesenburg/Mark","municipality":{"key":"12069665","name":"Wiesenburg/Mark","type":"Kreisangehörige_Gemeinde"},"district":{"key":"12069","name":"Potsdam-Mittelmark","type":"Landkreis"},"federalState":{"key":"12","name":"Brandenburg"}},{"name":"Kirchplatz","postalCode":"14827","locality":"Wiesenburg/Mark","municipality":{"key":"12069665","name":"Wiesenburg/Mark","type":"Kreisangehörige_Gemeinde"},"district":{"key":"12069","name":"Potsdam-Mittelmark","type":"Landkreis"},"federalState":{"key":"12","name":"Brandenburg"}},{"name":"Klepziger Dorfstr.","postalCode":"14827","locality":"Wiesenburg/Mark","municipality":{"key":"12069665","name":"Wiesenburg/Mark","type":"Kreisangehörige_Gemeinde"},"district":{"key":"12069","name":"Potsdam-Mittelmark","type":"Landkreis"},"federalState":{"key":"12","name":"Brandenburg"}},{"name":"Klepziger Feldstr.","postalCode":"14827","locality":"Wiesenburg/Mark","municipality":{"key":"12069665","name":"Wiesenburg/Mark","type":"Kreisangehörige_Gemeinde"},"district":{"key":"12069","name":"Potsdam-Mittelmark","type":"Landkreis"},"federalState":{"key":"12","name":"Brandenburg"}},{"name":"Klepziger Hauptstr.","postalCode":"14827","locality":"Wiesenburg/Mark","municipality":{"key":"12069665","name":"Wiesenburg/Mark","type":"Kreisangehörige_Gemeinde"},"district":{"key":"12069","name":"Potsdam-Mittelmark","type":"Landkreis"},"federalState":{"key":"12","name":"Brandenburg"}},{"name":"Klepziger Weg","postalCode":"14827","locality":"Wiesenburg/Mark","municipality":{"key":"12069665","name":"Wiesenburg/Mark","type":"Kreisangehörige_Gemeinde"},"district":{"key":"12069","name":"Potsdam-Mittelmark","type":"Landkreis"},"federalState":{"key":"12","name":"Brandenburg"}},{"name":"Klepzig-Raben","postalCode":"14827","locality":"Wiesenburg/Mark","municipality":{"key":"12069665","name":"Wiesenburg/Mark","type":"Kreisangehörige_Gemeinde"},"district":{"key":"12069","name":"Potsdam-Mittelmark","type":"Landkreis"},"federalState":{"key":"12","name":"Brandenburg"}},{"name":"Kohlenallee","postalCode":"14827","locality":"Wiesenburg/Mark","municipality":{"key":"12069665","name":"Wiesenburg/Mark","type":"Kreisangehörige_Gemeinde"},"district":{"key":"12069","name":"Potsdam-Mittelmark","type":"Landkreis"},"federalState":{"key":"12","name":"Brandenburg"}},{"name":"Konsumstr.","postalCode":"14827","locality":"Wiesenburg/Mark","municipality":{"key":"12069665","name":"Wiesenburg/Mark","type":"Kreisangehörige_Gemeinde"},"district":{"key":"12069","name":"Potsdam-Mittelmark","type":"Landkreis"},"federalState":{"key":"12","name":"Brandenburg"}},{"name":"Kranepuhler Weg","postalCode":"14827","locality":"Wiesenburg/Mark","municipality":{"key":"12069665","name":"Wiesenburg/Mark","type":"Kreisangehörige_Gemeinde"},"district":{"key":"12069","name":"Potsdam-Mittelmark","type":"Landkreis"},"federalState":{"key":"12","name":"Brandenburg"}},{"name":"Lange Ziegelallee","postalCode":"14827","locality":"Wiesenburg/Mark","municipality":{"key":"12069665","name":"Wiesenburg/Mark","type":"Kreisangehörige_Gemeinde"},"district":{"key":"12069","name":"Potsdam-Mittelmark","type":"Landkreis"},"federalState":{"key":"12","name":"Brandenburg"}},{"name":"Lehnsdorf","postalCode":"14827","locality":"Wiesenburg/Mark","municipality":{"key":"12069665","name":"Wiesenburg/Mark","type":"Kreisangehörige_Gemeinde"},"district":{"key":"12069","name":"Potsdam-Mittelmark","type":"Landkreis"},"federalState":{"key":"12","name":"Brandenburg"}},{"name":"Lehnsdorfer Weg","postalCode":"14827","locality":"Wiesenburg/Mark","municipality":{"key":"12069665","name":"Wiesenburg/Mark","type":"Kreisangehörige_Gemeinde"},"district":{"key":"12069","name":"Potsdam-Mittelmark","type":"Landkreis"},"federalState":{"key":"12","name":"Brandenburg"}},{"name":"Lindenplatz","postalCode":"14827","locality":"Wiesenburg/Mark","municipality":{"key":"12069665","name":"Wiesenburg/Mark","type":"Kreisangehörige_Gemeinde"},"district":{"key":"12069","name":"Potsdam-Mittelmark","type":"Landkreis"},"federalState":{"key":"12","name":"Brandenburg"}},{"name":"Loburger Str.","postalCode":"14827","locality":"Wiesenburg/Mark","municipality":{"key":"12069665","name":"Wiesenburg/Mark","type":"Kreisangehörige_Gemeinde"},"district":{"key":"12069","name":"Potsdam-Mittelmark","type":"Landkreis"},"federalState":{"key":"12","name":"Brandenburg"}},{"name":"Mahlsdorf","postalCode":"14827","locality":"Wiesenburg/Mark","municipality":{"key":"12069665","name":"Wiesenburg/Mark","type":"Kreisangehörige_Gemeinde"},"district":{"key":"12069","name":"Potsdam-Mittelmark","type":"Landkreis"},"federalState":{"key":"12","name":"Brandenburg"}},{"name":"Mahlsdorfer Gärten","postalCode":"14827","locality":"Wiesenburg/Mark","municipality":{"key":"12069665","name":"Wiesenburg/Mark","type":"Kreisangehörige_Gemeinde"},"district":{"key":"12069","name":"Potsdam-Mittelmark","type":"Landkreis"},"federalState":{"key":"12","name":"Brandenburg"}},{"name":"Mahlsdorfer Str.","postalCode":"14827","locality":"Wiesenburg/Mark","municipality":{"key":"12069665","name":"Wiesenburg/Mark","type":"Kreisangehörige_Gemeinde"},"district":{"key":"12069","name":"Potsdam-Mittelmark","type":"Landkreis"},"federalState":{"key":"12","name":"Brandenburg"}},{"name":"Medewitzer Dorfstr.","postalCode":"14827","locality":"Wiesenburg/Mark","municipality":{"key":"12069665","name":"Wiesenburg/Mark","type":"Kreisangehörige_Gemeinde"},"district":{"key":"12069","name":"Potsdam-Mittelmark","type":"Landkreis"},"federalState":{"key":"12","name":"Brandenburg"}},{"name":"Medewitzer Str.","postalCode":"14827","locality":"Wiesenburg/Mark","municipality":{"key":"12069665","name":"Wiesenburg/Mark","type":"Kreisangehörige_Gemeinde"},"district":{"key":"12069","name":"Potsdam-Mittelmark","type":"Landkreis"},"federalState":{"key":"12","name":"Brandenburg"}},{"name":"Medewitzer Weg","postalCode":"14827","locality":"Wiesenburg/Mark","municipality":{"key":"12069665","name":"Wiesenburg/Mark","type":"Kreisangehörige_Gemeinde"},"district":{"key":"12069","name":"Potsdam-Mittelmark","type":"Landkreis"},"federalState":{"key":"12","name":"Brandenburg"}},{"name":"Mühlenstr.","postalCode":"14827","locality":"Wiesenburg/Mark","municipality":{"key":"12069665","name":"Wiesenburg/Mark","type":"Kreisangehörige_Gemeinde"},"district":{"key":"12069","name":"Potsdam-Mittelmark","type":"Landkreis"},"federalState":{"key":"12","name":"Brandenburg"}},{"name":"Mützdorf","postalCode":"14827","locality":"Wiesenburg/Mark","municipality":{"key":"12069665","name":"Wiesenburg/Mark","type":"Kreisangehörige_Gemeinde"},"district":{"key":"12069","name":"Potsdam-Mittelmark","type":"Landkreis"},"federalState":{"key":"12","name":"Brandenburg"}},{"name":"Nedlitzer Str.","postalCode":"14827","locality":"Wiesenburg/Mark","municipality":{"key":"12069665","name":"Wiesenburg/Mark","type":"Kreisangehörige_Gemeinde"},"district":{"key":"12069","name":"Potsdam-Mittelmark","type":"Landkreis"},"federalState":{"key":"12","name":"Brandenburg"}},{"name":"Neue Dorfstr.","postalCode":"14827","locality":"Wiesenburg/Mark","municipality":{"key":"12069665","name":"Wiesenburg/Mark","type":"Kreisangehörige_Gemeinde"},"district":{"key":"12069","name":"Potsdam-Mittelmark","type":"Landkreis"},"federalState":{"key":"12","name":"Brandenburg"}},{"name":"Neuehütten","postalCode":"14827","locality":"Wiesenburg/Mark","municipality":{"key":"12069665","name":"Wiesenburg/Mark","type":"Kreisangehörige_Gemeinde"},"district":{"key":"12069","name":"Potsdam-Mittelmark","type":"Landkreis"},"federalState":{"key":"12","name":"Brandenburg"}},{"name":"Neuehüttener Str.","postalCode":"14827","locality":"Wiesenburg/Mark","municipality":{"key":"12069665","name":"Wiesenburg/Mark","type":"Kreisangehörige_Gemeinde"},"district":{"key":"12069","name":"Potsdam-Mittelmark","type":"Landkreis"},"federalState":{"key":"12","name":"Brandenburg"}},{"name":"Neue Loburger Str.","postalCode":"14827","locality":"Wiesenburg/Mark","municipality":{"key":"12069665","name":"Wiesenburg/Mark","type":"Kreisangehörige_Gemeinde"},"district":{"key":"12069","name":"Potsdam-Mittelmark","type":"Landkreis"},"federalState":{"key":"12","name":"Brandenburg"}},{"name":"Neue Str.","postalCode":"14827","locality":"Wiesenburg/Mark","municipality":{"key":"12069665","name":"Wiesenburg/Mark","type":"Kreisangehörige_Gemeinde"},"district":{"key":"12069","name":"Potsdam-Mittelmark","type":"Landkreis"},"federalState":{"key":"12","name":"Brandenburg"}},{"name":"Parks of Study and Reflection - Schlamau","postalCode":"14827","locality":"Wiesenburg/Mark","municipality":{"key":"12069665","name":"Wiesenburg/Mark","type":"Kreisangehörige_Gemeinde"},"district":{"key":"12069","name":"Potsdam-Mittelmark","type":"Landkreis"},"federalState":{"key":"12","name":"Brandenburg"}},{"name":"Parkstr.","postalCode":"14827","locality":"Wiesenburg/Mark","municipality":{"key":"12069665","name":"Wiesenburg/Mark","type":"Kreisangehörige_Gemeinde"},"district":{"key":"12069","name":"Potsdam-Mittelmark","type":"Landkreis"},"federalState":{"key":"12","name":"Brandenburg"}},{"name":"Platz der Einheit","postalCode":"14827","locality":"Wiesenburg/Mark","municipality":{"key":"12069665","name":"Wiesenburg/Mark","type":"Kreisangehörige_Gemeinde"},"district":{"key":"12069","name":"Potsdam-Mittelmark","type":"Landkreis"},"federalState":{"key":"12","name":"Brandenburg"}},{"name":"Poststr.","postalCode":"14827","locality":"Wiesenburg/Mark","municipality":{"key":"12069665","name":"Wiesenburg/Mark","type":"Kreisangehörige_Gemeinde"},"district":{"key":"12069","name":"Potsdam-Mittelmark","type":"Landkreis"},"federalState":{"key":"12","name":"Brandenburg"}},{"name":"Raiffeisenstr.","postalCode":"14827","locality":"Wiesenburg/Mark","municipality":{"key":"12069665","name":"Wiesenburg/Mark","type":"Kreisangehörige_Gemeinde"},"district":{"key":"12069","name":"Potsdam-Mittelmark","type":"Landkreis"},"federalState":{"key":"12","name":"Brandenburg"}},{"name":"Reetzerhütten","postalCode":"14827","locality":"Wiesenburg/Mark","municipality":{"key":"12069665","name":"Wiesenburg/Mark","type":"Kreisangehörige_Gemeinde"},"district":{"key":"12069","name":"Potsdam-Mittelmark","type":"Landkreis"},"federalState":{"key":"12","name":"Brandenburg"}},{"name":"Reetzer Str.","postalCode":"14827","locality":"Wiesenburg/Mark","municipality":{"key":"12069665","name":"Wiesenburg/Mark","type":"Kreisangehörige_Gemeinde"},"district":{"key":"12069","name":"Potsdam-Mittelmark","type":"Landkreis"},"federalState":{"key":"12","name":"Brandenburg"}},{"name":"Reetzer Weg","postalCode":"14827","locality":"Wiesenburg/Mark","municipality":{"key":"12069665","name":"Wiesenburg/Mark","type":"Kreisangehörige_Gemeinde"},"district":{"key":"12069","name":"Potsdam-Mittelmark","type":"Landkreis"},"federalState":{"key":"12","name":"Brandenburg"}},{"name":"Reppinicher Str.","postalCode":"14827","locality":"Wiesenburg/Mark","municipality":{"key":"12069665","name":"Wiesenburg/Mark","type":"Kreisangehörige_Gemeinde"},"district":{"key":"12069","name":"Potsdam-Mittelmark","type":"Landkreis"},"federalState":{"key":"12","name":"Brandenburg"}},{"name":"Reudener Str.","postalCode":"14827","locality":"Wiesenburg/Mark","municipality":{"key":"12069665","name":"Wiesenburg/Mark","type":"Kreisangehörige_Gemeinde"},"district":{"key":"12069","name":"Potsdam-Mittelmark","type":"Landkreis"},"federalState":{"key":"12","name":"Brandenburg"}},{"name":"Roteichenstr.","postalCode":"14827","locality":"Wiesenburg/Mark","municipality":{"key":"12069665","name":"Wiesenburg/Mark","type":"Kreisangehörige_Gemeinde"},"district":{"key":"12069","name":"Potsdam-Mittelmark","type":"Landkreis"},"federalState":{"key":"12","name":"Brandenburg"}},{"name":"Schlamau","postalCode":"14827","locality":"Wiesenburg/Mark","municipality":{"key":"12069665","name":"Wiesenburg/Mark","type":"Kreisangehörige_Gemeinde"},"district":{"key":"12069","name":"Potsdam-Mittelmark","type":"Landkreis"},"federalState":{"key":"12","name":"Brandenburg"}},{"name":"Schlamauer Str.","postalCode":"14827","locality":"Wiesenburg/Mark","municipality":{"key":"12069665","name":"Wiesenburg/Mark","type":"Kreisangehörige_Gemeinde"},"district":{"key":"12069","name":"Potsdam-Mittelmark","type":"Landkreis"},"federalState":{"key":"12","name":"Brandenburg"}},{"name":"Schlamauer Weg","postalCode":"14827","locality":"Wiesenburg/Mark","municipality":{"key":"12069665","name":"Wiesenburg/Mark","type":"Kreisangehörige_Gemeinde"},"district":{"key":"12069","name":"Potsdam-Mittelmark","type":"Landkreis"},"federalState":{"key":"12","name":"Brandenburg"}},{"name":"Schlenkallee","postalCode":"14827","locality":"Wiesenburg/Mark","municipality":{"key":"12069665","name":"Wiesenburg/Mark","type":"Kreisangehörige_Gemeinde"},"district":{"key":"12069","name":"Potsdam-Mittelmark","type":"Landkreis"},"federalState":{"key":"12","name":"Brandenburg"}},{"name":"Schloßstr.","postalCode":"14827","locality":"Wiesenburg/Mark","municipality":{"key":"12069665","name":"Wiesenburg/Mark","type":"Kreisangehörige_Gemeinde"},"district":{"key":"12069","name":"Potsdam-Mittelmark","type":"Landkreis"},"federalState":{"key":"12","name":"Brandenburg"}},{"name":"Schmerwitz","postalCode":"14827","locality":"Wiesenburg/Mark","municipality":{"key":"12069665","name":"Wiesenburg/Mark","type":"Kreisangehörige_Gemeinde"},"district":{"key":"12069","name":"Potsdam-Mittelmark","type":"Landkreis"},"federalState":{"key":"12","name":"Brandenburg"}},{"name":"Schmerwitzer Str.","postalCode":"14827","locality":"Wiesenburg/Mark","municipality":{"key":"12069665","name":"Wiesenburg/Mark","type":"Kreisangehörige_Gemeinde"},"district":{"key":"12069","name":"Potsdam-Mittelmark","type":"Landkreis"},"federalState":{"key":"12","name":"Brandenburg"}},{"name":"Schöneichenallee","postalCode":"14827","locality":"Wiesenburg/Mark","municipality":{"key":"12069665","name":"Wiesenburg/Mark","type":"Kreisangehörige_Gemeinde"},"district":{"key":"12069","name":"Potsdam-Mittelmark","type":"Landkreis"},"federalState":{"key":"12","name":"Brandenburg"}},{"name":"Schulsteig","postalCode":"14827","locality":"Wiesenburg/Mark","municipality":{"key":"12069665","name":"Wiesenburg/Mark","type":"Kreisangehörige_Gemeinde"},"district":{"key":"12069","name":"Potsdam-Mittelmark","type":"Landkreis"},"federalState":{"key":"12","name":"Brandenburg"}},{"name":"Schulze-Delitzsch-Str.","postalCode":"14827","locality":"Wiesenburg/Mark","municipality":{"key":"12069665","name":"Wiesenburg/Mark","type":"Kreisangehörige_Gemeinde"},"district":{"key":"12069","name":"Potsdam-Mittelmark","type":"Landkreis"},"federalState":{"key":"12","name":"Brandenburg"}},{"name":"Schwarzer Berg Allee","postalCode":"14827","locality":"Wiesenburg/Mark","municipality":{"key":"12069665","name":"Wiesenburg/Mark","type":"Kreisangehörige_Gemeinde"},"district":{"key":"12069","name":"Potsdam-Mittelmark","type":"Landkreis"},"federalState":{"key":"12","name":"Brandenburg"}},{"name":"Schweinsbrüten Allee","postalCode":"14827","locality":"Wiesenburg/Mark","municipality":{"key":"12069665","name":"Wiesenburg/Mark","type":"Kreisangehörige_Gemeinde"},"district":{"key":"12069","name":"Potsdam-Mittelmark","type":"Landkreis"},"federalState":{"key":"12","name":"Brandenburg"}},{"name":"Setzsteig","postalCode":"14827","locality":"Wiesenburg/Mark","municipality":{"key":"12069665","name":"Wiesenburg/Mark","type":"Kreisangehörige_Gemeinde"},"district":{"key":"12069","name":"Potsdam-Mittelmark","type":"Landkreis"},"federalState":{"key":"12","name":"Brandenburg"}},{"name":"Siedlerweg","postalCode":"14827","locality":"Wiesenburg/Mark","municipality":{"key":"12069665","name":"Wiesenburg/Mark","type":"Kreisangehörige_Gemeinde"},"district":{"key":"12069","name":"Potsdam-Mittelmark","type":"Landkreis"},"federalState":{"key":"12","name":"Brandenburg"}},{"name":"Siedlung","postalCode":"14827","locality":"Wiesenburg/Mark","municipality":{"key":"12069665","name":"Wiesenburg/Mark","type":"Kreisangehörige_Gemeinde"},"district":{"key":"12069","name":"Potsdam-Mittelmark","type":"Landkreis"},"federalState":{"key":"12","name":"Brandenburg"}},{"name":"Spring","postalCode":"14827","locality":"Wiesenburg/Mark","municipality":{"key":"12069665","name":"Wiesenburg/Mark","type":"Kreisangehörige_Gemeinde"},"district":{"key":"12069","name":"Potsdam-Mittelmark","type":"Landkreis"},"federalState":{"key":"12","name":"Brandenburg"}},{"name":"Springweg","postalCode":"14827","locality":"Wiesenburg/Mark","municipality":{"key":"12069665","name":"Wiesenburg/Mark","type":"Kreisangehörige_Gemeinde"},"district":{"key":"12069","name":"Potsdam-Mittelmark","type":"Landkreis"},"federalState":{"key":"12","name":"Brandenburg"}},{"name":"Stackelitzer Weg","postalCode":"14827","locality":"Wiesenburg/Mark","municipality":{"key":"12069665","name":"Wiesenburg/Mark","type":"Kreisangehörige_Gemeinde"},"district":{"key":"12069","name":"Potsdam-Mittelmark","type":"Landkreis"},"federalState":{"key":"12","name":"Brandenburg"}},{"name":"Steindorf","postalCode":"14827","locality":"Wiesenburg/Mark","municipality":{"key":"12069665","name":"Wiesenburg/Mark","type":"Kreisangehörige_Gemeinde"},"district":{"key":"12069","name":"Potsdam-Mittelmark","type":"Landkreis"},"federalState":{"key":"12","name":"Brandenburg"}},{"name":"Str. nach Setzsteig","postalCode":"14827","locality":"Wiesenburg/Mark","municipality":{"key":"12069665","name":"Wiesenburg/Mark","type":"Kreisangehörige_Gemeinde"},"district":{"key":"12069","name":"Potsdam-Mittelmark","type":"Landkreis"},"federalState":{"key":"12","name":"Brandenburg"}},{"name":"Teichstr.","postalCode":"14827","locality":"Wiesenburg/Mark","municipality":{"key":"12069665","name":"Wiesenburg/Mark","type":"Kreisangehörige_Gemeinde"},"district":{"key":"12069","name":"Potsdam-Mittelmark","type":"Landkreis"},"federalState":{"key":"12","name":"Brandenburg"}},{"name":"Thomas-Müntzer-Str.","postalCode":"14827","locality":"Wiesenburg/Mark","municipality":{"key":"12069665","name":"Wiesenburg/Mark","type":"Kreisangehörige_Gemeinde"},"district":{"key":"12069","name":"Potsdam-Mittelmark","type":"Landkreis"},"federalState":{"key":"12","name":"Brandenburg"}},{"name":"Tränk Allee","postalCode":"14827","locality":"Wiesenburg/Mark","municipality":{"key":"12069665","name":"Wiesenburg/Mark","type":"Kreisangehörige_Gemeinde"},"district":{"key":"12069","name":"Potsdam-Mittelmark","type":"Landkreis"},"federalState":{"key":"12","name":"Brandenburg"}},{"name":"Wasserwerkstr.","postalCode":"14827","locality":"Wiesenburg/Mark","municipality":{"key":"12069665","name":"Wiesenburg/Mark","type":"Kreisangehörige_Gemeinde"},"district":{"key":"12069","name":"Potsdam-Mittelmark","type":"Landkreis"},"federalState":{"key":"12","name":"Brandenburg"}},{"name":"Weg zum Wasserwerk","postalCode":"14827","locality":"Wiesenburg/Mark","municipality":{"key":"12069665","name":"Wiesenburg/Mark","type":"Kreisangehörige_Gemeinde"},"district":{"key":"12069","name":"Potsdam-Mittelmark","type":"Landkreis"},"federalState":{"key":"12","name":"Brandenburg"}},{"name":"Werbiger Str.","postalCode":"14827","locality":"Wiesenburg/Mark","municipality":{"key":"12069665","name":"Wiesenburg/Mark","type":"Kreisangehörige_Gemeinde"},"district":{"key":"12069","name":"Potsdam-Mittelmark","type":"Landkreis"},"federalState":{"key":"12","name":"Brandenburg"}},{"name":"Wiesenburger Str.","postalCode":"14827","locality":"Wiesenburg/Mark","municipality":{"key":"12069665","name":"Wiesenburg/Mark","type":"Kreisangehörige_Gemeinde"},"district":{"key":"12069","name":"Potsdam-Mittelmark","type":"Landkreis"},"federalState":{"key":"12","name":"Brandenburg"}},{"name":"Wiesenburger Weg","postalCode":"14827","locality":"Wiesenburg/Mark","municipality":{"key":"12069665","name":"Wiesenburg/Mark","type":"Kreisangehörige_Gemeinde"},"district":{"key":"12069","name":"Potsdam-Mittelmark","type":"Landkreis"},"federalState":{"key":"12","name":"Brandenburg"}},{"name":"Zaunweg","postalCode":"14827","locality":"Wiesenburg/Mark","municipality":{"key":"12069665","name":"Wiesenburg/Mark","type":"Kreisangehörige_Gemeinde"},"district":{"key":"12069","name":"Potsdam-Mittelmark","type":"Landkreis"},"federalState":{"key":"12","name":"Brandenburg"}},{"name":"Zehrendorf-Burg Raben","postalCode":"14827","locality":"Wiesenburg/Mark","municipality":{"key":"12069665","name":"Wiesenburg/Mark","type":"Kreisangehörige_Gemeinde"},"district":{"key":"12069","name":"Potsdam-Mittelmark","type":"Landkreis"},"federalState":{"key":"12","name":"Brandenburg"}},{"name":"Zehrensdorfer Str.","postalCode":"14827","locality":"Wiesenburg/Mark","municipality":{"key":"12069665","name":"Wiesenburg/Mark","type":"Kreisangehörige_Gemeinde"},"district":{"key":"12069","name":"Potsdam-Mittelmark","type":"Landkreis"},"federalState":{"key":"12","name":"Brandenburg"}},{"name":"Zerbster Str.","postalCode":"14827","locality":"Wiesenburg/Mark","municipality":{"key":"12069665","name":"Wiesenburg/Mark","type":"Kreisangehörige_Gemeinde"},"district":{"key":"12069","name":"Potsdam-Mittelmark","type":"Landkreis"},"federalState":{"key":"12","name":"Brandenburg"}},{"name":"Zipsdorfer Str.","postalCode":"14827","locality":"Wiesenburg/Mark","municipality":{"key":"12069665","name":"Wiesenburg/Mark","type":"Kreisangehörige_Gemeinde"},"district":{"key":"12069","name":"Potsdam-Mittelmark","type":"Landkreis"},"federalState":{"key":"12","name":"Brandenburg"}},{"name":"Zum Winkelteich","postalCode":"14827","locality":"Wiesenburg/Mark","municipality":{"key":"12069665","name":"Wiesenburg/Mark","type":"Kreisangehörige_Gemeinde"},"district":{"key":"12069","name":"Potsdam-Mittelmark","type":"Landkreis"},"federalState":{"key":"12","name":"Brandenburg"}},{"name":"Zur Siedlung","postalCode":"14827","locality":"Wiesenburg/Mark","municipality":{"key":"12069665","name":"Wiesenburg/Mark","type":"Kreisangehörige_Gemeinde"},"district":{"key":"12069","name":"Potsdam-Mittelmark","type":"Landkreis"},"federalState":{"key":"12","name":"Brandenburg"}},]