[{"key":"10057838","name":"Adlerweg","postalCode":"4934","locality":"Madiswil","commune":{"key":"332","name":"Madiswil","shortName":"Madiswil"},"district":{"key":"244","name":"Verwaltungskreis Oberaargau"},"canton":{"key":"2","code":"BE","name":"Bern / Berne"},"status":"Real"},{"key":"10115058","name":"Bänackerstrasse","postalCode":"4934","locality":"Madiswil","commune":{"key":"332","name":"Madiswil","shortName":"Madiswil"},"district":{"key":"244","name":"Verwaltungskreis Oberaargau"},"canton":{"key":"2","code":"BE","name":"Bern / Berne"},"status":"Real"},{"key":"10056784","name":"Baschiloch","postalCode":"4934","locality":"Madiswil","commune":{"key":"332","name":"Madiswil","shortName":"Madiswil"},"district":{"key":"244","name":"Verwaltungskreis Oberaargau"},"canton":{"key":"2","code":"BE","name":"Bern / Berne"},"status":"Real"},{"key":"10220052","name":"Batzmösli","postalCode":"4934","locality":"Madiswil","commune":{"key":"332","name":"Madiswil","shortName":"Madiswil"},"district":{"key":"244","name":"Verwaltungskreis Oberaargau"},"canton":{"key":"2","code":"BE","name":"Bern / Berne"},"status":"Real"},{"key":"10219070","name":"Bergacker","postalCode":"4934","locality":"Madiswil","commune":{"key":"332","name":"Madiswil","shortName":"Madiswil"},"district":{"key":"244","name":"Verwaltungskreis Oberaargau"},"canton":{"key":"2","code":"BE","name":"Bern / Berne"},"status":"Real"},{"key":"10177058","name":"Birkenweg","postalCode":"4934","locality":"Madiswil","commune":{"key":"332","name":"Madiswil","shortName":"Madiswil"},"district":{"key":"244","name":"Verwaltungskreis Oberaargau"},"canton":{"key":"2","code":"BE","name":"Bern / Berne"},"status":"Real"},{"key":"10009498","name":"Bisegg","postalCode":"4934","locality":"Madiswil","commune":{"key":"332","name":"Madiswil","shortName":"Madiswil"},"district":{"key":"244","name":"Verwaltungskreis Oberaargau"},"canton":{"key":"2","code":"BE","name":"Bern / Berne"},"status":"Real"},{"key":"10084686","name":"Biseggmatte","postalCode":"4934","locality":"Madiswil","commune":{"key":"332","name":"Madiswil","shortName":"Madiswil"},"district":{"key":"244","name":"Verwaltungskreis Oberaargau"},"canton":{"key":"2","code":"BE","name":"Bern / Berne"},"status":"Real"},{"key":"10134394","name":"Blumenweg","postalCode":"4934","locality":"Madiswil","commune":{"key":"332","name":"Madiswil","shortName":"Madiswil"},"district":{"key":"244","name":"Verwaltungskreis Oberaargau"},"canton":{"key":"2","code":"BE","name":"Bern / Berne"},"status":"Real"},{"key":"10057839","name":"Bohnern","postalCode":"4934","locality":"Madiswil","commune":{"key":"332","name":"Madiswil","shortName":"Madiswil"},"district":{"key":"244","name":"Verwaltungskreis Oberaargau"},"canton":{"key":"2","code":"BE","name":"Bern / Berne"},"status":"Real"},{"key":"10009499","name":"Brüggenweid","postalCode":"4934","locality":"Madiswil","commune":{"key":"332","name":"Madiswil","shortName":"Madiswil"},"district":{"key":"244","name":"Verwaltungskreis Oberaargau"},"canton":{"key":"2","code":"BE","name":"Bern / Berne"},"status":"Real"},{"key":"10009500","name":"Erlenweg","postalCode":"4934","locality":"Madiswil","commune":{"key":"332","name":"Madiswil","shortName":"Madiswil"},"district":{"key":"244","name":"Verwaltungskreis Oberaargau"},"canton":{"key":"2","code":"BE","name":"Bern / Berne"},"status":"Real"},{"key":"10180913","name":"Falkenweg","postalCode":"4934","locality":"Madiswil","commune":{"key":"332","name":"Madiswil","shortName":"Madiswil"},"district":{"key":"244","name":"Verwaltungskreis Oberaargau"},"canton":{"key":"2","code":"BE","name":"Bern / Berne"},"status":"Real"},{"key":"10057840","name":"Finkenweg","postalCode":"4934","locality":"Madiswil","commune":{"key":"332","name":"Madiswil","shortName":"Madiswil"},"district":{"key":"244","name":"Verwaltungskreis Oberaargau"},"canton":{"key":"2","code":"BE","name":"Bern / Berne"},"status":"Real"},{"key":"10009501","name":"Garbenweg","postalCode":"4934","locality":"Madiswil","commune":{"key":"332","name":"Madiswil","shortName":"Madiswil"},"district":{"key":"244","name":"Verwaltungskreis Oberaargau"},"canton":{"key":"2","code":"BE","name":"Bern / Berne"},"status":"Real"},{"key":"10177059","name":"Ghürn","postalCode":"4934","locality":"Madiswil","commune":{"key":"332","name":"Madiswil","shortName":"Madiswil"},"district":{"key":"244","name":"Verwaltungskreis Oberaargau"},"canton":{"key":"2","code":"BE","name":"Bern / Berne"},"status":"Real"},{"key":"10009502","name":"Ghürnstrasse","postalCode":"4934","locality":"Madiswil","commune":{"key":"332","name":"Madiswil","shortName":"Madiswil"},"district":{"key":"244","name":"Verwaltungskreis Oberaargau"},"canton":{"key":"2","code":"BE","name":"Bern / Berne"},"status":"Real"},{"key":"10057842","name":"Grossmattstrasse","postalCode":"4934","locality":"Madiswil","commune":{"key":"332","name":"Madiswil","shortName":"Madiswil"},"district":{"key":"244","name":"Verwaltungskreis Oberaargau"},"canton":{"key":"2","code":"BE","name":"Bern / Berne"},"status":"Real"},{"key":"10124125","name":"Grunholz","postalCode":"4934","locality":"Madiswil","commune":{"key":"332","name":"Madiswil","shortName":"Madiswil"},"district":{"key":"244","name":"Verwaltungskreis Oberaargau"},"canton":{"key":"2","code":"BE","name":"Bern / Berne"},"status":"Real"},{"key":"10009503","name":"Grunholzweid","postalCode":"4934","locality":"Madiswil","commune":{"key":"332","name":"Madiswil","shortName":"Madiswil"},"district":{"key":"244","name":"Verwaltungskreis Oberaargau"},"canton":{"key":"2","code":"BE","name":"Bern / Berne"},"status":"Real"},{"key":"10009504","name":"Gumpelen","postalCode":"4934","locality":"Madiswil","commune":{"key":"332","name":"Madiswil","shortName":"Madiswil"},"district":{"key":"244","name":"Verwaltungskreis Oberaargau"},"canton":{"key":"2","code":"BE","name":"Bern / Berne"},"status":"Real"},{"key":"10084687","name":"Haasweid","postalCode":"4934","locality":"Madiswil","commune":{"key":"332","name":"Madiswil","shortName":"Madiswil"},"district":{"key":"244","name":"Verwaltungskreis Oberaargau"},"canton":{"key":"2","code":"BE","name":"Bern / Berne"},"status":"Real"},{"key":"10177060","name":"Höhenweg","postalCode":"4934","locality":"Madiswil","commune":{"key":"332","name":"Madiswil","shortName":"Madiswil"},"district":{"key":"244","name":"Verwaltungskreis Oberaargau"},"canton":{"key":"2","code":"BE","name":"Bern / Berne"},"status":"Real"},{"key":"10009505","name":"Hubel","postalCode":"4934","locality":"Madiswil","commune":{"key":"332","name":"Madiswil","shortName":"Madiswil"},"district":{"key":"244","name":"Verwaltungskreis Oberaargau"},"canton":{"key":"2","code":"BE","name":"Bern / Berne"},"status":"Real"},{"key":"10009506","name":"Hübeli","postalCode":"4934","locality":"Madiswil","commune":{"key":"332","name":"Madiswil","shortName":"Madiswil"},"district":{"key":"244","name":"Verwaltungskreis Oberaargau"},"canton":{"key":"2","code":"BE","name":"Bern / Berne"},"status":"Real"},{"key":"10056785","name":"Hürn Mättenbach","postalCode":"4934","locality":"Madiswil","commune":{"key":"332","name":"Madiswil","shortName":"Madiswil"},"district":{"key":"244","name":"Verwaltungskreis Oberaargau"},"canton":{"key":"2","code":"BE","name":"Bern / Berne"},"status":"Real"},{"key":"10057844","name":"Kaserhubel","postalCode":"4934","locality":"Madiswil","commune":{"key":"332","name":"Madiswil","shortName":"Madiswil"},"district":{"key":"244","name":"Verwaltungskreis Oberaargau"},"canton":{"key":"2","code":"BE","name":"Bern / Berne"},"status":"Real"},{"key":"10056074","name":"Kirchgässli","postalCode":"4934","locality":"Madiswil","commune":{"key":"332","name":"Madiswil","shortName":"Madiswil"},"district":{"key":"244","name":"Verwaltungskreis Oberaargau"},"canton":{"key":"2","code":"BE","name":"Bern / Berne"},"status":"Real"},{"key":"10084688","name":"Kleeblattweg","postalCode":"4934","locality":"Madiswil","commune":{"key":"332","name":"Madiswil","shortName":"Madiswil"},"district":{"key":"244","name":"Verwaltungskreis Oberaargau"},"canton":{"key":"2","code":"BE","name":"Bern / Berne"},"status":"Real"},{"key":"10109376","name":"Kleinfeldlistrasse","postalCode":"4934","locality":"Madiswil","commune":{"key":"332","name":"Madiswil","shortName":"Madiswil"},"district":{"key":"244","name":"Verwaltungskreis Oberaargau"},"canton":{"key":"2","code":"BE","name":"Bern / Berne"},"status":"Real"},{"key":"10188551","name":"Kopf Wyssbach","postalCode":"4934","locality":"Madiswil","commune":{"key":"332","name":"Madiswil","shortName":"Madiswil"},"district":{"key":"244","name":"Verwaltungskreis Oberaargau"},"canton":{"key":"2","code":"BE","name":"Bern / Berne"},"status":"Real"},{"key":"10084689","name":"Längermoosweg","postalCode":"4934","locality":"Madiswil","commune":{"key":"332","name":"Madiswil","shortName":"Madiswil"},"district":{"key":"244","name":"Verwaltungskreis Oberaargau"},"canton":{"key":"2","code":"BE","name":"Bern / Berne"},"status":"Real"},{"key":"10056075","name":"Lerchenweg","postalCode":"4934","locality":"Madiswil","commune":{"key":"332","name":"Madiswil","shortName":"Madiswil"},"district":{"key":"244","name":"Verwaltungskreis Oberaargau"},"canton":{"key":"2","code":"BE","name":"Bern / Berne"},"status":"Real"},{"key":"10009508","name":"Lindenweg","postalCode":"4934","locality":"Madiswil","commune":{"key":"332","name":"Madiswil","shortName":"Madiswil"},"district":{"key":"244","name":"Verwaltungskreis Oberaargau"},"canton":{"key":"2","code":"BE","name":"Bern / Berne"},"status":"Real"},{"key":"10219074","name":"Lochenweg","postalCode":"4934","locality":"Madiswil","commune":{"key":"332","name":"Madiswil","shortName":"Madiswil"},"district":{"key":"244","name":"Verwaltungskreis Oberaargau"},"canton":{"key":"2","code":"BE","name":"Bern / Berne"},"status":"Real"},{"key":"10219078","name":"Margel","postalCode":"4934","locality":"Madiswil","commune":{"key":"332","name":"Madiswil","shortName":"Madiswil"},"district":{"key":"244","name":"Verwaltungskreis Oberaargau"},"canton":{"key":"2","code":"BE","name":"Bern / Berne"},"status":"Real"},{"key":"10009510","name":"Mättenbach","postalCode":"4934","locality":"Madiswil","commune":{"key":"332","name":"Madiswil","shortName":"Madiswil"},"district":{"key":"244","name":"Verwaltungskreis Oberaargau"},"canton":{"key":"2","code":"BE","name":"Bern / Berne"},"status":"Real"},{"key":"10056076","name":"Melchnaustrasse","postalCode":"4934","locality":"Madiswil","commune":{"key":"332","name":"Madiswil","shortName":"Madiswil"},"district":{"key":"244","name":"Verwaltungskreis Oberaargau"},"canton":{"key":"2","code":"BE","name":"Bern / Berne"},"status":"Real"},{"key":"10062294","name":"Milanweg","postalCode":"4934","locality":"Madiswil","commune":{"key":"332","name":"Madiswil","shortName":"Madiswil"},"district":{"key":"244","name":"Verwaltungskreis Oberaargau"},"canton":{"key":"2","code":"BE","name":"Bern / Berne"},"status":"Real"},{"key":"10009509","name":"Moosackerweg","postalCode":"4934","locality":"Madiswil","commune":{"key":"332","name":"Madiswil","shortName":"Madiswil"},"district":{"key":"244","name":"Verwaltungskreis Oberaargau"},"canton":{"key":"2","code":"BE","name":"Bern / Berne"},"status":"Real"},{"key":"10102631","name":"Mostereiweg","postalCode":"4934","locality":"Madiswil","commune":{"key":"332","name":"Madiswil","shortName":"Madiswil"},"district":{"key":"244","name":"Verwaltungskreis Oberaargau"},"canton":{"key":"2","code":"BE","name":"Bern / Berne"},"status":"Real"},{"key":"10177061","name":"Mühlebergstrasse","postalCode":"4934","locality":"Madiswil","commune":{"key":"332","name":"Madiswil","shortName":"Madiswil"},"district":{"key":"244","name":"Verwaltungskreis Oberaargau"},"canton":{"key":"2","code":"BE","name":"Bern / Berne"},"status":"Real"},{"key":"10084690","name":"Nelkenweg","postalCode":"4934","locality":"Madiswil","commune":{"key":"332","name":"Madiswil","shortName":"Madiswil"},"district":{"key":"244","name":"Verwaltungskreis Oberaargau"},"canton":{"key":"2","code":"BE","name":"Bern / Berne"},"status":"Real"},{"key":"10056077","name":"Neumattweg","postalCode":"4934","locality":"Madiswil","commune":{"key":"332","name":"Madiswil","shortName":"Madiswil"},"district":{"key":"244","name":"Verwaltungskreis Oberaargau"},"canton":{"key":"2","code":"BE","name":"Bern / Berne"},"status":"Real"},{"key":"10062295","name":"Oberdorfstrasse","postalCode":"4934","locality":"Madiswil","commune":{"key":"332","name":"Madiswil","shortName":"Madiswil"},"district":{"key":"244","name":"Verwaltungskreis Oberaargau"},"canton":{"key":"2","code":"BE","name":"Bern / Berne"},"status":"Real"},{"key":"10009511","name":"Oberer Wellenbach","postalCode":"4934","locality":"Madiswil","commune":{"key":"332","name":"Madiswil","shortName":"Madiswil"},"district":{"key":"244","name":"Verwaltungskreis Oberaargau"},"canton":{"key":"2","code":"BE","name":"Bern / Berne"},"status":"Real"},{"key":"10115059","name":"Obergasse","postalCode":"4934","locality":"Madiswil","commune":{"key":"332","name":"Madiswil","shortName":"Madiswil"},"district":{"key":"244","name":"Verwaltungskreis Oberaargau"},"canton":{"key":"2","code":"BE","name":"Bern / Berne"},"status":"Real"},{"key":"10084691","name":"Orbach","postalCode":"4934","locality":"Madiswil","commune":{"key":"332","name":"Madiswil","shortName":"Madiswil"},"district":{"key":"244","name":"Verwaltungskreis Oberaargau"},"canton":{"key":"2","code":"BE","name":"Bern / Berne"},"status":"Real"},{"key":"10147695","name":"Pauli","postalCode":"4934","locality":"Madiswil","commune":{"key":"332","name":"Madiswil","shortName":"Madiswil"},"district":{"key":"244","name":"Verwaltungskreis Oberaargau"},"canton":{"key":"2","code":"BE","name":"Bern / Berne"},"status":"Real"},{"key":"10056078","name":"Plattenstrasse","postalCode":"4934","locality":"Madiswil","commune":{"key":"332","name":"Madiswil","shortName":"Madiswil"},"district":{"key":"244","name":"Verwaltungskreis Oberaargau"},"canton":{"key":"2","code":"BE","name":"Bern / Berne"},"status":"Real"},{"key":"10009512","name":"Rain Mättenbach","postalCode":"4934","locality":"Madiswil","commune":{"key":"332","name":"Madiswil","shortName":"Madiswil"},"district":{"key":"244","name":"Verwaltungskreis Oberaargau"},"canton":{"key":"2","code":"BE","name":"Bern / Berne"},"status":"Real"},{"key":"10062296","name":"Rebberg","postalCode":"4934","locality":"Madiswil","commune":{"key":"332","name":"Madiswil","shortName":"Madiswil"},"district":{"key":"244","name":"Verwaltungskreis Oberaargau"},"canton":{"key":"2","code":"BE","name":"Bern / Berne"},"status":"Real"},{"key":"10056786","name":"Ringer","postalCode":"4934","locality":"Madiswil","commune":{"key":"332","name":"Madiswil","shortName":"Madiswil"},"district":{"key":"244","name":"Verwaltungskreis Oberaargau"},"canton":{"key":"2","code":"BE","name":"Bern / Berne"},"status":"Real"},{"key":"10219086","name":"Rosegärtli","postalCode":"4934","locality":"Madiswil","commune":{"key":"332","name":"Madiswil","shortName":"Madiswil"},"district":{"key":"244","name":"Verwaltungskreis Oberaargau"},"canton":{"key":"2","code":"BE","name":"Bern / Berne"},"status":"Real"},{"key":"10009513","name":"Rosenweg","postalCode":"4934","locality":"Madiswil","commune":{"key":"332","name":"Madiswil","shortName":"Madiswil"},"district":{"key":"244","name":"Verwaltungskreis Oberaargau"},"canton":{"key":"2","code":"BE","name":"Bern / Berne"},"status":"Real"},{"key":"10009514","name":"Ruggli","postalCode":"4934","locality":"Madiswil","commune":{"key":"332","name":"Madiswil","shortName":"Madiswil"},"district":{"key":"244","name":"Verwaltungskreis Oberaargau"},"canton":{"key":"2","code":"BE","name":"Bern / Berne"},"status":"Real"},{"key":"10179921","name":"Rüppiswil","postalCode":"4934","locality":"Madiswil","commune":{"key":"332","name":"Madiswil","shortName":"Madiswil"},"district":{"key":"244","name":"Verwaltungskreis Oberaargau"},"canton":{"key":"2","code":"BE","name":"Bern / Berne"},"status":"Real"},{"key":"10219090","name":"Schmidwald","postalCode":"4934","locality":"Madiswil","commune":{"key":"332","name":"Madiswil","shortName":"Madiswil"},"district":{"key":"244","name":"Verwaltungskreis Oberaargau"},"canton":{"key":"2","code":"BE","name":"Bern / Berne"},"status":"Real"},{"key":"10115236","name":"Schür","postalCode":"4934","locality":"Madiswil","commune":{"key":"332","name":"Madiswil","shortName":"Madiswil"},"district":{"key":"244","name":"Verwaltungskreis Oberaargau"},"canton":{"key":"2","code":"BE","name":"Bern / Berne"},"status":"Real"},{"key":"10104030","name":"Schwangi","postalCode":"4934","locality":"Madiswil","commune":{"key":"332","name":"Madiswil","shortName":"Madiswil"},"district":{"key":"244","name":"Verwaltungskreis Oberaargau"},"canton":{"key":"2","code":"BE","name":"Bern / Berne"},"status":"Real"},{"key":"10009515","name":"Sennjöggel","postalCode":"4934","locality":"Madiswil","commune":{"key":"332","name":"Madiswil","shortName":"Madiswil"},"district":{"key":"244","name":"Verwaltungskreis Oberaargau"},"canton":{"key":"2","code":"BE","name":"Bern / Berne"},"status":"Real"},{"key":"10180914","name":"Sonnmattweg","postalCode":"4934","locality":"Madiswil","commune":{"key":"332","name":"Madiswil","shortName":"Madiswil"},"district":{"key":"244","name":"Verwaltungskreis Oberaargau"},"canton":{"key":"2","code":"BE","name":"Bern / Berne"},"status":"Real"},{"key":"10062297","name":"Steingasse","postalCode":"4934","locality":"Madiswil","commune":{"key":"332","name":"Madiswil","shortName":"Madiswil"},"district":{"key":"244","name":"Verwaltungskreis Oberaargau"},"canton":{"key":"2","code":"BE","name":"Bern / Berne"},"status":"Real"},{"key":"10009516","name":"Stocker","postalCode":"4934","locality":"Madiswil","commune":{"key":"332","name":"Madiswil","shortName":"Madiswil"},"district":{"key":"244","name":"Verwaltungskreis Oberaargau"},"canton":{"key":"2","code":"BE","name":"Bern / Berne"},"status":"Real"},{"key":"10178142","name":"Thal Wyssbach","postalCode":"4934","locality":"Madiswil","commune":{"key":"332","name":"Madiswil","shortName":"Madiswil"},"district":{"key":"244","name":"Verwaltungskreis Oberaargau"},"canton":{"key":"2","code":"BE","name":"Bern / Berne"},"status":"Real"},{"key":"10182592","name":"Tränkeweg","postalCode":"4934","locality":"Madiswil","commune":{"key":"332","name":"Madiswil","shortName":"Madiswil"},"district":{"key":"244","name":"Verwaltungskreis Oberaargau"},"canton":{"key":"2","code":"BE","name":"Bern / Berne"},"status":"Real"},{"key":"10009517","name":"Tulpenweg","postalCode":"4934","locality":"Madiswil","commune":{"key":"332","name":"Madiswil","shortName":"Madiswil"},"district":{"key":"244","name":"Verwaltungskreis Oberaargau"},"canton":{"key":"2","code":"BE","name":"Bern / Berne"},"status":"Real"},{"key":"10062298","name":"Unterdorfstrasse","postalCode":"4934","locality":"Madiswil","commune":{"key":"332","name":"Madiswil","shortName":"Madiswil"},"district":{"key":"244","name":"Verwaltungskreis Oberaargau"},"canton":{"key":"2","code":"BE","name":"Bern / Berne"},"status":"Real"},{"key":"10084692","name":"Untere Bisegg","postalCode":"4934","locality":"Madiswil","commune":{"key":"332","name":"Madiswil","shortName":"Madiswil"},"district":{"key":"244","name":"Verwaltungskreis Oberaargau"},"canton":{"key":"2","code":"BE","name":"Bern / Berne"},"status":"Real"},{"key":"10056079","name":"Untergässli","postalCode":"4934","locality":"Madiswil","commune":{"key":"332","name":"Madiswil","shortName":"Madiswil"},"district":{"key":"244","name":"Verwaltungskreis Oberaargau"},"canton":{"key":"2","code":"BE","name":"Bern / Berne"},"status":"Real"},{"key":"10009518","name":"Wiesenweg","postalCode":"4934","locality":"Madiswil","commune":{"key":"332","name":"Madiswil","shortName":"Madiswil"},"district":{"key":"244","name":"Verwaltungskreis Oberaargau"},"canton":{"key":"2","code":"BE","name":"Bern / Berne"},"status":"Real"},{"key":"10009519","name":"Wyssbach","postalCode":"4934","locality":"Madiswil","commune":{"key":"332","name":"Madiswil","shortName":"Madiswil"},"district":{"key":"244","name":"Verwaltungskreis Oberaargau"},"canton":{"key":"2","code":"BE","name":"Bern / Berne"},"status":"Real"},{"key":"10083510","name":"Zielackerstrasse","postalCode":"4934","locality":"Madiswil","commune":{"key":"332","name":"Madiswil","shortName":"Madiswil"},"district":{"key":"244","name":"Verwaltungskreis Oberaargau"},"canton":{"key":"2","code":"BE","name":"Bern / Berne"},"status":"Real"},]