[{"key":"10125498","name":"Chemin de la Caquerette","postalCode":"1306","locality":"Daillens","commune":{"key":"5480","name":"Daillens","shortName":"Daillens"},"district":{"key":"2223","name":"District du Gros-de-Vaud"},"canton":{"key":"22","code":"VD","name":"Vaud"},"status":"Real"},{"key":"10095962","name":"Chemin de l'Arbalète","postalCode":"1306","locality":"Daillens","commune":{"key":"5480","name":"Daillens","shortName":"Daillens"},"district":{"key":"2223","name":"District du Gros-de-Vaud"},"canton":{"key":"22","code":"VD","name":"Vaud"},"status":"Real"},{"key":"10106908","name":"Chemin des Montets","postalCode":"1306","locality":"Daillens","commune":{"key":"5480","name":"Daillens","shortName":"Daillens"},"district":{"key":"2223","name":"District du Gros-de-Vaud"},"canton":{"key":"22","code":"VD","name":"Vaud"},"status":"Real"},{"key":"10028284","name":"Chemin du Fossey","postalCode":"1306","locality":"Daillens","commune":{"key":"5480","name":"Daillens","shortName":"Daillens"},"district":{"key":"2223","name":"District du Gros-de-Vaud"},"canton":{"key":"22","code":"VD","name":"Vaud"},"status":"Real"},{"key":"10108914","name":"Chemin du Moulin","postalCode":"1306","locality":"Daillens","commune":{"key":"5480","name":"Daillens","shortName":"Daillens"},"district":{"key":"2223","name":"District du Gros-de-Vaud"},"canton":{"key":"22","code":"VD","name":"Vaud"},"status":"Real"},{"key":"10190692","name":"Chemin du Petit Penthalaz","postalCode":"1306","locality":"Daillens","commune":{"key":"5480","name":"Daillens","shortName":"Daillens"},"district":{"key":"2223","name":"District du Gros-de-Vaud"},"canton":{"key":"22","code":"VD","name":"Vaud"},"status":"Real"},{"key":"10028285","name":"Chemin du Pontet","postalCode":"1306","locality":"Daillens","commune":{"key":"5480","name":"Daillens","shortName":"Daillens"},"district":{"key":"2223","name":"District du Gros-de-Vaud"},"canton":{"key":"22","code":"VD","name":"Vaud"},"status":"Real"},{"key":"10095963","name":"Chemin du Pressoir","postalCode":"1306","locality":"Daillens","commune":{"key":"5480","name":"Daillens","shortName":"Daillens"},"district":{"key":"2223","name":"District du Gros-de-Vaud"},"canton":{"key":"22","code":"VD","name":"Vaud"},"status":"Real"},{"key":"10028286","name":"Chemin du Télégraphe","postalCode":"1306","locality":"Daillens","commune":{"key":"5480","name":"Daillens","shortName":"Daillens"},"district":{"key":"2223","name":"District du Gros-de-Vaud"},"canton":{"key":"22","code":"VD","name":"Vaud"},"status":"Real"},{"key":"10035839","name":"En Praudi","postalCode":"1306","locality":"Daillens","commune":{"key":"5480","name":"Daillens","shortName":"Daillens"},"district":{"key":"2223","name":"District du Gros-de-Vaud"},"canton":{"key":"22","code":"VD","name":"Vaud"},"status":"Real"},{"key":"10106909","name":"Le Bochet","postalCode":"1306","locality":"Daillens","commune":{"key":"5480","name":"Daillens","shortName":"Daillens"},"district":{"key":"2223","name":"District du Gros-de-Vaud"},"canton":{"key":"22","code":"VD","name":"Vaud"},"status":"Real"},{"key":"10028287","name":"L'Isérable","postalCode":"1306","locality":"Daillens","commune":{"key":"5480","name":"Daillens","shortName":"Daillens"},"district":{"key":"2223","name":"District du Gros-de-Vaud"},"canton":{"key":"22","code":"VD","name":"Vaud"},"status":"Real"},{"key":"10255395","name":"Plan de Vent","postalCode":"1306","locality":"Daillens","commune":{"key":"5480","name":"Daillens","shortName":"Daillens"},"district":{"key":"2223","name":"District du Gros-de-Vaud"},"canton":{"key":"22","code":"VD","name":"Vaud"},"status":"Real"},{"key":"10176305","name":"Route de Bettens","postalCode":"1306","locality":"Daillens","commune":{"key":"5480","name":"Daillens","shortName":"Daillens"},"district":{"key":"2223","name":"District du Gros-de-Vaud"},"canton":{"key":"22","code":"VD","name":"Vaud"},"status":"Real"},{"key":"10035840","name":"Route d'Eclépens","postalCode":"1306","locality":"Daillens","commune":{"key":"5480","name":"Daillens","shortName":"Daillens"},"district":{"key":"2223","name":"District du Gros-de-Vaud"},"canton":{"key":"22","code":"VD","name":"Vaud"},"status":"Real"},{"key":"10095965","name":"Route de Cossonay-Gare","postalCode":"1306","locality":"Daillens","commune":{"key":"5480","name":"Daillens","shortName":"Daillens"},"district":{"key":"2223","name":"District du Gros-de-Vaud"},"canton":{"key":"22","code":"VD","name":"Vaud"},"status":"Real"},{"key":"10035841","name":"Route de Penthaz","postalCode":"1306","locality":"Daillens","commune":{"key":"5480","name":"Daillens","shortName":"Daillens"},"district":{"key":"2223","name":"District du Gros-de-Vaud"},"canton":{"key":"22","code":"VD","name":"Vaud"},"status":"Real"},{"key":"10035843","name":"Rue du Bourquin","postalCode":"1306","locality":"Daillens","commune":{"key":"5480","name":"Daillens","shortName":"Daillens"},"district":{"key":"2223","name":"District du Gros-de-Vaud"},"canton":{"key":"22","code":"VD","name":"Vaud"},"status":"Real"},{"key":"10095966","name":"Rue du Château","postalCode":"1306","locality":"Daillens","commune":{"key":"5480","name":"Daillens","shortName":"Daillens"},"district":{"key":"2223","name":"District du Gros-de-Vaud"},"canton":{"key":"22","code":"VD","name":"Vaud"},"status":"Real"},{"key":"10035844","name":"Rue du Cottet","postalCode":"1306","locality":"Daillens","commune":{"key":"5480","name":"Daillens","shortName":"Daillens"},"district":{"key":"2223","name":"District du Gros-de-Vaud"},"canton":{"key":"22","code":"VD","name":"Vaud"},"status":"Real"},{"key":"10095964","name":"Rue Jean Villard-Gilles","postalCode":"1306","locality":"Daillens","commune":{"key":"5480","name":"Daillens","shortName":"Daillens"},"district":{"key":"2223","name":"District du Gros-de-Vaud"},"canton":{"key":"22","code":"VD","name":"Vaud"},"status":"Real"},{"key":"10028283","name":"Zone Industrielle Les Arneys","postalCode":"1306","locality":"Daillens","commune":{"key":"5480","name":"Daillens","shortName":"Daillens"},"district":{"key":"2223","name":"District du Gros-de-Vaud"},"canton":{"key":"22","code":"VD","name":"Vaud"},"status":"Real"},{"key":"10117611","name":"Zone Industrielle Les Graveys","postalCode":"1306","locality":"Daillens","commune":{"key":"5480","name":"Daillens","shortName":"Daillens"},"district":{"key":"2223","name":"District du Gros-de-Vaud"},"canton":{"key":"22","code":"VD","name":"Vaud"},"status":"Real"},]