[{"name":"Adolf-von-Richter-Str.","postalCode":"06686","locality":"Lützen","municipality":{"key":"15084315","name":"Lützen, Stadt","type":"Stadt"},"district":{"key":"15084","name":"Burgenlandkreis","type":"Landkreis"},"federalState":{"key":"15","name":"Sachsen-Anhalt"}},{"name":"Ahornplatz","postalCode":"06686","locality":"Lützen","municipality":{"key":"15084315","name":"Lützen, Stadt","type":"Stadt"},"district":{"key":"15084","name":"Burgenlandkreis","type":"Landkreis"},"federalState":{"key":"15","name":"Sachsen-Anhalt"}},{"name":"Ahornring","postalCode":"06686","locality":"Lützen","municipality":{"key":"15084315","name":"Lützen, Stadt","type":"Stadt"},"district":{"key":"15084","name":"Burgenlandkreis","type":"Landkreis"},"federalState":{"key":"15","name":"Sachsen-Anhalt"}},{"name":"Alfred-Görner-Str.","postalCode":"06686","locality":"Lützen","municipality":{"key":"15084315","name":"Lützen, Stadt","type":"Stadt"},"district":{"key":"15084","name":"Burgenlandkreis","type":"Landkreis"},"federalState":{"key":"15","name":"Sachsen-Anhalt"}},{"name":"Alte Provinzialstr.","postalCode":"06686","locality":"Lützen","municipality":{"key":"15084315","name":"Lützen, Stadt","type":"Stadt"},"district":{"key":"15084","name":"Burgenlandkreis","type":"Landkreis"},"federalState":{"key":"15","name":"Sachsen-Anhalt"}},{"name":"Alte Siedlung","postalCode":"06686","locality":"Lützen","municipality":{"key":"15084315","name":"Lützen, Stadt","type":"Stadt"},"district":{"key":"15084","name":"Burgenlandkreis","type":"Landkreis"},"federalState":{"key":"15","name":"Sachsen-Anhalt"}},{"name":"Alte Str.","postalCode":"06686","locality":"Lützen","municipality":{"key":"15084315","name":"Lützen, Stadt","type":"Stadt"},"district":{"key":"15084","name":"Burgenlandkreis","type":"Landkreis"},"federalState":{"key":"15","name":"Sachsen-Anhalt"}},{"name":"Am alten Bahnhof","postalCode":"06686","locality":"Lützen","municipality":{"key":"15084315","name":"Lützen, Stadt","type":"Stadt"},"district":{"key":"15084","name":"Burgenlandkreis","type":"Landkreis"},"federalState":{"key":"15","name":"Sachsen-Anhalt"}},{"name":"Am Anger","postalCode":"06686","locality":"Lützen","municipality":{"key":"15084315","name":"Lützen, Stadt","type":"Stadt"},"district":{"key":"15084","name":"Burgenlandkreis","type":"Landkreis"},"federalState":{"key":"15","name":"Sachsen-Anhalt"}},{"name":"Am Bahnhof","postalCode":"06686","locality":"Lützen","municipality":{"key":"15084315","name":"Lützen, Stadt","type":"Stadt"},"district":{"key":"15084","name":"Burgenlandkreis","type":"Landkreis"},"federalState":{"key":"15","name":"Sachsen-Anhalt"}},{"name":"Am Brühl","postalCode":"06686","locality":"Lützen","municipality":{"key":"15084315","name":"Lützen, Stadt","type":"Stadt"},"district":{"key":"15084","name":"Burgenlandkreis","type":"Landkreis"},"federalState":{"key":"15","name":"Sachsen-Anhalt"}},{"name":"Am Dorfplatz","postalCode":"06686","locality":"Lützen","municipality":{"key":"15084315","name":"Lützen, Stadt","type":"Stadt"},"district":{"key":"15084","name":"Burgenlandkreis","type":"Landkreis"},"federalState":{"key":"15","name":"Sachsen-Anhalt"}},{"name":"Am Feldrain","postalCode":"06686","locality":"Lützen","municipality":{"key":"15084315","name":"Lützen, Stadt","type":"Stadt"},"district":{"key":"15084","name":"Burgenlandkreis","type":"Landkreis"},"federalState":{"key":"15","name":"Sachsen-Anhalt"}},{"name":"Am Floßgraben","postalCode":"06686","locality":"Lützen","municipality":{"key":"15084315","name":"Lützen, Stadt","type":"Stadt"},"district":{"key":"15084","name":"Burgenlandkreis","type":"Landkreis"},"federalState":{"key":"15","name":"Sachsen-Anhalt"}},{"name":"Am Gerstewitzer Anger","postalCode":"06686","locality":"Lützen","municipality":{"key":"15084315","name":"Lützen, Stadt","type":"Stadt"},"district":{"key":"15084","name":"Burgenlandkreis","type":"Landkreis"},"federalState":{"key":"15","name":"Sachsen-Anhalt"}},{"name":"Am Hausberg","postalCode":"06686","locality":"Lützen","municipality":{"key":"15084315","name":"Lützen, Stadt","type":"Stadt"},"district":{"key":"15084","name":"Burgenlandkreis","type":"Landkreis"},"federalState":{"key":"15","name":"Sachsen-Anhalt"}},{"name":"Am Heerweg","postalCode":"06686","locality":"Lützen","municipality":{"key":"15084315","name":"Lützen, Stadt","type":"Stadt"},"district":{"key":"15084","name":"Burgenlandkreis","type":"Landkreis"},"federalState":{"key":"15","name":"Sachsen-Anhalt"}},{"name":"Am Jägersberg","postalCode":"06686","locality":"Lützen","municipality":{"key":"15084315","name":"Lützen, Stadt","type":"Stadt"},"district":{"key":"15084","name":"Burgenlandkreis","type":"Landkreis"},"federalState":{"key":"15","name":"Sachsen-Anhalt"}},{"name":"Am Kessel","postalCode":"06686","locality":"Lützen","municipality":{"key":"15084315","name":"Lützen, Stadt","type":"Stadt"},"district":{"key":"15084","name":"Burgenlandkreis","type":"Landkreis"},"federalState":{"key":"15","name":"Sachsen-Anhalt"}},{"name":"Am Rittergut","postalCode":"06686","locality":"Lützen","municipality":{"key":"15084315","name":"Lützen, Stadt","type":"Stadt"},"district":{"key":"15084","name":"Burgenlandkreis","type":"Landkreis"},"federalState":{"key":"15","name":"Sachsen-Anhalt"}},{"name":"Am Rosenweg","postalCode":"06686","locality":"Lützen","municipality":{"key":"15084315","name":"Lützen, Stadt","type":"Stadt"},"district":{"key":"15084","name":"Burgenlandkreis","type":"Landkreis"},"federalState":{"key":"15","name":"Sachsen-Anhalt"}},{"name":"Amselweg","postalCode":"06686","locality":"Lützen","municipality":{"key":"15084315","name":"Lützen, Stadt","type":"Stadt"},"district":{"key":"15084","name":"Burgenlandkreis","type":"Landkreis"},"federalState":{"key":"15","name":"Sachsen-Anhalt"}},{"name":"Am Sportplatz","postalCode":"06686","locality":"Lützen","municipality":{"key":"15084315","name":"Lützen, Stadt","type":"Stadt"},"district":{"key":"15084","name":"Burgenlandkreis","type":"Landkreis"},"federalState":{"key":"15","name":"Sachsen-Anhalt"}},{"name":"Am Steinberg","postalCode":"06686","locality":"Lützen","municipality":{"key":"15084315","name":"Lützen, Stadt","type":"Stadt"},"district":{"key":"15084","name":"Burgenlandkreis","type":"Landkreis"},"federalState":{"key":"15","name":"Sachsen-Anhalt"}},{"name":"Am Teich","postalCode":"06686","locality":"Lützen","municipality":{"key":"15084315","name":"Lützen, Stadt","type":"Stadt"},"district":{"key":"15084","name":"Burgenlandkreis","type":"Landkreis"},"federalState":{"key":"15","name":"Sachsen-Anhalt"}},{"name":"Am Wäldchen","postalCode":"06686","locality":"Lützen","municipality":{"key":"15084315","name":"Lützen, Stadt","type":"Stadt"},"district":{"key":"15084","name":"Burgenlandkreis","type":"Landkreis"},"federalState":{"key":"15","name":"Sachsen-Anhalt"}},{"name":"Am Weinberg","postalCode":"06686","locality":"Lützen","municipality":{"key":"15084315","name":"Lützen, Stadt","type":"Stadt"},"district":{"key":"15084","name":"Burgenlandkreis","type":"Landkreis"},"federalState":{"key":"15","name":"Sachsen-Anhalt"}},{"name":"An der alten Mittelstr.","postalCode":"06686","locality":"Lützen","municipality":{"key":"15084315","name":"Lützen, Stadt","type":"Stadt"},"district":{"key":"15084","name":"Burgenlandkreis","type":"Landkreis"},"federalState":{"key":"15","name":"Sachsen-Anhalt"}},{"name":"An der alten Schule","postalCode":"06686","locality":"Lützen","municipality":{"key":"15084315","name":"Lützen, Stadt","type":"Stadt"},"district":{"key":"15084","name":"Burgenlandkreis","type":"Landkreis"},"federalState":{"key":"15","name":"Sachsen-Anhalt"}},{"name":"An der Kirche","postalCode":"06686","locality":"Lützen","municipality":{"key":"15084315","name":"Lützen, Stadt","type":"Stadt"},"district":{"key":"15084","name":"Burgenlandkreis","type":"Landkreis"},"federalState":{"key":"15","name":"Sachsen-Anhalt"}},{"name":"An der Lehde","postalCode":"06686","locality":"Lützen","municipality":{"key":"15084315","name":"Lützen, Stadt","type":"Stadt"},"district":{"key":"15084","name":"Burgenlandkreis","type":"Landkreis"},"federalState":{"key":"15","name":"Sachsen-Anhalt"}},{"name":"An der Lehmgrube","postalCode":"06686","locality":"Lützen","municipality":{"key":"15084315","name":"Lützen, Stadt","type":"Stadt"},"district":{"key":"15084","name":"Burgenlandkreis","type":"Landkreis"},"federalState":{"key":"15","name":"Sachsen-Anhalt"}},{"name":"An der Quelle","postalCode":"06686","locality":"Lützen","municipality":{"key":"15084315","name":"Lützen, Stadt","type":"Stadt"},"district":{"key":"15084","name":"Burgenlandkreis","type":"Landkreis"},"federalState":{"key":"15","name":"Sachsen-Anhalt"}},{"name":"An der Untermühle","postalCode":"06686","locality":"Lützen","municipality":{"key":"15084315","name":"Lützen, Stadt","type":"Stadt"},"district":{"key":"15084","name":"Burgenlandkreis","type":"Landkreis"},"federalState":{"key":"15","name":"Sachsen-Anhalt"}},{"name":"An der Wehrkirche","postalCode":"06686","locality":"Lützen","municipality":{"key":"15084315","name":"Lützen, Stadt","type":"Stadt"},"district":{"key":"15084","name":"Burgenlandkreis","type":"Landkreis"},"federalState":{"key":"15","name":"Sachsen-Anhalt"}},{"name":"Auenweg","postalCode":"06686","locality":"Lützen","municipality":{"key":"15084315","name":"Lützen, Stadt","type":"Stadt"},"district":{"key":"15084","name":"Burgenlandkreis","type":"Landkreis"},"federalState":{"key":"15","name":"Sachsen-Anhalt"}},{"name":"Aupitzer Str.","postalCode":"06686","locality":"Lützen","municipality":{"key":"15084315","name":"Lützen, Stadt","type":"Stadt"},"district":{"key":"15084","name":"Burgenlandkreis","type":"Landkreis"},"federalState":{"key":"15","name":"Sachsen-Anhalt"}},{"name":"Aupitzer Weg","postalCode":"06686","locality":"Lützen","municipality":{"key":"15084315","name":"Lützen, Stadt","type":"Stadt"},"district":{"key":"15084","name":"Burgenlandkreis","type":"Landkreis"},"federalState":{"key":"15","name":"Sachsen-Anhalt"}},{"name":"Autobahnsiedlung","postalCode":"06686","locality":"Lützen","municipality":{"key":"15084315","name":"Lützen, Stadt","type":"Stadt"},"district":{"key":"15084","name":"Burgenlandkreis","type":"Landkreis"},"federalState":{"key":"15","name":"Sachsen-Anhalt"}},{"name":"Bad Dürrenberger Str.","postalCode":"06686","locality":"Lützen","municipality":{"key":"15084315","name":"Lützen, Stadt","type":"Stadt"},"district":{"key":"15084","name":"Burgenlandkreis","type":"Landkreis"},"federalState":{"key":"15","name":"Sachsen-Anhalt"}},{"name":"Bahnhofstr.","postalCode":"06686","locality":"Lützen","municipality":{"key":"15084315","name":"Lützen, Stadt","type":"Stadt"},"district":{"key":"15084","name":"Burgenlandkreis","type":"Landkreis"},"federalState":{"key":"15","name":"Sachsen-Anhalt"}},{"name":"Beethovenstr.","postalCode":"06686","locality":"Lützen","municipality":{"key":"15084315","name":"Lützen, Stadt","type":"Stadt"},"district":{"key":"15084","name":"Burgenlandkreis","type":"Landkreis"},"federalState":{"key":"15","name":"Sachsen-Anhalt"}},{"name":"Bergerstr.","postalCode":"06686","locality":"Lützen","municipality":{"key":"15084315","name":"Lützen, Stadt","type":"Stadt"},"district":{"key":"15084","name":"Burgenlandkreis","type":"Landkreis"},"federalState":{"key":"15","name":"Sachsen-Anhalt"}},{"name":"Bergstr.","postalCode":"06686","locality":"Lützen","municipality":{"key":"15084315","name":"Lützen, Stadt","type":"Stadt"},"district":{"key":"15084","name":"Burgenlandkreis","type":"Landkreis"},"federalState":{"key":"15","name":"Sachsen-Anhalt"}},{"name":"Blücherstr.","postalCode":"06686","locality":"Lützen","municipality":{"key":"15084315","name":"Lützen, Stadt","type":"Stadt"},"district":{"key":"15084","name":"Burgenlandkreis","type":"Landkreis"},"federalState":{"key":"15","name":"Sachsen-Anhalt"}},{"name":"Blumenstr.","postalCode":"06686","locality":"Lützen","municipality":{"key":"15084315","name":"Lützen, Stadt","type":"Stadt"},"district":{"key":"15084","name":"Burgenlandkreis","type":"Landkreis"},"federalState":{"key":"15","name":"Sachsen-Anhalt"}},{"name":"Brunnengasse","postalCode":"06686","locality":"Lützen","municipality":{"key":"15084315","name":"Lützen, Stadt","type":"Stadt"},"district":{"key":"15084","name":"Burgenlandkreis","type":"Landkreis"},"federalState":{"key":"15","name":"Sachsen-Anhalt"}},{"name":"Brunnenstr.","postalCode":"06686","locality":"Lützen","municipality":{"key":"15084315","name":"Lützen, Stadt","type":"Stadt"},"district":{"key":"15084","name":"Burgenlandkreis","type":"Landkreis"},"federalState":{"key":"15","name":"Sachsen-Anhalt"}},{"name":"Clara-Zetkin-Str.","postalCode":"06686","locality":"Lützen","municipality":{"key":"15084315","name":"Lützen, Stadt","type":"Stadt"},"district":{"key":"15084","name":"Burgenlandkreis","type":"Landkreis"},"federalState":{"key":"15","name":"Sachsen-Anhalt"}},{"name":"Dengerring","postalCode":"06686","locality":"Lützen","municipality":{"key":"15084315","name":"Lützen, Stadt","type":"Stadt"},"district":{"key":"15084","name":"Burgenlandkreis","type":"Landkreis"},"federalState":{"key":"15","name":"Sachsen-Anhalt"}},{"name":"Domsener Str.","postalCode":"06686","locality":"Lützen","municipality":{"key":"15084315","name":"Lützen, Stadt","type":"Stadt"},"district":{"key":"15084","name":"Burgenlandkreis","type":"Landkreis"},"federalState":{"key":"15","name":"Sachsen-Anhalt"}},{"name":"Dorfstr.","postalCode":"06686","locality":"Lützen","municipality":{"key":"15084315","name":"Lützen, Stadt","type":"Stadt"},"district":{"key":"15084","name":"Burgenlandkreis","type":"Landkreis"},"federalState":{"key":"15","name":"Sachsen-Anhalt"}},{"name":"Drosselweg","postalCode":"06686","locality":"Lützen","municipality":{"key":"15084315","name":"Lützen, Stadt","type":"Stadt"},"district":{"key":"15084","name":"Burgenlandkreis","type":"Landkreis"},"federalState":{"key":"15","name":"Sachsen-Anhalt"}},{"name":"Dr.-Stöwesand-Str.","postalCode":"06686","locality":"Lützen","municipality":{"key":"15084315","name":"Lützen, Stadt","type":"Stadt"},"district":{"key":"15084","name":"Burgenlandkreis","type":"Landkreis"},"federalState":{"key":"15","name":"Sachsen-Anhalt"}},{"name":"Dr.-Voigt-Str.","postalCode":"06686","locality":"Lützen","municipality":{"key":"15084315","name":"Lützen, Stadt","type":"Stadt"},"district":{"key":"15084","name":"Burgenlandkreis","type":"Landkreis"},"federalState":{"key":"15","name":"Sachsen-Anhalt"}},{"name":"Eichenring","postalCode":"06686","locality":"Lützen","municipality":{"key":"15084315","name":"Lützen, Stadt","type":"Stadt"},"district":{"key":"15084","name":"Burgenlandkreis","type":"Landkreis"},"federalState":{"key":"15","name":"Sachsen-Anhalt"}},{"name":"Eichenstr.","postalCode":"06686","locality":"Lützen","municipality":{"key":"15084315","name":"Lützen, Stadt","type":"Stadt"},"district":{"key":"15084","name":"Burgenlandkreis","type":"Landkreis"},"federalState":{"key":"15","name":"Sachsen-Anhalt"}},{"name":"Eichhörnchenweg","postalCode":"06686","locality":"Lützen","municipality":{"key":"15084315","name":"Lützen, Stadt","type":"Stadt"},"district":{"key":"15084","name":"Burgenlandkreis","type":"Landkreis"},"federalState":{"key":"15","name":"Sachsen-Anhalt"}},{"name":"Elin-Str.","postalCode":"06686","locality":"Lützen","municipality":{"key":"15084315","name":"Lützen, Stadt","type":"Stadt"},"district":{"key":"15084","name":"Burgenlandkreis","type":"Landkreis"},"federalState":{"key":"15","name":"Sachsen-Anhalt"}},{"name":"Ellerbacher Weg","postalCode":"06686","locality":"Lützen","municipality":{"key":"15084315","name":"Lützen, Stadt","type":"Stadt"},"district":{"key":"15084","name":"Burgenlandkreis","type":"Landkreis"},"federalState":{"key":"15","name":"Sachsen-Anhalt"}},{"name":"Entenring","postalCode":"06686","locality":"Lützen","municipality":{"key":"15084315","name":"Lützen, Stadt","type":"Stadt"},"district":{"key":"15084","name":"Burgenlandkreis","type":"Landkreis"},"federalState":{"key":"15","name":"Sachsen-Anhalt"}},{"name":"Erlenweg","postalCode":"06686","locality":"Lützen","municipality":{"key":"15084315","name":"Lützen, Stadt","type":"Stadt"},"district":{"key":"15084","name":"Burgenlandkreis","type":"Landkreis"},"federalState":{"key":"15","name":"Sachsen-Anhalt"}},{"name":"Ernst-Thälmann-Str.","postalCode":"06686","locality":"Lützen","municipality":{"key":"15084315","name":"Lützen, Stadt","type":"Stadt"},"district":{"key":"15084","name":"Burgenlandkreis","type":"Landkreis"},"federalState":{"key":"15","name":"Sachsen-Anhalt"}},{"name":"Fährgasse","postalCode":"06686","locality":"Lützen","municipality":{"key":"15084315","name":"Lützen, Stadt","type":"Stadt"},"district":{"key":"15084","name":"Burgenlandkreis","type":"Landkreis"},"federalState":{"key":"15","name":"Sachsen-Anhalt"}},{"name":"Fasanenhöhe","postalCode":"06686","locality":"Lützen","municipality":{"key":"15084315","name":"Lützen, Stadt","type":"Stadt"},"district":{"key":"15084","name":"Burgenlandkreis","type":"Landkreis"},"federalState":{"key":"15","name":"Sachsen-Anhalt"}},{"name":"Fasanenweg","postalCode":"06686","locality":"Lützen","municipality":{"key":"15084315","name":"Lützen, Stadt","type":"Stadt"},"district":{"key":"15084","name":"Burgenlandkreis","type":"Landkreis"},"federalState":{"key":"15","name":"Sachsen-Anhalt"}},{"name":"Feldstr.","postalCode":"06686","locality":"Lützen","municipality":{"key":"15084315","name":"Lützen, Stadt","type":"Stadt"},"district":{"key":"15084","name":"Burgenlandkreis","type":"Landkreis"},"federalState":{"key":"15","name":"Sachsen-Anhalt"}},{"name":"Finkenweg","postalCode":"06686","locality":"Lützen","municipality":{"key":"15084315","name":"Lützen, Stadt","type":"Stadt"},"district":{"key":"15084","name":"Burgenlandkreis","type":"Landkreis"},"federalState":{"key":"15","name":"Sachsen-Anhalt"}},{"name":"Fliederweg","postalCode":"06686","locality":"Lützen","municipality":{"key":"15084315","name":"Lützen, Stadt","type":"Stadt"},"district":{"key":"15084","name":"Burgenlandkreis","type":"Landkreis"},"federalState":{"key":"15","name":"Sachsen-Anhalt"}},{"name":"Friedensstr.","postalCode":"06686","locality":"Lützen","municipality":{"key":"15084315","name":"Lützen, Stadt","type":"Stadt"},"district":{"key":"15084","name":"Burgenlandkreis","type":"Landkreis"},"federalState":{"key":"15","name":"Sachsen-Anhalt"}},{"name":"Friedhofsweg","postalCode":"06686","locality":"Lützen","municipality":{"key":"15084315","name":"Lützen, Stadt","type":"Stadt"},"district":{"key":"15084","name":"Burgenlandkreis","type":"Landkreis"},"federalState":{"key":"15","name":"Sachsen-Anhalt"}},{"name":"Friedrich-Engels-Str.","postalCode":"06686","locality":"Lützen","municipality":{"key":"15084315","name":"Lützen, Stadt","type":"Stadt"},"district":{"key":"15084","name":"Burgenlandkreis","type":"Landkreis"},"federalState":{"key":"15","name":"Sachsen-Anhalt"}},{"name":"Friedrich-Nietzsche-Str.","postalCode":"06686","locality":"Lützen","municipality":{"key":"15084315","name":"Lützen, Stadt","type":"Stadt"},"district":{"key":"15084","name":"Burgenlandkreis","type":"Landkreis"},"federalState":{"key":"15","name":"Sachsen-Anhalt"}},{"name":"F.-W.-Liebknecht-Str.","postalCode":"06686","locality":"Lützen","municipality":{"key":"15084315","name":"Lützen, Stadt","type":"Stadt"},"district":{"key":"15084","name":"Burgenlandkreis","type":"Landkreis"},"federalState":{"key":"15","name":"Sachsen-Anhalt"}},{"name":"Gneisenaustr.","postalCode":"06686","locality":"Lützen","municipality":{"key":"15084315","name":"Lützen, Stadt","type":"Stadt"},"district":{"key":"15084","name":"Burgenlandkreis","type":"Landkreis"},"federalState":{"key":"15","name":"Sachsen-Anhalt"}},{"name":"Gostauer Str.","postalCode":"06686","locality":"Lützen","municipality":{"key":"15084315","name":"Lützen, Stadt","type":"Stadt"},"district":{"key":"15084","name":"Burgenlandkreis","type":"Landkreis"},"federalState":{"key":"15","name":"Sachsen-Anhalt"}},{"name":"Gostauer Weg","postalCode":"06686","locality":"Lützen","municipality":{"key":"15084315","name":"Lützen, Stadt","type":"Stadt"},"district":{"key":"15084","name":"Burgenlandkreis","type":"Landkreis"},"federalState":{"key":"15","name":"Sachsen-Anhalt"}},{"name":"Göteborger Str.","postalCode":"06686","locality":"Lützen","municipality":{"key":"15084315","name":"Lützen, Stadt","type":"Stadt"},"district":{"key":"15084","name":"Burgenlandkreis","type":"Landkreis"},"federalState":{"key":"15","name":"Sachsen-Anhalt"}},{"name":"Göthewitzer Str.","postalCode":"06686","locality":"Lützen","municipality":{"key":"15084315","name":"Lützen, Stadt","type":"Stadt"},"district":{"key":"15084","name":"Burgenlandkreis","type":"Landkreis"},"federalState":{"key":"15","name":"Sachsen-Anhalt"}},{"name":"Göthewitzer Weg","postalCode":"06686","locality":"Lützen","municipality":{"key":"15084315","name":"Lützen, Stadt","type":"Stadt"},"district":{"key":"15084","name":"Burgenlandkreis","type":"Landkreis"},"federalState":{"key":"15","name":"Sachsen-Anhalt"}},{"name":"Großgörschener Str.","postalCode":"06686","locality":"Lützen","municipality":{"key":"15084315","name":"Lützen, Stadt","type":"Stadt"},"district":{"key":"15084","name":"Burgenlandkreis","type":"Landkreis"},"federalState":{"key":"15","name":"Sachsen-Anhalt"}},{"name":"Grunaustr.","postalCode":"06686","locality":"Lützen","municipality":{"key":"15084315","name":"Lützen, Stadt","type":"Stadt"},"district":{"key":"15084","name":"Burgenlandkreis","type":"Landkreis"},"federalState":{"key":"15","name":"Sachsen-Anhalt"}},{"name":"Grüne Aue","postalCode":"06686","locality":"Lützen","municipality":{"key":"15084315","name":"Lützen, Stadt","type":"Stadt"},"district":{"key":"15084","name":"Burgenlandkreis","type":"Landkreis"},"federalState":{"key":"15","name":"Sachsen-Anhalt"}},{"name":"Güntherstr.","postalCode":"06686","locality":"Lützen","municipality":{"key":"15084315","name":"Lützen, Stadt","type":"Stadt"},"district":{"key":"15084","name":"Burgenlandkreis","type":"Landkreis"},"federalState":{"key":"15","name":"Sachsen-Anhalt"}},{"name":"Gustav-Adolf-Str.","postalCode":"06686","locality":"Lützen","municipality":{"key":"15084315","name":"Lützen, Stadt","type":"Stadt"},"district":{"key":"15084","name":"Burgenlandkreis","type":"Landkreis"},"federalState":{"key":"15","name":"Sachsen-Anhalt"}},{"name":"Gut Aupitz","postalCode":"06686","locality":"Lützen","municipality":{"key":"15084315","name":"Lützen, Stadt","type":"Stadt"},"district":{"key":"15084","name":"Burgenlandkreis","type":"Landkreis"},"federalState":{"key":"15","name":"Sachsen-Anhalt"}},{"name":"Gutsherrenstr.","postalCode":"06686","locality":"Lützen","municipality":{"key":"15084315","name":"Lützen, Stadt","type":"Stadt"},"district":{"key":"15084","name":"Burgenlandkreis","type":"Landkreis"},"federalState":{"key":"15","name":"Sachsen-Anhalt"}},{"name":"Gutspark Dehlitz Saale","postalCode":"06686","locality":"Lützen","municipality":{"key":"15084315","name":"Lützen, Stadt","type":"Stadt"},"district":{"key":"15084","name":"Burgenlandkreis","type":"Landkreis"},"federalState":{"key":"15","name":"Sachsen-Anhalt"}},{"name":"Hallesche Str.","postalCode":"06686","locality":"Lützen","municipality":{"key":"15084315","name":"Lützen, Stadt","type":"Stadt"},"district":{"key":"15084","name":"Burgenlandkreis","type":"Landkreis"},"federalState":{"key":"15","name":"Sachsen-Anhalt"}},{"name":"Hamburger Zeile","postalCode":"06686","locality":"Lützen","municipality":{"key":"15084315","name":"Lützen, Stadt","type":"Stadt"},"district":{"key":"15084","name":"Burgenlandkreis","type":"Landkreis"},"federalState":{"key":"15","name":"Sachsen-Anhalt"}},{"name":"Hauptstr.","postalCode":"06686","locality":"Lützen","municipality":{"key":"15084315","name":"Lützen, Stadt","type":"Stadt"},"district":{"key":"15084","name":"Burgenlandkreis","type":"Landkreis"},"federalState":{"key":"15","name":"Sachsen-Anhalt"}},{"name":"Heerweg","postalCode":"06686","locality":"Lützen","municipality":{"key":"15084315","name":"Lützen, Stadt","type":"Stadt"},"district":{"key":"15084","name":"Burgenlandkreis","type":"Landkreis"},"federalState":{"key":"15","name":"Sachsen-Anhalt"}},{"name":"Hintergasse","postalCode":"06686","locality":"Lützen","municipality":{"key":"15084315","name":"Lützen, Stadt","type":"Stadt"},"district":{"key":"15084","name":"Burgenlandkreis","type":"Landkreis"},"federalState":{"key":"15","name":"Sachsen-Anhalt"}},{"name":"Hohenmölsener Str.","postalCode":"06686","locality":"Lützen","municipality":{"key":"15084315","name":"Lützen, Stadt","type":"Stadt"},"district":{"key":"15084","name":"Burgenlandkreis","type":"Landkreis"},"federalState":{"key":"15","name":"Sachsen-Anhalt"}},{"name":"Hospitalstr.","postalCode":"06686","locality":"Lützen","municipality":{"key":"15084315","name":"Lützen, Stadt","type":"Stadt"},"district":{"key":"15084","name":"Burgenlandkreis","type":"Landkreis"},"federalState":{"key":"15","name":"Sachsen-Anhalt"}},{"name":"Iedlung","postalCode":"06686","locality":"Lützen","municipality":{"key":"15084315","name":"Lützen, Stadt","type":"Stadt"},"district":{"key":"15084","name":"Burgenlandkreis","type":"Landkreis"},"federalState":{"key":"15","name":"Sachsen-Anhalt"}},{"name":"Im Grunautal","postalCode":"06686","locality":"Lützen","municipality":{"key":"15084315","name":"Lützen, Stadt","type":"Stadt"},"district":{"key":"15084","name":"Burgenlandkreis","type":"Landkreis"},"federalState":{"key":"15","name":"Sachsen-Anhalt"}},{"name":"Im Grunde","postalCode":"06686","locality":"Lützen","municipality":{"key":"15084315","name":"Lützen, Stadt","type":"Stadt"},"district":{"key":"15084","name":"Burgenlandkreis","type":"Landkreis"},"federalState":{"key":"15","name":"Sachsen-Anhalt"}},{"name":"Im Winkel","postalCode":"06686","locality":"Lützen","municipality":{"key":"15084315","name":"Lützen, Stadt","type":"Stadt"},"district":{"key":"15084","name":"Burgenlandkreis","type":"Landkreis"},"federalState":{"key":"15","name":"Sachsen-Anhalt"}},{"name":"Irrgarten","postalCode":"06686","locality":"Lützen","municipality":{"key":"15084315","name":"Lützen, Stadt","type":"Stadt"},"district":{"key":"15084","name":"Burgenlandkreis","type":"Landkreis"},"federalState":{"key":"15","name":"Sachsen-Anhalt"}},{"name":"Kalteneiser Str.","postalCode":"06686","locality":"Lützen","municipality":{"key":"15084315","name":"Lützen, Stadt","type":"Stadt"},"district":{"key":"15084","name":"Burgenlandkreis","type":"Landkreis"},"federalState":{"key":"15","name":"Sachsen-Anhalt"}},{"name":"Kaninchensteg","postalCode":"06686","locality":"Lützen","municipality":{"key":"15084315","name":"Lützen, Stadt","type":"Stadt"},"district":{"key":"15084","name":"Burgenlandkreis","type":"Landkreis"},"federalState":{"key":"15","name":"Sachsen-Anhalt"}},{"name":"Karl-Marx-Str.","postalCode":"06686","locality":"Lützen","municipality":{"key":"15084315","name":"Lützen, Stadt","type":"Stadt"},"district":{"key":"15084","name":"Burgenlandkreis","type":"Landkreis"},"federalState":{"key":"15","name":"Sachsen-Anhalt"}},{"name":"Kastanienweg","postalCode":"06686","locality":"Lützen","municipality":{"key":"15084315","name":"Lützen, Stadt","type":"Stadt"},"district":{"key":"15084","name":"Burgenlandkreis","type":"Landkreis"},"federalState":{"key":"15","name":"Sachsen-Anhalt"}},{"name":"Käuzchenweg","postalCode":"06686","locality":"Lützen","municipality":{"key":"15084315","name":"Lützen, Stadt","type":"Stadt"},"district":{"key":"15084","name":"Burgenlandkreis","type":"Landkreis"},"federalState":{"key":"15","name":"Sachsen-Anhalt"}},{"name":"Kiefernallee","postalCode":"06686","locality":"Lützen","municipality":{"key":"15084315","name":"Lützen, Stadt","type":"Stadt"},"district":{"key":"15084","name":"Burgenlandkreis","type":"Landkreis"},"federalState":{"key":"15","name":"Sachsen-Anhalt"}},{"name":"Kirchrain","postalCode":"06686","locality":"Lützen","municipality":{"key":"15084315","name":"Lützen, Stadt","type":"Stadt"},"district":{"key":"15084","name":"Burgenlandkreis","type":"Landkreis"},"federalState":{"key":"15","name":"Sachsen-Anhalt"}},{"name":"Kirchweg","postalCode":"06686","locality":"Lützen","municipality":{"key":"15084315","name":"Lützen, Stadt","type":"Stadt"},"district":{"key":"15084","name":"Burgenlandkreis","type":"Landkreis"},"federalState":{"key":"15","name":"Sachsen-Anhalt"}},{"name":"Kitzner Weg","postalCode":"06686","locality":"Lützen","municipality":{"key":"15084315","name":"Lützen, Stadt","type":"Stadt"},"district":{"key":"15084","name":"Burgenlandkreis","type":"Landkreis"},"federalState":{"key":"15","name":"Sachsen-Anhalt"}},{"name":"Kleefeldstr.","postalCode":"06686","locality":"Lützen","municipality":{"key":"15084315","name":"Lützen, Stadt","type":"Stadt"},"district":{"key":"15084","name":"Burgenlandkreis","type":"Landkreis"},"federalState":{"key":"15","name":"Sachsen-Anhalt"}},{"name":"Kölzener Str.","postalCode":"06686","locality":"Lützen","municipality":{"key":"15084315","name":"Lützen, Stadt","type":"Stadt"},"district":{"key":"15084","name":"Burgenlandkreis","type":"Landkreis"},"federalState":{"key":"15","name":"Sachsen-Anhalt"}},{"name":"Korbethaer Str.","postalCode":"06686","locality":"Lützen","municipality":{"key":"15084315","name":"Lützen, Stadt","type":"Stadt"},"district":{"key":"15084","name":"Burgenlandkreis","type":"Landkreis"},"federalState":{"key":"15","name":"Sachsen-Anhalt"}},{"name":"Kuckhoffstr.","postalCode":"06686","locality":"Lützen","municipality":{"key":"15084315","name":"Lützen, Stadt","type":"Stadt"},"district":{"key":"15084","name":"Burgenlandkreis","type":"Landkreis"},"federalState":{"key":"15","name":"Sachsen-Anhalt"}},{"name":"Kurt-Rauffus-Str.","postalCode":"06686","locality":"Lützen","municipality":{"key":"15084315","name":"Lützen, Stadt","type":"Stadt"},"district":{"key":"15084","name":"Burgenlandkreis","type":"Landkreis"},"federalState":{"key":"15","name":"Sachsen-Anhalt"}},{"name":"Langendorfer Weg","postalCode":"06686","locality":"Lützen","municipality":{"key":"15084315","name":"Lützen, Stadt","type":"Stadt"},"district":{"key":"15084","name":"Burgenlandkreis","type":"Landkreis"},"federalState":{"key":"15","name":"Sachsen-Anhalt"}},{"name":"Lange Str.","postalCode":"06686","locality":"Lützen","municipality":{"key":"15084315","name":"Lützen, Stadt","type":"Stadt"},"district":{"key":"15084","name":"Burgenlandkreis","type":"Landkreis"},"federalState":{"key":"15","name":"Sachsen-Anhalt"}},{"name":"Langhammerstr.","postalCode":"06686","locality":"Lützen","municipality":{"key":"15084315","name":"Lützen, Stadt","type":"Stadt"},"district":{"key":"15084","name":"Burgenlandkreis","type":"Landkreis"},"federalState":{"key":"15","name":"Sachsen-Anhalt"}},{"name":"Leipziger Str.","postalCode":"06686","locality":"Lützen","municipality":{"key":"15084315","name":"Lützen, Stadt","type":"Stadt"},"district":{"key":"15084","name":"Burgenlandkreis","type":"Landkreis"},"federalState":{"key":"15","name":"Sachsen-Anhalt"}},{"name":"Lessingstr.","postalCode":"06686","locality":"Lützen","municipality":{"key":"15084315","name":"Lützen, Stadt","type":"Stadt"},"district":{"key":"15084","name":"Burgenlandkreis","type":"Landkreis"},"federalState":{"key":"15","name":"Sachsen-Anhalt"}},{"name":"Lindenplatz","postalCode":"06686","locality":"Lützen","municipality":{"key":"15084315","name":"Lützen, Stadt","type":"Stadt"},"district":{"key":"15084","name":"Burgenlandkreis","type":"Landkreis"},"federalState":{"key":"15","name":"Sachsen-Anhalt"}},{"name":"Lindenring","postalCode":"06686","locality":"Lützen","municipality":{"key":"15084315","name":"Lützen, Stadt","type":"Stadt"},"district":{"key":"15084","name":"Burgenlandkreis","type":"Landkreis"},"federalState":{"key":"15","name":"Sachsen-Anhalt"}},{"name":"Lindenstr.","postalCode":"06686","locality":"Lützen","municipality":{"key":"15084315","name":"Lützen, Stadt","type":"Stadt"},"district":{"key":"15084","name":"Burgenlandkreis","type":"Landkreis"},"federalState":{"key":"15","name":"Sachsen-Anhalt"}},{"name":"Lindenweg","postalCode":"06686","locality":"Lützen","municipality":{"key":"15084315","name":"Lützen, Stadt","type":"Stadt"},"district":{"key":"15084","name":"Burgenlandkreis","type":"Landkreis"},"federalState":{"key":"15","name":"Sachsen-Anhalt"}},{"name":"Lösauer Weg","postalCode":"06686","locality":"Lützen","municipality":{"key":"15084315","name":"Lützen, Stadt","type":"Stadt"},"district":{"key":"15084","name":"Burgenlandkreis","type":"Landkreis"},"federalState":{"key":"15","name":"Sachsen-Anhalt"}},{"name":"Lützener Str.","postalCode":"06686","locality":"Lützen","municipality":{"key":"15084315","name":"Lützen, Stadt","type":"Stadt"},"district":{"key":"15084","name":"Burgenlandkreis","type":"Landkreis"},"federalState":{"key":"15","name":"Sachsen-Anhalt"}},{"name":"Lützower Str.","postalCode":"06686","locality":"Lützen","municipality":{"key":"15084315","name":"Lützen, Stadt","type":"Stadt"},"district":{"key":"15084","name":"Burgenlandkreis","type":"Landkreis"},"federalState":{"key":"15","name":"Sachsen-Anhalt"}},{"name":"Markt","postalCode":"06686","locality":"Lützen","municipality":{"key":"15084315","name":"Lützen, Stadt","type":"Stadt"},"district":{"key":"15084","name":"Burgenlandkreis","type":"Landkreis"},"federalState":{"key":"15","name":"Sachsen-Anhalt"}},{"name":"Martzschpark","postalCode":"06686","locality":"Lützen","municipality":{"key":"15084315","name":"Lützen, Stadt","type":"Stadt"},"district":{"key":"15084","name":"Burgenlandkreis","type":"Landkreis"},"federalState":{"key":"15","name":"Sachsen-Anhalt"}},{"name":"Martzschstr.","postalCode":"06686","locality":"Lützen","municipality":{"key":"15084315","name":"Lützen, Stadt","type":"Stadt"},"district":{"key":"15084","name":"Burgenlandkreis","type":"Landkreis"},"federalState":{"key":"15","name":"Sachsen-Anhalt"}},{"name":"Martzschweg","postalCode":"06686","locality":"Lützen","municipality":{"key":"15084315","name":"Lützen, Stadt","type":"Stadt"},"district":{"key":"15084","name":"Burgenlandkreis","type":"Landkreis"},"federalState":{"key":"15","name":"Sachsen-Anhalt"}},{"name":"Meisenweg","postalCode":"06686","locality":"Lützen","municipality":{"key":"15084315","name":"Lützen, Stadt","type":"Stadt"},"district":{"key":"15084","name":"Burgenlandkreis","type":"Landkreis"},"federalState":{"key":"15","name":"Sachsen-Anhalt"}},{"name":"Merseburger Str.","postalCode":"06686","locality":"Lützen","municipality":{"key":"15084315","name":"Lützen, Stadt","type":"Stadt"},"district":{"key":"15084","name":"Burgenlandkreis","type":"Landkreis"},"federalState":{"key":"15","name":"Sachsen-Anhalt"}},{"name":"Meuchener Str.","postalCode":"06686","locality":"Lützen","municipality":{"key":"15084315","name":"Lützen, Stadt","type":"Stadt"},"district":{"key":"15084","name":"Burgenlandkreis","type":"Landkreis"},"federalState":{"key":"15","name":"Sachsen-Anhalt"}},{"name":"Meuchener Weg","postalCode":"06686","locality":"Lützen","municipality":{"key":"15084315","name":"Lützen, Stadt","type":"Stadt"},"district":{"key":"15084","name":"Burgenlandkreis","type":"Landkreis"},"federalState":{"key":"15","name":"Sachsen-Anhalt"}},{"name":"Meyhener Str.","postalCode":"06686","locality":"Lützen","municipality":{"key":"15084315","name":"Lützen, Stadt","type":"Stadt"},"district":{"key":"15084","name":"Burgenlandkreis","type":"Landkreis"},"federalState":{"key":"15","name":"Sachsen-Anhalt"}},{"name":"Mitteldorf","postalCode":"06686","locality":"Lützen","municipality":{"key":"15084315","name":"Lützen, Stadt","type":"Stadt"},"district":{"key":"15084","name":"Burgenlandkreis","type":"Landkreis"},"federalState":{"key":"15","name":"Sachsen-Anhalt"}},{"name":"Mittelstr.","postalCode":"06686","locality":"Lützen","municipality":{"key":"15084315","name":"Lützen, Stadt","type":"Stadt"},"district":{"key":"15084","name":"Burgenlandkreis","type":"Landkreis"},"federalState":{"key":"15","name":"Sachsen-Anhalt"}},{"name":"Mühlbergstr.","postalCode":"06686","locality":"Lützen","municipality":{"key":"15084315","name":"Lützen, Stadt","type":"Stadt"},"district":{"key":"15084","name":"Burgenlandkreis","type":"Landkreis"},"federalState":{"key":"15","name":"Sachsen-Anhalt"}},{"name":"Mühlenstr.","postalCode":"06686","locality":"Lützen","municipality":{"key":"15084315","name":"Lützen, Stadt","type":"Stadt"},"district":{"key":"15084","name":"Burgenlandkreis","type":"Landkreis"},"federalState":{"key":"15","name":"Sachsen-Anhalt"}},{"name":"Mühlenweg","postalCode":"06686","locality":"Lützen","municipality":{"key":"15084315","name":"Lützen, Stadt","type":"Stadt"},"district":{"key":"15084","name":"Burgenlandkreis","type":"Landkreis"},"federalState":{"key":"15","name":"Sachsen-Anhalt"}},{"name":"Müller-Ludwig-Str.","postalCode":"06686","locality":"Lützen","municipality":{"key":"15084315","name":"Lützen, Stadt","type":"Stadt"},"district":{"key":"15084","name":"Burgenlandkreis","type":"Landkreis"},"federalState":{"key":"15","name":"Sachsen-Anhalt"}},{"name":"Muschwitzer Str.","postalCode":"06686","locality":"Lützen","municipality":{"key":"15084315","name":"Lützen, Stadt","type":"Stadt"},"district":{"key":"15084","name":"Burgenlandkreis","type":"Landkreis"},"federalState":{"key":"15","name":"Sachsen-Anhalt"}},{"name":"Nelkenweg","postalCode":"06686","locality":"Lützen","municipality":{"key":"15084315","name":"Lützen, Stadt","type":"Stadt"},"district":{"key":"15084","name":"Burgenlandkreis","type":"Landkreis"},"federalState":{"key":"15","name":"Sachsen-Anhalt"}},{"name":"Nellschütz","postalCode":"06686","locality":"Lützen","municipality":{"key":"15084315","name":"Lützen, Stadt","type":"Stadt"},"district":{"key":"15084","name":"Burgenlandkreis","type":"Landkreis"},"federalState":{"key":"15","name":"Sachsen-Anhalt"}},{"name":"Nellschützer Weg","postalCode":"06686","locality":"Lützen","municipality":{"key":"15084315","name":"Lützen, Stadt","type":"Stadt"},"district":{"key":"15084","name":"Burgenlandkreis","type":"Landkreis"},"federalState":{"key":"15","name":"Sachsen-Anhalt"}},{"name":"Nellschützer Winkel","postalCode":"06686","locality":"Lützen","municipality":{"key":"15084315","name":"Lützen, Stadt","type":"Stadt"},"district":{"key":"15084","name":"Burgenlandkreis","type":"Landkreis"},"federalState":{"key":"15","name":"Sachsen-Anhalt"}},{"name":"Neuer Weg","postalCode":"06686","locality":"Lützen","municipality":{"key":"15084315","name":"Lützen, Stadt","type":"Stadt"},"district":{"key":"15084","name":"Burgenlandkreis","type":"Landkreis"},"federalState":{"key":"15","name":"Sachsen-Anhalt"}},{"name":"Nordstr.","postalCode":"06686","locality":"Lützen","municipality":{"key":"15084315","name":"Lützen, Stadt","type":"Stadt"},"district":{"key":"15084","name":"Burgenlandkreis","type":"Landkreis"},"federalState":{"key":"15","name":"Sachsen-Anhalt"}},{"name":"Oetzscher Weg","postalCode":"06686","locality":"Lützen","municipality":{"key":"15084315","name":"Lützen, Stadt","type":"Stadt"},"district":{"key":"15084","name":"Burgenlandkreis","type":"Landkreis"},"federalState":{"key":"15","name":"Sachsen-Anhalt"}},{"name":"Pappelweg","postalCode":"06686","locality":"Lützen","municipality":{"key":"15084315","name":"Lützen, Stadt","type":"Stadt"},"district":{"key":"15084","name":"Burgenlandkreis","type":"Landkreis"},"federalState":{"key":"15","name":"Sachsen-Anhalt"}},{"name":"Pappenheimstr.","postalCode":"06686","locality":"Lützen","municipality":{"key":"15084315","name":"Lützen, Stadt","type":"Stadt"},"district":{"key":"15084","name":"Burgenlandkreis","type":"Landkreis"},"federalState":{"key":"15","name":"Sachsen-Anhalt"}},{"name":"Parkstr.","postalCode":"06686","locality":"Lützen","municipality":{"key":"15084315","name":"Lützen, Stadt","type":"Stadt"},"district":{"key":"15084","name":"Burgenlandkreis","type":"Landkreis"},"federalState":{"key":"15","name":"Sachsen-Anhalt"}},{"name":"Patterken","postalCode":"06686","locality":"Lützen","municipality":{"key":"15084315","name":"Lützen, Stadt","type":"Stadt"},"district":{"key":"15084","name":"Burgenlandkreis","type":"Landkreis"},"federalState":{"key":"15","name":"Sachsen-Anhalt"}},{"name":"Pegauer Weg","postalCode":"06686","locality":"Lützen","municipality":{"key":"15084315","name":"Lützen, Stadt","type":"Stadt"},"district":{"key":"15084","name":"Burgenlandkreis","type":"Landkreis"},"federalState":{"key":"15","name":"Sachsen-Anhalt"}},{"name":"Pestalozzistr.","postalCode":"06686","locality":"Lützen","municipality":{"key":"15084315","name":"Lützen, Stadt","type":"Stadt"},"district":{"key":"15084","name":"Burgenlandkreis","type":"Landkreis"},"federalState":{"key":"15","name":"Sachsen-Anhalt"}},{"name":"Petriweg","postalCode":"06686","locality":"Lützen","municipality":{"key":"15084315","name":"Lützen, Stadt","type":"Stadt"},"district":{"key":"15084","name":"Burgenlandkreis","type":"Landkreis"},"federalState":{"key":"15","name":"Sachsen-Anhalt"}},{"name":"Planweg","postalCode":"06686","locality":"Lützen","municipality":{"key":"15084315","name":"Lützen, Stadt","type":"Stadt"},"district":{"key":"15084","name":"Burgenlandkreis","type":"Landkreis"},"federalState":{"key":"15","name":"Sachsen-Anhalt"}},{"name":"Platz an der Eiche","postalCode":"06686","locality":"Lützen","municipality":{"key":"15084315","name":"Lützen, Stadt","type":"Stadt"},"district":{"key":"15084","name":"Burgenlandkreis","type":"Landkreis"},"federalState":{"key":"15","name":"Sachsen-Anhalt"}},{"name":"Platz der Jugend","postalCode":"06686","locality":"Lützen","municipality":{"key":"15084315","name":"Lützen, Stadt","type":"Stadt"},"district":{"key":"15084","name":"Burgenlandkreis","type":"Landkreis"},"federalState":{"key":"15","name":"Sachsen-Anhalt"}},{"name":"Platz des 21. September","postalCode":"06686","locality":"Lützen","municipality":{"key":"15084315","name":"Lützen, Stadt","type":"Stadt"},"district":{"key":"15084","name":"Burgenlandkreis","type":"Landkreis"},"federalState":{"key":"15","name":"Sachsen-Anhalt"}},{"name":"Platz des Aufbaus","postalCode":"06686","locality":"Lützen","municipality":{"key":"15084315","name":"Lützen, Stadt","type":"Stadt"},"district":{"key":"15084","name":"Burgenlandkreis","type":"Landkreis"},"federalState":{"key":"15","name":"Sachsen-Anhalt"}},{"name":"Poetenweg","postalCode":"06686","locality":"Lützen","municipality":{"key":"15084315","name":"Lützen, Stadt","type":"Stadt"},"district":{"key":"15084","name":"Burgenlandkreis","type":"Landkreis"},"federalState":{"key":"15","name":"Sachsen-Anhalt"}},{"name":"Promenade","postalCode":"06686","locality":"Lützen","municipality":{"key":"15084315","name":"Lützen, Stadt","type":"Stadt"},"district":{"key":"15084","name":"Burgenlandkreis","type":"Landkreis"},"federalState":{"key":"15","name":"Sachsen-Anhalt"}},{"name":"Ranisstr.","postalCode":"06686","locality":"Lützen","municipality":{"key":"15084315","name":"Lützen, Stadt","type":"Stadt"},"district":{"key":"15084","name":"Burgenlandkreis","type":"Landkreis"},"federalState":{"key":"15","name":"Sachsen-Anhalt"}},{"name":"Ring","postalCode":"06686","locality":"Lützen","municipality":{"key":"15084315","name":"Lützen, Stadt","type":"Stadt"},"district":{"key":"15084","name":"Burgenlandkreis","type":"Landkreis"},"federalState":{"key":"15","name":"Sachsen-Anhalt"}},{"name":"Rosental","postalCode":"06686","locality":"Lützen","municipality":{"key":"15084315","name":"Lützen, Stadt","type":"Stadt"},"district":{"key":"15084","name":"Burgenlandkreis","type":"Landkreis"},"federalState":{"key":"15","name":"Sachsen-Anhalt"}},{"name":"Rudolf-Breitscheid-Str.","postalCode":"06686","locality":"Lützen","municipality":{"key":"15084315","name":"Lützen, Stadt","type":"Stadt"},"district":{"key":"15084","name":"Burgenlandkreis","type":"Landkreis"},"federalState":{"key":"15","name":"Sachsen-Anhalt"}},{"name":"Saalestr.","postalCode":"06686","locality":"Lützen","municipality":{"key":"15084315","name":"Lützen, Stadt","type":"Stadt"},"district":{"key":"15084","name":"Burgenlandkreis","type":"Landkreis"},"federalState":{"key":"15","name":"Sachsen-Anhalt"}},{"name":"Safranberg","postalCode":"06686","locality":"Lützen","municipality":{"key":"15084315","name":"Lützen, Stadt","type":"Stadt"},"district":{"key":"15084","name":"Burgenlandkreis","type":"Landkreis"},"federalState":{"key":"15","name":"Sachsen-Anhalt"}},{"name":"Scharnhorstring","postalCode":"06686","locality":"Lützen","municipality":{"key":"15084315","name":"Lützen, Stadt","type":"Stadt"},"district":{"key":"15084","name":"Burgenlandkreis","type":"Landkreis"},"federalState":{"key":"15","name":"Sachsen-Anhalt"}},{"name":"Scharnhorststr.","postalCode":"06686","locality":"Lützen","municipality":{"key":"15084315","name":"Lützen, Stadt","type":"Stadt"},"district":{"key":"15084","name":"Burgenlandkreis","type":"Landkreis"},"federalState":{"key":"15","name":"Sachsen-Anhalt"}},{"name":"Schkölener Weg","postalCode":"06686","locality":"Lützen","municipality":{"key":"15084315","name":"Lützen, Stadt","type":"Stadt"},"district":{"key":"15084","name":"Burgenlandkreis","type":"Landkreis"},"federalState":{"key":"15","name":"Sachsen-Anhalt"}},{"name":"Schlosspark","postalCode":"06686","locality":"Lützen","municipality":{"key":"15084315","name":"Lützen, Stadt","type":"Stadt"},"district":{"key":"15084","name":"Burgenlandkreis","type":"Landkreis"},"federalState":{"key":"15","name":"Sachsen-Anhalt"}},{"name":"Schloßstr.","postalCode":"06686","locality":"Lützen","municipality":{"key":"15084315","name":"Lützen, Stadt","type":"Stadt"},"district":{"key":"15084","name":"Burgenlandkreis","type":"Landkreis"},"federalState":{"key":"15","name":"Sachsen-Anhalt"}},{"name":"Schmiedestr.","postalCode":"06686","locality":"Lützen","municipality":{"key":"15084315","name":"Lützen, Stadt","type":"Stadt"},"district":{"key":"15084","name":"Burgenlandkreis","type":"Landkreis"},"federalState":{"key":"15","name":"Sachsen-Anhalt"}},{"name":"Schubart-von-Kleefeld-Str.","postalCode":"06686","locality":"Lützen","municipality":{"key":"15084315","name":"Lützen, Stadt","type":"Stadt"},"district":{"key":"15084","name":"Burgenlandkreis","type":"Landkreis"},"federalState":{"key":"15","name":"Sachsen-Anhalt"}},{"name":"Schulstr.","postalCode":"06686","locality":"Lützen","municipality":{"key":"15084315","name":"Lützen, Stadt","type":"Stadt"},"district":{"key":"15084","name":"Burgenlandkreis","type":"Landkreis"},"federalState":{"key":"15","name":"Sachsen-Anhalt"}},{"name":"Schwabenweg","postalCode":"06686","locality":"Lützen","municipality":{"key":"15084315","name":"Lützen, Stadt","type":"Stadt"},"district":{"key":"15084","name":"Burgenlandkreis","type":"Landkreis"},"federalState":{"key":"15","name":"Sachsen-Anhalt"}},{"name":"Schweßwitzer Str.","postalCode":"06686","locality":"Lützen","municipality":{"key":"15084315","name":"Lützen, Stadt","type":"Stadt"},"district":{"key":"15084","name":"Burgenlandkreis","type":"Landkreis"},"federalState":{"key":"15","name":"Sachsen-Anhalt"}},{"name":"Selauer Str.","postalCode":"06686","locality":"Lützen","municipality":{"key":"15084315","name":"Lützen, Stadt","type":"Stadt"},"district":{"key":"15084","name":"Burgenlandkreis","type":"Landkreis"},"federalState":{"key":"15","name":"Sachsen-Anhalt"}},{"name":"Seumestr.","postalCode":"06686","locality":"Lützen","municipality":{"key":"15084315","name":"Lützen, Stadt","type":"Stadt"},"district":{"key":"15084","name":"Burgenlandkreis","type":"Landkreis"},"federalState":{"key":"15","name":"Sachsen-Anhalt"}},{"name":"Siedlung","postalCode":"06686","locality":"Lützen","municipality":{"key":"15084315","name":"Lützen, Stadt","type":"Stadt"},"district":{"key":"15084","name":"Burgenlandkreis","type":"Landkreis"},"federalState":{"key":"15","name":"Sachsen-Anhalt"}},{"name":"Söhestener Str.","postalCode":"06686","locality":"Lützen","municipality":{"key":"15084315","name":"Lützen, Stadt","type":"Stadt"},"district":{"key":"15084","name":"Burgenlandkreis","type":"Landkreis"},"federalState":{"key":"15","name":"Sachsen-Anhalt"}},{"name":"Sorbenaue","postalCode":"06686","locality":"Lützen","municipality":{"key":"15084315","name":"Lützen, Stadt","type":"Stadt"},"district":{"key":"15084","name":"Burgenlandkreis","type":"Landkreis"},"federalState":{"key":"15","name":"Sachsen-Anhalt"}},{"name":"Sperlingsweg","postalCode":"06686","locality":"Lützen","municipality":{"key":"15084315","name":"Lützen, Stadt","type":"Stadt"},"district":{"key":"15084","name":"Burgenlandkreis","type":"Landkreis"},"federalState":{"key":"15","name":"Sachsen-Anhalt"}},{"name":"Spielstr.","postalCode":"06686","locality":"Lützen","municipality":{"key":"15084315","name":"Lützen, Stadt","type":"Stadt"},"district":{"key":"15084","name":"Burgenlandkreis","type":"Landkreis"},"federalState":{"key":"15","name":"Sachsen-Anhalt"}},{"name":"Starsiedeler Str.","postalCode":"06686","locality":"Lützen","municipality":{"key":"15084315","name":"Lützen, Stadt","type":"Stadt"},"district":{"key":"15084","name":"Burgenlandkreis","type":"Landkreis"},"federalState":{"key":"15","name":"Sachsen-Anhalt"}},{"name":"Starsiedeler Weg","postalCode":"06686","locality":"Lützen","municipality":{"key":"15084315","name":"Lützen, Stadt","type":"Stadt"},"district":{"key":"15084","name":"Burgenlandkreis","type":"Landkreis"},"federalState":{"key":"15","name":"Sachsen-Anhalt"}},{"name":"Str. der Freundschaft","postalCode":"06686","locality":"Lützen","municipality":{"key":"15084315","name":"Lützen, Stadt","type":"Stadt"},"district":{"key":"15084","name":"Burgenlandkreis","type":"Landkreis"},"federalState":{"key":"15","name":"Sachsen-Anhalt"}},{"name":"Str. der Neuen Siedlung","postalCode":"06686","locality":"Lützen","municipality":{"key":"15084315","name":"Lützen, Stadt","type":"Stadt"},"district":{"key":"15084","name":"Burgenlandkreis","type":"Landkreis"},"federalState":{"key":"15","name":"Sachsen-Anhalt"}},{"name":"Südstr.","postalCode":"06686","locality":"Lützen","municipality":{"key":"15084315","name":"Lützen, Stadt","type":"Stadt"},"district":{"key":"15084","name":"Burgenlandkreis","type":"Landkreis"},"federalState":{"key":"15","name":"Sachsen-Anhalt"}},{"name":"Tauchaer Str.","postalCode":"06686","locality":"Lützen","municipality":{"key":"15084315","name":"Lützen, Stadt","type":"Stadt"},"district":{"key":"15084","name":"Burgenlandkreis","type":"Landkreis"},"federalState":{"key":"15","name":"Sachsen-Anhalt"}},{"name":"Teichstr.","postalCode":"06686","locality":"Lützen","municipality":{"key":"15084315","name":"Lützen, Stadt","type":"Stadt"},"district":{"key":"15084","name":"Burgenlandkreis","type":"Landkreis"},"federalState":{"key":"15","name":"Sachsen-Anhalt"}},{"name":"Theodor-Körner-Str.","postalCode":"06686","locality":"Lützen","municipality":{"key":"15084315","name":"Lützen, Stadt","type":"Stadt"},"district":{"key":"15084","name":"Burgenlandkreis","type":"Landkreis"},"federalState":{"key":"15","name":"Sachsen-Anhalt"}},{"name":"Thomas-Müntzer-Str.","postalCode":"06686","locality":"Lützen","municipality":{"key":"15084315","name":"Lützen, Stadt","type":"Stadt"},"district":{"key":"15084","name":"Burgenlandkreis","type":"Landkreis"},"federalState":{"key":"15","name":"Sachsen-Anhalt"}},{"name":"Unterdorf","postalCode":"06686","locality":"Lützen","municipality":{"key":"15084315","name":"Lützen, Stadt","type":"Stadt"},"district":{"key":"15084","name":"Burgenlandkreis","type":"Landkreis"},"federalState":{"key":"15","name":"Sachsen-Anhalt"}},{"name":"Unterer Sattelhof","postalCode":"06686","locality":"Lützen","municipality":{"key":"15084315","name":"Lützen, Stadt","type":"Stadt"},"district":{"key":"15084","name":"Burgenlandkreis","type":"Landkreis"},"federalState":{"key":"15","name":"Sachsen-Anhalt"}},{"name":"von-Bose-Str.","postalCode":"06686","locality":"Lützen","municipality":{"key":"15084315","name":"Lützen, Stadt","type":"Stadt"},"district":{"key":"15084","name":"Burgenlandkreis","type":"Landkreis"},"federalState":{"key":"15","name":"Sachsen-Anhalt"}},{"name":"Vorwerkstr.","postalCode":"06686","locality":"Lützen","municipality":{"key":"15084315","name":"Lützen, Stadt","type":"Stadt"},"district":{"key":"15084","name":"Burgenlandkreis","type":"Landkreis"},"federalState":{"key":"15","name":"Sachsen-Anhalt"}},{"name":"Wallensteinstr.","postalCode":"06686","locality":"Lützen","municipality":{"key":"15084315","name":"Lützen, Stadt","type":"Stadt"},"district":{"key":"15084","name":"Burgenlandkreis","type":"Landkreis"},"federalState":{"key":"15","name":"Sachsen-Anhalt"}},{"name":"Walter-Biering-Str.","postalCode":"06686","locality":"Lützen","municipality":{"key":"15084315","name":"Lützen, Stadt","type":"Stadt"},"district":{"key":"15084","name":"Burgenlandkreis","type":"Landkreis"},"federalState":{"key":"15","name":"Sachsen-Anhalt"}},{"name":"Weg nach Taucha","postalCode":"06686","locality":"Lützen","municipality":{"key":"15084315","name":"Lützen, Stadt","type":"Stadt"},"district":{"key":"15084","name":"Burgenlandkreis","type":"Landkreis"},"federalState":{"key":"15","name":"Sachsen-Anhalt"}},{"name":"Weißenfelser Str.","postalCode":"06686","locality":"Lützen","municipality":{"key":"15084315","name":"Lützen, Stadt","type":"Stadt"},"district":{"key":"15084","name":"Burgenlandkreis","type":"Landkreis"},"federalState":{"key":"15","name":"Sachsen-Anhalt"}},{"name":"Werbener Weg","postalCode":"06686","locality":"Lützen","municipality":{"key":"15084315","name":"Lützen, Stadt","type":"Stadt"},"district":{"key":"15084","name":"Burgenlandkreis","type":"Landkreis"},"federalState":{"key":"15","name":"Sachsen-Anhalt"}},{"name":"Wiesengasse","postalCode":"06686","locality":"Lützen","municipality":{"key":"15084315","name":"Lützen, Stadt","type":"Stadt"},"district":{"key":"15084","name":"Burgenlandkreis","type":"Landkreis"},"federalState":{"key":"15","name":"Sachsen-Anhalt"}},{"name":"Wiesenstr.","postalCode":"06686","locality":"Lützen","municipality":{"key":"15084315","name":"Lützen, Stadt","type":"Stadt"},"district":{"key":"15084","name":"Burgenlandkreis","type":"Landkreis"},"federalState":{"key":"15","name":"Sachsen-Anhalt"}},{"name":"Zeisigweg","postalCode":"06686","locality":"Lützen","municipality":{"key":"15084315","name":"Lützen, Stadt","type":"Stadt"},"district":{"key":"15084","name":"Burgenlandkreis","type":"Landkreis"},"federalState":{"key":"15","name":"Sachsen-Anhalt"}},{"name":"Zorbauer Bergstr.","postalCode":"06686","locality":"Lützen","municipality":{"key":"15084315","name":"Lützen, Stadt","type":"Stadt"},"district":{"key":"15084","name":"Burgenlandkreis","type":"Landkreis"},"federalState":{"key":"15","name":"Sachsen-Anhalt"}},{"name":"Zorbauer Hauptstr.","postalCode":"06686","locality":"Lützen","municipality":{"key":"15084315","name":"Lützen, Stadt","type":"Stadt"},"district":{"key":"15084","name":"Burgenlandkreis","type":"Landkreis"},"federalState":{"key":"15","name":"Sachsen-Anhalt"}},{"name":"Zorbauer Kreisel","postalCode":"06686","locality":"Lützen","municipality":{"key":"15084315","name":"Lützen, Stadt","type":"Stadt"},"district":{"key":"15084","name":"Burgenlandkreis","type":"Landkreis"},"federalState":{"key":"15","name":"Sachsen-Anhalt"}},{"name":"Zörbitzer Str.","postalCode":"06686","locality":"Lützen","municipality":{"key":"15084315","name":"Lützen, Stadt","type":"Stadt"},"district":{"key":"15084","name":"Burgenlandkreis","type":"Landkreis"},"federalState":{"key":"15","name":"Sachsen-Anhalt"}},{"name":"Zum Heerweg","postalCode":"06686","locality":"Lützen","municipality":{"key":"15084315","name":"Lützen, Stadt","type":"Stadt"},"district":{"key":"15084","name":"Burgenlandkreis","type":"Landkreis"},"federalState":{"key":"15","name":"Sachsen-Anhalt"}},{"name":"Zum Silberberg","postalCode":"06686","locality":"Lützen","municipality":{"key":"15084315","name":"Lützen, Stadt","type":"Stadt"},"district":{"key":"15084","name":"Burgenlandkreis","type":"Landkreis"},"federalState":{"key":"15","name":"Sachsen-Anhalt"}},{"name":"Zur Bockhole","postalCode":"06686","locality":"Lützen","municipality":{"key":"15084315","name":"Lützen, Stadt","type":"Stadt"},"district":{"key":"15084","name":"Burgenlandkreis","type":"Landkreis"},"federalState":{"key":"15","name":"Sachsen-Anhalt"}},]