[{"name":"Dorfstr.","postalCode":"07819","locality":"Mittelpöllnitz","municipality":{"key":"16075066","name":"Mittelpöllnitz","type":"Kreisangehörige_Gemeinde"},"district":{"key":"16075","name":"Saale-Orla-Kreis","type":"Landkreis"},"federalState":{"key":"16","name":"Thüringen"}},{"name":"Gartenstr.","postalCode":"07819","locality":"Mittelpöllnitz","municipality":{"key":"16075066","name":"Mittelpöllnitz","type":"Kreisangehörige_Gemeinde"},"district":{"key":"16075","name":"Saale-Orla-Kreis","type":"Landkreis"},"federalState":{"key":"16","name":"Thüringen"}},{"name":"Geraer Str.","postalCode":"07819","locality":"Mittelpöllnitz","municipality":{"key":"16075066","name":"Mittelpöllnitz","type":"Kreisangehörige_Gemeinde"},"district":{"key":"16075","name":"Saale-Orla-Kreis","type":"Landkreis"},"federalState":{"key":"16","name":"Thüringen"}},{"name":"Mittelpöllnitzer Str.","postalCode":"07819","locality":"Mittelpöllnitz","municipality":{"key":"16075066","name":"Mittelpöllnitz","type":"Kreisangehörige_Gemeinde"},"district":{"key":"16075","name":"Saale-Orla-Kreis","type":"Landkreis"},"federalState":{"key":"16","name":"Thüringen"}},{"name":"Neue Str.","postalCode":"07819","locality":"Mittelpöllnitz","municipality":{"key":"16075066","name":"Mittelpöllnitz","type":"Kreisangehörige_Gemeinde"},"district":{"key":"16075","name":"Saale-Orla-Kreis","type":"Landkreis"},"federalState":{"key":"16","name":"Thüringen"}},{"name":"Niederpöllnitzer Weg","postalCode":"07819","locality":"Mittelpöllnitz","municipality":{"key":"16075066","name":"Mittelpöllnitz","type":"Kreisangehörige_Gemeinde"},"district":{"key":"16075","name":"Saale-Orla-Kreis","type":"Landkreis"},"federalState":{"key":"16","name":"Thüringen"}},{"name":"Schulstr.","postalCode":"07819","locality":"Mittelpöllnitz","municipality":{"key":"16075066","name":"Mittelpöllnitz","type":"Kreisangehörige_Gemeinde"},"district":{"key":"16075","name":"Saale-Orla-Kreis","type":"Landkreis"},"federalState":{"key":"16","name":"Thüringen"}},{"name":"Str. des Friedens","postalCode":"07819","locality":"Mittelpöllnitz","municipality":{"key":"16075066","name":"Mittelpöllnitz","type":"Kreisangehörige_Gemeinde"},"district":{"key":"16075","name":"Saale-Orla-Kreis","type":"Landkreis"},"federalState":{"key":"16","name":"Thüringen"}},{"name":"Südstr.","postalCode":"07819","locality":"Mittelpöllnitz","municipality":{"key":"16075066","name":"Mittelpöllnitz","type":"Kreisangehörige_Gemeinde"},"district":{"key":"16075","name":"Saale-Orla-Kreis","type":"Landkreis"},"federalState":{"key":"16","name":"Thüringen"}},]