[{"name":"Ackerweg","postalCode":"79400","locality":"Kandern","municipality":{"key":"08336045","name":"Kandern, Stadt","type":"Stadt"},"district":{"key":"08336","name":"Lörrach","type":"Landkreis"},"federalState":{"key":"08","name":"Baden-Württemberg"}},{"name":"Albert-Eisele-Weg","postalCode":"79400","locality":"Kandern","municipality":{"key":"08336045","name":"Kandern, Stadt","type":"Stadt"},"district":{"key":"08336","name":"Lörrach","type":"Landkreis"},"federalState":{"key":"08","name":"Baden-Württemberg"}},{"name":"Alte Scheideckstr.","postalCode":"79400","locality":"Kandern","municipality":{"key":"08336045","name":"Kandern, Stadt","type":"Stadt"},"district":{"key":"08336","name":"Lörrach","type":"Landkreis"},"federalState":{"key":"08","name":"Baden-Württemberg"}},{"name":"Altmattblick","postalCode":"79400","locality":"Kandern","municipality":{"key":"08336045","name":"Kandern, Stadt","type":"Stadt"},"district":{"key":"08336","name":"Lörrach","type":"Landkreis"},"federalState":{"key":"08","name":"Baden-Württemberg"}},{"name":"Am Bach","postalCode":"79400","locality":"Kandern","municipality":{"key":"08336045","name":"Kandern, Stadt","type":"Stadt"},"district":{"key":"08336","name":"Lörrach","type":"Landkreis"},"federalState":{"key":"08","name":"Baden-Württemberg"}},{"name":"Amellenbuckweg","postalCode":"79400","locality":"Kandern","municipality":{"key":"08336045","name":"Kandern, Stadt","type":"Stadt"},"district":{"key":"08336","name":"Lörrach","type":"Landkreis"},"federalState":{"key":"08","name":"Baden-Württemberg"}},{"name":"Am Forsthausgarten","postalCode":"79400","locality":"Kandern","municipality":{"key":"08336045","name":"Kandern, Stadt","type":"Stadt"},"district":{"key":"08336","name":"Lörrach","type":"Landkreis"},"federalState":{"key":"08","name":"Baden-Württemberg"}},{"name":"Am Hamberg","postalCode":"79400","locality":"Kandern","municipality":{"key":"08336045","name":"Kandern, Stadt","type":"Stadt"},"district":{"key":"08336","name":"Lörrach","type":"Landkreis"},"federalState":{"key":"08","name":"Baden-Württemberg"}},{"name":"Am Häßler","postalCode":"79400","locality":"Kandern","municipality":{"key":"08336045","name":"Kandern, Stadt","type":"Stadt"},"district":{"key":"08336","name":"Lörrach","type":"Landkreis"},"federalState":{"key":"08","name":"Baden-Württemberg"}},{"name":"Am Herrenpfad","postalCode":"79400","locality":"Kandern","municipality":{"key":"08336045","name":"Kandern, Stadt","type":"Stadt"},"district":{"key":"08336","name":"Lörrach","type":"Landkreis"},"federalState":{"key":"08","name":"Baden-Württemberg"}},{"name":"Am Hüttstall","postalCode":"79400","locality":"Kandern","municipality":{"key":"08336045","name":"Kandern, Stadt","type":"Stadt"},"district":{"key":"08336","name":"Lörrach","type":"Landkreis"},"federalState":{"key":"08","name":"Baden-Württemberg"}},{"name":"Am Neuweg","postalCode":"79400","locality":"Kandern","municipality":{"key":"08336045","name":"Kandern, Stadt","type":"Stadt"},"district":{"key":"08336","name":"Lörrach","type":"Landkreis"},"federalState":{"key":"08","name":"Baden-Württemberg"}},{"name":"An der Fischermühle","postalCode":"79400","locality":"Kandern","municipality":{"key":"08336045","name":"Kandern, Stadt","type":"Stadt"},"district":{"key":"08336","name":"Lörrach","type":"Landkreis"},"federalState":{"key":"08","name":"Baden-Württemberg"}},{"name":"An der Kander","postalCode":"79400","locality":"Kandern","municipality":{"key":"08336045","name":"Kandern, Stadt","type":"Stadt"},"district":{"key":"08336","name":"Lörrach","type":"Landkreis"},"federalState":{"key":"08","name":"Baden-Württemberg"}},{"name":"An der Schwemme","postalCode":"79400","locality":"Kandern","municipality":{"key":"08336045","name":"Kandern, Stadt","type":"Stadt"},"district":{"key":"08336","name":"Lörrach","type":"Landkreis"},"federalState":{"key":"08","name":"Baden-Württemberg"}},{"name":"Auf dem Buck","postalCode":"79400","locality":"Kandern","municipality":{"key":"08336045","name":"Kandern, Stadt","type":"Stadt"},"district":{"key":"08336","name":"Lörrach","type":"Landkreis"},"federalState":{"key":"08","name":"Baden-Württemberg"}},{"name":"August-Macke-Str.","postalCode":"79400","locality":"Kandern","municipality":{"key":"08336045","name":"Kandern, Stadt","type":"Stadt"},"district":{"key":"08336","name":"Lörrach","type":"Landkreis"},"federalState":{"key":"08","name":"Baden-Württemberg"}},{"name":"Aumattweg","postalCode":"79400","locality":"Kandern","municipality":{"key":"08336045","name":"Kandern, Stadt","type":"Stadt"},"district":{"key":"08336","name":"Lörrach","type":"Landkreis"},"federalState":{"key":"08","name":"Baden-Württemberg"}},{"name":"Bachstr.","postalCode":"79400","locality":"Kandern","municipality":{"key":"08336045","name":"Kandern, Stadt","type":"Stadt"},"district":{"key":"08336","name":"Lörrach","type":"Landkreis"},"federalState":{"key":"08","name":"Baden-Württemberg"}},{"name":"Bahnhofstr.","postalCode":"79400","locality":"Kandern","municipality":{"key":"08336045","name":"Kandern, Stadt","type":"Stadt"},"district":{"key":"08336","name":"Lörrach","type":"Landkreis"},"federalState":{"key":"08","name":"Baden-Württemberg"}},{"name":"Baselblick","postalCode":"79400","locality":"Kandern","municipality":{"key":"08336045","name":"Kandern, Stadt","type":"Stadt"},"district":{"key":"08336","name":"Lörrach","type":"Landkreis"},"federalState":{"key":"08","name":"Baden-Württemberg"}},{"name":"Basler Str.","postalCode":"79400","locality":"Kandern","municipality":{"key":"08336045","name":"Kandern, Stadt","type":"Stadt"},"district":{"key":"08336","name":"Lörrach","type":"Landkreis"},"federalState":{"key":"08","name":"Baden-Württemberg"}},{"name":"Behlenstr.","postalCode":"79400","locality":"Kandern","municipality":{"key":"08336045","name":"Kandern, Stadt","type":"Stadt"},"district":{"key":"08336","name":"Lörrach","type":"Landkreis"},"federalState":{"key":"08","name":"Baden-Württemberg"}},{"name":"Belchenstr.","postalCode":"79400","locality":"Kandern","municipality":{"key":"08336045","name":"Kandern, Stadt","type":"Stadt"},"district":{"key":"08336","name":"Lörrach","type":"Landkreis"},"federalState":{"key":"08","name":"Baden-Württemberg"}},{"name":"Bergwerkstr.","postalCode":"79400","locality":"Kandern","municipality":{"key":"08336045","name":"Kandern, Stadt","type":"Stadt"},"district":{"key":"08336","name":"Lörrach","type":"Landkreis"},"federalState":{"key":"08","name":"Baden-Württemberg"}},{"name":"Bibelis","postalCode":"79400","locality":"Kandern","municipality":{"key":"08336045","name":"Kandern, Stadt","type":"Stadt"},"district":{"key":"08336","name":"Lörrach","type":"Landkreis"},"federalState":{"key":"08","name":"Baden-Württemberg"}},{"name":"Bibelisgasse","postalCode":"79400","locality":"Kandern","municipality":{"key":"08336045","name":"Kandern, Stadt","type":"Stadt"},"district":{"key":"08336","name":"Lörrach","type":"Landkreis"},"federalState":{"key":"08","name":"Baden-Württemberg"}},{"name":"Birkenmoosweg","postalCode":"79400","locality":"Kandern","municipality":{"key":"08336045","name":"Kandern, Stadt","type":"Stadt"},"district":{"key":"08336","name":"Lörrach","type":"Landkreis"},"federalState":{"key":"08","name":"Baden-Württemberg"}},{"name":"Blauenstr.","postalCode":"79400","locality":"Kandern","municipality":{"key":"08336045","name":"Kandern, Stadt","type":"Stadt"},"district":{"key":"08336","name":"Lörrach","type":"Landkreis"},"federalState":{"key":"08","name":"Baden-Württemberg"}},{"name":"Blumenmühlgasse","postalCode":"79400","locality":"Kandern","municipality":{"key":"08336045","name":"Kandern, Stadt","type":"Stadt"},"district":{"key":"08336","name":"Lörrach","type":"Landkreis"},"federalState":{"key":"08","name":"Baden-Württemberg"}},{"name":"Blumenplatz","postalCode":"79400","locality":"Kandern","municipality":{"key":"08336045","name":"Kandern, Stadt","type":"Stadt"},"district":{"key":"08336","name":"Lörrach","type":"Landkreis"},"federalState":{"key":"08","name":"Baden-Württemberg"}},{"name":"Böscherzenweg","postalCode":"79400","locality":"Kandern","municipality":{"key":"08336045","name":"Kandern, Stadt","type":"Stadt"},"district":{"key":"08336","name":"Lörrach","type":"Landkreis"},"federalState":{"key":"08","name":"Baden-Württemberg"}},{"name":"Breitestr.","postalCode":"79400","locality":"Kandern","municipality":{"key":"08336045","name":"Kandern, Stadt","type":"Stadt"},"district":{"key":"08336","name":"Lörrach","type":"Landkreis"},"federalState":{"key":"08","name":"Baden-Württemberg"}},{"name":"Breitiweg","postalCode":"79400","locality":"Kandern","municipality":{"key":"08336045","name":"Kandern, Stadt","type":"Stadt"},"district":{"key":"08336","name":"Lörrach","type":"Landkreis"},"federalState":{"key":"08","name":"Baden-Württemberg"}},{"name":"Bruckmühle","postalCode":"79400","locality":"Kandern","municipality":{"key":"08336045","name":"Kandern, Stadt","type":"Stadt"},"district":{"key":"08336","name":"Lörrach","type":"Landkreis"},"federalState":{"key":"08","name":"Baden-Württemberg"}},{"name":"Brunnenstr.","postalCode":"79400","locality":"Kandern","municipality":{"key":"08336045","name":"Kandern, Stadt","type":"Stadt"},"district":{"key":"08336","name":"Lörrach","type":"Landkreis"},"federalState":{"key":"08","name":"Baden-Württemberg"}},{"name":"Brunnrain","postalCode":"79400","locality":"Kandern","municipality":{"key":"08336045","name":"Kandern, Stadt","type":"Stadt"},"district":{"key":"08336","name":"Lörrach","type":"Landkreis"},"federalState":{"key":"08","name":"Baden-Württemberg"}},{"name":"Buchholenweg","postalCode":"79400","locality":"Kandern","municipality":{"key":"08336045","name":"Kandern, Stadt","type":"Stadt"},"district":{"key":"08336","name":"Lörrach","type":"Landkreis"},"federalState":{"key":"08","name":"Baden-Württemberg"}},{"name":"Bühlstr.","postalCode":"79400","locality":"Kandern","municipality":{"key":"08336045","name":"Kandern, Stadt","type":"Stadt"},"district":{"key":"08336","name":"Lörrach","type":"Landkreis"},"federalState":{"key":"08","name":"Baden-Württemberg"}},{"name":"Bühlweg","postalCode":"79400","locality":"Kandern","municipality":{"key":"08336045","name":"Kandern, Stadt","type":"Stadt"},"district":{"key":"08336","name":"Lörrach","type":"Landkreis"},"federalState":{"key":"08","name":"Baden-Württemberg"}},{"name":"Burgbergweg","postalCode":"79400","locality":"Kandern","municipality":{"key":"08336045","name":"Kandern, Stadt","type":"Stadt"},"district":{"key":"08336","name":"Lörrach","type":"Landkreis"},"federalState":{"key":"08","name":"Baden-Württemberg"}},{"name":"Burggrabenweg","postalCode":"79400","locality":"Kandern","municipality":{"key":"08336045","name":"Kandern, Stadt","type":"Stadt"},"district":{"key":"08336","name":"Lörrach","type":"Landkreis"},"federalState":{"key":"08","name":"Baden-Württemberg"}},{"name":"Burghaldenweg","postalCode":"79400","locality":"Kandern","municipality":{"key":"08336045","name":"Kandern, Stadt","type":"Stadt"},"district":{"key":"08336","name":"Lörrach","type":"Landkreis"},"federalState":{"key":"08","name":"Baden-Württemberg"}},{"name":"Burgholeebene","postalCode":"79400","locality":"Kandern","municipality":{"key":"08336045","name":"Kandern, Stadt","type":"Stadt"},"district":{"key":"08336","name":"Lörrach","type":"Landkreis"},"federalState":{"key":"08","name":"Baden-Württemberg"}},{"name":"Bürgler Str.","postalCode":"79400","locality":"Kandern","municipality":{"key":"08336045","name":"Kandern, Stadt","type":"Stadt"},"district":{"key":"08336","name":"Lörrach","type":"Landkreis"},"federalState":{"key":"08","name":"Baden-Württemberg"}},{"name":"Bürglerweg","postalCode":"79400","locality":"Kandern","municipality":{"key":"08336045","name":"Kandern, Stadt","type":"Stadt"},"district":{"key":"08336","name":"Lörrach","type":"Landkreis"},"federalState":{"key":"08","name":"Baden-Württemberg"}},{"name":"Burgstr.","postalCode":"79400","locality":"Kandern","municipality":{"key":"08336045","name":"Kandern, Stadt","type":"Stadt"},"district":{"key":"08336","name":"Lörrach","type":"Landkreis"},"federalState":{"key":"08","name":"Baden-Württemberg"}},{"name":"Burgunderstr.","postalCode":"79400","locality":"Kandern","municipality":{"key":"08336045","name":"Kandern, Stadt","type":"Stadt"},"district":{"key":"08336","name":"Lörrach","type":"Landkreis"},"federalState":{"key":"08","name":"Baden-Württemberg"}},{"name":"Burgweg","postalCode":"79400","locality":"Kandern","municipality":{"key":"08336045","name":"Kandern, Stadt","type":"Stadt"},"district":{"key":"08336","name":"Lörrach","type":"Landkreis"},"federalState":{"key":"08","name":"Baden-Württemberg"}},{"name":"Carl-Keller-Weg","postalCode":"79539","locality":"Lörrach","municipality":{"key":"08336050","name":"Lörrach, Stadt","type":"Große_Kreisstadt"},"district":{"key":"08336","name":"Lörrach","type":"Landkreis"},"federalState":{"key":"08","name":"Baden-Württemberg"}},{"name":"Carl-Maria-von-Weber-Str.","postalCode":"79540","locality":"Lörrach","municipality":{"key":"08336050","name":"Lörrach, Stadt","type":"Große_Kreisstadt"},"district":{"key":"08336","name":"Lörrach","type":"Landkreis"},"federalState":{"key":"08","name":"Baden-Württemberg"}},{"name":"Chesterplatz","postalCode":"79539","locality":"Lörrach","municipality":{"key":"08336050","name":"Lörrach, Stadt","type":"Große_Kreisstadt"},"district":{"key":"08336","name":"Lörrach","type":"Landkreis"},"federalState":{"key":"08","name":"Baden-Württemberg"}},{"name":"Chrischonastr.","postalCode":"79540","locality":"Lörrach","municipality":{"key":"08336050","name":"Lörrach, Stadt","type":"Große_Kreisstadt"},"district":{"key":"08336","name":"Lörrach","type":"Landkreis"},"federalState":{"key":"08","name":"Baden-Württemberg"}},{"name":"Clara-Immerwahr-Str.","postalCode":"79540","locality":"Lörrach","municipality":{"key":"08336050","name":"Lörrach, Stadt","type":"Große_Kreisstadt"},"district":{"key":"08336","name":"Lörrach","type":"Landkreis"},"federalState":{"key":"08","name":"Baden-Württemberg"}},{"name":"Dachenholenweg","postalCode":"79400","locality":"Kandern","municipality":{"key":"08336045","name":"Kandern, Stadt","type":"Stadt"},"district":{"key":"08336","name":"Lörrach","type":"Landkreis"},"federalState":{"key":"08","name":"Baden-Württemberg"}},{"name":"Dachsbauweg","postalCode":"79400","locality":"Kandern","municipality":{"key":"08336045","name":"Kandern, Stadt","type":"Stadt"},"district":{"key":"08336","name":"Lörrach","type":"Landkreis"},"federalState":{"key":"08","name":"Baden-Württemberg"}},{"name":"Deckemattstr.","postalCode":"79400","locality":"Kandern","municipality":{"key":"08336045","name":"Kandern, Stadt","type":"Stadt"},"district":{"key":"08336","name":"Lörrach","type":"Landkreis"},"federalState":{"key":"08","name":"Baden-Württemberg"}},{"name":"Dorfblick","postalCode":"79400","locality":"Kandern","municipality":{"key":"08336045","name":"Kandern, Stadt","type":"Stadt"},"district":{"key":"08336","name":"Lörrach","type":"Landkreis"},"federalState":{"key":"08","name":"Baden-Württemberg"}},{"name":"Ebener Weg","postalCode":"79400","locality":"Kandern","municipality":{"key":"08336045","name":"Kandern, Stadt","type":"Stadt"},"district":{"key":"08336","name":"Lörrach","type":"Landkreis"},"federalState":{"key":"08","name":"Baden-Württemberg"}},{"name":"Edelmatt","postalCode":"79400","locality":"Kandern","municipality":{"key":"08336045","name":"Kandern, Stadt","type":"Stadt"},"district":{"key":"08336","name":"Lörrach","type":"Landkreis"},"federalState":{"key":"08","name":"Baden-Württemberg"}},{"name":"Egertenstr.","postalCode":"79400","locality":"Kandern","municipality":{"key":"08336045","name":"Kandern, Stadt","type":"Stadt"},"district":{"key":"08336","name":"Lörrach","type":"Landkreis"},"federalState":{"key":"08","name":"Baden-Württemberg"}},{"name":"Eggener Str.","postalCode":"79400","locality":"Kandern","municipality":{"key":"08336045","name":"Kandern, Stadt","type":"Stadt"},"district":{"key":"08336","name":"Lörrach","type":"Landkreis"},"federalState":{"key":"08","name":"Baden-Württemberg"}},{"name":"Eichbuckweg","postalCode":"79400","locality":"Kandern","municipality":{"key":"08336045","name":"Kandern, Stadt","type":"Stadt"},"district":{"key":"08336","name":"Lörrach","type":"Landkreis"},"federalState":{"key":"08","name":"Baden-Württemberg"}},{"name":"Eichenweg","postalCode":"79400","locality":"Kandern","municipality":{"key":"08336045","name":"Kandern, Stadt","type":"Stadt"},"district":{"key":"08336","name":"Lörrach","type":"Landkreis"},"federalState":{"key":"08","name":"Baden-Württemberg"}},{"name":"Einigweg","postalCode":"79400","locality":"Kandern","municipality":{"key":"08336045","name":"Kandern, Stadt","type":"Stadt"},"district":{"key":"08336","name":"Lörrach","type":"Landkreis"},"federalState":{"key":"08","name":"Baden-Württemberg"}},{"name":"Eitentalweg","postalCode":"79400","locality":"Kandern","municipality":{"key":"08336045","name":"Kandern, Stadt","type":"Stadt"},"district":{"key":"08336","name":"Lörrach","type":"Landkreis"},"federalState":{"key":"08","name":"Baden-Württemberg"}},{"name":"Enzenbergweg","postalCode":"79400","locality":"Kandern","municipality":{"key":"08336045","name":"Kandern, Stadt","type":"Stadt"},"district":{"key":"08336","name":"Lörrach","type":"Landkreis"},"federalState":{"key":"08","name":"Baden-Württemberg"}},{"name":"Erdweg","postalCode":"79400","locality":"Kandern","municipality":{"key":"08336045","name":"Kandern, Stadt","type":"Stadt"},"district":{"key":"08336","name":"Lörrach","type":"Landkreis"},"federalState":{"key":"08","name":"Baden-Württemberg"}},{"name":"Eselplatzweg","postalCode":"79400","locality":"Kandern","municipality":{"key":"08336045","name":"Kandern, Stadt","type":"Stadt"},"district":{"key":"08336","name":"Lörrach","type":"Landkreis"},"federalState":{"key":"08","name":"Baden-Württemberg"}},{"name":"Ettinger Bergweg","postalCode":"79400","locality":"Kandern","municipality":{"key":"08336045","name":"Kandern, Stadt","type":"Stadt"},"district":{"key":"08336","name":"Lörrach","type":"Landkreis"},"federalState":{"key":"08","name":"Baden-Württemberg"}},{"name":"Ettinger Str.","postalCode":"79400","locality":"Kandern","municipality":{"key":"08336045","name":"Kandern, Stadt","type":"Stadt"},"district":{"key":"08336","name":"Lörrach","type":"Landkreis"},"federalState":{"key":"08","name":"Baden-Württemberg"}},{"name":"Eulenlochweg","postalCode":"79400","locality":"Kandern","municipality":{"key":"08336045","name":"Kandern, Stadt","type":"Stadt"},"district":{"key":"08336","name":"Lörrach","type":"Landkreis"},"federalState":{"key":"08","name":"Baden-Württemberg"}},{"name":"Fasanengarten","postalCode":"79400","locality":"Kandern","municipality":{"key":"08336045","name":"Kandern, Stadt","type":"Stadt"},"district":{"key":"08336","name":"Lörrach","type":"Landkreis"},"federalState":{"key":"08","name":"Baden-Württemberg"}},{"name":"Fasanengartenweg","postalCode":"79400","locality":"Kandern","municipality":{"key":"08336045","name":"Kandern, Stadt","type":"Stadt"},"district":{"key":"08336","name":"Lörrach","type":"Landkreis"},"federalState":{"key":"08","name":"Baden-Württemberg"}},{"name":"Feuerbacherholzweg","postalCode":"79400","locality":"Kandern","municipality":{"key":"08336045","name":"Kandern, Stadt","type":"Stadt"},"district":{"key":"08336","name":"Lörrach","type":"Landkreis"},"federalState":{"key":"08","name":"Baden-Württemberg"}},{"name":"Flühgasse","postalCode":"79400","locality":"Kandern","municipality":{"key":"08336045","name":"Kandern, Stadt","type":"Stadt"},"district":{"key":"08336","name":"Lörrach","type":"Landkreis"},"federalState":{"key":"08","name":"Baden-Württemberg"}},{"name":"Flühweg","postalCode":"79400","locality":"Kandern","municipality":{"key":"08336045","name":"Kandern, Stadt","type":"Stadt"},"district":{"key":"08336","name":"Lörrach","type":"Landkreis"},"federalState":{"key":"08","name":"Baden-Württemberg"}},{"name":"Franz-von-Sales-Weg","postalCode":"79400","locality":"Kandern","municipality":{"key":"08336045","name":"Kandern, Stadt","type":"Stadt"},"district":{"key":"08336","name":"Lörrach","type":"Landkreis"},"federalState":{"key":"08","name":"Baden-Württemberg"}},{"name":"Friedrich-Hecker-Str.","postalCode":"79400","locality":"Kandern","municipality":{"key":"08336045","name":"Kandern, Stadt","type":"Stadt"},"district":{"key":"08336","name":"Lörrach","type":"Landkreis"},"federalState":{"key":"08","name":"Baden-Württemberg"}},{"name":"Fuchsrain","postalCode":"79400","locality":"Kandern","municipality":{"key":"08336045","name":"Kandern, Stadt","type":"Stadt"},"district":{"key":"08336","name":"Lörrach","type":"Landkreis"},"federalState":{"key":"08","name":"Baden-Württemberg"}},{"name":"Furtweg","postalCode":"79400","locality":"Kandern","municipality":{"key":"08336045","name":"Kandern, Stadt","type":"Stadt"},"district":{"key":"08336","name":"Lörrach","type":"Landkreis"},"federalState":{"key":"08","name":"Baden-Württemberg"}},{"name":"Gaishaldenweg","postalCode":"79400","locality":"Kandern","municipality":{"key":"08336045","name":"Kandern, Stadt","type":"Stadt"},"district":{"key":"08336","name":"Lörrach","type":"Landkreis"},"federalState":{"key":"08","name":"Baden-Württemberg"}},{"name":"Gartenstr.","postalCode":"79400","locality":"Kandern","municipality":{"key":"08336045","name":"Kandern, Stadt","type":"Stadt"},"district":{"key":"08336","name":"Lörrach","type":"Landkreis"},"federalState":{"key":"08","name":"Baden-Württemberg"}},{"name":"Gehrenweg","postalCode":"79400","locality":"Kandern","municipality":{"key":"08336045","name":"Kandern, Stadt","type":"Stadt"},"district":{"key":"08336","name":"Lörrach","type":"Landkreis"},"federalState":{"key":"08","name":"Baden-Württemberg"}},{"name":"Glashüttenbodenweg","postalCode":"79400","locality":"Kandern","municipality":{"key":"08336045","name":"Kandern, Stadt","type":"Stadt"},"district":{"key":"08336","name":"Lörrach","type":"Landkreis"},"federalState":{"key":"08","name":"Baden-Württemberg"}},{"name":"Glashüttenweg","postalCode":"79400","locality":"Kandern","municipality":{"key":"08336045","name":"Kandern, Stadt","type":"Stadt"},"district":{"key":"08336","name":"Lörrach","type":"Landkreis"},"federalState":{"key":"08","name":"Baden-Württemberg"}},{"name":"Grubenweg","postalCode":"79400","locality":"Kandern","municipality":{"key":"08336045","name":"Kandern, Stadt","type":"Stadt"},"district":{"key":"08336","name":"Lörrach","type":"Landkreis"},"federalState":{"key":"08","name":"Baden-Württemberg"}},{"name":"Gupfweg","postalCode":"79400","locality":"Kandern","municipality":{"key":"08336045","name":"Kandern, Stadt","type":"Stadt"},"district":{"key":"08336","name":"Lörrach","type":"Landkreis"},"federalState":{"key":"08","name":"Baden-Württemberg"}},{"name":"Haagener Weg","postalCode":"79400","locality":"Kandern","municipality":{"key":"08336045","name":"Kandern, Stadt","type":"Stadt"},"district":{"key":"08336","name":"Lörrach","type":"Landkreis"},"federalState":{"key":"08","name":"Baden-Württemberg"}},{"name":"Hafnergasse","postalCode":"79400","locality":"Kandern","municipality":{"key":"08336045","name":"Kandern, Stadt","type":"Stadt"},"district":{"key":"08336","name":"Lörrach","type":"Landkreis"},"federalState":{"key":"08","name":"Baden-Württemberg"}},{"name":"Hammersteiner Str.","postalCode":"79400","locality":"Kandern","municipality":{"key":"08336045","name":"Kandern, Stadt","type":"Stadt"},"district":{"key":"08336","name":"Lörrach","type":"Landkreis"},"federalState":{"key":"08","name":"Baden-Württemberg"}},{"name":"Hans-Hammerstein-Str.","postalCode":"79400","locality":"Kandern","municipality":{"key":"08336045","name":"Kandern, Stadt","type":"Stadt"},"district":{"key":"08336","name":"Lörrach","type":"Landkreis"},"federalState":{"key":"08","name":"Baden-Württemberg"}},{"name":"Hauptstr.","postalCode":"79400","locality":"Kandern","municipality":{"key":"08336045","name":"Kandern, Stadt","type":"Stadt"},"district":{"key":"08336","name":"Lörrach","type":"Landkreis"},"federalState":{"key":"08","name":"Baden-Württemberg"}},{"name":"Hebelstr.","postalCode":"79400","locality":"Kandern","municipality":{"key":"08336045","name":"Kandern, Stadt","type":"Stadt"},"district":{"key":"08336","name":"Lörrach","type":"Landkreis"},"federalState":{"key":"08","name":"Baden-Württemberg"}},{"name":"Heinrich-Bösiger-Str.","postalCode":"79400","locality":"Kandern","municipality":{"key":"08336045","name":"Kandern, Stadt","type":"Stadt"},"district":{"key":"08336","name":"Lörrach","type":"Landkreis"},"federalState":{"key":"08","name":"Baden-Württemberg"}},{"name":"Hermann-Burte-Str.","postalCode":"79400","locality":"Kandern","municipality":{"key":"08336045","name":"Kandern, Stadt","type":"Stadt"},"district":{"key":"08336","name":"Lörrach","type":"Landkreis"},"federalState":{"key":"08","name":"Baden-Württemberg"}},{"name":"Hermanns Ruh","postalCode":"79400","locality":"Kandern","municipality":{"key":"08336045","name":"Kandern, Stadt","type":"Stadt"},"district":{"key":"08336","name":"Lörrach","type":"Landkreis"},"federalState":{"key":"08","name":"Baden-Württemberg"}},{"name":"Hermann-Zäh-Verbindungsweg","postalCode":"79400","locality":"Kandern","municipality":{"key":"08336045","name":"Kandern, Stadt","type":"Stadt"},"district":{"key":"08336","name":"Lörrach","type":"Landkreis"},"federalState":{"key":"08","name":"Baden-Württemberg"}},{"name":"Hermann-Zäh-Weg","postalCode":"79400","locality":"Kandern","municipality":{"key":"08336045","name":"Kandern, Stadt","type":"Stadt"},"district":{"key":"08336","name":"Lörrach","type":"Landkreis"},"federalState":{"key":"08","name":"Baden-Württemberg"}},{"name":"Hessensträßchen","postalCode":"79400","locality":"Kandern","municipality":{"key":"08336045","name":"Kandern, Stadt","type":"Stadt"},"district":{"key":"08336","name":"Lörrach","type":"Landkreis"},"federalState":{"key":"08","name":"Baden-Württemberg"}},{"name":"Heubergstr.","postalCode":"79400","locality":"Kandern","municipality":{"key":"08336045","name":"Kandern, Stadt","type":"Stadt"},"district":{"key":"08336","name":"Lörrach","type":"Landkreis"},"federalState":{"key":"08","name":"Baden-Württemberg"}},{"name":"Hinterbergweg","postalCode":"79400","locality":"Kandern","municipality":{"key":"08336045","name":"Kandern, Stadt","type":"Stadt"},"district":{"key":"08336","name":"Lörrach","type":"Landkreis"},"federalState":{"key":"08","name":"Baden-Württemberg"}},{"name":"Hintergasse","postalCode":"79400","locality":"Kandern","municipality":{"key":"08336045","name":"Kandern, Stadt","type":"Stadt"},"district":{"key":"08336","name":"Lörrach","type":"Landkreis"},"federalState":{"key":"08","name":"Baden-Württemberg"}},{"name":"Hinterm Rathaus","postalCode":"79400","locality":"Kandern","municipality":{"key":"08336045","name":"Kandern, Stadt","type":"Stadt"},"district":{"key":"08336","name":"Lörrach","type":"Landkreis"},"federalState":{"key":"08","name":"Baden-Württemberg"}},{"name":"Hofrütteweg","postalCode":"79400","locality":"Kandern","municipality":{"key":"08336045","name":"Kandern, Stadt","type":"Stadt"},"district":{"key":"08336","name":"Lörrach","type":"Landkreis"},"federalState":{"key":"08","name":"Baden-Württemberg"}},{"name":"Hohe Str.","postalCode":"79400","locality":"Kandern","municipality":{"key":"08336045","name":"Kandern, Stadt","type":"Stadt"},"district":{"key":"08336","name":"Lörrach","type":"Landkreis"},"federalState":{"key":"08","name":"Baden-Württemberg"}},{"name":"Holenweg","postalCode":"79400","locality":"Kandern","municipality":{"key":"08336045","name":"Kandern, Stadt","type":"Stadt"},"district":{"key":"08336","name":"Lörrach","type":"Landkreis"},"federalState":{"key":"08","name":"Baden-Württemberg"}},{"name":"Holeweg","postalCode":"79400","locality":"Kandern","municipality":{"key":"08336045","name":"Kandern, Stadt","type":"Stadt"},"district":{"key":"08336","name":"Lörrach","type":"Landkreis"},"federalState":{"key":"08","name":"Baden-Württemberg"}},{"name":"Holzener Str.","postalCode":"79400","locality":"Kandern","municipality":{"key":"08336045","name":"Kandern, Stadt","type":"Stadt"},"district":{"key":"08336","name":"Lörrach","type":"Landkreis"},"federalState":{"key":"08","name":"Baden-Württemberg"}},{"name":"Holzweg","postalCode":"79400","locality":"Kandern","municipality":{"key":"08336045","name":"Kandern, Stadt","type":"Stadt"},"district":{"key":"08336","name":"Lörrach","type":"Landkreis"},"federalState":{"key":"08","name":"Baden-Württemberg"}},{"name":"Ida-Preusch-Str.","postalCode":"79400","locality":"Kandern","municipality":{"key":"08336045","name":"Kandern, Stadt","type":"Stadt"},"district":{"key":"08336","name":"Lörrach","type":"Landkreis"},"federalState":{"key":"08","name":"Baden-Württemberg"}},{"name":"Im Brühl","postalCode":"79400","locality":"Kandern","municipality":{"key":"08336045","name":"Kandern, Stadt","type":"Stadt"},"district":{"key":"08336","name":"Lörrach","type":"Landkreis"},"federalState":{"key":"08","name":"Baden-Württemberg"}},{"name":"Im Brünnle","postalCode":"79400","locality":"Kandern","municipality":{"key":"08336045","name":"Kandern, Stadt","type":"Stadt"},"district":{"key":"08336","name":"Lörrach","type":"Landkreis"},"federalState":{"key":"08","name":"Baden-Württemberg"}},{"name":"Im Dörfli","postalCode":"79400","locality":"Kandern","municipality":{"key":"08336045","name":"Kandern, Stadt","type":"Stadt"},"district":{"key":"08336","name":"Lörrach","type":"Landkreis"},"federalState":{"key":"08","name":"Baden-Württemberg"}},{"name":"Im Eichfeld","postalCode":"79400","locality":"Kandern","municipality":{"key":"08336045","name":"Kandern, Stadt","type":"Stadt"},"district":{"key":"08336","name":"Lörrach","type":"Landkreis"},"federalState":{"key":"08","name":"Baden-Württemberg"}},{"name":"Im Gässli","postalCode":"79400","locality":"Kandern","municipality":{"key":"08336045","name":"Kandern, Stadt","type":"Stadt"},"district":{"key":"08336","name":"Lörrach","type":"Landkreis"},"federalState":{"key":"08","name":"Baden-Württemberg"}},{"name":"Im Helbling","postalCode":"79400","locality":"Kandern","municipality":{"key":"08336045","name":"Kandern, Stadt","type":"Stadt"},"district":{"key":"08336","name":"Lörrach","type":"Landkreis"},"federalState":{"key":"08","name":"Baden-Württemberg"}},{"name":"Im Käppele","postalCode":"79400","locality":"Kandern","municipality":{"key":"08336045","name":"Kandern, Stadt","type":"Stadt"},"district":{"key":"08336","name":"Lörrach","type":"Landkreis"},"federalState":{"key":"08","name":"Baden-Württemberg"}},{"name":"Im Kirchacker","postalCode":"79400","locality":"Kandern","municipality":{"key":"08336045","name":"Kandern, Stadt","type":"Stadt"},"district":{"key":"08336","name":"Lörrach","type":"Landkreis"},"federalState":{"key":"08","name":"Baden-Württemberg"}},{"name":"Im Maiacker","postalCode":"79400","locality":"Kandern","municipality":{"key":"08336045","name":"Kandern, Stadt","type":"Stadt"},"district":{"key":"08336","name":"Lörrach","type":"Landkreis"},"federalState":{"key":"08","name":"Baden-Württemberg"}},{"name":"Im Rebacker","postalCode":"79400","locality":"Kandern","municipality":{"key":"08336045","name":"Kandern, Stadt","type":"Stadt"},"district":{"key":"08336","name":"Lörrach","type":"Landkreis"},"federalState":{"key":"08","name":"Baden-Württemberg"}},{"name":"Im Schorner","postalCode":"79400","locality":"Kandern","municipality":{"key":"08336045","name":"Kandern, Stadt","type":"Stadt"},"district":{"key":"08336","name":"Lörrach","type":"Landkreis"},"federalState":{"key":"08","name":"Baden-Württemberg"}},{"name":"Im Sodacker","postalCode":"79400","locality":"Kandern","municipality":{"key":"08336045","name":"Kandern, Stadt","type":"Stadt"},"district":{"key":"08336","name":"Lörrach","type":"Landkreis"},"federalState":{"key":"08","name":"Baden-Württemberg"}},{"name":"Im Speckwinkel","postalCode":"79400","locality":"Kandern","municipality":{"key":"08336045","name":"Kandern, Stadt","type":"Stadt"},"district":{"key":"08336","name":"Lörrach","type":"Landkreis"},"federalState":{"key":"08","name":"Baden-Württemberg"}},{"name":"Im Winkel","postalCode":"79400","locality":"Kandern","municipality":{"key":"08336045","name":"Kandern, Stadt","type":"Stadt"},"district":{"key":"08336","name":"Lörrach","type":"Landkreis"},"federalState":{"key":"08","name":"Baden-Württemberg"}},{"name":"In der Au","postalCode":"79400","locality":"Kandern","municipality":{"key":"08336045","name":"Kandern, Stadt","type":"Stadt"},"district":{"key":"08336","name":"Lörrach","type":"Landkreis"},"federalState":{"key":"08","name":"Baden-Württemberg"}},{"name":"In der Neumatt","postalCode":"79400","locality":"Kandern","municipality":{"key":"08336045","name":"Kandern, Stadt","type":"Stadt"},"district":{"key":"08336","name":"Lörrach","type":"Landkreis"},"federalState":{"key":"08","name":"Baden-Württemberg"}},{"name":"Johann-August-Sutter-Str.","postalCode":"79400","locality":"Kandern","municipality":{"key":"08336045","name":"Kandern, Stadt","type":"Stadt"},"district":{"key":"08336","name":"Lörrach","type":"Landkreis"},"federalState":{"key":"08","name":"Baden-Württemberg"}},{"name":"Johanniterstr.","postalCode":"79400","locality":"Kandern","municipality":{"key":"08336045","name":"Kandern, Stadt","type":"Stadt"},"district":{"key":"08336","name":"Lörrach","type":"Landkreis"},"federalState":{"key":"08","name":"Baden-Württemberg"}},{"name":"Kalkgrabenweg","postalCode":"79400","locality":"Kandern","municipality":{"key":"08336045","name":"Kandern, Stadt","type":"Stadt"},"district":{"key":"08336","name":"Lörrach","type":"Landkreis"},"federalState":{"key":"08","name":"Baden-Württemberg"}},{"name":"Kaltenbrunnenweg","postalCode":"79400","locality":"Kandern","municipality":{"key":"08336045","name":"Kandern, Stadt","type":"Stadt"},"district":{"key":"08336","name":"Lörrach","type":"Landkreis"},"federalState":{"key":"08","name":"Baden-Württemberg"}},{"name":"Kammlenweg","postalCode":"79400","locality":"Kandern","municipality":{"key":"08336045","name":"Kandern, Stadt","type":"Stadt"},"district":{"key":"08336","name":"Lörrach","type":"Landkreis"},"federalState":{"key":"08","name":"Baden-Württemberg"}},{"name":"Kandernerweg","postalCode":"79400","locality":"Kandern","municipality":{"key":"08336045","name":"Kandern, Stadt","type":"Stadt"},"district":{"key":"08336","name":"Lörrach","type":"Landkreis"},"federalState":{"key":"08","name":"Baden-Württemberg"}},{"name":"Kandertalstr.","postalCode":"79400","locality":"Kandern","municipality":{"key":"08336045","name":"Kandern, Stadt","type":"Stadt"},"district":{"key":"08336","name":"Lörrach","type":"Landkreis"},"federalState":{"key":"08","name":"Baden-Württemberg"}},{"name":"Kanzelweg","postalCode":"79400","locality":"Kandern","municipality":{"key":"08336045","name":"Kandern, Stadt","type":"Stadt"},"district":{"key":"08336","name":"Lörrach","type":"Landkreis"},"federalState":{"key":"08","name":"Baden-Württemberg"}},{"name":"Karl-Berner-Str.","postalCode":"79400","locality":"Kandern","municipality":{"key":"08336045","name":"Kandern, Stadt","type":"Stadt"},"district":{"key":"08336","name":"Lörrach","type":"Landkreis"},"federalState":{"key":"08","name":"Baden-Württemberg"}},{"name":"Kirchbergstr.","postalCode":"79400","locality":"Kandern","municipality":{"key":"08336045","name":"Kandern, Stadt","type":"Stadt"},"district":{"key":"08336","name":"Lörrach","type":"Landkreis"},"federalState":{"key":"08","name":"Baden-Württemberg"}},{"name":"Kirchgasse","postalCode":"79400","locality":"Kandern","municipality":{"key":"08336045","name":"Kandern, Stadt","type":"Stadt"},"district":{"key":"08336","name":"Lörrach","type":"Landkreis"},"federalState":{"key":"08","name":"Baden-Württemberg"}},{"name":"Kirchmättle","postalCode":"79400","locality":"Kandern","municipality":{"key":"08336045","name":"Kandern, Stadt","type":"Stadt"},"district":{"key":"08336","name":"Lörrach","type":"Landkreis"},"federalState":{"key":"08","name":"Baden-Württemberg"}},{"name":"Kirchstr.","postalCode":"79400","locality":"Kandern","municipality":{"key":"08336045","name":"Kandern, Stadt","type":"Stadt"},"district":{"key":"08336","name":"Lörrach","type":"Landkreis"},"federalState":{"key":"08","name":"Baden-Württemberg"}},{"name":"Kleinschornerweg","postalCode":"79400","locality":"Kandern","municipality":{"key":"08336045","name":"Kandern, Stadt","type":"Stadt"},"district":{"key":"08336","name":"Lörrach","type":"Landkreis"},"federalState":{"key":"08","name":"Baden-Württemberg"}},{"name":"Klostergasse","postalCode":"79400","locality":"Kandern","municipality":{"key":"08336045","name":"Kandern, Stadt","type":"Stadt"},"district":{"key":"08336","name":"Lörrach","type":"Landkreis"},"federalState":{"key":"08","name":"Baden-Württemberg"}},{"name":"Kreuzegertenhof","postalCode":"79400","locality":"Kandern","municipality":{"key":"08336045","name":"Kandern, Stadt","type":"Stadt"},"district":{"key":"08336","name":"Lörrach","type":"Landkreis"},"federalState":{"key":"08","name":"Baden-Württemberg"}},{"name":"Kuttelgasse","postalCode":"79400","locality":"Kandern","municipality":{"key":"08336045","name":"Kandern, Stadt","type":"Stadt"},"district":{"key":"08336","name":"Lörrach","type":"Landkreis"},"federalState":{"key":"08","name":"Baden-Württemberg"}},{"name":"Laubrainweg","postalCode":"79400","locality":"Kandern","municipality":{"key":"08336045","name":"Kandern, Stadt","type":"Stadt"},"district":{"key":"08336","name":"Lörrach","type":"Landkreis"},"federalState":{"key":"08","name":"Baden-Württemberg"}},{"name":"Leimgrubenweg","postalCode":"79400","locality":"Kandern","municipality":{"key":"08336045","name":"Kandern, Stadt","type":"Stadt"},"district":{"key":"08336","name":"Lörrach","type":"Landkreis"},"federalState":{"key":"08","name":"Baden-Württemberg"}},{"name":"Leiterlebodenweg","postalCode":"79400","locality":"Kandern","municipality":{"key":"08336045","name":"Kandern, Stadt","type":"Stadt"},"district":{"key":"08336","name":"Lörrach","type":"Landkreis"},"federalState":{"key":"08","name":"Baden-Württemberg"}},{"name":"Lettenbuck","postalCode":"79400","locality":"Kandern","municipality":{"key":"08336045","name":"Kandern, Stadt","type":"Stadt"},"district":{"key":"08336","name":"Lörrach","type":"Landkreis"},"federalState":{"key":"08","name":"Baden-Württemberg"}},{"name":"Lettenweg","postalCode":"79400","locality":"Kandern","municipality":{"key":"08336045","name":"Kandern, Stadt","type":"Stadt"},"district":{"key":"08336","name":"Lörrach","type":"Landkreis"},"federalState":{"key":"08","name":"Baden-Württemberg"}},{"name":"Lichsengasse","postalCode":"79400","locality":"Kandern","municipality":{"key":"08336045","name":"Kandern, Stadt","type":"Stadt"},"district":{"key":"08336","name":"Lörrach","type":"Landkreis"},"federalState":{"key":"08","name":"Baden-Württemberg"}},{"name":"Lieler Str.","postalCode":"79400","locality":"Kandern","municipality":{"key":"08336045","name":"Kandern, Stadt","type":"Stadt"},"district":{"key":"08336","name":"Lörrach","type":"Landkreis"},"federalState":{"key":"08","name":"Baden-Württemberg"}},{"name":"Lindenstr.","postalCode":"79400","locality":"Kandern","municipality":{"key":"08336045","name":"Kandern, Stadt","type":"Stadt"},"district":{"key":"08336","name":"Lörrach","type":"Landkreis"},"federalState":{"key":"08","name":"Baden-Württemberg"}},{"name":"Lippisauweg","postalCode":"79400","locality":"Kandern","municipality":{"key":"08336045","name":"Kandern, Stadt","type":"Stadt"},"district":{"key":"08336","name":"Lörrach","type":"Landkreis"},"federalState":{"key":"08","name":"Baden-Württemberg"}},{"name":"Lippisbachweg","postalCode":"79400","locality":"Kandern","municipality":{"key":"08336045","name":"Kandern, Stadt","type":"Stadt"},"district":{"key":"08336","name":"Lörrach","type":"Landkreis"},"federalState":{"key":"08","name":"Baden-Württemberg"}},{"name":"Lochgrabenweg","postalCode":"79400","locality":"Kandern","municipality":{"key":"08336045","name":"Kandern, Stadt","type":"Stadt"},"district":{"key":"08336","name":"Lörrach","type":"Landkreis"},"federalState":{"key":"08","name":"Baden-Württemberg"}},{"name":"Lütterstenweg","postalCode":"79400","locality":"Kandern","municipality":{"key":"08336045","name":"Kandern, Stadt","type":"Stadt"},"district":{"key":"08336","name":"Lörrach","type":"Landkreis"},"federalState":{"key":"08","name":"Baden-Württemberg"}},{"name":"Malteserstr.","postalCode":"79400","locality":"Kandern","municipality":{"key":"08336045","name":"Kandern, Stadt","type":"Stadt"},"district":{"key":"08336","name":"Lörrach","type":"Landkreis"},"federalState":{"key":"08","name":"Baden-Württemberg"}},{"name":"Mangenweg","postalCode":"79400","locality":"Kandern","municipality":{"key":"08336045","name":"Kandern, Stadt","type":"Stadt"},"district":{"key":"08336","name":"Lörrach","type":"Landkreis"},"federalState":{"key":"08","name":"Baden-Württemberg"}},{"name":"Marktplatz","postalCode":"79400","locality":"Kandern","municipality":{"key":"08336045","name":"Kandern, Stadt","type":"Stadt"},"district":{"key":"08336","name":"Lörrach","type":"Landkreis"},"federalState":{"key":"08","name":"Baden-Württemberg"}},{"name":"Maugenharder Str.","postalCode":"79400","locality":"Kandern","municipality":{"key":"08336045","name":"Kandern, Stadt","type":"Stadt"},"district":{"key":"08336","name":"Lörrach","type":"Landkreis"},"federalState":{"key":"08","name":"Baden-Württemberg"}},{"name":"Maugenharder Weg","postalCode":"79400","locality":"Kandern","municipality":{"key":"08336045","name":"Kandern, Stadt","type":"Stadt"},"district":{"key":"08336","name":"Lörrach","type":"Landkreis"},"federalState":{"key":"08","name":"Baden-Württemberg"}},{"name":"Max-Böhlen-Weg","postalCode":"79400","locality":"Kandern","municipality":{"key":"08336045","name":"Kandern, Stadt","type":"Stadt"},"district":{"key":"08336","name":"Lörrach","type":"Landkreis"},"federalState":{"key":"08","name":"Baden-Württemberg"}},{"name":"Max-Laeuger-Str.","postalCode":"79400","locality":"Kandern","municipality":{"key":"08336045","name":"Kandern, Stadt","type":"Stadt"},"district":{"key":"08336","name":"Lörrach","type":"Landkreis"},"federalState":{"key":"08","name":"Baden-Württemberg"}},{"name":"Mettlenweg","postalCode":"79400","locality":"Kandern","municipality":{"key":"08336045","name":"Kandern, Stadt","type":"Stadt"},"district":{"key":"08336","name":"Lörrach","type":"Landkreis"},"federalState":{"key":"08","name":"Baden-Württemberg"}},{"name":"Militärschlagweg","postalCode":"79400","locality":"Kandern","municipality":{"key":"08336045","name":"Kandern, Stadt","type":"Stadt"},"district":{"key":"08336","name":"Lörrach","type":"Landkreis"},"federalState":{"key":"08","name":"Baden-Württemberg"}},{"name":"Mittelbergweg","postalCode":"79400","locality":"Kandern","municipality":{"key":"08336045","name":"Kandern, Stadt","type":"Stadt"},"district":{"key":"08336","name":"Lörrach","type":"Landkreis"},"federalState":{"key":"08","name":"Baden-Württemberg"}},{"name":"Mittlere Gass","postalCode":"79400","locality":"Kandern","municipality":{"key":"08336045","name":"Kandern, Stadt","type":"Stadt"},"district":{"key":"08336","name":"Lörrach","type":"Landkreis"},"federalState":{"key":"08","name":"Baden-Württemberg"}},{"name":"Mittlerer Gaishaldenweg","postalCode":"79400","locality":"Kandern","municipality":{"key":"08336045","name":"Kandern, Stadt","type":"Stadt"},"district":{"key":"08336","name":"Lörrach","type":"Landkreis"},"federalState":{"key":"08","name":"Baden-Württemberg"}},{"name":"Mittlerer Kirchacker","postalCode":"79400","locality":"Kandern","municipality":{"key":"08336045","name":"Kandern, Stadt","type":"Stadt"},"district":{"key":"08336","name":"Lörrach","type":"Landkreis"},"federalState":{"key":"08","name":"Baden-Württemberg"}},{"name":"Mittlerer Löhleweg","postalCode":"79400","locality":"Kandern","municipality":{"key":"08336045","name":"Kandern, Stadt","type":"Stadt"},"district":{"key":"08336","name":"Lörrach","type":"Landkreis"},"federalState":{"key":"08","name":"Baden-Württemberg"}},{"name":"Mittlerer Schlangengraben","postalCode":"79400","locality":"Kandern","municipality":{"key":"08336045","name":"Kandern, Stadt","type":"Stadt"},"district":{"key":"08336","name":"Lörrach","type":"Landkreis"},"federalState":{"key":"08","name":"Baden-Württemberg"}},{"name":"Mittlerer Weg","postalCode":"79400","locality":"Kandern","municipality":{"key":"08336045","name":"Kandern, Stadt","type":"Stadt"},"district":{"key":"08336","name":"Lörrach","type":"Landkreis"},"federalState":{"key":"08","name":"Baden-Württemberg"}},{"name":"Mittl. Winterhohlenweg","postalCode":"79400","locality":"Kandern","municipality":{"key":"08336045","name":"Kandern, Stadt","type":"Stadt"},"district":{"key":"08336","name":"Lörrach","type":"Landkreis"},"federalState":{"key":"08","name":"Baden-Württemberg"}},{"name":"Mohrensattelweg","postalCode":"79400","locality":"Kandern","municipality":{"key":"08336045","name":"Kandern, Stadt","type":"Stadt"},"district":{"key":"08336","name":"Lörrach","type":"Landkreis"},"federalState":{"key":"08","name":"Baden-Württemberg"}},{"name":"Mühlenstr.","postalCode":"79400","locality":"Kandern","municipality":{"key":"08336045","name":"Kandern, Stadt","type":"Stadt"},"district":{"key":"08336","name":"Lörrach","type":"Landkreis"},"federalState":{"key":"08","name":"Baden-Württemberg"}},{"name":"Münzenbachweg","postalCode":"79400","locality":"Kandern","municipality":{"key":"08336045","name":"Kandern, Stadt","type":"Stadt"},"district":{"key":"08336","name":"Lörrach","type":"Landkreis"},"federalState":{"key":"08","name":"Baden-Württemberg"}},{"name":"Munzenbergweg","postalCode":"79400","locality":"Kandern","municipality":{"key":"08336045","name":"Kandern, Stadt","type":"Stadt"},"district":{"key":"08336","name":"Lörrach","type":"Landkreis"},"federalState":{"key":"08","name":"Baden-Württemberg"}},{"name":"Nebenauer Str.","postalCode":"79400","locality":"Kandern","municipality":{"key":"08336045","name":"Kandern, Stadt","type":"Stadt"},"district":{"key":"08336","name":"Lörrach","type":"Landkreis"},"federalState":{"key":"08","name":"Baden-Württemberg"}},{"name":"Neuer Weg","postalCode":"79400","locality":"Kandern","municipality":{"key":"08336045","name":"Kandern, Stadt","type":"Stadt"},"district":{"key":"08336","name":"Lörrach","type":"Landkreis"},"federalState":{"key":"08","name":"Baden-Württemberg"}},{"name":"Neugugelhutweg","postalCode":"79400","locality":"Kandern","municipality":{"key":"08336045","name":"Kandern, Stadt","type":"Stadt"},"district":{"key":"08336","name":"Lörrach","type":"Landkreis"},"federalState":{"key":"08","name":"Baden-Württemberg"}},{"name":"Niedere Hofrütte","postalCode":"79400","locality":"Kandern","municipality":{"key":"08336045","name":"Kandern, Stadt","type":"Stadt"},"district":{"key":"08336","name":"Lörrach","type":"Landkreis"},"federalState":{"key":"08","name":"Baden-Württemberg"}},{"name":"Obere Dorfstr.","postalCode":"79400","locality":"Kandern","municipality":{"key":"08336045","name":"Kandern, Stadt","type":"Stadt"},"district":{"key":"08336","name":"Lörrach","type":"Landkreis"},"federalState":{"key":"08","name":"Baden-Württemberg"}},{"name":"Oberer Buchholenweg","postalCode":"79400","locality":"Kandern","municipality":{"key":"08336045","name":"Kandern, Stadt","type":"Stadt"},"district":{"key":"08336","name":"Lörrach","type":"Landkreis"},"federalState":{"key":"08","name":"Baden-Württemberg"}},{"name":"Oberer Garten","postalCode":"79400","locality":"Kandern","municipality":{"key":"08336045","name":"Kandern, Stadt","type":"Stadt"},"district":{"key":"08336","name":"Lörrach","type":"Landkreis"},"federalState":{"key":"08","name":"Baden-Württemberg"}},{"name":"Oberer Heubergweg","postalCode":"79400","locality":"Kandern","municipality":{"key":"08336045","name":"Kandern, Stadt","type":"Stadt"},"district":{"key":"08336","name":"Lörrach","type":"Landkreis"},"federalState":{"key":"08","name":"Baden-Württemberg"}},{"name":"Oberer Kähnelweg","postalCode":"79400","locality":"Kandern","municipality":{"key":"08336045","name":"Kandern, Stadt","type":"Stadt"},"district":{"key":"08336","name":"Lörrach","type":"Landkreis"},"federalState":{"key":"08","name":"Baden-Württemberg"}},{"name":"Oberer Schlangengraben","postalCode":"79400","locality":"Kandern","municipality":{"key":"08336045","name":"Kandern, Stadt","type":"Stadt"},"district":{"key":"08336","name":"Lörrach","type":"Landkreis"},"federalState":{"key":"08","name":"Baden-Württemberg"}},{"name":"Oberer Vogtsbodenweg","postalCode":"79400","locality":"Kandern","municipality":{"key":"08336045","name":"Kandern, Stadt","type":"Stadt"},"district":{"key":"08336","name":"Lörrach","type":"Landkreis"},"federalState":{"key":"08","name":"Baden-Württemberg"}},{"name":"Obermatt","postalCode":"79400","locality":"Kandern","municipality":{"key":"08336045","name":"Kandern, Stadt","type":"Stadt"},"district":{"key":"08336","name":"Lörrach","type":"Landkreis"},"federalState":{"key":"08","name":"Baden-Württemberg"}},{"name":"Ochsengasse","postalCode":"79400","locality":"Kandern","municipality":{"key":"08336045","name":"Kandern, Stadt","type":"Stadt"},"district":{"key":"08336","name":"Lörrach","type":"Landkreis"},"federalState":{"key":"08","name":"Baden-Württemberg"}},{"name":"Ortsstr.","postalCode":"79400","locality":"Kandern","municipality":{"key":"08336045","name":"Kandern, Stadt","type":"Stadt"},"district":{"key":"08336","name":"Lörrach","type":"Landkreis"},"federalState":{"key":"08","name":"Baden-Württemberg"}},{"name":"Palmenweg","postalCode":"79400","locality":"Kandern","municipality":{"key":"08336045","name":"Kandern, Stadt","type":"Stadt"},"district":{"key":"08336","name":"Lörrach","type":"Landkreis"},"federalState":{"key":"08","name":"Baden-Württemberg"}},{"name":"Panoramaweg","postalCode":"79400","locality":"Kandern","municipality":{"key":"08336045","name":"Kandern, Stadt","type":"Stadt"},"district":{"key":"08336","name":"Lörrach","type":"Landkreis"},"federalState":{"key":"08","name":"Baden-Württemberg"}},{"name":"Papierweg","postalCode":"79400","locality":"Kandern","municipality":{"key":"08336045","name":"Kandern, Stadt","type":"Stadt"},"district":{"key":"08336","name":"Lörrach","type":"Landkreis"},"federalState":{"key":"08","name":"Baden-Württemberg"}},{"name":"Paradiesweg","postalCode":"79400","locality":"Kandern","municipality":{"key":"08336045","name":"Kandern, Stadt","type":"Stadt"},"district":{"key":"08336","name":"Lörrach","type":"Landkreis"},"federalState":{"key":"08","name":"Baden-Württemberg"}},{"name":"Pfaffenmattweg","postalCode":"79400","locality":"Kandern","municipality":{"key":"08336045","name":"Kandern, Stadt","type":"Stadt"},"district":{"key":"08336","name":"Lörrach","type":"Landkreis"},"federalState":{"key":"08","name":"Baden-Württemberg"}},{"name":"Platzhof","postalCode":"79400","locality":"Kandern","municipality":{"key":"08336045","name":"Kandern, Stadt","type":"Stadt"},"district":{"key":"08336","name":"Lörrach","type":"Landkreis"},"federalState":{"key":"08","name":"Baden-Württemberg"}},{"name":"Postgasse","postalCode":"79400","locality":"Kandern","municipality":{"key":"08336045","name":"Kandern, Stadt","type":"Stadt"},"district":{"key":"08336","name":"Lörrach","type":"Landkreis"},"federalState":{"key":"08","name":"Baden-Württemberg"}},{"name":"Pulvergässle","postalCode":"79400","locality":"Kandern","municipality":{"key":"08336045","name":"Kandern, Stadt","type":"Stadt"},"district":{"key":"08336","name":"Lörrach","type":"Landkreis"},"federalState":{"key":"08","name":"Baden-Württemberg"}},{"name":"Rainweg","postalCode":"79400","locality":"Kandern","municipality":{"key":"08336045","name":"Kandern, Stadt","type":"Stadt"},"district":{"key":"08336","name":"Lörrach","type":"Landkreis"},"federalState":{"key":"08","name":"Baden-Württemberg"}},{"name":"Rathausstr.","postalCode":"79400","locality":"Kandern","municipality":{"key":"08336045","name":"Kandern, Stadt","type":"Stadt"},"district":{"key":"08336","name":"Lörrach","type":"Landkreis"},"federalState":{"key":"08","name":"Baden-Württemberg"}},{"name":"Rebmättleweg","postalCode":"79400","locality":"Kandern","municipality":{"key":"08336045","name":"Kandern, Stadt","type":"Stadt"},"district":{"key":"08336","name":"Lörrach","type":"Landkreis"},"federalState":{"key":"08","name":"Baden-Württemberg"}},{"name":"Rebweg","postalCode":"79400","locality":"Kandern","municipality":{"key":"08336045","name":"Kandern, Stadt","type":"Stadt"},"district":{"key":"08336","name":"Lörrach","type":"Landkreis"},"federalState":{"key":"08","name":"Baden-Württemberg"}},{"name":"Rehhütleweg","postalCode":"79400","locality":"Kandern","municipality":{"key":"08336045","name":"Kandern, Stadt","type":"Stadt"},"district":{"key":"08336","name":"Lörrach","type":"Landkreis"},"federalState":{"key":"08","name":"Baden-Württemberg"}},{"name":"Richard-Bampi-Str.","postalCode":"79400","locality":"Kandern","municipality":{"key":"08336045","name":"Kandern, Stadt","type":"Stadt"},"district":{"key":"08336","name":"Lörrach","type":"Landkreis"},"federalState":{"key":"08","name":"Baden-Württemberg"}},{"name":"Riedlinger Weg","postalCode":"79400","locality":"Kandern","municipality":{"key":"08336045","name":"Kandern, Stadt","type":"Stadt"},"district":{"key":"08336","name":"Lörrach","type":"Landkreis"},"federalState":{"key":"08","name":"Baden-Württemberg"}},{"name":"Riemergässli","postalCode":"79400","locality":"Kandern","municipality":{"key":"08336045","name":"Kandern, Stadt","type":"Stadt"},"district":{"key":"08336","name":"Lörrach","type":"Landkreis"},"federalState":{"key":"08","name":"Baden-Württemberg"}},{"name":"Ritterweg","postalCode":"79400","locality":"Kandern","municipality":{"key":"08336045","name":"Kandern, Stadt","type":"Stadt"},"district":{"key":"08336","name":"Lörrach","type":"Landkreis"},"federalState":{"key":"08","name":"Baden-Württemberg"}},{"name":"Römerstr.","postalCode":"79400","locality":"Kandern","municipality":{"key":"08336045","name":"Kandern, Stadt","type":"Stadt"},"district":{"key":"08336","name":"Lörrach","type":"Landkreis"},"federalState":{"key":"08","name":"Baden-Württemberg"}},{"name":"Rosenweg","postalCode":"79400","locality":"Kandern","municipality":{"key":"08336045","name":"Kandern, Stadt","type":"Stadt"},"district":{"key":"08336","name":"Lörrach","type":"Landkreis"},"federalState":{"key":"08","name":"Baden-Württemberg"}},{"name":"Rosweidweg","postalCode":"79400","locality":"Kandern","municipality":{"key":"08336045","name":"Kandern, Stadt","type":"Stadt"},"district":{"key":"08336","name":"Lörrach","type":"Landkreis"},"federalState":{"key":"08","name":"Baden-Württemberg"}},{"name":"Roter-Graben-Weg","postalCode":"79400","locality":"Kandern","municipality":{"key":"08336045","name":"Kandern, Stadt","type":"Stadt"},"district":{"key":"08336","name":"Lörrach","type":"Landkreis"},"federalState":{"key":"08","name":"Baden-Württemberg"}},{"name":"Roter Rain","postalCode":"79400","locality":"Kandern","municipality":{"key":"08336045","name":"Kandern, Stadt","type":"Stadt"},"district":{"key":"08336","name":"Lörrach","type":"Landkreis"},"federalState":{"key":"08","name":"Baden-Württemberg"}},{"name":"Roterrainweg","postalCode":"79400","locality":"Kandern","municipality":{"key":"08336045","name":"Kandern, Stadt","type":"Stadt"},"district":{"key":"08336","name":"Lörrach","type":"Landkreis"},"federalState":{"key":"08","name":"Baden-Württemberg"}},{"name":"Röttler Weg","postalCode":"79400","locality":"Kandern","municipality":{"key":"08336045","name":"Kandern, Stadt","type":"Stadt"},"district":{"key":"08336","name":"Lörrach","type":"Landkreis"},"federalState":{"key":"08","name":"Baden-Württemberg"}},{"name":"Rusersträßli","postalCode":"79400","locality":"Kandern","municipality":{"key":"08336045","name":"Kandern, Stadt","type":"Stadt"},"district":{"key":"08336","name":"Lörrach","type":"Landkreis"},"federalState":{"key":"08","name":"Baden-Württemberg"}},{"name":"Sandelhaldenweg","postalCode":"79400","locality":"Kandern","municipality":{"key":"08336045","name":"Kandern, Stadt","type":"Stadt"},"district":{"key":"08336","name":"Lörrach","type":"Landkreis"},"federalState":{"key":"08","name":"Baden-Württemberg"}},{"name":"Sandelkopfweg","postalCode":"79400","locality":"Kandern","municipality":{"key":"08336045","name":"Kandern, Stadt","type":"Stadt"},"district":{"key":"08336","name":"Lörrach","type":"Landkreis"},"federalState":{"key":"08","name":"Baden-Württemberg"}},{"name":"Sandelweg","postalCode":"79400","locality":"Kandern","municipality":{"key":"08336045","name":"Kandern, Stadt","type":"Stadt"},"district":{"key":"08336","name":"Lörrach","type":"Landkreis"},"federalState":{"key":"08","name":"Baden-Württemberg"}},{"name":"Sandgrabenweg","postalCode":"79400","locality":"Kandern","municipality":{"key":"08336045","name":"Kandern, Stadt","type":"Stadt"},"district":{"key":"08336","name":"Lörrach","type":"Landkreis"},"federalState":{"key":"08","name":"Baden-Württemberg"}},{"name":"Sandgrubenweg","postalCode":"79400","locality":"Kandern","municipality":{"key":"08336045","name":"Kandern, Stadt","type":"Stadt"},"district":{"key":"08336","name":"Lörrach","type":"Landkreis"},"federalState":{"key":"08","name":"Baden-Württemberg"}},{"name":"Sattel-Sack-Weg","postalCode":"79400","locality":"Kandern","municipality":{"key":"08336045","name":"Kandern, Stadt","type":"Stadt"},"district":{"key":"08336","name":"Lörrach","type":"Landkreis"},"federalState":{"key":"08","name":"Baden-Württemberg"}},{"name":"Sattelweg","postalCode":"79400","locality":"Kandern","municipality":{"key":"08336045","name":"Kandern, Stadt","type":"Stadt"},"district":{"key":"08336","name":"Lörrach","type":"Landkreis"},"federalState":{"key":"08","name":"Baden-Württemberg"}},{"name":"Saustallschlagweg","postalCode":"79400","locality":"Kandern","municipality":{"key":"08336045","name":"Kandern, Stadt","type":"Stadt"},"district":{"key":"08336","name":"Lörrach","type":"Landkreis"},"federalState":{"key":"08","name":"Baden-Württemberg"}},{"name":"Sauweg","postalCode":"79400","locality":"Kandern","municipality":{"key":"08336045","name":"Kandern, Stadt","type":"Stadt"},"district":{"key":"08336","name":"Lörrach","type":"Landkreis"},"federalState":{"key":"08","name":"Baden-Württemberg"}},{"name":"Schafgasse","postalCode":"79400","locality":"Kandern","municipality":{"key":"08336045","name":"Kandern, Stadt","type":"Stadt"},"district":{"key":"08336","name":"Lörrach","type":"Landkreis"},"federalState":{"key":"08","name":"Baden-Württemberg"}},{"name":"Scheideckstr.","postalCode":"79400","locality":"Kandern","municipality":{"key":"08336045","name":"Kandern, Stadt","type":"Stadt"},"district":{"key":"08336","name":"Lörrach","type":"Landkreis"},"federalState":{"key":"08","name":"Baden-Württemberg"}},{"name":"Schlattweg","postalCode":"79400","locality":"Kandern","municipality":{"key":"08336045","name":"Kandern, Stadt","type":"Stadt"},"district":{"key":"08336","name":"Lörrach","type":"Landkreis"},"federalState":{"key":"08","name":"Baden-Württemberg"}},{"name":"Schlettertannenweg","postalCode":"79400","locality":"Kandern","municipality":{"key":"08336045","name":"Kandern, Stadt","type":"Stadt"},"district":{"key":"08336","name":"Lörrach","type":"Landkreis"},"federalState":{"key":"08","name":"Baden-Württemberg"}},{"name":"Schlossweg","postalCode":"79400","locality":"Kandern","municipality":{"key":"08336045","name":"Kandern, Stadt","type":"Stadt"},"district":{"key":"08336","name":"Lörrach","type":"Landkreis"},"federalState":{"key":"08","name":"Baden-Württemberg"}},{"name":"Schmiedematt","postalCode":"79400","locality":"Kandern","municipality":{"key":"08336045","name":"Kandern, Stadt","type":"Stadt"},"district":{"key":"08336","name":"Lörrach","type":"Landkreis"},"federalState":{"key":"08","name":"Baden-Württemberg"}},{"name":"Schnegelbachweg","postalCode":"79400","locality":"Kandern","municipality":{"key":"08336045","name":"Kandern, Stadt","type":"Stadt"},"district":{"key":"08336","name":"Lörrach","type":"Landkreis"},"federalState":{"key":"08","name":"Baden-Württemberg"}},{"name":"Schornerbuckweg","postalCode":"79400","locality":"Kandern","municipality":{"key":"08336045","name":"Kandern, Stadt","type":"Stadt"},"district":{"key":"08336","name":"Lörrach","type":"Landkreis"},"federalState":{"key":"08","name":"Baden-Württemberg"}},{"name":"Schulstr.","postalCode":"79400","locality":"Kandern","municipality":{"key":"08336045","name":"Kandern, Stadt","type":"Stadt"},"district":{"key":"08336","name":"Lörrach","type":"Landkreis"},"federalState":{"key":"08","name":"Baden-Württemberg"}},{"name":"Schützenstr.","postalCode":"79400","locality":"Kandern","municipality":{"key":"08336045","name":"Kandern, Stadt","type":"Stadt"},"district":{"key":"08336","name":"Lörrach","type":"Landkreis"},"federalState":{"key":"08","name":"Baden-Württemberg"}},{"name":"Schwarzwaldstr.","postalCode":"79400","locality":"Kandern","municipality":{"key":"08336045","name":"Kandern, Stadt","type":"Stadt"},"district":{"key":"08336","name":"Lörrach","type":"Landkreis"},"federalState":{"key":"08","name":"Baden-Württemberg"}},{"name":"Schwimmbadweg","postalCode":"79400","locality":"Kandern","municipality":{"key":"08336045","name":"Kandern, Stadt","type":"Stadt"},"district":{"key":"08336","name":"Lörrach","type":"Landkreis"},"federalState":{"key":"08","name":"Baden-Württemberg"}},{"name":"Siedlung am Holz","postalCode":"79400","locality":"Kandern","municipality":{"key":"08336045","name":"Kandern, Stadt","type":"Stadt"},"district":{"key":"08336","name":"Lörrach","type":"Landkreis"},"federalState":{"key":"08","name":"Baden-Württemberg"}},{"name":"Siegenbachhaldeweg","postalCode":"79400","locality":"Kandern","municipality":{"key":"08336045","name":"Kandern, Stadt","type":"Stadt"},"district":{"key":"08336","name":"Lörrach","type":"Landkreis"},"federalState":{"key":"08","name":"Baden-Württemberg"}},{"name":"Siegenbachweg","postalCode":"79400","locality":"Kandern","municipality":{"key":"08336045","name":"Kandern, Stadt","type":"Stadt"},"district":{"key":"08336","name":"Lörrach","type":"Landkreis"},"federalState":{"key":"08","name":"Baden-Württemberg"}},{"name":"Sitzenkircher Str.","postalCode":"79400","locality":"Kandern","municipality":{"key":"08336045","name":"Kandern, Stadt","type":"Stadt"},"district":{"key":"08336","name":"Lörrach","type":"Landkreis"},"federalState":{"key":"08","name":"Baden-Württemberg"}},{"name":"Sitzenkircher-Weg","postalCode":"79400","locality":"Kandern","municipality":{"key":"08336045","name":"Kandern, Stadt","type":"Stadt"},"district":{"key":"08336","name":"Lörrach","type":"Landkreis"},"federalState":{"key":"08","name":"Baden-Württemberg"}},{"name":"Soufflenheimer Str.","postalCode":"79400","locality":"Kandern","municipality":{"key":"08336045","name":"Kandern, Stadt","type":"Stadt"},"district":{"key":"08336","name":"Lörrach","type":"Landkreis"},"federalState":{"key":"08","name":"Baden-Württemberg"}},{"name":"Staiggasse","postalCode":"79400","locality":"Kandern","municipality":{"key":"08336045","name":"Kandern, Stadt","type":"Stadt"},"district":{"key":"08336","name":"Lörrach","type":"Landkreis"},"federalState":{"key":"08","name":"Baden-Württemberg"}},{"name":"Steineck Weg","postalCode":"79400","locality":"Kandern","municipality":{"key":"08336045","name":"Kandern, Stadt","type":"Stadt"},"district":{"key":"08336","name":"Lörrach","type":"Landkreis"},"federalState":{"key":"08","name":"Baden-Württemberg"}},{"name":"Steinenstr.","postalCode":"79400","locality":"Kandern","municipality":{"key":"08336045","name":"Kandern, Stadt","type":"Stadt"},"district":{"key":"08336","name":"Lörrach","type":"Landkreis"},"federalState":{"key":"08","name":"Baden-Württemberg"}},{"name":"Steinweg","postalCode":"79400","locality":"Kandern","municipality":{"key":"08336045","name":"Kandern, Stadt","type":"Stadt"},"district":{"key":"08336","name":"Lörrach","type":"Landkreis"},"federalState":{"key":"08","name":"Baden-Württemberg"}},{"name":"Stelliweg","postalCode":"79400","locality":"Kandern","municipality":{"key":"08336045","name":"Kandern, Stadt","type":"Stadt"},"district":{"key":"08336","name":"Lörrach","type":"Landkreis"},"federalState":{"key":"08","name":"Baden-Württemberg"}},{"name":"Stockgrabenweg","postalCode":"79400","locality":"Kandern","municipality":{"key":"08336045","name":"Kandern, Stadt","type":"Stadt"},"district":{"key":"08336","name":"Lörrach","type":"Landkreis"},"federalState":{"key":"08","name":"Baden-Württemberg"}},{"name":"Storchenweg","postalCode":"79400","locality":"Kandern","municipality":{"key":"08336045","name":"Kandern, Stadt","type":"Stadt"},"district":{"key":"08336","name":"Lörrach","type":"Landkreis"},"federalState":{"key":"08","name":"Baden-Württemberg"}},{"name":"Striegelgasse","postalCode":"79400","locality":"Kandern","municipality":{"key":"08336045","name":"Kandern, Stadt","type":"Stadt"},"district":{"key":"08336","name":"Lörrach","type":"Landkreis"},"federalState":{"key":"08","name":"Baden-Württemberg"}},{"name":"Stückbaumweg","postalCode":"79400","locality":"Kandern","municipality":{"key":"08336045","name":"Kandern, Stadt","type":"Stadt"},"district":{"key":"08336","name":"Lörrach","type":"Landkreis"},"federalState":{"key":"08","name":"Baden-Württemberg"}},{"name":"Talstr.","postalCode":"79400","locality":"Kandern","municipality":{"key":"08336045","name":"Kandern, Stadt","type":"Stadt"},"district":{"key":"08336","name":"Lörrach","type":"Landkreis"},"federalState":{"key":"08","name":"Baden-Württemberg"}},{"name":"Talweg","postalCode":"79400","locality":"Kandern","municipality":{"key":"08336045","name":"Kandern, Stadt","type":"Stadt"},"district":{"key":"08336","name":"Lörrach","type":"Landkreis"},"federalState":{"key":"08","name":"Baden-Württemberg"}},{"name":"Tannenkircher Str.","postalCode":"79400","locality":"Kandern","municipality":{"key":"08336045","name":"Kandern, Stadt","type":"Stadt"},"district":{"key":"08336","name":"Lörrach","type":"Landkreis"},"federalState":{"key":"08","name":"Baden-Württemberg"}},{"name":"Tongrubenweg","postalCode":"79400","locality":"Kandern","municipality":{"key":"08336045","name":"Kandern, Stadt","type":"Stadt"},"district":{"key":"08336","name":"Lörrach","type":"Landkreis"},"federalState":{"key":"08","name":"Baden-Württemberg"}},{"name":"Tonwerke-Str.","postalCode":"79400","locality":"Kandern","municipality":{"key":"08336045","name":"Kandern, Stadt","type":"Stadt"},"district":{"key":"08336","name":"Lörrach","type":"Landkreis"},"federalState":{"key":"08","name":"Baden-Württemberg"}},{"name":"Tüchlinger Weg","postalCode":"79400","locality":"Kandern","municipality":{"key":"08336045","name":"Kandern, Stadt","type":"Stadt"},"district":{"key":"08336","name":"Lörrach","type":"Landkreis"},"federalState":{"key":"08","name":"Baden-Württemberg"}},{"name":"Untere Gaishalde","postalCode":"79400","locality":"Kandern","municipality":{"key":"08336045","name":"Kandern, Stadt","type":"Stadt"},"district":{"key":"08336","name":"Lörrach","type":"Landkreis"},"federalState":{"key":"08","name":"Baden-Württemberg"}},{"name":"Unterer Gaishaldenweg","postalCode":"79400","locality":"Kandern","municipality":{"key":"08336045","name":"Kandern, Stadt","type":"Stadt"},"district":{"key":"08336","name":"Lörrach","type":"Landkreis"},"federalState":{"key":"08","name":"Baden-Württemberg"}},{"name":"Unterer Hauptweg","postalCode":"79400","locality":"Kandern","municipality":{"key":"08336045","name":"Kandern, Stadt","type":"Stadt"},"district":{"key":"08336","name":"Lörrach","type":"Landkreis"},"federalState":{"key":"08","name":"Baden-Württemberg"}},{"name":"Unterer Heubergweg","postalCode":"79400","locality":"Kandern","municipality":{"key":"08336045","name":"Kandern, Stadt","type":"Stadt"},"district":{"key":"08336","name":"Lörrach","type":"Landkreis"},"federalState":{"key":"08","name":"Baden-Württemberg"}},{"name":"Unterer Vogtsbodenweg","postalCode":"79400","locality":"Kandern","municipality":{"key":"08336045","name":"Kandern, Stadt","type":"Stadt"},"district":{"key":"08336","name":"Lörrach","type":"Landkreis"},"federalState":{"key":"08","name":"Baden-Württemberg"}},{"name":"Uttnacher Str.","postalCode":"79400","locality":"Kandern","municipality":{"key":"08336045","name":"Kandern, Stadt","type":"Stadt"},"district":{"key":"08336","name":"Lörrach","type":"Landkreis"},"federalState":{"key":"08","name":"Baden-Württemberg"}},{"name":"Vesteburgweg","postalCode":"79400","locality":"Kandern","municipality":{"key":"08336045","name":"Kandern, Stadt","type":"Stadt"},"district":{"key":"08336","name":"Lörrach","type":"Landkreis"},"federalState":{"key":"08","name":"Baden-Württemberg"}},{"name":"Vogelbacherweg","postalCode":"79400","locality":"Kandern","municipality":{"key":"08336045","name":"Kandern, Stadt","type":"Stadt"},"district":{"key":"08336","name":"Lörrach","type":"Landkreis"},"federalState":{"key":"08","name":"Baden-Württemberg"}},{"name":"Vogelbacher Weg","postalCode":"79400","locality":"Kandern","municipality":{"key":"08336045","name":"Kandern, Stadt","type":"Stadt"},"district":{"key":"08336","name":"Lörrach","type":"Landkreis"},"federalState":{"key":"08","name":"Baden-Württemberg"}},{"name":"Vogesenstr.","postalCode":"79400","locality":"Kandern","municipality":{"key":"08336045","name":"Kandern, Stadt","type":"Stadt"},"district":{"key":"08336","name":"Lörrach","type":"Landkreis"},"federalState":{"key":"08","name":"Baden-Württemberg"}},{"name":"Von-Teuffel-Str.","postalCode":"79400","locality":"Kandern","municipality":{"key":"08336045","name":"Kandern, Stadt","type":"Stadt"},"district":{"key":"08336","name":"Lörrach","type":"Landkreis"},"federalState":{"key":"08","name":"Baden-Württemberg"}},{"name":"Waldeckstr.","postalCode":"79400","locality":"Kandern","municipality":{"key":"08336045","name":"Kandern, Stadt","type":"Stadt"},"district":{"key":"08336","name":"Lörrach","type":"Landkreis"},"federalState":{"key":"08","name":"Baden-Württemberg"}},{"name":"Waldweg","postalCode":"79400","locality":"Kandern","municipality":{"key":"08336045","name":"Kandern, Stadt","type":"Stadt"},"district":{"key":"08336","name":"Lörrach","type":"Landkreis"},"federalState":{"key":"08","name":"Baden-Württemberg"}},{"name":"Wannenweg","postalCode":"79400","locality":"Kandern","municipality":{"key":"08336045","name":"Kandern, Stadt","type":"Stadt"},"district":{"key":"08336","name":"Lörrach","type":"Landkreis"},"federalState":{"key":"08","name":"Baden-Württemberg"}},{"name":"Wässerleweg","postalCode":"79400","locality":"Kandern","municipality":{"key":"08336045","name":"Kandern, Stadt","type":"Stadt"},"district":{"key":"08336","name":"Lörrach","type":"Landkreis"},"federalState":{"key":"08","name":"Baden-Württemberg"}},{"name":"Weißerdenweg","postalCode":"79400","locality":"Kandern","municipality":{"key":"08336045","name":"Kandern, Stadt","type":"Stadt"},"district":{"key":"08336","name":"Lörrach","type":"Landkreis"},"federalState":{"key":"08","name":"Baden-Württemberg"}},{"name":"Wettigasse","postalCode":"79400","locality":"Kandern","municipality":{"key":"08336045","name":"Kandern, Stadt","type":"Stadt"},"district":{"key":"08336","name":"Lörrach","type":"Landkreis"},"federalState":{"key":"08","name":"Baden-Württemberg"}},{"name":"Winterholenweg","postalCode":"79400","locality":"Kandern","municipality":{"key":"08336045","name":"Kandern, Stadt","type":"Stadt"},"district":{"key":"08336","name":"Lörrach","type":"Landkreis"},"federalState":{"key":"08","name":"Baden-Württemberg"}},{"name":"Wolfsheule","postalCode":"79400","locality":"Kandern","municipality":{"key":"08336045","name":"Kandern, Stadt","type":"Stadt"},"district":{"key":"08336","name":"Lörrach","type":"Landkreis"},"federalState":{"key":"08","name":"Baden-Württemberg"}},{"name":"Wollbacher Str.","postalCode":"79400","locality":"Kandern","municipality":{"key":"08336045","name":"Kandern, Stadt","type":"Stadt"},"district":{"key":"08336","name":"Lörrach","type":"Landkreis"},"federalState":{"key":"08","name":"Baden-Württemberg"}},{"name":"Zick-Zack-Weg","postalCode":"79400","locality":"Kandern","municipality":{"key":"08336045","name":"Kandern, Stadt","type":"Stadt"},"district":{"key":"08336","name":"Lörrach","type":"Landkreis"},"federalState":{"key":"08","name":"Baden-Württemberg"}},{"name":"Ziegelstr.","postalCode":"79400","locality":"Kandern","municipality":{"key":"08336045","name":"Kandern, Stadt","type":"Stadt"},"district":{"key":"08336","name":"Lörrach","type":"Landkreis"},"federalState":{"key":"08","name":"Baden-Württemberg"}},{"name":"Zielrebenweg","postalCode":"79400","locality":"Kandern","municipality":{"key":"08336045","name":"Kandern, Stadt","type":"Stadt"},"district":{"key":"08336","name":"Lörrach","type":"Landkreis"},"federalState":{"key":"08","name":"Baden-Württemberg"}},{"name":"Zielstr.","postalCode":"79400","locality":"Kandern","municipality":{"key":"08336045","name":"Kandern, Stadt","type":"Stadt"},"district":{"key":"08336","name":"Lörrach","type":"Landkreis"},"federalState":{"key":"08","name":"Baden-Württemberg"}},{"name":"Zum Erzberg","postalCode":"79400","locality":"Kandern","municipality":{"key":"08336045","name":"Kandern, Stadt","type":"Stadt"},"district":{"key":"08336","name":"Lörrach","type":"Landkreis"},"federalState":{"key":"08","name":"Baden-Württemberg"}},{"name":"Zur Bruckmühle","postalCode":"79400","locality":"Kandern","municipality":{"key":"08336045","name":"Kandern, Stadt","type":"Stadt"},"district":{"key":"08336","name":"Lörrach","type":"Landkreis"},"federalState":{"key":"08","name":"Baden-Württemberg"}},{"name":"Zur Hofmühle","postalCode":"79400","locality":"Kandern","municipality":{"key":"08336045","name":"Kandern, Stadt","type":"Stadt"},"district":{"key":"08336","name":"Lörrach","type":"Landkreis"},"federalState":{"key":"08","name":"Baden-Württemberg"}},{"name":"Zur Moosmatt","postalCode":"79400","locality":"Kandern","municipality":{"key":"08336045","name":"Kandern, Stadt","type":"Stadt"},"district":{"key":"08336","name":"Lörrach","type":"Landkreis"},"federalState":{"key":"08","name":"Baden-Württemberg"}},{"name":"Ölmättle","postalCode":"79400","locality":"Kandern","municipality":{"key":"08336045","name":"Kandern, Stadt","type":"Stadt"},"district":{"key":"08336","name":"Lörrach","type":"Landkreis"},"federalState":{"key":"08","name":"Baden-Württemberg"}},{"name":"Über der Wiese","postalCode":"79540","locality":"Lörrach","municipality":{"key":"08336050","name":"Lörrach, Stadt","type":"Große_Kreisstadt"},"district":{"key":"08336","name":"Lörrach","type":"Landkreis"},"federalState":{"key":"08","name":"Baden-Württemberg"}},]