[{"name":"Am Birkeneck","postalCode":"24817","locality":"Tetenhusen","municipality":{"key":"01059087","name":"Tetenhusen","type":"Kreisangehörige_Gemeinde"},"district":{"key":"01059","name":"Schleswig-Flensburg","type":"Kreis"},"federalState":{"key":"01","name":"Schleswig-Holstein"}},{"name":"Blöcken","postalCode":"24817","locality":"Tetenhusen","municipality":{"key":"01059087","name":"Tetenhusen","type":"Kreisangehörige_Gemeinde"},"district":{"key":"01059","name":"Schleswig-Flensburg","type":"Kreis"},"federalState":{"key":"01","name":"Schleswig-Holstein"}},{"name":"Blöckenstieg","postalCode":"24817","locality":"Tetenhusen","municipality":{"key":"01059087","name":"Tetenhusen","type":"Kreisangehörige_Gemeinde"},"district":{"key":"01059","name":"Schleswig-Flensburg","type":"Kreis"},"federalState":{"key":"01","name":"Schleswig-Holstein"}},{"name":"Dreeangel","postalCode":"24817","locality":"Tetenhusen","municipality":{"key":"01059087","name":"Tetenhusen","type":"Kreisangehörige_Gemeinde"},"district":{"key":"01059","name":"Schleswig-Flensburg","type":"Kreis"},"federalState":{"key":"01","name":"Schleswig-Holstein"}},{"name":"Eekhof","postalCode":"24817","locality":"Tetenhusen","municipality":{"key":"01059087","name":"Tetenhusen","type":"Kreisangehörige_Gemeinde"},"district":{"key":"01059","name":"Schleswig-Flensburg","type":"Kreis"},"federalState":{"key":"01","name":"Schleswig-Holstein"}},{"name":"Feldscheide","postalCode":"24817","locality":"Tetenhusen","municipality":{"key":"01059087","name":"Tetenhusen","type":"Kreisangehörige_Gemeinde"},"district":{"key":"01059","name":"Schleswig-Flensburg","type":"Kreis"},"federalState":{"key":"01","name":"Schleswig-Holstein"}},{"name":"Friedrichswiese","postalCode":"24817","locality":"Tetenhusen","municipality":{"key":"01059087","name":"Tetenhusen","type":"Kreisangehörige_Gemeinde"},"district":{"key":"01059","name":"Schleswig-Flensburg","type":"Kreis"},"federalState":{"key":"01","name":"Schleswig-Holstein"}},{"name":"Hauptstr.","postalCode":"24817","locality":"Tetenhusen","municipality":{"key":"01059087","name":"Tetenhusen","type":"Kreisangehörige_Gemeinde"},"district":{"key":"01059","name":"Schleswig-Flensburg","type":"Kreis"},"federalState":{"key":"01","name":"Schleswig-Holstein"}},{"name":"Hohner Str.","postalCode":"24817","locality":"Tetenhusen","municipality":{"key":"01059087","name":"Tetenhusen","type":"Kreisangehörige_Gemeinde"},"district":{"key":"01059","name":"Schleswig-Flensburg","type":"Kreis"},"federalState":{"key":"01","name":"Schleswig-Holstein"}},{"name":"Im Winkel","postalCode":"24817","locality":"Tetenhusen","municipality":{"key":"01059087","name":"Tetenhusen","type":"Kreisangehörige_Gemeinde"},"district":{"key":"01059","name":"Schleswig-Flensburg","type":"Kreis"},"federalState":{"key":"01","name":"Schleswig-Holstein"}},{"name":"Kapellenweg","postalCode":"24817","locality":"Tetenhusen","municipality":{"key":"01059087","name":"Tetenhusen","type":"Kreisangehörige_Gemeinde"},"district":{"key":"01059","name":"Schleswig-Flensburg","type":"Kreis"},"federalState":{"key":"01","name":"Schleswig-Holstein"}},{"name":"Kropper Str.","postalCode":"24817","locality":"Tetenhusen","municipality":{"key":"01059087","name":"Tetenhusen","type":"Kreisangehörige_Gemeinde"},"district":{"key":"01059","name":"Schleswig-Flensburg","type":"Kreis"},"federalState":{"key":"01","name":"Schleswig-Holstein"}},{"name":"Lütte Koppel","postalCode":"24817","locality":"Tetenhusen","municipality":{"key":"01059087","name":"Tetenhusen","type":"Kreisangehörige_Gemeinde"},"district":{"key":"01059","name":"Schleswig-Flensburg","type":"Kreis"},"federalState":{"key":"01","name":"Schleswig-Holstein"}},{"name":"Meiereiweg","postalCode":"24817","locality":"Tetenhusen","municipality":{"key":"01059087","name":"Tetenhusen","type":"Kreisangehörige_Gemeinde"},"district":{"key":"01059","name":"Schleswig-Flensburg","type":"Kreis"},"federalState":{"key":"01","name":"Schleswig-Holstein"}},{"name":"Mittelstr.","postalCode":"24817","locality":"Tetenhusen","municipality":{"key":"01059087","name":"Tetenhusen","type":"Kreisangehörige_Gemeinde"},"district":{"key":"01059","name":"Schleswig-Flensburg","type":"Kreis"},"federalState":{"key":"01","name":"Schleswig-Holstein"}},{"name":"Ohland","postalCode":"24817","locality":"Tetenhusen","municipality":{"key":"01059087","name":"Tetenhusen","type":"Kreisangehörige_Gemeinde"},"district":{"key":"01059","name":"Schleswig-Flensburg","type":"Kreis"},"federalState":{"key":"01","name":"Schleswig-Holstein"}},{"name":"Oln Hoff","postalCode":"24817","locality":"Tetenhusen","municipality":{"key":"01059087","name":"Tetenhusen","type":"Kreisangehörige_Gemeinde"},"district":{"key":"01059","name":"Schleswig-Flensburg","type":"Kreis"},"federalState":{"key":"01","name":"Schleswig-Holstein"}},{"name":"Reit","postalCode":"24817","locality":"Tetenhusen","municipality":{"key":"01059087","name":"Tetenhusen","type":"Kreisangehörige_Gemeinde"},"district":{"key":"01059","name":"Schleswig-Flensburg","type":"Kreis"},"federalState":{"key":"01","name":"Schleswig-Holstein"}},{"name":"Rühn","postalCode":"24817","locality":"Tetenhusen","municipality":{"key":"01059087","name":"Tetenhusen","type":"Kreisangehörige_Gemeinde"},"district":{"key":"01059","name":"Schleswig-Flensburg","type":"Kreis"},"federalState":{"key":"01","name":"Schleswig-Holstein"}},{"name":"Schulstr.","postalCode":"24817","locality":"Tetenhusen","municipality":{"key":"01059087","name":"Tetenhusen","type":"Kreisangehörige_Gemeinde"},"district":{"key":"01059","name":"Schleswig-Flensburg","type":"Kreis"},"federalState":{"key":"01","name":"Schleswig-Holstein"}},{"name":"Sein","postalCode":"24817","locality":"Tetenhusen","municipality":{"key":"01059087","name":"Tetenhusen","type":"Kreisangehörige_Gemeinde"},"district":{"key":"01059","name":"Schleswig-Flensburg","type":"Kreis"},"federalState":{"key":"01","name":"Schleswig-Holstein"}},{"name":"Umleitungsdeich","postalCode":"24817","locality":"Tetenhusen","municipality":{"key":"01059087","name":"Tetenhusen","type":"Kreisangehörige_Gemeinde"},"district":{"key":"01059","name":"Schleswig-Flensburg","type":"Kreis"},"federalState":{"key":"01","name":"Schleswig-Holstein"}},{"name":"Waldweg","postalCode":"24817","locality":"Tetenhusen","municipality":{"key":"01059087","name":"Tetenhusen","type":"Kreisangehörige_Gemeinde"},"district":{"key":"01059","name":"Schleswig-Flensburg","type":"Kreis"},"federalState":{"key":"01","name":"Schleswig-Holstein"}},{"name":"Westerende","postalCode":"24817","locality":"Tetenhusen","municipality":{"key":"01059087","name":"Tetenhusen","type":"Kreisangehörige_Gemeinde"},"district":{"key":"01059","name":"Schleswig-Flensburg","type":"Kreis"},"federalState":{"key":"01","name":"Schleswig-Holstein"}},{"name":"Wickerhof","postalCode":"24817","locality":"Tetenhusen","municipality":{"key":"01059087","name":"Tetenhusen","type":"Kreisangehörige_Gemeinde"},"district":{"key":"01059","name":"Schleswig-Flensburg","type":"Kreis"},"federalState":{"key":"01","name":"Schleswig-Holstein"}},]