[{"name":"Adalbert-Stifter-Str.","postalCode":"71364","locality":"Winnenden","municipality":{"key":"08119085","name":"Winnenden, Stadt","type":"Große_Kreisstadt"},"district":{"key":"08119","name":"Rems-Murr-Kreis","type":"Landkreis"},"federalState":{"key":"08","name":"Baden-Württemberg"}},{"name":"Adam-Müller-Guttenbrunn-Str.","postalCode":"71364","locality":"Winnenden","municipality":{"key":"08119085","name":"Winnenden, Stadt","type":"Große_Kreisstadt"},"district":{"key":"08119","name":"Rems-Murr-Kreis","type":"Landkreis"},"federalState":{"key":"08","name":"Baden-Württemberg"}},{"name":"Adelsbach-Kreisel","postalCode":"71364","locality":"Winnenden","municipality":{"key":"08119085","name":"Winnenden, Stadt","type":"Große_Kreisstadt"},"district":{"key":"08119","name":"Rems-Murr-Kreis","type":"Landkreis"},"federalState":{"key":"08","name":"Baden-Württemberg"}},{"name":"Adenauerstr.","postalCode":"71364","locality":"Winnenden","municipality":{"key":"08119085","name":"Winnenden, Stadt","type":"Große_Kreisstadt"},"district":{"key":"08119","name":"Rems-Murr-Kreis","type":"Landkreis"},"federalState":{"key":"08","name":"Baden-Württemberg"}},{"name":"Adlerweg","postalCode":"71364","locality":"Winnenden","municipality":{"key":"08119085","name":"Winnenden, Stadt","type":"Große_Kreisstadt"},"district":{"key":"08119","name":"Rems-Murr-Kreis","type":"Landkreis"},"federalState":{"key":"08","name":"Baden-Württemberg"}},{"name":"Ahornweg","postalCode":"71364","locality":"Winnenden","municipality":{"key":"08119085","name":"Winnenden, Stadt","type":"Große_Kreisstadt"},"district":{"key":"08119","name":"Rems-Murr-Kreis","type":"Landkreis"},"federalState":{"key":"08","name":"Baden-Württemberg"}},{"name":"Aidehof","postalCode":"71364","locality":"Winnenden","municipality":{"key":"08119085","name":"Winnenden, Stadt","type":"Große_Kreisstadt"},"district":{"key":"08119","name":"Rems-Murr-Kreis","type":"Landkreis"},"federalState":{"key":"08","name":"Baden-Württemberg"}},{"name":"Akazienweg","postalCode":"71364","locality":"Winnenden","municipality":{"key":"08119085","name":"Winnenden, Stadt","type":"Große_Kreisstadt"},"district":{"key":"08119","name":"Rems-Murr-Kreis","type":"Landkreis"},"federalState":{"key":"08","name":"Baden-Württemberg"}},{"name":"Albert-Einstein-Str.","postalCode":"71364","locality":"Winnenden","municipality":{"key":"08119085","name":"Winnenden, Stadt","type":"Große_Kreisstadt"},"district":{"key":"08119","name":"Rems-Murr-Kreis","type":"Landkreis"},"federalState":{"key":"08","name":"Baden-Württemberg"}},{"name":"Albert-Schweitzer-Str.","postalCode":"71364","locality":"Winnenden","municipality":{"key":"08119085","name":"Winnenden, Stadt","type":"Große_Kreisstadt"},"district":{"key":"08119","name":"Rems-Murr-Kreis","type":"Landkreis"},"federalState":{"key":"08","name":"Baden-Württemberg"}},{"name":"Albertviller Str.","postalCode":"71364","locality":"Winnenden","municipality":{"key":"08119085","name":"Winnenden, Stadt","type":"Große_Kreisstadt"},"district":{"key":"08119","name":"Rems-Murr-Kreis","type":"Landkreis"},"federalState":{"key":"08","name":"Baden-Württemberg"}},{"name":"Alexanderstr.","postalCode":"71364","locality":"Winnenden","municipality":{"key":"08119085","name":"Winnenden, Stadt","type":"Große_Kreisstadt"},"district":{"key":"08119","name":"Rems-Murr-Kreis","type":"Landkreis"},"federalState":{"key":"08","name":"Baden-Württemberg"}},{"name":"Alfred-Kärcher-Str.","postalCode":"71364","locality":"Winnenden","municipality":{"key":"08119085","name":"Winnenden, Stadt","type":"Große_Kreisstadt"},"district":{"key":"08119","name":"Rems-Murr-Kreis","type":"Landkreis"},"federalState":{"key":"08","name":"Baden-Württemberg"}},{"name":"Alpenrosenstr.","postalCode":"71364","locality":"Winnenden","municipality":{"key":"08119085","name":"Winnenden, Stadt","type":"Große_Kreisstadt"},"district":{"key":"08119","name":"Rems-Murr-Kreis","type":"Landkreis"},"federalState":{"key":"08","name":"Baden-Württemberg"}},{"name":"Am Adelsbach","postalCode":"71364","locality":"Winnenden","municipality":{"key":"08119085","name":"Winnenden, Stadt","type":"Große_Kreisstadt"},"district":{"key":"08119","name":"Rems-Murr-Kreis","type":"Landkreis"},"federalState":{"key":"08","name":"Baden-Württemberg"}},{"name":"Am Buchenbach","postalCode":"71364","locality":"Winnenden","municipality":{"key":"08119085","name":"Winnenden, Stadt","type":"Große_Kreisstadt"},"district":{"key":"08119","name":"Rems-Murr-Kreis","type":"Landkreis"},"federalState":{"key":"08","name":"Baden-Württemberg"}},{"name":"Am Burggraben","postalCode":"71364","locality":"Winnenden","municipality":{"key":"08119085","name":"Winnenden, Stadt","type":"Große_Kreisstadt"},"district":{"key":"08119","name":"Rems-Murr-Kreis","type":"Landkreis"},"federalState":{"key":"08","name":"Baden-Württemberg"}},{"name":"Am Hasenbrunnen","postalCode":"71364","locality":"Winnenden","municipality":{"key":"08119085","name":"Winnenden, Stadt","type":"Große_Kreisstadt"},"district":{"key":"08119","name":"Rems-Murr-Kreis","type":"Landkreis"},"federalState":{"key":"08","name":"Baden-Württemberg"}},{"name":"Am Mäuerlesgarten","postalCode":"71364","locality":"Winnenden","municipality":{"key":"08119085","name":"Winnenden, Stadt","type":"Große_Kreisstadt"},"district":{"key":"08119","name":"Rems-Murr-Kreis","type":"Landkreis"},"federalState":{"key":"08","name":"Baden-Württemberg"}},{"name":"Am Schlössle","postalCode":"71364","locality":"Winnenden","municipality":{"key":"08119085","name":"Winnenden, Stadt","type":"Große_Kreisstadt"},"district":{"key":"08119","name":"Rems-Murr-Kreis","type":"Landkreis"},"federalState":{"key":"08","name":"Baden-Württemberg"}},{"name":"Am Schulberg","postalCode":"71364","locality":"Winnenden","municipality":{"key":"08119085","name":"Winnenden, Stadt","type":"Große_Kreisstadt"},"district":{"key":"08119","name":"Rems-Murr-Kreis","type":"Landkreis"},"federalState":{"key":"08","name":"Baden-Württemberg"}},{"name":"Amselweg","postalCode":"71364","locality":"Winnenden","municipality":{"key":"08119085","name":"Winnenden, Stadt","type":"Große_Kreisstadt"},"district":{"key":"08119","name":"Rems-Murr-Kreis","type":"Landkreis"},"federalState":{"key":"08","name":"Baden-Württemberg"}},{"name":"Am Sonnenhang","postalCode":"71364","locality":"Winnenden","municipality":{"key":"08119085","name":"Winnenden, Stadt","type":"Große_Kreisstadt"},"district":{"key":"08119","name":"Rems-Murr-Kreis","type":"Landkreis"},"federalState":{"key":"08","name":"Baden-Württemberg"}},{"name":"Am Striebelsee","postalCode":"71364","locality":"Winnenden","municipality":{"key":"08119085","name":"Winnenden, Stadt","type":"Große_Kreisstadt"},"district":{"key":"08119","name":"Rems-Murr-Kreis","type":"Landkreis"},"federalState":{"key":"08","name":"Baden-Württemberg"}},{"name":"Am Welzenstein","postalCode":"71364","locality":"Winnenden","municipality":{"key":"08119085","name":"Winnenden, Stadt","type":"Große_Kreisstadt"},"district":{"key":"08119","name":"Rems-Murr-Kreis","type":"Landkreis"},"federalState":{"key":"08","name":"Baden-Württemberg"}},{"name":"Anna-Hieber-Str.","postalCode":"71364","locality":"Winnenden","municipality":{"key":"08119085","name":"Winnenden, Stadt","type":"Große_Kreisstadt"},"district":{"key":"08119","name":"Rems-Murr-Kreis","type":"Landkreis"},"federalState":{"key":"08","name":"Baden-Württemberg"}},{"name":"Asternweg","postalCode":"71364","locality":"Winnenden","municipality":{"key":"08119085","name":"Winnenden, Stadt","type":"Große_Kreisstadt"},"district":{"key":"08119","name":"Rems-Murr-Kreis","type":"Landkreis"},"federalState":{"key":"08","name":"Baden-Württemberg"}},{"name":"Auäckerweg","postalCode":"71364","locality":"Winnenden","municipality":{"key":"08119085","name":"Winnenden, Stadt","type":"Große_Kreisstadt"},"district":{"key":"08119","name":"Rems-Murr-Kreis","type":"Landkreis"},"federalState":{"key":"08","name":"Baden-Württemberg"}},{"name":"Azaleenweg","postalCode":"71364","locality":"Winnenden","municipality":{"key":"08119085","name":"Winnenden, Stadt","type":"Große_Kreisstadt"},"district":{"key":"08119","name":"Rems-Murr-Kreis","type":"Landkreis"},"federalState":{"key":"08","name":"Baden-Württemberg"}},{"name":"Baacher Hauptstr.","postalCode":"71364","locality":"Winnenden","municipality":{"key":"08119085","name":"Winnenden, Stadt","type":"Große_Kreisstadt"},"district":{"key":"08119","name":"Rems-Murr-Kreis","type":"Landkreis"},"federalState":{"key":"08","name":"Baden-Württemberg"}},{"name":"Baacher Weg","postalCode":"71364","locality":"Winnenden","municipality":{"key":"08119085","name":"Winnenden, Stadt","type":"Große_Kreisstadt"},"district":{"key":"08119","name":"Rems-Murr-Kreis","type":"Landkreis"},"federalState":{"key":"08","name":"Baden-Württemberg"}},{"name":"Bachstr.","postalCode":"71364","locality":"Winnenden","municipality":{"key":"08119085","name":"Winnenden, Stadt","type":"Große_Kreisstadt"},"district":{"key":"08119","name":"Rems-Murr-Kreis","type":"Landkreis"},"federalState":{"key":"08","name":"Baden-Württemberg"}},{"name":"Backnanger Str.","postalCode":"71364","locality":"Winnenden","municipality":{"key":"08119085","name":"Winnenden, Stadt","type":"Große_Kreisstadt"},"district":{"key":"08119","name":"Rems-Murr-Kreis","type":"Landkreis"},"federalState":{"key":"08","name":"Baden-Württemberg"}},{"name":"Badstr.","postalCode":"71364","locality":"Winnenden","municipality":{"key":"08119085","name":"Winnenden, Stadt","type":"Große_Kreisstadt"},"district":{"key":"08119","name":"Rems-Murr-Kreis","type":"Landkreis"},"federalState":{"key":"08","name":"Baden-Württemberg"}},{"name":"Bahnhofstr.","postalCode":"71364","locality":"Winnenden","municipality":{"key":"08119085","name":"Winnenden, Stadt","type":"Große_Kreisstadt"},"district":{"key":"08119","name":"Rems-Murr-Kreis","type":"Landkreis"},"federalState":{"key":"08","name":"Baden-Württemberg"}},{"name":"Barfußpfad","postalCode":"71364","locality":"Winnenden","municipality":{"key":"08119085","name":"Winnenden, Stadt","type":"Große_Kreisstadt"},"district":{"key":"08119","name":"Rems-Murr-Kreis","type":"Landkreis"},"federalState":{"key":"08","name":"Baden-Württemberg"}},{"name":"Baumgärten","postalCode":"71364","locality":"Winnenden","municipality":{"key":"08119085","name":"Winnenden, Stadt","type":"Große_Kreisstadt"},"district":{"key":"08119","name":"Rems-Murr-Kreis","type":"Landkreis"},"federalState":{"key":"08","name":"Baden-Württemberg"}},{"name":"Baumgartenweg","postalCode":"71364","locality":"Winnenden","municipality":{"key":"08119085","name":"Winnenden, Stadt","type":"Große_Kreisstadt"},"district":{"key":"08119","name":"Rems-Murr-Kreis","type":"Landkreis"},"federalState":{"key":"08","name":"Baden-Württemberg"}},{"name":"Bengelstr.","postalCode":"71364","locality":"Winnenden","municipality":{"key":"08119085","name":"Winnenden, Stadt","type":"Große_Kreisstadt"},"district":{"key":"08119","name":"Rems-Murr-Kreis","type":"Landkreis"},"federalState":{"key":"08","name":"Baden-Württemberg"}},{"name":"Berglenstr.","postalCode":"71364","locality":"Winnenden","municipality":{"key":"08119085","name":"Winnenden, Stadt","type":"Große_Kreisstadt"},"district":{"key":"08119","name":"Rems-Murr-Kreis","type":"Landkreis"},"federalState":{"key":"08","name":"Baden-Württemberg"}},{"name":"Bergstr.","postalCode":"71364","locality":"Winnenden","municipality":{"key":"08119085","name":"Winnenden, Stadt","type":"Große_Kreisstadt"},"district":{"key":"08119","name":"Rems-Murr-Kreis","type":"Landkreis"},"federalState":{"key":"08","name":"Baden-Württemberg"}},{"name":"Bertha-von-Suttner-Str.","postalCode":"71364","locality":"Winnenden","municipality":{"key":"08119085","name":"Winnenden, Stadt","type":"Große_Kreisstadt"},"district":{"key":"08119","name":"Rems-Murr-Kreis","type":"Landkreis"},"federalState":{"key":"08","name":"Baden-Württemberg"}},{"name":"Bildackerstr.","postalCode":"71364","locality":"Winnenden","municipality":{"key":"08119085","name":"Winnenden, Stadt","type":"Große_Kreisstadt"},"district":{"key":"08119","name":"Rems-Murr-Kreis","type":"Landkreis"},"federalState":{"key":"08","name":"Baden-Württemberg"}},{"name":"Bildstr.","postalCode":"71364","locality":"Winnenden","municipality":{"key":"08119085","name":"Winnenden, Stadt","type":"Große_Kreisstadt"},"district":{"key":"08119","name":"Rems-Murr-Kreis","type":"Landkreis"},"federalState":{"key":"08","name":"Baden-Württemberg"}},{"name":"Birkenrain","postalCode":"71364","locality":"Winnenden","municipality":{"key":"08119085","name":"Winnenden, Stadt","type":"Große_Kreisstadt"},"district":{"key":"08119","name":"Rems-Murr-Kreis","type":"Landkreis"},"federalState":{"key":"08","name":"Baden-Württemberg"}},{"name":"Birkenstr.","postalCode":"71364","locality":"Winnenden","municipality":{"key":"08119085","name":"Winnenden, Stadt","type":"Große_Kreisstadt"},"district":{"key":"08119","name":"Rems-Murr-Kreis","type":"Landkreis"},"federalState":{"key":"08","name":"Baden-Württemberg"}},{"name":"Birkmannsweiler Str.","postalCode":"71364","locality":"Winnenden","municipality":{"key":"08119085","name":"Winnenden, Stadt","type":"Große_Kreisstadt"},"district":{"key":"08119","name":"Rems-Murr-Kreis","type":"Landkreis"},"federalState":{"key":"08","name":"Baden-Württemberg"}},{"name":"Björn-Steiger-Kreisel","postalCode":"71364","locality":"Winnenden","municipality":{"key":"08119085","name":"Winnenden, Stadt","type":"Große_Kreisstadt"},"district":{"key":"08119","name":"Rems-Murr-Kreis","type":"Landkreis"},"federalState":{"key":"08","name":"Baden-Württemberg"}},{"name":"Blumenstr.","postalCode":"71364","locality":"Winnenden","municipality":{"key":"08119085","name":"Winnenden, Stadt","type":"Große_Kreisstadt"},"district":{"key":"08119","name":"Rems-Murr-Kreis","type":"Landkreis"},"federalState":{"key":"08","name":"Baden-Württemberg"}},{"name":"Breitäckerweg","postalCode":"71364","locality":"Winnenden","municipality":{"key":"08119085","name":"Winnenden, Stadt","type":"Große_Kreisstadt"},"district":{"key":"08119","name":"Rems-Murr-Kreis","type":"Landkreis"},"federalState":{"key":"08","name":"Baden-Württemberg"}},{"name":"Breslauer Str.","postalCode":"71364","locality":"Winnenden","municipality":{"key":"08119085","name":"Winnenden, Stadt","type":"Große_Kreisstadt"},"district":{"key":"08119","name":"Rems-Murr-Kreis","type":"Landkreis"},"federalState":{"key":"08","name":"Baden-Württemberg"}},{"name":"Breuningsweiler Str.","postalCode":"71364","locality":"Winnenden","municipality":{"key":"08119085","name":"Winnenden, Stadt","type":"Große_Kreisstadt"},"district":{"key":"08119","name":"Rems-Murr-Kreis","type":"Landkreis"},"federalState":{"key":"08","name":"Baden-Württemberg"}},{"name":"Brückenstr.","postalCode":"71364","locality":"Winnenden","municipality":{"key":"08119085","name":"Winnenden, Stadt","type":"Große_Kreisstadt"},"district":{"key":"08119","name":"Rems-Murr-Kreis","type":"Landkreis"},"federalState":{"key":"08","name":"Baden-Württemberg"}},{"name":"Bruckwiesenstr.","postalCode":"71364","locality":"Winnenden","municipality":{"key":"08119085","name":"Winnenden, Stadt","type":"Große_Kreisstadt"},"district":{"key":"08119","name":"Rems-Murr-Kreis","type":"Landkreis"},"federalState":{"key":"08","name":"Baden-Württemberg"}},{"name":"Brühlweg","postalCode":"71364","locality":"Winnenden","municipality":{"key":"08119085","name":"Winnenden, Stadt","type":"Große_Kreisstadt"},"district":{"key":"08119","name":"Rems-Murr-Kreis","type":"Landkreis"},"federalState":{"key":"08","name":"Baden-Württemberg"}},{"name":"Brunnbachstr.","postalCode":"71364","locality":"Winnenden","municipality":{"key":"08119085","name":"Winnenden, Stadt","type":"Große_Kreisstadt"},"district":{"key":"08119","name":"Rems-Murr-Kreis","type":"Landkreis"},"federalState":{"key":"08","name":"Baden-Württemberg"}},{"name":"Brunnenstr.","postalCode":"71364","locality":"Winnenden","municipality":{"key":"08119085","name":"Winnenden, Stadt","type":"Große_Kreisstadt"},"district":{"key":"08119","name":"Rems-Murr-Kreis","type":"Landkreis"},"federalState":{"key":"08","name":"Baden-Württemberg"}},{"name":"Brunnenweg","postalCode":"71364","locality":"Winnenden","municipality":{"key":"08119085","name":"Winnenden, Stadt","type":"Große_Kreisstadt"},"district":{"key":"08119","name":"Rems-Murr-Kreis","type":"Landkreis"},"federalState":{"key":"08","name":"Baden-Württemberg"}},{"name":"Brunnhölzleweg","postalCode":"71364","locality":"Winnenden","municipality":{"key":"08119085","name":"Winnenden, Stadt","type":"Große_Kreisstadt"},"district":{"key":"08119","name":"Rems-Murr-Kreis","type":"Landkreis"},"federalState":{"key":"08","name":"Baden-Württemberg"}},{"name":"Brunnwengertweg","postalCode":"71364","locality":"Winnenden","municipality":{"key":"08119085","name":"Winnenden, Stadt","type":"Große_Kreisstadt"},"district":{"key":"08119","name":"Rems-Murr-Kreis","type":"Landkreis"},"federalState":{"key":"08","name":"Baden-Württemberg"}},{"name":"Buchenbachhof","postalCode":"71364","locality":"Winnenden","municipality":{"key":"08119085","name":"Winnenden, Stadt","type":"Große_Kreisstadt"},"district":{"key":"08119","name":"Rems-Murr-Kreis","type":"Landkreis"},"federalState":{"key":"08","name":"Baden-Württemberg"}},{"name":"Buchenhain","postalCode":"71364","locality":"Winnenden","municipality":{"key":"08119085","name":"Winnenden, Stadt","type":"Große_Kreisstadt"},"district":{"key":"08119","name":"Rems-Murr-Kreis","type":"Landkreis"},"federalState":{"key":"08","name":"Baden-Württemberg"}},{"name":"Buchenstr.","postalCode":"71364","locality":"Winnenden","municipality":{"key":"08119085","name":"Winnenden, Stadt","type":"Große_Kreisstadt"},"district":{"key":"08119","name":"Rems-Murr-Kreis","type":"Landkreis"},"federalState":{"key":"08","name":"Baden-Württemberg"}},{"name":"Buocher Str.","postalCode":"71364","locality":"Winnenden","municipality":{"key":"08119085","name":"Winnenden, Stadt","type":"Große_Kreisstadt"},"district":{"key":"08119","name":"Rems-Murr-Kreis","type":"Landkreis"},"federalState":{"key":"08","name":"Baden-Württemberg"}},{"name":"Bürgackerstr.","postalCode":"71364","locality":"Winnenden","municipality":{"key":"08119085","name":"Winnenden, Stadt","type":"Große_Kreisstadt"},"district":{"key":"08119","name":"Rems-Murr-Kreis","type":"Landkreis"},"federalState":{"key":"08","name":"Baden-Württemberg"}},{"name":"Burgeräcker","postalCode":"71364","locality":"Winnenden","municipality":{"key":"08119085","name":"Winnenden, Stadt","type":"Große_Kreisstadt"},"district":{"key":"08119","name":"Rems-Murr-Kreis","type":"Landkreis"},"federalState":{"key":"08","name":"Baden-Württemberg"}},{"name":"Bürger Str.","postalCode":"71364","locality":"Winnenden","municipality":{"key":"08119085","name":"Winnenden, Stadt","type":"Große_Kreisstadt"},"district":{"key":"08119","name":"Rems-Murr-Kreis","type":"Landkreis"},"federalState":{"key":"08","name":"Baden-Württemberg"}},{"name":"Burgunderweg","postalCode":"71364","locality":"Winnenden","municipality":{"key":"08119085","name":"Winnenden, Stadt","type":"Große_Kreisstadt"},"district":{"key":"08119","name":"Rems-Murr-Kreis","type":"Landkreis"},"federalState":{"key":"08","name":"Baden-Württemberg"}},{"name":"Burgweg","postalCode":"71364","locality":"Winnenden","municipality":{"key":"08119085","name":"Winnenden, Stadt","type":"Große_Kreisstadt"},"district":{"key":"08119","name":"Rems-Murr-Kreis","type":"Landkreis"},"federalState":{"key":"08","name":"Baden-Württemberg"}},{"name":"Burkhardshof","postalCode":"71364","locality":"Winnenden","municipality":{"key":"08119085","name":"Winnenden, Stadt","type":"Große_Kreisstadt"},"district":{"key":"08119","name":"Rems-Murr-Kreis","type":"Landkreis"},"federalState":{"key":"08","name":"Baden-Württemberg"}},{"name":"Bussardweg","postalCode":"71364","locality":"Winnenden","municipality":{"key":"08119085","name":"Winnenden, Stadt","type":"Große_Kreisstadt"},"district":{"key":"08119","name":"Rems-Murr-Kreis","type":"Landkreis"},"federalState":{"key":"08","name":"Baden-Württemberg"}},{"name":"Christallerstr.","postalCode":"71364","locality":"Winnenden","municipality":{"key":"08119085","name":"Winnenden, Stadt","type":"Große_Kreisstadt"},"district":{"key":"08119","name":"Rems-Murr-Kreis","type":"Landkreis"},"federalState":{"key":"08","name":"Baden-Württemberg"}},{"name":"Christine-Teusch-Str.","postalCode":"71364","locality":"Winnenden","municipality":{"key":"08119085","name":"Winnenden, Stadt","type":"Große_Kreisstadt"},"district":{"key":"08119","name":"Rems-Murr-Kreis","type":"Landkreis"},"federalState":{"key":"08","name":"Baden-Württemberg"}},{"name":"Christophstr.","postalCode":"71364","locality":"Winnenden","municipality":{"key":"08119085","name":"Winnenden, Stadt","type":"Große_Kreisstadt"},"district":{"key":"08119","name":"Rems-Murr-Kreis","type":"Landkreis"},"federalState":{"key":"08","name":"Baden-Württemberg"}},{"name":"Dahlienweg","postalCode":"71364","locality":"Winnenden","municipality":{"key":"08119085","name":"Winnenden, Stadt","type":"Große_Kreisstadt"},"district":{"key":"08119","name":"Rems-Murr-Kreis","type":"Landkreis"},"federalState":{"key":"08","name":"Baden-Württemberg"}},{"name":"Daimlerstr.","postalCode":"71364","locality":"Winnenden","municipality":{"key":"08119085","name":"Winnenden, Stadt","type":"Große_Kreisstadt"},"district":{"key":"08119","name":"Rems-Murr-Kreis","type":"Landkreis"},"federalState":{"key":"08","name":"Baden-Württemberg"}},{"name":"David-Klöpfer-Weg","postalCode":"71364","locality":"Winnenden","municipality":{"key":"08119085","name":"Winnenden, Stadt","type":"Große_Kreisstadt"},"district":{"key":"08119","name":"Rems-Murr-Kreis","type":"Landkreis"},"federalState":{"key":"08","name":"Baden-Württemberg"}},{"name":"Degenhofer Str.","postalCode":"71364","locality":"Winnenden","municipality":{"key":"08119085","name":"Winnenden, Stadt","type":"Große_Kreisstadt"},"district":{"key":"08119","name":"Rems-Murr-Kreis","type":"Landkreis"},"federalState":{"key":"08","name":"Baden-Württemberg"}},{"name":"Dinkelweg","postalCode":"71364","locality":"Winnenden","municipality":{"key":"08119085","name":"Winnenden, Stadt","type":"Große_Kreisstadt"},"district":{"key":"08119","name":"Rems-Murr-Kreis","type":"Landkreis"},"federalState":{"key":"08","name":"Baden-Württemberg"}},{"name":"Dorfplatz","postalCode":"71364","locality":"Winnenden","municipality":{"key":"08119085","name":"Winnenden, Stadt","type":"Große_Kreisstadt"},"district":{"key":"08119","name":"Rems-Murr-Kreis","type":"Landkreis"},"federalState":{"key":"08","name":"Baden-Württemberg"}},{"name":"Dornfelderweg","postalCode":"71364","locality":"Winnenden","municipality":{"key":"08119085","name":"Winnenden, Stadt","type":"Große_Kreisstadt"},"district":{"key":"08119","name":"Rems-Murr-Kreis","type":"Landkreis"},"federalState":{"key":"08","name":"Baden-Württemberg"}},{"name":"Drosselweg","postalCode":"71364","locality":"Winnenden","municipality":{"key":"08119085","name":"Winnenden, Stadt","type":"Große_Kreisstadt"},"district":{"key":"08119","name":"Rems-Murr-Kreis","type":"Landkreis"},"federalState":{"key":"08","name":"Baden-Württemberg"}},{"name":"Eberhardstr.","postalCode":"71364","locality":"Winnenden","municipality":{"key":"08119085","name":"Winnenden, Stadt","type":"Große_Kreisstadt"},"district":{"key":"08119","name":"Rems-Murr-Kreis","type":"Landkreis"},"federalState":{"key":"08","name":"Baden-Württemberg"}},{"name":"Ebniseestr.","postalCode":"71364","locality":"Winnenden","municipality":{"key":"08119085","name":"Winnenden, Stadt","type":"Große_Kreisstadt"},"district":{"key":"08119","name":"Rems-Murr-Kreis","type":"Landkreis"},"federalState":{"key":"08","name":"Baden-Württemberg"}},{"name":"Eckehardtstr.","postalCode":"71364","locality":"Winnenden","municipality":{"key":"08119085","name":"Winnenden, Stadt","type":"Große_Kreisstadt"},"district":{"key":"08119","name":"Rems-Murr-Kreis","type":"Landkreis"},"federalState":{"key":"08","name":"Baden-Württemberg"}},{"name":"Edelweißweg","postalCode":"71364","locality":"Winnenden","municipality":{"key":"08119085","name":"Winnenden, Stadt","type":"Große_Kreisstadt"},"district":{"key":"08119","name":"Rems-Murr-Kreis","type":"Landkreis"},"federalState":{"key":"08","name":"Baden-Württemberg"}},{"name":"Eibenweg","postalCode":"71364","locality":"Winnenden","municipality":{"key":"08119085","name":"Winnenden, Stadt","type":"Große_Kreisstadt"},"district":{"key":"08119","name":"Rems-Murr-Kreis","type":"Landkreis"},"federalState":{"key":"08","name":"Baden-Württemberg"}},{"name":"Eichendorffweg","postalCode":"71364","locality":"Winnenden","municipality":{"key":"08119085","name":"Winnenden, Stadt","type":"Große_Kreisstadt"},"district":{"key":"08119","name":"Rems-Murr-Kreis","type":"Landkreis"},"federalState":{"key":"08","name":"Baden-Württemberg"}},{"name":"Eichenweg","postalCode":"71364","locality":"Winnenden","municipality":{"key":"08119085","name":"Winnenden, Stadt","type":"Große_Kreisstadt"},"district":{"key":"08119","name":"Rems-Murr-Kreis","type":"Landkreis"},"federalState":{"key":"08","name":"Baden-Württemberg"}},{"name":"Eichholz","postalCode":"71364","locality":"Winnenden","municipality":{"key":"08119085","name":"Winnenden, Stadt","type":"Große_Kreisstadt"},"district":{"key":"08119","name":"Rems-Murr-Kreis","type":"Landkreis"},"federalState":{"key":"08","name":"Baden-Württemberg"}},{"name":"Elisabeth-Selbert-Str.","postalCode":"71364","locality":"Winnenden","municipality":{"key":"08119085","name":"Winnenden, Stadt","type":"Große_Kreisstadt"},"district":{"key":"08119","name":"Rems-Murr-Kreis","type":"Landkreis"},"federalState":{"key":"08","name":"Baden-Württemberg"}},{"name":"Entengasse","postalCode":"71364","locality":"Winnenden","municipality":{"key":"08119085","name":"Winnenden, Stadt","type":"Große_Kreisstadt"},"district":{"key":"08119","name":"Rems-Murr-Kreis","type":"Landkreis"},"federalState":{"key":"08","name":"Baden-Württemberg"}},{"name":"Enzianstr.","postalCode":"71364","locality":"Winnenden","municipality":{"key":"08119085","name":"Winnenden, Stadt","type":"Große_Kreisstadt"},"district":{"key":"08119","name":"Rems-Murr-Kreis","type":"Landkreis"},"federalState":{"key":"08","name":"Baden-Württemberg"}},{"name":"Enzianweg","postalCode":"71364","locality":"Winnenden","municipality":{"key":"08119085","name":"Winnenden, Stadt","type":"Große_Kreisstadt"},"district":{"key":"08119","name":"Rems-Murr-Kreis","type":"Landkreis"},"federalState":{"key":"08","name":"Baden-Württemberg"}},{"name":"Erlenweg","postalCode":"71364","locality":"Winnenden","municipality":{"key":"08119085","name":"Winnenden, Stadt","type":"Große_Kreisstadt"},"district":{"key":"08119","name":"Rems-Murr-Kreis","type":"Landkreis"},"federalState":{"key":"08","name":"Baden-Württemberg"}},{"name":"Eschenweg","postalCode":"71364","locality":"Winnenden","municipality":{"key":"08119085","name":"Winnenden, Stadt","type":"Große_Kreisstadt"},"district":{"key":"08119","name":"Rems-Murr-Kreis","type":"Landkreis"},"federalState":{"key":"08","name":"Baden-Württemberg"}},{"name":"Eugen-Bauer-Str.","postalCode":"71364","locality":"Winnenden","municipality":{"key":"08119085","name":"Winnenden, Stadt","type":"Große_Kreisstadt"},"district":{"key":"08119","name":"Rems-Murr-Kreis","type":"Landkreis"},"federalState":{"key":"08","name":"Baden-Württemberg"}},{"name":"Eugenstr.","postalCode":"71364","locality":"Winnenden","municipality":{"key":"08119085","name":"Winnenden, Stadt","type":"Große_Kreisstadt"},"district":{"key":"08119","name":"Rems-Murr-Kreis","type":"Landkreis"},"federalState":{"key":"08","name":"Baden-Württemberg"}},{"name":"Falkenweg","postalCode":"71364","locality":"Winnenden","municipality":{"key":"08119085","name":"Winnenden, Stadt","type":"Große_Kreisstadt"},"district":{"key":"08119","name":"Rems-Murr-Kreis","type":"Landkreis"},"federalState":{"key":"08","name":"Baden-Württemberg"}},{"name":"Fasanenweg","postalCode":"71364","locality":"Winnenden","municipality":{"key":"08119085","name":"Winnenden, Stadt","type":"Große_Kreisstadt"},"district":{"key":"08119","name":"Rems-Murr-Kreis","type":"Landkreis"},"federalState":{"key":"08","name":"Baden-Württemberg"}},{"name":"Fichtenstr.","postalCode":"71364","locality":"Winnenden","municipality":{"key":"08119085","name":"Winnenden, Stadt","type":"Große_Kreisstadt"},"district":{"key":"08119","name":"Rems-Murr-Kreis","type":"Landkreis"},"federalState":{"key":"08","name":"Baden-Württemberg"}},{"name":"Finkenweg","postalCode":"71364","locality":"Winnenden","municipality":{"key":"08119085","name":"Winnenden, Stadt","type":"Große_Kreisstadt"},"district":{"key":"08119","name":"Rems-Murr-Kreis","type":"Landkreis"},"federalState":{"key":"08","name":"Baden-Württemberg"}},{"name":"Flachswiesenstr.","postalCode":"71364","locality":"Winnenden","municipality":{"key":"08119085","name":"Winnenden, Stadt","type":"Große_Kreisstadt"},"district":{"key":"08119","name":"Rems-Murr-Kreis","type":"Landkreis"},"federalState":{"key":"08","name":"Baden-Württemberg"}},{"name":"Fliederweg","postalCode":"71364","locality":"Winnenden","municipality":{"key":"08119085","name":"Winnenden, Stadt","type":"Große_Kreisstadt"},"district":{"key":"08119","name":"Rems-Murr-Kreis","type":"Landkreis"},"federalState":{"key":"08","name":"Baden-Württemberg"}},{"name":"Flurstr.","postalCode":"71364","locality":"Winnenden","municipality":{"key":"08119085","name":"Winnenden, Stadt","type":"Große_Kreisstadt"},"district":{"key":"08119","name":"Rems-Murr-Kreis","type":"Landkreis"},"federalState":{"key":"08","name":"Baden-Württemberg"}},{"name":"Forchenwaldstr.","postalCode":"71364","locality":"Winnenden","municipality":{"key":"08119085","name":"Winnenden, Stadt","type":"Große_Kreisstadt"},"district":{"key":"08119","name":"Rems-Murr-Kreis","type":"Landkreis"},"federalState":{"key":"08","name":"Baden-Württemberg"}},{"name":"Forststr.","postalCode":"71364","locality":"Winnenden","municipality":{"key":"08119085","name":"Winnenden, Stadt","type":"Große_Kreisstadt"},"district":{"key":"08119","name":"Rems-Murr-Kreis","type":"Landkreis"},"federalState":{"key":"08","name":"Baden-Württemberg"}},{"name":"Freibad Höfen","postalCode":"71364","locality":"Winnenden","municipality":{"key":"08119085","name":"Winnenden, Stadt","type":"Große_Kreisstadt"},"district":{"key":"08119","name":"Rems-Murr-Kreis","type":"Landkreis"},"federalState":{"key":"08","name":"Baden-Württemberg"}},{"name":"Friedensstr.","postalCode":"71364","locality":"Winnenden","municipality":{"key":"08119085","name":"Winnenden, Stadt","type":"Große_Kreisstadt"},"district":{"key":"08119","name":"Rems-Murr-Kreis","type":"Landkreis"},"federalState":{"key":"08","name":"Baden-Württemberg"}},{"name":"Friedhofstr.","postalCode":"71364","locality":"Winnenden","municipality":{"key":"08119085","name":"Winnenden, Stadt","type":"Große_Kreisstadt"},"district":{"key":"08119","name":"Rems-Murr-Kreis","type":"Landkreis"},"federalState":{"key":"08","name":"Baden-Württemberg"}},{"name":"Friedhofweg","postalCode":"71364","locality":"Winnenden","municipality":{"key":"08119085","name":"Winnenden, Stadt","type":"Große_Kreisstadt"},"district":{"key":"08119","name":"Rems-Murr-Kreis","type":"Landkreis"},"federalState":{"key":"08","name":"Baden-Württemberg"}},{"name":"Friedrich-Jakob-Heim-Str.","postalCode":"71364","locality":"Winnenden","municipality":{"key":"08119085","name":"Winnenden, Stadt","type":"Große_Kreisstadt"},"district":{"key":"08119","name":"Rems-Murr-Kreis","type":"Landkreis"},"federalState":{"key":"08","name":"Baden-Württemberg"}},{"name":"Friedrich-List-Str.","postalCode":"71364","locality":"Winnenden","municipality":{"key":"08119085","name":"Winnenden, Stadt","type":"Große_Kreisstadt"},"district":{"key":"08119","name":"Rems-Murr-Kreis","type":"Landkreis"},"federalState":{"key":"08","name":"Baden-Württemberg"}},{"name":"Friedrichstr.","postalCode":"71364","locality":"Winnenden","municipality":{"key":"08119085","name":"Winnenden, Stadt","type":"Große_Kreisstadt"},"district":{"key":"08119","name":"Rems-Murr-Kreis","type":"Landkreis"},"federalState":{"key":"08","name":"Baden-Württemberg"}},{"name":"Frohsinngasse","postalCode":"71364","locality":"Winnenden","municipality":{"key":"08119085","name":"Winnenden, Stadt","type":"Große_Kreisstadt"},"district":{"key":"08119","name":"Rems-Murr-Kreis","type":"Landkreis"},"federalState":{"key":"08","name":"Baden-Württemberg"}},{"name":"Frühlingsweg","postalCode":"71364","locality":"Winnenden","municipality":{"key":"08119085","name":"Winnenden, Stadt","type":"Große_Kreisstadt"},"district":{"key":"08119","name":"Rems-Murr-Kreis","type":"Landkreis"},"federalState":{"key":"08","name":"Baden-Württemberg"}},{"name":"Furtwiesenweg","postalCode":"71364","locality":"Winnenden","municipality":{"key":"08119085","name":"Winnenden, Stadt","type":"Große_Kreisstadt"},"district":{"key":"08119","name":"Rems-Murr-Kreis","type":"Landkreis"},"federalState":{"key":"08","name":"Baden-Württemberg"}},{"name":"Gänsgraben","postalCode":"71364","locality":"Winnenden","municipality":{"key":"08119085","name":"Winnenden, Stadt","type":"Große_Kreisstadt"},"district":{"key":"08119","name":"Rems-Murr-Kreis","type":"Landkreis"},"federalState":{"key":"08","name":"Baden-Württemberg"}},{"name":"Gartenstr.","postalCode":"71364","locality":"Winnenden","municipality":{"key":"08119085","name":"Winnenden, Stadt","type":"Große_Kreisstadt"},"district":{"key":"08119","name":"Rems-Murr-Kreis","type":"Landkreis"},"federalState":{"key":"08","name":"Baden-Württemberg"}},{"name":"Gärtnerstr.","postalCode":"71364","locality":"Winnenden","municipality":{"key":"08119085","name":"Winnenden, Stadt","type":"Große_Kreisstadt"},"district":{"key":"08119","name":"Rems-Murr-Kreis","type":"Landkreis"},"federalState":{"key":"08","name":"Baden-Württemberg"}},{"name":"Gäßle","postalCode":"71364","locality":"Winnenden","municipality":{"key":"08119085","name":"Winnenden, Stadt","type":"Große_Kreisstadt"},"district":{"key":"08119","name":"Rems-Murr-Kreis","type":"Landkreis"},"federalState":{"key":"08","name":"Baden-Württemberg"}},{"name":"Gaußweg","postalCode":"71364","locality":"Winnenden","municipality":{"key":"08119085","name":"Winnenden, Stadt","type":"Große_Kreisstadt"},"district":{"key":"08119","name":"Rems-Murr-Kreis","type":"Landkreis"},"federalState":{"key":"08","name":"Baden-Württemberg"}},{"name":"Georg-Brandt-Weg","postalCode":"71364","locality":"Winnenden","municipality":{"key":"08119085","name":"Winnenden, Stadt","type":"Große_Kreisstadt"},"district":{"key":"08119","name":"Rems-Murr-Kreis","type":"Landkreis"},"federalState":{"key":"08","name":"Baden-Württemberg"}},{"name":"Gerberstr.","postalCode":"71364","locality":"Winnenden","municipality":{"key":"08119085","name":"Winnenden, Stadt","type":"Große_Kreisstadt"},"district":{"key":"08119","name":"Rems-Murr-Kreis","type":"Landkreis"},"federalState":{"key":"08","name":"Baden-Württemberg"}},{"name":"Gereut","postalCode":"71364","locality":"Winnenden","municipality":{"key":"08119085","name":"Winnenden, Stadt","type":"Große_Kreisstadt"},"district":{"key":"08119","name":"Rems-Murr-Kreis","type":"Landkreis"},"federalState":{"key":"08","name":"Baden-Württemberg"}},{"name":"Gertrud-Bäumer-Allee","postalCode":"71364","locality":"Winnenden","municipality":{"key":"08119085","name":"Winnenden, Stadt","type":"Große_Kreisstadt"},"district":{"key":"08119","name":"Rems-Murr-Kreis","type":"Landkreis"},"federalState":{"key":"08","name":"Baden-Württemberg"}},{"name":"Ginsterweg","postalCode":"71364","locality":"Winnenden","municipality":{"key":"08119085","name":"Winnenden, Stadt","type":"Große_Kreisstadt"},"district":{"key":"08119","name":"Rems-Murr-Kreis","type":"Landkreis"},"federalState":{"key":"08","name":"Baden-Württemberg"}},{"name":"Goethestr.","postalCode":"71364","locality":"Winnenden","municipality":{"key":"08119085","name":"Winnenden, Stadt","type":"Große_Kreisstadt"},"district":{"key":"08119","name":"Rems-Murr-Kreis","type":"Landkreis"},"federalState":{"key":"08","name":"Baden-Württemberg"}},{"name":"Gottlob-Müller-Str.","postalCode":"71364","locality":"Winnenden","municipality":{"key":"08119085","name":"Winnenden, Stadt","type":"Große_Kreisstadt"},"district":{"key":"08119","name":"Rems-Murr-Kreis","type":"Landkreis"},"federalState":{"key":"08","name":"Baden-Württemberg"}},{"name":"Graslitzer Weg","postalCode":"71364","locality":"Winnenden","municipality":{"key":"08119085","name":"Winnenden, Stadt","type":"Große_Kreisstadt"},"district":{"key":"08119","name":"Rems-Murr-Kreis","type":"Landkreis"},"federalState":{"key":"08","name":"Baden-Württemberg"}},{"name":"Großheppacher Str.","postalCode":"71364","locality":"Winnenden","municipality":{"key":"08119085","name":"Winnenden, Stadt","type":"Große_Kreisstadt"},"district":{"key":"08119","name":"Rems-Murr-Kreis","type":"Landkreis"},"federalState":{"key":"08","name":"Baden-Württemberg"}},{"name":"Grüningerstr.","postalCode":"71364","locality":"Winnenden","municipality":{"key":"08119085","name":"Winnenden, Stadt","type":"Große_Kreisstadt"},"district":{"key":"08119","name":"Rems-Murr-Kreis","type":"Landkreis"},"federalState":{"key":"08","name":"Baden-Württemberg"}},{"name":"Gutenbergweg","postalCode":"71364","locality":"Winnenden","municipality":{"key":"08119085","name":"Winnenden, Stadt","type":"Große_Kreisstadt"},"district":{"key":"08119","name":"Rems-Murr-Kreis","type":"Landkreis"},"federalState":{"key":"08","name":"Baden-Württemberg"}},{"name":"Haldenweg","postalCode":"71364","locality":"Winnenden","municipality":{"key":"08119085","name":"Winnenden, Stadt","type":"Große_Kreisstadt"},"district":{"key":"08119","name":"Rems-Murr-Kreis","type":"Landkreis"},"federalState":{"key":"08","name":"Baden-Württemberg"}},{"name":"Hambachkreisel","postalCode":"71364","locality":"Winnenden","municipality":{"key":"08119085","name":"Winnenden, Stadt","type":"Große_Kreisstadt"},"district":{"key":"08119","name":"Rems-Murr-Kreis","type":"Landkreis"},"federalState":{"key":"08","name":"Baden-Württemberg"}},{"name":"Hanflandstr.","postalCode":"71364","locality":"Winnenden","municipality":{"key":"08119085","name":"Winnenden, Stadt","type":"Große_Kreisstadt"},"district":{"key":"08119","name":"Rems-Murr-Kreis","type":"Landkreis"},"federalState":{"key":"08","name":"Baden-Württemberg"}},{"name":"Hanweiler Str.","postalCode":"71364","locality":"Winnenden","municipality":{"key":"08119085","name":"Winnenden, Stadt","type":"Große_Kreisstadt"},"district":{"key":"08119","name":"Rems-Murr-Kreis","type":"Landkreis"},"federalState":{"key":"08","name":"Baden-Württemberg"}},{"name":"Haselsteinstr.","postalCode":"71364","locality":"Winnenden","municipality":{"key":"08119085","name":"Winnenden, Stadt","type":"Große_Kreisstadt"},"district":{"key":"08119","name":"Rems-Murr-Kreis","type":"Landkreis"},"federalState":{"key":"08","name":"Baden-Württemberg"}},{"name":"Hasenäckerstr.","postalCode":"71364","locality":"Winnenden","municipality":{"key":"08119085","name":"Winnenden, Stadt","type":"Große_Kreisstadt"},"district":{"key":"08119","name":"Rems-Murr-Kreis","type":"Landkreis"},"federalState":{"key":"08","name":"Baden-Württemberg"}},{"name":"Hauffstr.","postalCode":"71364","locality":"Winnenden","municipality":{"key":"08119085","name":"Winnenden, Stadt","type":"Große_Kreisstadt"},"district":{"key":"08119","name":"Rems-Murr-Kreis","type":"Landkreis"},"federalState":{"key":"08","name":"Baden-Württemberg"}},{"name":"Hauptstr.","postalCode":"71364","locality":"Winnenden","municipality":{"key":"08119085","name":"Winnenden, Stadt","type":"Große_Kreisstadt"},"district":{"key":"08119","name":"Rems-Murr-Kreis","type":"Landkreis"},"federalState":{"key":"08","name":"Baden-Württemberg"}},{"name":"Hauswiesenstr.","postalCode":"71364","locality":"Winnenden","municipality":{"key":"08119085","name":"Winnenden, Stadt","type":"Große_Kreisstadt"},"district":{"key":"08119","name":"Rems-Murr-Kreis","type":"Landkreis"},"federalState":{"key":"08","name":"Baden-Württemberg"}},{"name":"Haydnstr.","postalCode":"71364","locality":"Winnenden","municipality":{"key":"08119085","name":"Winnenden, Stadt","type":"Große_Kreisstadt"},"district":{"key":"08119","name":"Rems-Murr-Kreis","type":"Landkreis"},"federalState":{"key":"08","name":"Baden-Württemberg"}},{"name":"Hebelstr.","postalCode":"71364","locality":"Winnenden","municipality":{"key":"08119085","name":"Winnenden, Stadt","type":"Große_Kreisstadt"},"district":{"key":"08119","name":"Rems-Murr-Kreis","type":"Landkreis"},"federalState":{"key":"08","name":"Baden-Württemberg"}},{"name":"Heckenweg","postalCode":"71364","locality":"Winnenden","municipality":{"key":"08119085","name":"Winnenden, Stadt","type":"Große_Kreisstadt"},"district":{"key":"08119","name":"Rems-Murr-Kreis","type":"Landkreis"},"federalState":{"key":"08","name":"Baden-Württemberg"}},{"name":"Henry-Dujol-Kreisel","postalCode":"71364","locality":"Winnenden","municipality":{"key":"08119085","name":"Winnenden, Stadt","type":"Große_Kreisstadt"},"district":{"key":"08119","name":"Rems-Murr-Kreis","type":"Landkreis"},"federalState":{"key":"08","name":"Baden-Württemberg"}},{"name":"Henry-Dunant-Weg","postalCode":"71364","locality":"Winnenden","municipality":{"key":"08119085","name":"Winnenden, Stadt","type":"Große_Kreisstadt"},"district":{"key":"08119","name":"Rems-Murr-Kreis","type":"Landkreis"},"federalState":{"key":"08","name":"Baden-Württemberg"}},{"name":"Herderweg","postalCode":"71364","locality":"Winnenden","municipality":{"key":"08119085","name":"Winnenden, Stadt","type":"Große_Kreisstadt"},"district":{"key":"08119","name":"Rems-Murr-Kreis","type":"Landkreis"},"federalState":{"key":"08","name":"Baden-Württemberg"}},{"name":"Hermann-Löns-Weg","postalCode":"71364","locality":"Winnenden","municipality":{"key":"08119085","name":"Winnenden, Stadt","type":"Große_Kreisstadt"},"district":{"key":"08119","name":"Rems-Murr-Kreis","type":"Landkreis"},"federalState":{"key":"08","name":"Baden-Württemberg"}},{"name":"Hertmannsweiler Weg","postalCode":"71364","locality":"Winnenden","municipality":{"key":"08119085","name":"Winnenden, Stadt","type":"Große_Kreisstadt"},"district":{"key":"08119","name":"Rems-Murr-Kreis","type":"Landkreis"},"federalState":{"key":"08","name":"Baden-Württemberg"}},{"name":"Herzog-Philipp-Str.","postalCode":"71364","locality":"Winnenden","municipality":{"key":"08119085","name":"Winnenden, Stadt","type":"Große_Kreisstadt"},"district":{"key":"08119","name":"Rems-Murr-Kreis","type":"Landkreis"},"federalState":{"key":"08","name":"Baden-Württemberg"}},{"name":"Hofäckerstr.","postalCode":"71364","locality":"Winnenden","municipality":{"key":"08119085","name":"Winnenden, Stadt","type":"Große_Kreisstadt"},"district":{"key":"08119","name":"Rems-Murr-Kreis","type":"Landkreis"},"federalState":{"key":"08","name":"Baden-Württemberg"}},{"name":"Höfener Steige","postalCode":"71364","locality":"Winnenden","municipality":{"key":"08119085","name":"Winnenden, Stadt","type":"Große_Kreisstadt"},"district":{"key":"08119","name":"Rems-Murr-Kreis","type":"Landkreis"},"federalState":{"key":"08","name":"Baden-Württemberg"}},{"name":"Höfener Str.","postalCode":"71364","locality":"Winnenden","municipality":{"key":"08119085","name":"Winnenden, Stadt","type":"Große_Kreisstadt"},"district":{"key":"08119","name":"Rems-Murr-Kreis","type":"Landkreis"},"federalState":{"key":"08","name":"Baden-Württemberg"}},{"name":"Hofkammerstr.","postalCode":"71364","locality":"Winnenden","municipality":{"key":"08119085","name":"Winnenden, Stadt","type":"Große_Kreisstadt"},"district":{"key":"08119","name":"Rems-Murr-Kreis","type":"Landkreis"},"federalState":{"key":"08","name":"Baden-Württemberg"}},{"name":"Hofweg","postalCode":"71364","locality":"Winnenden","municipality":{"key":"08119085","name":"Winnenden, Stadt","type":"Große_Kreisstadt"},"district":{"key":"08119","name":"Rems-Murr-Kreis","type":"Landkreis"},"federalState":{"key":"08","name":"Baden-Württemberg"}},{"name":"Hohenstaufenstr.","postalCode":"71364","locality":"Winnenden","municipality":{"key":"08119085","name":"Winnenden, Stadt","type":"Große_Kreisstadt"},"district":{"key":"08119","name":"Rems-Murr-Kreis","type":"Landkreis"},"federalState":{"key":"08","name":"Baden-Württemberg"}},{"name":"Höhenstr.","postalCode":"71364","locality":"Winnenden","municipality":{"key":"08119085","name":"Winnenden, Stadt","type":"Große_Kreisstadt"},"district":{"key":"08119","name":"Rems-Murr-Kreis","type":"Landkreis"},"federalState":{"key":"08","name":"Baden-Württemberg"}},{"name":"Hohenzollernweg","postalCode":"71364","locality":"Winnenden","municipality":{"key":"08119085","name":"Winnenden, Stadt","type":"Große_Kreisstadt"},"district":{"key":"08119","name":"Rems-Murr-Kreis","type":"Landkreis"},"federalState":{"key":"08","name":"Baden-Württemberg"}},{"name":"Hohreuschstr.","postalCode":"71364","locality":"Winnenden","municipality":{"key":"08119085","name":"Winnenden, Stadt","type":"Große_Kreisstadt"},"district":{"key":"08119","name":"Rems-Murr-Kreis","type":"Landkreis"},"federalState":{"key":"08","name":"Baden-Württemberg"}},{"name":"Hölderlinstr.","postalCode":"71364","locality":"Winnenden","municipality":{"key":"08119085","name":"Winnenden, Stadt","type":"Große_Kreisstadt"},"district":{"key":"08119","name":"Rems-Murr-Kreis","type":"Landkreis"},"federalState":{"key":"08","name":"Baden-Württemberg"}},{"name":"Holunderweg","postalCode":"71364","locality":"Winnenden","municipality":{"key":"08119085","name":"Winnenden, Stadt","type":"Große_Kreisstadt"},"district":{"key":"08119","name":"Rems-Murr-Kreis","type":"Landkreis"},"federalState":{"key":"08","name":"Baden-Württemberg"}},{"name":"Hungerbergstr.","postalCode":"71364","locality":"Winnenden","municipality":{"key":"08119085","name":"Winnenden, Stadt","type":"Große_Kreisstadt"},"district":{"key":"08119","name":"Rems-Murr-Kreis","type":"Landkreis"},"federalState":{"key":"08","name":"Baden-Württemberg"}},{"name":"Im Aupperle","postalCode":"71364","locality":"Winnenden","municipality":{"key":"08119085","name":"Winnenden, Stadt","type":"Große_Kreisstadt"},"district":{"key":"08119","name":"Rems-Murr-Kreis","type":"Landkreis"},"federalState":{"key":"08","name":"Baden-Württemberg"}},{"name":"Im Bergle","postalCode":"71364","locality":"Winnenden","municipality":{"key":"08119085","name":"Winnenden, Stadt","type":"Große_Kreisstadt"},"district":{"key":"08119","name":"Rems-Murr-Kreis","type":"Landkreis"},"federalState":{"key":"08","name":"Baden-Württemberg"}},{"name":"Im Biegel","postalCode":"71364","locality":"Winnenden","municipality":{"key":"08119085","name":"Winnenden, Stadt","type":"Große_Kreisstadt"},"district":{"key":"08119","name":"Rems-Murr-Kreis","type":"Landkreis"},"federalState":{"key":"08","name":"Baden-Württemberg"}},{"name":"Im Bödele","postalCode":"71364","locality":"Winnenden","municipality":{"key":"08119085","name":"Winnenden, Stadt","type":"Große_Kreisstadt"},"district":{"key":"08119","name":"Rems-Murr-Kreis","type":"Landkreis"},"federalState":{"key":"08","name":"Baden-Württemberg"}},{"name":"Im Bürgle","postalCode":"71364","locality":"Winnenden","municipality":{"key":"08119085","name":"Winnenden, Stadt","type":"Große_Kreisstadt"},"district":{"key":"08119","name":"Rems-Murr-Kreis","type":"Landkreis"},"federalState":{"key":"08","name":"Baden-Württemberg"}},{"name":"Im Kauzenbach","postalCode":"71364","locality":"Winnenden","municipality":{"key":"08119085","name":"Winnenden, Stadt","type":"Große_Kreisstadt"},"district":{"key":"08119","name":"Rems-Murr-Kreis","type":"Landkreis"},"federalState":{"key":"08","name":"Baden-Württemberg"}},{"name":"Im Lerchenberg","postalCode":"71364","locality":"Winnenden","municipality":{"key":"08119085","name":"Winnenden, Stadt","type":"Große_Kreisstadt"},"district":{"key":"08119","name":"Rems-Murr-Kreis","type":"Landkreis"},"federalState":{"key":"08","name":"Baden-Württemberg"}},{"name":"Im Mühlrain","postalCode":"71364","locality":"Winnenden","municipality":{"key":"08119085","name":"Winnenden, Stadt","type":"Große_Kreisstadt"},"district":{"key":"08119","name":"Rems-Murr-Kreis","type":"Landkreis"},"federalState":{"key":"08","name":"Baden-Württemberg"}},{"name":"Im Stollen","postalCode":"71364","locality":"Winnenden","municipality":{"key":"08119085","name":"Winnenden, Stadt","type":"Große_Kreisstadt"},"district":{"key":"08119","name":"Rems-Murr-Kreis","type":"Landkreis"},"federalState":{"key":"08","name":"Baden-Württemberg"}},{"name":"In den Gärten","postalCode":"71364","locality":"Winnenden","municipality":{"key":"08119085","name":"Winnenden, Stadt","type":"Große_Kreisstadt"},"district":{"key":"08119","name":"Rems-Murr-Kreis","type":"Landkreis"},"federalState":{"key":"08","name":"Baden-Württemberg"}},{"name":"In der Au","postalCode":"71364","locality":"Winnenden","municipality":{"key":"08119085","name":"Winnenden, Stadt","type":"Große_Kreisstadt"},"district":{"key":"08119","name":"Rems-Murr-Kreis","type":"Landkreis"},"federalState":{"key":"08","name":"Baden-Württemberg"}},{"name":"In der Bleiche","postalCode":"71364","locality":"Winnenden","municipality":{"key":"08119085","name":"Winnenden, Stadt","type":"Große_Kreisstadt"},"district":{"key":"08119","name":"Rems-Murr-Kreis","type":"Landkreis"},"federalState":{"key":"08","name":"Baden-Württemberg"}},{"name":"In der Klinge","postalCode":"71364","locality":"Winnenden","municipality":{"key":"08119085","name":"Winnenden, Stadt","type":"Große_Kreisstadt"},"district":{"key":"08119","name":"Rems-Murr-Kreis","type":"Landkreis"},"federalState":{"key":"08","name":"Baden-Württemberg"}},{"name":"Industriestr.","postalCode":"71364","locality":"Winnenden","municipality":{"key":"08119085","name":"Winnenden, Stadt","type":"Große_Kreisstadt"},"district":{"key":"08119","name":"Rems-Murr-Kreis","type":"Landkreis"},"federalState":{"key":"08","name":"Baden-Württemberg"}},{"name":"Jahnstr.","postalCode":"71364","locality":"Winnenden","municipality":{"key":"08119085","name":"Winnenden, Stadt","type":"Große_Kreisstadt"},"district":{"key":"08119","name":"Rems-Murr-Kreis","type":"Landkreis"},"federalState":{"key":"08","name":"Baden-Württemberg"}},{"name":"Johannes-Giesser-Str.","postalCode":"71364","locality":"Winnenden","municipality":{"key":"08119085","name":"Winnenden, Stadt","type":"Große_Kreisstadt"},"district":{"key":"08119","name":"Rems-Murr-Kreis","type":"Landkreis"},"federalState":{"key":"08","name":"Baden-Württemberg"}},{"name":"Kanalstr.","postalCode":"71364","locality":"Winnenden","municipality":{"key":"08119085","name":"Winnenden, Stadt","type":"Große_Kreisstadt"},"district":{"key":"08119","name":"Rems-Murr-Kreis","type":"Landkreis"},"federalState":{"key":"08","name":"Baden-Württemberg"}},{"name":"Kantstr.","postalCode":"71364","locality":"Winnenden","municipality":{"key":"08119085","name":"Winnenden, Stadt","type":"Große_Kreisstadt"},"district":{"key":"08119","name":"Rems-Murr-Kreis","type":"Landkreis"},"federalState":{"key":"08","name":"Baden-Württemberg"}},{"name":"Kapellenweg","postalCode":"71364","locality":"Winnenden","municipality":{"key":"08119085","name":"Winnenden, Stadt","type":"Große_Kreisstadt"},"district":{"key":"08119","name":"Rems-Murr-Kreis","type":"Landkreis"},"federalState":{"key":"08","name":"Baden-Württemberg"}},{"name":"Karl-Georg-Pfleiderer-Str.","postalCode":"71364","locality":"Winnenden","municipality":{"key":"08119085","name":"Winnenden, Stadt","type":"Große_Kreisstadt"},"district":{"key":"08119","name":"Rems-Murr-Kreis","type":"Landkreis"},"federalState":{"key":"08","name":"Baden-Württemberg"}},{"name":"Karl-Krämer-Str.","postalCode":"71364","locality":"Winnenden","municipality":{"key":"08119085","name":"Winnenden, Stadt","type":"Große_Kreisstadt"},"district":{"key":"08119","name":"Rems-Murr-Kreis","type":"Landkreis"},"federalState":{"key":"08","name":"Baden-Württemberg"}},{"name":"Karlstr.","postalCode":"71364","locality":"Winnenden","municipality":{"key":"08119085","name":"Winnenden, Stadt","type":"Große_Kreisstadt"},"district":{"key":"08119","name":"Rems-Murr-Kreis","type":"Landkreis"},"federalState":{"key":"08","name":"Baden-Württemberg"}},{"name":"Kastanienstr.","postalCode":"71364","locality":"Winnenden","municipality":{"key":"08119085","name":"Winnenden, Stadt","type":"Große_Kreisstadt"},"district":{"key":"08119","name":"Rems-Murr-Kreis","type":"Landkreis"},"federalState":{"key":"08","name":"Baden-Württemberg"}},{"name":"Käthe-Kollwitz-Weg","postalCode":"71364","locality":"Winnenden","municipality":{"key":"08119085","name":"Winnenden, Stadt","type":"Große_Kreisstadt"},"district":{"key":"08119","name":"Rems-Murr-Kreis","type":"Landkreis"},"federalState":{"key":"08","name":"Baden-Württemberg"}},{"name":"Kelterstr.","postalCode":"71364","locality":"Winnenden","municipality":{"key":"08119085","name":"Winnenden, Stadt","type":"Große_Kreisstadt"},"district":{"key":"08119","name":"Rems-Murr-Kreis","type":"Landkreis"},"federalState":{"key":"08","name":"Baden-Württemberg"}},{"name":"Keplerstr.","postalCode":"71364","locality":"Winnenden","municipality":{"key":"08119085","name":"Winnenden, Stadt","type":"Große_Kreisstadt"},"district":{"key":"08119","name":"Rems-Murr-Kreis","type":"Landkreis"},"federalState":{"key":"08","name":"Baden-Württemberg"}},{"name":"Kernerstr.","postalCode":"71364","locality":"Winnenden","municipality":{"key":"08119085","name":"Winnenden, Stadt","type":"Große_Kreisstadt"},"district":{"key":"08119","name":"Rems-Murr-Kreis","type":"Landkreis"},"federalState":{"key":"08","name":"Baden-Württemberg"}},{"name":"Kesselrain","postalCode":"71364","locality":"Winnenden","municipality":{"key":"08119085","name":"Winnenden, Stadt","type":"Große_Kreisstadt"},"district":{"key":"08119","name":"Rems-Murr-Kreis","type":"Landkreis"},"federalState":{"key":"08","name":"Baden-Württemberg"}},{"name":"Kiefernstr.","postalCode":"71364","locality":"Winnenden","municipality":{"key":"08119085","name":"Winnenden, Stadt","type":"Große_Kreisstadt"},"district":{"key":"08119","name":"Rems-Murr-Kreis","type":"Landkreis"},"federalState":{"key":"08","name":"Baden-Württemberg"}},{"name":"Kirchgäßle","postalCode":"71364","locality":"Winnenden","municipality":{"key":"08119085","name":"Winnenden, Stadt","type":"Große_Kreisstadt"},"district":{"key":"08119","name":"Rems-Murr-Kreis","type":"Landkreis"},"federalState":{"key":"08","name":"Baden-Württemberg"}},{"name":"Kirchstr.","postalCode":"71364","locality":"Winnenden","municipality":{"key":"08119085","name":"Winnenden, Stadt","type":"Große_Kreisstadt"},"district":{"key":"08119","name":"Rems-Murr-Kreis","type":"Landkreis"},"federalState":{"key":"08","name":"Baden-Württemberg"}},{"name":"Kleinheppacher Weg","postalCode":"71364","locality":"Winnenden","municipality":{"key":"08119085","name":"Winnenden, Stadt","type":"Große_Kreisstadt"},"district":{"key":"08119","name":"Rems-Murr-Kreis","type":"Landkreis"},"federalState":{"key":"08","name":"Baden-Württemberg"}},{"name":"Königsberger Ring","postalCode":"71364","locality":"Winnenden","municipality":{"key":"08119085","name":"Winnenden, Stadt","type":"Große_Kreisstadt"},"district":{"key":"08119","name":"Rems-Murr-Kreis","type":"Landkreis"},"federalState":{"key":"08","name":"Baden-Württemberg"}},{"name":"Kopernikusstr.","postalCode":"71364","locality":"Winnenden","municipality":{"key":"08119085","name":"Winnenden, Stadt","type":"Große_Kreisstadt"},"district":{"key":"08119","name":"Rems-Murr-Kreis","type":"Landkreis"},"federalState":{"key":"08","name":"Baden-Württemberg"}},{"name":"Korber Str.","postalCode":"71364","locality":"Winnenden","municipality":{"key":"08119085","name":"Winnenden, Stadt","type":"Große_Kreisstadt"},"district":{"key":"08119","name":"Rems-Murr-Kreis","type":"Landkreis"},"federalState":{"key":"08","name":"Baden-Württemberg"}},{"name":"Kornbeckstr.","postalCode":"71364","locality":"Winnenden","municipality":{"key":"08119085","name":"Winnenden, Stadt","type":"Große_Kreisstadt"},"district":{"key":"08119","name":"Rems-Murr-Kreis","type":"Landkreis"},"federalState":{"key":"08","name":"Baden-Württemberg"}},{"name":"Kornblumenstr.","postalCode":"71364","locality":"Winnenden","municipality":{"key":"08119085","name":"Winnenden, Stadt","type":"Große_Kreisstadt"},"district":{"key":"08119","name":"Rems-Murr-Kreis","type":"Landkreis"},"federalState":{"key":"08","name":"Baden-Württemberg"}},{"name":"Körnle","postalCode":"71364","locality":"Winnenden","municipality":{"key":"08119085","name":"Winnenden, Stadt","type":"Große_Kreisstadt"},"district":{"key":"08119","name":"Rems-Murr-Kreis","type":"Landkreis"},"federalState":{"key":"08","name":"Baden-Württemberg"}},{"name":"Krebäckerstr.","postalCode":"71364","locality":"Winnenden","municipality":{"key":"08119085","name":"Winnenden, Stadt","type":"Große_Kreisstadt"},"district":{"key":"08119","name":"Rems-Murr-Kreis","type":"Landkreis"},"federalState":{"key":"08","name":"Baden-Württemberg"}},{"name":"Kriegsbergstr.","postalCode":"71364","locality":"Winnenden","municipality":{"key":"08119085","name":"Winnenden, Stadt","type":"Große_Kreisstadt"},"district":{"key":"08119","name":"Rems-Murr-Kreis","type":"Landkreis"},"federalState":{"key":"08","name":"Baden-Württemberg"}},{"name":"Kühreisachweg","postalCode":"71364","locality":"Winnenden","municipality":{"key":"08119085","name":"Winnenden, Stadt","type":"Große_Kreisstadt"},"district":{"key":"08119","name":"Rems-Murr-Kreis","type":"Landkreis"},"federalState":{"key":"08","name":"Baden-Württemberg"}},{"name":"Kurze Str.","postalCode":"71364","locality":"Winnenden","municipality":{"key":"08119085","name":"Winnenden, Stadt","type":"Große_Kreisstadt"},"district":{"key":"08119","name":"Rems-Murr-Kreis","type":"Landkreis"},"federalState":{"key":"08","name":"Baden-Württemberg"}},{"name":"Lange Gasse","postalCode":"71364","locality":"Winnenden","municipality":{"key":"08119085","name":"Winnenden, Stadt","type":"Große_Kreisstadt"},"district":{"key":"08119","name":"Rems-Murr-Kreis","type":"Landkreis"},"federalState":{"key":"08","name":"Baden-Württemberg"}},{"name":"Lavendelweg","postalCode":"71364","locality":"Winnenden","municipality":{"key":"08119085","name":"Winnenden, Stadt","type":"Große_Kreisstadt"},"district":{"key":"08119","name":"Rems-Murr-Kreis","type":"Landkreis"},"federalState":{"key":"08","name":"Baden-Württemberg"}},{"name":"Lembergerweg","postalCode":"71364","locality":"Winnenden","municipality":{"key":"08119085","name":"Winnenden, Stadt","type":"Große_Kreisstadt"},"district":{"key":"08119","name":"Rems-Murr-Kreis","type":"Landkreis"},"federalState":{"key":"08","name":"Baden-Württemberg"}},{"name":"Lenzhalde","postalCode":"71364","locality":"Winnenden","municipality":{"key":"08119085","name":"Winnenden, Stadt","type":"Große_Kreisstadt"},"district":{"key":"08119","name":"Rems-Murr-Kreis","type":"Landkreis"},"federalState":{"key":"08","name":"Baden-Württemberg"}},{"name":"Lerchenweg","postalCode":"71364","locality":"Winnenden","municipality":{"key":"08119085","name":"Winnenden, Stadt","type":"Große_Kreisstadt"},"district":{"key":"08119","name":"Rems-Murr-Kreis","type":"Landkreis"},"federalState":{"key":"08","name":"Baden-Württemberg"}},{"name":"Lessingstr.","postalCode":"71364","locality":"Winnenden","municipality":{"key":"08119085","name":"Winnenden, Stadt","type":"Große_Kreisstadt"},"district":{"key":"08119","name":"Rems-Murr-Kreis","type":"Landkreis"},"federalState":{"key":"08","name":"Baden-Württemberg"}},{"name":"Leutenbacher Str.","postalCode":"71364","locality":"Winnenden","municipality":{"key":"08119085","name":"Winnenden, Stadt","type":"Große_Kreisstadt"},"district":{"key":"08119","name":"Rems-Murr-Kreis","type":"Landkreis"},"federalState":{"key":"08","name":"Baden-Württemberg"}},{"name":"Lilienstr.","postalCode":"71364","locality":"Winnenden","municipality":{"key":"08119085","name":"Winnenden, Stadt","type":"Große_Kreisstadt"},"district":{"key":"08119","name":"Rems-Murr-Kreis","type":"Landkreis"},"federalState":{"key":"08","name":"Baden-Württemberg"}},{"name":"Lindenstr.","postalCode":"71364","locality":"Winnenden","municipality":{"key":"08119085","name":"Winnenden, Stadt","type":"Große_Kreisstadt"},"district":{"key":"08119","name":"Rems-Murr-Kreis","type":"Landkreis"},"federalState":{"key":"08","name":"Baden-Württemberg"}},{"name":"Linsenhalde","postalCode":"71364","locality":"Winnenden","municipality":{"key":"08119085","name":"Winnenden, Stadt","type":"Große_Kreisstadt"},"district":{"key":"08119","name":"Rems-Murr-Kreis","type":"Landkreis"},"federalState":{"key":"08","name":"Baden-Württemberg"}},{"name":"Lise-Meitner-Str.","postalCode":"71364","locality":"Winnenden","municipality":{"key":"08119085","name":"Winnenden, Stadt","type":"Große_Kreisstadt"},"district":{"key":"08119","name":"Rems-Murr-Kreis","type":"Landkreis"},"federalState":{"key":"08","name":"Baden-Württemberg"}},{"name":"Ludwigstr.","postalCode":"71364","locality":"Winnenden","municipality":{"key":"08119085","name":"Winnenden, Stadt","type":"Große_Kreisstadt"},"district":{"key":"08119","name":"Rems-Murr-Kreis","type":"Landkreis"},"federalState":{"key":"08","name":"Baden-Württemberg"}},{"name":"Mädlesteinstr.","postalCode":"71364","locality":"Winnenden","municipality":{"key":"08119085","name":"Winnenden, Stadt","type":"Große_Kreisstadt"},"district":{"key":"08119","name":"Rems-Murr-Kreis","type":"Landkreis"},"federalState":{"key":"08","name":"Baden-Württemberg"}},{"name":"Mahatma-Ghandi-Weg","postalCode":"71364","locality":"Winnenden","municipality":{"key":"08119085","name":"Winnenden, Stadt","type":"Große_Kreisstadt"},"district":{"key":"08119","name":"Rems-Murr-Kreis","type":"Landkreis"},"federalState":{"key":"08","name":"Baden-Württemberg"}},{"name":"Maienweg","postalCode":"71364","locality":"Winnenden","municipality":{"key":"08119085","name":"Winnenden, Stadt","type":"Große_Kreisstadt"},"district":{"key":"08119","name":"Rems-Murr-Kreis","type":"Landkreis"},"federalState":{"key":"08","name":"Baden-Württemberg"}},{"name":"Maienweingärten","postalCode":"71364","locality":"Winnenden","municipality":{"key":"08119085","name":"Winnenden, Stadt","type":"Große_Kreisstadt"},"district":{"key":"08119","name":"Rems-Murr-Kreis","type":"Landkreis"},"federalState":{"key":"08","name":"Baden-Württemberg"}},{"name":"Marbacher Str.","postalCode":"71364","locality":"Winnenden","municipality":{"key":"08119085","name":"Winnenden, Stadt","type":"Große_Kreisstadt"},"district":{"key":"08119","name":"Rems-Murr-Kreis","type":"Landkreis"},"federalState":{"key":"08","name":"Baden-Württemberg"}},{"name":"Marie-Curie-Str.","postalCode":"71364","locality":"Winnenden","municipality":{"key":"08119085","name":"Winnenden, Stadt","type":"Große_Kreisstadt"},"district":{"key":"08119","name":"Rems-Murr-Kreis","type":"Landkreis"},"federalState":{"key":"08","name":"Baden-Württemberg"}},{"name":"Marie-Huzel-Str.","postalCode":"71364","locality":"Winnenden","municipality":{"key":"08119085","name":"Winnenden, Stadt","type":"Große_Kreisstadt"},"district":{"key":"08119","name":"Rems-Murr-Kreis","type":"Landkreis"},"federalState":{"key":"08","name":"Baden-Württemberg"}},{"name":"Marienstr.","postalCode":"71364","locality":"Winnenden","municipality":{"key":"08119085","name":"Winnenden, Stadt","type":"Große_Kreisstadt"},"district":{"key":"08119","name":"Rems-Murr-Kreis","type":"Landkreis"},"federalState":{"key":"08","name":"Baden-Württemberg"}},{"name":"Marktstr.","postalCode":"71364","locality":"Winnenden","municipality":{"key":"08119085","name":"Winnenden, Stadt","type":"Große_Kreisstadt"},"district":{"key":"08119","name":"Rems-Murr-Kreis","type":"Landkreis"},"federalState":{"key":"08","name":"Baden-Württemberg"}},{"name":"Max-Eyth-Str.","postalCode":"71364","locality":"Winnenden","municipality":{"key":"08119085","name":"Winnenden, Stadt","type":"Große_Kreisstadt"},"district":{"key":"08119","name":"Rems-Murr-Kreis","type":"Landkreis"},"federalState":{"key":"08","name":"Baden-Württemberg"}},{"name":"Max-Planck-Str.","postalCode":"71364","locality":"Winnenden","municipality":{"key":"08119085","name":"Winnenden, Stadt","type":"Große_Kreisstadt"},"district":{"key":"08119","name":"Rems-Murr-Kreis","type":"Landkreis"},"federalState":{"key":"08","name":"Baden-Württemberg"}},{"name":"Meisenweg","postalCode":"71364","locality":"Winnenden","municipality":{"key":"08119085","name":"Winnenden, Stadt","type":"Große_Kreisstadt"},"district":{"key":"08119","name":"Rems-Murr-Kreis","type":"Landkreis"},"federalState":{"key":"08","name":"Baden-Württemberg"}},{"name":"Meißner-Kreisel","postalCode":"71364","locality":"Winnenden","municipality":{"key":"08119085","name":"Winnenden, Stadt","type":"Große_Kreisstadt"},"district":{"key":"08119","name":"Rems-Murr-Kreis","type":"Landkreis"},"federalState":{"key":"08","name":"Baden-Württemberg"}},{"name":"Mörikeweg","postalCode":"71364","locality":"Winnenden","municipality":{"key":"08119085","name":"Winnenden, Stadt","type":"Große_Kreisstadt"},"district":{"key":"08119","name":"Rems-Murr-Kreis","type":"Landkreis"},"federalState":{"key":"08","name":"Baden-Württemberg"}},{"name":"Mozartstr.","postalCode":"71364","locality":"Winnenden","municipality":{"key":"08119085","name":"Winnenden, Stadt","type":"Große_Kreisstadt"},"district":{"key":"08119","name":"Rems-Murr-Kreis","type":"Landkreis"},"federalState":{"key":"08","name":"Baden-Württemberg"}},{"name":"Mühltorstr.","postalCode":"71364","locality":"Winnenden","municipality":{"key":"08119085","name":"Winnenden, Stadt","type":"Große_Kreisstadt"},"district":{"key":"08119","name":"Rems-Murr-Kreis","type":"Landkreis"},"federalState":{"key":"08","name":"Baden-Württemberg"}},{"name":"Müllersgasse","postalCode":"71364","locality":"Winnenden","municipality":{"key":"08119085","name":"Winnenden, Stadt","type":"Große_Kreisstadt"},"district":{"key":"08119","name":"Rems-Murr-Kreis","type":"Landkreis"},"federalState":{"key":"08","name":"Baden-Württemberg"}},{"name":"Nelkenweg","postalCode":"71364","locality":"Winnenden","municipality":{"key":"08119085","name":"Winnenden, Stadt","type":"Große_Kreisstadt"},"district":{"key":"08119","name":"Rems-Murr-Kreis","type":"Landkreis"},"federalState":{"key":"08","name":"Baden-Württemberg"}},{"name":"Nelson-Mandela-Weg","postalCode":"71364","locality":"Winnenden","municipality":{"key":"08119085","name":"Winnenden, Stadt","type":"Große_Kreisstadt"},"district":{"key":"08119","name":"Rems-Murr-Kreis","type":"Landkreis"},"federalState":{"key":"08","name":"Baden-Württemberg"}},{"name":"Neuffenstr.","postalCode":"71364","locality":"Winnenden","municipality":{"key":"08119085","name":"Winnenden, Stadt","type":"Große_Kreisstadt"},"district":{"key":"08119","name":"Rems-Murr-Kreis","type":"Landkreis"},"federalState":{"key":"08","name":"Baden-Württemberg"}},{"name":"Nikolaus-Lenau-Str.","postalCode":"71364","locality":"Winnenden","municipality":{"key":"08119085","name":"Winnenden, Stadt","type":"Große_Kreisstadt"},"district":{"key":"08119","name":"Rems-Murr-Kreis","type":"Landkreis"},"federalState":{"key":"08","name":"Baden-Württemberg"}},{"name":"Ob dem Stäffele","postalCode":"71364","locality":"Winnenden","municipality":{"key":"08119085","name":"Winnenden, Stadt","type":"Große_Kreisstadt"},"district":{"key":"08119","name":"Rems-Murr-Kreis","type":"Landkreis"},"federalState":{"key":"08","name":"Baden-Württemberg"}},{"name":"Ob der Hecke","postalCode":"71364","locality":"Winnenden","municipality":{"key":"08119085","name":"Winnenden, Stadt","type":"Große_Kreisstadt"},"district":{"key":"08119","name":"Rems-Murr-Kreis","type":"Landkreis"},"federalState":{"key":"08","name":"Baden-Württemberg"}},{"name":"Oberdorfstr.","postalCode":"71364","locality":"Winnenden","municipality":{"key":"08119085","name":"Winnenden, Stadt","type":"Große_Kreisstadt"},"district":{"key":"08119","name":"Rems-Murr-Kreis","type":"Landkreis"},"federalState":{"key":"08","name":"Baden-Württemberg"}},{"name":"Oberer Kirchweg","postalCode":"71364","locality":"Winnenden","municipality":{"key":"08119085","name":"Winnenden, Stadt","type":"Große_Kreisstadt"},"district":{"key":"08119","name":"Rems-Murr-Kreis","type":"Landkreis"},"federalState":{"key":"08","name":"Baden-Württemberg"}},{"name":"Obere Sackstr.","postalCode":"71364","locality":"Winnenden","municipality":{"key":"08119085","name":"Winnenden, Stadt","type":"Große_Kreisstadt"},"district":{"key":"08119","name":"Rems-Murr-Kreis","type":"Landkreis"},"federalState":{"key":"08","name":"Baden-Württemberg"}},{"name":"Oberweilerstr.","postalCode":"71364","locality":"Winnenden","municipality":{"key":"08119085","name":"Winnenden, Stadt","type":"Große_Kreisstadt"},"district":{"key":"08119","name":"Rems-Murr-Kreis","type":"Landkreis"},"federalState":{"key":"08","name":"Baden-Württemberg"}},{"name":"Oleanderweg","postalCode":"71364","locality":"Winnenden","municipality":{"key":"08119085","name":"Winnenden, Stadt","type":"Große_Kreisstadt"},"district":{"key":"08119","name":"Rems-Murr-Kreis","type":"Landkreis"},"federalState":{"key":"08","name":"Baden-Württemberg"}},{"name":"Ostlandstr.","postalCode":"71364","locality":"Winnenden","municipality":{"key":"08119085","name":"Winnenden, Stadt","type":"Große_Kreisstadt"},"district":{"key":"08119","name":"Rems-Murr-Kreis","type":"Landkreis"},"federalState":{"key":"08","name":"Baden-Württemberg"}},{"name":"Otto-Hahn-Str.","postalCode":"71364","locality":"Winnenden","municipality":{"key":"08119085","name":"Winnenden, Stadt","type":"Große_Kreisstadt"},"district":{"key":"08119","name":"Rems-Murr-Kreis","type":"Landkreis"},"federalState":{"key":"08","name":"Baden-Württemberg"}},{"name":"Palmerstr.","postalCode":"71364","locality":"Winnenden","municipality":{"key":"08119085","name":"Winnenden, Stadt","type":"Große_Kreisstadt"},"district":{"key":"08119","name":"Rems-Murr-Kreis","type":"Landkreis"},"federalState":{"key":"08","name":"Baden-Württemberg"}},{"name":"Panoramaweg","postalCode":"71364","locality":"Winnenden","municipality":{"key":"08119085","name":"Winnenden, Stadt","type":"Große_Kreisstadt"},"district":{"key":"08119","name":"Rems-Murr-Kreis","type":"Landkreis"},"federalState":{"key":"08","name":"Baden-Württemberg"}},{"name":"Paulinenstr.","postalCode":"71364","locality":"Winnenden","municipality":{"key":"08119085","name":"Winnenden, Stadt","type":"Große_Kreisstadt"},"district":{"key":"08119","name":"Rems-Murr-Kreis","type":"Landkreis"},"federalState":{"key":"08","name":"Baden-Württemberg"}},{"name":"Paul-Wöhrle-Ring","postalCode":"71364","locality":"Winnenden","municipality":{"key":"08119085","name":"Winnenden, Stadt","type":"Große_Kreisstadt"},"district":{"key":"08119","name":"Rems-Murr-Kreis","type":"Landkreis"},"federalState":{"key":"08","name":"Baden-Württemberg"}},{"name":"Pausenhof","postalCode":"71364","locality":"Winnenden","municipality":{"key":"08119085","name":"Winnenden, Stadt","type":"Große_Kreisstadt"},"district":{"key":"08119","name":"Rems-Murr-Kreis","type":"Landkreis"},"federalState":{"key":"08","name":"Baden-Württemberg"}},{"name":"Petristr.","postalCode":"71364","locality":"Winnenden","municipality":{"key":"08119085","name":"Winnenden, Stadt","type":"Große_Kreisstadt"},"district":{"key":"08119","name":"Rems-Murr-Kreis","type":"Landkreis"},"federalState":{"key":"08","name":"Baden-Württemberg"}},{"name":"Pfeilhofstr.","postalCode":"71364","locality":"Winnenden","municipality":{"key":"08119085","name":"Winnenden, Stadt","type":"Große_Kreisstadt"},"district":{"key":"08119","name":"Rems-Murr-Kreis","type":"Landkreis"},"federalState":{"key":"08","name":"Baden-Württemberg"}},{"name":"Pfützen","postalCode":"71364","locality":"Winnenden","municipality":{"key":"08119085","name":"Winnenden, Stadt","type":"Große_Kreisstadt"},"district":{"key":"08119","name":"Rems-Murr-Kreis","type":"Landkreis"},"federalState":{"key":"08","name":"Baden-Württemberg"}},{"name":"Portugieserweg","postalCode":"71364","locality":"Winnenden","municipality":{"key":"08119085","name":"Winnenden, Stadt","type":"Große_Kreisstadt"},"district":{"key":"08119","name":"Rems-Murr-Kreis","type":"Landkreis"},"federalState":{"key":"08","name":"Baden-Württemberg"}},{"name":"Posttor","postalCode":"71364","locality":"Winnenden","municipality":{"key":"08119085","name":"Winnenden, Stadt","type":"Große_Kreisstadt"},"district":{"key":"08119","name":"Rems-Murr-Kreis","type":"Landkreis"},"federalState":{"key":"08","name":"Baden-Württemberg"}},{"name":"Primelweg","postalCode":"71364","locality":"Winnenden","municipality":{"key":"08119085","name":"Winnenden, Stadt","type":"Große_Kreisstadt"},"district":{"key":"08119","name":"Rems-Murr-Kreis","type":"Landkreis"},"federalState":{"key":"08","name":"Baden-Württemberg"}},{"name":"Quellenstr.","postalCode":"71364","locality":"Winnenden","municipality":{"key":"08119085","name":"Winnenden, Stadt","type":"Große_Kreisstadt"},"district":{"key":"08119","name":"Rems-Murr-Kreis","type":"Landkreis"},"federalState":{"key":"08","name":"Baden-Württemberg"}},{"name":"Querstr.","postalCode":"71364","locality":"Winnenden","municipality":{"key":"08119085","name":"Winnenden, Stadt","type":"Große_Kreisstadt"},"district":{"key":"08119","name":"Rems-Murr-Kreis","type":"Landkreis"},"federalState":{"key":"08","name":"Baden-Württemberg"}},{"name":"Raiffeisenstr.","postalCode":"71364","locality":"Winnenden","municipality":{"key":"08119085","name":"Winnenden, Stadt","type":"Große_Kreisstadt"},"district":{"key":"08119","name":"Rems-Murr-Kreis","type":"Landkreis"},"federalState":{"key":"08","name":"Baden-Württemberg"}},{"name":"Rainwiesenweg","postalCode":"71364","locality":"Winnenden","municipality":{"key":"08119085","name":"Winnenden, Stadt","type":"Große_Kreisstadt"},"district":{"key":"08119","name":"Rems-Murr-Kreis","type":"Landkreis"},"federalState":{"key":"08","name":"Baden-Württemberg"}},{"name":"Rechbergstr.","postalCode":"71364","locality":"Winnenden","municipality":{"key":"08119085","name":"Winnenden, Stadt","type":"Große_Kreisstadt"},"district":{"key":"08119","name":"Rems-Murr-Kreis","type":"Landkreis"},"federalState":{"key":"08","name":"Baden-Württemberg"}},{"name":"Reiterweg","postalCode":"71364","locality":"Winnenden","municipality":{"key":"08119085","name":"Winnenden, Stadt","type":"Große_Kreisstadt"},"district":{"key":"08119","name":"Rems-Murr-Kreis","type":"Landkreis"},"federalState":{"key":"08","name":"Baden-Württemberg"}},{"name":"Richard-von-Weizsäcker-Weg","postalCode":"71364","locality":"Winnenden","municipality":{"key":"08119085","name":"Winnenden, Stadt","type":"Große_Kreisstadt"},"district":{"key":"08119","name":"Rems-Murr-Kreis","type":"Landkreis"},"federalState":{"key":"08","name":"Baden-Württemberg"}},{"name":"Rieslingstr.","postalCode":"71364","locality":"Winnenden","municipality":{"key":"08119085","name":"Winnenden, Stadt","type":"Große_Kreisstadt"},"district":{"key":"08119","name":"Rems-Murr-Kreis","type":"Landkreis"},"federalState":{"key":"08","name":"Baden-Württemberg"}},{"name":"Ringstr.","postalCode":"71364","locality":"Winnenden","municipality":{"key":"08119085","name":"Winnenden, Stadt","type":"Große_Kreisstadt"},"district":{"key":"08119","name":"Rems-Murr-Kreis","type":"Landkreis"},"federalState":{"key":"08","name":"Baden-Württemberg"}},{"name":"Rittergasse","postalCode":"71364","locality":"Winnenden","municipality":{"key":"08119085","name":"Winnenden, Stadt","type":"Große_Kreisstadt"},"district":{"key":"08119","name":"Rems-Murr-Kreis","type":"Landkreis"},"federalState":{"key":"08","name":"Baden-Württemberg"}},{"name":"Robert-Boehringer-Str.","postalCode":"71364","locality":"Winnenden","municipality":{"key":"08119085","name":"Winnenden, Stadt","type":"Große_Kreisstadt"},"district":{"key":"08119","name":"Rems-Murr-Kreis","type":"Landkreis"},"federalState":{"key":"08","name":"Baden-Württemberg"}},{"name":"Robert-Bosch-Str.","postalCode":"71364","locality":"Winnenden","municipality":{"key":"08119085","name":"Winnenden, Stadt","type":"Große_Kreisstadt"},"district":{"key":"08119","name":"Rems-Murr-Kreis","type":"Landkreis"},"federalState":{"key":"08","name":"Baden-Württemberg"}},{"name":"Robert-Koch-Weg","postalCode":"71364","locality":"Winnenden","municipality":{"key":"08119085","name":"Winnenden, Stadt","type":"Große_Kreisstadt"},"district":{"key":"08119","name":"Rems-Murr-Kreis","type":"Landkreis"},"federalState":{"key":"08","name":"Baden-Württemberg"}},{"name":"Robert-Perlen-Str.","postalCode":"71364","locality":"Winnenden","municipality":{"key":"08119085","name":"Winnenden, Stadt","type":"Große_Kreisstadt"},"district":{"key":"08119","name":"Rems-Murr-Kreis","type":"Landkreis"},"federalState":{"key":"08","name":"Baden-Württemberg"}},{"name":"Römerstr.","postalCode":"71364","locality":"Winnenden","municipality":{"key":"08119085","name":"Winnenden, Stadt","type":"Große_Kreisstadt"},"district":{"key":"08119","name":"Rems-Murr-Kreis","type":"Landkreis"},"federalState":{"key":"08","name":"Baden-Württemberg"}},{"name":"Röntgenweg","postalCode":"71364","locality":"Winnenden","municipality":{"key":"08119085","name":"Winnenden, Stadt","type":"Große_Kreisstadt"},"district":{"key":"08119","name":"Rems-Murr-Kreis","type":"Landkreis"},"federalState":{"key":"08","name":"Baden-Württemberg"}},{"name":"Rosenstr.","postalCode":"71364","locality":"Winnenden","municipality":{"key":"08119085","name":"Winnenden, Stadt","type":"Große_Kreisstadt"},"district":{"key":"08119","name":"Rems-Murr-Kreis","type":"Landkreis"},"federalState":{"key":"08","name":"Baden-Württemberg"}},{"name":"Roßbergstr.","postalCode":"71364","locality":"Winnenden","municipality":{"key":"08119085","name":"Winnenden, Stadt","type":"Große_Kreisstadt"},"district":{"key":"08119","name":"Rems-Murr-Kreis","type":"Landkreis"},"federalState":{"key":"08","name":"Baden-Württemberg"}},{"name":"Rosswiesenweg","postalCode":"71364","locality":"Winnenden","municipality":{"key":"08119085","name":"Winnenden, Stadt","type":"Große_Kreisstadt"},"district":{"key":"08119","name":"Rems-Murr-Kreis","type":"Landkreis"},"federalState":{"key":"08","name":"Baden-Württemberg"}},{"name":"Rothenbühlstr.","postalCode":"71364","locality":"Winnenden","municipality":{"key":"08119085","name":"Winnenden, Stadt","type":"Große_Kreisstadt"},"district":{"key":"08119","name":"Rems-Murr-Kreis","type":"Landkreis"},"federalState":{"key":"08","name":"Baden-Württemberg"}},{"name":"Rotweg","postalCode":"71364","locality":"Winnenden","municipality":{"key":"08119085","name":"Winnenden, Stadt","type":"Große_Kreisstadt"},"district":{"key":"08119","name":"Rems-Murr-Kreis","type":"Landkreis"},"federalState":{"key":"08","name":"Baden-Württemberg"}},{"name":"Rudersberger Weg","postalCode":"71364","locality":"Winnenden","municipality":{"key":"08119085","name":"Winnenden, Stadt","type":"Große_Kreisstadt"},"district":{"key":"08119","name":"Rems-Murr-Kreis","type":"Landkreis"},"federalState":{"key":"08","name":"Baden-Württemberg"}},{"name":"Ruitzenbergstr.","postalCode":"71364","locality":"Winnenden","municipality":{"key":"08119085","name":"Winnenden, Stadt","type":"Große_Kreisstadt"},"district":{"key":"08119","name":"Rems-Murr-Kreis","type":"Landkreis"},"federalState":{"key":"08","name":"Baden-Württemberg"}},{"name":"Ruitzenmühle","postalCode":"71364","locality":"Winnenden","municipality":{"key":"08119085","name":"Winnenden, Stadt","type":"Große_Kreisstadt"},"district":{"key":"08119","name":"Rems-Murr-Kreis","type":"Landkreis"},"federalState":{"key":"08","name":"Baden-Württemberg"}},{"name":"Ruländerstr.","postalCode":"71364","locality":"Winnenden","municipality":{"key":"08119085","name":"Winnenden, Stadt","type":"Große_Kreisstadt"},"district":{"key":"08119","name":"Rems-Murr-Kreis","type":"Landkreis"},"federalState":{"key":"08","name":"Baden-Württemberg"}},{"name":"Sackstr.","postalCode":"71364","locality":"Winnenden","municipality":{"key":"08119085","name":"Winnenden, Stadt","type":"Große_Kreisstadt"},"district":{"key":"08119","name":"Rems-Murr-Kreis","type":"Landkreis"},"federalState":{"key":"08","name":"Baden-Württemberg"}},{"name":"Salzbergweg","postalCode":"71364","locality":"Winnenden","municipality":{"key":"08119085","name":"Winnenden, Stadt","type":"Große_Kreisstadt"},"district":{"key":"08119","name":"Rems-Murr-Kreis","type":"Landkreis"},"federalState":{"key":"08","name":"Baden-Württemberg"}},{"name":"Sandstr.","postalCode":"71364","locality":"Winnenden","municipality":{"key":"08119085","name":"Winnenden, Stadt","type":"Große_Kreisstadt"},"district":{"key":"08119","name":"Rems-Murr-Kreis","type":"Landkreis"},"federalState":{"key":"08","name":"Baden-Württemberg"}},{"name":"Sängerstr.","postalCode":"71364","locality":"Winnenden","municipality":{"key":"08119085","name":"Winnenden, Stadt","type":"Große_Kreisstadt"},"district":{"key":"08119","name":"Rems-Murr-Kreis","type":"Landkreis"},"federalState":{"key":"08","name":"Baden-Württemberg"}},{"name":"Santo-Domingo-de-la-Calzada Platz","postalCode":"71364","locality":"Winnenden","municipality":{"key":"08119085","name":"Winnenden, Stadt","type":"Große_Kreisstadt"},"district":{"key":"08119","name":"Rems-Murr-Kreis","type":"Landkreis"},"federalState":{"key":"08","name":"Baden-Württemberg"}},{"name":"Schafweide","postalCode":"71364","locality":"Winnenden","municipality":{"key":"08119085","name":"Winnenden, Stadt","type":"Große_Kreisstadt"},"district":{"key":"08119","name":"Rems-Murr-Kreis","type":"Landkreis"},"federalState":{"key":"08","name":"Baden-Württemberg"}},{"name":"Scheffelstr.","postalCode":"71364","locality":"Winnenden","municipality":{"key":"08119085","name":"Winnenden, Stadt","type":"Große_Kreisstadt"},"district":{"key":"08119","name":"Rems-Murr-Kreis","type":"Landkreis"},"federalState":{"key":"08","name":"Baden-Württemberg"}},{"name":"Scheurenrain","postalCode":"71364","locality":"Winnenden","municipality":{"key":"08119085","name":"Winnenden, Stadt","type":"Große_Kreisstadt"},"district":{"key":"08119","name":"Rems-Murr-Kreis","type":"Landkreis"},"federalState":{"key":"08","name":"Baden-Württemberg"}},{"name":"Schiefersee","postalCode":"71364","locality":"Winnenden","municipality":{"key":"08119085","name":"Winnenden, Stadt","type":"Große_Kreisstadt"},"district":{"key":"08119","name":"Rems-Murr-Kreis","type":"Landkreis"},"federalState":{"key":"08","name":"Baden-Württemberg"}},{"name":"Schillerstr.","postalCode":"71364","locality":"Winnenden","municipality":{"key":"08119085","name":"Winnenden, Stadt","type":"Große_Kreisstadt"},"district":{"key":"08119","name":"Rems-Murr-Kreis","type":"Landkreis"},"federalState":{"key":"08","name":"Baden-Württemberg"}},{"name":"Schlehenweg","postalCode":"71364","locality":"Winnenden","municipality":{"key":"08119085","name":"Winnenden, Stadt","type":"Große_Kreisstadt"},"district":{"key":"08119","name":"Rems-Murr-Kreis","type":"Landkreis"},"federalState":{"key":"08","name":"Baden-Württemberg"}},{"name":"Schloßstr.","postalCode":"71364","locality":"Winnenden","municipality":{"key":"08119085","name":"Winnenden, Stadt","type":"Große_Kreisstadt"},"district":{"key":"08119","name":"Rems-Murr-Kreis","type":"Landkreis"},"federalState":{"key":"08","name":"Baden-Württemberg"}},{"name":"Schmidgallstr.","postalCode":"71364","locality":"Winnenden","municipality":{"key":"08119085","name":"Winnenden, Stadt","type":"Große_Kreisstadt"},"district":{"key":"08119","name":"Rems-Murr-Kreis","type":"Landkreis"},"federalState":{"key":"08","name":"Baden-Württemberg"}},{"name":"Schnarrenbergstr.","postalCode":"71364","locality":"Winnenden","municipality":{"key":"08119085","name":"Winnenden, Stadt","type":"Große_Kreisstadt"},"district":{"key":"08119","name":"Rems-Murr-Kreis","type":"Landkreis"},"federalState":{"key":"08","name":"Baden-Württemberg"}},{"name":"Schönblickstr.","postalCode":"71364","locality":"Winnenden","municipality":{"key":"08119085","name":"Winnenden, Stadt","type":"Große_Kreisstadt"},"district":{"key":"08119","name":"Rems-Murr-Kreis","type":"Landkreis"},"federalState":{"key":"08","name":"Baden-Württemberg"}},{"name":"Schorndorfer Str.","postalCode":"71364","locality":"Winnenden","municipality":{"key":"08119085","name":"Winnenden, Stadt","type":"Große_Kreisstadt"},"district":{"key":"08119","name":"Rems-Murr-Kreis","type":"Landkreis"},"federalState":{"key":"08","name":"Baden-Württemberg"}},{"name":"Schoweer Weg","postalCode":"71364","locality":"Winnenden","municipality":{"key":"08119085","name":"Winnenden, Stadt","type":"Große_Kreisstadt"},"district":{"key":"08119","name":"Rems-Murr-Kreis","type":"Landkreis"},"federalState":{"key":"08","name":"Baden-Württemberg"}},{"name":"Schubartweg","postalCode":"71364","locality":"Winnenden","municipality":{"key":"08119085","name":"Winnenden, Stadt","type":"Große_Kreisstadt"},"district":{"key":"08119","name":"Rems-Murr-Kreis","type":"Landkreis"},"federalState":{"key":"08","name":"Baden-Württemberg"}},{"name":"Schulerhofstr.","postalCode":"71364","locality":"Winnenden","municipality":{"key":"08119085","name":"Winnenden, Stadt","type":"Große_Kreisstadt"},"district":{"key":"08119","name":"Rems-Murr-Kreis","type":"Landkreis"},"federalState":{"key":"08","name":"Baden-Württemberg"}},{"name":"Schulstr.","postalCode":"71364","locality":"Winnenden","municipality":{"key":"08119085","name":"Winnenden, Stadt","type":"Große_Kreisstadt"},"district":{"key":"08119","name":"Rems-Murr-Kreis","type":"Landkreis"},"federalState":{"key":"08","name":"Baden-Württemberg"}},{"name":"Schütteläcker","postalCode":"71364","locality":"Winnenden","municipality":{"key":"08119085","name":"Winnenden, Stadt","type":"Große_Kreisstadt"},"district":{"key":"08119","name":"Rems-Murr-Kreis","type":"Landkreis"},"federalState":{"key":"08","name":"Baden-Württemberg"}},{"name":"Schwaikheimer Str.","postalCode":"71364","locality":"Winnenden","municipality":{"key":"08119085","name":"Winnenden, Stadt","type":"Große_Kreisstadt"},"district":{"key":"08119","name":"Rems-Murr-Kreis","type":"Landkreis"},"federalState":{"key":"08","name":"Baden-Württemberg"}},{"name":"Schwaikheimer Wiesen","postalCode":"71364","locality":"Winnenden","municipality":{"key":"08119085","name":"Winnenden, Stadt","type":"Große_Kreisstadt"},"district":{"key":"08119","name":"Rems-Murr-Kreis","type":"Landkreis"},"federalState":{"key":"08","name":"Baden-Württemberg"}},{"name":"Schwalbenweg","postalCode":"71364","locality":"Winnenden","municipality":{"key":"08119085","name":"Winnenden, Stadt","type":"Große_Kreisstadt"},"district":{"key":"08119","name":"Rems-Murr-Kreis","type":"Landkreis"},"federalState":{"key":"08","name":"Baden-Württemberg"}},{"name":"Seegartenstr.","postalCode":"71364","locality":"Winnenden","municipality":{"key":"08119085","name":"Winnenden, Stadt","type":"Große_Kreisstadt"},"district":{"key":"08119","name":"Rems-Murr-Kreis","type":"Landkreis"},"federalState":{"key":"08","name":"Baden-Württemberg"}},{"name":"Seehalde","postalCode":"71364","locality":"Winnenden","municipality":{"key":"08119085","name":"Winnenden, Stadt","type":"Große_Kreisstadt"},"district":{"key":"08119","name":"Rems-Murr-Kreis","type":"Landkreis"},"federalState":{"key":"08","name":"Baden-Württemberg"}},{"name":"Seehaldenweg","postalCode":"71364","locality":"Winnenden","municipality":{"key":"08119085","name":"Winnenden, Stadt","type":"Große_Kreisstadt"},"district":{"key":"08119","name":"Rems-Murr-Kreis","type":"Landkreis"},"federalState":{"key":"08","name":"Baden-Württemberg"}},{"name":"Seerosenweg","postalCode":"71364","locality":"Winnenden","municipality":{"key":"08119085","name":"Winnenden, Stadt","type":"Große_Kreisstadt"},"district":{"key":"08119","name":"Rems-Murr-Kreis","type":"Landkreis"},"federalState":{"key":"08","name":"Baden-Württemberg"}},{"name":"Seestr.","postalCode":"71364","locality":"Winnenden","municipality":{"key":"08119085","name":"Winnenden, Stadt","type":"Große_Kreisstadt"},"district":{"key":"08119","name":"Rems-Murr-Kreis","type":"Landkreis"},"federalState":{"key":"08","name":"Baden-Württemberg"}},{"name":"Seewasen","postalCode":"71364","locality":"Winnenden","municipality":{"key":"08119085","name":"Winnenden, Stadt","type":"Große_Kreisstadt"},"district":{"key":"08119","name":"Rems-Murr-Kreis","type":"Landkreis"},"federalState":{"key":"08","name":"Baden-Württemberg"}},{"name":"Silberpappelstr.","postalCode":"71364","locality":"Winnenden","municipality":{"key":"08119085","name":"Winnenden, Stadt","type":"Große_Kreisstadt"},"district":{"key":"08119","name":"Rems-Murr-Kreis","type":"Landkreis"},"federalState":{"key":"08","name":"Baden-Württemberg"}},{"name":"Silcherstr.","postalCode":"71364","locality":"Winnenden","municipality":{"key":"08119085","name":"Winnenden, Stadt","type":"Große_Kreisstadt"},"district":{"key":"08119","name":"Rems-Murr-Kreis","type":"Landkreis"},"federalState":{"key":"08","name":"Baden-Württemberg"}},{"name":"Silvanerstr.","postalCode":"71364","locality":"Winnenden","municipality":{"key":"08119085","name":"Winnenden, Stadt","type":"Große_Kreisstadt"},"district":{"key":"08119","name":"Rems-Murr-Kreis","type":"Landkreis"},"federalState":{"key":"08","name":"Baden-Württemberg"}},{"name":"Sommerhaldenstr.","postalCode":"71364","locality":"Winnenden","municipality":{"key":"08119085","name":"Winnenden, Stadt","type":"Große_Kreisstadt"},"district":{"key":"08119","name":"Rems-Murr-Kreis","type":"Landkreis"},"federalState":{"key":"08","name":"Baden-Württemberg"}},{"name":"Sonnenbergstr.","postalCode":"71364","locality":"Winnenden","municipality":{"key":"08119085","name":"Winnenden, Stadt","type":"Große_Kreisstadt"},"district":{"key":"08119","name":"Rems-Murr-Kreis","type":"Landkreis"},"federalState":{"key":"08","name":"Baden-Württemberg"}},{"name":"Sperberweg","postalCode":"71364","locality":"Winnenden","municipality":{"key":"08119085","name":"Winnenden, Stadt","type":"Große_Kreisstadt"},"district":{"key":"08119","name":"Rems-Murr-Kreis","type":"Landkreis"},"federalState":{"key":"08","name":"Baden-Württemberg"}},{"name":"Stadtgarten","postalCode":"71364","locality":"Winnenden","municipality":{"key":"08119085","name":"Winnenden, Stadt","type":"Große_Kreisstadt"},"district":{"key":"08119","name":"Rems-Murr-Kreis","type":"Landkreis"},"federalState":{"key":"08","name":"Baden-Württemberg"}},{"name":"Starenweg","postalCode":"71364","locality":"Winnenden","municipality":{"key":"08119085","name":"Winnenden, Stadt","type":"Große_Kreisstadt"},"district":{"key":"08119","name":"Rems-Murr-Kreis","type":"Landkreis"},"federalState":{"key":"08","name":"Baden-Württemberg"}},{"name":"Steinbeisweg","postalCode":"71364","locality":"Winnenden","municipality":{"key":"08119085","name":"Winnenden, Stadt","type":"Große_Kreisstadt"},"district":{"key":"08119","name":"Rems-Murr-Kreis","type":"Landkreis"},"federalState":{"key":"08","name":"Baden-Württemberg"}},{"name":"Steinhäusle","postalCode":"71364","locality":"Winnenden","municipality":{"key":"08119085","name":"Winnenden, Stadt","type":"Große_Kreisstadt"},"district":{"key":"08119","name":"Rems-Murr-Kreis","type":"Landkreis"},"federalState":{"key":"08","name":"Baden-Württemberg"}},{"name":"Steinreinacher Weg","postalCode":"71364","locality":"Winnenden","municipality":{"key":"08119085","name":"Winnenden, Stadt","type":"Große_Kreisstadt"},"district":{"key":"08119","name":"Rems-Murr-Kreis","type":"Landkreis"},"federalState":{"key":"08","name":"Baden-Württemberg"}},{"name":"Steinweg","postalCode":"71364","locality":"Winnenden","municipality":{"key":"08119085","name":"Winnenden, Stadt","type":"Große_Kreisstadt"},"district":{"key":"08119","name":"Rems-Murr-Kreis","type":"Landkreis"},"federalState":{"key":"08","name":"Baden-Württemberg"}},{"name":"Stöckachstr.","postalCode":"71364","locality":"Winnenden","municipality":{"key":"08119085","name":"Winnenden, Stadt","type":"Große_Kreisstadt"},"district":{"key":"08119","name":"Rems-Murr-Kreis","type":"Landkreis"},"federalState":{"key":"08","name":"Baden-Württemberg"}},{"name":"Stöckenhofer Str.","postalCode":"71364","locality":"Winnenden","municipality":{"key":"08119085","name":"Winnenden, Stadt","type":"Große_Kreisstadt"},"district":{"key":"08119","name":"Rems-Murr-Kreis","type":"Landkreis"},"federalState":{"key":"08","name":"Baden-Württemberg"}},{"name":"Storchenweg","postalCode":"71364","locality":"Winnenden","municipality":{"key":"08119085","name":"Winnenden, Stadt","type":"Große_Kreisstadt"},"district":{"key":"08119","name":"Rems-Murr-Kreis","type":"Landkreis"},"federalState":{"key":"08","name":"Baden-Württemberg"}},{"name":"Stormstr.","postalCode":"71364","locality":"Winnenden","municipality":{"key":"08119085","name":"Winnenden, Stadt","type":"Große_Kreisstadt"},"district":{"key":"08119","name":"Rems-Murr-Kreis","type":"Landkreis"},"federalState":{"key":"08","name":"Baden-Württemberg"}},{"name":"Stuhlweg","postalCode":"71364","locality":"Winnenden","municipality":{"key":"08119085","name":"Winnenden, Stadt","type":"Große_Kreisstadt"},"district":{"key":"08119","name":"Rems-Murr-Kreis","type":"Landkreis"},"federalState":{"key":"08","name":"Baden-Württemberg"}},{"name":"Stuifenstr.","postalCode":"71364","locality":"Winnenden","municipality":{"key":"08119085","name":"Winnenden, Stadt","type":"Große_Kreisstadt"},"district":{"key":"08119","name":"Rems-Murr-Kreis","type":"Landkreis"},"federalState":{"key":"08","name":"Baden-Württemberg"}},{"name":"Stumpenwiesen","postalCode":"71364","locality":"Winnenden","municipality":{"key":"08119085","name":"Winnenden, Stadt","type":"Große_Kreisstadt"},"district":{"key":"08119","name":"Rems-Murr-Kreis","type":"Landkreis"},"federalState":{"key":"08","name":"Baden-Württemberg"}},{"name":"Stuttgarter Str.","postalCode":"71364","locality":"Winnenden","municipality":{"key":"08119085","name":"Winnenden, Stadt","type":"Große_Kreisstadt"},"district":{"key":"08119","name":"Rems-Murr-Kreis","type":"Landkreis"},"federalState":{"key":"08","name":"Baden-Württemberg"}},{"name":"Talaue","postalCode":"71364","locality":"Winnenden","municipality":{"key":"08119085","name":"Winnenden, Stadt","type":"Große_Kreisstadt"},"district":{"key":"08119","name":"Rems-Murr-Kreis","type":"Landkreis"},"federalState":{"key":"08","name":"Baden-Württemberg"}},{"name":"Talstr.","postalCode":"71364","locality":"Winnenden","municipality":{"key":"08119085","name":"Winnenden, Stadt","type":"Große_Kreisstadt"},"district":{"key":"08119","name":"Rems-Murr-Kreis","type":"Landkreis"},"federalState":{"key":"08","name":"Baden-Württemberg"}},{"name":"Tannenweg","postalCode":"71364","locality":"Winnenden","municipality":{"key":"08119085","name":"Winnenden, Stadt","type":"Große_Kreisstadt"},"district":{"key":"08119","name":"Rems-Murr-Kreis","type":"Landkreis"},"federalState":{"key":"08","name":"Baden-Württemberg"}},{"name":"Taubenstr.","postalCode":"71364","locality":"Winnenden","municipality":{"key":"08119085","name":"Winnenden, Stadt","type":"Große_Kreisstadt"},"district":{"key":"08119","name":"Rems-Murr-Kreis","type":"Landkreis"},"federalState":{"key":"08","name":"Baden-Württemberg"}},{"name":"Theodor-Heuss-Platz","postalCode":"71364","locality":"Winnenden","municipality":{"key":"08119085","name":"Winnenden, Stadt","type":"Große_Kreisstadt"},"district":{"key":"08119","name":"Rems-Murr-Kreis","type":"Landkreis"},"federalState":{"key":"08","name":"Baden-Württemberg"}},{"name":"Tomatshalde","postalCode":"71364","locality":"Winnenden","municipality":{"key":"08119085","name":"Winnenden, Stadt","type":"Große_Kreisstadt"},"district":{"key":"08119","name":"Rems-Murr-Kreis","type":"Landkreis"},"federalState":{"key":"08","name":"Baden-Württemberg"}},{"name":"Torstr.","postalCode":"71364","locality":"Winnenden","municipality":{"key":"08119085","name":"Winnenden, Stadt","type":"Große_Kreisstadt"},"district":{"key":"08119","name":"Rems-Murr-Kreis","type":"Landkreis"},"federalState":{"key":"08","name":"Baden-Württemberg"}},{"name":"Traminerweg","postalCode":"71364","locality":"Winnenden","municipality":{"key":"08119085","name":"Winnenden, Stadt","type":"Große_Kreisstadt"},"district":{"key":"08119","name":"Rems-Murr-Kreis","type":"Landkreis"},"federalState":{"key":"08","name":"Baden-Württemberg"}},{"name":"Trollingerstr.","postalCode":"71364","locality":"Winnenden","municipality":{"key":"08119085","name":"Winnenden, Stadt","type":"Große_Kreisstadt"},"district":{"key":"08119","name":"Rems-Murr-Kreis","type":"Landkreis"},"federalState":{"key":"08","name":"Baden-Württemberg"}},{"name":"Tulpenstr.","postalCode":"71364","locality":"Winnenden","municipality":{"key":"08119085","name":"Winnenden, Stadt","type":"Große_Kreisstadt"},"district":{"key":"08119","name":"Rems-Murr-Kreis","type":"Landkreis"},"federalState":{"key":"08","name":"Baden-Württemberg"}},{"name":"Turmstr.","postalCode":"71364","locality":"Winnenden","municipality":{"key":"08119085","name":"Winnenden, Stadt","type":"Große_Kreisstadt"},"district":{"key":"08119","name":"Rems-Murr-Kreis","type":"Landkreis"},"federalState":{"key":"08","name":"Baden-Württemberg"}},{"name":"Uhlandstr.","postalCode":"71364","locality":"Winnenden","municipality":{"key":"08119085","name":"Winnenden, Stadt","type":"Große_Kreisstadt"},"district":{"key":"08119","name":"Rems-Murr-Kreis","type":"Landkreis"},"federalState":{"key":"08","name":"Baden-Württemberg"}},{"name":"Ulmenweg","postalCode":"71364","locality":"Winnenden","municipality":{"key":"08119085","name":"Winnenden, Stadt","type":"Große_Kreisstadt"},"district":{"key":"08119","name":"Rems-Murr-Kreis","type":"Landkreis"},"federalState":{"key":"08","name":"Baden-Württemberg"}},{"name":"Ulrichstr.","postalCode":"71364","locality":"Winnenden","municipality":{"key":"08119085","name":"Winnenden, Stadt","type":"Große_Kreisstadt"},"district":{"key":"08119","name":"Rems-Murr-Kreis","type":"Landkreis"},"federalState":{"key":"08","name":"Baden-Württemberg"}},{"name":"Unter dem Holzenberg","postalCode":"71364","locality":"Winnenden","municipality":{"key":"08119085","name":"Winnenden, Stadt","type":"Große_Kreisstadt"},"district":{"key":"08119","name":"Rems-Murr-Kreis","type":"Landkreis"},"federalState":{"key":"08","name":"Baden-Württemberg"}},{"name":"Unterer Kirchweg","postalCode":"71364","locality":"Winnenden","municipality":{"key":"08119085","name":"Winnenden, Stadt","type":"Große_Kreisstadt"},"district":{"key":"08119","name":"Rems-Murr-Kreis","type":"Landkreis"},"federalState":{"key":"08","name":"Baden-Württemberg"}},{"name":"Untere Sackstr.","postalCode":"71364","locality":"Winnenden","municipality":{"key":"08119085","name":"Winnenden, Stadt","type":"Große_Kreisstadt"},"district":{"key":"08119","name":"Rems-Murr-Kreis","type":"Landkreis"},"federalState":{"key":"08","name":"Baden-Württemberg"}},{"name":"Unterweilerstr.","postalCode":"71364","locality":"Winnenden","municipality":{"key":"08119085","name":"Winnenden, Stadt","type":"Große_Kreisstadt"},"district":{"key":"08119","name":"Rems-Murr-Kreis","type":"Landkreis"},"federalState":{"key":"08","name":"Baden-Württemberg"}},{"name":"Veilchenweg","postalCode":"71364","locality":"Winnenden","municipality":{"key":"08119085","name":"Winnenden, Stadt","type":"Große_Kreisstadt"},"district":{"key":"08119","name":"Rems-Murr-Kreis","type":"Landkreis"},"federalState":{"key":"08","name":"Baden-Württemberg"}},{"name":"Vogelberg","postalCode":"71364","locality":"Winnenden","municipality":{"key":"08119085","name":"Winnenden, Stadt","type":"Große_Kreisstadt"},"district":{"key":"08119","name":"Rems-Murr-Kreis","type":"Landkreis"},"federalState":{"key":"08","name":"Baden-Württemberg"}},{"name":"Wacholderstr.","postalCode":"71364","locality":"Winnenden","municipality":{"key":"08119085","name":"Winnenden, Stadt","type":"Große_Kreisstadt"},"district":{"key":"08119","name":"Rems-Murr-Kreis","type":"Landkreis"},"federalState":{"key":"08","name":"Baden-Württemberg"}},{"name":"Wagnerstr.","postalCode":"71364","locality":"Winnenden","municipality":{"key":"08119085","name":"Winnenden, Stadt","type":"Große_Kreisstadt"},"district":{"key":"08119","name":"Rems-Murr-Kreis","type":"Landkreis"},"federalState":{"key":"08","name":"Baden-Württemberg"}},{"name":"Waiblinger Berg","postalCode":"71364","locality":"Winnenden","municipality":{"key":"08119085","name":"Winnenden, Stadt","type":"Große_Kreisstadt"},"district":{"key":"08119","name":"Rems-Murr-Kreis","type":"Landkreis"},"federalState":{"key":"08","name":"Baden-Württemberg"}},{"name":"Waiblinger Str.","postalCode":"71364","locality":"Winnenden","municipality":{"key":"08119085","name":"Winnenden, Stadt","type":"Große_Kreisstadt"},"district":{"key":"08119","name":"Rems-Murr-Kreis","type":"Landkreis"},"federalState":{"key":"08","name":"Baden-Württemberg"}},{"name":"Wallstr.","postalCode":"71364","locality":"Winnenden","municipality":{"key":"08119085","name":"Winnenden, Stadt","type":"Große_Kreisstadt"},"district":{"key":"08119","name":"Rems-Murr-Kreis","type":"Landkreis"},"federalState":{"key":"08","name":"Baden-Württemberg"}},{"name":"Weidenstr.","postalCode":"71364","locality":"Winnenden","municipality":{"key":"08119085","name":"Winnenden, Stadt","type":"Große_Kreisstadt"},"district":{"key":"08119","name":"Rems-Murr-Kreis","type":"Landkreis"},"federalState":{"key":"08","name":"Baden-Württemberg"}},{"name":"Weinsteige","postalCode":"71364","locality":"Winnenden","municipality":{"key":"08119085","name":"Winnenden, Stadt","type":"Große_Kreisstadt"},"district":{"key":"08119","name":"Rems-Murr-Kreis","type":"Landkreis"},"federalState":{"key":"08","name":"Baden-Württemberg"}},{"name":"Weinstr.","postalCode":"71364","locality":"Winnenden","municipality":{"key":"08119085","name":"Winnenden, Stadt","type":"Große_Kreisstadt"},"district":{"key":"08119","name":"Rems-Murr-Kreis","type":"Landkreis"},"federalState":{"key":"08","name":"Baden-Württemberg"}},{"name":"Wielandweg","postalCode":"71364","locality":"Winnenden","municipality":{"key":"08119085","name":"Winnenden, Stadt","type":"Große_Kreisstadt"},"district":{"key":"08119","name":"Rems-Murr-Kreis","type":"Landkreis"},"federalState":{"key":"08","name":"Baden-Württemberg"}},{"name":"Wiesenstr.","postalCode":"71364","locality":"Winnenden","municipality":{"key":"08119085","name":"Winnenden, Stadt","type":"Große_Kreisstadt"},"district":{"key":"08119","name":"Rems-Murr-Kreis","type":"Landkreis"},"federalState":{"key":"08","name":"Baden-Württemberg"}},{"name":"Wiesentalstr.","postalCode":"71364","locality":"Winnenden","municipality":{"key":"08119085","name":"Winnenden, Stadt","type":"Große_Kreisstadt"},"district":{"key":"08119","name":"Rems-Murr-Kreis","type":"Landkreis"},"federalState":{"key":"08","name":"Baden-Württemberg"}},{"name":"Wiesgartenweg","postalCode":"71364","locality":"Winnenden","municipality":{"key":"08119085","name":"Winnenden, Stadt","type":"Große_Kreisstadt"},"district":{"key":"08119","name":"Rems-Murr-Kreis","type":"Landkreis"},"federalState":{"key":"08","name":"Baden-Württemberg"}},{"name":"Wilhelmstr.","postalCode":"71364","locality":"Winnenden","municipality":{"key":"08119085","name":"Winnenden, Stadt","type":"Große_Kreisstadt"},"district":{"key":"08119","name":"Rems-Murr-Kreis","type":"Landkreis"},"federalState":{"key":"08","name":"Baden-Württemberg"}},{"name":"Willy-Brandt-Weg","postalCode":"71364","locality":"Winnenden","municipality":{"key":"08119085","name":"Winnenden, Stadt","type":"Große_Kreisstadt"},"district":{"key":"08119","name":"Rems-Murr-Kreis","type":"Landkreis"},"federalState":{"key":"08","name":"Baden-Württemberg"}},{"name":"Winnender Str.","postalCode":"71364","locality":"Winnenden","municipality":{"key":"08119085","name":"Winnenden, Stadt","type":"Große_Kreisstadt"},"district":{"key":"08119","name":"Rems-Murr-Kreis","type":"Landkreis"},"federalState":{"key":"08","name":"Baden-Württemberg"}},{"name":"Wolfgang-Best-Weg","postalCode":"71364","locality":"Winnenden","municipality":{"key":"08119085","name":"Winnenden, Stadt","type":"Große_Kreisstadt"},"district":{"key":"08119","name":"Rems-Murr-Kreis","type":"Landkreis"},"federalState":{"key":"08","name":"Baden-Württemberg"}},{"name":"Wolfsklingenweg","postalCode":"71364","locality":"Winnenden","municipality":{"key":"08119085","name":"Winnenden, Stadt","type":"Große_Kreisstadt"},"district":{"key":"08119","name":"Rems-Murr-Kreis","type":"Landkreis"},"federalState":{"key":"08","name":"Baden-Württemberg"}},{"name":"Zedernweg","postalCode":"71364","locality":"Winnenden","municipality":{"key":"08119085","name":"Winnenden, Stadt","type":"Große_Kreisstadt"},"district":{"key":"08119","name":"Rems-Murr-Kreis","type":"Landkreis"},"federalState":{"key":"08","name":"Baden-Württemberg"}},{"name":"Zeisigweg","postalCode":"71364","locality":"Winnenden","municipality":{"key":"08119085","name":"Winnenden, Stadt","type":"Große_Kreisstadt"},"district":{"key":"08119","name":"Rems-Murr-Kreis","type":"Landkreis"},"federalState":{"key":"08","name":"Baden-Württemberg"}},{"name":"Zellerstr.","postalCode":"71364","locality":"Winnenden","municipality":{"key":"08119085","name":"Winnenden, Stadt","type":"Große_Kreisstadt"},"district":{"key":"08119","name":"Rems-Murr-Kreis","type":"Landkreis"},"federalState":{"key":"08","name":"Baden-Württemberg"}},{"name":"Zentrum für Psychiatrie Winnenden","postalCode":"71364","locality":"Winnenden","municipality":{"key":"08119085","name":"Winnenden, Stadt","type":"Große_Kreisstadt"},"district":{"key":"08119","name":"Rems-Murr-Kreis","type":"Landkreis"},"federalState":{"key":"08","name":"Baden-Württemberg"}},{"name":"Zwischen den Bächen","postalCode":"71364","locality":"Winnenden","municipality":{"key":"08119085","name":"Winnenden, Stadt","type":"Große_Kreisstadt"},"district":{"key":"08119","name":"Rems-Murr-Kreis","type":"Landkreis"},"federalState":{"key":"08","name":"Baden-Württemberg"}},{"name":"Öschelbronner Str.","postalCode":"71364","locality":"Winnenden","municipality":{"key":"08119085","name":"Winnenden, Stadt","type":"Große_Kreisstadt"},"district":{"key":"08119","name":"Rems-Murr-Kreis","type":"Landkreis"},"federalState":{"key":"08","name":"Baden-Württemberg"}},]