[{"name":"Abt-Bertho-Str.","postalCode":"36137","locality":"Großenlüder","municipality":{"key":"06631011","name":"Großenlüder","type":"Kreisangehörige_Gemeinde"},"district":{"key":"06631","name":"Fulda","type":"Landkreis"},"federalState":{"key":"06","name":"Hessen"}},{"name":"Achalmweg","postalCode":"73655","locality":"Plüderhausen","municipality":{"key":"08119055","name":"Plüderhausen","type":"Kreisangehörige_Gemeinde"},"district":{"key":"08119","name":"Rems-Murr-Kreis","type":"Landkreis"},"federalState":{"key":"08","name":"Baden-Württemberg"}},{"name":"Adalbert-Stifter-Weg","postalCode":"73655","locality":"Plüderhausen","municipality":{"key":"08119055","name":"Plüderhausen","type":"Kreisangehörige_Gemeinde"},"district":{"key":"08119","name":"Rems-Murr-Kreis","type":"Landkreis"},"federalState":{"key":"08","name":"Baden-Württemberg"}},{"name":"Adelberger Str.","postalCode":"73655","locality":"Plüderhausen","municipality":{"key":"08119055","name":"Plüderhausen","type":"Kreisangehörige_Gemeinde"},"district":{"key":"08119","name":"Rems-Murr-Kreis","type":"Landkreis"},"federalState":{"key":"08","name":"Baden-Württemberg"}},{"name":"Adelbergerweg","postalCode":"73655","locality":"Plüderhausen","municipality":{"key":"08119055","name":"Plüderhausen","type":"Kreisangehörige_Gemeinde"},"district":{"key":"08119","name":"Rems-Murr-Kreis","type":"Landkreis"},"federalState":{"key":"08","name":"Baden-Württemberg"}},{"name":"Ahornstr.","postalCode":"73655","locality":"Plüderhausen","municipality":{"key":"08119055","name":"Plüderhausen","type":"Kreisangehörige_Gemeinde"},"district":{"key":"08119","name":"Rems-Murr-Kreis","type":"Landkreis"},"federalState":{"key":"08","name":"Baden-Württemberg"}},{"name":"Ahornweg","postalCode":"23923","locality":"Lüdersdorf","municipality":{"key":"13074049","name":"Lüdersdorf","type":"Kreisangehörige_Gemeinde"},"district":{"key":"13074","name":"Nordwestmecklenburg","type":"Landkreis"},"federalState":{"key":"13","name":"Mecklenburg-Vorpommern"}},{"name":"Ahornweg","postalCode":"29394","locality":"Lüder","municipality":{"key":"03360013","name":"Lüder","type":"Kreisangehörige_Gemeinde"},"district":{"key":"03360","name":"Uelzen","type":"Landkreis"},"federalState":{"key":"03","name":"Niedersachsen"}},{"name":"Ahornweg","postalCode":"36137","locality":"Großenlüder","municipality":{"key":"06631011","name":"Großenlüder","type":"Kreisangehörige_Gemeinde"},"district":{"key":"06631","name":"Fulda","type":"Landkreis"},"federalState":{"key":"06","name":"Hessen"}},{"name":"Aichenbachstr.","postalCode":"73655","locality":"Plüderhausen","municipality":{"key":"08119055","name":"Plüderhausen","type":"Kreisangehörige_Gemeinde"},"district":{"key":"08119","name":"Rems-Murr-Kreis","type":"Landkreis"},"federalState":{"key":"08","name":"Baden-Württemberg"}},{"name":"Aichenbachsträßchen","postalCode":"73655","locality":"Plüderhausen","municipality":{"key":"08119055","name":"Plüderhausen","type":"Kreisangehörige_Gemeinde"},"district":{"key":"08119","name":"Rems-Murr-Kreis","type":"Landkreis"},"federalState":{"key":"08","name":"Baden-Württemberg"}},{"name":"Allerfeld","postalCode":"31702","locality":"Lüdersfeld","municipality":{"key":"03257021","name":"Lüdersfeld","type":"Kreisangehörige_Gemeinde"},"district":{"key":"03257","name":"Schaumburg","type":"Landkreis"},"federalState":{"key":"03","name":"Niedersachsen"}},{"name":"Alter Friedhofsweg","postalCode":"36137","locality":"Großenlüder","municipality":{"key":"06631011","name":"Großenlüder","type":"Kreisangehörige_Gemeinde"},"district":{"key":"06631","name":"Fulda","type":"Landkreis"},"federalState":{"key":"06","name":"Hessen"}},{"name":"Alter Kamp Weg","postalCode":"36137","locality":"Großenlüder","municipality":{"key":"06631011","name":"Großenlüder","type":"Kreisangehörige_Gemeinde"},"district":{"key":"06631","name":"Fulda","type":"Landkreis"},"federalState":{"key":"06","name":"Hessen"}},{"name":"Alter Kirchweg","postalCode":"31702","locality":"Lüdersfeld","municipality":{"key":"03257021","name":"Lüdersfeld","type":"Kreisangehörige_Gemeinde"},"district":{"key":"03257","name":"Schaumburg","type":"Landkreis"},"federalState":{"key":"03","name":"Niedersachsen"}},{"name":"Alte Steige","postalCode":"73655","locality":"Plüderhausen","municipality":{"key":"08119055","name":"Plüderhausen","type":"Kreisangehörige_Gemeinde"},"district":{"key":"08119","name":"Rems-Murr-Kreis","type":"Landkreis"},"federalState":{"key":"08","name":"Baden-Württemberg"}},{"name":"Am Alten Sportplatz","postalCode":"36137","locality":"Großenlüder","municipality":{"key":"06631011","name":"Großenlüder","type":"Kreisangehörige_Gemeinde"},"district":{"key":"06631","name":"Fulda","type":"Landkreis"},"federalState":{"key":"06","name":"Hessen"}},{"name":"Am Auacker","postalCode":"36137","locality":"Großenlüder","municipality":{"key":"06631011","name":"Großenlüder","type":"Kreisangehörige_Gemeinde"},"district":{"key":"06631","name":"Fulda","type":"Landkreis"},"federalState":{"key":"06","name":"Hessen"}},{"name":"Am Bahnhof","postalCode":"23923","locality":"Lüdersdorf","municipality":{"key":"13074049","name":"Lüdersdorf","type":"Kreisangehörige_Gemeinde"},"district":{"key":"13074","name":"Nordwestmecklenburg","type":"Landkreis"},"federalState":{"key":"13","name":"Mecklenburg-Vorpommern"}},{"name":"Am Bahnhof","postalCode":"29394","locality":"Lüder","municipality":{"key":"03360013","name":"Lüder","type":"Kreisangehörige_Gemeinde"},"district":{"key":"03360","name":"Uelzen","type":"Landkreis"},"federalState":{"key":"03","name":"Niedersachsen"}},{"name":"Am Bahnhof","postalCode":"36137","locality":"Großenlüder","municipality":{"key":"06631011","name":"Großenlüder","type":"Kreisangehörige_Gemeinde"},"district":{"key":"06631","name":"Fulda","type":"Landkreis"},"federalState":{"key":"06","name":"Hessen"}},{"name":"Am Baumgarten","postalCode":"36137","locality":"Großenlüder","municipality":{"key":"06631011","name":"Großenlüder","type":"Kreisangehörige_Gemeinde"},"district":{"key":"06631","name":"Fulda","type":"Landkreis"},"federalState":{"key":"06","name":"Hessen"}},{"name":"Am Bienbach","postalCode":"36137","locality":"Großenlüder","municipality":{"key":"06631011","name":"Großenlüder","type":"Kreisangehörige_Gemeinde"},"district":{"key":"06631","name":"Fulda","type":"Landkreis"},"federalState":{"key":"06","name":"Hessen"}},{"name":"Am Biengarten","postalCode":"36137","locality":"Großenlüder","municipality":{"key":"06631011","name":"Großenlüder","type":"Kreisangehörige_Gemeinde"},"district":{"key":"06631","name":"Fulda","type":"Landkreis"},"federalState":{"key":"06","name":"Hessen"}},{"name":"Am Blankenauer","postalCode":"36137","locality":"Großenlüder","municipality":{"key":"06631011","name":"Großenlüder","type":"Kreisangehörige_Gemeinde"},"district":{"key":"06631","name":"Fulda","type":"Landkreis"},"federalState":{"key":"06","name":"Hessen"}},{"name":"Am Brink","postalCode":"23923","locality":"Lüdersdorf","municipality":{"key":"13074049","name":"Lüdersdorf","type":"Kreisangehörige_Gemeinde"},"district":{"key":"13074","name":"Nordwestmecklenburg","type":"Landkreis"},"federalState":{"key":"13","name":"Mecklenburg-Vorpommern"}},{"name":"Am Burgrain","postalCode":"36137","locality":"Großenlüder","municipality":{"key":"06631011","name":"Großenlüder","type":"Kreisangehörige_Gemeinde"},"district":{"key":"06631","name":"Fulda","type":"Landkreis"},"federalState":{"key":"06","name":"Hessen"}},{"name":"Am Eichholz","postalCode":"36137","locality":"Großenlüder","municipality":{"key":"06631011","name":"Großenlüder","type":"Kreisangehörige_Gemeinde"},"district":{"key":"06631","name":"Fulda","type":"Landkreis"},"federalState":{"key":"06","name":"Hessen"}},{"name":"Am Fahrberg","postalCode":"29394","locality":"Lüder","municipality":{"key":"03360013","name":"Lüder","type":"Kreisangehörige_Gemeinde"},"district":{"key":"03360","name":"Uelzen","type":"Landkreis"},"federalState":{"key":"03","name":"Niedersachsen"}},{"name":"Am Forsthaus","postalCode":"36137","locality":"Großenlüder","municipality":{"key":"06631011","name":"Großenlüder","type":"Kreisangehörige_Gemeinde"},"district":{"key":"06631","name":"Fulda","type":"Landkreis"},"federalState":{"key":"06","name":"Hessen"}},{"name":"Am Fronhof","postalCode":"36137","locality":"Großenlüder","municipality":{"key":"06631011","name":"Großenlüder","type":"Kreisangehörige_Gemeinde"},"district":{"key":"06631","name":"Fulda","type":"Landkreis"},"federalState":{"key":"06","name":"Hessen"}},{"name":"Am Galgenberg","postalCode":"36137","locality":"Großenlüder","municipality":{"key":"06631011","name":"Großenlüder","type":"Kreisangehörige_Gemeinde"},"district":{"key":"06631","name":"Fulda","type":"Landkreis"},"federalState":{"key":"06","name":"Hessen"}},{"name":"Am Grenzweg","postalCode":"23923","locality":"Lüdersdorf","municipality":{"key":"13074049","name":"Lüdersdorf","type":"Kreisangehörige_Gemeinde"},"district":{"key":"13074","name":"Nordwestmecklenburg","type":"Landkreis"},"federalState":{"key":"13","name":"Mecklenburg-Vorpommern"}},{"name":"Am Güterbahnhof","postalCode":"73655","locality":"Plüderhausen","municipality":{"key":"08119055","name":"Plüderhausen","type":"Kreisangehörige_Gemeinde"},"district":{"key":"08119","name":"Rems-Murr-Kreis","type":"Landkreis"},"federalState":{"key":"08","name":"Baden-Württemberg"}},{"name":"Am Haagen","postalCode":"29394","locality":"Lüder","municipality":{"key":"03360013","name":"Lüder","type":"Kreisangehörige_Gemeinde"},"district":{"key":"03360","name":"Uelzen","type":"Landkreis"},"federalState":{"key":"03","name":"Niedersachsen"}},{"name":"Am Habersberg","postalCode":"36137","locality":"Großenlüder","municipality":{"key":"06631011","name":"Großenlüder","type":"Kreisangehörige_Gemeinde"},"district":{"key":"06631","name":"Fulda","type":"Landkreis"},"federalState":{"key":"06","name":"Hessen"}},{"name":"Am Hädenbach","postalCode":"36137","locality":"Großenlüder","municipality":{"key":"06631011","name":"Großenlüder","type":"Kreisangehörige_Gemeinde"},"district":{"key":"06631","name":"Fulda","type":"Landkreis"},"federalState":{"key":"06","name":"Hessen"}},{"name":"Am Hädenberg","postalCode":"36137","locality":"Großenlüder","municipality":{"key":"06631011","name":"Großenlüder","type":"Kreisangehörige_Gemeinde"},"district":{"key":"06631","name":"Fulda","type":"Landkreis"},"federalState":{"key":"06","name":"Hessen"}},{"name":"Am Hang","postalCode":"36137","locality":"Großenlüder","municipality":{"key":"06631011","name":"Großenlüder","type":"Kreisangehörige_Gemeinde"},"district":{"key":"06631","name":"Fulda","type":"Landkreis"},"federalState":{"key":"06","name":"Hessen"}},{"name":"Am Hegwald","postalCode":"36137","locality":"Großenlüder","municipality":{"key":"06631011","name":"Großenlüder","type":"Kreisangehörige_Gemeinde"},"district":{"key":"06631","name":"Fulda","type":"Landkreis"},"federalState":{"key":"06","name":"Hessen"}},{"name":"Am Hofgarten","postalCode":"36137","locality":"Großenlüder","municipality":{"key":"06631011","name":"Großenlüder","type":"Kreisangehörige_Gemeinde"},"district":{"key":"06631","name":"Fulda","type":"Landkreis"},"federalState":{"key":"06","name":"Hessen"}},{"name":"Am Hügel","postalCode":"36137","locality":"Großenlüder","municipality":{"key":"06631011","name":"Großenlüder","type":"Kreisangehörige_Gemeinde"},"district":{"key":"06631","name":"Fulda","type":"Landkreis"},"federalState":{"key":"06","name":"Hessen"}},{"name":"Am Hülsebrink","postalCode":"31702","locality":"Lüdersfeld","municipality":{"key":"03257021","name":"Lüdersfeld","type":"Kreisangehörige_Gemeinde"},"district":{"key":"03257","name":"Schaumburg","type":"Landkreis"},"federalState":{"key":"03","name":"Niedersachsen"}},{"name":"Am Kamp","postalCode":"23923","locality":"Lüdersdorf","municipality":{"key":"13074049","name":"Lüdersdorf","type":"Kreisangehörige_Gemeinde"},"district":{"key":"13074","name":"Nordwestmecklenburg","type":"Landkreis"},"federalState":{"key":"13","name":"Mecklenburg-Vorpommern"}},{"name":"Am Kanal","postalCode":"29394","locality":"Lüder","municipality":{"key":"03360013","name":"Lüder","type":"Kreisangehörige_Gemeinde"},"district":{"key":"03360","name":"Uelzen","type":"Landkreis"},"federalState":{"key":"03","name":"Niedersachsen"}},{"name":"Am Kapenberg","postalCode":"23923","locality":"Lüdersdorf","municipality":{"key":"13074049","name":"Lüdersdorf","type":"Kreisangehörige_Gemeinde"},"district":{"key":"13074","name":"Nordwestmecklenburg","type":"Landkreis"},"federalState":{"key":"13","name":"Mecklenburg-Vorpommern"}},{"name":"Am Kiebitzmoor","postalCode":"23923","locality":"Lüdersdorf","municipality":{"key":"13074049","name":"Lüdersdorf","type":"Kreisangehörige_Gemeinde"},"district":{"key":"13074","name":"Nordwestmecklenburg","type":"Landkreis"},"federalState":{"key":"13","name":"Mecklenburg-Vorpommern"}},{"name":"Am Kirchborn","postalCode":"36137","locality":"Großenlüder","municipality":{"key":"06631011","name":"Großenlüder","type":"Kreisangehörige_Gemeinde"},"district":{"key":"06631","name":"Fulda","type":"Landkreis"},"federalState":{"key":"06","name":"Hessen"}},{"name":"Am Klosterkopf","postalCode":"36137","locality":"Großenlüder","municipality":{"key":"06631011","name":"Großenlüder","type":"Kreisangehörige_Gemeinde"},"district":{"key":"06631","name":"Fulda","type":"Landkreis"},"federalState":{"key":"06","name":"Hessen"}},{"name":"Am Krähenberg","postalCode":"29394","locality":"Lüder","municipality":{"key":"03360013","name":"Lüder","type":"Kreisangehörige_Gemeinde"},"district":{"key":"03360","name":"Uelzen","type":"Landkreis"},"federalState":{"key":"03","name":"Niedersachsen"}},{"name":"Bachkoppelweg","postalCode":"21379","locality":"Lüdersburg","municipality":{"key":"03355021","name":"Lüdersburg","type":"Kreisangehörige_Gemeinde"},"district":{"key":"03355","name":"Lüneburg","type":"Landkreis"},"federalState":{"key":"03","name":"Niedersachsen"}},{"name":"Bachweg","postalCode":"36137","locality":"Großenlüder","municipality":{"key":"06631011","name":"Großenlüder","type":"Kreisangehörige_Gemeinde"},"district":{"key":"06631","name":"Fulda","type":"Landkreis"},"federalState":{"key":"06","name":"Hessen"}},{"name":"Bäckerecke","postalCode":"36137","locality":"Großenlüder","municipality":{"key":"06631011","name":"Großenlüder","type":"Kreisangehörige_Gemeinde"},"district":{"key":"06631","name":"Fulda","type":"Landkreis"},"federalState":{"key":"06","name":"Hessen"}},{"name":"Bahnhofstr.","postalCode":"23923","locality":"Lüdersdorf","municipality":{"key":"13074049","name":"Lüdersdorf","type":"Kreisangehörige_Gemeinde"},"district":{"key":"13074","name":"Nordwestmecklenburg","type":"Landkreis"},"federalState":{"key":"13","name":"Mecklenburg-Vorpommern"}},{"name":"Bahnhofstr.","postalCode":"29394","locality":"Lüder","municipality":{"key":"03360013","name":"Lüder","type":"Kreisangehörige_Gemeinde"},"district":{"key":"03360","name":"Uelzen","type":"Landkreis"},"federalState":{"key":"03","name":"Niedersachsen"}},{"name":"Bahnhofstr.","postalCode":"36137","locality":"Großenlüder","municipality":{"key":"06631011","name":"Großenlüder","type":"Kreisangehörige_Gemeinde"},"district":{"key":"06631","name":"Fulda","type":"Landkreis"},"federalState":{"key":"06","name":"Hessen"}},{"name":"Bahnhofstr.","postalCode":"73655","locality":"Plüderhausen","municipality":{"key":"08119055","name":"Plüderhausen","type":"Kreisangehörige_Gemeinde"},"district":{"key":"08119","name":"Rems-Murr-Kreis","type":"Landkreis"},"federalState":{"key":"08","name":"Baden-Württemberg"}},{"name":"Bardowieker Weg","postalCode":"23923","locality":"Lüdersdorf","municipality":{"key":"13074049","name":"Lüdersdorf","type":"Kreisangehörige_Gemeinde"},"district":{"key":"13074","name":"Nordwestmecklenburg","type":"Landkreis"},"federalState":{"key":"13","name":"Mecklenburg-Vorpommern"}},{"name":"Bärenbachweg","postalCode":"73642","locality":"Plüderhausen","municipality":{"key":"08119055","name":"Plüderhausen","type":"Kreisangehörige_Gemeinde"},"district":{"key":"08119","name":"Rems-Murr-Kreis","type":"Landkreis"},"federalState":{"key":"08","name":"Baden-Württemberg"}},{"name":"Beethovenweg","postalCode":"73655","locality":"Plüderhausen","municipality":{"key":"08119055","name":"Plüderhausen","type":"Kreisangehörige_Gemeinde"},"district":{"key":"08119","name":"Rems-Murr-Kreis","type":"Landkreis"},"federalState":{"key":"08","name":"Baden-Württemberg"}},{"name":"Bei der Kirche","postalCode":"18314","locality":"Lüdershagen","municipality":{"key":"13073053","name":"Lüdershagen","type":"Kreisangehörige_Gemeinde"},"district":{"key":"13073","name":"Vorpommern-Rügen","type":"Landkreis"},"federalState":{"key":"13","name":"Mecklenburg-Vorpommern"}},{"name":"Bei der Kirche","postalCode":"73655","locality":"Plüderhausen","municipality":{"key":"08119055","name":"Plüderhausen","type":"Kreisangehörige_Gemeinde"},"district":{"key":"08119","name":"Rems-Murr-Kreis","type":"Landkreis"},"federalState":{"key":"08","name":"Baden-Württemberg"}},{"name":"Beim alten Rathaus","postalCode":"73655","locality":"Plüderhausen","municipality":{"key":"08119055","name":"Plüderhausen","type":"Kreisangehörige_Gemeinde"},"district":{"key":"08119","name":"Rems-Murr-Kreis","type":"Landkreis"},"federalState":{"key":"08","name":"Baden-Württemberg"}},{"name":"Benzstr.","postalCode":"73655","locality":"Plüderhausen","municipality":{"key":"08119055","name":"Plüderhausen","type":"Kreisangehörige_Gemeinde"},"district":{"key":"08119","name":"Rems-Murr-Kreis","type":"Landkreis"},"federalState":{"key":"08","name":"Baden-Württemberg"}},{"name":"Bergstr.","postalCode":"18314","locality":"Lüdershagen","municipality":{"key":"13073053","name":"Lüdershagen","type":"Kreisangehörige_Gemeinde"},"district":{"key":"13073","name":"Vorpommern-Rügen","type":"Landkreis"},"federalState":{"key":"13","name":"Mecklenburg-Vorpommern"}},{"name":"Bergstr.","postalCode":"29394","locality":"Lüder","municipality":{"key":"03360013","name":"Lüder","type":"Kreisangehörige_Gemeinde"},"district":{"key":"03360","name":"Uelzen","type":"Landkreis"},"federalState":{"key":"03","name":"Niedersachsen"}},{"name":"Bergstr.","postalCode":"36137","locality":"Großenlüder","municipality":{"key":"06631011","name":"Großenlüder","type":"Kreisangehörige_Gemeinde"},"district":{"key":"06631","name":"Fulda","type":"Landkreis"},"federalState":{"key":"06","name":"Hessen"}},{"name":"Berkener Weg","postalCode":"73655","locality":"Plüderhausen","municipality":{"key":"08119055","name":"Plüderhausen","type":"Kreisangehörige_Gemeinde"},"district":{"key":"08119","name":"Rems-Murr-Kreis","type":"Landkreis"},"federalState":{"key":"08","name":"Baden-Württemberg"}},{"name":"Berker Str.","postalCode":"73655","locality":"Plüderhausen","municipality":{"key":"08119055","name":"Plüderhausen","type":"Kreisangehörige_Gemeinde"},"district":{"key":"08119","name":"Rems-Murr-Kreis","type":"Landkreis"},"federalState":{"key":"08","name":"Baden-Württemberg"}},{"name":"Berker Wand Str.","postalCode":"73655","locality":"Plüderhausen","municipality":{"key":"08119055","name":"Plüderhausen","type":"Kreisangehörige_Gemeinde"},"district":{"key":"08119","name":"Rems-Murr-Kreis","type":"Landkreis"},"federalState":{"key":"08","name":"Baden-Württemberg"}},{"name":"Berliner Str.","postalCode":"29394","locality":"Lüder","municipality":{"key":"03360013","name":"Lüder","type":"Kreisangehörige_Gemeinde"},"district":{"key":"03360","name":"Uelzen","type":"Landkreis"},"federalState":{"key":"03","name":"Niedersachsen"}},{"name":"Biegenrain","postalCode":"36137","locality":"Großenlüder","municipality":{"key":"06631011","name":"Großenlüder","type":"Kreisangehörige_Gemeinde"},"district":{"key":"06631","name":"Fulda","type":"Landkreis"},"federalState":{"key":"06","name":"Hessen"}},{"name":"Bimbacher Str.","postalCode":"36137","locality":"Großenlüder","municipality":{"key":"06631011","name":"Großenlüder","type":"Kreisangehörige_Gemeinde"},"district":{"key":"06631","name":"Fulda","type":"Landkreis"},"federalState":{"key":"06","name":"Hessen"}},{"name":"Birkenallee","postalCode":"73655","locality":"Plüderhausen","municipality":{"key":"08119055","name":"Plüderhausen","type":"Kreisangehörige_Gemeinde"},"district":{"key":"08119","name":"Rems-Murr-Kreis","type":"Landkreis"},"federalState":{"key":"08","name":"Baden-Württemberg"}},{"name":"Birkenweg","postalCode":"21379","locality":"Lüdersburg","municipality":{"key":"03355021","name":"Lüdersburg","type":"Kreisangehörige_Gemeinde"},"district":{"key":"03355","name":"Lüneburg","type":"Landkreis"},"federalState":{"key":"03","name":"Niedersachsen"}},{"name":"Birkenweg","postalCode":"29394","locality":"Lüder","municipality":{"key":"03360013","name":"Lüder","type":"Kreisangehörige_Gemeinde"},"district":{"key":"03360","name":"Uelzen","type":"Landkreis"},"federalState":{"key":"03","name":"Niedersachsen"}},{"name":"Birkenweg","postalCode":"36137","locality":"Großenlüder","municipality":{"key":"06631011","name":"Großenlüder","type":"Kreisangehörige_Gemeinde"},"district":{"key":"06631","name":"Fulda","type":"Landkreis"},"federalState":{"key":"06","name":"Hessen"}},{"name":"Blumenweg","postalCode":"36137","locality":"Großenlüder","municipality":{"key":"06631011","name":"Großenlüder","type":"Kreisangehörige_Gemeinde"},"district":{"key":"06631","name":"Fulda","type":"Landkreis"},"federalState":{"key":"06","name":"Hessen"}},{"name":"Bockelkathener Str.","postalCode":"21379","locality":"Lüdersburg","municipality":{"key":"03355021","name":"Lüdersburg","type":"Kreisangehörige_Gemeinde"},"district":{"key":"03355","name":"Lüneburg","type":"Landkreis"},"federalState":{"key":"03","name":"Niedersachsen"}},{"name":"Bodenteicher Str.","postalCode":"29394","locality":"Lüder","municipality":{"key":"03360013","name":"Lüder","type":"Kreisangehörige_Gemeinde"},"district":{"key":"03360","name":"Uelzen","type":"Landkreis"},"federalState":{"key":"03","name":"Niedersachsen"}},{"name":"Bonhoeffer Weg","postalCode":"36137","locality":"Großenlüder","municipality":{"key":"06631011","name":"Großenlüder","type":"Kreisangehörige_Gemeinde"},"district":{"key":"06631","name":"Fulda","type":"Landkreis"},"federalState":{"key":"06","name":"Hessen"}},{"name":"Bonifatiusstr.","postalCode":"36137","locality":"Großenlüder","municipality":{"key":"06631011","name":"Großenlüder","type":"Kreisangehörige_Gemeinde"},"district":{"key":"06631","name":"Fulda","type":"Landkreis"},"federalState":{"key":"06","name":"Hessen"}},{"name":"Borngasse","postalCode":"36137","locality":"Großenlüder","municipality":{"key":"06631011","name":"Großenlüder","type":"Kreisangehörige_Gemeinde"},"district":{"key":"06631","name":"Fulda","type":"Landkreis"},"federalState":{"key":"06","name":"Hessen"}},{"name":"Boschstr.","postalCode":"73655","locality":"Plüderhausen","municipality":{"key":"08119055","name":"Plüderhausen","type":"Kreisangehörige_Gemeinde"},"district":{"key":"08119","name":"Rems-Murr-Kreis","type":"Landkreis"},"federalState":{"key":"08","name":"Baden-Württemberg"}},{"name":"Boßlerweg","postalCode":"73655","locality":"Plüderhausen","municipality":{"key":"08119055","name":"Plüderhausen","type":"Kreisangehörige_Gemeinde"},"district":{"key":"08119","name":"Rems-Murr-Kreis","type":"Landkreis"},"federalState":{"key":"08","name":"Baden-Württemberg"}},{"name":"Brahmsweg","postalCode":"73655","locality":"Plüderhausen","municipality":{"key":"08119055","name":"Plüderhausen","type":"Kreisangehörige_Gemeinde"},"district":{"key":"08119","name":"Rems-Murr-Kreis","type":"Landkreis"},"federalState":{"key":"08","name":"Baden-Württemberg"}},{"name":"Brandweg","postalCode":"36137","locality":"Großenlüder","municipality":{"key":"06631011","name":"Großenlüder","type":"Kreisangehörige_Gemeinde"},"district":{"key":"06631","name":"Fulda","type":"Landkreis"},"federalState":{"key":"06","name":"Hessen"}},{"name":"Brauereiweg","postalCode":"36137","locality":"Großenlüder","municipality":{"key":"06631011","name":"Großenlüder","type":"Kreisangehörige_Gemeinde"},"district":{"key":"06631","name":"Fulda","type":"Landkreis"},"federalState":{"key":"06","name":"Hessen"}},{"name":"Breite Brücke","postalCode":"36137","locality":"Großenlüder","municipality":{"key":"06631011","name":"Großenlüder","type":"Kreisangehörige_Gemeinde"},"district":{"key":"06631","name":"Fulda","type":"Landkreis"},"federalState":{"key":"06","name":"Hessen"}},{"name":"Breitengehrnweg","postalCode":"73655","locality":"Plüderhausen","municipality":{"key":"08119055","name":"Plüderhausen","type":"Kreisangehörige_Gemeinde"},"district":{"key":"08119","name":"Rems-Murr-Kreis","type":"Landkreis"},"federalState":{"key":"08","name":"Baden-Württemberg"}},{"name":"Brückenstr.","postalCode":"36137","locality":"Großenlüder","municipality":{"key":"06631011","name":"Großenlüder","type":"Kreisangehörige_Gemeinde"},"district":{"key":"06631","name":"Fulda","type":"Landkreis"},"federalState":{"key":"06","name":"Hessen"}},{"name":"Brückenstr.","postalCode":"73655","locality":"Plüderhausen","municipality":{"key":"08119055","name":"Plüderhausen","type":"Kreisangehörige_Gemeinde"},"district":{"key":"08119","name":"Rems-Murr-Kreis","type":"Landkreis"},"federalState":{"key":"08","name":"Baden-Württemberg"}},{"name":"Bruckgasse","postalCode":"73655","locality":"Plüderhausen","municipality":{"key":"08119055","name":"Plüderhausen","type":"Kreisangehörige_Gemeinde"},"district":{"key":"08119","name":"Rems-Murr-Kreis","type":"Landkreis"},"federalState":{"key":"08","name":"Baden-Württemberg"}},{"name":"Brühlstr.","postalCode":"73655","locality":"Plüderhausen","municipality":{"key":"08119055","name":"Plüderhausen","type":"Kreisangehörige_Gemeinde"},"district":{"key":"08119","name":"Rems-Murr-Kreis","type":"Landkreis"},"federalState":{"key":"08","name":"Baden-Württemberg"}},{"name":"Brunnenrain","postalCode":"73655","locality":"Plüderhausen","municipality":{"key":"08119055","name":"Plüderhausen","type":"Kreisangehörige_Gemeinde"},"district":{"key":"08119","name":"Rems-Murr-Kreis","type":"Landkreis"},"federalState":{"key":"08","name":"Baden-Württemberg"}},{"name":"Brunnenstr.","postalCode":"73655","locality":"Plüderhausen","municipality":{"key":"08119055","name":"Plüderhausen","type":"Kreisangehörige_Gemeinde"},"district":{"key":"08119","name":"Rems-Murr-Kreis","type":"Landkreis"},"federalState":{"key":"08","name":"Baden-Württemberg"}},{"name":"Brunnenweg","postalCode":"36137","locality":"Großenlüder","municipality":{"key":"06631011","name":"Großenlüder","type":"Kreisangehörige_Gemeinde"},"district":{"key":"06631","name":"Fulda","type":"Landkreis"},"federalState":{"key":"06","name":"Hessen"}},{"name":"Brunnenweg","postalCode":"73655","locality":"Plüderhausen","municipality":{"key":"08119055","name":"Plüderhausen","type":"Kreisangehörige_Gemeinde"},"district":{"key":"08119","name":"Rems-Murr-Kreis","type":"Landkreis"},"federalState":{"key":"08","name":"Baden-Württemberg"}},{"name":"Buchenweg","postalCode":"23923","locality":"Lüdersdorf","municipality":{"key":"13074049","name":"Lüdersdorf","type":"Kreisangehörige_Gemeinde"},"district":{"key":"13074","name":"Nordwestmecklenburg","type":"Landkreis"},"federalState":{"key":"13","name":"Mecklenburg-Vorpommern"}},{"name":"Buchenweg","postalCode":"36137","locality":"Großenlüder","municipality":{"key":"06631011","name":"Großenlüder","type":"Kreisangehörige_Gemeinde"},"district":{"key":"06631","name":"Fulda","type":"Landkreis"},"federalState":{"key":"06","name":"Hessen"}},{"name":"Christophorusstr.","postalCode":"36137","locality":"Großenlüder","municipality":{"key":"06631011","name":"Großenlüder","type":"Kreisangehörige_Gemeinde"},"district":{"key":"06631","name":"Fulda","type":"Landkreis"},"federalState":{"key":"06","name":"Hessen"}},{"name":"Claudiusweg","postalCode":"73655","locality":"Plüderhausen","municipality":{"key":"08119055","name":"Plüderhausen","type":"Kreisangehörige_Gemeinde"},"district":{"key":"08119","name":"Rems-Murr-Kreis","type":"Landkreis"},"federalState":{"key":"08","name":"Baden-Württemberg"}},{"name":"Cornelius-Will-Str.","postalCode":"36137","locality":"Großenlüder","municipality":{"key":"06631011","name":"Großenlüder","type":"Kreisangehörige_Gemeinde"},"district":{"key":"06631","name":"Fulda","type":"Landkreis"},"federalState":{"key":"06","name":"Hessen"}},{"name":"Cranachweg","postalCode":"73655","locality":"Plüderhausen","municipality":{"key":"08119055","name":"Plüderhausen","type":"Kreisangehörige_Gemeinde"},"district":{"key":"08119","name":"Rems-Murr-Kreis","type":"Landkreis"},"federalState":{"key":"08","name":"Baden-Württemberg"}},{"name":"Dahlienweg","postalCode":"73655","locality":"Plüderhausen","municipality":{"key":"08119055","name":"Plüderhausen","type":"Kreisangehörige_Gemeinde"},"district":{"key":"08119","name":"Rems-Murr-Kreis","type":"Landkreis"},"federalState":{"key":"08","name":"Baden-Württemberg"}},{"name":"Daimlerstr.","postalCode":"73655","locality":"Plüderhausen","municipality":{"key":"08119055","name":"Plüderhausen","type":"Kreisangehörige_Gemeinde"},"district":{"key":"08119","name":"Rems-Murr-Kreis","type":"Landkreis"},"federalState":{"key":"08","name":"Baden-Württemberg"}},{"name":"Dickeichenweg","postalCode":"73655","locality":"Plüderhausen","municipality":{"key":"08119055","name":"Plüderhausen","type":"Kreisangehörige_Gemeinde"},"district":{"key":"08119","name":"Rems-Murr-Kreis","type":"Landkreis"},"federalState":{"key":"08","name":"Baden-Württemberg"}},{"name":"Die alten Höfe","postalCode":"36137","locality":"Großenlüder","municipality":{"key":"06631011","name":"Großenlüder","type":"Kreisangehörige_Gemeinde"},"district":{"key":"06631","name":"Fulda","type":"Landkreis"},"federalState":{"key":"06","name":"Hessen"}},{"name":"Dikneweg","postalCode":"73655","locality":"Plüderhausen","municipality":{"key":"08119055","name":"Plüderhausen","type":"Kreisangehörige_Gemeinde"},"district":{"key":"08119","name":"Rems-Murr-Kreis","type":"Landkreis"},"federalState":{"key":"08","name":"Baden-Württemberg"}},{"name":"Dorfplatz","postalCode":"29394","locality":"Lüder","municipality":{"key":"03360013","name":"Lüder","type":"Kreisangehörige_Gemeinde"},"district":{"key":"03360","name":"Uelzen","type":"Landkreis"},"federalState":{"key":"03","name":"Niedersachsen"}},{"name":"Dorfstr.","postalCode":"18314","locality":"Lüdershagen","municipality":{"key":"13073053","name":"Lüdershagen","type":"Kreisangehörige_Gemeinde"},"district":{"key":"13073","name":"Vorpommern-Rügen","type":"Landkreis"},"federalState":{"key":"13","name":"Mecklenburg-Vorpommern"}},{"name":"Dorfstr.","postalCode":"23923","locality":"Lüdersdorf","municipality":{"key":"13074049","name":"Lüdersdorf","type":"Kreisangehörige_Gemeinde"},"district":{"key":"13074","name":"Nordwestmecklenburg","type":"Landkreis"},"federalState":{"key":"13","name":"Mecklenburg-Vorpommern"}},{"name":"Dorfstr.","postalCode":"29394","locality":"Lüder","municipality":{"key":"03360013","name":"Lüder","type":"Kreisangehörige_Gemeinde"},"district":{"key":"03360","name":"Uelzen","type":"Landkreis"},"federalState":{"key":"03","name":"Niedersachsen"}},{"name":"Dorfstr.","postalCode":"36137","locality":"Großenlüder","municipality":{"key":"06631011","name":"Großenlüder","type":"Kreisangehörige_Gemeinde"},"district":{"key":"06631","name":"Fulda","type":"Landkreis"},"federalState":{"key":"06","name":"Hessen"}},{"name":"Dorfstr. Groß Neuleben","postalCode":"23923","locality":"Lüdersdorf","municipality":{"key":"13074049","name":"Lüdersdorf","type":"Kreisangehörige_Gemeinde"},"district":{"key":"13074","name":"Nordwestmecklenburg","type":"Landkreis"},"federalState":{"key":"13","name":"Mecklenburg-Vorpommern"}},{"name":"Dorfstr. Klein Neuleben","postalCode":"23923","locality":"Lüdersdorf","municipality":{"key":"13074049","name":"Lüdersdorf","type":"Kreisangehörige_Gemeinde"},"district":{"key":"13074","name":"Nordwestmecklenburg","type":"Landkreis"},"federalState":{"key":"13","name":"Mecklenburg-Vorpommern"}},{"name":"Döringstr.","postalCode":"36137","locality":"Großenlüder","municipality":{"key":"06631011","name":"Großenlüder","type":"Kreisangehörige_Gemeinde"},"district":{"key":"06631","name":"Fulda","type":"Landkreis"},"federalState":{"key":"06","name":"Hessen"}},{"name":"Dörreberg","postalCode":"36137","locality":"Großenlüder","municipality":{"key":"06631011","name":"Großenlüder","type":"Kreisangehörige_Gemeinde"},"district":{"key":"06631","name":"Fulda","type":"Landkreis"},"federalState":{"key":"06","name":"Hessen"}},{"name":"Drosselweg","postalCode":"73655","locality":"Plüderhausen","municipality":{"key":"08119055","name":"Plüderhausen","type":"Kreisangehörige_Gemeinde"},"district":{"key":"08119","name":"Rems-Murr-Kreis","type":"Landkreis"},"federalState":{"key":"08","name":"Baden-Württemberg"}},{"name":"Dr.-Stieler-Str.","postalCode":"36137","locality":"Großenlüder","municipality":{"key":"06631011","name":"Großenlüder","type":"Kreisangehörige_Gemeinde"},"district":{"key":"06631","name":"Fulda","type":"Landkreis"},"federalState":{"key":"06","name":"Hessen"}},{"name":"Dünenweg","postalCode":"23923","locality":"Lüdersdorf","municipality":{"key":"13074049","name":"Lüdersdorf","type":"Kreisangehörige_Gemeinde"},"district":{"key":"13074","name":"Nordwestmecklenburg","type":"Landkreis"},"federalState":{"key":"13","name":"Mecklenburg-Vorpommern"}},{"name":"Dürerweg","postalCode":"73655","locality":"Plüderhausen","municipality":{"key":"08119055","name":"Plüderhausen","type":"Kreisangehörige_Gemeinde"},"district":{"key":"08119","name":"Rems-Murr-Kreis","type":"Landkreis"},"federalState":{"key":"08","name":"Baden-Württemberg"}},{"name":"Eibenhofweg","postalCode":"73642","locality":"Plüderhausen","municipality":{"key":"08119055","name":"Plüderhausen","type":"Kreisangehörige_Gemeinde"},"district":{"key":"08119","name":"Rems-Murr-Kreis","type":"Landkreis"},"federalState":{"key":"08","name":"Baden-Württemberg"}},{"name":"Eichenauer Str.","postalCode":"36137","locality":"Großenlüder","municipality":{"key":"06631011","name":"Großenlüder","type":"Kreisangehörige_Gemeinde"},"district":{"key":"06631","name":"Fulda","type":"Landkreis"},"federalState":{"key":"06","name":"Hessen"}},{"name":"Eichendorffstr.","postalCode":"36137","locality":"Großenlüder","municipality":{"key":"06631011","name":"Großenlüder","type":"Kreisangehörige_Gemeinde"},"district":{"key":"06631","name":"Fulda","type":"Landkreis"},"federalState":{"key":"06","name":"Hessen"}},{"name":"Eichendorffweg","postalCode":"73655","locality":"Plüderhausen","municipality":{"key":"08119055","name":"Plüderhausen","type":"Kreisangehörige_Gemeinde"},"district":{"key":"08119","name":"Rems-Murr-Kreis","type":"Landkreis"},"federalState":{"key":"08","name":"Baden-Württemberg"}},{"name":"Eisfeldhof","postalCode":"29394","locality":"Lüder","municipality":{"key":"03360013","name":"Lüder","type":"Kreisangehörige_Gemeinde"},"district":{"key":"03360","name":"Uelzen","type":"Landkreis"},"federalState":{"key":"03","name":"Niedersachsen"}},{"name":"Elisabethenstr.","postalCode":"36137","locality":"Großenlüder","municipality":{"key":"06631011","name":"Großenlüder","type":"Kreisangehörige_Gemeinde"},"district":{"key":"06631","name":"Fulda","type":"Landkreis"},"federalState":{"key":"06","name":"Hessen"}},{"name":"Elsternweg","postalCode":"73655","locality":"Plüderhausen","municipality":{"key":"08119055","name":"Plüderhausen","type":"Kreisangehörige_Gemeinde"},"district":{"key":"08119","name":"Rems-Murr-Kreis","type":"Landkreis"},"federalState":{"key":"08","name":"Baden-Württemberg"}},{"name":"Emil-Gerk-Str.","postalCode":"36137","locality":"Großenlüder","municipality":{"key":"06631011","name":"Großenlüder","type":"Kreisangehörige_Gemeinde"},"district":{"key":"06631","name":"Fulda","type":"Landkreis"},"federalState":{"key":"06","name":"Hessen"}},{"name":"Engeweg","postalCode":"73655","locality":"Plüderhausen","municipality":{"key":"08119055","name":"Plüderhausen","type":"Kreisangehörige_Gemeinde"},"district":{"key":"08119","name":"Rems-Murr-Kreis","type":"Landkreis"},"federalState":{"key":"08","name":"Baden-Württemberg"}},{"name":"Englisch Bahn","postalCode":"23923","locality":"Lüdersdorf","municipality":{"key":"13074049","name":"Lüdersdorf","type":"Kreisangehörige_Gemeinde"},"district":{"key":"13074","name":"Nordwestmecklenburg","type":"Landkreis"},"federalState":{"key":"13","name":"Mecklenburg-Vorpommern"}},{"name":"Erbigsweg","postalCode":"36137","locality":"Großenlüder","municipality":{"key":"06631011","name":"Großenlüder","type":"Kreisangehörige_Gemeinde"},"district":{"key":"06631","name":"Fulda","type":"Landkreis"},"federalState":{"key":"06","name":"Hessen"}},{"name":"Erich-Kästner-Weg","postalCode":"73655","locality":"Plüderhausen","municipality":{"key":"08119055","name":"Plüderhausen","type":"Kreisangehörige_Gemeinde"},"district":{"key":"08119","name":"Rems-Murr-Kreis","type":"Landkreis"},"federalState":{"key":"08","name":"Baden-Württemberg"}},{"name":"Erlenbruch","postalCode":"23923","locality":"Lüdersdorf","municipality":{"key":"13074049","name":"Lüdersdorf","type":"Kreisangehörige_Gemeinde"},"district":{"key":"13074","name":"Nordwestmecklenburg","type":"Landkreis"},"federalState":{"key":"13","name":"Mecklenburg-Vorpommern"}},{"name":"Erlenhofer Sträßchen","postalCode":"73655","locality":"Plüderhausen","municipality":{"key":"08119055","name":"Plüderhausen","type":"Kreisangehörige_Gemeinde"},"district":{"key":"08119","name":"Rems-Murr-Kreis","type":"Landkreis"},"federalState":{"key":"08","name":"Baden-Württemberg"}},{"name":"Erlenhofweg","postalCode":"73655","locality":"Plüderhausen","municipality":{"key":"08119055","name":"Plüderhausen","type":"Kreisangehörige_Gemeinde"},"district":{"key":"08119","name":"Rems-Murr-Kreis","type":"Landkreis"},"federalState":{"key":"08","name":"Baden-Württemberg"}},{"name":"Erlenweg","postalCode":"21379","locality":"Lüdersburg","municipality":{"key":"03355021","name":"Lüdersburg","type":"Kreisangehörige_Gemeinde"},"district":{"key":"03355","name":"Lüneburg","type":"Landkreis"},"federalState":{"key":"03","name":"Niedersachsen"}},{"name":"Erlenweg","postalCode":"36137","locality":"Großenlüder","municipality":{"key":"06631011","name":"Großenlüder","type":"Kreisangehörige_Gemeinde"},"district":{"key":"06631","name":"Fulda","type":"Landkreis"},"federalState":{"key":"06","name":"Hessen"}},{"name":"Eschenweg","postalCode":"21379","locality":"Lüdersburg","municipality":{"key":"03355021","name":"Lüdersburg","type":"Kreisangehörige_Gemeinde"},"district":{"key":"03355","name":"Lüneburg","type":"Landkreis"},"federalState":{"key":"03","name":"Niedersachsen"}},{"name":"Eschenweg","postalCode":"23923","locality":"Lüdersdorf","municipality":{"key":"13074049","name":"Lüdersdorf","type":"Kreisangehörige_Gemeinde"},"district":{"key":"13074","name":"Nordwestmecklenburg","type":"Landkreis"},"federalState":{"key":"13","name":"Mecklenburg-Vorpommern"}},{"name":"Falkenweg","postalCode":"73655","locality":"Plüderhausen","municipality":{"key":"08119055","name":"Plüderhausen","type":"Kreisangehörige_Gemeinde"},"district":{"key":"08119","name":"Rems-Murr-Kreis","type":"Landkreis"},"federalState":{"key":"08","name":"Baden-Württemberg"}},{"name":"Fasanenweg","postalCode":"29394","locality":"Lüder","municipality":{"key":"03360013","name":"Lüder","type":"Kreisangehörige_Gemeinde"},"district":{"key":"03360","name":"Uelzen","type":"Landkreis"},"federalState":{"key":"03","name":"Niedersachsen"}},{"name":"Faust-Remmert-Str.","postalCode":"36137","locality":"Großenlüder","municipality":{"key":"06631011","name":"Großenlüder","type":"Kreisangehörige_Gemeinde"},"district":{"key":"06631","name":"Fulda","type":"Landkreis"},"federalState":{"key":"06","name":"Hessen"}},{"name":"Feldstr.","postalCode":"23923","locality":"Lüdersdorf","municipality":{"key":"13074049","name":"Lüdersdorf","type":"Kreisangehörige_Gemeinde"},"district":{"key":"13074","name":"Nordwestmecklenburg","type":"Landkreis"},"federalState":{"key":"13","name":"Mecklenburg-Vorpommern"}},{"name":"Felsenklingenweg","postalCode":"73642","locality":"Plüderhausen","municipality":{"key":"08119055","name":"Plüderhausen","type":"Kreisangehörige_Gemeinde"},"district":{"key":"08119","name":"Rems-Murr-Kreis","type":"Landkreis"},"federalState":{"key":"08","name":"Baden-Württemberg"}},{"name":"Felsenklingenweg","postalCode":"73655","locality":"Plüderhausen","municipality":{"key":"08119055","name":"Plüderhausen","type":"Kreisangehörige_Gemeinde"},"district":{"key":"08119","name":"Rems-Murr-Kreis","type":"Landkreis"},"federalState":{"key":"08","name":"Baden-Württemberg"}},{"name":"Fett Eck","postalCode":"23923","locality":"Lüdersdorf","municipality":{"key":"13074049","name":"Lüdersdorf","type":"Kreisangehörige_Gemeinde"},"district":{"key":"13074","name":"Nordwestmecklenburg","type":"Landkreis"},"federalState":{"key":"13","name":"Mecklenburg-Vorpommern"}},{"name":"Finkenbergstr.","postalCode":"36137","locality":"Großenlüder","municipality":{"key":"06631011","name":"Großenlüder","type":"Kreisangehörige_Gemeinde"},"district":{"key":"06631","name":"Fulda","type":"Landkreis"},"federalState":{"key":"06","name":"Hessen"}},{"name":"Fliederweg","postalCode":"73655","locality":"Plüderhausen","municipality":{"key":"08119055","name":"Plüderhausen","type":"Kreisangehörige_Gemeinde"},"district":{"key":"08119","name":"Rems-Murr-Kreis","type":"Landkreis"},"federalState":{"key":"08","name":"Baden-Württemberg"}},{"name":"Fontaneweg","postalCode":"73655","locality":"Plüderhausen","municipality":{"key":"08119055","name":"Plüderhausen","type":"Kreisangehörige_Gemeinde"},"district":{"key":"08119","name":"Rems-Murr-Kreis","type":"Landkreis"},"federalState":{"key":"08","name":"Baden-Württemberg"}},{"name":"Forstweg","postalCode":"23923","locality":"Lüdersdorf","municipality":{"key":"13074049","name":"Lüdersdorf","type":"Kreisangehörige_Gemeinde"},"district":{"key":"13074","name":"Nordwestmecklenburg","type":"Landkreis"},"federalState":{"key":"13","name":"Mecklenburg-Vorpommern"}},{"name":"Forstweg","postalCode":"73655","locality":"Plüderhausen","municipality":{"key":"08119055","name":"Plüderhausen","type":"Kreisangehörige_Gemeinde"},"district":{"key":"08119","name":"Rems-Murr-Kreis","type":"Landkreis"},"federalState":{"key":"08","name":"Baden-Württemberg"}},{"name":"Franz-Schubert-Weg","postalCode":"36137","locality":"Großenlüder","municipality":{"key":"06631011","name":"Großenlüder","type":"Kreisangehörige_Gemeinde"},"district":{"key":"06631","name":"Fulda","type":"Landkreis"},"federalState":{"key":"06","name":"Hessen"}},{"name":"Friedenstr.","postalCode":"36137","locality":"Großenlüder","municipality":{"key":"06631011","name":"Großenlüder","type":"Kreisangehörige_Gemeinde"},"district":{"key":"06631","name":"Fulda","type":"Landkreis"},"federalState":{"key":"06","name":"Hessen"}},{"name":"Friedhofstr.","postalCode":"36137","locality":"Großenlüder","municipality":{"key":"06631011","name":"Großenlüder","type":"Kreisangehörige_Gemeinde"},"district":{"key":"06631","name":"Fulda","type":"Landkreis"},"federalState":{"key":"06","name":"Hessen"}},{"name":"Friedhofsweg","postalCode":"21379","locality":"Lüdersburg","municipality":{"key":"03355021","name":"Lüdersburg","type":"Kreisangehörige_Gemeinde"},"district":{"key":"03355","name":"Lüneburg","type":"Landkreis"},"federalState":{"key":"03","name":"Niedersachsen"}},{"name":"Friedhofweg","postalCode":"73655","locality":"Plüderhausen","municipality":{"key":"08119055","name":"Plüderhausen","type":"Kreisangehörige_Gemeinde"},"district":{"key":"08119","name":"Rems-Murr-Kreis","type":"Landkreis"},"federalState":{"key":"08","name":"Baden-Württemberg"}},{"name":"Friedrichstr.","postalCode":"36137","locality":"Großenlüder","municipality":{"key":"06631011","name":"Großenlüder","type":"Kreisangehörige_Gemeinde"},"district":{"key":"06631","name":"Fulda","type":"Landkreis"},"federalState":{"key":"06","name":"Hessen"}},{"name":"Froschackerweg","postalCode":"73655","locality":"Plüderhausen","municipality":{"key":"08119055","name":"Plüderhausen","type":"Kreisangehörige_Gemeinde"},"district":{"key":"08119","name":"Rems-Murr-Kreis","type":"Landkreis"},"federalState":{"key":"08","name":"Baden-Württemberg"}},{"name":"Fuldaer Str.","postalCode":"36137","locality":"Großenlüder","municipality":{"key":"06631011","name":"Großenlüder","type":"Kreisangehörige_Gemeinde"},"district":{"key":"06631","name":"Fulda","type":"Landkreis"},"federalState":{"key":"06","name":"Hessen"}},{"name":"Gänseweide","postalCode":"21379","locality":"Lüdersburg","municipality":{"key":"03355021","name":"Lüdersburg","type":"Kreisangehörige_Gemeinde"},"district":{"key":"03355","name":"Lüneburg","type":"Landkreis"},"federalState":{"key":"03","name":"Niedersachsen"}},{"name":"Gänswasen","postalCode":"73655","locality":"Plüderhausen","municipality":{"key":"08119055","name":"Plüderhausen","type":"Kreisangehörige_Gemeinde"},"district":{"key":"08119","name":"Rems-Murr-Kreis","type":"Landkreis"},"federalState":{"key":"08","name":"Baden-Württemberg"}},{"name":"Gartenstr.","postalCode":"36137","locality":"Großenlüder","municipality":{"key":"06631011","name":"Großenlüder","type":"Kreisangehörige_Gemeinde"},"district":{"key":"06631","name":"Fulda","type":"Landkreis"},"federalState":{"key":"06","name":"Hessen"}},{"name":"Gartenweg","postalCode":"36137","locality":"Großenlüder","municipality":{"key":"06631011","name":"Großenlüder","type":"Kreisangehörige_Gemeinde"},"district":{"key":"06631","name":"Fulda","type":"Landkreis"},"federalState":{"key":"06","name":"Hessen"}},{"name":"Gärtnereiweg","postalCode":"23923","locality":"Lüdersdorf","municipality":{"key":"13074049","name":"Lüdersdorf","type":"Kreisangehörige_Gemeinde"},"district":{"key":"13074","name":"Nordwestmecklenburg","type":"Landkreis"},"federalState":{"key":"13","name":"Mecklenburg-Vorpommern"}},{"name":"Gaußweg","postalCode":"73655","locality":"Plüderhausen","municipality":{"key":"08119055","name":"Plüderhausen","type":"Kreisangehörige_Gemeinde"},"district":{"key":"08119","name":"Rems-Murr-Kreis","type":"Landkreis"},"federalState":{"key":"08","name":"Baden-Württemberg"}},{"name":"Geibelweg","postalCode":"73655","locality":"Plüderhausen","municipality":{"key":"08119055","name":"Plüderhausen","type":"Kreisangehörige_Gemeinde"},"district":{"key":"08119","name":"Rems-Murr-Kreis","type":"Landkreis"},"federalState":{"key":"08","name":"Baden-Württemberg"}},{"name":"Georg-Otterbein-Str.","postalCode":"36137","locality":"Großenlüder","municipality":{"key":"06631011","name":"Großenlüder","type":"Kreisangehörige_Gemeinde"},"district":{"key":"06631","name":"Fulda","type":"Landkreis"},"federalState":{"key":"06","name":"Hessen"}},{"name":"Geranienweg","postalCode":"73655","locality":"Plüderhausen","municipality":{"key":"08119055","name":"Plüderhausen","type":"Kreisangehörige_Gemeinde"},"district":{"key":"08119","name":"Rems-Murr-Kreis","type":"Landkreis"},"federalState":{"key":"08","name":"Baden-Württemberg"}},{"name":"Gerazharz Ausf.","postalCode":"73655","locality":"Plüderhausen","municipality":{"key":"08119055","name":"Plüderhausen","type":"Kreisangehörige_Gemeinde"},"district":{"key":"08119","name":"Rems-Murr-Kreis","type":"Landkreis"},"federalState":{"key":"08","name":"Baden-Württemberg"}},{"name":"Gerkecke","postalCode":"36137","locality":"Großenlüder","municipality":{"key":"06631011","name":"Großenlüder","type":"Kreisangehörige_Gemeinde"},"district":{"key":"06631","name":"Fulda","type":"Landkreis"},"federalState":{"key":"06","name":"Hessen"}},{"name":"Ginsterweg","postalCode":"73655","locality":"Plüderhausen","municipality":{"key":"08119055","name":"Plüderhausen","type":"Kreisangehörige_Gemeinde"},"district":{"key":"08119","name":"Rems-Murr-Kreis","type":"Landkreis"},"federalState":{"key":"08","name":"Baden-Württemberg"}},{"name":"Glasweg","postalCode":"73655","locality":"Plüderhausen","municipality":{"key":"08119055","name":"Plüderhausen","type":"Kreisangehörige_Gemeinde"},"district":{"key":"08119","name":"Rems-Murr-Kreis","type":"Landkreis"},"federalState":{"key":"08","name":"Baden-Württemberg"}},{"name":"Gleisstr.","postalCode":"73655","locality":"Plüderhausen","municipality":{"key":"08119055","name":"Plüderhausen","type":"Kreisangehörige_Gemeinde"},"district":{"key":"08119","name":"Rems-Murr-Kreis","type":"Landkreis"},"federalState":{"key":"08","name":"Baden-Württemberg"}},{"name":"Gluckweg","postalCode":"73655","locality":"Plüderhausen","municipality":{"key":"08119055","name":"Plüderhausen","type":"Kreisangehörige_Gemeinde"},"district":{"key":"08119","name":"Rems-Murr-Kreis","type":"Landkreis"},"federalState":{"key":"08","name":"Baden-Württemberg"}},{"name":"Gmünder Str.","postalCode":"73655","locality":"Plüderhausen","municipality":{"key":"08119055","name":"Plüderhausen","type":"Kreisangehörige_Gemeinde"},"district":{"key":"08119","name":"Rems-Murr-Kreis","type":"Landkreis"},"federalState":{"key":"08","name":"Baden-Württemberg"}},{"name":"Goetheweg","postalCode":"36137","locality":"Großenlüder","municipality":{"key":"06631011","name":"Großenlüder","type":"Kreisangehörige_Gemeinde"},"district":{"key":"06631","name":"Fulda","type":"Landkreis"},"federalState":{"key":"06","name":"Hessen"}},{"name":"Goldackerstr.","postalCode":"73655","locality":"Plüderhausen","municipality":{"key":"08119055","name":"Plüderhausen","type":"Kreisangehörige_Gemeinde"},"district":{"key":"08119","name":"Rems-Murr-Kreis","type":"Landkreis"},"federalState":{"key":"08","name":"Baden-Württemberg"}},{"name":"Goldbahnweg","postalCode":"29394","locality":"Lüder","municipality":{"key":"03360013","name":"Lüder","type":"Kreisangehörige_Gemeinde"},"district":{"key":"03360","name":"Uelzen","type":"Landkreis"},"federalState":{"key":"03","name":"Niedersachsen"}},{"name":"Goldgrube","postalCode":"36137","locality":"Großenlüder","municipality":{"key":"06631011","name":"Großenlüder","type":"Kreisangehörige_Gemeinde"},"district":{"key":"06631","name":"Fulda","type":"Landkreis"},"federalState":{"key":"06","name":"Hessen"}},{"name":"Götzenweg","postalCode":"73655","locality":"Plüderhausen","municipality":{"key":"08119055","name":"Plüderhausen","type":"Kreisangehörige_Gemeinde"},"district":{"key":"08119","name":"Rems-Murr-Kreis","type":"Landkreis"},"federalState":{"key":"08","name":"Baden-Württemberg"}},{"name":"Grabenstr.","postalCode":"73655","locality":"Plüderhausen","municipality":{"key":"08119055","name":"Plüderhausen","type":"Kreisangehörige_Gemeinde"},"district":{"key":"08119","name":"Rems-Murr-Kreis","type":"Landkreis"},"federalState":{"key":"08","name":"Baden-Württemberg"}},{"name":"Greuthweg","postalCode":"73655","locality":"Plüderhausen","municipality":{"key":"08119055","name":"Plüderhausen","type":"Kreisangehörige_Gemeinde"},"district":{"key":"08119","name":"Rems-Murr-Kreis","type":"Landkreis"},"federalState":{"key":"08","name":"Baden-Württemberg"}},{"name":"Grüner Weg","postalCode":"23923","locality":"Lüdersdorf","municipality":{"key":"13074049","name":"Lüdersdorf","type":"Kreisangehörige_Gemeinde"},"district":{"key":"13074","name":"Nordwestmecklenburg","type":"Landkreis"},"federalState":{"key":"13","name":"Mecklenburg-Vorpommern"}},{"name":"Grünewaldstr.","postalCode":"73655","locality":"Plüderhausen","municipality":{"key":"08119055","name":"Plüderhausen","type":"Kreisangehörige_Gemeinde"},"district":{"key":"08119","name":"Rems-Murr-Kreis","type":"Landkreis"},"federalState":{"key":"08","name":"Baden-Württemberg"}},{"name":"Hainbuchenweg","postalCode":"21379","locality":"Lüdersburg","municipality":{"key":"03355021","name":"Lüdersburg","type":"Kreisangehörige_Gemeinde"},"district":{"key":"03355","name":"Lüneburg","type":"Landkreis"},"federalState":{"key":"03","name":"Niedersachsen"}},{"name":"Halde","postalCode":"73655","locality":"Plüderhausen","municipality":{"key":"08119055","name":"Plüderhausen","type":"Kreisangehörige_Gemeinde"},"district":{"key":"08119","name":"Rems-Murr-Kreis","type":"Landkreis"},"federalState":{"key":"08","name":"Baden-Württemberg"}},{"name":"Haldenweg","postalCode":"73655","locality":"Plüderhausen","municipality":{"key":"08119055","name":"Plüderhausen","type":"Kreisangehörige_Gemeinde"},"district":{"key":"08119","name":"Rems-Murr-Kreis","type":"Landkreis"},"federalState":{"key":"08","name":"Baden-Württemberg"}},{"name":"Hans-Sachs-Weg","postalCode":"73655","locality":"Plüderhausen","municipality":{"key":"08119055","name":"Plüderhausen","type":"Kreisangehörige_Gemeinde"},"district":{"key":"08119","name":"Rems-Murr-Kreis","type":"Landkreis"},"federalState":{"key":"08","name":"Baden-Württemberg"}},{"name":"Hardtweg","postalCode":"36137","locality":"Großenlüder","municipality":{"key":"06631011","name":"Großenlüder","type":"Kreisangehörige_Gemeinde"},"district":{"key":"06631","name":"Fulda","type":"Landkreis"},"federalState":{"key":"06","name":"Hessen"}},{"name":"Haselhof","postalCode":"73655","locality":"Plüderhausen","municipality":{"key":"08119055","name":"Plüderhausen","type":"Kreisangehörige_Gemeinde"},"district":{"key":"08119","name":"Rems-Murr-Kreis","type":"Landkreis"},"federalState":{"key":"08","name":"Baden-Württemberg"}},{"name":"Haselweg","postalCode":"23923","locality":"Lüdersdorf","municipality":{"key":"13074049","name":"Lüdersdorf","type":"Kreisangehörige_Gemeinde"},"district":{"key":"13074","name":"Nordwestmecklenburg","type":"Landkreis"},"federalState":{"key":"13","name":"Mecklenburg-Vorpommern"}},{"name":"Haspenweg","postalCode":"73655","locality":"Plüderhausen","municipality":{"key":"08119055","name":"Plüderhausen","type":"Kreisangehörige_Gemeinde"},"district":{"key":"08119","name":"Rems-Murr-Kreis","type":"Landkreis"},"federalState":{"key":"08","name":"Baden-Württemberg"}},{"name":"Hauptstr.","postalCode":"23923","locality":"Lüdersdorf","municipality":{"key":"13074049","name":"Lüdersdorf","type":"Kreisangehörige_Gemeinde"},"district":{"key":"13074","name":"Nordwestmecklenburg","type":"Landkreis"},"federalState":{"key":"13","name":"Mecklenburg-Vorpommern"}},{"name":"Hauptstr.","postalCode":"29394","locality":"Lüder","municipality":{"key":"03360013","name":"Lüder","type":"Kreisangehörige_Gemeinde"},"district":{"key":"03360","name":"Uelzen","type":"Landkreis"},"federalState":{"key":"03","name":"Niedersachsen"}},{"name":"Hauptstr.","postalCode":"36137","locality":"Großenlüder","municipality":{"key":"06631011","name":"Großenlüder","type":"Kreisangehörige_Gemeinde"},"district":{"key":"06631","name":"Fulda","type":"Landkreis"},"federalState":{"key":"06","name":"Hessen"}},{"name":"Hauptstr.","postalCode":"73655","locality":"Plüderhausen","municipality":{"key":"08119055","name":"Plüderhausen","type":"Kreisangehörige_Gemeinde"},"district":{"key":"08119","name":"Rems-Murr-Kreis","type":"Landkreis"},"federalState":{"key":"08","name":"Baden-Württemberg"}},{"name":"Hauptstr. Schattin","postalCode":"23923","locality":"Lüdersdorf","municipality":{"key":"13074049","name":"Lüdersdorf","type":"Kreisangehörige_Gemeinde"},"district":{"key":"13074","name":"Nordwestmecklenburg","type":"Landkreis"},"federalState":{"key":"13","name":"Mecklenburg-Vorpommern"}},{"name":"Haustr.","postalCode":"73655","locality":"Plüderhausen","municipality":{"key":"08119055","name":"Plüderhausen","type":"Kreisangehörige_Gemeinde"},"district":{"key":"08119","name":"Rems-Murr-Kreis","type":"Landkreis"},"federalState":{"key":"08","name":"Baden-Württemberg"}},{"name":"Hauweg","postalCode":"73655","locality":"Plüderhausen","municipality":{"key":"08119055","name":"Plüderhausen","type":"Kreisangehörige_Gemeinde"},"district":{"key":"08119","name":"Rems-Murr-Kreis","type":"Landkreis"},"federalState":{"key":"08","name":"Baden-Württemberg"}},{"name":"Haydnstr.","postalCode":"73655","locality":"Plüderhausen","municipality":{"key":"08119055","name":"Plüderhausen","type":"Kreisangehörige_Gemeinde"},"district":{"key":"08119","name":"Rems-Murr-Kreis","type":"Landkreis"},"federalState":{"key":"08","name":"Baden-Württemberg"}},{"name":"Haydnweg","postalCode":"36137","locality":"Großenlüder","municipality":{"key":"06631011","name":"Großenlüder","type":"Kreisangehörige_Gemeinde"},"district":{"key":"06631","name":"Fulda","type":"Landkreis"},"federalState":{"key":"06","name":"Hessen"}},{"name":"Hegelweg","postalCode":"73655","locality":"Plüderhausen","municipality":{"key":"08119055","name":"Plüderhausen","type":"Kreisangehörige_Gemeinde"},"district":{"key":"08119","name":"Rems-Murr-Kreis","type":"Landkreis"},"federalState":{"key":"08","name":"Baden-Württemberg"}},{"name":"Hegnauweg","postalCode":"73655","locality":"Plüderhausen","municipality":{"key":"08119055","name":"Plüderhausen","type":"Kreisangehörige_Gemeinde"},"district":{"key":"08119","name":"Rems-Murr-Kreis","type":"Landkreis"},"federalState":{"key":"08","name":"Baden-Württemberg"}},{"name":"Heidebogen","postalCode":"23923","locality":"Lüdersdorf","municipality":{"key":"13074049","name":"Lüdersdorf","type":"Kreisangehörige_Gemeinde"},"district":{"key":"13074","name":"Nordwestmecklenburg","type":"Landkreis"},"federalState":{"key":"13","name":"Mecklenburg-Vorpommern"}},{"name":"Heidenbühlweg","postalCode":"73655","locality":"Plüderhausen","municipality":{"key":"08119055","name":"Plüderhausen","type":"Kreisangehörige_Gemeinde"},"district":{"key":"08119","name":"Rems-Murr-Kreis","type":"Landkreis"},"federalState":{"key":"08","name":"Baden-Württemberg"}},{"name":"Heideweg","postalCode":"18314","locality":"Lüdershagen","municipality":{"key":"13073053","name":"Lüdershagen","type":"Kreisangehörige_Gemeinde"},"district":{"key":"13073","name":"Vorpommern-Rügen","type":"Landkreis"},"federalState":{"key":"13","name":"Mecklenburg-Vorpommern"}},{"name":"Heideweg","postalCode":"23923","locality":"Lüdersdorf","municipality":{"key":"13074049","name":"Lüdersdorf","type":"Kreisangehörige_Gemeinde"},"district":{"key":"13074","name":"Nordwestmecklenburg","type":"Landkreis"},"federalState":{"key":"13","name":"Mecklenburg-Vorpommern"}},{"name":"Heinrich-Hain-Str.","postalCode":"36137","locality":"Großenlüder","municipality":{"key":"06631011","name":"Großenlüder","type":"Kreisangehörige_Gemeinde"},"district":{"key":"06631","name":"Fulda","type":"Landkreis"},"federalState":{"key":"06","name":"Hessen"}},{"name":"Hem'scher Grabenweg","postalCode":"36137","locality":"Großenlüder","municipality":{"key":"06631011","name":"Großenlüder","type":"Kreisangehörige_Gemeinde"},"district":{"key":"06631","name":"Fulda","type":"Landkreis"},"federalState":{"key":"06","name":"Hessen"}},{"name":"Herderweg","postalCode":"73655","locality":"Plüderhausen","municipality":{"key":"08119055","name":"Plüderhausen","type":"Kreisangehörige_Gemeinde"},"district":{"key":"08119","name":"Rems-Murr-Kreis","type":"Landkreis"},"federalState":{"key":"08","name":"Baden-Württemberg"}},{"name":"Hermann-Hesse-Weg","postalCode":"73655","locality":"Plüderhausen","municipality":{"key":"08119055","name":"Plüderhausen","type":"Kreisangehörige_Gemeinde"},"district":{"key":"08119","name":"Rems-Murr-Kreis","type":"Landkreis"},"federalState":{"key":"08","name":"Baden-Württemberg"}},{"name":"Herrengasse","postalCode":"36137","locality":"Großenlüder","municipality":{"key":"06631011","name":"Großenlüder","type":"Kreisangehörige_Gemeinde"},"district":{"key":"06631","name":"Fulda","type":"Landkreis"},"federalState":{"key":"06","name":"Hessen"}},{"name":"Hessenmühle","postalCode":"36137","locality":"Großenlüder","municipality":{"key":"06631011","name":"Großenlüder","type":"Kreisangehörige_Gemeinde"},"district":{"key":"06631","name":"Fulda","type":"Landkreis"},"federalState":{"key":"06","name":"Hessen"}},{"name":"Heubergkopfweg","postalCode":"73655","locality":"Plüderhausen","municipality":{"key":"08119055","name":"Plüderhausen","type":"Kreisangehörige_Gemeinde"},"district":{"key":"08119","name":"Rems-Murr-Kreis","type":"Landkreis"},"federalState":{"key":"08","name":"Baden-Württemberg"}},{"name":"Heubergrundweg","postalCode":"73655","locality":"Plüderhausen","municipality":{"key":"08119055","name":"Plüderhausen","type":"Kreisangehörige_Gemeinde"},"district":{"key":"08119","name":"Rems-Murr-Kreis","type":"Landkreis"},"federalState":{"key":"08","name":"Baden-Württemberg"}},{"name":"Heumähder","postalCode":"73655","locality":"Plüderhausen","municipality":{"key":"08119055","name":"Plüderhausen","type":"Kreisangehörige_Gemeinde"},"district":{"key":"08119","name":"Rems-Murr-Kreis","type":"Landkreis"},"federalState":{"key":"08","name":"Baden-Württemberg"}},{"name":"Heusee","postalCode":"73655","locality":"Plüderhausen","municipality":{"key":"08119055","name":"Plüderhausen","type":"Kreisangehörige_Gemeinde"},"district":{"key":"08119","name":"Rems-Murr-Kreis","type":"Landkreis"},"federalState":{"key":"08","name":"Baden-Württemberg"}},{"name":"Hintergasse","postalCode":"36137","locality":"Großenlüder","municipality":{"key":"06631011","name":"Großenlüder","type":"Kreisangehörige_Gemeinde"},"district":{"key":"06631","name":"Fulda","type":"Landkreis"},"federalState":{"key":"06","name":"Hessen"}},{"name":"Hinterm Eckerkamp","postalCode":"29394","locality":"Lüder","municipality":{"key":"03360013","name":"Lüder","type":"Kreisangehörige_Gemeinde"},"district":{"key":"03360","name":"Uelzen","type":"Landkreis"},"federalState":{"key":"03","name":"Niedersachsen"}},{"name":"Historischer Naturpark Sodegarten","postalCode":"36137","locality":"Großenlüder","municipality":{"key":"06631011","name":"Großenlüder","type":"Kreisangehörige_Gemeinde"},"district":{"key":"06631","name":"Fulda","type":"Landkreis"},"federalState":{"key":"06","name":"Hessen"}},{"name":"Hofacker","postalCode":"73655","locality":"Plüderhausen","municipality":{"key":"08119055","name":"Plüderhausen","type":"Kreisangehörige_Gemeinde"},"district":{"key":"08119","name":"Rems-Murr-Kreis","type":"Landkreis"},"federalState":{"key":"08","name":"Baden-Württemberg"}},{"name":"Hohbachsträßchen","postalCode":"73655","locality":"Plüderhausen","municipality":{"key":"08119055","name":"Plüderhausen","type":"Kreisangehörige_Gemeinde"},"district":{"key":"08119","name":"Rems-Murr-Kreis","type":"Landkreis"},"federalState":{"key":"08","name":"Baden-Württemberg"}},{"name":"Hohbaum","postalCode":"73655","locality":"Plüderhausen","municipality":{"key":"08119055","name":"Plüderhausen","type":"Kreisangehörige_Gemeinde"},"district":{"key":"08119","name":"Rems-Murr-Kreis","type":"Landkreis"},"federalState":{"key":"08","name":"Baden-Württemberg"}},{"name":"Hohbergkopfweg","postalCode":"73655","locality":"Plüderhausen","municipality":{"key":"08119055","name":"Plüderhausen","type":"Kreisangehörige_Gemeinde"},"district":{"key":"08119","name":"Rems-Murr-Kreis","type":"Landkreis"},"federalState":{"key":"08","name":"Baden-Württemberg"}},{"name":"Hohenneuffenweg","postalCode":"73655","locality":"Plüderhausen","municipality":{"key":"08119055","name":"Plüderhausen","type":"Kreisangehörige_Gemeinde"},"district":{"key":"08119","name":"Rems-Murr-Kreis","type":"Landkreis"},"federalState":{"key":"08","name":"Baden-Württemberg"}},{"name":"Hohenstaufenstr.","postalCode":"73655","locality":"Plüderhausen","municipality":{"key":"08119055","name":"Plüderhausen","type":"Kreisangehörige_Gemeinde"},"district":{"key":"08119","name":"Rems-Murr-Kreis","type":"Landkreis"},"federalState":{"key":"08","name":"Baden-Württemberg"}},{"name":"Hohenzollernstr.","postalCode":"73655","locality":"Plüderhausen","municipality":{"key":"08119055","name":"Plüderhausen","type":"Kreisangehörige_Gemeinde"},"district":{"key":"08119","name":"Rems-Murr-Kreis","type":"Landkreis"},"federalState":{"key":"08","name":"Baden-Württemberg"}},{"name":"Hohlbachweg","postalCode":"73655","locality":"Plüderhausen","municipality":{"key":"08119055","name":"Plüderhausen","type":"Kreisangehörige_Gemeinde"},"district":{"key":"08119","name":"Rems-Murr-Kreis","type":"Landkreis"},"federalState":{"key":"08","name":"Baden-Württemberg"}},{"name":"Hohlensteinweg","postalCode":"73655","locality":"Plüderhausen","municipality":{"key":"08119055","name":"Plüderhausen","type":"Kreisangehörige_Gemeinde"},"district":{"key":"08119","name":"Rems-Murr-Kreis","type":"Landkreis"},"federalState":{"key":"08","name":"Baden-Württemberg"}},{"name":"Hohlmichweg","postalCode":"36137","locality":"Großenlüder","municipality":{"key":"06631011","name":"Großenlüder","type":"Kreisangehörige_Gemeinde"},"district":{"key":"06631","name":"Fulda","type":"Landkreis"},"federalState":{"key":"06","name":"Hessen"}},{"name":"Holbeinstr.","postalCode":"73655","locality":"Plüderhausen","municipality":{"key":"08119055","name":"Plüderhausen","type":"Kreisangehörige_Gemeinde"},"district":{"key":"08119","name":"Rems-Murr-Kreis","type":"Landkreis"},"federalState":{"key":"08","name":"Baden-Württemberg"}},{"name":"Hölderlinweg","postalCode":"73655","locality":"Plüderhausen","municipality":{"key":"08119055","name":"Plüderhausen","type":"Kreisangehörige_Gemeinde"},"district":{"key":"08119","name":"Rems-Murr-Kreis","type":"Landkreis"},"federalState":{"key":"08","name":"Baden-Württemberg"}},{"name":"Holunderweg","postalCode":"73655","locality":"Plüderhausen","municipality":{"key":"08119055","name":"Plüderhausen","type":"Kreisangehörige_Gemeinde"},"district":{"key":"08119","name":"Rems-Murr-Kreis","type":"Landkreis"},"federalState":{"key":"08","name":"Baden-Württemberg"}},{"name":"Hölzerbacher Weg","postalCode":"36137","locality":"Großenlüder","municipality":{"key":"06631011","name":"Großenlüder","type":"Kreisangehörige_Gemeinde"},"district":{"key":"06631","name":"Fulda","type":"Landkreis"},"federalState":{"key":"06","name":"Hessen"}},{"name":"Im Aichenbachhof","postalCode":"73655","locality":"Plüderhausen","municipality":{"key":"08119055","name":"Plüderhausen","type":"Kreisangehörige_Gemeinde"},"district":{"key":"08119","name":"Rems-Murr-Kreis","type":"Landkreis"},"federalState":{"key":"08","name":"Baden-Württemberg"}},{"name":"Im Buschbaum","postalCode":"21379","locality":"Lüdersburg","municipality":{"key":"03355021","name":"Lüdersburg","type":"Kreisangehörige_Gemeinde"},"district":{"key":"03355","name":"Lüneburg","type":"Landkreis"},"federalState":{"key":"03","name":"Niedersachsen"}},{"name":"Im Feldchen","postalCode":"36137","locality":"Großenlüder","municipality":{"key":"06631011","name":"Großenlüder","type":"Kreisangehörige_Gemeinde"},"district":{"key":"06631","name":"Fulda","type":"Landkreis"},"federalState":{"key":"06","name":"Hessen"}},{"name":"Im freien Land","postalCode":"31702","locality":"Lüdersfeld","municipality":{"key":"03257021","name":"Lüdersfeld","type":"Kreisangehörige_Gemeinde"},"district":{"key":"03257","name":"Schaumburg","type":"Landkreis"},"federalState":{"key":"03","name":"Niedersachsen"}},{"name":"Im Kalbig","postalCode":"36137","locality":"Großenlüder","municipality":{"key":"06631011","name":"Großenlüder","type":"Kreisangehörige_Gemeinde"},"district":{"key":"06631","name":"Fulda","type":"Landkreis"},"federalState":{"key":"06","name":"Hessen"}},{"name":"Im Klingenfeld","postalCode":"36137","locality":"Großenlüder","municipality":{"key":"06631011","name":"Großenlüder","type":"Kreisangehörige_Gemeinde"},"district":{"key":"06631","name":"Fulda","type":"Landkreis"},"federalState":{"key":"06","name":"Hessen"}},{"name":"Im Lüdertal","postalCode":"36137","locality":"Großenlüder","municipality":{"key":"06631011","name":"Großenlüder","type":"Kreisangehörige_Gemeinde"},"district":{"key":"06631","name":"Fulda","type":"Landkreis"},"federalState":{"key":"06","name":"Hessen"}},{"name":"Im Mühlgarten","postalCode":"73655","locality":"Plüderhausen","municipality":{"key":"08119055","name":"Plüderhausen","type":"Kreisangehörige_Gemeinde"},"district":{"key":"08119","name":"Rems-Murr-Kreis","type":"Landkreis"},"federalState":{"key":"08","name":"Baden-Württemberg"}},{"name":"Im Rank","postalCode":"73655","locality":"Plüderhausen","municipality":{"key":"08119055","name":"Plüderhausen","type":"Kreisangehörige_Gemeinde"},"district":{"key":"08119","name":"Rems-Murr-Kreis","type":"Landkreis"},"federalState":{"key":"08","name":"Baden-Württemberg"}},{"name":"Im Sämig","postalCode":"36137","locality":"Großenlüder","municipality":{"key":"06631011","name":"Großenlüder","type":"Kreisangehörige_Gemeinde"},"district":{"key":"06631","name":"Fulda","type":"Landkreis"},"federalState":{"key":"06","name":"Hessen"}},{"name":"Im Specken","postalCode":"21379","locality":"Lüdersburg","municipality":{"key":"03355021","name":"Lüdersburg","type":"Kreisangehörige_Gemeinde"},"district":{"key":"03355","name":"Lüneburg","type":"Landkreis"},"federalState":{"key":"03","name":"Niedersachsen"}},{"name":"Im Tessenfeld","postalCode":"21379","locality":"Lüdersburg","municipality":{"key":"03355021","name":"Lüdersburg","type":"Kreisangehörige_Gemeinde"},"district":{"key":"03355","name":"Lüneburg","type":"Landkreis"},"federalState":{"key":"03","name":"Niedersachsen"}},{"name":"In den Gärten","postalCode":"36137","locality":"Großenlüder","municipality":{"key":"06631011","name":"Großenlüder","type":"Kreisangehörige_Gemeinde"},"district":{"key":"06631","name":"Fulda","type":"Landkreis"},"federalState":{"key":"06","name":"Hessen"}},{"name":"In den Haberswiesen","postalCode":"36137","locality":"Großenlüder","municipality":{"key":"06631011","name":"Großenlüder","type":"Kreisangehörige_Gemeinde"},"district":{"key":"06631","name":"Fulda","type":"Landkreis"},"federalState":{"key":"06","name":"Hessen"}},{"name":"In den Kreuzgärten","postalCode":"36137","locality":"Großenlüder","municipality":{"key":"06631011","name":"Großenlüder","type":"Kreisangehörige_Gemeinde"},"district":{"key":"06631","name":"Fulda","type":"Landkreis"},"federalState":{"key":"06","name":"Hessen"}},{"name":"In den Michelshöfen","postalCode":"36137","locality":"Großenlüder","municipality":{"key":"06631011","name":"Großenlüder","type":"Kreisangehörige_Gemeinde"},"district":{"key":"06631","name":"Fulda","type":"Landkreis"},"federalState":{"key":"06","name":"Hessen"}},{"name":"In der Aue","postalCode":"36137","locality":"Großenlüder","municipality":{"key":"06631011","name":"Großenlüder","type":"Kreisangehörige_Gemeinde"},"district":{"key":"06631","name":"Fulda","type":"Landkreis"},"federalState":{"key":"06","name":"Hessen"}},{"name":"In der Burg","postalCode":"36137","locality":"Großenlüder","municipality":{"key":"06631011","name":"Großenlüder","type":"Kreisangehörige_Gemeinde"},"district":{"key":"06631","name":"Fulda","type":"Landkreis"},"federalState":{"key":"06","name":"Hessen"}},{"name":"Industriestr.","postalCode":"36137","locality":"Großenlüder","municipality":{"key":"06631011","name":"Großenlüder","type":"Kreisangehörige_Gemeinde"},"district":{"key":"06631","name":"Fulda","type":"Landkreis"},"federalState":{"key":"06","name":"Hessen"}},{"name":"Ipfweg","postalCode":"73655","locality":"Plüderhausen","municipality":{"key":"08119055","name":"Plüderhausen","type":"Kreisangehörige_Gemeinde"},"district":{"key":"08119","name":"Rems-Murr-Kreis","type":"Landkreis"},"federalState":{"key":"08","name":"Baden-Württemberg"}},{"name":"Irisweg","postalCode":"73655","locality":"Plüderhausen","municipality":{"key":"08119055","name":"Plüderhausen","type":"Kreisangehörige_Gemeinde"},"district":{"key":"08119","name":"Rems-Murr-Kreis","type":"Landkreis"},"federalState":{"key":"08","name":"Baden-Württemberg"}},{"name":"Italienerweg","postalCode":"73655","locality":"Plüderhausen","municipality":{"key":"08119055","name":"Plüderhausen","type":"Kreisangehörige_Gemeinde"},"district":{"key":"08119","name":"Rems-Murr-Kreis","type":"Landkreis"},"federalState":{"key":"08","name":"Baden-Württemberg"}},{"name":"Jagdhütten Weg","postalCode":"36137","locality":"Großenlüder","municipality":{"key":"06631011","name":"Großenlüder","type":"Kreisangehörige_Gemeinde"},"district":{"key":"06631","name":"Fulda","type":"Landkreis"},"federalState":{"key":"06","name":"Hessen"}},{"name":"Jahnstr.","postalCode":"36137","locality":"Großenlüder","municipality":{"key":"06631011","name":"Großenlüder","type":"Kreisangehörige_Gemeinde"},"district":{"key":"06631","name":"Fulda","type":"Landkreis"},"federalState":{"key":"06","name":"Hessen"}},{"name":"Jakob-Schüle-Str.","postalCode":"73655","locality":"Plüderhausen","municipality":{"key":"08119055","name":"Plüderhausen","type":"Kreisangehörige_Gemeinde"},"district":{"key":"08119","name":"Rems-Murr-Kreis","type":"Landkreis"},"federalState":{"key":"08","name":"Baden-Württemberg"}},{"name":"Josefstr.","postalCode":"36137","locality":"Großenlüder","municipality":{"key":"06631011","name":"Großenlüder","type":"Kreisangehörige_Gemeinde"},"district":{"key":"06631","name":"Fulda","type":"Landkreis"},"federalState":{"key":"06","name":"Hessen"}},{"name":"Josefs-Weg","postalCode":"36137","locality":"Großenlüder","municipality":{"key":"06631011","name":"Großenlüder","type":"Kreisangehörige_Gemeinde"},"district":{"key":"06631","name":"Fulda","type":"Landkreis"},"federalState":{"key":"06","name":"Hessen"}},{"name":"Jürgenstorfer Str.","postalCode":"21379","locality":"Lüdersburg","municipality":{"key":"03355021","name":"Lüdersburg","type":"Kreisangehörige_Gemeinde"},"district":{"key":"03355","name":"Lüneburg","type":"Landkreis"},"federalState":{"key":"03","name":"Niedersachsen"}},{"name":"Kalkrain Weg","postalCode":"36137","locality":"Großenlüder","municipality":{"key":"06631011","name":"Großenlüder","type":"Kreisangehörige_Gemeinde"},"district":{"key":"06631","name":"Fulda","type":"Landkreis"},"federalState":{"key":"06","name":"Hessen"}},{"name":"Kammergehrnweg","postalCode":"73655","locality":"Plüderhausen","municipality":{"key":"08119055","name":"Plüderhausen","type":"Kreisangehörige_Gemeinde"},"district":{"key":"08119","name":"Rems-Murr-Kreis","type":"Landkreis"},"federalState":{"key":"08","name":"Baden-Württemberg"}},{"name":"Kantstr.","postalCode":"73655","locality":"Plüderhausen","municipality":{"key":"08119055","name":"Plüderhausen","type":"Kreisangehörige_Gemeinde"},"district":{"key":"08119","name":"Rems-Murr-Kreis","type":"Landkreis"},"federalState":{"key":"08","name":"Baden-Württemberg"}},{"name":"Karlsecke","postalCode":"36137","locality":"Großenlüder","municipality":{"key":"06631011","name":"Großenlüder","type":"Kreisangehörige_Gemeinde"},"district":{"key":"06631","name":"Fulda","type":"Landkreis"},"federalState":{"key":"06","name":"Hessen"}},{"name":"Karlstr.","postalCode":"36137","locality":"Großenlüder","municipality":{"key":"06631011","name":"Großenlüder","type":"Kreisangehörige_Gemeinde"},"district":{"key":"06631","name":"Fulda","type":"Landkreis"},"federalState":{"key":"06","name":"Hessen"}},{"name":"Kastanienweg","postalCode":"36137","locality":"Großenlüder","municipality":{"key":"06631011","name":"Großenlüder","type":"Kreisangehörige_Gemeinde"},"district":{"key":"06631","name":"Fulda","type":"Landkreis"},"federalState":{"key":"06","name":"Hessen"}},{"name":"Kelterplatz","postalCode":"73655","locality":"Plüderhausen","municipality":{"key":"08119055","name":"Plüderhausen","type":"Kreisangehörige_Gemeinde"},"district":{"key":"08119","name":"Rems-Murr-Kreis","type":"Landkreis"},"federalState":{"key":"08","name":"Baden-Württemberg"}},{"name":"Keplerweg","postalCode":"73655","locality":"Plüderhausen","municipality":{"key":"08119055","name":"Plüderhausen","type":"Kreisangehörige_Gemeinde"},"district":{"key":"08119","name":"Rems-Murr-Kreis","type":"Landkreis"},"federalState":{"key":"08","name":"Baden-Württemberg"}},{"name":"Kernerweg","postalCode":"73655","locality":"Plüderhausen","municipality":{"key":"08119055","name":"Plüderhausen","type":"Kreisangehörige_Gemeinde"},"district":{"key":"08119","name":"Rems-Murr-Kreis","type":"Landkreis"},"federalState":{"key":"08","name":"Baden-Württemberg"}},{"name":"Kettelerstr.","postalCode":"36137","locality":"Großenlüder","municipality":{"key":"06631011","name":"Großenlüder","type":"Kreisangehörige_Gemeinde"},"district":{"key":"06631","name":"Fulda","type":"Landkreis"},"federalState":{"key":"06","name":"Hessen"}},{"name":"Kiefernbogen","postalCode":"23923","locality":"Lüdersdorf","municipality":{"key":"13074049","name":"Lüdersdorf","type":"Kreisangehörige_Gemeinde"},"district":{"key":"13074","name":"Nordwestmecklenburg","type":"Landkreis"},"federalState":{"key":"13","name":"Mecklenburg-Vorpommern"}},{"name":"Kiefernweg","postalCode":"73655","locality":"Plüderhausen","municipality":{"key":"08119055","name":"Plüderhausen","type":"Kreisangehörige_Gemeinde"},"district":{"key":"08119","name":"Rems-Murr-Kreis","type":"Landkreis"},"federalState":{"key":"08","name":"Baden-Württemberg"}},{"name":"Kilianstr.","postalCode":"36137","locality":"Großenlüder","municipality":{"key":"06631011","name":"Großenlüder","type":"Kreisangehörige_Gemeinde"},"district":{"key":"06631","name":"Fulda","type":"Landkreis"},"federalState":{"key":"06","name":"Hessen"}},{"name":"Kirchtwiete","postalCode":"21379","locality":"Lüdersburg","municipality":{"key":"03355021","name":"Lüdersburg","type":"Kreisangehörige_Gemeinde"},"district":{"key":"03355","name":"Lüneburg","type":"Landkreis"},"federalState":{"key":"03","name":"Niedersachsen"}},{"name":"Kirchweg","postalCode":"36137","locality":"Großenlüder","municipality":{"key":"06631011","name":"Großenlüder","type":"Kreisangehörige_Gemeinde"},"district":{"key":"06631","name":"Fulda","type":"Landkreis"},"federalState":{"key":"06","name":"Hessen"}},{"name":"Kirchweg","postalCode":"73655","locality":"Plüderhausen","municipality":{"key":"08119055","name":"Plüderhausen","type":"Kreisangehörige_Gemeinde"},"district":{"key":"08119","name":"Rems-Murr-Kreis","type":"Landkreis"},"federalState":{"key":"08","name":"Baden-Württemberg"}},{"name":"Kitzbüheler Platz","postalCode":"73655","locality":"Plüderhausen","municipality":{"key":"08119055","name":"Plüderhausen","type":"Kreisangehörige_Gemeinde"},"district":{"key":"08119","name":"Rems-Murr-Kreis","type":"Landkreis"},"federalState":{"key":"08","name":"Baden-Württemberg"}},{"name":"Kleine Röde","postalCode":"36137","locality":"Großenlüder","municipality":{"key":"06631011","name":"Großenlüder","type":"Kreisangehörige_Gemeinde"},"district":{"key":"06631","name":"Fulda","type":"Landkreis"},"federalState":{"key":"06","name":"Hessen"}},{"name":"Kleinheiligkreuzer Weg","postalCode":"36137","locality":"Großenlüder","municipality":{"key":"06631011","name":"Großenlüder","type":"Kreisangehörige_Gemeinde"},"district":{"key":"06631","name":"Fulda","type":"Landkreis"},"federalState":{"key":"06","name":"Hessen"}},{"name":"Kolonieweg","postalCode":"18314","locality":"Lüdershagen","municipality":{"key":"13073053","name":"Lüdershagen","type":"Kreisangehörige_Gemeinde"},"district":{"key":"13073","name":"Vorpommern-Rügen","type":"Landkreis"},"federalState":{"key":"13","name":"Mecklenburg-Vorpommern"}},{"name":"Kolonnenweg","postalCode":"23923","locality":"Lüdersdorf","municipality":{"key":"13074049","name":"Lüdersdorf","type":"Kreisangehörige_Gemeinde"},"district":{"key":"13074","name":"Nordwestmecklenburg","type":"Landkreis"},"federalState":{"key":"13","name":"Mecklenburg-Vorpommern"}},{"name":"Kolpingstr.","postalCode":"36137","locality":"Großenlüder","municipality":{"key":"06631011","name":"Großenlüder","type":"Kreisangehörige_Gemeinde"},"district":{"key":"06631","name":"Fulda","type":"Landkreis"},"federalState":{"key":"06","name":"Hessen"}},{"name":"Königsteinweg","postalCode":"73655","locality":"Plüderhausen","municipality":{"key":"08119055","name":"Plüderhausen","type":"Kreisangehörige_Gemeinde"},"district":{"key":"08119","name":"Rems-Murr-Kreis","type":"Landkreis"},"federalState":{"key":"08","name":"Baden-Württemberg"}},{"name":"Konnenbergweg","postalCode":"73655","locality":"Plüderhausen","municipality":{"key":"08119055","name":"Plüderhausen","type":"Kreisangehörige_Gemeinde"},"district":{"key":"08119","name":"Rems-Murr-Kreis","type":"Landkreis"},"federalState":{"key":"08","name":"Baden-Württemberg"}},{"name":"Konrad-Schrimpf-Str.","postalCode":"36137","locality":"Großenlüder","municipality":{"key":"06631011","name":"Großenlüder","type":"Kreisangehörige_Gemeinde"},"district":{"key":"06631","name":"Fulda","type":"Landkreis"},"federalState":{"key":"06","name":"Hessen"}},{"name":"Konradstr.","postalCode":"36137","locality":"Großenlüder","municipality":{"key":"06631011","name":"Großenlüder","type":"Kreisangehörige_Gemeinde"},"district":{"key":"06631","name":"Fulda","type":"Landkreis"},"federalState":{"key":"06","name":"Hessen"}},{"name":"Konsumstr.","postalCode":"18314","locality":"Lüdershagen","municipality":{"key":"13073053","name":"Lüdershagen","type":"Kreisangehörige_Gemeinde"},"district":{"key":"13073","name":"Vorpommern-Rügen","type":"Landkreis"},"federalState":{"key":"13","name":"Mecklenburg-Vorpommern"}},{"name":"Kreutzerweg","postalCode":"73655","locality":"Plüderhausen","municipality":{"key":"08119055","name":"Plüderhausen","type":"Kreisangehörige_Gemeinde"},"district":{"key":"08119","name":"Rems-Murr-Kreis","type":"Landkreis"},"federalState":{"key":"08","name":"Baden-Württemberg"}},{"name":"Krokusweg","postalCode":"73655","locality":"Plüderhausen","municipality":{"key":"08119055","name":"Plüderhausen","type":"Kreisangehörige_Gemeinde"},"district":{"key":"08119","name":"Rems-Murr-Kreis","type":"Landkreis"},"federalState":{"key":"08","name":"Baden-Württemberg"}},{"name":"Krüzkamp","postalCode":"23923","locality":"Lüdersdorf","municipality":{"key":"13074049","name":"Lüdersdorf","type":"Kreisangehörige_Gemeinde"},"district":{"key":"13074","name":"Nordwestmecklenburg","type":"Landkreis"},"federalState":{"key":"13","name":"Mecklenburg-Vorpommern"}},{"name":"Kupfenweg","postalCode":"73655","locality":"Plüderhausen","municipality":{"key":"08119055","name":"Plüderhausen","type":"Kreisangehörige_Gemeinde"},"district":{"key":"08119","name":"Rems-Murr-Kreis","type":"Landkreis"},"federalState":{"key":"08","name":"Baden-Württemberg"}},{"name":"Lammerstr.","postalCode":"29394","locality":"Lüder","municipality":{"key":"03360013","name":"Lüder","type":"Kreisangehörige_Gemeinde"},"district":{"key":"03360","name":"Uelzen","type":"Landkreis"},"federalState":{"key":"03","name":"Niedersachsen"}},{"name":"Lämmleweg","postalCode":"73655","locality":"Plüderhausen","municipality":{"key":"08119055","name":"Plüderhausen","type":"Kreisangehörige_Gemeinde"},"district":{"key":"08119","name":"Rems-Murr-Kreis","type":"Landkreis"},"federalState":{"key":"08","name":"Baden-Württemberg"}},{"name":"Landskroner Str.","postalCode":"36137","locality":"Großenlüder","municipality":{"key":"06631011","name":"Großenlüder","type":"Kreisangehörige_Gemeinde"},"district":{"key":"06631","name":"Fulda","type":"Landkreis"},"federalState":{"key":"06","name":"Hessen"}},{"name":"Langenberger Weg","postalCode":"36137","locality":"Großenlüder","municipality":{"key":"06631011","name":"Großenlüder","type":"Kreisangehörige_Gemeinde"},"district":{"key":"06631","name":"Fulda","type":"Landkreis"},"federalState":{"key":"06","name":"Hessen"}},{"name":"Langenbrügger Str.","postalCode":"29394","locality":"Lüder","municipality":{"key":"03360013","name":"Lüder","type":"Kreisangehörige_Gemeinde"},"district":{"key":"03360","name":"Uelzen","type":"Landkreis"},"federalState":{"key":"03","name":"Niedersachsen"}},{"name":"Lange Reihe","postalCode":"18314","locality":"Lüdershagen","municipality":{"key":"13073053","name":"Lüdershagen","type":"Kreisangehörige_Gemeinde"},"district":{"key":"13073","name":"Vorpommern-Rügen","type":"Landkreis"},"federalState":{"key":"13","name":"Mecklenburg-Vorpommern"}},{"name":"Langwiesenweg","postalCode":"36137","locality":"Großenlüder","municipality":{"key":"06631011","name":"Großenlüder","type":"Kreisangehörige_Gemeinde"},"district":{"key":"06631","name":"Fulda","type":"Landkreis"},"federalState":{"key":"06","name":"Hessen"}},{"name":"Lauterbacher Str.","postalCode":"36137","locality":"Großenlüder","municipality":{"key":"06631011","name":"Großenlüder","type":"Kreisangehörige_Gemeinde"},"district":{"key":"06631","name":"Fulda","type":"Landkreis"},"federalState":{"key":"06","name":"Hessen"}},{"name":"Lenauweg","postalCode":"73655","locality":"Plüderhausen","municipality":{"key":"08119055","name":"Plüderhausen","type":"Kreisangehörige_Gemeinde"},"district":{"key":"08119","name":"Rems-Murr-Kreis","type":"Landkreis"},"federalState":{"key":"08","name":"Baden-Württemberg"}},{"name":"Lenschower Weg","postalCode":"23923","locality":"Lüdersdorf","municipality":{"key":"13074049","name":"Lüdersdorf","type":"Kreisangehörige_Gemeinde"},"district":{"key":"13074","name":"Nordwestmecklenburg","type":"Landkreis"},"federalState":{"key":"13","name":"Mecklenburg-Vorpommern"}},{"name":"Lerchenstr.","postalCode":"73655","locality":"Plüderhausen","municipality":{"key":"08119055","name":"Plüderhausen","type":"Kreisangehörige_Gemeinde"},"district":{"key":"08119","name":"Rems-Murr-Kreis","type":"Landkreis"},"federalState":{"key":"08","name":"Baden-Württemberg"}},{"name":"Lerchenweg","postalCode":"29394","locality":"Lüder","municipality":{"key":"03360013","name":"Lüder","type":"Kreisangehörige_Gemeinde"},"district":{"key":"03360","name":"Uelzen","type":"Landkreis"},"federalState":{"key":"03","name":"Niedersachsen"}},{"name":"Lerchenweg","postalCode":"36137","locality":"Großenlüder","municipality":{"key":"06631011","name":"Großenlüder","type":"Kreisangehörige_Gemeinde"},"district":{"key":"06631","name":"Fulda","type":"Landkreis"},"federalState":{"key":"06","name":"Hessen"}},{"name":"Lessingweg","postalCode":"73655","locality":"Plüderhausen","municipality":{"key":"08119055","name":"Plüderhausen","type":"Kreisangehörige_Gemeinde"},"district":{"key":"08119","name":"Rems-Murr-Kreis","type":"Landkreis"},"federalState":{"key":"08","name":"Baden-Württemberg"}},{"name":"Lichtweg","postalCode":"36137","locality":"Großenlüder","municipality":{"key":"06631011","name":"Großenlüder","type":"Kreisangehörige_Gemeinde"},"district":{"key":"06631","name":"Fulda","type":"Landkreis"},"federalState":{"key":"06","name":"Hessen"}},{"name":"Lilienweg","postalCode":"73655","locality":"Plüderhausen","municipality":{"key":"08119055","name":"Plüderhausen","type":"Kreisangehörige_Gemeinde"},"district":{"key":"08119","name":"Rems-Murr-Kreis","type":"Landkreis"},"federalState":{"key":"08","name":"Baden-Württemberg"}},{"name":"Lincolaweg","postalCode":"73655","locality":"Plüderhausen","municipality":{"key":"08119055","name":"Plüderhausen","type":"Kreisangehörige_Gemeinde"},"district":{"key":"08119","name":"Rems-Murr-Kreis","type":"Landkreis"},"federalState":{"key":"08","name":"Baden-Württemberg"}},{"name":"Lindenstr.","postalCode":"29394","locality":"Lüder","municipality":{"key":"03360013","name":"Lüder","type":"Kreisangehörige_Gemeinde"},"district":{"key":"03360","name":"Uelzen","type":"Landkreis"},"federalState":{"key":"03","name":"Niedersachsen"}},{"name":"Lindenweg","postalCode":"36137","locality":"Großenlüder","municipality":{"key":"06631011","name":"Großenlüder","type":"Kreisangehörige_Gemeinde"},"district":{"key":"06631","name":"Fulda","type":"Landkreis"},"federalState":{"key":"06","name":"Hessen"}},{"name":"Linthaldenweg","postalCode":"73655","locality":"Plüderhausen","municipality":{"key":"08119055","name":"Plüderhausen","type":"Kreisangehörige_Gemeinde"},"district":{"key":"08119","name":"Rems-Murr-Kreis","type":"Landkreis"},"federalState":{"key":"08","name":"Baden-Württemberg"}},{"name":"Liobastr.","postalCode":"36137","locality":"Großenlüder","municipality":{"key":"06631011","name":"Großenlüder","type":"Kreisangehörige_Gemeinde"},"district":{"key":"06631","name":"Fulda","type":"Landkreis"},"federalState":{"key":"06","name":"Hessen"}},{"name":"Lisztstr.","postalCode":"73655","locality":"Plüderhausen","municipality":{"key":"08119055","name":"Plüderhausen","type":"Kreisangehörige_Gemeinde"},"district":{"key":"08119","name":"Rems-Murr-Kreis","type":"Landkreis"},"federalState":{"key":"08","name":"Baden-Württemberg"}},{"name":"Lochgasse","postalCode":"36137","locality":"Großenlüder","municipality":{"key":"06631011","name":"Großenlüder","type":"Kreisangehörige_Gemeinde"},"district":{"key":"06631","name":"Fulda","type":"Landkreis"},"federalState":{"key":"06","name":"Hessen"}},{"name":"Lochtobel","postalCode":"73655","locality":"Plüderhausen","municipality":{"key":"08119055","name":"Plüderhausen","type":"Kreisangehörige_Gemeinde"},"district":{"key":"08119","name":"Rems-Murr-Kreis","type":"Landkreis"},"federalState":{"key":"08","name":"Baden-Württemberg"}},{"name":"Lönsweg","postalCode":"73655","locality":"Plüderhausen","municipality":{"key":"08119055","name":"Plüderhausen","type":"Kreisangehörige_Gemeinde"},"district":{"key":"08119","name":"Rems-Murr-Kreis","type":"Landkreis"},"federalState":{"key":"08","name":"Baden-Württemberg"}},{"name":"Lüdersburger Str.","postalCode":"21379","locality":"Lüdersburg","municipality":{"key":"03355021","name":"Lüdersburg","type":"Kreisangehörige_Gemeinde"},"district":{"key":"03355","name":"Lüneburg","type":"Landkreis"},"federalState":{"key":"03","name":"Niedersachsen"}},{"name":"Lüdersche Str.","postalCode":"29394","locality":"Lüder","municipality":{"key":"03360013","name":"Lüder","type":"Kreisangehörige_Gemeinde"},"district":{"key":"03360","name":"Uelzen","type":"Landkreis"},"federalState":{"key":"03","name":"Niedersachsen"}},{"name":"Lüdersdorfer-Graben","postalCode":"23923","locality":"Lüdersdorf","municipality":{"key":"13074049","name":"Lüdersdorf","type":"Kreisangehörige_Gemeinde"},"district":{"key":"13074","name":"Nordwestmecklenburg","type":"Landkreis"},"federalState":{"key":"13","name":"Mecklenburg-Vorpommern"}},{"name":"Ludwig-Nüdling-Weg","postalCode":"36137","locality":"Großenlüder","municipality":{"key":"06631011","name":"Großenlüder","type":"Kreisangehörige_Gemeinde"},"district":{"key":"06631","name":"Fulda","type":"Landkreis"},"federalState":{"key":"06","name":"Hessen"}},{"name":"Lütterzer Str.","postalCode":"36137","locality":"Großenlüder","municipality":{"key":"06631011","name":"Großenlüder","type":"Kreisangehörige_Gemeinde"},"district":{"key":"06631","name":"Fulda","type":"Landkreis"},"federalState":{"key":"06","name":"Hessen"}},{"name":"Mährecke","postalCode":"36137","locality":"Großenlüder","municipality":{"key":"06631011","name":"Großenlüder","type":"Kreisangehörige_Gemeinde"},"district":{"key":"06631","name":"Fulda","type":"Landkreis"},"federalState":{"key":"06","name":"Hessen"}},{"name":"Malkeser Str.","postalCode":"36137","locality":"Großenlüder","municipality":{"key":"06631011","name":"Großenlüder","type":"Kreisangehörige_Gemeinde"},"district":{"key":"06631","name":"Fulda","type":"Landkreis"},"federalState":{"key":"06","name":"Hessen"}},{"name":"Malkeser Weg","postalCode":"36137","locality":"Großenlüder","municipality":{"key":"06631011","name":"Großenlüder","type":"Kreisangehörige_Gemeinde"},"district":{"key":"06631","name":"Fulda","type":"Landkreis"},"federalState":{"key":"06","name":"Hessen"}},{"name":"Margaretenstr.","postalCode":"73655","locality":"Plüderhausen","municipality":{"key":"08119055","name":"Plüderhausen","type":"Kreisangehörige_Gemeinde"},"district":{"key":"08119","name":"Rems-Murr-Kreis","type":"Landkreis"},"federalState":{"key":"08","name":"Baden-Württemberg"}},{"name":"Marienstr.","postalCode":"36137","locality":"Großenlüder","municipality":{"key":"06631011","name":"Großenlüder","type":"Kreisangehörige_Gemeinde"},"district":{"key":"06631","name":"Fulda","type":"Landkreis"},"federalState":{"key":"06","name":"Hessen"}},{"name":"Marktplatz","postalCode":"36137","locality":"Großenlüder","municipality":{"key":"06631011","name":"Großenlüder","type":"Kreisangehörige_Gemeinde"},"district":{"key":"06631","name":"Fulda","type":"Landkreis"},"federalState":{"key":"06","name":"Hessen"}},{"name":"Martin-Luther-Ring","postalCode":"36137","locality":"Großenlüder","municipality":{"key":"06631011","name":"Großenlüder","type":"Kreisangehörige_Gemeinde"},"district":{"key":"06631","name":"Fulda","type":"Landkreis"},"federalState":{"key":"06","name":"Hessen"}},{"name":"Maximilian-Kolbe-Str.","postalCode":"36137","locality":"Großenlüder","municipality":{"key":"06631011","name":"Großenlüder","type":"Kreisangehörige_Gemeinde"},"district":{"key":"06631","name":"Fulda","type":"Landkreis"},"federalState":{"key":"06","name":"Hessen"}},{"name":"Meierhof","postalCode":"31702","locality":"Lüdersfeld","municipality":{"key":"03257021","name":"Lüdersfeld","type":"Kreisangehörige_Gemeinde"},"district":{"key":"03257","name":"Schaumburg","type":"Landkreis"},"federalState":{"key":"03","name":"Niedersachsen"}},{"name":"Meisenweg","postalCode":"73655","locality":"Plüderhausen","municipality":{"key":"08119055","name":"Plüderhausen","type":"Kreisangehörige_Gemeinde"},"district":{"key":"08119","name":"Rems-Murr-Kreis","type":"Landkreis"},"federalState":{"key":"08","name":"Baden-Württemberg"}},{"name":"Meldestr.","postalCode":"36137","locality":"Großenlüder","municipality":{"key":"06631011","name":"Großenlüder","type":"Kreisangehörige_Gemeinde"},"district":{"key":"06631","name":"Fulda","type":"Landkreis"},"federalState":{"key":"06","name":"Hessen"}},{"name":"Melmer Weg","postalCode":"36137","locality":"Großenlüder","municipality":{"key":"06631011","name":"Großenlüder","type":"Kreisangehörige_Gemeinde"},"district":{"key":"06631","name":"Fulda","type":"Landkreis"},"federalState":{"key":"06","name":"Hessen"}},{"name":"Menzelstr.","postalCode":"73655","locality":"Plüderhausen","municipality":{"key":"08119055","name":"Plüderhausen","type":"Kreisangehörige_Gemeinde"},"district":{"key":"08119","name":"Rems-Murr-Kreis","type":"Landkreis"},"federalState":{"key":"08","name":"Baden-Württemberg"}},{"name":"Milseburgstr.","postalCode":"36137","locality":"Großenlüder","municipality":{"key":"06631011","name":"Großenlüder","type":"Kreisangehörige_Gemeinde"},"district":{"key":"06631","name":"Fulda","type":"Landkreis"},"federalState":{"key":"06","name":"Hessen"}},{"name":"Mittelfeldweg","postalCode":"36137","locality":"Großenlüder","municipality":{"key":"06631011","name":"Großenlüder","type":"Kreisangehörige_Gemeinde"},"district":{"key":"06631","name":"Fulda","type":"Landkreis"},"federalState":{"key":"06","name":"Hessen"}},{"name":"Mittelgasse","postalCode":"36137","locality":"Großenlüder","municipality":{"key":"06631011","name":"Großenlüder","type":"Kreisangehörige_Gemeinde"},"district":{"key":"06631","name":"Fulda","type":"Landkreis"},"federalState":{"key":"06","name":"Hessen"}},{"name":"Mittelkopfweg","postalCode":"36137","locality":"Großenlüder","municipality":{"key":"06631011","name":"Großenlüder","type":"Kreisangehörige_Gemeinde"},"district":{"key":"06631","name":"Fulda","type":"Landkreis"},"federalState":{"key":"06","name":"Hessen"}},{"name":"Mittelstr.","postalCode":"31702","locality":"Lüdersfeld","municipality":{"key":"03257021","name":"Lüdersfeld","type":"Kreisangehörige_Gemeinde"},"district":{"key":"03257","name":"Schaumburg","type":"Landkreis"},"federalState":{"key":"03","name":"Niedersachsen"}},{"name":"Mittelstr.","postalCode":"36137","locality":"Großenlüder","municipality":{"key":"06631011","name":"Großenlüder","type":"Kreisangehörige_Gemeinde"},"district":{"key":"06631","name":"Fulda","type":"Landkreis"},"federalState":{"key":"06","name":"Hessen"}},{"name":"Mittlerer Konnenbergweg","postalCode":"73655","locality":"Plüderhausen","municipality":{"key":"08119055","name":"Plüderhausen","type":"Kreisangehörige_Gemeinde"},"district":{"key":"08119","name":"Rems-Murr-Kreis","type":"Landkreis"},"federalState":{"key":"08","name":"Baden-Württemberg"}},{"name":"Moorweg I","postalCode":"29394","locality":"Lüder","municipality":{"key":"03360013","name":"Lüder","type":"Kreisangehörige_Gemeinde"},"district":{"key":"03360","name":"Uelzen","type":"Landkreis"},"federalState":{"key":"03","name":"Niedersachsen"}},{"name":"Moorweg II","postalCode":"29394","locality":"Lüder","municipality":{"key":"03360013","name":"Lüder","type":"Kreisangehörige_Gemeinde"},"district":{"key":"03360","name":"Uelzen","type":"Landkreis"},"federalState":{"key":"03","name":"Niedersachsen"}},{"name":"Mörikestr.","postalCode":"73655","locality":"Plüderhausen","municipality":{"key":"08119055","name":"Plüderhausen","type":"Kreisangehörige_Gemeinde"},"district":{"key":"08119","name":"Rems-Murr-Kreis","type":"Landkreis"},"federalState":{"key":"08","name":"Baden-Württemberg"}},{"name":"Mozartstr.","postalCode":"36137","locality":"Großenlüder","municipality":{"key":"06631011","name":"Großenlüder","type":"Kreisangehörige_Gemeinde"},"district":{"key":"06631","name":"Fulda","type":"Landkreis"},"federalState":{"key":"06","name":"Hessen"}},{"name":"Mozartstr.","postalCode":"73655","locality":"Plüderhausen","municipality":{"key":"08119055","name":"Plüderhausen","type":"Kreisangehörige_Gemeinde"},"district":{"key":"08119","name":"Rems-Murr-Kreis","type":"Landkreis"},"federalState":{"key":"08","name":"Baden-Württemberg"}},{"name":"Mühlbergstr.","postalCode":"36137","locality":"Großenlüder","municipality":{"key":"06631011","name":"Großenlüder","type":"Kreisangehörige_Gemeinde"},"district":{"key":"06631","name":"Fulda","type":"Landkreis"},"federalState":{"key":"06","name":"Hessen"}},{"name":"Mühlenbruch","postalCode":"31702","locality":"Lüdersfeld","municipality":{"key":"03257021","name":"Lüdersfeld","type":"Kreisangehörige_Gemeinde"},"district":{"key":"03257","name":"Schaumburg","type":"Landkreis"},"federalState":{"key":"03","name":"Niedersachsen"}},{"name":"Mühlenkamp","postalCode":"23923","locality":"Lüdersdorf","municipality":{"key":"13074049","name":"Lüdersdorf","type":"Kreisangehörige_Gemeinde"},"district":{"key":"13074","name":"Nordwestmecklenburg","type":"Landkreis"},"federalState":{"key":"13","name":"Mecklenburg-Vorpommern"}},{"name":"Mühlenstr.","postalCode":"23923","locality":"Lüdersdorf","municipality":{"key":"13074049","name":"Lüdersdorf","type":"Kreisangehörige_Gemeinde"},"district":{"key":"13074","name":"Nordwestmecklenburg","type":"Landkreis"},"federalState":{"key":"13","name":"Mecklenburg-Vorpommern"}},{"name":"Mühlenstr.","postalCode":"36137","locality":"Großenlüder","municipality":{"key":"06631011","name":"Großenlüder","type":"Kreisangehörige_Gemeinde"},"district":{"key":"06631","name":"Fulda","type":"Landkreis"},"federalState":{"key":"06","name":"Hessen"}},{"name":"Mühlraingasse","postalCode":"36137","locality":"Großenlüder","municipality":{"key":"06631011","name":"Großenlüder","type":"Kreisangehörige_Gemeinde"},"district":{"key":"06631","name":"Fulda","type":"Landkreis"},"federalState":{"key":"06","name":"Hessen"}},{"name":"Mühlstr.","postalCode":"73655","locality":"Plüderhausen","municipality":{"key":"08119055","name":"Plüderhausen","type":"Kreisangehörige_Gemeinde"},"district":{"key":"08119","name":"Rems-Murr-Kreis","type":"Landkreis"},"federalState":{"key":"08","name":"Baden-Württemberg"}},{"name":"Mühlwasen","postalCode":"73655","locality":"Plüderhausen","municipality":{"key":"08119055","name":"Plüderhausen","type":"Kreisangehörige_Gemeinde"},"district":{"key":"08119","name":"Rems-Murr-Kreis","type":"Landkreis"},"federalState":{"key":"08","name":"Baden-Württemberg"}},{"name":"Münzenhalde","postalCode":"73655","locality":"Plüderhausen","municipality":{"key":"08119055","name":"Plüderhausen","type":"Kreisangehörige_Gemeinde"},"district":{"key":"08119","name":"Rems-Murr-Kreis","type":"Landkreis"},"federalState":{"key":"08","name":"Baden-Württemberg"}},{"name":"Narzissenweg","postalCode":"73655","locality":"Plüderhausen","municipality":{"key":"08119055","name":"Plüderhausen","type":"Kreisangehörige_Gemeinde"},"district":{"key":"08119","name":"Rems-Murr-Kreis","type":"Landkreis"},"federalState":{"key":"08","name":"Baden-Württemberg"}},{"name":"Naturpark Gänseräse","postalCode":"36137","locality":"Großenlüder","municipality":{"key":"06631011","name":"Großenlüder","type":"Kreisangehörige_Gemeinde"},"district":{"key":"06631","name":"Fulda","type":"Landkreis"},"federalState":{"key":"06","name":"Hessen"}},{"name":"Nelkenstr.","postalCode":"73655","locality":"Plüderhausen","municipality":{"key":"08119055","name":"Plüderhausen","type":"Kreisangehörige_Gemeinde"},"district":{"key":"08119","name":"Rems-Murr-Kreis","type":"Landkreis"},"federalState":{"key":"08","name":"Baden-Württemberg"}},{"name":"Neunränklesweg","postalCode":"73655","locality":"Plüderhausen","municipality":{"key":"08119055","name":"Plüderhausen","type":"Kreisangehörige_Gemeinde"},"district":{"key":"08119","name":"Rems-Murr-Kreis","type":"Landkreis"},"federalState":{"key":"08","name":"Baden-Württemberg"}},{"name":"Neusatz","postalCode":"73655","locality":"Plüderhausen","municipality":{"key":"08119055","name":"Plüderhausen","type":"Kreisangehörige_Gemeinde"},"district":{"key":"08119","name":"Rems-Murr-Kreis","type":"Landkreis"},"federalState":{"key":"08","name":"Baden-Württemberg"}},{"name":"Neuweilerhof","postalCode":"73655","locality":"Plüderhausen","municipality":{"key":"08119055","name":"Plüderhausen","type":"Kreisangehörige_Gemeinde"},"district":{"key":"08119","name":"Rems-Murr-Kreis","type":"Landkreis"},"federalState":{"key":"08","name":"Baden-Württemberg"}},{"name":"Niedernhagen","postalCode":"31702","locality":"Lüdersfeld","municipality":{"key":"03257021","name":"Lüdersfeld","type":"Kreisangehörige_Gemeinde"},"district":{"key":"03257","name":"Schaumburg","type":"Landkreis"},"federalState":{"key":"03","name":"Niedersachsen"}},{"name":"Niedernholz","postalCode":"31702","locality":"Lüdersfeld","municipality":{"key":"03257021","name":"Lüdersfeld","type":"Kreisangehörige_Gemeinde"},"district":{"key":"03257","name":"Schaumburg","type":"Landkreis"},"federalState":{"key":"03","name":"Niedersachsen"}},{"name":"Niederröder Weg","postalCode":"36137","locality":"Großenlüder","municipality":{"key":"06631011","name":"Großenlüder","type":"Kreisangehörige_Gemeinde"},"district":{"key":"06631","name":"Fulda","type":"Landkreis"},"federalState":{"key":"06","name":"Hessen"}},{"name":"Niederstr.","postalCode":"31702","locality":"Lüdersfeld","municipality":{"key":"03257021","name":"Lüdersfeld","type":"Kreisangehörige_Gemeinde"},"district":{"key":"03257","name":"Schaumburg","type":"Landkreis"},"federalState":{"key":"03","name":"Niedersachsen"}},{"name":"Nienwohlder Eck","postalCode":"29394","locality":"Lüder","municipality":{"key":"03360013","name":"Lüder","type":"Kreisangehörige_Gemeinde"},"district":{"key":"03360","name":"Uelzen","type":"Landkreis"},"federalState":{"key":"03","name":"Niedersachsen"}},{"name":"Nikolausweg","postalCode":"36137","locality":"Großenlüder","municipality":{"key":"06631011","name":"Großenlüder","type":"Kreisangehörige_Gemeinde"},"district":{"key":"06631","name":"Fulda","type":"Landkreis"},"federalState":{"key":"06","name":"Hessen"}},{"name":"Noldeweg","postalCode":"73655","locality":"Plüderhausen","municipality":{"key":"08119055","name":"Plüderhausen","type":"Kreisangehörige_Gemeinde"},"district":{"key":"08119","name":"Rems-Murr-Kreis","type":"Landkreis"},"federalState":{"key":"08","name":"Baden-Württemberg"}},{"name":"Nußbaumweg","postalCode":"18314","locality":"Lüdershagen","municipality":{"key":"13073053","name":"Lüdershagen","type":"Kreisangehörige_Gemeinde"},"district":{"key":"13073","name":"Vorpommern-Rügen","type":"Landkreis"},"federalState":{"key":"13","name":"Mecklenburg-Vorpommern"}},{"name":"Oberamtsgrenzweg","postalCode":"73655","locality":"Plüderhausen","municipality":{"key":"08119055","name":"Plüderhausen","type":"Kreisangehörige_Gemeinde"},"district":{"key":"08119","name":"Rems-Murr-Kreis","type":"Landkreis"},"federalState":{"key":"08","name":"Baden-Württemberg"}},{"name":"Oberdorfstr.","postalCode":"36137","locality":"Großenlüder","municipality":{"key":"06631011","name":"Großenlüder","type":"Kreisangehörige_Gemeinde"},"district":{"key":"06631","name":"Fulda","type":"Landkreis"},"federalState":{"key":"06","name":"Hessen"}},{"name":"Obere Halde","postalCode":"73655","locality":"Plüderhausen","municipality":{"key":"08119055","name":"Plüderhausen","type":"Kreisangehörige_Gemeinde"},"district":{"key":"08119","name":"Rems-Murr-Kreis","type":"Landkreis"},"federalState":{"key":"08","name":"Baden-Württemberg"}},{"name":"Obere Kirchgasse","postalCode":"73655","locality":"Plüderhausen","municipality":{"key":"08119055","name":"Plüderhausen","type":"Kreisangehörige_Gemeinde"},"district":{"key":"08119","name":"Rems-Murr-Kreis","type":"Landkreis"},"federalState":{"key":"08","name":"Baden-Württemberg"}},{"name":"Oberer Konnenbergweg","postalCode":"73655","locality":"Plüderhausen","municipality":{"key":"08119055","name":"Plüderhausen","type":"Kreisangehörige_Gemeinde"},"district":{"key":"08119","name":"Rems-Murr-Kreis","type":"Landkreis"},"federalState":{"key":"08","name":"Baden-Württemberg"}},{"name":"Obere Str.","postalCode":"31702","locality":"Lüdersfeld","municipality":{"key":"03257021","name":"Lüdersfeld","type":"Kreisangehörige_Gemeinde"},"district":{"key":"03257","name":"Schaumburg","type":"Landkreis"},"federalState":{"key":"03","name":"Niedersachsen"}},{"name":"Obernhagen","postalCode":"31702","locality":"Lüdersfeld","municipality":{"key":"03257021","name":"Lüdersfeld","type":"Kreisangehörige_Gemeinde"},"district":{"key":"03257","name":"Schaumburg","type":"Landkreis"},"federalState":{"key":"03","name":"Niedersachsen"}},{"name":"Obertal","postalCode":"73655","locality":"Plüderhausen","municipality":{"key":"08119055","name":"Plüderhausen","type":"Kreisangehörige_Gemeinde"},"district":{"key":"08119","name":"Rems-Murr-Kreis","type":"Landkreis"},"federalState":{"key":"08","name":"Baden-Württemberg"}},{"name":"Oestreichstr.","postalCode":"36137","locality":"Großenlüder","municipality":{"key":"06631011","name":"Großenlüder","type":"Kreisangehörige_Gemeinde"},"district":{"key":"06631","name":"Fulda","type":"Landkreis"},"federalState":{"key":"06","name":"Hessen"}},{"name":"Orffweg","postalCode":"73655","locality":"Plüderhausen","municipality":{"key":"08119055","name":"Plüderhausen","type":"Kreisangehörige_Gemeinde"},"district":{"key":"08119","name":"Rems-Murr-Kreis","type":"Landkreis"},"federalState":{"key":"08","name":"Baden-Württemberg"}},{"name":"Oskar-Frech-Platz","postalCode":"73655","locality":"Plüderhausen","municipality":{"key":"08119055","name":"Plüderhausen","type":"Kreisangehörige_Gemeinde"},"district":{"key":"08119","name":"Rems-Murr-Kreis","type":"Landkreis"},"federalState":{"key":"08","name":"Baden-Württemberg"}},{"name":"Ostendsiedlung","postalCode":"36137","locality":"Großenlüder","municipality":{"key":"06631011","name":"Großenlüder","type":"Kreisangehörige_Gemeinde"},"district":{"key":"06631","name":"Fulda","type":"Landkreis"},"federalState":{"key":"06","name":"Hessen"}},{"name":"Ottental","postalCode":"73655","locality":"Plüderhausen","municipality":{"key":"08119055","name":"Plüderhausen","type":"Kreisangehörige_Gemeinde"},"district":{"key":"08119","name":"Rems-Murr-Kreis","type":"Landkreis"},"federalState":{"key":"08","name":"Baden-Württemberg"}},{"name":"Panoramaweg","postalCode":"73655","locality":"Plüderhausen","municipality":{"key":"08119055","name":"Plüderhausen","type":"Kreisangehörige_Gemeinde"},"district":{"key":"08119","name":"Rems-Murr-Kreis","type":"Landkreis"},"federalState":{"key":"08","name":"Baden-Württemberg"}},{"name":"Pappelweg","postalCode":"36137","locality":"Großenlüder","municipality":{"key":"06631011","name":"Großenlüder","type":"Kreisangehörige_Gemeinde"},"district":{"key":"06631","name":"Fulda","type":"Landkreis"},"federalState":{"key":"06","name":"Hessen"}},{"name":"Pastorenweg","postalCode":"29394","locality":"Lüder","municipality":{"key":"03360013","name":"Lüder","type":"Kreisangehörige_Gemeinde"},"district":{"key":"03360","name":"Uelzen","type":"Landkreis"},"federalState":{"key":"03","name":"Niedersachsen"}},{"name":"Paul-Dorsch-Weg","postalCode":"73655","locality":"Plüderhausen","municipality":{"key":"08119055","name":"Plüderhausen","type":"Kreisangehörige_Gemeinde"},"district":{"key":"08119","name":"Rems-Murr-Kreis","type":"Landkreis"},"federalState":{"key":"08","name":"Baden-Württemberg"}},{"name":"Peermoor","postalCode":"23923","locality":"Lüdersdorf","municipality":{"key":"13074049","name":"Lüdersdorf","type":"Kreisangehörige_Gemeinde"},"district":{"key":"13074","name":"Nordwestmecklenburg","type":"Landkreis"},"federalState":{"key":"13","name":"Mecklenburg-Vorpommern"}},{"name":"Pestalozzistr.","postalCode":"36137","locality":"Großenlüder","municipality":{"key":"06631011","name":"Großenlüder","type":"Kreisangehörige_Gemeinde"},"district":{"key":"06631","name":"Fulda","type":"Landkreis"},"federalState":{"key":"06","name":"Hessen"}},{"name":"Peter-Greiner-Weg","postalCode":"73655","locality":"Plüderhausen","municipality":{"key":"08119055","name":"Plüderhausen","type":"Kreisangehörige_Gemeinde"},"district":{"key":"08119","name":"Rems-Murr-Kreis","type":"Landkreis"},"federalState":{"key":"08","name":"Baden-Württemberg"}},{"name":"Plidolfweg","postalCode":"73655","locality":"Plüderhausen","municipality":{"key":"08119055","name":"Plüderhausen","type":"Kreisangehörige_Gemeinde"},"district":{"key":"08119","name":"Rems-Murr-Kreis","type":"Landkreis"},"federalState":{"key":"08","name":"Baden-Württemberg"}},{"name":"Poggenberg","postalCode":"29394","locality":"Lüder","municipality":{"key":"03360013","name":"Lüder","type":"Kreisangehörige_Gemeinde"},"district":{"key":"03360","name":"Uelzen","type":"Landkreis"},"federalState":{"key":"03","name":"Niedersachsen"}},{"name":"Postweg","postalCode":"73655","locality":"Plüderhausen","municipality":{"key":"08119055","name":"Plüderhausen","type":"Kreisangehörige_Gemeinde"},"district":{"key":"08119","name":"Rems-Murr-Kreis","type":"Landkreis"},"federalState":{"key":"08","name":"Baden-Württemberg"}},{"name":"Prügelweg","postalCode":"73655","locality":"Plüderhausen","municipality":{"key":"08119055","name":"Plüderhausen","type":"Kreisangehörige_Gemeinde"},"district":{"key":"08119","name":"Rems-Murr-Kreis","type":"Landkreis"},"federalState":{"key":"08","name":"Baden-Württemberg"}},{"name":"Quellohwiesenweg","postalCode":"29394","locality":"Lüder","municipality":{"key":"03360013","name":"Lüder","type":"Kreisangehörige_Gemeinde"},"district":{"key":"03360","name":"Uelzen","type":"Landkreis"},"federalState":{"key":"03","name":"Niedersachsen"}},{"name":"Querstr.","postalCode":"31702","locality":"Lüdersfeld","municipality":{"key":"03257021","name":"Lüdersfeld","type":"Kreisangehörige_Gemeinde"},"district":{"key":"03257","name":"Schaumburg","type":"Landkreis"},"federalState":{"key":"03","name":"Niedersachsen"}},{"name":"Raddingsdorfer Str.","postalCode":"23923","locality":"Lüdersdorf","municipality":{"key":"13074049","name":"Lüdersdorf","type":"Kreisangehörige_Gemeinde"},"district":{"key":"13074","name":"Nordwestmecklenburg","type":"Landkreis"},"federalState":{"key":"13","name":"Mecklenburg-Vorpommern"}},{"name":"Raiffeisenring","postalCode":"36137","locality":"Großenlüder","municipality":{"key":"06631011","name":"Großenlüder","type":"Kreisangehörige_Gemeinde"},"district":{"key":"06631","name":"Fulda","type":"Landkreis"},"federalState":{"key":"06","name":"Hessen"}},{"name":"Rechbergstr.","postalCode":"73655","locality":"Plüderhausen","municipality":{"key":"08119055","name":"Plüderhausen","type":"Kreisangehörige_Gemeinde"},"district":{"key":"08119","name":"Rems-Murr-Kreis","type":"Landkreis"},"federalState":{"key":"08","name":"Baden-Württemberg"}},{"name":"Rehhaldenstr.","postalCode":"73655","locality":"Plüderhausen","municipality":{"key":"08119055","name":"Plüderhausen","type":"Kreisangehörige_Gemeinde"},"district":{"key":"08119","name":"Rems-Murr-Kreis","type":"Landkreis"},"federalState":{"key":"08","name":"Baden-Württemberg"}},{"name":"Rehhaldenweg","postalCode":"73655","locality":"Plüderhausen","municipality":{"key":"08119055","name":"Plüderhausen","type":"Kreisangehörige_Gemeinde"},"district":{"key":"08119","name":"Rems-Murr-Kreis","type":"Landkreis"},"federalState":{"key":"08","name":"Baden-Württemberg"}},{"name":"Rehwiese","postalCode":"21379","locality":"Lüdersburg","municipality":{"key":"03355021","name":"Lüdersburg","type":"Kreisangehörige_Gemeinde"},"district":{"key":"03355","name":"Lüneburg","type":"Landkreis"},"federalState":{"key":"03","name":"Niedersachsen"}},{"name":"Reichenberger Str.","postalCode":"36137","locality":"Großenlüder","municipality":{"key":"06631011","name":"Großenlüder","type":"Kreisangehörige_Gemeinde"},"district":{"key":"06631","name":"Fulda","type":"Landkreis"},"federalState":{"key":"06","name":"Hessen"}},{"name":"Reinstorfer Ring","postalCode":"29394","locality":"Lüder","municipality":{"key":"03360013","name":"Lüder","type":"Kreisangehörige_Gemeinde"},"district":{"key":"03360","name":"Uelzen","type":"Landkreis"},"federalState":{"key":"03","name":"Niedersachsen"}},{"name":"Reisersberg","postalCode":"73655","locality":"Plüderhausen","municipality":{"key":"08119055","name":"Plüderhausen","type":"Kreisangehörige_Gemeinde"},"district":{"key":"08119","name":"Rems-Murr-Kreis","type":"Landkreis"},"federalState":{"key":"08","name":"Baden-Württemberg"}},{"name":"Rembrandtstr.","postalCode":"73655","locality":"Plüderhausen","municipality":{"key":"08119055","name":"Plüderhausen","type":"Kreisangehörige_Gemeinde"},"district":{"key":"08119","name":"Rems-Murr-Kreis","type":"Landkreis"},"federalState":{"key":"08","name":"Baden-Württemberg"}},{"name":"Remsstr.","postalCode":"73655","locality":"Plüderhausen","municipality":{"key":"08119055","name":"Plüderhausen","type":"Kreisangehörige_Gemeinde"},"district":{"key":"08119","name":"Rems-Murr-Kreis","type":"Landkreis"},"federalState":{"key":"08","name":"Baden-Württemberg"}},{"name":"Rhönstr.","postalCode":"36137","locality":"Großenlüder","municipality":{"key":"06631011","name":"Großenlüder","type":"Kreisangehörige_Gemeinde"},"district":{"key":"06631","name":"Fulda","type":"Landkreis"},"federalState":{"key":"06","name":"Hessen"}},{"name":"Riehanger","postalCode":"31702","locality":"Lüdersfeld","municipality":{"key":"03257021","name":"Lüdersfeld","type":"Kreisangehörige_Gemeinde"},"district":{"key":"03257","name":"Schaumburg","type":"Landkreis"},"federalState":{"key":"03","name":"Niedersachsen"}},{"name":"Riehweg","postalCode":"31702","locality":"Lüdersfeld","municipality":{"key":"03257021","name":"Lüdersfeld","type":"Kreisangehörige_Gemeinde"},"district":{"key":"03257","name":"Schaumburg","type":"Landkreis"},"federalState":{"key":"03","name":"Niedersachsen"}},{"name":"Rilkeweg","postalCode":"73655","locality":"Plüderhausen","municipality":{"key":"08119055","name":"Plüderhausen","type":"Kreisangehörige_Gemeinde"},"district":{"key":"08119","name":"Rems-Murr-Kreis","type":"Landkreis"},"federalState":{"key":"08","name":"Baden-Württemberg"}},{"name":"Ringweg","postalCode":"36137","locality":"Großenlüder","municipality":{"key":"06631011","name":"Großenlüder","type":"Kreisangehörige_Gemeinde"},"district":{"key":"06631","name":"Fulda","type":"Landkreis"},"federalState":{"key":"06","name":"Hessen"}},{"name":"Rohrbeckweg","postalCode":"73655","locality":"Plüderhausen","municipality":{"key":"08119055","name":"Plüderhausen","type":"Kreisangehörige_Gemeinde"},"district":{"key":"08119","name":"Rems-Murr-Kreis","type":"Landkreis"},"federalState":{"key":"08","name":"Baden-Württemberg"}},{"name":"Röhrsen","postalCode":"29394","locality":"Lüder","municipality":{"key":"03360013","name":"Lüder","type":"Kreisangehörige_Gemeinde"},"district":{"key":"03360","name":"Uelzen","type":"Landkreis"},"federalState":{"key":"03","name":"Niedersachsen"}},{"name":"Röhrser Str.","postalCode":"29394","locality":"Lüder","municipality":{"key":"03360013","name":"Lüder","type":"Kreisangehörige_Gemeinde"},"district":{"key":"03360","name":"Uelzen","type":"Landkreis"},"federalState":{"key":"03","name":"Niedersachsen"}},{"name":"Römersteinweg","postalCode":"73655","locality":"Plüderhausen","municipality":{"key":"08119055","name":"Plüderhausen","type":"Kreisangehörige_Gemeinde"},"district":{"key":"08119","name":"Rems-Murr-Kreis","type":"Landkreis"},"federalState":{"key":"08","name":"Baden-Württemberg"}},{"name":"Roseggerweg","postalCode":"73655","locality":"Plüderhausen","municipality":{"key":"08119055","name":"Plüderhausen","type":"Kreisangehörige_Gemeinde"},"district":{"key":"08119","name":"Rems-Murr-Kreis","type":"Landkreis"},"federalState":{"key":"08","name":"Baden-Württemberg"}},{"name":"Rosengarten","postalCode":"29394","locality":"Lüder","municipality":{"key":"03360013","name":"Lüder","type":"Kreisangehörige_Gemeinde"},"district":{"key":"03360","name":"Uelzen","type":"Landkreis"},"federalState":{"key":"03","name":"Niedersachsen"}},{"name":"Rosenstr.","postalCode":"29394","locality":"Lüder","municipality":{"key":"03360013","name":"Lüder","type":"Kreisangehörige_Gemeinde"},"district":{"key":"03360","name":"Uelzen","type":"Landkreis"},"federalState":{"key":"03","name":"Niedersachsen"}},{"name":"Rosenstr.","postalCode":"73655","locality":"Plüderhausen","municipality":{"key":"08119055","name":"Plüderhausen","type":"Kreisangehörige_Gemeinde"},"district":{"key":"08119","name":"Rems-Murr-Kreis","type":"Landkreis"},"federalState":{"key":"08","name":"Baden-Württemberg"}},{"name":"Rotenberg","postalCode":"73655","locality":"Plüderhausen","municipality":{"key":"08119055","name":"Plüderhausen","type":"Kreisangehörige_Gemeinde"},"district":{"key":"08119","name":"Rems-Murr-Kreis","type":"Landkreis"},"federalState":{"key":"08","name":"Baden-Württemberg"}},{"name":"Rubensweg","postalCode":"73655","locality":"Plüderhausen","municipality":{"key":"08119055","name":"Plüderhausen","type":"Kreisangehörige_Gemeinde"},"district":{"key":"08119","name":"Rems-Murr-Kreis","type":"Landkreis"},"federalState":{"key":"08","name":"Baden-Württemberg"}},{"name":"Ruhmhorstweg","postalCode":"29394","locality":"Lüder","municipality":{"key":"03360013","name":"Lüder","type":"Kreisangehörige_Gemeinde"},"district":{"key":"03360","name":"Uelzen","type":"Landkreis"},"federalState":{"key":"03","name":"Niedersachsen"}},{"name":"Saalenweg","postalCode":"73655","locality":"Plüderhausen","municipality":{"key":"08119055","name":"Plüderhausen","type":"Kreisangehörige_Gemeinde"},"district":{"key":"08119","name":"Rems-Murr-Kreis","type":"Landkreis"},"federalState":{"key":"08","name":"Baden-Württemberg"}},{"name":"Salzschlirfer Str.","postalCode":"36137","locality":"Großenlüder","municipality":{"key":"06631011","name":"Großenlüder","type":"Kreisangehörige_Gemeinde"},"district":{"key":"06631","name":"Fulda","type":"Landkreis"},"federalState":{"key":"06","name":"Hessen"}},{"name":"Sandbuckelweg","postalCode":"73655","locality":"Plüderhausen","municipality":{"key":"08119055","name":"Plüderhausen","type":"Kreisangehörige_Gemeinde"},"district":{"key":"08119","name":"Rems-Murr-Kreis","type":"Landkreis"},"federalState":{"key":"08","name":"Baden-Württemberg"}},{"name":"Sandbühlweg","postalCode":"73655","locality":"Plüderhausen","municipality":{"key":"08119055","name":"Plüderhausen","type":"Kreisangehörige_Gemeinde"},"district":{"key":"08119","name":"Rems-Murr-Kreis","type":"Landkreis"},"federalState":{"key":"08","name":"Baden-Württemberg"}},{"name":"Sandlachsträßle","postalCode":"73655","locality":"Plüderhausen","municipality":{"key":"08119055","name":"Plüderhausen","type":"Kreisangehörige_Gemeinde"},"district":{"key":"08119","name":"Rems-Murr-Kreis","type":"Landkreis"},"federalState":{"key":"08","name":"Baden-Württemberg"}},{"name":"Sandsteinweg","postalCode":"73655","locality":"Plüderhausen","municipality":{"key":"08119055","name":"Plüderhausen","type":"Kreisangehörige_Gemeinde"},"district":{"key":"08119","name":"Rems-Murr-Kreis","type":"Landkreis"},"federalState":{"key":"08","name":"Baden-Württemberg"}},{"name":"Sandweg","postalCode":"23923","locality":"Lüdersdorf","municipality":{"key":"13074049","name":"Lüdersdorf","type":"Kreisangehörige_Gemeinde"},"district":{"key":"13074","name":"Nordwestmecklenburg","type":"Landkreis"},"federalState":{"key":"13","name":"Mecklenburg-Vorpommern"}},{"name":"Sassenweg","postalCode":"29394","locality":"Lüder","municipality":{"key":"03360013","name":"Lüder","type":"Kreisangehörige_Gemeinde"},"district":{"key":"03360","name":"Uelzen","type":"Landkreis"},"federalState":{"key":"03","name":"Niedersachsen"}},{"name":"Scharfe Ecke","postalCode":"36137","locality":"Großenlüder","municipality":{"key":"06631011","name":"Großenlüder","type":"Kreisangehörige_Gemeinde"},"district":{"key":"06631","name":"Fulda","type":"Landkreis"},"federalState":{"key":"06","name":"Hessen"}},{"name":"Schaulstraten","postalCode":"31702","locality":"Lüdersfeld","municipality":{"key":"03257021","name":"Lüdersfeld","type":"Kreisangehörige_Gemeinde"},"district":{"key":"03257","name":"Schaumburg","type":"Landkreis"},"federalState":{"key":"03","name":"Niedersachsen"}},{"name":"Scheenbrandweg","postalCode":"29394","locality":"Lüder","municipality":{"key":"03360013","name":"Lüder","type":"Kreisangehörige_Gemeinde"},"district":{"key":"03360","name":"Uelzen","type":"Landkreis"},"federalState":{"key":"03","name":"Niedersachsen"}},{"name":"Scheffelweg","postalCode":"73655","locality":"Plüderhausen","municipality":{"key":"08119055","name":"Plüderhausen","type":"Kreisangehörige_Gemeinde"},"district":{"key":"08119","name":"Rems-Murr-Kreis","type":"Landkreis"},"federalState":{"key":"08","name":"Baden-Württemberg"}},{"name":"Schellingstr.","postalCode":"73655","locality":"Plüderhausen","municipality":{"key":"08119055","name":"Plüderhausen","type":"Kreisangehörige_Gemeinde"},"district":{"key":"08119","name":"Rems-Murr-Kreis","type":"Landkreis"},"federalState":{"key":"08","name":"Baden-Württemberg"}},{"name":"Schillerstr.","postalCode":"73655","locality":"Plüderhausen","municipality":{"key":"08119055","name":"Plüderhausen","type":"Kreisangehörige_Gemeinde"},"district":{"key":"08119","name":"Rems-Murr-Kreis","type":"Landkreis"},"federalState":{"key":"08","name":"Baden-Württemberg"}},{"name":"Schillerweg","postalCode":"36137","locality":"Großenlüder","municipality":{"key":"06631011","name":"Großenlüder","type":"Kreisangehörige_Gemeinde"},"district":{"key":"06631","name":"Fulda","type":"Landkreis"},"federalState":{"key":"06","name":"Hessen"}},{"name":"Schlangenweg","postalCode":"73655","locality":"Plüderhausen","municipality":{"key":"08119055","name":"Plüderhausen","type":"Kreisangehörige_Gemeinde"},"district":{"key":"08119","name":"Rems-Murr-Kreis","type":"Landkreis"},"federalState":{"key":"08","name":"Baden-Württemberg"}},{"name":"Schlitzer Str.","postalCode":"36137","locality":"Großenlüder","municipality":{"key":"06631011","name":"Großenlüder","type":"Kreisangehörige_Gemeinde"},"district":{"key":"06631","name":"Fulda","type":"Landkreis"},"federalState":{"key":"06","name":"Hessen"}},{"name":"Schlossweg","postalCode":"73655","locality":"Plüderhausen","municipality":{"key":"08119055","name":"Plüderhausen","type":"Kreisangehörige_Gemeinde"},"district":{"key":"08119","name":"Rems-Murr-Kreis","type":"Landkreis"},"federalState":{"key":"08","name":"Baden-Württemberg"}},{"name":"Schmalzhalde","postalCode":"73655","locality":"Plüderhausen","municipality":{"key":"08119055","name":"Plüderhausen","type":"Kreisangehörige_Gemeinde"},"district":{"key":"08119","name":"Rems-Murr-Kreis","type":"Landkreis"},"federalState":{"key":"08","name":"Baden-Württemberg"}},{"name":"Schmerhof","postalCode":"36137","locality":"Großenlüder","municipality":{"key":"06631011","name":"Großenlüder","type":"Kreisangehörige_Gemeinde"},"district":{"key":"06631","name":"Fulda","type":"Landkreis"},"federalState":{"key":"06","name":"Hessen"}},{"name":"Schmerweg","postalCode":"36137","locality":"Großenlüder","municipality":{"key":"06631011","name":"Großenlüder","type":"Kreisangehörige_Gemeinde"},"district":{"key":"06631","name":"Fulda","type":"Landkreis"},"federalState":{"key":"06","name":"Hessen"}},{"name":"Schneeberg","postalCode":"73655","locality":"Plüderhausen","municipality":{"key":"08119055","name":"Plüderhausen","type":"Kreisangehörige_Gemeinde"},"district":{"key":"08119","name":"Rems-Murr-Kreis","type":"Landkreis"},"federalState":{"key":"08","name":"Baden-Württemberg"}},{"name":"Schneiderhof-Ausfahrt","postalCode":"73655","locality":"Plüderhausen","municipality":{"key":"08119055","name":"Plüderhausen","type":"Kreisangehörige_Gemeinde"},"district":{"key":"08119","name":"Rems-Murr-Kreis","type":"Landkreis"},"federalState":{"key":"08","name":"Baden-Württemberg"}},{"name":"Schnepfenweg","postalCode":"36137","locality":"Großenlüder","municipality":{"key":"06631011","name":"Großenlüder","type":"Kreisangehörige_Gemeinde"},"district":{"key":"06631","name":"Fulda","type":"Landkreis"},"federalState":{"key":"06","name":"Hessen"}},{"name":"Schubertstr.","postalCode":"73655","locality":"Plüderhausen","municipality":{"key":"08119055","name":"Plüderhausen","type":"Kreisangehörige_Gemeinde"},"district":{"key":"08119","name":"Rems-Murr-Kreis","type":"Landkreis"},"federalState":{"key":"08","name":"Baden-Württemberg"}},{"name":"Schulstr.","postalCode":"29394","locality":"Lüder","municipality":{"key":"03360013","name":"Lüder","type":"Kreisangehörige_Gemeinde"},"district":{"key":"03360","name":"Uelzen","type":"Landkreis"},"federalState":{"key":"03","name":"Niedersachsen"}},{"name":"Schulstr.","postalCode":"36137","locality":"Großenlüder","municipality":{"key":"06631011","name":"Großenlüder","type":"Kreisangehörige_Gemeinde"},"district":{"key":"06631","name":"Fulda","type":"Landkreis"},"federalState":{"key":"06","name":"Hessen"}},{"name":"Schulstr.","postalCode":"73655","locality":"Plüderhausen","municipality":{"key":"08119055","name":"Plüderhausen","type":"Kreisangehörige_Gemeinde"},"district":{"key":"08119","name":"Rems-Murr-Kreis","type":"Landkreis"},"federalState":{"key":"08","name":"Baden-Württemberg"}},{"name":"Schumannweg","postalCode":"73655","locality":"Plüderhausen","municipality":{"key":"08119055","name":"Plüderhausen","type":"Kreisangehörige_Gemeinde"},"district":{"key":"08119","name":"Rems-Murr-Kreis","type":"Landkreis"},"federalState":{"key":"08","name":"Baden-Württemberg"}},{"name":"Schurwaldstr.","postalCode":"73655","locality":"Plüderhausen","municipality":{"key":"08119055","name":"Plüderhausen","type":"Kreisangehörige_Gemeinde"},"district":{"key":"08119","name":"Rems-Murr-Kreis","type":"Landkreis"},"federalState":{"key":"08","name":"Baden-Württemberg"}},{"name":"Schützenstr.","postalCode":"29394","locality":"Lüder","municipality":{"key":"03360013","name":"Lüder","type":"Kreisangehörige_Gemeinde"},"district":{"key":"03360","name":"Uelzen","type":"Landkreis"},"federalState":{"key":"03","name":"Niedersachsen"}},{"name":"Schützenweg","postalCode":"73655","locality":"Plüderhausen","municipality":{"key":"08119055","name":"Plüderhausen","type":"Kreisangehörige_Gemeinde"},"district":{"key":"08119","name":"Rems-Murr-Kreis","type":"Landkreis"},"federalState":{"key":"08","name":"Baden-Württemberg"}},{"name":"Schwabweg","postalCode":"73655","locality":"Plüderhausen","municipality":{"key":"08119055","name":"Plüderhausen","type":"Kreisangehörige_Gemeinde"},"district":{"key":"08119","name":"Rems-Murr-Kreis","type":"Landkreis"},"federalState":{"key":"08","name":"Baden-Württemberg"}},{"name":"Schwalbenweg","postalCode":"73655","locality":"Plüderhausen","municipality":{"key":"08119055","name":"Plüderhausen","type":"Kreisangehörige_Gemeinde"},"district":{"key":"08119","name":"Rems-Murr-Kreis","type":"Landkreis"},"federalState":{"key":"08","name":"Baden-Württemberg"}},{"name":"Schwanfeld","postalCode":"73655","locality":"Plüderhausen","municipality":{"key":"08119055","name":"Plüderhausen","type":"Kreisangehörige_Gemeinde"},"district":{"key":"08119","name":"Rems-Murr-Kreis","type":"Landkreis"},"federalState":{"key":"08","name":"Baden-Württemberg"}},{"name":"Schwarzes Wegle","postalCode":"73655","locality":"Plüderhausen","municipality":{"key":"08119055","name":"Plüderhausen","type":"Kreisangehörige_Gemeinde"},"district":{"key":"08119","name":"Rems-Murr-Kreis","type":"Landkreis"},"federalState":{"key":"08","name":"Baden-Württemberg"}},{"name":"Schweizer Weg","postalCode":"73655","locality":"Plüderhausen","municipality":{"key":"08119055","name":"Plüderhausen","type":"Kreisangehörige_Gemeinde"},"district":{"key":"08119","name":"Rems-Murr-Kreis","type":"Landkreis"},"federalState":{"key":"08","name":"Baden-Württemberg"}},{"name":"Schweizerwiesen","postalCode":"73655","locality":"Plüderhausen","municipality":{"key":"08119055","name":"Plüderhausen","type":"Kreisangehörige_Gemeinde"},"district":{"key":"08119","name":"Rems-Murr-Kreis","type":"Landkreis"},"federalState":{"key":"08","name":"Baden-Württemberg"}},{"name":"Schwenkkuhlenweg","postalCode":"29394","locality":"Lüder","municipality":{"key":"03360013","name":"Lüder","type":"Kreisangehörige_Gemeinde"},"district":{"key":"03360","name":"Uelzen","type":"Landkreis"},"federalState":{"key":"03","name":"Niedersachsen"}},{"name":"Sebastianstr.","postalCode":"36137","locality":"Großenlüder","municipality":{"key":"06631011","name":"Großenlüder","type":"Kreisangehörige_Gemeinde"},"district":{"key":"06631","name":"Fulda","type":"Landkreis"},"federalState":{"key":"06","name":"Hessen"}},{"name":"Siedlung Herrnburg","postalCode":"23923","locality":"Lüdersdorf","municipality":{"key":"13074049","name":"Lüdersdorf","type":"Kreisangehörige_Gemeinde"},"district":{"key":"13074","name":"Nordwestmecklenburg","type":"Landkreis"},"federalState":{"key":"13","name":"Mecklenburg-Vorpommern"}},{"name":"Siedlungsstr.","postalCode":"18314","locality":"Lüdershagen","municipality":{"key":"13073053","name":"Lüdershagen","type":"Kreisangehörige_Gemeinde"},"district":{"key":"13073","name":"Vorpommern-Rügen","type":"Landkreis"},"federalState":{"key":"13","name":"Mecklenburg-Vorpommern"}},{"name":"Siedlung Wahrsow","postalCode":"23923","locality":"Lüdersdorf","municipality":{"key":"13074049","name":"Lüdersdorf","type":"Kreisangehörige_Gemeinde"},"district":{"key":"13074","name":"Nordwestmecklenburg","type":"Landkreis"},"federalState":{"key":"13","name":"Mecklenburg-Vorpommern"}},{"name":"Silcherweg","postalCode":"73655","locality":"Plüderhausen","municipality":{"key":"08119055","name":"Plüderhausen","type":"Kreisangehörige_Gemeinde"},"district":{"key":"08119","name":"Rems-Murr-Kreis","type":"Landkreis"},"federalState":{"key":"08","name":"Baden-Württemberg"}},{"name":"Sommerwandweg","postalCode":"73655","locality":"Plüderhausen","municipality":{"key":"08119055","name":"Plüderhausen","type":"Kreisangehörige_Gemeinde"},"district":{"key":"08119","name":"Rems-Murr-Kreis","type":"Landkreis"},"federalState":{"key":"08","name":"Baden-Württemberg"}},{"name":"Sommerweg","postalCode":"36137","locality":"Großenlüder","municipality":{"key":"06631011","name":"Großenlüder","type":"Kreisangehörige_Gemeinde"},"district":{"key":"06631","name":"Fulda","type":"Landkreis"},"federalState":{"key":"06","name":"Hessen"}},{"name":"Söndle","postalCode":"73655","locality":"Plüderhausen","municipality":{"key":"08119055","name":"Plüderhausen","type":"Kreisangehörige_Gemeinde"},"district":{"key":"08119","name":"Rems-Murr-Kreis","type":"Landkreis"},"federalState":{"key":"08","name":"Baden-Württemberg"}},{"name":"Sonnenhalde","postalCode":"73655","locality":"Plüderhausen","municipality":{"key":"08119055","name":"Plüderhausen","type":"Kreisangehörige_Gemeinde"},"district":{"key":"08119","name":"Rems-Murr-Kreis","type":"Landkreis"},"federalState":{"key":"08","name":"Baden-Württemberg"}},{"name":"Staakenweg","postalCode":"29394","locality":"Lüder","municipality":{"key":"03360013","name":"Lüder","type":"Kreisangehörige_Gemeinde"},"district":{"key":"03360","name":"Uelzen","type":"Landkreis"},"federalState":{"key":"03","name":"Niedersachsen"}},{"name":"Staunsfeld","postalCode":"23923","locality":"Lüdersdorf","municipality":{"key":"13074049","name":"Lüdersdorf","type":"Kreisangehörige_Gemeinde"},"district":{"key":"13074","name":"Nordwestmecklenburg","type":"Landkreis"},"federalState":{"key":"13","name":"Mecklenburg-Vorpommern"}},{"name":"Talstr.","postalCode":"73655","locality":"Plüderhausen","municipality":{"key":"08119055","name":"Plüderhausen","type":"Kreisangehörige_Gemeinde"},"district":{"key":"08119","name":"Rems-Murr-Kreis","type":"Landkreis"},"federalState":{"key":"08","name":"Baden-Württemberg"}},{"name":"Tannenkamp","postalCode":"21379","locality":"Lüdersburg","municipality":{"key":"03355021","name":"Lüdersburg","type":"Kreisangehörige_Gemeinde"},"district":{"key":"03355","name":"Lüneburg","type":"Landkreis"},"federalState":{"key":"03","name":"Niedersachsen"}},{"name":"Tannenweg","postalCode":"36137","locality":"Großenlüder","municipality":{"key":"06631011","name":"Großenlüder","type":"Kreisangehörige_Gemeinde"},"district":{"key":"06631","name":"Fulda","type":"Landkreis"},"federalState":{"key":"06","name":"Hessen"}},{"name":"Teckweg","postalCode":"73655","locality":"Plüderhausen","municipality":{"key":"08119055","name":"Plüderhausen","type":"Kreisangehörige_Gemeinde"},"district":{"key":"08119","name":"Rems-Murr-Kreis","type":"Landkreis"},"federalState":{"key":"08","name":"Baden-Württemberg"}},{"name":"Teichweg","postalCode":"18314","locality":"Lüdershagen","municipality":{"key":"13073053","name":"Lüdershagen","type":"Kreisangehörige_Gemeinde"},"district":{"key":"13073","name":"Vorpommern-Rügen","type":"Landkreis"},"federalState":{"key":"13","name":"Mecklenburg-Vorpommern"}},{"name":"Thomas-Mann-Str.","postalCode":"73655","locality":"Plüderhausen","municipality":{"key":"08119055","name":"Plüderhausen","type":"Kreisangehörige_Gemeinde"},"district":{"key":"08119","name":"Rems-Murr-Kreis","type":"Landkreis"},"federalState":{"key":"08","name":"Baden-Württemberg"}},{"name":"Tiefenfurter Weg","postalCode":"36137","locality":"Großenlüder","municipality":{"key":"06631011","name":"Großenlüder","type":"Kreisangehörige_Gemeinde"},"district":{"key":"06631","name":"Fulda","type":"Landkreis"},"federalState":{"key":"06","name":"Hessen"}},{"name":"Tränkenhof","postalCode":"18314","locality":"Lüdershagen","municipality":{"key":"13073053","name":"Lüdershagen","type":"Kreisangehörige_Gemeinde"},"district":{"key":"13073","name":"Vorpommern-Rügen","type":"Landkreis"},"federalState":{"key":"13","name":"Mecklenburg-Vorpommern"}},{"name":"Tulpenstr.","postalCode":"73655","locality":"Plüderhausen","municipality":{"key":"08119055","name":"Plüderhausen","type":"Kreisangehörige_Gemeinde"},"district":{"key":"08119","name":"Rems-Murr-Kreis","type":"Landkreis"},"federalState":{"key":"08","name":"Baden-Württemberg"}},{"name":"Twiete","postalCode":"29394","locality":"Lüder","municipality":{"key":"03360013","name":"Lüder","type":"Kreisangehörige_Gemeinde"},"district":{"key":"03360","name":"Uelzen","type":"Landkreis"},"federalState":{"key":"03","name":"Niedersachsen"}},{"name":"Uferweg","postalCode":"73655","locality":"Plüderhausen","municipality":{"key":"08119055","name":"Plüderhausen","type":"Kreisangehörige_Gemeinde"},"district":{"key":"08119","name":"Rems-Murr-Kreis","type":"Landkreis"},"federalState":{"key":"08","name":"Baden-Württemberg"}},{"name":"Uffhäuser Str.","postalCode":"36137","locality":"Großenlüder","municipality":{"key":"06631011","name":"Großenlüder","type":"Kreisangehörige_Gemeinde"},"district":{"key":"06631","name":"Fulda","type":"Landkreis"},"federalState":{"key":"06","name":"Hessen"}},{"name":"Uhlandweg","postalCode":"73655","locality":"Plüderhausen","municipality":{"key":"08119055","name":"Plüderhausen","type":"Kreisangehörige_Gemeinde"},"district":{"key":"08119","name":"Rems-Murr-Kreis","type":"Landkreis"},"federalState":{"key":"08","name":"Baden-Württemberg"}},{"name":"Ulmenweg","postalCode":"73655","locality":"Plüderhausen","municipality":{"key":"08119055","name":"Plüderhausen","type":"Kreisangehörige_Gemeinde"},"district":{"key":"08119","name":"Rems-Murr-Kreis","type":"Landkreis"},"federalState":{"key":"08","name":"Baden-Württemberg"}},{"name":"Ungerhauweg","postalCode":"73642","locality":"Plüderhausen","municipality":{"key":"08119055","name":"Plüderhausen","type":"Kreisangehörige_Gemeinde"},"district":{"key":"08119","name":"Rems-Murr-Kreis","type":"Landkreis"},"federalState":{"key":"08","name":"Baden-Württemberg"}},{"name":"Ungerhauweg","postalCode":"73655","locality":"Plüderhausen","municipality":{"key":"08119055","name":"Plüderhausen","type":"Kreisangehörige_Gemeinde"},"district":{"key":"08119","name":"Rems-Murr-Kreis","type":"Landkreis"},"federalState":{"key":"08","name":"Baden-Württemberg"}},{"name":"Untere Kirchgasse","postalCode":"73655","locality":"Plüderhausen","municipality":{"key":"08119055","name":"Plüderhausen","type":"Kreisangehörige_Gemeinde"},"district":{"key":"08119","name":"Rems-Murr-Kreis","type":"Landkreis"},"federalState":{"key":"08","name":"Baden-Württemberg"}},{"name":"Unteres Staunsfeld","postalCode":"23923","locality":"Lüdersdorf","municipality":{"key":"13074049","name":"Lüdersdorf","type":"Kreisangehörige_Gemeinde"},"district":{"key":"13074","name":"Nordwestmecklenburg","type":"Landkreis"},"federalState":{"key":"13","name":"Mecklenburg-Vorpommern"}},{"name":"Untere Str.","postalCode":"31702","locality":"Lüdersfeld","municipality":{"key":"03257021","name":"Lüdersfeld","type":"Kreisangehörige_Gemeinde"},"district":{"key":"03257","name":"Schaumburg","type":"Landkreis"},"federalState":{"key":"03","name":"Niedersachsen"}},{"name":"Urbacher Weg","postalCode":"73655","locality":"Plüderhausen","municipality":{"key":"08119055","name":"Plüderhausen","type":"Kreisangehörige_Gemeinde"},"district":{"key":"08119","name":"Rems-Murr-Kreis","type":"Landkreis"},"federalState":{"key":"08","name":"Baden-Württemberg"}},{"name":"Veilchenweg","postalCode":"73655","locality":"Plüderhausen","municipality":{"key":"08119055","name":"Plüderhausen","type":"Kreisangehörige_Gemeinde"},"district":{"key":"08119","name":"Rems-Murr-Kreis","type":"Landkreis"},"federalState":{"key":"08","name":"Baden-Württemberg"}},{"name":"Vemelsruh","postalCode":"36137","locality":"Großenlüder","municipality":{"key":"06631011","name":"Großenlüder","type":"Kreisangehörige_Gemeinde"},"district":{"key":"06631","name":"Fulda","type":"Landkreis"},"federalState":{"key":"06","name":"Hessen"}},{"name":"Vemelweg","postalCode":"36137","locality":"Großenlüder","municipality":{"key":"06631011","name":"Großenlüder","type":"Kreisangehörige_Gemeinde"},"district":{"key":"06631","name":"Fulda","type":"Landkreis"},"federalState":{"key":"06","name":"Hessen"}},{"name":"Vogelbauerebeneweg","postalCode":"73655","locality":"Plüderhausen","municipality":{"key":"08119055","name":"Plüderhausen","type":"Kreisangehörige_Gemeinde"},"district":{"key":"08119","name":"Rems-Murr-Kreis","type":"Landkreis"},"federalState":{"key":"08","name":"Baden-Württemberg"}},{"name":"Vogelsbergstr.","postalCode":"36137","locality":"Großenlüder","municipality":{"key":"06631011","name":"Großenlüder","type":"Kreisangehörige_Gemeinde"},"district":{"key":"06631","name":"Fulda","type":"Landkreis"},"federalState":{"key":"06","name":"Hessen"}},{"name":"Von-Humboldt-Str.","postalCode":"36137","locality":"Großenlüder","municipality":{"key":"06631011","name":"Großenlüder","type":"Kreisangehörige_Gemeinde"},"district":{"key":"06631","name":"Fulda","type":"Landkreis"},"federalState":{"key":"06","name":"Hessen"}},{"name":"Vornhagen","postalCode":"31702","locality":"Lüdersfeld","municipality":{"key":"03257021","name":"Lüdersfeld","type":"Kreisangehörige_Gemeinde"},"district":{"key":"03257","name":"Schaumburg","type":"Landkreis"},"federalState":{"key":"03","name":"Niedersachsen"}},{"name":"Vornhagen Siedlung","postalCode":"31702","locality":"Lüdersfeld","municipality":{"key":"03257021","name":"Lüdersfeld","type":"Kreisangehörige_Gemeinde"},"district":{"key":"03257","name":"Schaumburg","type":"Landkreis"},"federalState":{"key":"03","name":"Niedersachsen"}},{"name":"Wagnerstr.","postalCode":"73655","locality":"Plüderhausen","municipality":{"key":"08119055","name":"Plüderhausen","type":"Kreisangehörige_Gemeinde"},"district":{"key":"08119","name":"Rems-Murr-Kreis","type":"Landkreis"},"federalState":{"key":"08","name":"Baden-Württemberg"}},{"name":"Wahlenweg","postalCode":"73655","locality":"Plüderhausen","municipality":{"key":"08119055","name":"Plüderhausen","type":"Kreisangehörige_Gemeinde"},"district":{"key":"08119","name":"Rems-Murr-Kreis","type":"Landkreis"},"federalState":{"key":"08","name":"Baden-Württemberg"}},{"name":"Wahlsdorfer Weg","postalCode":"23923","locality":"Lüdersdorf","municipality":{"key":"13074049","name":"Lüdersdorf","type":"Kreisangehörige_Gemeinde"},"district":{"key":"13074","name":"Nordwestmecklenburg","type":"Landkreis"},"federalState":{"key":"13","name":"Mecklenburg-Vorpommern"}},{"name":"Waldlehrpfad Bollheide","postalCode":"36137","locality":"Großenlüder","municipality":{"key":"06631011","name":"Großenlüder","type":"Kreisangehörige_Gemeinde"},"district":{"key":"06631","name":"Fulda","type":"Landkreis"},"federalState":{"key":"06","name":"Hessen"}},{"name":"Waldstr.","postalCode":"18314","locality":"Lüdershagen","municipality":{"key":"13073053","name":"Lüdershagen","type":"Kreisangehörige_Gemeinde"},"district":{"key":"13073","name":"Vorpommern-Rügen","type":"Landkreis"},"federalState":{"key":"13","name":"Mecklenburg-Vorpommern"}},{"name":"walkerbachertraufweg","postalCode":"73655","locality":"Plüderhausen","municipality":{"key":"08119055","name":"Plüderhausen","type":"Kreisangehörige_Gemeinde"},"district":{"key":"08119","name":"Rems-Murr-Kreis","type":"Landkreis"},"federalState":{"key":"08","name":"Baden-Württemberg"}},{"name":"Walkersbacherwandweg","postalCode":"73655","locality":"Plüderhausen","municipality":{"key":"08119055","name":"Plüderhausen","type":"Kreisangehörige_Gemeinde"},"district":{"key":"08119","name":"Rems-Murr-Kreis","type":"Landkreis"},"federalState":{"key":"08","name":"Baden-Württemberg"}},{"name":"Wallweg","postalCode":"36137","locality":"Großenlüder","municipality":{"key":"06631011","name":"Großenlüder","type":"Kreisangehörige_Gemeinde"},"district":{"key":"06631","name":"Fulda","type":"Landkreis"},"federalState":{"key":"06","name":"Hessen"}},{"name":"Wallweg nach Klein-Heilig-Kreuz","postalCode":"36137","locality":"Großenlüder","municipality":{"key":"06631011","name":"Großenlüder","type":"Kreisangehörige_Gemeinde"},"district":{"key":"06631","name":"Fulda","type":"Landkreis"},"federalState":{"key":"06","name":"Hessen"}},{"name":"Wasserbergweg","postalCode":"73655","locality":"Plüderhausen","municipality":{"key":"08119055","name":"Plüderhausen","type":"Kreisangehörige_Gemeinde"},"district":{"key":"08119","name":"Rems-Murr-Kreis","type":"Landkreis"},"federalState":{"key":"08","name":"Baden-Württemberg"}},{"name":"Weberstr.","postalCode":"73655","locality":"Plüderhausen","municipality":{"key":"08119055","name":"Plüderhausen","type":"Kreisangehörige_Gemeinde"},"district":{"key":"08119","name":"Rems-Murr-Kreis","type":"Landkreis"},"federalState":{"key":"08","name":"Baden-Württemberg"}},{"name":"Weg zum Forellensee","postalCode":"23923","locality":"Lüdersdorf","municipality":{"key":"13074049","name":"Lüdersdorf","type":"Kreisangehörige_Gemeinde"},"district":{"key":"13074","name":"Nordwestmecklenburg","type":"Landkreis"},"federalState":{"key":"13","name":"Mecklenburg-Vorpommern"}},{"name":"Weidenweg","postalCode":"18314","locality":"Lüdershagen","municipality":{"key":"13073053","name":"Lüdershagen","type":"Kreisangehörige_Gemeinde"},"district":{"key":"13073","name":"Vorpommern-Rügen","type":"Landkreis"},"federalState":{"key":"13","name":"Mecklenburg-Vorpommern"}},{"name":"Weißdornweg","postalCode":"23923","locality":"Lüdersdorf","municipality":{"key":"13074049","name":"Lüdersdorf","type":"Kreisangehörige_Gemeinde"},"district":{"key":"13074","name":"Nordwestmecklenburg","type":"Landkreis"},"federalState":{"key":"13","name":"Mecklenburg-Vorpommern"}},{"name":"Weitmarser Sträßchen","postalCode":"73655","locality":"Plüderhausen","municipality":{"key":"08119055","name":"Plüderhausen","type":"Kreisangehörige_Gemeinde"},"district":{"key":"08119","name":"Rems-Murr-Kreis","type":"Landkreis"},"federalState":{"key":"08","name":"Baden-Württemberg"}},{"name":"Weitmarserweg","postalCode":"73655","locality":"Plüderhausen","municipality":{"key":"08119055","name":"Plüderhausen","type":"Kreisangehörige_Gemeinde"},"district":{"key":"08119","name":"Rems-Murr-Kreis","type":"Landkreis"},"federalState":{"key":"08","name":"Baden-Württemberg"}},{"name":"Wellsgrundweg","postalCode":"36137","locality":"Großenlüder","municipality":{"key":"06631011","name":"Großenlüder","type":"Kreisangehörige_Gemeinde"},"district":{"key":"06631","name":"Fulda","type":"Landkreis"},"federalState":{"key":"06","name":"Hessen"}},{"name":"Welzheimer Str.","postalCode":"73655","locality":"Plüderhausen","municipality":{"key":"08119055","name":"Plüderhausen","type":"Kreisangehörige_Gemeinde"},"district":{"key":"08119","name":"Rems-Murr-Kreis","type":"Landkreis"},"federalState":{"key":"08","name":"Baden-Württemberg"}},{"name":"Westweg","postalCode":"73655","locality":"Plüderhausen","municipality":{"key":"08119055","name":"Plüderhausen","type":"Kreisangehörige_Gemeinde"},"district":{"key":"08119","name":"Rems-Murr-Kreis","type":"Landkreis"},"federalState":{"key":"08","name":"Baden-Württemberg"}},{"name":"Wielandweg","postalCode":"73655","locality":"Plüderhausen","municipality":{"key":"08119055","name":"Plüderhausen","type":"Kreisangehörige_Gemeinde"},"district":{"key":"08119","name":"Rems-Murr-Kreis","type":"Landkreis"},"federalState":{"key":"08","name":"Baden-Württemberg"}},{"name":"Wiesenring","postalCode":"23923","locality":"Lüdersdorf","municipality":{"key":"13074049","name":"Lüdersdorf","type":"Kreisangehörige_Gemeinde"},"district":{"key":"13074","name":"Nordwestmecklenburg","type":"Landkreis"},"federalState":{"key":"13","name":"Mecklenburg-Vorpommern"}},{"name":"Wiesenweg","postalCode":"29394","locality":"Lüder","municipality":{"key":"03360013","name":"Lüder","type":"Kreisangehörige_Gemeinde"},"district":{"key":"03360","name":"Uelzen","type":"Landkreis"},"federalState":{"key":"03","name":"Niedersachsen"}},{"name":"Wiesenweg","postalCode":"36137","locality":"Großenlüder","municipality":{"key":"06631011","name":"Großenlüder","type":"Kreisangehörige_Gemeinde"},"district":{"key":"06631","name":"Fulda","type":"Landkreis"},"federalState":{"key":"06","name":"Hessen"}},{"name":"Wildruhezone","postalCode":"36137","locality":"Großenlüder","municipality":{"key":"06631011","name":"Großenlüder","type":"Kreisangehörige_Gemeinde"},"district":{"key":"06631","name":"Fulda","type":"Landkreis"},"federalState":{"key":"06","name":"Hessen"}},{"name":"Wilhelm-Bahmüller-Str.","postalCode":"73655","locality":"Plüderhausen","municipality":{"key":"08119055","name":"Plüderhausen","type":"Kreisangehörige_Gemeinde"},"district":{"key":"08119","name":"Rems-Murr-Kreis","type":"Landkreis"},"federalState":{"key":"08","name":"Baden-Württemberg"}},{"name":"Wilhelm-Stoll-Ring","postalCode":"23923","locality":"Lüdersdorf","municipality":{"key":"13074049","name":"Lüdersdorf","type":"Kreisangehörige_Gemeinde"},"district":{"key":"13074","name":"Nordwestmecklenburg","type":"Landkreis"},"federalState":{"key":"13","name":"Mecklenburg-Vorpommern"}},{"name":"Wittingener Berg","postalCode":"29394","locality":"Lüder","municipality":{"key":"03360013","name":"Lüder","type":"Kreisangehörige_Gemeinde"},"district":{"key":"03360","name":"Uelzen","type":"Landkreis"},"federalState":{"key":"03","name":"Niedersachsen"}},{"name":"Wittumhof","postalCode":"73655","locality":"Plüderhausen","municipality":{"key":"08119055","name":"Plüderhausen","type":"Kreisangehörige_Gemeinde"},"district":{"key":"08119","name":"Rems-Murr-Kreis","type":"Landkreis"},"federalState":{"key":"08","name":"Baden-Württemberg"}},{"name":"Wulverlohweg","postalCode":"29394","locality":"Lüder","municipality":{"key":"03360013","name":"Lüder","type":"Kreisangehörige_Gemeinde"},"district":{"key":"03360","name":"Uelzen","type":"Landkreis"},"federalState":{"key":"03","name":"Niedersachsen"}},{"name":"Wurmgäßchen","postalCode":"36137","locality":"Großenlüder","municipality":{"key":"06631011","name":"Großenlüder","type":"Kreisangehörige_Gemeinde"},"district":{"key":"06631","name":"Fulda","type":"Landkreis"},"federalState":{"key":"06","name":"Hessen"}},{"name":"Zabershöfer Weg","postalCode":"36137","locality":"Großenlüder","municipality":{"key":"06631011","name":"Großenlüder","type":"Kreisangehörige_Gemeinde"},"district":{"key":"06631","name":"Fulda","type":"Landkreis"},"federalState":{"key":"06","name":"Hessen"}},{"name":"Zehntgasse","postalCode":"73655","locality":"Plüderhausen","municipality":{"key":"08119055","name":"Plüderhausen","type":"Kreisangehörige_Gemeinde"},"district":{"key":"08119","name":"Rems-Murr-Kreis","type":"Landkreis"},"federalState":{"key":"08","name":"Baden-Württemberg"}},{"name":"Zeisigweg","postalCode":"73655","locality":"Plüderhausen","municipality":{"key":"08119055","name":"Plüderhausen","type":"Kreisangehörige_Gemeinde"},"district":{"key":"08119","name":"Rems-Murr-Kreis","type":"Landkreis"},"federalState":{"key":"08","name":"Baden-Württemberg"}},{"name":"Zeppelinstr.","postalCode":"73655","locality":"Plüderhausen","municipality":{"key":"08119055","name":"Plüderhausen","type":"Kreisangehörige_Gemeinde"},"district":{"key":"08119","name":"Rems-Murr-Kreis","type":"Landkreis"},"federalState":{"key":"08","name":"Baden-Württemberg"}},{"name":"Zum Atzmannstein","postalCode":"36137","locality":"Großenlüder","municipality":{"key":"06631011","name":"Großenlüder","type":"Kreisangehörige_Gemeinde"},"district":{"key":"06631","name":"Fulda","type":"Landkreis"},"federalState":{"key":"06","name":"Hessen"}},{"name":"Zum Lehnerz","postalCode":"36137","locality":"Großenlüder","municipality":{"key":"06631011","name":"Großenlüder","type":"Kreisangehörige_Gemeinde"},"district":{"key":"06631","name":"Fulda","type":"Landkreis"},"federalState":{"key":"06","name":"Hessen"}},{"name":"Zum Nikolausbrunnen","postalCode":"36137","locality":"Großenlüder","municipality":{"key":"06631011","name":"Großenlüder","type":"Kreisangehörige_Gemeinde"},"district":{"key":"06631","name":"Fulda","type":"Landkreis"},"federalState":{"key":"06","name":"Hessen"}},{"name":"Zum Ringofen","postalCode":"36137","locality":"Großenlüder","municipality":{"key":"06631011","name":"Großenlüder","type":"Kreisangehörige_Gemeinde"},"district":{"key":"06631","name":"Fulda","type":"Landkreis"},"federalState":{"key":"06","name":"Hessen"}},{"name":"Zum Sesselsgraben","postalCode":"36137","locality":"Großenlüder","municipality":{"key":"06631011","name":"Großenlüder","type":"Kreisangehörige_Gemeinde"},"district":{"key":"06631","name":"Fulda","type":"Landkreis"},"federalState":{"key":"06","name":"Hessen"}},{"name":"Zur Heide","postalCode":"18314","locality":"Lüdershagen","municipality":{"key":"13073053","name":"Lüdershagen","type":"Kreisangehörige_Gemeinde"},"district":{"key":"13073","name":"Vorpommern-Rügen","type":"Landkreis"},"federalState":{"key":"13","name":"Mecklenburg-Vorpommern"}},{"name":"Zur kalten Lüder","postalCode":"36137","locality":"Großenlüder","municipality":{"key":"06631011","name":"Großenlüder","type":"Kreisangehörige_Gemeinde"},"district":{"key":"06631","name":"Fulda","type":"Landkreis"},"federalState":{"key":"06","name":"Hessen"}},{"name":"Zur Winterliede","postalCode":"36137","locality":"Großenlüder","municipality":{"key":"06631011","name":"Großenlüder","type":"Kreisangehörige_Gemeinde"},"district":{"key":"06631","name":"Fulda","type":"Landkreis"},"federalState":{"key":"06","name":"Hessen"}},{"name":"Öttlinsgasse","postalCode":"73655","locality":"Plüderhausen","municipality":{"key":"08119055","name":"Plüderhausen","type":"Kreisangehörige_Gemeinde"},"district":{"key":"08119","name":"Rems-Murr-Kreis","type":"Landkreis"},"federalState":{"key":"08","name":"Baden-Württemberg"}},{"name":"Üllershäuserweg","postalCode":"36137","locality":"Großenlüder","municipality":{"key":"06631011","name":"Großenlüder","type":"Kreisangehörige_Gemeinde"},"district":{"key":"06631","name":"Fulda","type":"Landkreis"},"federalState":{"key":"06","name":"Hessen"}},]