[{"name":"Alte Poststr.","postalCode":"54636","locality":"Oberweiler","municipality":{"key":"07232098","name":"Oberweiler","type":"Kreisangehörige_Gemeinde"},"district":{"key":"07232","name":"Eifelkreis Bitburg-Prüm","type":"Landkreis"},"federalState":{"key":"07","name":"Rheinland-Pfalz"}},{"name":"Auf der Weide","postalCode":"67752","locality":"Oberweiler-Tiefenbach","municipality":{"key":"07336073","name":"Oberweiler-Tiefenbach","type":"Kreisangehörige_Gemeinde"},"district":{"key":"07336","name":"Kusel","type":"Landkreis"},"federalState":{"key":"07","name":"Rheinland-Pfalz"}},{"name":"Bergstr.","postalCode":"54636","locality":"Oberweiler","municipality":{"key":"07232098","name":"Oberweiler","type":"Kreisangehörige_Gemeinde"},"district":{"key":"07232","name":"Eifelkreis Bitburg-Prüm","type":"Landkreis"},"federalState":{"key":"07","name":"Rheinland-Pfalz"}},{"name":"Bitburger Str.","postalCode":"54636","locality":"Oberweiler","municipality":{"key":"07232098","name":"Oberweiler","type":"Kreisangehörige_Gemeinde"},"district":{"key":"07232","name":"Eifelkreis Bitburg-Prüm","type":"Landkreis"},"federalState":{"key":"07","name":"Rheinland-Pfalz"}},{"name":"Brückenstr.","postalCode":"67756","locality":"Oberweiler im Tal","municipality":{"key":"07336072","name":"Oberweiler im Tal","type":"Kreisangehörige_Gemeinde"},"district":{"key":"07336","name":"Kusel","type":"Landkreis"},"federalState":{"key":"07","name":"Rheinland-Pfalz"}},{"name":"Flurstr.","postalCode":"67752","locality":"Oberweiler-Tiefenbach","municipality":{"key":"07336073","name":"Oberweiler-Tiefenbach","type":"Kreisangehörige_Gemeinde"},"district":{"key":"07336","name":"Kusel","type":"Landkreis"},"federalState":{"key":"07","name":"Rheinland-Pfalz"}},{"name":"Hauptstr.","postalCode":"54636","locality":"Oberweiler","municipality":{"key":"07232098","name":"Oberweiler","type":"Kreisangehörige_Gemeinde"},"district":{"key":"07232","name":"Eifelkreis Bitburg-Prüm","type":"Landkreis"},"federalState":{"key":"07","name":"Rheinland-Pfalz"}},{"name":"Hauptstr.","postalCode":"67752","locality":"Oberweiler-Tiefenbach","municipality":{"key":"07336073","name":"Oberweiler-Tiefenbach","type":"Kreisangehörige_Gemeinde"},"district":{"key":"07336","name":"Kusel","type":"Landkreis"},"federalState":{"key":"07","name":"Rheinland-Pfalz"}},{"name":"Hauptstr.","postalCode":"67756","locality":"Oberweiler im Tal","municipality":{"key":"07336072","name":"Oberweiler im Tal","type":"Kreisangehörige_Gemeinde"},"district":{"key":"07336","name":"Kusel","type":"Landkreis"},"federalState":{"key":"07","name":"Rheinland-Pfalz"}},{"name":"Hübelstr.","postalCode":"67756","locality":"Oberweiler im Tal","municipality":{"key":"07336072","name":"Oberweiler im Tal","type":"Kreisangehörige_Gemeinde"},"district":{"key":"07336","name":"Kusel","type":"Landkreis"},"federalState":{"key":"07","name":"Rheinland-Pfalz"}},{"name":"Im Eck","postalCode":"67752","locality":"Oberweiler-Tiefenbach","municipality":{"key":"07336073","name":"Oberweiler-Tiefenbach","type":"Kreisangehörige_Gemeinde"},"district":{"key":"07336","name":"Kusel","type":"Landkreis"},"federalState":{"key":"07","name":"Rheinland-Pfalz"}},{"name":"Kippstr.","postalCode":"67756","locality":"Oberweiler im Tal","municipality":{"key":"07336072","name":"Oberweiler im Tal","type":"Kreisangehörige_Gemeinde"},"district":{"key":"07336","name":"Kusel","type":"Landkreis"},"federalState":{"key":"07","name":"Rheinland-Pfalz"}},{"name":"Kirchenstr.","postalCode":"67752","locality":"Oberweiler-Tiefenbach","municipality":{"key":"07336073","name":"Oberweiler-Tiefenbach","type":"Kreisangehörige_Gemeinde"},"district":{"key":"07336","name":"Kusel","type":"Landkreis"},"federalState":{"key":"07","name":"Rheinland-Pfalz"}},{"name":"Mühlstr.","postalCode":"67756","locality":"Oberweiler im Tal","municipality":{"key":"07336072","name":"Oberweiler im Tal","type":"Kreisangehörige_Gemeinde"},"district":{"key":"07336","name":"Kusel","type":"Landkreis"},"federalState":{"key":"07","name":"Rheinland-Pfalz"}},{"name":"Niederweilerer Str.","postalCode":"54636","locality":"Oberweiler","municipality":{"key":"07232098","name":"Oberweiler","type":"Kreisangehörige_Gemeinde"},"district":{"key":"07232","name":"Eifelkreis Bitburg-Prüm","type":"Landkreis"},"federalState":{"key":"07","name":"Rheinland-Pfalz"}},{"name":"Pfarrwiese","postalCode":"67752","locality":"Oberweiler-Tiefenbach","municipality":{"key":"07336073","name":"Oberweiler-Tiefenbach","type":"Kreisangehörige_Gemeinde"},"district":{"key":"07336","name":"Kusel","type":"Landkreis"},"federalState":{"key":"07","name":"Rheinland-Pfalz"}},{"name":"Schulstr.","postalCode":"67752","locality":"Oberweiler-Tiefenbach","municipality":{"key":"07336073","name":"Oberweiler-Tiefenbach","type":"Kreisangehörige_Gemeinde"},"district":{"key":"07336","name":"Kusel","type":"Landkreis"},"federalState":{"key":"07","name":"Rheinland-Pfalz"}},{"name":"Talstr.","postalCode":"54636","locality":"Oberweiler","municipality":{"key":"07232098","name":"Oberweiler","type":"Kreisangehörige_Gemeinde"},"district":{"key":"07232","name":"Eifelkreis Bitburg-Prüm","type":"Landkreis"},"federalState":{"key":"07","name":"Rheinland-Pfalz"}},{"name":"Talstr.","postalCode":"67752","locality":"Oberweiler-Tiefenbach","municipality":{"key":"07336073","name":"Oberweiler-Tiefenbach","type":"Kreisangehörige_Gemeinde"},"district":{"key":"07336","name":"Kusel","type":"Landkreis"},"federalState":{"key":"07","name":"Rheinland-Pfalz"}},{"name":"Zum Landberg","postalCode":"67752","locality":"Oberweiler-Tiefenbach","municipality":{"key":"07336073","name":"Oberweiler-Tiefenbach","type":"Kreisangehörige_Gemeinde"},"district":{"key":"07336","name":"Kusel","type":"Landkreis"},"federalState":{"key":"07","name":"Rheinland-Pfalz"}},]