[{"name":"Ahornweg","postalCode":"91278","locality":"Pottenstein","municipality":{"key":"09472179","name":"Pottenstein, St","type":"Stadt"},"district":{"key":"09472","name":"Bayreuth","type":"Landkreis"},"federalState":{"key":"09","name":"Bayern"}},{"name":"Alter Burgweg","postalCode":"91278","locality":"Pottenstein","municipality":{"key":"09472179","name":"Pottenstein, St","type":"Stadt"},"district":{"key":"09472","name":"Bayreuth","type":"Landkreis"},"federalState":{"key":"09","name":"Bayern"}},{"name":"Am Anger","postalCode":"91278","locality":"Pottenstein","municipality":{"key":"09472179","name":"Pottenstein, St","type":"Stadt"},"district":{"key":"09472","name":"Bayreuth","type":"Landkreis"},"federalState":{"key":"09","name":"Bayern"}},{"name":"Am Breitenstein","postalCode":"91278","locality":"Pottenstein","municipality":{"key":"09472179","name":"Pottenstein, St","type":"Stadt"},"district":{"key":"09472","name":"Bayreuth","type":"Landkreis"},"federalState":{"key":"09","name":"Bayern"}},{"name":"Am Festplatz","postalCode":"91278","locality":"Pottenstein","municipality":{"key":"09472179","name":"Pottenstein, St","type":"Stadt"},"district":{"key":"09472","name":"Bayreuth","type":"Landkreis"},"federalState":{"key":"09","name":"Bayern"}},{"name":"Am Gnock","postalCode":"91278","locality":"Pottenstein","municipality":{"key":"09472179","name":"Pottenstein, St","type":"Stadt"},"district":{"key":"09472","name":"Bayreuth","type":"Landkreis"},"federalState":{"key":"09","name":"Bayern"}},{"name":"Am Gweis","postalCode":"91278","locality":"Pottenstein","municipality":{"key":"09472179","name":"Pottenstein, St","type":"Stadt"},"district":{"key":"09472","name":"Bayreuth","type":"Landkreis"},"federalState":{"key":"09","name":"Bayern"}},{"name":"Am Haag","postalCode":"91278","locality":"Pottenstein","municipality":{"key":"09472179","name":"Pottenstein, St","type":"Stadt"},"district":{"key":"09472","name":"Bayreuth","type":"Landkreis"},"federalState":{"key":"09","name":"Bayern"}},{"name":"Am Hauengrund","postalCode":"91278","locality":"Pottenstein","municipality":{"key":"09472179","name":"Pottenstein, St","type":"Stadt"},"district":{"key":"09472","name":"Bayreuth","type":"Landkreis"},"federalState":{"key":"09","name":"Bayern"}},{"name":"Am Köppelplatz","postalCode":"91278","locality":"Pottenstein","municipality":{"key":"09472179","name":"Pottenstein, St","type":"Stadt"},"district":{"key":"09472","name":"Bayreuth","type":"Landkreis"},"federalState":{"key":"09","name":"Bayern"}},{"name":"Am Kurzentrum","postalCode":"91278","locality":"Pottenstein","municipality":{"key":"09472179","name":"Pottenstein, St","type":"Stadt"},"district":{"key":"09472","name":"Bayreuth","type":"Landkreis"},"federalState":{"key":"09","name":"Bayern"}},{"name":"Am Langen Berg","postalCode":"91278","locality":"Pottenstein","municipality":{"key":"09472179","name":"Pottenstein, St","type":"Stadt"},"district":{"key":"09472","name":"Bayreuth","type":"Landkreis"},"federalState":{"key":"09","name":"Bayern"}},{"name":"Am Lindsbach","postalCode":"91278","locality":"Pottenstein","municipality":{"key":"09472179","name":"Pottenstein, St","type":"Stadt"},"district":{"key":"09472","name":"Bayreuth","type":"Landkreis"},"federalState":{"key":"09","name":"Bayern"}},{"name":"Am Museum","postalCode":"91278","locality":"Pottenstein","municipality":{"key":"09472179","name":"Pottenstein, St","type":"Stadt"},"district":{"key":"09472","name":"Bayreuth","type":"Landkreis"},"federalState":{"key":"09","name":"Bayern"}},{"name":"Am Neuen See","postalCode":"91278","locality":"Pottenstein","municipality":{"key":"09472179","name":"Pottenstein, St","type":"Stadt"},"district":{"key":"09472","name":"Bayreuth","type":"Landkreis"},"federalState":{"key":"09","name":"Bayern"}},{"name":"Am Siegenberg","postalCode":"91278","locality":"Pottenstein","municipality":{"key":"09472179","name":"Pottenstein, St","type":"Stadt"},"district":{"key":"09472","name":"Bayreuth","type":"Landkreis"},"federalState":{"key":"09","name":"Bayern"}},{"name":"Am Sportzentrum","postalCode":"91278","locality":"Pottenstein","municipality":{"key":"09472179","name":"Pottenstein, St","type":"Stadt"},"district":{"key":"09472","name":"Bayreuth","type":"Landkreis"},"federalState":{"key":"09","name":"Bayern"}},{"name":"Am Stadtgraben","postalCode":"91278","locality":"Pottenstein","municipality":{"key":"09472179","name":"Pottenstein, St","type":"Stadt"},"district":{"key":"09472","name":"Bayreuth","type":"Landkreis"},"federalState":{"key":"09","name":"Bayern"}},{"name":"Am Steigacker","postalCode":"91278","locality":"Pottenstein","municipality":{"key":"09472179","name":"Pottenstein, St","type":"Stadt"},"district":{"key":"09472","name":"Bayreuth","type":"Landkreis"},"federalState":{"key":"09","name":"Bayern"}},{"name":"Am Steinbruchweg","postalCode":"91278","locality":"Pottenstein","municipality":{"key":"09472179","name":"Pottenstein, St","type":"Stadt"},"district":{"key":"09472","name":"Bayreuth","type":"Landkreis"},"federalState":{"key":"09","name":"Bayern"}},{"name":"Am Wolfssteig","postalCode":"91278","locality":"Pottenstein","municipality":{"key":"09472179","name":"Pottenstein, St","type":"Stadt"},"district":{"key":"09472","name":"Bayreuth","type":"Landkreis"},"federalState":{"key":"09","name":"Bayern"}},{"name":"An Betzenwegl","postalCode":"91278","locality":"Pottenstein","municipality":{"key":"09472179","name":"Pottenstein, St","type":"Stadt"},"district":{"key":"09472","name":"Bayreuth","type":"Landkreis"},"federalState":{"key":"09","name":"Bayern"}},{"name":"An der Stressenleite","postalCode":"91278","locality":"Pottenstein","municipality":{"key":"09472179","name":"Pottenstein, St","type":"Stadt"},"district":{"key":"09472","name":"Bayreuth","type":"Landkreis"},"federalState":{"key":"09","name":"Bayern"}},{"name":"Bärenschlucht","postalCode":"91278","locality":"Pottenstein","municipality":{"key":"09472179","name":"Pottenstein, St","type":"Stadt"},"district":{"key":"09472","name":"Bayreuth","type":"Landkreis"},"federalState":{"key":"09","name":"Bayern"}},{"name":"Bayreuther Berg","postalCode":"91278","locality":"Pottenstein","municipality":{"key":"09472179","name":"Pottenstein, St","type":"Stadt"},"district":{"key":"09472","name":"Bayreuth","type":"Landkreis"},"federalState":{"key":"09","name":"Bayern"}},{"name":"Birkenstr.","postalCode":"91278","locality":"Pottenstein","municipality":{"key":"09472179","name":"Pottenstein, St","type":"Stadt"},"district":{"key":"09472","name":"Bayreuth","type":"Landkreis"},"federalState":{"key":"09","name":"Bayern"}},{"name":"Breitäcker","postalCode":"91278","locality":"Pottenstein","municipality":{"key":"09472179","name":"Pottenstein, St","type":"Stadt"},"district":{"key":"09472","name":"Bayreuth","type":"Landkreis"},"federalState":{"key":"09","name":"Bayern"}},{"name":"Buchenweg","postalCode":"91278","locality":"Pottenstein","municipality":{"key":"09472179","name":"Pottenstein, St","type":"Stadt"},"district":{"key":"09472","name":"Bayreuth","type":"Landkreis"},"federalState":{"key":"09","name":"Bayern"}},{"name":"Burgstr.","postalCode":"91278","locality":"Pottenstein","municipality":{"key":"09472179","name":"Pottenstein, St","type":"Stadt"},"district":{"key":"09472","name":"Bayreuth","type":"Landkreis"},"federalState":{"key":"09","name":"Bayern"}},{"name":"Calvinstr.","postalCode":"95445","locality":"Bayreuth","municipality":{"key":"09462000","name":"Bayreuth","type":"Kreisfreie_Stadt"},"district":{"key":"09462","name":"Bayreuth","type":"Kreisfreie_Stadt"},"federalState":{"key":"09","name":"Bayern"}},{"name":"Carl-Burger-Str.","postalCode":"95445","locality":"Bayreuth","municipality":{"key":"09462000","name":"Bayreuth","type":"Kreisfreie_Stadt"},"district":{"key":"09462","name":"Bayreuth","type":"Kreisfreie_Stadt"},"federalState":{"key":"09","name":"Bayern"}},{"name":"Carl-Kolb-Str.","postalCode":"95448","locality":"Bayreuth","municipality":{"key":"09462000","name":"Bayreuth","type":"Kreisfreie_Stadt"},"district":{"key":"09462","name":"Bayreuth","type":"Kreisfreie_Stadt"},"federalState":{"key":"09","name":"Bayern"}},{"name":"Carl-Maria-von-Weber-Str.","postalCode":"95448","locality":"Bayreuth","municipality":{"key":"09462000","name":"Bayreuth","type":"Kreisfreie_Stadt"},"district":{"key":"09462","name":"Bayreuth","type":"Kreisfreie_Stadt"},"federalState":{"key":"09","name":"Bayern"}},{"name":"Carl-Schüller-Str.","postalCode":"95444","locality":"Bayreuth","municipality":{"key":"09462000","name":"Bayreuth","type":"Kreisfreie_Stadt"},"district":{"key":"09462","name":"Bayreuth","type":"Kreisfreie_Stadt"},"federalState":{"key":"09","name":"Bayern"}},{"name":"Casselmannstr.","postalCode":"95444","locality":"Bayreuth","municipality":{"key":"09462000","name":"Bayreuth","type":"Kreisfreie_Stadt"},"district":{"key":"09462","name":"Bayreuth","type":"Kreisfreie_Stadt"},"federalState":{"key":"09","name":"Bayern"}},{"name":"Casselmannstr.","postalCode":"95445","locality":"Bayreuth","municipality":{"key":"09462000","name":"Bayreuth","type":"Kreisfreie_Stadt"},"district":{"key":"09462","name":"Bayreuth","type":"Kreisfreie_Stadt"},"federalState":{"key":"09","name":"Bayern"}},{"name":"Chiemseestr.","postalCode":"95445","locality":"Bayreuth","municipality":{"key":"09462000","name":"Bayreuth","type":"Kreisfreie_Stadt"},"district":{"key":"09462","name":"Bayreuth","type":"Kreisfreie_Stadt"},"federalState":{"key":"09","name":"Bayern"}},{"name":"Christian-Ritter-von-Langheinrich-Str.","postalCode":"95448","locality":"Bayreuth","municipality":{"key":"09462000","name":"Bayreuth","type":"Kreisfreie_Stadt"},"district":{"key":"09462","name":"Bayreuth","type":"Kreisfreie_Stadt"},"federalState":{"key":"09","name":"Bayern"}},{"name":"Christian-Ritter-von-Popp-Str.","postalCode":"95448","locality":"Bayreuth","municipality":{"key":"09462000","name":"Bayreuth","type":"Kreisfreie_Stadt"},"district":{"key":"09462","name":"Bayreuth","type":"Kreisfreie_Stadt"},"federalState":{"key":"09","name":"Bayern"}},{"name":"Colmdorf","postalCode":"95448","locality":"Bayreuth","municipality":{"key":"09462000","name":"Bayreuth","type":"Kreisfreie_Stadt"},"district":{"key":"09462","name":"Bayreuth","type":"Kreisfreie_Stadt"},"federalState":{"key":"09","name":"Bayern"}},{"name":"Cosimapark","postalCode":"95445","locality":"Bayreuth","municipality":{"key":"09462000","name":"Bayreuth","type":"Kreisfreie_Stadt"},"district":{"key":"09462","name":"Bayreuth","type":"Kreisfreie_Stadt"},"federalState":{"key":"09","name":"Bayern"}},{"name":"Cosima-Wagner-Str.","postalCode":"95444","locality":"Bayreuth","municipality":{"key":"09462000","name":"Bayreuth","type":"Kreisfreie_Stadt"},"district":{"key":"09462","name":"Bayreuth","type":"Kreisfreie_Stadt"},"federalState":{"key":"09","name":"Bayern"}},{"name":"Cottenbacher Str.","postalCode":"95444","locality":"Bayreuth","municipality":{"key":"09462000","name":"Bayreuth","type":"Kreisfreie_Stadt"},"district":{"key":"09462","name":"Bayreuth","type":"Kreisfreie_Stadt"},"federalState":{"key":"09","name":"Bayern"}},{"name":"Cottenbacher Str.","postalCode":"95445","locality":"Bayreuth","municipality":{"key":"09462000","name":"Bayreuth","type":"Kreisfreie_Stadt"},"district":{"key":"09462","name":"Bayreuth","type":"Kreisfreie_Stadt"},"federalState":{"key":"09","name":"Bayern"}},{"name":"Cranachstr.","postalCode":"95447","locality":"Bayreuth","municipality":{"key":"09462000","name":"Bayreuth","type":"Kreisfreie_Stadt"},"district":{"key":"09462","name":"Bayreuth","type":"Kreisfreie_Stadt"},"federalState":{"key":"09","name":"Bayern"}},{"name":"Dr.-Brunner-Str.","postalCode":"91278","locality":"Pottenstein","municipality":{"key":"09472179","name":"Pottenstein, St","type":"Stadt"},"district":{"key":"09472","name":"Bayreuth","type":"Landkreis"},"federalState":{"key":"09","name":"Bayern"}},{"name":"Eckenerstr.","postalCode":"95444","locality":"Bayreuth","municipality":{"key":"09462000","name":"Bayreuth","type":"Kreisfreie_Stadt"},"district":{"key":"09462","name":"Bayreuth","type":"Kreisfreie_Stadt"},"federalState":{"key":"09","name":"Bayern"}},{"name":"Edelweißweg","postalCode":"95447","locality":"Bayreuth","municipality":{"key":"09462000","name":"Bayreuth","type":"Kreisfreie_Stadt"},"district":{"key":"09462","name":"Bayreuth","type":"Kreisfreie_Stadt"},"federalState":{"key":"09","name":"Bayern"}},{"name":"Egerländer Str.","postalCode":"95448","locality":"Bayreuth","municipality":{"key":"09462000","name":"Bayreuth","type":"Kreisfreie_Stadt"},"district":{"key":"09462","name":"Bayreuth","type":"Kreisfreie_Stadt"},"federalState":{"key":"09","name":"Bayern"}},{"name":"Egerstr.","postalCode":"95445","locality":"Bayreuth","municipality":{"key":"09462000","name":"Bayreuth","type":"Kreisfreie_Stadt"},"district":{"key":"09462","name":"Bayreuth","type":"Kreisfreie_Stadt"},"federalState":{"key":"09","name":"Bayern"}},{"name":"Eibseestr.","postalCode":"95445","locality":"Bayreuth","municipality":{"key":"09462000","name":"Bayreuth","type":"Kreisfreie_Stadt"},"district":{"key":"09462","name":"Bayreuth","type":"Kreisfreie_Stadt"},"federalState":{"key":"09","name":"Bayern"}},{"name":"Eichelweg","postalCode":"95445","locality":"Bayreuth","municipality":{"key":"09462000","name":"Bayreuth","type":"Kreisfreie_Stadt"},"district":{"key":"09462","name":"Bayreuth","type":"Kreisfreie_Stadt"},"federalState":{"key":"09","name":"Bayern"}},{"name":"Eichendorffring","postalCode":"95447","locality":"Bayreuth","municipality":{"key":"09462000","name":"Bayreuth","type":"Kreisfreie_Stadt"},"district":{"key":"09462","name":"Bayreuth","type":"Kreisfreie_Stadt"},"federalState":{"key":"09","name":"Bayern"}},{"name":"Eichenring","postalCode":"95445","locality":"Bayreuth","municipality":{"key":"09462000","name":"Bayreuth","type":"Kreisfreie_Stadt"},"district":{"key":"09462","name":"Bayreuth","type":"Kreisfreie_Stadt"},"federalState":{"key":"09","name":"Bayern"}},{"name":"Eifelstr.","postalCode":"95448","locality":"Bayreuth","municipality":{"key":"09462000","name":"Bayreuth","type":"Kreisfreie_Stadt"},"district":{"key":"09462","name":"Bayreuth","type":"Kreisfreie_Stadt"},"federalState":{"key":"09","name":"Bayern"}},{"name":"Eisenbahnüberführung Königsallee","postalCode":"95448","locality":"Bayreuth","municipality":{"key":"09462000","name":"Bayreuth","type":"Kreisfreie_Stadt"},"district":{"key":"09462","name":"Bayreuth","type":"Kreisfreie_Stadt"},"federalState":{"key":"09","name":"Bayern"}},{"name":"Elbering","postalCode":"95445","locality":"Bayreuth","municipality":{"key":"09462000","name":"Bayreuth","type":"Kreisfreie_Stadt"},"district":{"key":"09462","name":"Bayreuth","type":"Kreisfreie_Stadt"},"federalState":{"key":"09","name":"Bayern"}},{"name":"Elfenweg","postalCode":"95447","locality":"Bayreuth","municipality":{"key":"09462000","name":"Bayreuth","type":"Kreisfreie_Stadt"},"district":{"key":"09462","name":"Bayreuth","type":"Kreisfreie_Stadt"},"federalState":{"key":"09","name":"Bayern"}},{"name":"Elias-Räntz-Str.","postalCode":"95445","locality":"Bayreuth","municipality":{"key":"09462000","name":"Bayreuth","type":"Kreisfreie_Stadt"},"district":{"key":"09462","name":"Bayreuth","type":"Kreisfreie_Stadt"},"federalState":{"key":"09","name":"Bayern"}},{"name":"Elsastr.","postalCode":"95445","locality":"Bayreuth","municipality":{"key":"09462000","name":"Bayreuth","type":"Kreisfreie_Stadt"},"district":{"key":"09462","name":"Bayreuth","type":"Kreisfreie_Stadt"},"federalState":{"key":"09","name":"Bayern"}},{"name":"Enzianweg","postalCode":"95447","locality":"Bayreuth","municipality":{"key":"09462000","name":"Bayreuth","type":"Kreisfreie_Stadt"},"district":{"key":"09462","name":"Bayreuth","type":"Kreisfreie_Stadt"},"federalState":{"key":"09","name":"Bayern"}},{"name":"Erdastr.","postalCode":"95445","locality":"Bayreuth","municipality":{"key":"09462000","name":"Bayreuth","type":"Kreisfreie_Stadt"},"district":{"key":"09462","name":"Bayreuth","type":"Kreisfreie_Stadt"},"federalState":{"key":"09","name":"Bayern"}},{"name":"Eremitage","postalCode":"95448","locality":"Bayreuth","municipality":{"key":"09462000","name":"Bayreuth","type":"Kreisfreie_Stadt"},"district":{"key":"09462","name":"Bayreuth","type":"Kreisfreie_Stadt"},"federalState":{"key":"09","name":"Bayern"}},{"name":"Eremitagestr.","postalCode":"95448","locality":"Bayreuth","municipality":{"key":"09462000","name":"Bayreuth","type":"Kreisfreie_Stadt"},"district":{"key":"09462","name":"Bayreuth","type":"Kreisfreie_Stadt"},"federalState":{"key":"09","name":"Bayern"}},{"name":"Eremitenhofstr.","postalCode":"95448","locality":"Bayreuth","municipality":{"key":"09462000","name":"Bayreuth","type":"Kreisfreie_Stadt"},"district":{"key":"09462","name":"Bayreuth","type":"Kreisfreie_Stadt"},"federalState":{"key":"09","name":"Bayern"}},{"name":"Erikaweg","postalCode":"95447","locality":"Bayreuth","municipality":{"key":"09462000","name":"Bayreuth","type":"Kreisfreie_Stadt"},"district":{"key":"09462","name":"Bayreuth","type":"Kreisfreie_Stadt"},"federalState":{"key":"09","name":"Bayern"}},{"name":"Erlanger Str.","postalCode":"95444","locality":"Bayreuth","municipality":{"key":"09462000","name":"Bayreuth","type":"Kreisfreie_Stadt"},"district":{"key":"09462","name":"Bayreuth","type":"Kreisfreie_Stadt"},"federalState":{"key":"09","name":"Bayern"}},{"name":"Erlanger Str.","postalCode":"95445","locality":"Bayreuth","municipality":{"key":"09462000","name":"Bayreuth","type":"Kreisfreie_Stadt"},"district":{"key":"09462","name":"Bayreuth","type":"Kreisfreie_Stadt"},"federalState":{"key":"09","name":"Bayern"}},{"name":"Erlenweg","postalCode":"95445","locality":"Bayreuth","municipality":{"key":"09462000","name":"Bayreuth","type":"Kreisfreie_Stadt"},"district":{"key":"09462","name":"Bayreuth","type":"Kreisfreie_Stadt"},"federalState":{"key":"09","name":"Bayern"}},{"name":"Erlkönigstr.","postalCode":"95447","locality":"Bayreuth","municipality":{"key":"09462000","name":"Bayreuth","type":"Kreisfreie_Stadt"},"district":{"key":"09462","name":"Bayreuth","type":"Kreisfreie_Stadt"},"federalState":{"key":"09","name":"Bayern"}},{"name":"Eschenweg","postalCode":"95445","locality":"Bayreuth","municipality":{"key":"09462000","name":"Bayreuth","type":"Kreisfreie_Stadt"},"district":{"key":"09462","name":"Bayreuth","type":"Kreisfreie_Stadt"},"federalState":{"key":"09","name":"Bayern"}},{"name":"Eubener Str.","postalCode":"95445","locality":"Bayreuth","municipality":{"key":"09462000","name":"Bayreuth","type":"Kreisfreie_Stadt"},"district":{"key":"09462","name":"Bayreuth","type":"Kreisfreie_Stadt"},"federalState":{"key":"09","name":"Bayern"}},{"name":"Eysserhaus-Passage","postalCode":"95444","locality":"Bayreuth","municipality":{"key":"09462000","name":"Bayreuth","type":"Kreisfreie_Stadt"},"district":{"key":"09462","name":"Bayreuth","type":"Kreisfreie_Stadt"},"federalState":{"key":"09","name":"Bayern"}},{"name":"Fischergasse","postalCode":"91278","locality":"Pottenstein","municipality":{"key":"09472179","name":"Pottenstein, St","type":"Stadt"},"district":{"key":"09472","name":"Bayreuth","type":"Landkreis"},"federalState":{"key":"09","name":"Bayern"}},{"name":"Forchheimer Str.","postalCode":"91278","locality":"Pottenstein","municipality":{"key":"09472179","name":"Pottenstein, St","type":"Stadt"},"district":{"key":"09472","name":"Bayreuth","type":"Landkreis"},"federalState":{"key":"09","name":"Bayern"}},{"name":"Forstackerstr.","postalCode":"91278","locality":"Pottenstein","municipality":{"key":"09472179","name":"Pottenstein, St","type":"Stadt"},"district":{"key":"09472","name":"Bayreuth","type":"Landkreis"},"federalState":{"key":"09","name":"Bayern"}},{"name":"Franz-Wittmann-Gasse","postalCode":"91278","locality":"Pottenstein","municipality":{"key":"09472179","name":"Pottenstein, St","type":"Stadt"},"district":{"key":"09472","name":"Bayreuth","type":"Landkreis"},"federalState":{"key":"09","name":"Bayern"}},{"name":"Freiherr-von-Redwitz-Gasse","postalCode":"91278","locality":"Pottenstein","municipality":{"key":"09472179","name":"Pottenstein, St","type":"Stadt"},"district":{"key":"09472","name":"Bayreuth","type":"Landkreis"},"federalState":{"key":"09","name":"Bayern"}},{"name":"Friedrich-Wachter-Str.","postalCode":"91278","locality":"Pottenstein","municipality":{"key":"09472179","name":"Pottenstein, St","type":"Stadt"},"district":{"key":"09472","name":"Bayreuth","type":"Landkreis"},"federalState":{"key":"09","name":"Bayern"}},{"name":"Fronfeste","postalCode":"91278","locality":"Pottenstein","municipality":{"key":"09472179","name":"Pottenstein, St","type":"Stadt"},"district":{"key":"09472","name":"Bayreuth","type":"Landkreis"},"federalState":{"key":"09","name":"Bayern"}},{"name":"Gartenstr.","postalCode":"91278","locality":"Pottenstein","municipality":{"key":"09472179","name":"Pottenstein, St","type":"Stadt"},"district":{"key":"09472","name":"Bayreuth","type":"Landkreis"},"federalState":{"key":"09","name":"Bayern"}},{"name":"Geißenweg","postalCode":"91278","locality":"Pottenstein","municipality":{"key":"09472179","name":"Pottenstein, St","type":"Stadt"},"district":{"key":"09472","name":"Bayreuth","type":"Landkreis"},"federalState":{"key":"09","name":"Bayern"}},{"name":"Geusmanns","postalCode":"91278","locality":"Pottenstein","municipality":{"key":"09472179","name":"Pottenstein, St","type":"Stadt"},"district":{"key":"09472","name":"Bayreuth","type":"Landkreis"},"federalState":{"key":"09","name":"Bayern"}},{"name":"Graisch","postalCode":"91278","locality":"Pottenstein","municipality":{"key":"09472179","name":"Pottenstein, St","type":"Stadt"},"district":{"key":"09472","name":"Bayreuth","type":"Landkreis"},"federalState":{"key":"09","name":"Bayern"}},{"name":"Haselbrunn","postalCode":"91278","locality":"Pottenstein","municipality":{"key":"09472179","name":"Pottenstein, St","type":"Stadt"},"district":{"key":"09472","name":"Bayreuth","type":"Landkreis"},"federalState":{"key":"09","name":"Bayern"}},{"name":"Hasengraben","postalCode":"91278","locality":"Pottenstein","municipality":{"key":"09472179","name":"Pottenstein, St","type":"Stadt"},"district":{"key":"09472","name":"Bayreuth","type":"Landkreis"},"federalState":{"key":"09","name":"Bayern"}},{"name":"Haßlach","postalCode":"91278","locality":"Pottenstein","municipality":{"key":"09472179","name":"Pottenstein, St","type":"Stadt"},"district":{"key":"09472","name":"Bayreuth","type":"Landkreis"},"federalState":{"key":"09","name":"Bayern"}},{"name":"Hauptstr.","postalCode":"91278","locality":"Pottenstein","municipality":{"key":"09472179","name":"Pottenstein, St","type":"Stadt"},"district":{"key":"09472","name":"Bayreuth","type":"Landkreis"},"federalState":{"key":"09","name":"Bayern"}},{"name":"Hollergasse","postalCode":"91278","locality":"Pottenstein","municipality":{"key":"09472179","name":"Pottenstein, St","type":"Stadt"},"district":{"key":"09472","name":"Bayreuth","type":"Landkreis"},"federalState":{"key":"09","name":"Bayern"}},{"name":"Im Tal","postalCode":"91278","locality":"Pottenstein","municipality":{"key":"09472179","name":"Pottenstein, St","type":"Stadt"},"district":{"key":"09472","name":"Bayreuth","type":"Landkreis"},"federalState":{"key":"09","name":"Bayern"}},{"name":"Jägersteig I","postalCode":"91278","locality":"Pottenstein","municipality":{"key":"09472179","name":"Pottenstein, St","type":"Stadt"},"district":{"key":"09472","name":"Bayreuth","type":"Landkreis"},"federalState":{"key":"09","name":"Bayern"}},{"name":"Jägerstr.","postalCode":"91278","locality":"Pottenstein","municipality":{"key":"09472179","name":"Pottenstein, St","type":"Stadt"},"district":{"key":"09472","name":"Bayreuth","type":"Landkreis"},"federalState":{"key":"09","name":"Bayern"}},{"name":"Jakobusstr.","postalCode":"91278","locality":"Pottenstein","municipality":{"key":"09472179","name":"Pottenstein, St","type":"Stadt"},"district":{"key":"09472","name":"Bayreuth","type":"Landkreis"},"federalState":{"key":"09","name":"Bayern"}},{"name":"Jugendherbergsstr.","postalCode":"91278","locality":"Pottenstein","municipality":{"key":"09472179","name":"Pottenstein, St","type":"Stadt"},"district":{"key":"09472","name":"Bayreuth","type":"Landkreis"},"federalState":{"key":"09","name":"Bayern"}},{"name":"Kapellenweg","postalCode":"91278","locality":"Pottenstein","municipality":{"key":"09472179","name":"Pottenstein, St","type":"Stadt"},"district":{"key":"09472","name":"Bayreuth","type":"Landkreis"},"federalState":{"key":"09","name":"Bayern"}},{"name":"Kiefernweg","postalCode":"91278","locality":"Pottenstein","municipality":{"key":"09472179","name":"Pottenstein, St","type":"Stadt"},"district":{"key":"09472","name":"Bayreuth","type":"Landkreis"},"federalState":{"key":"09","name":"Bayern"}},{"name":"Kirchplatz","postalCode":"91278","locality":"Pottenstein","municipality":{"key":"09472179","name":"Pottenstein, St","type":"Stadt"},"district":{"key":"09472","name":"Bayreuth","type":"Landkreis"},"federalState":{"key":"09","name":"Bayern"}},{"name":"Kleinkirchenbirkig","postalCode":"91278","locality":"Pottenstein","municipality":{"key":"09472179","name":"Pottenstein, St","type":"Stadt"},"district":{"key":"09472","name":"Bayreuth","type":"Landkreis"},"federalState":{"key":"09","name":"Bayern"}},{"name":"Kleinlesau","postalCode":"91278","locality":"Pottenstein","municipality":{"key":"09472179","name":"Pottenstein, St","type":"Stadt"},"district":{"key":"09472","name":"Bayreuth","type":"Landkreis"},"federalState":{"key":"09","name":"Bayern"}},{"name":"Klumpertal","postalCode":"91278","locality":"Pottenstein","municipality":{"key":"09472179","name":"Pottenstein, St","type":"Stadt"},"district":{"key":"09472","name":"Bayreuth","type":"Landkreis"},"federalState":{"key":"09","name":"Bayern"}},{"name":"Kohlsteiner Str.","postalCode":"91278","locality":"Pottenstein","municipality":{"key":"09472179","name":"Pottenstein, St","type":"Stadt"},"district":{"key":"09472","name":"Bayreuth","type":"Landkreis"},"federalState":{"key":"09","name":"Bayern"}},{"name":"Kühlenfelser Str.","postalCode":"91278","locality":"Pottenstein","municipality":{"key":"09472179","name":"Pottenstein, St","type":"Stadt"},"district":{"key":"09472","name":"Bayreuth","type":"Landkreis"},"federalState":{"key":"09","name":"Bayern"}},{"name":"Kurpark","postalCode":"91278","locality":"Pottenstein","municipality":{"key":"09472179","name":"Pottenstein, St","type":"Stadt"},"district":{"key":"09472","name":"Bayreuth","type":"Landkreis"},"federalState":{"key":"09","name":"Bayern"}},{"name":"Leienfels","postalCode":"91278","locality":"Pottenstein","municipality":{"key":"09472179","name":"Pottenstein, St","type":"Stadt"},"district":{"key":"09472","name":"Bayreuth","type":"Landkreis"},"federalState":{"key":"09","name":"Bayern"}},{"name":"Lindenhöfe","postalCode":"91278","locality":"Pottenstein","municipality":{"key":"09472179","name":"Pottenstein, St","type":"Stadt"},"district":{"key":"09472","name":"Bayreuth","type":"Landkreis"},"federalState":{"key":"09","name":"Bayern"}},{"name":"Lindenstock","postalCode":"91278","locality":"Pottenstein","municipality":{"key":"09472179","name":"Pottenstein, St","type":"Stadt"},"district":{"key":"09472","name":"Bayreuth","type":"Landkreis"},"federalState":{"key":"09","name":"Bayern"}},{"name":"Lindenstr.","postalCode":"91278","locality":"Pottenstein","municipality":{"key":"09472179","name":"Pottenstein, St","type":"Stadt"},"district":{"key":"09472","name":"Bayreuth","type":"Landkreis"},"federalState":{"key":"09","name":"Bayern"}},{"name":"Lohweg","postalCode":"91278","locality":"Pottenstein","municipality":{"key":"09472179","name":"Pottenstein, St","type":"Stadt"},"district":{"key":"09472","name":"Bayreuth","type":"Landkreis"},"federalState":{"key":"09","name":"Bayern"}},{"name":"Malerwinkel","postalCode":"91278","locality":"Pottenstein","municipality":{"key":"09472179","name":"Pottenstein, St","type":"Stadt"},"district":{"key":"09472","name":"Bayreuth","type":"Landkreis"},"federalState":{"key":"09","name":"Bayern"}},{"name":"Mandlau","postalCode":"91278","locality":"Pottenstein","municipality":{"key":"09472179","name":"Pottenstein, St","type":"Stadt"},"district":{"key":"09472","name":"Bayreuth","type":"Landkreis"},"federalState":{"key":"09","name":"Bayern"}},{"name":"Mariental","postalCode":"91278","locality":"Pottenstein","municipality":{"key":"09472179","name":"Pottenstein, St","type":"Stadt"},"district":{"key":"09472","name":"Bayreuth","type":"Landkreis"},"federalState":{"key":"09","name":"Bayern"}},{"name":"Michelsberg","postalCode":"91278","locality":"Pottenstein","municipality":{"key":"09472179","name":"Pottenstein, St","type":"Stadt"},"district":{"key":"09472","name":"Bayreuth","type":"Landkreis"},"federalState":{"key":"09","name":"Bayern"}},{"name":"Neu-Geusmanns","postalCode":"91278","locality":"Pottenstein","municipality":{"key":"09472179","name":"Pottenstein, St","type":"Stadt"},"district":{"key":"09472","name":"Bayreuth","type":"Landkreis"},"federalState":{"key":"09","name":"Bayern"}},{"name":"Nürnberger Str.","postalCode":"91278","locality":"Pottenstein","municipality":{"key":"09472179","name":"Pottenstein, St","type":"Stadt"},"district":{"key":"09472","name":"Bayreuth","type":"Landkreis"},"federalState":{"key":"09","name":"Bayern"}},{"name":"Obere Dorfstr.","postalCode":"91278","locality":"Pottenstein","municipality":{"key":"09472179","name":"Pottenstein, St","type":"Stadt"},"district":{"key":"09472","name":"Bayreuth","type":"Landkreis"},"federalState":{"key":"09","name":"Bayern"}},{"name":"Oberes Püttlachtal","postalCode":"91278","locality":"Pottenstein","municipality":{"key":"09472179","name":"Pottenstein, St","type":"Stadt"},"district":{"key":"09472","name":"Bayreuth","type":"Landkreis"},"federalState":{"key":"09","name":"Bayern"}},{"name":"Pater-Reus-Str.","postalCode":"91278","locality":"Pottenstein","municipality":{"key":"09472179","name":"Pottenstein, St","type":"Stadt"},"district":{"key":"09472","name":"Bayreuth","type":"Landkreis"},"federalState":{"key":"09","name":"Bayern"}},{"name":"Pegnitzer Str.","postalCode":"91278","locality":"Pottenstein","municipality":{"key":"09472179","name":"Pottenstein, St","type":"Stadt"},"district":{"key":"09472","name":"Bayreuth","type":"Landkreis"},"federalState":{"key":"09","name":"Bayern"}},{"name":"Pfaffenwiese","postalCode":"91278","locality":"Pottenstein","municipality":{"key":"09472179","name":"Pottenstein, St","type":"Stadt"},"district":{"key":"09472","name":"Bayreuth","type":"Landkreis"},"federalState":{"key":"09","name":"Bayern"}},{"name":"Pottensteiner Str.","postalCode":"91278","locality":"Pottenstein","municipality":{"key":"09472179","name":"Pottenstein, St","type":"Stadt"},"district":{"key":"09472","name":"Bayreuth","type":"Landkreis"},"federalState":{"key":"09","name":"Bayern"}},{"name":"Prüllsbirkig","postalCode":"91278","locality":"Pottenstein","municipality":{"key":"09472179","name":"Pottenstein, St","type":"Stadt"},"district":{"key":"09472","name":"Bayreuth","type":"Landkreis"},"federalState":{"key":"09","name":"Bayern"}},{"name":"Püttlach","postalCode":"91278","locality":"Pottenstein","municipality":{"key":"09472179","name":"Pottenstein, St","type":"Stadt"},"district":{"key":"09472","name":"Bayreuth","type":"Landkreis"},"federalState":{"key":"09","name":"Bayern"}},{"name":"Quellengrund","postalCode":"95448","locality":"Bayreuth","municipality":{"key":"09462000","name":"Bayreuth","type":"Kreisfreie_Stadt"},"district":{"key":"09462","name":"Bayreuth","type":"Kreisfreie_Stadt"},"federalState":{"key":"09","name":"Bayern"}},{"name":"Quellhöfe","postalCode":"95447","locality":"Bayreuth","municipality":{"key":"09462000","name":"Bayreuth","type":"Kreisfreie_Stadt"},"district":{"key":"09462","name":"Bayreuth","type":"Kreisfreie_Stadt"},"federalState":{"key":"09","name":"Bayern"}},{"name":"Rabertshof","postalCode":"91278","locality":"Pottenstein","municipality":{"key":"09472179","name":"Pottenstein, St","type":"Stadt"},"district":{"key":"09472","name":"Bayreuth","type":"Landkreis"},"federalState":{"key":"09","name":"Bayern"}},{"name":"Rackersberg","postalCode":"91278","locality":"Pottenstein","municipality":{"key":"09472179","name":"Pottenstein, St","type":"Stadt"},"district":{"key":"09472","name":"Bayreuth","type":"Landkreis"},"federalState":{"key":"09","name":"Bayern"}},{"name":"Sandäcker","postalCode":"91278","locality":"Pottenstein","municipality":{"key":"09472179","name":"Pottenstein, St","type":"Stadt"},"district":{"key":"09472","name":"Bayreuth","type":"Landkreis"},"federalState":{"key":"09","name":"Bayern"}},{"name":"Schlehenweg","postalCode":"91278","locality":"Pottenstein","municipality":{"key":"09472179","name":"Pottenstein, St","type":"Stadt"},"district":{"key":"09472","name":"Bayreuth","type":"Landkreis"},"federalState":{"key":"09","name":"Bayern"}},{"name":"Schüttersmühle","postalCode":"91278","locality":"Pottenstein","municipality":{"key":"09472179","name":"Pottenstein, St","type":"Stadt"},"district":{"key":"09472","name":"Bayreuth","type":"Landkreis"},"federalState":{"key":"09","name":"Bayern"}},{"name":"Siegmannsbrunn","postalCode":"91278","locality":"Pottenstein","municipality":{"key":"09472179","name":"Pottenstein, St","type":"Stadt"},"district":{"key":"09472","name":"Bayreuth","type":"Landkreis"},"federalState":{"key":"09","name":"Bayern"}},{"name":"Skywalk","postalCode":"91278","locality":"Pottenstein","municipality":{"key":"09472179","name":"Pottenstein, St","type":"Stadt"},"district":{"key":"09472","name":"Bayreuth","type":"Landkreis"},"federalState":{"key":"09","name":"Bayern"}},{"name":"Soranger","postalCode":"91278","locality":"Pottenstein","municipality":{"key":"09472179","name":"Pottenstein, St","type":"Stadt"},"district":{"key":"09472","name":"Bayreuth","type":"Landkreis"},"federalState":{"key":"09","name":"Bayern"}},{"name":"Spitalstr.","postalCode":"91278","locality":"Pottenstein","municipality":{"key":"09472179","name":"Pottenstein, St","type":"Stadt"},"district":{"key":"09472","name":"Bayreuth","type":"Landkreis"},"federalState":{"key":"09","name":"Bayern"}},{"name":"Steifling","postalCode":"91278","locality":"Pottenstein","municipality":{"key":"09472179","name":"Pottenstein, St","type":"Stadt"},"district":{"key":"09472","name":"Bayreuth","type":"Landkreis"},"federalState":{"key":"09","name":"Bayern"}},{"name":"Stieglitzenhöhe","postalCode":"91278","locality":"Pottenstein","municipality":{"key":"09472179","name":"Pottenstein, St","type":"Stadt"},"district":{"key":"09472","name":"Bayreuth","type":"Landkreis"},"federalState":{"key":"09","name":"Bayern"}},{"name":"St.-Johannes-Str.","postalCode":"91278","locality":"Pottenstein","municipality":{"key":"09472179","name":"Pottenstein, St","type":"Stadt"},"district":{"key":"09472","name":"Bayreuth","type":"Landkreis"},"federalState":{"key":"09","name":"Bayern"}},{"name":"Teubnerstr.","postalCode":"91278","locality":"Pottenstein","municipality":{"key":"09472179","name":"Pottenstein, St","type":"Stadt"},"district":{"key":"09472","name":"Bayreuth","type":"Landkreis"},"federalState":{"key":"09","name":"Bayern"}},{"name":"Untere Dorfstr.","postalCode":"91278","locality":"Pottenstein","municipality":{"key":"09472179","name":"Pottenstein, St","type":"Stadt"},"district":{"key":"09472","name":"Bayreuth","type":"Landkreis"},"federalState":{"key":"09","name":"Bayern"}},{"name":"Vockensteinweg","postalCode":"91278","locality":"Pottenstein","municipality":{"key":"09472179","name":"Pottenstein, St","type":"Stadt"},"district":{"key":"09472","name":"Bayreuth","type":"Landkreis"},"federalState":{"key":"09","name":"Bayern"}},{"name":"Wacholderweg","postalCode":"91278","locality":"Pottenstein","municipality":{"key":"09472179","name":"Pottenstein, St","type":"Stadt"},"district":{"key":"09472","name":"Bayreuth","type":"Landkreis"},"federalState":{"key":"09","name":"Bayern"}},{"name":"Waidacher Dorfstr.","postalCode":"91278","locality":"Pottenstein","municipality":{"key":"09472179","name":"Pottenstein, St","type":"Stadt"},"district":{"key":"09472","name":"Bayreuth","type":"Landkreis"},"federalState":{"key":"09","name":"Bayern"}},{"name":"Waldmannsäcker","postalCode":"91278","locality":"Pottenstein","municipality":{"key":"09472179","name":"Pottenstein, St","type":"Stadt"},"district":{"key":"09472","name":"Bayreuth","type":"Landkreis"},"federalState":{"key":"09","name":"Bayern"}},{"name":"Weidenhüll bei Elbersberg","postalCode":"91278","locality":"Pottenstein","municipality":{"key":"09472179","name":"Pottenstein, St","type":"Stadt"},"district":{"key":"09472","name":"Bayreuth","type":"Landkreis"},"federalState":{"key":"09","name":"Bayern"}},{"name":"Weidenseeser Weg","postalCode":"91278","locality":"Pottenstein","municipality":{"key":"09472179","name":"Pottenstein, St","type":"Stadt"},"district":{"key":"09472","name":"Bayreuth","type":"Landkreis"},"federalState":{"key":"09","name":"Bayern"}},{"name":"Weidmannsgesees","postalCode":"91278","locality":"Pottenstein","municipality":{"key":"09472179","name":"Pottenstein, St","type":"Stadt"},"district":{"key":"09472","name":"Bayreuth","type":"Landkreis"},"federalState":{"key":"09","name":"Bayern"}},{"name":"Weinstr.","postalCode":"91278","locality":"Pottenstein","municipality":{"key":"09472179","name":"Pottenstein, St","type":"Stadt"},"district":{"key":"09472","name":"Bayreuth","type":"Landkreis"},"federalState":{"key":"09","name":"Bayern"}},{"name":"Weinweg","postalCode":"91278","locality":"Pottenstein","municipality":{"key":"09472179","name":"Pottenstein, St","type":"Stadt"},"district":{"key":"09472","name":"Bayreuth","type":"Landkreis"},"federalState":{"key":"09","name":"Bayern"}},{"name":"Wolfslohe","postalCode":"91278","locality":"Pottenstein","municipality":{"key":"09472179","name":"Pottenstein, St","type":"Stadt"},"district":{"key":"09472","name":"Bayreuth","type":"Landkreis"},"federalState":{"key":"09","name":"Bayern"}},{"name":"Ziegeleistr.","postalCode":"91278","locality":"Pottenstein","municipality":{"key":"09472179","name":"Pottenstein, St","type":"Stadt"},"district":{"key":"09472","name":"Bayreuth","type":"Landkreis"},"federalState":{"key":"09","name":"Bayern"}},{"name":"Ziersmühlsteg","postalCode":"91278","locality":"Pottenstein","municipality":{"key":"09472179","name":"Pottenstein, St","type":"Stadt"},"district":{"key":"09472","name":"Bayreuth","type":"Landkreis"},"federalState":{"key":"09","name":"Bayern"}},{"name":"Zum Schloss","postalCode":"91278","locality":"Pottenstein","municipality":{"key":"09472179","name":"Pottenstein, St","type":"Stadt"},"district":{"key":"09472","name":"Bayreuth","type":"Landkreis"},"federalState":{"key":"09","name":"Bayern"}},{"name":"Zum Zeckenstein","postalCode":"91278","locality":"Pottenstein","municipality":{"key":"09472179","name":"Pottenstein, St","type":"Stadt"},"district":{"key":"09472","name":"Bayreuth","type":"Landkreis"},"federalState":{"key":"09","name":"Bayern"}},{"name":"Zur Allee","postalCode":"91278","locality":"Pottenstein","municipality":{"key":"09472179","name":"Pottenstein, St","type":"Stadt"},"district":{"key":"09472","name":"Bayreuth","type":"Landkreis"},"federalState":{"key":"09","name":"Bayern"}},{"name":"Zur Hinterecke","postalCode":"91278","locality":"Pottenstein","municipality":{"key":"09472179","name":"Pottenstein, St","type":"Stadt"},"district":{"key":"09472","name":"Bayreuth","type":"Landkreis"},"federalState":{"key":"09","name":"Bayern"}},{"name":"Ährenweg","postalCode":"95448","locality":"Bayreuth","municipality":{"key":"09462000","name":"Bayreuth","type":"Kreisfreie_Stadt"},"district":{"key":"09462","name":"Bayreuth","type":"Kreisfreie_Stadt"},"federalState":{"key":"09","name":"Bayern"}},{"name":"Äußere Badstr.","postalCode":"95444","locality":"Bayreuth","municipality":{"key":"09462000","name":"Bayreuth","type":"Kreisfreie_Stadt"},"district":{"key":"09462","name":"Bayreuth","type":"Kreisfreie_Stadt"},"federalState":{"key":"09","name":"Bayern"}},{"name":"Äußere Badstr.","postalCode":"95448","locality":"Bayreuth","municipality":{"key":"09462000","name":"Bayreuth","type":"Kreisfreie_Stadt"},"district":{"key":"09462","name":"Bayreuth","type":"Kreisfreie_Stadt"},"federalState":{"key":"09","name":"Bayern"}},{"name":"Äußere Nürnberger Str.","postalCode":"95448","locality":"Bayreuth","municipality":{"key":"09462000","name":"Bayreuth","type":"Kreisfreie_Stadt"},"district":{"key":"09462","name":"Bayreuth","type":"Kreisfreie_Stadt"},"federalState":{"key":"09","name":"Bayern"}},]