[{"name":"Alte Schulstr.","postalCode":"51598","locality":"Friesenhagen","municipality":{"key":"07132037","name":"Friesenhagen","type":"Kreisangehörige_Gemeinde"},"district":{"key":"07132","name":"Altenkirchen (Westerwald)","type":"Landkreis"},"federalState":{"key":"07","name":"Rheinland-Pfalz"}},{"name":"Am Fußfall","postalCode":"51598","locality":"Friesenhagen","municipality":{"key":"07132037","name":"Friesenhagen","type":"Kreisangehörige_Gemeinde"},"district":{"key":"07132","name":"Altenkirchen (Westerwald)","type":"Landkreis"},"federalState":{"key":"07","name":"Rheinland-Pfalz"}},{"name":"Am Krängel","postalCode":"51598","locality":"Friesenhagen","municipality":{"key":"07132037","name":"Friesenhagen","type":"Kreisangehörige_Gemeinde"},"district":{"key":"07132","name":"Altenkirchen (Westerwald)","type":"Landkreis"},"federalState":{"key":"07","name":"Rheinland-Pfalz"}},{"name":"Am Kutschweg","postalCode":"51598","locality":"Friesenhagen","municipality":{"key":"07132037","name":"Friesenhagen","type":"Kreisangehörige_Gemeinde"},"district":{"key":"07132","name":"Altenkirchen (Westerwald)","type":"Landkreis"},"federalState":{"key":"07","name":"Rheinland-Pfalz"}},{"name":"Am Ower","postalCode":"51598","locality":"Friesenhagen","municipality":{"key":"07132037","name":"Friesenhagen","type":"Kreisangehörige_Gemeinde"},"district":{"key":"07132","name":"Altenkirchen (Westerwald)","type":"Landkreis"},"federalState":{"key":"07","name":"Rheinland-Pfalz"}},{"name":"Am Wasserstollen","postalCode":"51598","locality":"Friesenhagen","municipality":{"key":"07132037","name":"Friesenhagen","type":"Kreisangehörige_Gemeinde"},"district":{"key":"07132","name":"Altenkirchen (Westerwald)","type":"Landkreis"},"federalState":{"key":"07","name":"Rheinland-Pfalz"}},{"name":"Bachstr.","postalCode":"51598","locality":"Friesenhagen","municipality":{"key":"07132037","name":"Friesenhagen","type":"Kreisangehörige_Gemeinde"},"district":{"key":"07132","name":"Altenkirchen (Westerwald)","type":"Landkreis"},"federalState":{"key":"07","name":"Rheinland-Pfalz"}},{"name":"Beienbach","postalCode":"51598","locality":"Friesenhagen","municipality":{"key":"07132037","name":"Friesenhagen","type":"Kreisangehörige_Gemeinde"},"district":{"key":"07132","name":"Altenkirchen (Westerwald)","type":"Landkreis"},"federalState":{"key":"07","name":"Rheinland-Pfalz"}},{"name":"Bettorf","postalCode":"51598","locality":"Friesenhagen","municipality":{"key":"07132037","name":"Friesenhagen","type":"Kreisangehörige_Gemeinde"},"district":{"key":"07132","name":"Altenkirchen (Westerwald)","type":"Landkreis"},"federalState":{"key":"07","name":"Rheinland-Pfalz"}},{"name":"Bitzchen","postalCode":"51598","locality":"Friesenhagen","municipality":{"key":"07132037","name":"Friesenhagen","type":"Kreisangehörige_Gemeinde"},"district":{"key":"07132","name":"Altenkirchen (Westerwald)","type":"Landkreis"},"federalState":{"key":"07","name":"Rheinland-Pfalz"}},{"name":"Blumenberg","postalCode":"51598","locality":"Friesenhagen","municipality":{"key":"07132037","name":"Friesenhagen","type":"Kreisangehörige_Gemeinde"},"district":{"key":"07132","name":"Altenkirchen (Westerwald)","type":"Landkreis"},"federalState":{"key":"07","name":"Rheinland-Pfalz"}},{"name":"Bockenbaum","postalCode":"51598","locality":"Friesenhagen","municipality":{"key":"07132037","name":"Friesenhagen","type":"Kreisangehörige_Gemeinde"},"district":{"key":"07132","name":"Altenkirchen (Westerwald)","type":"Landkreis"},"federalState":{"key":"07","name":"Rheinland-Pfalz"}},{"name":"Bosenberg","postalCode":"51598","locality":"Friesenhagen","municipality":{"key":"07132037","name":"Friesenhagen","type":"Kreisangehörige_Gemeinde"},"district":{"key":"07132","name":"Altenkirchen (Westerwald)","type":"Landkreis"},"federalState":{"key":"07","name":"Rheinland-Pfalz"}},{"name":"Crottorf","postalCode":"51598","locality":"Friesenhagen","municipality":{"key":"07132037","name":"Friesenhagen","type":"Kreisangehörige_Gemeinde"},"district":{"key":"07132","name":"Altenkirchen (Westerwald)","type":"Landkreis"},"federalState":{"key":"07","name":"Rheinland-Pfalz"}},{"name":"F4","postalCode":"51598","locality":"Friesenhagen","municipality":{"key":"07132037","name":"Friesenhagen","type":"Kreisangehörige_Gemeinde"},"district":{"key":"07132","name":"Altenkirchen (Westerwald)","type":"Landkreis"},"federalState":{"key":"07","name":"Rheinland-Pfalz"}},{"name":"Feldstr.","postalCode":"51598","locality":"Friesenhagen","municipality":{"key":"07132037","name":"Friesenhagen","type":"Kreisangehörige_Gemeinde"},"district":{"key":"07132","name":"Altenkirchen (Westerwald)","type":"Landkreis"},"federalState":{"key":"07","name":"Rheinland-Pfalz"}},{"name":"Gartenweg","postalCode":"51598","locality":"Friesenhagen","municipality":{"key":"07132037","name":"Friesenhagen","type":"Kreisangehörige_Gemeinde"},"district":{"key":"07132","name":"Altenkirchen (Westerwald)","type":"Landkreis"},"federalState":{"key":"07","name":"Rheinland-Pfalz"}},{"name":"Gerndorf","postalCode":"51598","locality":"Friesenhagen","municipality":{"key":"07132037","name":"Friesenhagen","type":"Kreisangehörige_Gemeinde"},"district":{"key":"07132","name":"Altenkirchen (Westerwald)","type":"Landkreis"},"federalState":{"key":"07","name":"Rheinland-Pfalz"}},{"name":"Gerndorferhöhe","postalCode":"51598","locality":"Friesenhagen","municipality":{"key":"07132037","name":"Friesenhagen","type":"Kreisangehörige_Gemeinde"},"district":{"key":"07132","name":"Altenkirchen (Westerwald)","type":"Landkreis"},"federalState":{"key":"07","name":"Rheinland-Pfalz"}},{"name":"Hammer","postalCode":"51598","locality":"Friesenhagen","municipality":{"key":"07132037","name":"Friesenhagen","type":"Kreisangehörige_Gemeinde"},"district":{"key":"07132","name":"Altenkirchen (Westerwald)","type":"Landkreis"},"federalState":{"key":"07","name":"Rheinland-Pfalz"}},{"name":"Hammerhöhe","postalCode":"51598","locality":"Friesenhagen","municipality":{"key":"07132037","name":"Friesenhagen","type":"Kreisangehörige_Gemeinde"},"district":{"key":"07132","name":"Altenkirchen (Westerwald)","type":"Landkreis"},"federalState":{"key":"07","name":"Rheinland-Pfalz"}},{"name":"Hauptstr.","postalCode":"51598","locality":"Friesenhagen","municipality":{"key":"07132037","name":"Friesenhagen","type":"Kreisangehörige_Gemeinde"},"district":{"key":"07132","name":"Altenkirchen (Westerwald)","type":"Landkreis"},"federalState":{"key":"07","name":"Rheinland-Pfalz"}},{"name":"Höferhof","postalCode":"51598","locality":"Friesenhagen","municipality":{"key":"07132037","name":"Friesenhagen","type":"Kreisangehörige_Gemeinde"},"district":{"key":"07132","name":"Altenkirchen (Westerwald)","type":"Landkreis"},"federalState":{"key":"07","name":"Rheinland-Pfalz"}},{"name":"Hühnerkamp","postalCode":"51598","locality":"Friesenhagen","municipality":{"key":"07132037","name":"Friesenhagen","type":"Kreisangehörige_Gemeinde"},"district":{"key":"07132","name":"Altenkirchen (Westerwald)","type":"Landkreis"},"federalState":{"key":"07","name":"Rheinland-Pfalz"}},{"name":"Kappenstein","postalCode":"51598","locality":"Friesenhagen","municipality":{"key":"07132037","name":"Friesenhagen","type":"Kreisangehörige_Gemeinde"},"district":{"key":"07132","name":"Altenkirchen (Westerwald)","type":"Landkreis"},"federalState":{"key":"07","name":"Rheinland-Pfalz"}},{"name":"Klosterfeld","postalCode":"51598","locality":"Friesenhagen","municipality":{"key":"07132037","name":"Friesenhagen","type":"Kreisangehörige_Gemeinde"},"district":{"key":"07132","name":"Altenkirchen (Westerwald)","type":"Landkreis"},"federalState":{"key":"07","name":"Rheinland-Pfalz"}},{"name":"Klosterstr.","postalCode":"51598","locality":"Friesenhagen","municipality":{"key":"07132037","name":"Friesenhagen","type":"Kreisangehörige_Gemeinde"},"district":{"key":"07132","name":"Altenkirchen (Westerwald)","type":"Landkreis"},"federalState":{"key":"07","name":"Rheinland-Pfalz"}},{"name":"Möschengasse","postalCode":"51598","locality":"Friesenhagen","municipality":{"key":"07132037","name":"Friesenhagen","type":"Kreisangehörige_Gemeinde"},"district":{"key":"07132","name":"Altenkirchen (Westerwald)","type":"Landkreis"},"federalState":{"key":"07","name":"Rheinland-Pfalz"}},{"name":"Mühlenhof","postalCode":"51598","locality":"Friesenhagen","municipality":{"key":"07132037","name":"Friesenhagen","type":"Kreisangehörige_Gemeinde"},"district":{"key":"07132","name":"Altenkirchen (Westerwald)","type":"Landkreis"},"federalState":{"key":"07","name":"Rheinland-Pfalz"}},{"name":"Rathausweg","postalCode":"51598","locality":"Friesenhagen","municipality":{"key":"07132037","name":"Friesenhagen","type":"Kreisangehörige_Gemeinde"},"district":{"key":"07132","name":"Altenkirchen (Westerwald)","type":"Landkreis"},"federalState":{"key":"07","name":"Rheinland-Pfalz"}},{"name":"Sankt-Anna-Weg","postalCode":"51598","locality":"Friesenhagen","municipality":{"key":"07132037","name":"Friesenhagen","type":"Kreisangehörige_Gemeinde"},"district":{"key":"07132","name":"Altenkirchen (Westerwald)","type":"Landkreis"},"federalState":{"key":"07","name":"Rheinland-Pfalz"}},{"name":"Strahlenbach","postalCode":"51598","locality":"Friesenhagen","municipality":{"key":"07132037","name":"Friesenhagen","type":"Kreisangehörige_Gemeinde"},"district":{"key":"07132","name":"Altenkirchen (Westerwald)","type":"Landkreis"},"federalState":{"key":"07","name":"Rheinland-Pfalz"}},{"name":"Wintert","postalCode":"51598","locality":"Friesenhagen","municipality":{"key":"07132037","name":"Friesenhagen","type":"Kreisangehörige_Gemeinde"},"district":{"key":"07132","name":"Altenkirchen (Westerwald)","type":"Landkreis"},"federalState":{"key":"07","name":"Rheinland-Pfalz"}},{"name":"Zollstr.","postalCode":"51598","locality":"Friesenhagen","municipality":{"key":"07132037","name":"Friesenhagen","type":"Kreisangehörige_Gemeinde"},"district":{"key":"07132","name":"Altenkirchen (Westerwald)","type":"Landkreis"},"federalState":{"key":"07","name":"Rheinland-Pfalz"}},{"name":"Zur Linde","postalCode":"51598","locality":"Friesenhagen","municipality":{"key":"07132037","name":"Friesenhagen","type":"Kreisangehörige_Gemeinde"},"district":{"key":"07132","name":"Altenkirchen (Westerwald)","type":"Landkreis"},"federalState":{"key":"07","name":"Rheinland-Pfalz"}},]