[{"name":"Alte Schulstr.","postalCode":"54668","locality":"Ernzen","municipality":{"key":"07232033","name":"Ernzen","type":"Kreisangehörige_Gemeinde"},"district":{"key":"07232","name":"Eifelkreis Bitburg-Prüm","type":"Landkreis"},"federalState":{"key":"07","name":"Rheinland-Pfalz"}},{"name":"Am Plärrer","postalCode":"91619","locality":"Obernzenn","municipality":{"key":"09575156","name":"Obernzenn, M","type":"Markt"},"district":{"key":"09575","name":"Neustadt a.d.Aisch-Bad Windsheim","type":"Landkreis"},"federalState":{"key":"09","name":"Bayern"}},{"name":"Am Schwarzfeld","postalCode":"91619","locality":"Obernzenn","municipality":{"key":"09575156","name":"Obernzenn, M","type":"Markt"},"district":{"key":"09575","name":"Neustadt a.d.Aisch-Bad Windsheim","type":"Landkreis"},"federalState":{"key":"09","name":"Bayern"}},{"name":"Am Windbuck","postalCode":"91619","locality":"Obernzenn","municipality":{"key":"09575156","name":"Obernzenn, M","type":"Markt"},"district":{"key":"09575","name":"Neustadt a.d.Aisch-Bad Windsheim","type":"Landkreis"},"federalState":{"key":"09","name":"Bayern"}},{"name":"Ansbacher Str.","postalCode":"91619","locality":"Obernzenn","municipality":{"key":"09575156","name":"Obernzenn, M","type":"Markt"},"district":{"key":"09575","name":"Neustadt a.d.Aisch-Bad Windsheim","type":"Landkreis"},"federalState":{"key":"09","name":"Bayern"}},{"name":"Auf der Höh'","postalCode":"54668","locality":"Ernzen","municipality":{"key":"07232033","name":"Ernzen","type":"Kreisangehörige_Gemeinde"},"district":{"key":"07232","name":"Eifelkreis Bitburg-Prüm","type":"Landkreis"},"federalState":{"key":"07","name":"Rheinland-Pfalz"}},{"name":"Bad Windsheimer Str.","postalCode":"91619","locality":"Obernzenn","municipality":{"key":"09575156","name":"Obernzenn, M","type":"Markt"},"district":{"key":"09575","name":"Neustadt a.d.Aisch-Bad Windsheim","type":"Landkreis"},"federalState":{"key":"09","name":"Bayern"}},{"name":"Bergstr.","postalCode":"91619","locality":"Obernzenn","municipality":{"key":"09575156","name":"Obernzenn, M","type":"Markt"},"district":{"key":"09575","name":"Neustadt a.d.Aisch-Bad Windsheim","type":"Landkreis"},"federalState":{"key":"09","name":"Bayern"}},{"name":"Bräubuckweg","postalCode":"91619","locality":"Obernzenn","municipality":{"key":"09575156","name":"Obernzenn, M","type":"Markt"},"district":{"key":"09575","name":"Neustadt a.d.Aisch-Bad Windsheim","type":"Landkreis"},"federalState":{"key":"09","name":"Bayern"}},{"name":"Daxlaystr.","postalCode":"54668","locality":"Ernzen","municipality":{"key":"07232033","name":"Ernzen","type":"Kreisangehörige_Gemeinde"},"district":{"key":"07232","name":"Eifelkreis Bitburg-Prüm","type":"Landkreis"},"federalState":{"key":"07","name":"Rheinland-Pfalz"}},{"name":"Esbacher Ring","postalCode":"91619","locality":"Obernzenn","municipality":{"key":"09575156","name":"Obernzenn, M","type":"Markt"},"district":{"key":"09575","name":"Neustadt a.d.Aisch-Bad Windsheim","type":"Landkreis"},"federalState":{"key":"09","name":"Bayern"}},{"name":"Ferschweilerstr.","postalCode":"54668","locality":"Ernzen","municipality":{"key":"07232033","name":"Ernzen","type":"Kreisangehörige_Gemeinde"},"district":{"key":"07232","name":"Eifelkreis Bitburg-Prüm","type":"Landkreis"},"federalState":{"key":"07","name":"Rheinland-Pfalz"}},{"name":"Flurstr.","postalCode":"54668","locality":"Ernzen","municipality":{"key":"07232033","name":"Ernzen","type":"Kreisangehörige_Gemeinde"},"district":{"key":"07232","name":"Eifelkreis Bitburg-Prüm","type":"Landkreis"},"federalState":{"key":"07","name":"Rheinland-Pfalz"}},{"name":"Hauptstr.","postalCode":"91619","locality":"Obernzenn","municipality":{"key":"09575156","name":"Obernzenn, M","type":"Markt"},"district":{"key":"09575","name":"Neustadt a.d.Aisch-Bad Windsheim","type":"Landkreis"},"federalState":{"key":"09","name":"Bayern"}},{"name":"Hochstr.","postalCode":"91619","locality":"Obernzenn","municipality":{"key":"09575156","name":"Obernzenn, M","type":"Markt"},"district":{"key":"09575","name":"Neustadt a.d.Aisch-Bad Windsheim","type":"Landkreis"},"federalState":{"key":"09","name":"Bayern"}},{"name":"Hohlweg","postalCode":"54668","locality":"Ernzen","municipality":{"key":"07232033","name":"Ernzen","type":"Kreisangehörige_Gemeinde"},"district":{"key":"07232","name":"Eifelkreis Bitburg-Prüm","type":"Landkreis"},"federalState":{"key":"07","name":"Rheinland-Pfalz"}},{"name":"Hüllstr.","postalCode":"91619","locality":"Obernzenn","municipality":{"key":"09575156","name":"Obernzenn, M","type":"Markt"},"district":{"key":"09575","name":"Neustadt a.d.Aisch-Bad Windsheim","type":"Landkreis"},"federalState":{"key":"09","name":"Bayern"}},{"name":"Im Spelzenfeld","postalCode":"54668","locality":"Ernzen","municipality":{"key":"07232033","name":"Ernzen","type":"Kreisangehörige_Gemeinde"},"district":{"key":"07232","name":"Eifelkreis Bitburg-Prüm","type":"Landkreis"},"federalState":{"key":"07","name":"Rheinland-Pfalz"}},{"name":"Karl-Denzler-Str.","postalCode":"91619","locality":"Obernzenn","municipality":{"key":"09575156","name":"Obernzenn, M","type":"Markt"},"district":{"key":"09575","name":"Neustadt a.d.Aisch-Bad Windsheim","type":"Landkreis"},"federalState":{"key":"09","name":"Bayern"}},{"name":"Kellerhausstr.","postalCode":"91619","locality":"Obernzenn","municipality":{"key":"09575156","name":"Obernzenn, M","type":"Markt"},"district":{"key":"09575","name":"Neustadt a.d.Aisch-Bad Windsheim","type":"Landkreis"},"federalState":{"key":"09","name":"Bayern"}},{"name":"Kirchgasse","postalCode":"91619","locality":"Obernzenn","municipality":{"key":"09575156","name":"Obernzenn, M","type":"Markt"},"district":{"key":"09575","name":"Neustadt a.d.Aisch-Bad Windsheim","type":"Landkreis"},"federalState":{"key":"09","name":"Bayern"}},{"name":"Konrad-Geißelbrecht-Str.","postalCode":"91619","locality":"Obernzenn","municipality":{"key":"09575156","name":"Obernzenn, M","type":"Markt"},"district":{"key":"09575","name":"Neustadt a.d.Aisch-Bad Windsheim","type":"Landkreis"},"federalState":{"key":"09","name":"Bayern"}},{"name":"Margarete-Ries-Str.","postalCode":"91619","locality":"Obernzenn","municipality":{"key":"09575156","name":"Obernzenn, M","type":"Markt"},"district":{"key":"09575","name":"Neustadt a.d.Aisch-Bad Windsheim","type":"Landkreis"},"federalState":{"key":"09","name":"Bayern"}},{"name":"Markersbacher Str.","postalCode":"91619","locality":"Obernzenn","municipality":{"key":"09575156","name":"Obernzenn, M","type":"Markt"},"district":{"key":"09575","name":"Neustadt a.d.Aisch-Bad Windsheim","type":"Landkreis"},"federalState":{"key":"09","name":"Bayern"}},{"name":"Marktplatz","postalCode":"91619","locality":"Obernzenn","municipality":{"key":"09575156","name":"Obernzenn, M","type":"Markt"},"district":{"key":"09575","name":"Neustadt a.d.Aisch-Bad Windsheim","type":"Landkreis"},"federalState":{"key":"09","name":"Bayern"}},{"name":"Messeweg","postalCode":"54668","locality":"Ernzen","municipality":{"key":"07232033","name":"Ernzen","type":"Kreisangehörige_Gemeinde"},"district":{"key":"07232","name":"Eifelkreis Bitburg-Prüm","type":"Landkreis"},"federalState":{"key":"07","name":"Rheinland-Pfalz"}},{"name":"Mühlleite","postalCode":"91619","locality":"Obernzenn","municipality":{"key":"09575156","name":"Obernzenn, M","type":"Markt"},"district":{"key":"09575","name":"Neustadt a.d.Aisch-Bad Windsheim","type":"Landkreis"},"federalState":{"key":"09","name":"Bayern"}},{"name":"Nürnberger Str.","postalCode":"91619","locality":"Obernzenn","municipality":{"key":"09575156","name":"Obernzenn, M","type":"Markt"},"district":{"key":"09575","name":"Neustadt a.d.Aisch-Bad Windsheim","type":"Landkreis"},"federalState":{"key":"09","name":"Bayern"}},{"name":"Paul-Hartmann-Str.","postalCode":"91619","locality":"Obernzenn","municipality":{"key":"09575156","name":"Obernzenn, M","type":"Markt"},"district":{"key":"09575","name":"Neustadt a.d.Aisch-Bad Windsheim","type":"Landkreis"},"federalState":{"key":"09","name":"Bayern"}},{"name":"Pfarrgasse","postalCode":"91619","locality":"Obernzenn","municipality":{"key":"09575156","name":"Obernzenn, M","type":"Markt"},"district":{"key":"09575","name":"Neustadt a.d.Aisch-Bad Windsheim","type":"Landkreis"},"federalState":{"key":"09","name":"Bayern"}},{"name":"Pfarrplatz","postalCode":"91619","locality":"Obernzenn","municipality":{"key":"09575156","name":"Obernzenn, M","type":"Markt"},"district":{"key":"09575","name":"Neustadt a.d.Aisch-Bad Windsheim","type":"Landkreis"},"federalState":{"key":"09","name":"Bayern"}},{"name":"Ringstr.","postalCode":"91619","locality":"Obernzenn","municipality":{"key":"09575156","name":"Obernzenn, M","type":"Markt"},"district":{"key":"09575","name":"Neustadt a.d.Aisch-Bad Windsheim","type":"Landkreis"},"federalState":{"key":"09","name":"Bayern"}},{"name":"Rosenleite","postalCode":"91619","locality":"Obernzenn","municipality":{"key":"09575156","name":"Obernzenn, M","type":"Markt"},"district":{"key":"09575","name":"Neustadt a.d.Aisch-Bad Windsheim","type":"Landkreis"},"federalState":{"key":"09","name":"Bayern"}},{"name":"Schlurpenstr.","postalCode":"54668","locality":"Ernzen","municipality":{"key":"07232033","name":"Ernzen","type":"Kreisangehörige_Gemeinde"},"district":{"key":"07232","name":"Eifelkreis Bitburg-Prüm","type":"Landkreis"},"federalState":{"key":"07","name":"Rheinland-Pfalz"}},{"name":"Schulstr.","postalCode":"91619","locality":"Obernzenn","municipality":{"key":"09575156","name":"Obernzenn, M","type":"Markt"},"district":{"key":"09575","name":"Neustadt a.d.Aisch-Bad Windsheim","type":"Landkreis"},"federalState":{"key":"09","name":"Bayern"}},{"name":"Seckendorffstr.","postalCode":"91619","locality":"Obernzenn","municipality":{"key":"09575156","name":"Obernzenn, M","type":"Markt"},"district":{"key":"09575","name":"Neustadt a.d.Aisch-Bad Windsheim","type":"Landkreis"},"federalState":{"key":"09","name":"Bayern"}},{"name":"Siedlung","postalCode":"91619","locality":"Obernzenn","municipality":{"key":"09575156","name":"Obernzenn, M","type":"Markt"},"district":{"key":"09575","name":"Neustadt a.d.Aisch-Bad Windsheim","type":"Landkreis"},"federalState":{"key":"09","name":"Bayern"}},{"name":"Sondernoher Str.","postalCode":"91619","locality":"Obernzenn","municipality":{"key":"09575156","name":"Obernzenn, M","type":"Markt"},"district":{"key":"09575","name":"Neustadt a.d.Aisch-Bad Windsheim","type":"Landkreis"},"federalState":{"key":"09","name":"Bayern"}},{"name":"Stalkerweg","postalCode":"91619","locality":"Obernzenn","municipality":{"key":"09575156","name":"Obernzenn, M","type":"Markt"},"district":{"key":"09575","name":"Neustadt a.d.Aisch-Bad Windsheim","type":"Landkreis"},"federalState":{"key":"09","name":"Bayern"}},{"name":"Steinbacher Weg","postalCode":"91619","locality":"Obernzenn","municipality":{"key":"09575156","name":"Obernzenn, M","type":"Markt"},"district":{"key":"09575","name":"Neustadt a.d.Aisch-Bad Windsheim","type":"Landkreis"},"federalState":{"key":"09","name":"Bayern"}},{"name":"Sudetenweg","postalCode":"91619","locality":"Obernzenn","municipality":{"key":"09575156","name":"Obernzenn, M","type":"Markt"},"district":{"key":"09575","name":"Neustadt a.d.Aisch-Bad Windsheim","type":"Landkreis"},"federalState":{"key":"09","name":"Bayern"}},{"name":"Theisstr.","postalCode":"54668","locality":"Ernzen","municipality":{"key":"07232033","name":"Ernzen","type":"Kreisangehörige_Gemeinde"},"district":{"key":"07232","name":"Eifelkreis Bitburg-Prüm","type":"Landkreis"},"federalState":{"key":"07","name":"Rheinland-Pfalz"}},{"name":"Uffenheimer Str.","postalCode":"91619","locality":"Obernzenn","municipality":{"key":"09575156","name":"Obernzenn, M","type":"Markt"},"district":{"key":"09575","name":"Neustadt a.d.Aisch-Bad Windsheim","type":"Landkreis"},"federalState":{"key":"09","name":"Bayern"}},{"name":"Urphertshofer Str.","postalCode":"91619","locality":"Obernzenn","municipality":{"key":"09575156","name":"Obernzenn, M","type":"Markt"},"district":{"key":"09575","name":"Neustadt a.d.Aisch-Bad Windsheim","type":"Landkreis"},"federalState":{"key":"09","name":"Bayern"}},{"name":"Weiherstr.","postalCode":"91619","locality":"Obernzenn","municipality":{"key":"09575156","name":"Obernzenn, M","type":"Markt"},"district":{"key":"09575","name":"Neustadt a.d.Aisch-Bad Windsheim","type":"Landkreis"},"federalState":{"key":"09","name":"Bayern"}},{"name":"Weilerbacher Str.","postalCode":"54668","locality":"Ernzen","municipality":{"key":"07232033","name":"Ernzen","type":"Kreisangehörige_Gemeinde"},"district":{"key":"07232","name":"Eifelkreis Bitburg-Prüm","type":"Landkreis"},"federalState":{"key":"07","name":"Rheinland-Pfalz"}},{"name":"Wiesenstr.","postalCode":"91619","locality":"Obernzenn","municipality":{"key":"09575156","name":"Obernzenn, M","type":"Markt"},"district":{"key":"09575","name":"Neustadt a.d.Aisch-Bad Windsheim","type":"Landkreis"},"federalState":{"key":"09","name":"Bayern"}},{"name":"Wilhelm-Löhe-Str.","postalCode":"91619","locality":"Obernzenn","municipality":{"key":"09575156","name":"Obernzenn, M","type":"Markt"},"district":{"key":"09575","name":"Neustadt a.d.Aisch-Bad Windsheim","type":"Landkreis"},"federalState":{"key":"09","name":"Bayern"}},{"name":"Wimmelbacher Str.","postalCode":"91619","locality":"Obernzenn","municipality":{"key":"09575156","name":"Obernzenn, M","type":"Markt"},"district":{"key":"09575","name":"Neustadt a.d.Aisch-Bad Windsheim","type":"Landkreis"},"federalState":{"key":"09","name":"Bayern"}},{"name":"Windbuckweg","postalCode":"91619","locality":"Obernzenn","municipality":{"key":"09575156","name":"Obernzenn, M","type":"Markt"},"district":{"key":"09575","name":"Neustadt a.d.Aisch-Bad Windsheim","type":"Landkreis"},"federalState":{"key":"09","name":"Bayern"}},{"name":"Windmühlenweg","postalCode":"91619","locality":"Obernzenn","municipality":{"key":"09575156","name":"Obernzenn, M","type":"Markt"},"district":{"key":"09575","name":"Neustadt a.d.Aisch-Bad Windsheim","type":"Landkreis"},"federalState":{"key":"09","name":"Bayern"}},{"name":"Wolf-Dietrich-Kraneis-Str.","postalCode":"91619","locality":"Obernzenn","municipality":{"key":"09575156","name":"Obernzenn, M","type":"Markt"},"district":{"key":"09575","name":"Neustadt a.d.Aisch-Bad Windsheim","type":"Landkreis"},"federalState":{"key":"09","name":"Bayern"}},]