[{"name":"Altegarten","postalCode":"56244","locality":"Hahn am See","municipality":{"key":"07143232","name":"Hahn am See","type":"Kreisangehörige_Gemeinde"},"district":{"key":"07143","name":"Westerwaldkreis","type":"Landkreis"},"federalState":{"key":"07","name":"Rheinland-Pfalz"}},{"name":"Auf dem Berg","postalCode":"56244","locality":"Hahn am See","municipality":{"key":"07143232","name":"Hahn am See","type":"Kreisangehörige_Gemeinde"},"district":{"key":"07143","name":"Westerwaldkreis","type":"Landkreis"},"federalState":{"key":"07","name":"Rheinland-Pfalz"}},{"name":"Bachwiese","postalCode":"56244","locality":"Hahn am See","municipality":{"key":"07143232","name":"Hahn am See","type":"Kreisangehörige_Gemeinde"},"district":{"key":"07143","name":"Westerwaldkreis","type":"Landkreis"},"federalState":{"key":"07","name":"Rheinland-Pfalz"}},{"name":"Elbinger Str.","postalCode":"56244","locality":"Hahn am See","municipality":{"key":"07143232","name":"Hahn am See","type":"Kreisangehörige_Gemeinde"},"district":{"key":"07143","name":"Westerwaldkreis","type":"Landkreis"},"federalState":{"key":"07","name":"Rheinland-Pfalz"}},{"name":"Finkenweg","postalCode":"56244","locality":"Hahn am See","municipality":{"key":"07143232","name":"Hahn am See","type":"Kreisangehörige_Gemeinde"},"district":{"key":"07143","name":"Westerwaldkreis","type":"Landkreis"},"federalState":{"key":"07","name":"Rheinland-Pfalz"}},{"name":"Höhenweg","postalCode":"56244","locality":"Hahn am See","municipality":{"key":"07143232","name":"Hahn am See","type":"Kreisangehörige_Gemeinde"},"district":{"key":"07143","name":"Westerwaldkreis","type":"Landkreis"},"federalState":{"key":"07","name":"Rheinland-Pfalz"}},{"name":"Hohe Str.","postalCode":"56244","locality":"Hahn am See","municipality":{"key":"07143232","name":"Hahn am See","type":"Kreisangehörige_Gemeinde"},"district":{"key":"07143","name":"Westerwaldkreis","type":"Landkreis"},"federalState":{"key":"07","name":"Rheinland-Pfalz"}},{"name":"Im Hergenbusch","postalCode":"56244","locality":"Hahn am See","municipality":{"key":"07143232","name":"Hahn am See","type":"Kreisangehörige_Gemeinde"},"district":{"key":"07143","name":"Westerwaldkreis","type":"Landkreis"},"federalState":{"key":"07","name":"Rheinland-Pfalz"}},{"name":"Im Hofacker","postalCode":"56244","locality":"Hahn am See","municipality":{"key":"07143232","name":"Hahn am See","type":"Kreisangehörige_Gemeinde"},"district":{"key":"07143","name":"Westerwaldkreis","type":"Landkreis"},"federalState":{"key":"07","name":"Rheinland-Pfalz"}},{"name":"Schulstr.","postalCode":"56244","locality":"Hahn am See","municipality":{"key":"07143232","name":"Hahn am See","type":"Kreisangehörige_Gemeinde"},"district":{"key":"07143","name":"Westerwaldkreis","type":"Landkreis"},"federalState":{"key":"07","name":"Rheinland-Pfalz"}},{"name":"Untergasse","postalCode":"56244","locality":"Hahn am See","municipality":{"key":"07143232","name":"Hahn am See","type":"Kreisangehörige_Gemeinde"},"district":{"key":"07143","name":"Westerwaldkreis","type":"Landkreis"},"federalState":{"key":"07","name":"Rheinland-Pfalz"}},{"name":"Waldstr.","postalCode":"56244","locality":"Hahn am See","municipality":{"key":"07143232","name":"Hahn am See","type":"Kreisangehörige_Gemeinde"},"district":{"key":"07143","name":"Westerwaldkreis","type":"Landkreis"},"federalState":{"key":"07","name":"Rheinland-Pfalz"}},]