[{"name":"Achtern Immhoff","postalCode":"21382","locality":"Brietlingen","municipality":{"key":"03355011","name":"Brietlingen","type":"Kreisangehörige_Gemeinde"},"district":{"key":"03355","name":"Lüneburg","type":"Landkreis"},"federalState":{"key":"03","name":"Niedersachsen"}},{"name":"Alte Salzstr.","postalCode":"21382","locality":"Brietlingen","municipality":{"key":"03355011","name":"Brietlingen","type":"Kreisangehörige_Gemeinde"},"district":{"key":"03355","name":"Lüneburg","type":"Landkreis"},"federalState":{"key":"03","name":"Niedersachsen"}},{"name":"Alt Moorburg","postalCode":"21382","locality":"Brietlingen","municipality":{"key":"03355011","name":"Brietlingen","type":"Kreisangehörige_Gemeinde"},"district":{"key":"03355","name":"Lüneburg","type":"Landkreis"},"federalState":{"key":"03","name":"Niedersachsen"}},{"name":"Am Bültenmoor","postalCode":"21382","locality":"Brietlingen","municipality":{"key":"03355011","name":"Brietlingen","type":"Kreisangehörige_Gemeinde"},"district":{"key":"03355","name":"Lüneburg","type":"Landkreis"},"federalState":{"key":"03","name":"Niedersachsen"}},{"name":"Am Gemeindehaus","postalCode":"21382","locality":"Brietlingen","municipality":{"key":"03355011","name":"Brietlingen","type":"Kreisangehörige_Gemeinde"},"district":{"key":"03355","name":"Lüneburg","type":"Landkreis"},"federalState":{"key":"03","name":"Niedersachsen"}},{"name":"Am Lindenhof","postalCode":"21382","locality":"Brietlingen","municipality":{"key":"03355011","name":"Brietlingen","type":"Kreisangehörige_Gemeinde"},"district":{"key":"03355","name":"Lüneburg","type":"Landkreis"},"federalState":{"key":"03","name":"Niedersachsen"}},{"name":"Amselweg","postalCode":"21382","locality":"Brietlingen","municipality":{"key":"03355011","name":"Brietlingen","type":"Kreisangehörige_Gemeinde"},"district":{"key":"03355","name":"Lüneburg","type":"Landkreis"},"federalState":{"key":"03","name":"Niedersachsen"}},{"name":"Am Sportplatz","postalCode":"21382","locality":"Brietlingen","municipality":{"key":"03355011","name":"Brietlingen","type":"Kreisangehörige_Gemeinde"},"district":{"key":"03355","name":"Lüneburg","type":"Landkreis"},"federalState":{"key":"03","name":"Niedersachsen"}},{"name":"Backofensend","postalCode":"21382","locality":"Brietlingen","municipality":{"key":"03355011","name":"Brietlingen","type":"Kreisangehörige_Gemeinde"},"district":{"key":"03355","name":"Lüneburg","type":"Landkreis"},"federalState":{"key":"03","name":"Niedersachsen"}},{"name":"Bei der Schmiede","postalCode":"21382","locality":"Brietlingen","municipality":{"key":"03355011","name":"Brietlingen","type":"Kreisangehörige_Gemeinde"},"district":{"key":"03355","name":"Lüneburg","type":"Landkreis"},"federalState":{"key":"03","name":"Niedersachsen"}},{"name":"Beim Schäferdamm","postalCode":"21382","locality":"Brietlingen","municipality":{"key":"03355011","name":"Brietlingen","type":"Kreisangehörige_Gemeinde"},"district":{"key":"03355","name":"Lüneburg","type":"Landkreis"},"federalState":{"key":"03","name":"Niedersachsen"}},{"name":"Birkenweg","postalCode":"21382","locality":"Brietlingen","municipality":{"key":"03355011","name":"Brietlingen","type":"Kreisangehörige_Gemeinde"},"district":{"key":"03355","name":"Lüneburg","type":"Landkreis"},"federalState":{"key":"03","name":"Niedersachsen"}},{"name":"Breslauer Str.","postalCode":"21382","locality":"Brietlingen","municipality":{"key":"03355011","name":"Brietlingen","type":"Kreisangehörige_Gemeinde"},"district":{"key":"03355","name":"Lüneburg","type":"Landkreis"},"federalState":{"key":"03","name":"Niedersachsen"}},{"name":"Bromberger Str.","postalCode":"21382","locality":"Brietlingen","municipality":{"key":"03355011","name":"Brietlingen","type":"Kreisangehörige_Gemeinde"},"district":{"key":"03355","name":"Lüneburg","type":"Landkreis"},"federalState":{"key":"03","name":"Niedersachsen"}},{"name":"Bundesstr.","postalCode":"21382","locality":"Brietlingen","municipality":{"key":"03355011","name":"Brietlingen","type":"Kreisangehörige_Gemeinde"},"district":{"key":"03355","name":"Lüneburg","type":"Landkreis"},"federalState":{"key":"03","name":"Niedersachsen"}},{"name":"Carl-Friedrich-Goerdeler-Str.","postalCode":"21337","locality":"Lüneburg","municipality":{"key":"03355022","name":"Lüneburg, Hansestadt","type":"Stadt"},"district":{"key":"03355","name":"Lüneburg","type":"Landkreis"},"federalState":{"key":"03","name":"Niedersachsen"}},{"name":"Carl-Gottlieb-Scharff-Str.","postalCode":"21337","locality":"Lüneburg","municipality":{"key":"03355022","name":"Lüneburg, Hansestadt","type":"Stadt"},"district":{"key":"03355","name":"Lüneburg","type":"Landkreis"},"federalState":{"key":"03","name":"Niedersachsen"}},{"name":"Carl-von-Ossietzky-Str.","postalCode":"21335","locality":"Lüneburg","municipality":{"key":"03355022","name":"Lüneburg, Hansestadt","type":"Stadt"},"district":{"key":"03355","name":"Lüneburg","type":"Landkreis"},"federalState":{"key":"03","name":"Niedersachsen"}},{"name":"Chamissostr.","postalCode":"21337","locality":"Lüneburg","municipality":{"key":"03355022","name":"Lüneburg, Hansestadt","type":"Stadt"},"district":{"key":"03355","name":"Lüneburg","type":"Landkreis"},"federalState":{"key":"03","name":"Niedersachsen"}},{"name":"Charlotte-Huhn-Str.","postalCode":"21339","locality":"Lüneburg","municipality":{"key":"03355022","name":"Lüneburg, Hansestadt","type":"Stadt"},"district":{"key":"03355","name":"Lüneburg","type":"Landkreis"},"federalState":{"key":"03","name":"Niedersachsen"}},{"name":"Christel-Rebbin-Str.","postalCode":"21337","locality":"Lüneburg","municipality":{"key":"03355022","name":"Lüneburg, Hansestadt","type":"Stadt"},"district":{"key":"03355","name":"Lüneburg","type":"Landkreis"},"federalState":{"key":"03","name":"Niedersachsen"}},{"name":"Christian-Herbst-Str.","postalCode":"21339","locality":"Lüneburg","municipality":{"key":"03355022","name":"Lüneburg, Hansestadt","type":"Stadt"},"district":{"key":"03355","name":"Lüneburg","type":"Landkreis"},"federalState":{"key":"03","name":"Niedersachsen"}},{"name":"Christianiweg","postalCode":"21339","locality":"Lüneburg","municipality":{"key":"03355022","name":"Lüneburg, Hansestadt","type":"Stadt"},"district":{"key":"03355","name":"Lüneburg","type":"Landkreis"},"federalState":{"key":"03","name":"Niedersachsen"}},{"name":"Christian-Lindemann-Str.","postalCode":"21335","locality":"Lüneburg","municipality":{"key":"03355022","name":"Lüneburg, Hansestadt","type":"Stadt"},"district":{"key":"03355","name":"Lüneburg","type":"Landkreis"},"federalState":{"key":"03","name":"Niedersachsen"}},{"name":"Clamart-Park","postalCode":"21335","locality":"Lüneburg","municipality":{"key":"03355022","name":"Lüneburg, Hansestadt","type":"Stadt"},"district":{"key":"03355","name":"Lüneburg","type":"Landkreis"},"federalState":{"key":"03","name":"Niedersachsen"}},{"name":"Claudiusweg","postalCode":"21337","locality":"Lüneburg","municipality":{"key":"03355022","name":"Lüneburg, Hansestadt","type":"Stadt"},"district":{"key":"03355","name":"Lüneburg","type":"Landkreis"},"federalState":{"key":"03","name":"Niedersachsen"}},{"name":"Conventstr.","postalCode":"21335","locality":"Lüneburg","municipality":{"key":"03355022","name":"Lüneburg, Hansestadt","type":"Stadt"},"district":{"key":"03355","name":"Lüneburg","type":"Landkreis"},"federalState":{"key":"03","name":"Niedersachsen"}},{"name":"Curiostr.","postalCode":"21339","locality":"Lüneburg","municipality":{"key":"03355022","name":"Lüneburg, Hansestadt","type":"Stadt"},"district":{"key":"03355","name":"Lüneburg","type":"Landkreis"},"federalState":{"key":"03","name":"Niedersachsen"}},{"name":"Danziger Str.","postalCode":"21382","locality":"Brietlingen","municipality":{"key":"03355011","name":"Brietlingen","type":"Kreisangehörige_Gemeinde"},"district":{"key":"03355","name":"Lüneburg","type":"Landkreis"},"federalState":{"key":"03","name":"Niedersachsen"}},{"name":"Dorfstr.","postalCode":"21382","locality":"Brietlingen","municipality":{"key":"03355011","name":"Brietlingen","type":"Kreisangehörige_Gemeinde"},"district":{"key":"03355","name":"Lüneburg","type":"Landkreis"},"federalState":{"key":"03","name":"Niedersachsen"}},{"name":"Eichenbrücker Str.","postalCode":"21382","locality":"Brietlingen","municipality":{"key":"03355011","name":"Brietlingen","type":"Kreisangehörige_Gemeinde"},"district":{"key":"03355","name":"Lüneburg","type":"Landkreis"},"federalState":{"key":"03","name":"Niedersachsen"}},{"name":"Eichenweg","postalCode":"21382","locality":"Brietlingen","municipality":{"key":"03355011","name":"Brietlingen","type":"Kreisangehörige_Gemeinde"},"district":{"key":"03355","name":"Lüneburg","type":"Landkreis"},"federalState":{"key":"03","name":"Niedersachsen"}},{"name":"Erster Wulfshagenweg","postalCode":"21382","locality":"Brietlingen","municipality":{"key":"03355011","name":"Brietlingen","type":"Kreisangehörige_Gemeinde"},"district":{"key":"03355","name":"Lüneburg","type":"Landkreis"},"federalState":{"key":"03","name":"Niedersachsen"}},{"name":"Faschweg","postalCode":"21382","locality":"Brietlingen","municipality":{"key":"03355011","name":"Brietlingen","type":"Kreisangehörige_Gemeinde"},"district":{"key":"03355","name":"Lüneburg","type":"Landkreis"},"federalState":{"key":"03","name":"Niedersachsen"}},{"name":"Großes Moor","postalCode":"21382","locality":"Brietlingen","municipality":{"key":"03355011","name":"Brietlingen","type":"Kreisangehörige_Gemeinde"},"district":{"key":"03355","name":"Lüneburg","type":"Landkreis"},"federalState":{"key":"03","name":"Niedersachsen"}},{"name":"Große Str.","postalCode":"21382","locality":"Brietlingen","municipality":{"key":"03355011","name":"Brietlingen","type":"Kreisangehörige_Gemeinde"},"district":{"key":"03355","name":"Lüneburg","type":"Landkreis"},"federalState":{"key":"03","name":"Niedersachsen"}},{"name":"Heidkoppel","postalCode":"21382","locality":"Brietlingen","municipality":{"key":"03355011","name":"Brietlingen","type":"Kreisangehörige_Gemeinde"},"district":{"key":"03355","name":"Lüneburg","type":"Landkreis"},"federalState":{"key":"03","name":"Niedersachsen"}},{"name":"Hermann-Löns-Str.","postalCode":"21382","locality":"Brietlingen","municipality":{"key":"03355011","name":"Brietlingen","type":"Kreisangehörige_Gemeinde"},"district":{"key":"03355","name":"Lüneburg","type":"Landkreis"},"federalState":{"key":"03","name":"Niedersachsen"}},{"name":"Hohenheimer Str.","postalCode":"21382","locality":"Brietlingen","municipality":{"key":"03355011","name":"Brietlingen","type":"Kreisangehörige_Gemeinde"},"district":{"key":"03355","name":"Lüneburg","type":"Landkreis"},"federalState":{"key":"03","name":"Niedersachsen"}},{"name":"Hölten Klink","postalCode":"21382","locality":"Brietlingen","municipality":{"key":"03355011","name":"Brietlingen","type":"Kreisangehörige_Gemeinde"},"district":{"key":"03355","name":"Lüneburg","type":"Landkreis"},"federalState":{"key":"03","name":"Niedersachsen"}},{"name":"Ihlenpohl","postalCode":"21382","locality":"Brietlingen","municipality":{"key":"03355011","name":"Brietlingen","type":"Kreisangehörige_Gemeinde"},"district":{"key":"03355","name":"Lüneburg","type":"Landkreis"},"federalState":{"key":"03","name":"Niedersachsen"}},{"name":"Im Hagen","postalCode":"21382","locality":"Brietlingen","municipality":{"key":"03355011","name":"Brietlingen","type":"Kreisangehörige_Gemeinde"},"district":{"key":"03355","name":"Lüneburg","type":"Landkreis"},"federalState":{"key":"03","name":"Niedersachsen"}},{"name":"Im Malerwinkel","postalCode":"21382","locality":"Brietlingen","municipality":{"key":"03355011","name":"Brietlingen","type":"Kreisangehörige_Gemeinde"},"district":{"key":"03355","name":"Lüneburg","type":"Landkreis"},"federalState":{"key":"03","name":"Niedersachsen"}},{"name":"Im Wiesengrund","postalCode":"21382","locality":"Brietlingen","municipality":{"key":"03355011","name":"Brietlingen","type":"Kreisangehörige_Gemeinde"},"district":{"key":"03355","name":"Lüneburg","type":"Landkreis"},"federalState":{"key":"03","name":"Niedersachsen"}},{"name":"In der Reh","postalCode":"21382","locality":"Brietlingen","municipality":{"key":"03355011","name":"Brietlingen","type":"Kreisangehörige_Gemeinde"},"district":{"key":"03355","name":"Lüneburg","type":"Landkreis"},"federalState":{"key":"03","name":"Niedersachsen"}},{"name":"Jägerstr.","postalCode":"21339","locality":"Lüneburg","municipality":{"key":"03355022","name":"Lüneburg, Hansestadt","type":"Stadt"},"district":{"key":"03355","name":"Lüneburg","type":"Landkreis"},"federalState":{"key":"03","name":"Niedersachsen"}},{"name":"Jakob-Kaiser-Str.","postalCode":"21337","locality":"Lüneburg","municipality":{"key":"03355022","name":"Lüneburg, Hansestadt","type":"Stadt"},"district":{"key":"03355","name":"Lüneburg","type":"Landkreis"},"federalState":{"key":"03","name":"Niedersachsen"}},{"name":"Jean-Leppien-Str.","postalCode":"21339","locality":"Lüneburg","municipality":{"key":"03355022","name":"Lüneburg, Hansestadt","type":"Stadt"},"district":{"key":"03355","name":"Lüneburg","type":"Landkreis"},"federalState":{"key":"03","name":"Niedersachsen"}},{"name":"Jens-Schreiber-Str.","postalCode":"21337","locality":"Lüneburg","municipality":{"key":"03355022","name":"Lüneburg, Hansestadt","type":"Stadt"},"district":{"key":"03355","name":"Lüneburg","type":"Landkreis"},"federalState":{"key":"03","name":"Niedersachsen"}},{"name":"Johanna-Kirchner-Str.","postalCode":"21337","locality":"Lüneburg","municipality":{"key":"03355022","name":"Lüneburg, Hansestadt","type":"Stadt"},"district":{"key":"03355","name":"Lüneburg","type":"Landkreis"},"federalState":{"key":"03","name":"Niedersachsen"}},{"name":"Johanna-Stegen-Str.","postalCode":"21339","locality":"Lüneburg","municipality":{"key":"03355022","name":"Lüneburg, Hansestadt","type":"Stadt"},"district":{"key":"03355","name":"Lüneburg","type":"Landkreis"},"federalState":{"key":"03","name":"Niedersachsen"}},{"name":"Johannes-Gutenberg-Str.","postalCode":"21337","locality":"Lüneburg","municipality":{"key":"03355022","name":"Lüneburg, Hansestadt","type":"Stadt"},"district":{"key":"03355","name":"Lüneburg","type":"Landkreis"},"federalState":{"key":"03","name":"Niedersachsen"}},{"name":"Johannisburger Str.","postalCode":"21337","locality":"Lüneburg","municipality":{"key":"03355022","name":"Lüneburg, Hansestadt","type":"Stadt"},"district":{"key":"03355","name":"Lüneburg","type":"Landkreis"},"federalState":{"key":"03","name":"Niedersachsen"}},{"name":"Johannisstr.","postalCode":"21335","locality":"Lüneburg","municipality":{"key":"03355022","name":"Lüneburg, Hansestadt","type":"Stadt"},"district":{"key":"03355","name":"Lüneburg","type":"Landkreis"},"federalState":{"key":"03","name":"Niedersachsen"}},{"name":"Johann-Sebastian-Bach-Platz","postalCode":"21335","locality":"Lüneburg","municipality":{"key":"03355022","name":"Lüneburg, Hansestadt","type":"Stadt"},"district":{"key":"03355","name":"Lüneburg","type":"Landkreis"},"federalState":{"key":"03","name":"Niedersachsen"}},{"name":"Julius-Leber-Str.","postalCode":"21337","locality":"Lüneburg","municipality":{"key":"03355022","name":"Lüneburg, Hansestadt","type":"Stadt"},"district":{"key":"03355","name":"Lüneburg","type":"Landkreis"},"federalState":{"key":"03","name":"Niedersachsen"}},{"name":"Julius-Wolff-Str.","postalCode":"21335","locality":"Lüneburg","municipality":{"key":"03355022","name":"Lüneburg, Hansestadt","type":"Stadt"},"district":{"key":"03355","name":"Lüneburg","type":"Landkreis"},"federalState":{"key":"03","name":"Niedersachsen"}},{"name":"Jürgen-Backhaus-Str.","postalCode":"21337","locality":"Lüneburg","municipality":{"key":"03355022","name":"Lüneburg, Hansestadt","type":"Stadt"},"district":{"key":"03355","name":"Lüneburg","type":"Landkreis"},"federalState":{"key":"03","name":"Niedersachsen"}},{"name":"Jüttkenmoor","postalCode":"21339","locality":"Lüneburg","municipality":{"key":"03355022","name":"Lüneburg, Hansestadt","type":"Stadt"},"district":{"key":"03355","name":"Lüneburg","type":"Landkreis"},"federalState":{"key":"03","name":"Niedersachsen"}},{"name":"Kirchweg","postalCode":"21382","locality":"Brietlingen","municipality":{"key":"03355011","name":"Brietlingen","type":"Kreisangehörige_Gemeinde"},"district":{"key":"03355","name":"Lüneburg","type":"Landkreis"},"federalState":{"key":"03","name":"Niedersachsen"}},{"name":"Kleine Heide","postalCode":"21382","locality":"Brietlingen","municipality":{"key":"03355011","name":"Brietlingen","type":"Kreisangehörige_Gemeinde"},"district":{"key":"03355","name":"Lüneburg","type":"Landkreis"},"federalState":{"key":"03","name":"Niedersachsen"}},{"name":"Kleine Str.","postalCode":"21382","locality":"Brietlingen","municipality":{"key":"03355011","name":"Brietlingen","type":"Kreisangehörige_Gemeinde"},"district":{"key":"03355","name":"Lüneburg","type":"Landkreis"},"federalState":{"key":"03","name":"Niedersachsen"}},{"name":"Königsberger Str.","postalCode":"21382","locality":"Brietlingen","municipality":{"key":"03355011","name":"Brietlingen","type":"Kreisangehörige_Gemeinde"},"district":{"key":"03355","name":"Lüneburg","type":"Landkreis"},"federalState":{"key":"03","name":"Niedersachsen"}},{"name":"Königstr.","postalCode":"21382","locality":"Brietlingen","municipality":{"key":"03355011","name":"Brietlingen","type":"Kreisangehörige_Gemeinde"},"district":{"key":"03355","name":"Lüneburg","type":"Landkreis"},"federalState":{"key":"03","name":"Niedersachsen"}},{"name":"Landsberger Str.","postalCode":"21382","locality":"Brietlingen","municipality":{"key":"03355011","name":"Brietlingen","type":"Kreisangehörige_Gemeinde"},"district":{"key":"03355","name":"Lüneburg","type":"Landkreis"},"federalState":{"key":"03","name":"Niedersachsen"}},{"name":"Landsend","postalCode":"21382","locality":"Brietlingen","municipality":{"key":"03355011","name":"Brietlingen","type":"Kreisangehörige_Gemeinde"},"district":{"key":"03355","name":"Lüneburg","type":"Landkreis"},"federalState":{"key":"03","name":"Niedersachsen"}},{"name":"Lycker Str.","postalCode":"21382","locality":"Brietlingen","municipality":{"key":"03355011","name":"Brietlingen","type":"Kreisangehörige_Gemeinde"},"district":{"key":"03355","name":"Lüneburg","type":"Landkreis"},"federalState":{"key":"03","name":"Niedersachsen"}},{"name":"Maschweg","postalCode":"21382","locality":"Brietlingen","municipality":{"key":"03355011","name":"Brietlingen","type":"Kreisangehörige_Gemeinde"},"district":{"key":"03355","name":"Lüneburg","type":"Landkreis"},"federalState":{"key":"03","name":"Niedersachsen"}},{"name":"Moorburger Holz","postalCode":"21382","locality":"Brietlingen","municipality":{"key":"03355011","name":"Brietlingen","type":"Kreisangehörige_Gemeinde"},"district":{"key":"03355","name":"Lüneburg","type":"Landkreis"},"federalState":{"key":"03","name":"Niedersachsen"}},{"name":"Moorweg","postalCode":"21382","locality":"Brietlingen","municipality":{"key":"03355011","name":"Brietlingen","type":"Kreisangehörige_Gemeinde"},"district":{"key":"03355","name":"Lüneburg","type":"Landkreis"},"federalState":{"key":"03","name":"Niedersachsen"}},{"name":"Nachtigallenweg","postalCode":"21339","locality":"Lüneburg","municipality":{"key":"03355022","name":"Lüneburg, Hansestadt","type":"Stadt"},"district":{"key":"03355","name":"Lüneburg","type":"Landkreis"},"federalState":{"key":"03","name":"Niedersachsen"}},{"name":"Naruto-Str.","postalCode":"21339","locality":"Lüneburg","municipality":{"key":"03355022","name":"Lüneburg, Hansestadt","type":"Stadt"},"district":{"key":"03355","name":"Lüneburg","type":"Landkreis"},"federalState":{"key":"03","name":"Niedersachsen"}},{"name":"Narzissenweg","postalCode":"21339","locality":"Lüneburg","municipality":{"key":"03355022","name":"Lüneburg, Hansestadt","type":"Stadt"},"district":{"key":"03355","name":"Lüneburg","type":"Landkreis"},"federalState":{"key":"03","name":"Niedersachsen"}},{"name":"Nelkenweg","postalCode":"21339","locality":"Lüneburg","municipality":{"key":"03355022","name":"Lüneburg, Hansestadt","type":"Stadt"},"district":{"key":"03355","name":"Lüneburg","type":"Landkreis"},"federalState":{"key":"03","name":"Niedersachsen"}},{"name":"Nelly-Sachs-Str.","postalCode":"21335","locality":"Lüneburg","municipality":{"key":"03355022","name":"Lüneburg, Hansestadt","type":"Stadt"},"district":{"key":"03355","name":"Lüneburg","type":"Landkreis"},"federalState":{"key":"03","name":"Niedersachsen"}},{"name":"Neue Str.","postalCode":"21335","locality":"Lüneburg","municipality":{"key":"03355022","name":"Lüneburg, Hansestadt","type":"Stadt"},"district":{"key":"03355","name":"Lüneburg","type":"Landkreis"},"federalState":{"key":"03","name":"Niedersachsen"}},{"name":"Neue Sülze","postalCode":"21335","locality":"Lüneburg","municipality":{"key":"03355022","name":"Lüneburg, Hansestadt","type":"Stadt"},"district":{"key":"03355","name":"Lüneburg","type":"Landkreis"},"federalState":{"key":"03","name":"Niedersachsen"}},{"name":"Neuetorstr.","postalCode":"21335","locality":"Lüneburg","municipality":{"key":"03355022","name":"Lüneburg, Hansestadt","type":"Stadt"},"district":{"key":"03355","name":"Lüneburg","type":"Landkreis"},"federalState":{"key":"03","name":"Niedersachsen"}},{"name":"Neuetorstr.","postalCode":"21339","locality":"Lüneburg","municipality":{"key":"03355022","name":"Lüneburg, Hansestadt","type":"Stadt"},"district":{"key":"03355","name":"Lüneburg","type":"Landkreis"},"federalState":{"key":"03","name":"Niedersachsen"}},{"name":"Neu-Häcklingen","postalCode":"21335","locality":"Lüneburg","municipality":{"key":"03355022","name":"Lüneburg, Hansestadt","type":"Stadt"},"district":{"key":"03355","name":"Lüneburg","type":"Landkreis"},"federalState":{"key":"03","name":"Niedersachsen"}},{"name":"Neuhauser Str.","postalCode":"21339","locality":"Lüneburg","municipality":{"key":"03355022","name":"Lüneburg, Hansestadt","type":"Stadt"},"district":{"key":"03355","name":"Lüneburg","type":"Landkreis"},"federalState":{"key":"03","name":"Niedersachsen"}},{"name":"Niklas-Luhmann-Str.","postalCode":"21339","locality":"Lüneburg","municipality":{"key":"03355022","name":"Lüneburg, Hansestadt","type":"Stadt"},"district":{"key":"03355","name":"Lüneburg","type":"Landkreis"},"federalState":{"key":"03","name":"Niedersachsen"}},{"name":"Novalisstr.","postalCode":"21337","locality":"Lüneburg","municipality":{"key":"03355022","name":"Lüneburg, Hansestadt","type":"Stadt"},"district":{"key":"03355","name":"Lüneburg","type":"Landkreis"},"federalState":{"key":"03","name":"Niedersachsen"}},{"name":"Nutzfelder Weg","postalCode":"21337","locality":"Lüneburg","municipality":{"key":"03355022","name":"Lüneburg, Hansestadt","type":"Stadt"},"district":{"key":"03355","name":"Lüneburg","type":"Landkreis"},"federalState":{"key":"03","name":"Niedersachsen"}},{"name":"Obere Ohlingerstr.","postalCode":"21335","locality":"Lüneburg","municipality":{"key":"03355022","name":"Lüneburg, Hansestadt","type":"Stadt"},"district":{"key":"03355","name":"Lüneburg","type":"Landkreis"},"federalState":{"key":"03","name":"Niedersachsen"}},{"name":"Ochtmisser Kirchsteig","postalCode":"21339","locality":"Lüneburg","municipality":{"key":"03355022","name":"Lüneburg, Hansestadt","type":"Stadt"},"district":{"key":"03355","name":"Lüneburg","type":"Landkreis"},"federalState":{"key":"03","name":"Niedersachsen"}},{"name":"Ochtmisser Str.","postalCode":"21339","locality":"Lüneburg","municipality":{"key":"03355022","name":"Lüneburg, Hansestadt","type":"Stadt"},"district":{"key":"03355","name":"Lüneburg","type":"Landkreis"},"federalState":{"key":"03","name":"Niedersachsen"}},{"name":"Ochtmisser Weg","postalCode":"21339","locality":"Lüneburg","municipality":{"key":"03355022","name":"Lüneburg, Hansestadt","type":"Stadt"},"district":{"key":"03355","name":"Lüneburg","type":"Landkreis"},"federalState":{"key":"03","name":"Niedersachsen"}},{"name":"Oedemer Busch","postalCode":"21335","locality":"Lüneburg","municipality":{"key":"03355022","name":"Lüneburg, Hansestadt","type":"Stadt"},"district":{"key":"03355","name":"Lüneburg","type":"Landkreis"},"federalState":{"key":"03","name":"Niedersachsen"}},{"name":"Oedemer Weg","postalCode":"21335","locality":"Lüneburg","municipality":{"key":"03355022","name":"Lüneburg, Hansestadt","type":"Stadt"},"district":{"key":"03355","name":"Lüneburg","type":"Landkreis"},"federalState":{"key":"03","name":"Niedersachsen"}},{"name":"Olof-Palme-Hain","postalCode":"21337","locality":"Lüneburg","municipality":{"key":"03355022","name":"Lüneburg, Hansestadt","type":"Stadt"},"district":{"key":"03355","name":"Lüneburg","type":"Landkreis"},"federalState":{"key":"03","name":"Niedersachsen"}},{"name":"Olof-Palme-Str.","postalCode":"21337","locality":"Lüneburg","municipality":{"key":"03355022","name":"Lüneburg, Hansestadt","type":"Stadt"},"district":{"key":"03355","name":"Lüneburg","type":"Landkreis"},"federalState":{"key":"03","name":"Niedersachsen"}},{"name":"Oltrogge-Platz","postalCode":"21335","locality":"Lüneburg","municipality":{"key":"03355022","name":"Lüneburg, Hansestadt","type":"Stadt"},"district":{"key":"03355","name":"Lüneburg","type":"Landkreis"},"federalState":{"key":"03","name":"Niedersachsen"}},{"name":"Ortelsburger Str.","postalCode":"21337","locality":"Lüneburg","municipality":{"key":"03355022","name":"Lüneburg, Hansestadt","type":"Stadt"},"district":{"key":"03355","name":"Lüneburg","type":"Landkreis"},"federalState":{"key":"03","name":"Niedersachsen"}},{"name":"Osterfeld","postalCode":"21339","locality":"Lüneburg","municipality":{"key":"03355022","name":"Lüneburg, Hansestadt","type":"Stadt"},"district":{"key":"03355","name":"Lüneburg","type":"Landkreis"},"federalState":{"key":"03","name":"Niedersachsen"}},{"name":"Osterwiese","postalCode":"21335","locality":"Lüneburg","municipality":{"key":"03355022","name":"Lüneburg, Hansestadt","type":"Stadt"},"district":{"key":"03355","name":"Lüneburg","type":"Landkreis"},"federalState":{"key":"03","name":"Niedersachsen"}},{"name":"Ostlandring","postalCode":"21337","locality":"Lüneburg","municipality":{"key":"03355022","name":"Lüneburg, Hansestadt","type":"Stadt"},"district":{"key":"03355","name":"Lüneburg","type":"Landkreis"},"federalState":{"key":"03","name":"Niedersachsen"}},{"name":"Ostpreußenring","postalCode":"21339","locality":"Lüneburg","municipality":{"key":"03355022","name":"Lüneburg, Hansestadt","type":"Stadt"},"district":{"key":"03355","name":"Lüneburg","type":"Landkreis"},"federalState":{"key":"03","name":"Niedersachsen"}},{"name":"Otto-Brenner-Str.","postalCode":"21337","locality":"Lüneburg","municipality":{"key":"03355022","name":"Lüneburg, Hansestadt","type":"Stadt"},"district":{"key":"03355","name":"Lüneburg","type":"Landkreis"},"federalState":{"key":"03","name":"Niedersachsen"}},{"name":"Otto-Fuhrhop-Weg","postalCode":"21335","locality":"Lüneburg","municipality":{"key":"03355022","name":"Lüneburg, Hansestadt","type":"Stadt"},"district":{"key":"03355","name":"Lüneburg","type":"Landkreis"},"federalState":{"key":"03","name":"Niedersachsen"}},{"name":"Otto-Snell-Str.","postalCode":"21339","locality":"Lüneburg","municipality":{"key":"03355022","name":"Lüneburg, Hansestadt","type":"Stadt"},"district":{"key":"03355","name":"Lüneburg","type":"Landkreis"},"federalState":{"key":"03","name":"Niedersachsen"}},{"name":"Ovelgönner Weg","postalCode":"21335","locality":"Lüneburg","municipality":{"key":"03355022","name":"Lüneburg, Hansestadt","type":"Stadt"},"district":{"key":"03355","name":"Lüneburg","type":"Landkreis"},"federalState":{"key":"03","name":"Niedersachsen"}},{"name":"Posener Str.","postalCode":"21382","locality":"Brietlingen","municipality":{"key":"03355011","name":"Brietlingen","type":"Kreisangehörige_Gemeinde"},"district":{"key":"03355","name":"Lüneburg","type":"Landkreis"},"federalState":{"key":"03","name":"Niedersachsen"}},{"name":"Quellenweg","postalCode":"21339","locality":"Lüneburg","municipality":{"key":"03355022","name":"Lüneburg, Hansestadt","type":"Stadt"},"district":{"key":"03355","name":"Lüneburg","type":"Landkreis"},"federalState":{"key":"03","name":"Niedersachsen"}},{"name":"Quickbaumweg","postalCode":"21339","locality":"Lüneburg","municipality":{"key":"03355022","name":"Lüneburg, Hansestadt","type":"Stadt"},"district":{"key":"03355","name":"Lüneburg","type":"Landkreis"},"federalState":{"key":"03","name":"Niedersachsen"}},{"name":"Reiherstieg","postalCode":"21382","locality":"Brietlingen","municipality":{"key":"03355011","name":"Brietlingen","type":"Kreisangehörige_Gemeinde"},"district":{"key":"03355","name":"Lüneburg","type":"Landkreis"},"federalState":{"key":"03","name":"Niedersachsen"}},{"name":"Scharnebecker Str.","postalCode":"21382","locality":"Brietlingen","municipality":{"key":"03355011","name":"Brietlingen","type":"Kreisangehörige_Gemeinde"},"district":{"key":"03355","name":"Lüneburg","type":"Landkreis"},"federalState":{"key":"03","name":"Niedersachsen"}},{"name":"Schierenweg","postalCode":"21382","locality":"Brietlingen","municipality":{"key":"03355011","name":"Brietlingen","type":"Kreisangehörige_Gemeinde"},"district":{"key":"03355","name":"Lüneburg","type":"Landkreis"},"federalState":{"key":"03","name":"Niedersachsen"}},{"name":"Schulstr.","postalCode":"21382","locality":"Brietlingen","municipality":{"key":"03355011","name":"Brietlingen","type":"Kreisangehörige_Gemeinde"},"district":{"key":"03355","name":"Lüneburg","type":"Landkreis"},"federalState":{"key":"03","name":"Niedersachsen"}},{"name":"Stangenweg","postalCode":"21382","locality":"Brietlingen","municipality":{"key":"03355011","name":"Brietlingen","type":"Kreisangehörige_Gemeinde"},"district":{"key":"03355","name":"Lüneburg","type":"Landkreis"},"federalState":{"key":"03","name":"Niedersachsen"}},{"name":"Stettiner Ring","postalCode":"21382","locality":"Brietlingen","municipality":{"key":"03355011","name":"Brietlingen","type":"Kreisangehörige_Gemeinde"},"district":{"key":"03355","name":"Lüneburg","type":"Landkreis"},"federalState":{"key":"03","name":"Niedersachsen"}},{"name":"Storchenweg","postalCode":"21382","locality":"Brietlingen","municipality":{"key":"03355011","name":"Brietlingen","type":"Kreisangehörige_Gemeinde"},"district":{"key":"03355","name":"Lüneburg","type":"Landkreis"},"federalState":{"key":"03","name":"Niedersachsen"}},{"name":"Strehlener Str.","postalCode":"21382","locality":"Brietlingen","municipality":{"key":"03355011","name":"Brietlingen","type":"Kreisangehörige_Gemeinde"},"district":{"key":"03355","name":"Lüneburg","type":"Landkreis"},"federalState":{"key":"03","name":"Niedersachsen"}},{"name":"Thorner Str.","postalCode":"21382","locality":"Brietlingen","municipality":{"key":"03355011","name":"Brietlingen","type":"Kreisangehörige_Gemeinde"},"district":{"key":"03355","name":"Lüneburg","type":"Landkreis"},"federalState":{"key":"03","name":"Niedersachsen"}},{"name":"Tilsiter Str.","postalCode":"21382","locality":"Brietlingen","municipality":{"key":"03355011","name":"Brietlingen","type":"Kreisangehörige_Gemeinde"},"district":{"key":"03355","name":"Lüneburg","type":"Landkreis"},"federalState":{"key":"03","name":"Niedersachsen"}},{"name":"Uelzener Str.","postalCode":"21335","locality":"Lüneburg","municipality":{"key":"03355022","name":"Lüneburg, Hansestadt","type":"Stadt"},"district":{"key":"03355","name":"Lüneburg","type":"Landkreis"},"federalState":{"key":"03","name":"Niedersachsen"}},{"name":"Uhlandstr.","postalCode":"21337","locality":"Lüneburg","municipality":{"key":"03355022","name":"Lüneburg, Hansestadt","type":"Stadt"},"district":{"key":"03355","name":"Lüneburg","type":"Landkreis"},"federalState":{"key":"03","name":"Niedersachsen"}},{"name":"Ulmenweg","postalCode":"21337","locality":"Lüneburg","municipality":{"key":"03355022","name":"Lüneburg, Hansestadt","type":"Stadt"},"district":{"key":"03355","name":"Lüneburg","type":"Landkreis"},"federalState":{"key":"03","name":"Niedersachsen"}},{"name":"Universitätsallee","postalCode":"21335","locality":"Lüneburg","municipality":{"key":"03355022","name":"Lüneburg, Hansestadt","type":"Stadt"},"district":{"key":"03355","name":"Lüneburg","type":"Landkreis"},"federalState":{"key":"03","name":"Niedersachsen"}},{"name":"Unter der Burg","postalCode":"21339","locality":"Lüneburg","municipality":{"key":"03355022","name":"Lüneburg, Hansestadt","type":"Stadt"},"district":{"key":"03355","name":"Lüneburg","type":"Landkreis"},"federalState":{"key":"03","name":"Niedersachsen"}},{"name":"Untere Ohlingerstr.","postalCode":"21335","locality":"Lüneburg","municipality":{"key":"03355022","name":"Lüneburg, Hansestadt","type":"Stadt"},"district":{"key":"03355","name":"Lüneburg","type":"Landkreis"},"federalState":{"key":"03","name":"Niedersachsen"}},{"name":"Van-der-Mölen-Str.","postalCode":"21339","locality":"Lüneburg","municipality":{"key":"03355022","name":"Lüneburg, Hansestadt","type":"Stadt"},"district":{"key":"03355","name":"Lüneburg","type":"Landkreis"},"federalState":{"key":"03","name":"Niedersachsen"}},{"name":"Veilchenring","postalCode":"21335","locality":"Lüneburg","municipality":{"key":"03355022","name":"Lüneburg, Hansestadt","type":"Stadt"},"district":{"key":"03355","name":"Lüneburg","type":"Landkreis"},"federalState":{"key":"03","name":"Niedersachsen"}},{"name":"Vickenteich","postalCode":"21339","locality":"Lüneburg","municipality":{"key":"03355022","name":"Lüneburg, Hansestadt","type":"Stadt"},"district":{"key":"03355","name":"Lüneburg","type":"Landkreis"},"federalState":{"key":"03","name":"Niedersachsen"}},{"name":"Virchowstr.","postalCode":"21335","locality":"Lüneburg","municipality":{"key":"03355022","name":"Lüneburg, Hansestadt","type":"Stadt"},"district":{"key":"03355","name":"Lüneburg","type":"Landkreis"},"federalState":{"key":"03","name":"Niedersachsen"}},{"name":"Viskulenhof","postalCode":"21335","locality":"Lüneburg","municipality":{"key":"03355022","name":"Lüneburg, Hansestadt","type":"Stadt"},"district":{"key":"03355","name":"Lüneburg","type":"Landkreis"},"federalState":{"key":"03","name":"Niedersachsen"}},{"name":"Vögelser Str.","postalCode":"21339","locality":"Lüneburg","municipality":{"key":"03355022","name":"Lüneburg, Hansestadt","type":"Stadt"},"district":{"key":"03355","name":"Lüneburg","type":"Landkreis"},"federalState":{"key":"03","name":"Niedersachsen"}},{"name":"Volgershall","postalCode":"21339","locality":"Lüneburg","municipality":{"key":"03355022","name":"Lüneburg, Hansestadt","type":"Stadt"},"district":{"key":"03355","name":"Lüneburg","type":"Landkreis"},"federalState":{"key":"03","name":"Niedersachsen"}},{"name":"Volgerstr.","postalCode":"21335","locality":"Lüneburg","municipality":{"key":"03355022","name":"Lüneburg, Hansestadt","type":"Stadt"},"district":{"key":"03355","name":"Lüneburg","type":"Landkreis"},"federalState":{"key":"03","name":"Niedersachsen"}},{"name":"Von-Dassel-Str.","postalCode":"21339","locality":"Lüneburg","municipality":{"key":"03355022","name":"Lüneburg, Hansestadt","type":"Stadt"},"district":{"key":"03355","name":"Lüneburg","type":"Landkreis"},"federalState":{"key":"03","name":"Niedersachsen"}},{"name":"Von-Döring-Weg","postalCode":"21339","locality":"Lüneburg","municipality":{"key":"03355022","name":"Lüneburg, Hansestadt","type":"Stadt"},"district":{"key":"03355","name":"Lüneburg","type":"Landkreis"},"federalState":{"key":"03","name":"Niedersachsen"}},{"name":"Von-Kleist-Str.","postalCode":"21337","locality":"Lüneburg","municipality":{"key":"03355022","name":"Lüneburg, Hansestadt","type":"Stadt"},"district":{"key":"03355","name":"Lüneburg","type":"Landkreis"},"federalState":{"key":"03","name":"Niedersachsen"}},{"name":"Vor dem Bardowicker Tore","postalCode":"21335","locality":"Lüneburg","municipality":{"key":"03355022","name":"Lüneburg, Hansestadt","type":"Stadt"},"district":{"key":"03355","name":"Lüneburg","type":"Landkreis"},"federalState":{"key":"03","name":"Niedersachsen"}},{"name":"Vor dem Bardowicker Tore","postalCode":"21339","locality":"Lüneburg","municipality":{"key":"03355022","name":"Lüneburg, Hansestadt","type":"Stadt"},"district":{"key":"03355","name":"Lüneburg","type":"Landkreis"},"federalState":{"key":"03","name":"Niedersachsen"}},{"name":"Vor dem Neuen Tore","postalCode":"21339","locality":"Lüneburg","municipality":{"key":"03355022","name":"Lüneburg, Hansestadt","type":"Stadt"},"district":{"key":"03355","name":"Lüneburg","type":"Landkreis"},"federalState":{"key":"03","name":"Niedersachsen"}},{"name":"Vor dem Roten Tore","postalCode":"21335","locality":"Lüneburg","municipality":{"key":"03355022","name":"Lüneburg, Hansestadt","type":"Stadt"},"district":{"key":"03355","name":"Lüneburg","type":"Landkreis"},"federalState":{"key":"03","name":"Niedersachsen"}},{"name":"Vor dem Weißen Berge","postalCode":"21339","locality":"Lüneburg","municipality":{"key":"03355022","name":"Lüneburg, Hansestadt","type":"Stadt"},"district":{"key":"03355","name":"Lüneburg","type":"Landkreis"},"federalState":{"key":"03","name":"Niedersachsen"}},{"name":"Vor der Heide","postalCode":"21339","locality":"Lüneburg","municipality":{"key":"03355022","name":"Lüneburg, Hansestadt","type":"Stadt"},"district":{"key":"03355","name":"Lüneburg","type":"Landkreis"},"federalState":{"key":"03","name":"Niedersachsen"}},{"name":"Vor der Sülze","postalCode":"21335","locality":"Lüneburg","municipality":{"key":"03355022","name":"Lüneburg, Hansestadt","type":"Stadt"},"district":{"key":"03355","name":"Lüneburg","type":"Landkreis"},"federalState":{"key":"03","name":"Niedersachsen"}},{"name":"Vor Mönchsgarten","postalCode":"21339","locality":"Lüneburg","municipality":{"key":"03355022","name":"Lüneburg, Hansestadt","type":"Stadt"},"district":{"key":"03355","name":"Lüneburg","type":"Landkreis"},"federalState":{"key":"03","name":"Niedersachsen"}},{"name":"Vrestorfer Weg","postalCode":"21339","locality":"Lüneburg","municipality":{"key":"03355022","name":"Lüneburg, Hansestadt","type":"Stadt"},"district":{"key":"03355","name":"Lüneburg","type":"Landkreis"},"federalState":{"key":"03","name":"Niedersachsen"}},{"name":"Wiesenweg","postalCode":"21382","locality":"Brietlingen","municipality":{"key":"03355011","name":"Brietlingen","type":"Kreisangehörige_Gemeinde"},"district":{"key":"03355","name":"Lüneburg","type":"Landkreis"},"federalState":{"key":"03","name":"Niedersachsen"}},{"name":"Yorckstr.","postalCode":"21335","locality":"Lüneburg","municipality":{"key":"03355022","name":"Lüneburg, Hansestadt","type":"Stadt"},"district":{"key":"03355","name":"Lüneburg","type":"Landkreis"},"federalState":{"key":"03","name":"Niedersachsen"}},{"name":"Zum Eichhagen","postalCode":"21382","locality":"Brietlingen","municipality":{"key":"03355011","name":"Brietlingen","type":"Kreisangehörige_Gemeinde"},"district":{"key":"03355","name":"Lüneburg","type":"Landkreis"},"federalState":{"key":"03","name":"Niedersachsen"}},{"name":"Zum Neetzekanal","postalCode":"21382","locality":"Brietlingen","municipality":{"key":"03355011","name":"Brietlingen","type":"Kreisangehörige_Gemeinde"},"district":{"key":"03355","name":"Lüneburg","type":"Landkreis"},"federalState":{"key":"03","name":"Niedersachsen"}},]