[{"name":"1. Feuerbahn","postalCode":"75217","locality":"Birkenfeld","municipality":{"key":"08236004","name":"Birkenfeld","type":"Kreisangehörige_Gemeinde"},"district":{"key":"08236","name":"Enzkreis","type":"Landkreis"},"federalState":{"key":"08","name":"Baden-Württemberg"}},{"name":"2. Feuerweg","postalCode":"75217","locality":"Birkenfeld","municipality":{"key":"08236004","name":"Birkenfeld","type":"Kreisangehörige_Gemeinde"},"district":{"key":"08236","name":"Enzkreis","type":"Landkreis"},"federalState":{"key":"08","name":"Baden-Württemberg"}},{"name":"3. Feuerweg","postalCode":"75217","locality":"Birkenfeld","municipality":{"key":"08236004","name":"Birkenfeld","type":"Kreisangehörige_Gemeinde"},"district":{"key":"08236","name":"Enzkreis","type":"Landkreis"},"federalState":{"key":"08","name":"Baden-Württemberg"}},{"name":"Aachener Weg","postalCode":"52396","locality":"Heimbach","municipality":{"key":"05358012","name":"Heimbach, Stadt","type":"Stadt"},"district":{"key":"05358","name":"Düren","type":"Kreis"},"federalState":{"key":"05","name":"Nordrhein-Westfalen"}},{"name":"Abtei Mariawald","postalCode":"52396","locality":"Heimbach","municipality":{"key":"05358012","name":"Heimbach, Stadt","type":"Stadt"},"district":{"key":"05358","name":"Düren","type":"Kreis"},"federalState":{"key":"05","name":"Nordrhein-Westfalen"}},{"name":"Ahornweg","postalCode":"52396","locality":"Heimbach","municipality":{"key":"05358012","name":"Heimbach, Stadt","type":"Stadt"},"district":{"key":"05358","name":"Düren","type":"Kreis"},"federalState":{"key":"05","name":"Nordrhein-Westfalen"}},{"name":"Akazienweg","postalCode":"52396","locality":"Heimbach","municipality":{"key":"05358012","name":"Heimbach, Stadt","type":"Stadt"},"district":{"key":"05358","name":"Düren","type":"Kreis"},"federalState":{"key":"05","name":"Nordrhein-Westfalen"}},{"name":"Alte Bahn","postalCode":"55779","locality":"Heimbach","municipality":{"key":"07134036","name":"Heimbach","type":"Kreisangehörige_Gemeinde"},"district":{"key":"07134","name":"Birkenfeld","type":"Landkreis"},"federalState":{"key":"07","name":"Rheinland-Pfalz"}},{"name":"Alte Burgstr.","postalCode":"52396","locality":"Heimbach","municipality":{"key":"05358012","name":"Heimbach, Stadt","type":"Stadt"},"district":{"key":"05358","name":"Düren","type":"Kreis"},"federalState":{"key":"05","name":"Nordrhein-Westfalen"}},{"name":"Am Altenberg","postalCode":"52396","locality":"Heimbach","municipality":{"key":"05358012","name":"Heimbach, Stadt","type":"Stadt"},"district":{"key":"05358","name":"Düren","type":"Kreis"},"federalState":{"key":"05","name":"Nordrhein-Westfalen"}},{"name":"Am Bergob","postalCode":"52396","locality":"Heimbach","municipality":{"key":"05358012","name":"Heimbach, Stadt","type":"Stadt"},"district":{"key":"05358","name":"Düren","type":"Kreis"},"federalState":{"key":"05","name":"Nordrhein-Westfalen"}},{"name":"Am Burgpark","postalCode":"52396","locality":"Heimbach","municipality":{"key":"05358012","name":"Heimbach, Stadt","type":"Stadt"},"district":{"key":"05358","name":"Düren","type":"Kreis"},"federalState":{"key":"05","name":"Nordrhein-Westfalen"}},{"name":"Am Eichelberg","postalCode":"52396","locality":"Heimbach","municipality":{"key":"05358012","name":"Heimbach, Stadt","type":"Stadt"},"district":{"key":"05358","name":"Düren","type":"Kreis"},"federalState":{"key":"05","name":"Nordrhein-Westfalen"}},{"name":"Am Giebel","postalCode":"52396","locality":"Heimbach","municipality":{"key":"05358012","name":"Heimbach, Stadt","type":"Stadt"},"district":{"key":"05358","name":"Düren","type":"Kreis"},"federalState":{"key":"05","name":"Nordrhein-Westfalen"}},{"name":"Am Hahnenhübel","postalCode":"55779","locality":"Heimbach","municipality":{"key":"07134036","name":"Heimbach","type":"Kreisangehörige_Gemeinde"},"district":{"key":"07134","name":"Birkenfeld","type":"Landkreis"},"federalState":{"key":"07","name":"Rheinland-Pfalz"}},{"name":"Am Lindenhübel","postalCode":"55779","locality":"Heimbach","municipality":{"key":"07134036","name":"Heimbach","type":"Kreisangehörige_Gemeinde"},"district":{"key":"07134","name":"Birkenfeld","type":"Landkreis"},"federalState":{"key":"07","name":"Rheinland-Pfalz"}},{"name":"Am Meuchelberg","postalCode":"52396","locality":"Heimbach","municipality":{"key":"05358012","name":"Heimbach, Stadt","type":"Stadt"},"district":{"key":"05358","name":"Düren","type":"Kreis"},"federalState":{"key":"05","name":"Nordrhein-Westfalen"}},{"name":"Am Müllenberg","postalCode":"52396","locality":"Heimbach","municipality":{"key":"05358012","name":"Heimbach, Stadt","type":"Stadt"},"district":{"key":"05358","name":"Düren","type":"Kreis"},"federalState":{"key":"05","name":"Nordrhein-Westfalen"}},{"name":"Am Rechtob","postalCode":"52396","locality":"Heimbach","municipality":{"key":"05358012","name":"Heimbach, Stadt","type":"Stadt"},"district":{"key":"05358","name":"Düren","type":"Kreis"},"federalState":{"key":"05","name":"Nordrhein-Westfalen"}},{"name":"Am Ringelberg","postalCode":"55779","locality":"Heimbach","municipality":{"key":"07134036","name":"Heimbach","type":"Kreisangehörige_Gemeinde"},"district":{"key":"07134","name":"Birkenfeld","type":"Landkreis"},"federalState":{"key":"07","name":"Rheinland-Pfalz"}},{"name":"Am Schmalscheid","postalCode":"52396","locality":"Heimbach","municipality":{"key":"05358012","name":"Heimbach, Stadt","type":"Stadt"},"district":{"key":"05358","name":"Düren","type":"Kreis"},"federalState":{"key":"05","name":"Nordrhein-Westfalen"}},{"name":"Am Sonnenhang","postalCode":"52396","locality":"Heimbach","municipality":{"key":"05358012","name":"Heimbach, Stadt","type":"Stadt"},"district":{"key":"05358","name":"Düren","type":"Kreis"},"federalState":{"key":"05","name":"Nordrhein-Westfalen"}},{"name":"Am Sonnenhang","postalCode":"55413","locality":"Oberheimbach","municipality":{"key":"07339045","name":"Oberheimbach","type":"Kreisangehörige_Gemeinde"},"district":{"key":"07339","name":"Mainz-Bingen","type":"Landkreis"},"federalState":{"key":"07","name":"Rheinland-Pfalz"}},{"name":"An der Laag","postalCode":"52396","locality":"Heimbach","municipality":{"key":"05358012","name":"Heimbach, Stadt","type":"Stadt"},"district":{"key":"05358","name":"Düren","type":"Kreis"},"federalState":{"key":"05","name":"Nordrhein-Westfalen"}},{"name":"Anweg","postalCode":"55413","locality":"Niederheimbach","municipality":{"key":"07339040","name":"Niederheimbach","type":"Kreisangehörige_Gemeinde"},"district":{"key":"07339","name":"Mainz-Bingen","type":"Landkreis"},"federalState":{"key":"07","name":"Rheinland-Pfalz"}},{"name":"Auf dem Broich","postalCode":"52396","locality":"Heimbach","municipality":{"key":"05358012","name":"Heimbach, Stadt","type":"Stadt"},"district":{"key":"05358","name":"Düren","type":"Kreis"},"federalState":{"key":"05","name":"Nordrhein-Westfalen"}},{"name":"Auf dem Bühl","postalCode":"52396","locality":"Heimbach","municipality":{"key":"05358012","name":"Heimbach, Stadt","type":"Stadt"},"district":{"key":"05358","name":"Düren","type":"Kreis"},"federalState":{"key":"05","name":"Nordrhein-Westfalen"}},{"name":"Auf dem Kamp","postalCode":"52396","locality":"Heimbach","municipality":{"key":"05358012","name":"Heimbach, Stadt","type":"Stadt"},"district":{"key":"05358","name":"Düren","type":"Kreis"},"federalState":{"key":"05","name":"Nordrhein-Westfalen"}},{"name":"Auf dem Stein","postalCode":"52396","locality":"Heimbach","municipality":{"key":"05358012","name":"Heimbach, Stadt","type":"Stadt"},"district":{"key":"05358","name":"Düren","type":"Kreis"},"federalState":{"key":"05","name":"Nordrhein-Westfalen"}},{"name":"Auf der Heide","postalCode":"52396","locality":"Heimbach","municipality":{"key":"05358012","name":"Heimbach, Stadt","type":"Stadt"},"district":{"key":"05358","name":"Düren","type":"Kreis"},"federalState":{"key":"05","name":"Nordrhein-Westfalen"}},{"name":"Auf der Hostert","postalCode":"52396","locality":"Heimbach","municipality":{"key":"05358012","name":"Heimbach, Stadt","type":"Stadt"},"district":{"key":"05358","name":"Düren","type":"Kreis"},"federalState":{"key":"05","name":"Nordrhein-Westfalen"}},{"name":"Auf der Kante","postalCode":"52396","locality":"Heimbach","municipality":{"key":"05358012","name":"Heimbach, Stadt","type":"Stadt"},"district":{"key":"05358","name":"Düren","type":"Kreis"},"federalState":{"key":"05","name":"Nordrhein-Westfalen"}},{"name":"Auf Kiefern","postalCode":"55779","locality":"Heimbach","municipality":{"key":"07134036","name":"Heimbach","type":"Kreisangehörige_Gemeinde"},"district":{"key":"07134","name":"Birkenfeld","type":"Landkreis"},"federalState":{"key":"07","name":"Rheinland-Pfalz"}},{"name":"Auf Mühlenfeld","postalCode":"52396","locality":"Heimbach","municipality":{"key":"05358012","name":"Heimbach, Stadt","type":"Stadt"},"district":{"key":"05358","name":"Düren","type":"Kreis"},"federalState":{"key":"05","name":"Nordrhein-Westfalen"}},{"name":"Auf Waatscheidt","postalCode":"52396","locality":"Heimbach","municipality":{"key":"05358012","name":"Heimbach, Stadt","type":"Stadt"},"district":{"key":"05358","name":"Düren","type":"Kreis"},"federalState":{"key":"05","name":"Nordrhein-Westfalen"}},{"name":"Auf Wissen Woog","postalCode":"52396","locality":"Heimbach","municipality":{"key":"05358012","name":"Heimbach, Stadt","type":"Stadt"},"district":{"key":"05358","name":"Düren","type":"Kreis"},"federalState":{"key":"05","name":"Nordrhein-Westfalen"}},{"name":"Bachstr.","postalCode":"52396","locality":"Heimbach","municipality":{"key":"05358012","name":"Heimbach, Stadt","type":"Stadt"},"district":{"key":"05358","name":"Düren","type":"Kreis"},"federalState":{"key":"05","name":"Nordrhein-Westfalen"}},{"name":"Bergstr.","postalCode":"52396","locality":"Heimbach","municipality":{"key":"05358012","name":"Heimbach, Stadt","type":"Stadt"},"district":{"key":"05358","name":"Düren","type":"Kreis"},"federalState":{"key":"05","name":"Nordrhein-Westfalen"}},{"name":"Berliner Weg","postalCode":"55779","locality":"Heimbach","municipality":{"key":"07134036","name":"Heimbach","type":"Kreisangehörige_Gemeinde"},"district":{"key":"07134","name":"Birkenfeld","type":"Landkreis"},"federalState":{"key":"07","name":"Rheinland-Pfalz"}},{"name":"Birkenweg","postalCode":"52396","locality":"Heimbach","municipality":{"key":"05358012","name":"Heimbach, Stadt","type":"Stadt"},"district":{"key":"05358","name":"Düren","type":"Kreis"},"federalState":{"key":"05","name":"Nordrhein-Westfalen"}},{"name":"Blenser Platz","postalCode":"52396","locality":"Heimbach","municipality":{"key":"05358012","name":"Heimbach, Stadt","type":"Stadt"},"district":{"key":"05358","name":"Düren","type":"Kreis"},"federalState":{"key":"05","name":"Nordrhein-Westfalen"}},{"name":"Bornhellweg","postalCode":"55779","locality":"Heimbach","municipality":{"key":"07134036","name":"Heimbach","type":"Kreisangehörige_Gemeinde"},"district":{"key":"07134","name":"Birkenfeld","type":"Landkreis"},"federalState":{"key":"07","name":"Rheinland-Pfalz"}},{"name":"Brementhaler Str.","postalCode":"52396","locality":"Heimbach","municipality":{"key":"05358012","name":"Heimbach, Stadt","type":"Stadt"},"district":{"key":"05358","name":"Düren","type":"Kreis"},"federalState":{"key":"05","name":"Nordrhein-Westfalen"}},{"name":"Bruchstr.","postalCode":"52396","locality":"Heimbach","municipality":{"key":"05358012","name":"Heimbach, Stadt","type":"Stadt"},"district":{"key":"05358","name":"Düren","type":"Kreis"},"federalState":{"key":"05","name":"Nordrhein-Westfalen"}},{"name":"Buchenweg","postalCode":"52396","locality":"Heimbach","municipality":{"key":"05358012","name":"Heimbach, Stadt","type":"Stadt"},"district":{"key":"05358","name":"Düren","type":"Kreis"},"federalState":{"key":"05","name":"Nordrhein-Westfalen"}},{"name":"Burg Sooneck","postalCode":"55413","locality":"Niederheimbach","municipality":{"key":"07339040","name":"Niederheimbach","type":"Kreisangehörige_Gemeinde"},"district":{"key":"07339","name":"Mainz-Bingen","type":"Landkreis"},"federalState":{"key":"07","name":"Rheinland-Pfalz"}},{"name":"Burgweg","postalCode":"52396","locality":"Heimbach","municipality":{"key":"05358012","name":"Heimbach, Stadt","type":"Stadt"},"district":{"key":"05358","name":"Düren","type":"Kreis"},"federalState":{"key":"05","name":"Nordrhein-Westfalen"}},{"name":"Dr.-Heinen-Str.","postalCode":"52396","locality":"Heimbach","municipality":{"key":"05358012","name":"Heimbach, Stadt","type":"Stadt"},"district":{"key":"05358","name":"Düren","type":"Kreis"},"federalState":{"key":"05","name":"Nordrhein-Westfalen"}},{"name":"Düttlinger Str.","postalCode":"52396","locality":"Heimbach","municipality":{"key":"05358012","name":"Heimbach, Stadt","type":"Stadt"},"district":{"key":"05358","name":"Düren","type":"Kreis"},"federalState":{"key":"05","name":"Nordrhein-Westfalen"}},{"name":"Eichenweg","postalCode":"52396","locality":"Heimbach","municipality":{"key":"05358012","name":"Heimbach, Stadt","type":"Stadt"},"district":{"key":"05358","name":"Düren","type":"Kreis"},"federalState":{"key":"05","name":"Nordrhein-Westfalen"}},{"name":"Eichenweg","postalCode":"55779","locality":"Heimbach","municipality":{"key":"07134036","name":"Heimbach","type":"Kreisangehörige_Gemeinde"},"district":{"key":"07134","name":"Birkenfeld","type":"Landkreis"},"federalState":{"key":"07","name":"Rheinland-Pfalz"}},{"name":"Ernst-Heilmann-Str.","postalCode":"55413","locality":"Niederheimbach","municipality":{"key":"07339040","name":"Niederheimbach","type":"Kreisangehörige_Gemeinde"},"district":{"key":"07339","name":"Mainz-Bingen","type":"Landkreis"},"federalState":{"key":"07","name":"Rheinland-Pfalz"}},{"name":"Fischbachtal","postalCode":"52396","locality":"Heimbach","municipality":{"key":"05358012","name":"Heimbach, Stadt","type":"Stadt"},"district":{"key":"05358","name":"Düren","type":"Kreis"},"federalState":{"key":"05","name":"Nordrhein-Westfalen"}},{"name":"Gambachstr.","postalCode":"55413","locality":"Oberheimbach","municipality":{"key":"07339045","name":"Oberheimbach","type":"Kreisangehörige_Gemeinde"},"district":{"key":"07339","name":"Mainz-Bingen","type":"Landkreis"},"federalState":{"key":"07","name":"Rheinland-Pfalz"}},{"name":"Gartenstr.","postalCode":"52396","locality":"Heimbach","municipality":{"key":"05358012","name":"Heimbach, Stadt","type":"Stadt"},"district":{"key":"05358","name":"Düren","type":"Kreis"},"federalState":{"key":"05","name":"Nordrhein-Westfalen"}},{"name":"Gemünder Weg","postalCode":"52396","locality":"Heimbach","municipality":{"key":"05358012","name":"Heimbach, Stadt","type":"Stadt"},"district":{"key":"05358","name":"Düren","type":"Kreis"},"federalState":{"key":"05","name":"Nordrhein-Westfalen"}},{"name":"Glückaufstr.","postalCode":"55779","locality":"Heimbach","municipality":{"key":"07134036","name":"Heimbach","type":"Kreisangehörige_Gemeinde"},"district":{"key":"07134","name":"Birkenfeld","type":"Landkreis"},"federalState":{"key":"07","name":"Rheinland-Pfalz"}},{"name":"Greenstr.","postalCode":"52396","locality":"Heimbach","municipality":{"key":"05358012","name":"Heimbach, Stadt","type":"Stadt"},"district":{"key":"05358","name":"Düren","type":"Kreis"},"federalState":{"key":"05","name":"Nordrhein-Westfalen"}},{"name":"Hasenfelder Str.","postalCode":"52396","locality":"Heimbach","municipality":{"key":"05358012","name":"Heimbach, Stadt","type":"Stadt"},"district":{"key":"05358","name":"Düren","type":"Kreis"},"federalState":{"key":"05","name":"Nordrhein-Westfalen"}},{"name":"Hauptstr.","postalCode":"55413","locality":"Oberheimbach","municipality":{"key":"07339045","name":"Oberheimbach","type":"Kreisangehörige_Gemeinde"},"district":{"key":"07339","name":"Mainz-Bingen","type":"Landkreis"},"federalState":{"key":"07","name":"Rheinland-Pfalz"}},{"name":"Hauptstr.","postalCode":"55779","locality":"Heimbach","municipality":{"key":"07134036","name":"Heimbach","type":"Kreisangehörige_Gemeinde"},"district":{"key":"07134","name":"Birkenfeld","type":"Landkreis"},"federalState":{"key":"07","name":"Rheinland-Pfalz"}},{"name":"Hausener Gasse","postalCode":"52396","locality":"Heimbach","municipality":{"key":"05358012","name":"Heimbach, Stadt","type":"Stadt"},"district":{"key":"05358","name":"Düren","type":"Kreis"},"federalState":{"key":"05","name":"Nordrhein-Westfalen"}},{"name":"Hausener Str.","postalCode":"52396","locality":"Heimbach","municipality":{"key":"05358012","name":"Heimbach, Stadt","type":"Stadt"},"district":{"key":"05358","name":"Düren","type":"Kreis"},"federalState":{"key":"05","name":"Nordrhein-Westfalen"}},{"name":"Heimbacher Str.","postalCode":"52396","locality":"Heimbach","municipality":{"key":"05358012","name":"Heimbach, Stadt","type":"Stadt"},"district":{"key":"05358","name":"Düren","type":"Kreis"},"federalState":{"key":"05","name":"Nordrhein-Westfalen"}},{"name":"Heimbachtal","postalCode":"55413","locality":"Niederheimbach","municipality":{"key":"07339040","name":"Niederheimbach","type":"Kreisangehörige_Gemeinde"},"district":{"key":"07339","name":"Mainz-Bingen","type":"Landkreis"},"federalState":{"key":"07","name":"Rheinland-Pfalz"}},{"name":"Heinrich-Fluitter-Platz","postalCode":"52396","locality":"Heimbach","municipality":{"key":"05358012","name":"Heimbach, Stadt","type":"Stadt"},"district":{"key":"05358","name":"Düren","type":"Kreis"},"federalState":{"key":"05","name":"Nordrhein-Westfalen"}},{"name":"Hengebachstr.","postalCode":"52396","locality":"Heimbach","municipality":{"key":"05358012","name":"Heimbach, Stadt","type":"Stadt"},"district":{"key":"05358","name":"Düren","type":"Kreis"},"federalState":{"key":"05","name":"Nordrhein-Westfalen"}},{"name":"Herbstbachtal","postalCode":"52396","locality":"Heimbach","municipality":{"key":"05358012","name":"Heimbach, Stadt","type":"Stadt"},"district":{"key":"05358","name":"Düren","type":"Kreis"},"federalState":{"key":"05","name":"Nordrhein-Westfalen"}},{"name":"Heresbenden","postalCode":"52396","locality":"Heimbach","municipality":{"key":"05358012","name":"Heimbach, Stadt","type":"Stadt"},"district":{"key":"05358","name":"Düren","type":"Kreis"},"federalState":{"key":"05","name":"Nordrhein-Westfalen"}},{"name":"Hergartener Buschweg","postalCode":"52396","locality":"Heimbach","municipality":{"key":"05358012","name":"Heimbach, Stadt","type":"Stadt"},"district":{"key":"05358","name":"Düren","type":"Kreis"},"federalState":{"key":"05","name":"Nordrhein-Westfalen"}},{"name":"Hergartener Str.","postalCode":"52396","locality":"Heimbach","municipality":{"key":"05358012","name":"Heimbach, Stadt","type":"Stadt"},"district":{"key":"05358","name":"Düren","type":"Kreis"},"federalState":{"key":"05","name":"Nordrhein-Westfalen"}},{"name":"Hinterbach","postalCode":"55413","locality":"Niederheimbach","municipality":{"key":"07339040","name":"Niederheimbach","type":"Kreisangehörige_Gemeinde"},"district":{"key":"07339","name":"Mainz-Bingen","type":"Landkreis"},"federalState":{"key":"07","name":"Rheinland-Pfalz"}},{"name":"Hintergasse","postalCode":"55413","locality":"Oberheimbach","municipality":{"key":"07339045","name":"Oberheimbach","type":"Kreisangehörige_Gemeinde"},"district":{"key":"07339","name":"Mainz-Bingen","type":"Landkreis"},"federalState":{"key":"07","name":"Rheinland-Pfalz"}},{"name":"Hofweg","postalCode":"55779","locality":"Heimbach","municipality":{"key":"07134036","name":"Heimbach","type":"Kreisangehörige_Gemeinde"},"district":{"key":"07134","name":"Birkenfeld","type":"Landkreis"},"federalState":{"key":"07","name":"Rheinland-Pfalz"}},{"name":"Hohlweg","postalCode":"55779","locality":"Heimbach","municipality":{"key":"07134036","name":"Heimbach","type":"Kreisangehörige_Gemeinde"},"district":{"key":"07134","name":"Birkenfeld","type":"Landkreis"},"federalState":{"key":"07","name":"Rheinland-Pfalz"}},{"name":"Hübelweg","postalCode":"55779","locality":"Heimbach","municipality":{"key":"07134036","name":"Heimbach","type":"Kreisangehörige_Gemeinde"},"district":{"key":"07134","name":"Birkenfeld","type":"Landkreis"},"federalState":{"key":"07","name":"Rheinland-Pfalz"}},{"name":"Im Acker","postalCode":"55413","locality":"Oberheimbach","municipality":{"key":"07339045","name":"Oberheimbach","type":"Kreisangehörige_Gemeinde"},"district":{"key":"07339","name":"Mainz-Bingen","type":"Landkreis"},"federalState":{"key":"07","name":"Rheinland-Pfalz"}},{"name":"Im Bruch","postalCode":"52396","locality":"Heimbach","municipality":{"key":"05358012","name":"Heimbach, Stadt","type":"Stadt"},"district":{"key":"05358","name":"Düren","type":"Kreis"},"federalState":{"key":"05","name":"Nordrhein-Westfalen"}},{"name":"Im Dall","postalCode":"52396","locality":"Heimbach","municipality":{"key":"05358012","name":"Heimbach, Stadt","type":"Stadt"},"district":{"key":"05358","name":"Düren","type":"Kreis"},"federalState":{"key":"05","name":"Nordrhein-Westfalen"}},{"name":"Im Eck","postalCode":"55779","locality":"Heimbach","municipality":{"key":"07134036","name":"Heimbach","type":"Kreisangehörige_Gemeinde"},"district":{"key":"07134","name":"Birkenfeld","type":"Landkreis"},"federalState":{"key":"07","name":"Rheinland-Pfalz"}},{"name":"Im Exental","postalCode":"52396","locality":"Heimbach","municipality":{"key":"05358012","name":"Heimbach, Stadt","type":"Stadt"},"district":{"key":"05358","name":"Düren","type":"Kreis"},"federalState":{"key":"05","name":"Nordrhein-Westfalen"}},{"name":"Im Heimbachtal","postalCode":"52396","locality":"Heimbach","municipality":{"key":"05358012","name":"Heimbach, Stadt","type":"Stadt"},"district":{"key":"05358","name":"Düren","type":"Kreis"},"federalState":{"key":"05","name":"Nordrhein-Westfalen"}},{"name":"Im Kälchen","postalCode":"52396","locality":"Heimbach","municipality":{"key":"05358012","name":"Heimbach, Stadt","type":"Stadt"},"district":{"key":"05358","name":"Düren","type":"Kreis"},"federalState":{"key":"05","name":"Nordrhein-Westfalen"}},{"name":"Im Krämelsroth","postalCode":"55779","locality":"Heimbach","municipality":{"key":"07134036","name":"Heimbach","type":"Kreisangehörige_Gemeinde"},"district":{"key":"07134","name":"Birkenfeld","type":"Landkreis"},"federalState":{"key":"07","name":"Rheinland-Pfalz"}},{"name":"Im Lützpütz","postalCode":"52396","locality":"Heimbach","municipality":{"key":"05358012","name":"Heimbach, Stadt","type":"Stadt"},"district":{"key":"05358","name":"Düren","type":"Kreis"},"federalState":{"key":"05","name":"Nordrhein-Westfalen"}},{"name":"Im Peisel","postalCode":"55413","locality":"Oberheimbach","municipality":{"key":"07339045","name":"Oberheimbach","type":"Kreisangehörige_Gemeinde"},"district":{"key":"07339","name":"Mainz-Bingen","type":"Landkreis"},"federalState":{"key":"07","name":"Rheinland-Pfalz"}},{"name":"Im Sangert","postalCode":"52396","locality":"Heimbach","municipality":{"key":"05358012","name":"Heimbach, Stadt","type":"Stadt"},"district":{"key":"05358","name":"Düren","type":"Kreis"},"federalState":{"key":"05","name":"Nordrhein-Westfalen"}},{"name":"In den Wingerten","postalCode":"52396","locality":"Heimbach","municipality":{"key":"05358012","name":"Heimbach, Stadt","type":"Stadt"},"district":{"key":"05358","name":"Düren","type":"Kreis"},"federalState":{"key":"05","name":"Nordrhein-Westfalen"}},{"name":"In der Au","postalCode":"55779","locality":"Heimbach","municipality":{"key":"07134036","name":"Heimbach","type":"Kreisangehörige_Gemeinde"},"district":{"key":"07134","name":"Birkenfeld","type":"Landkreis"},"federalState":{"key":"07","name":"Rheinland-Pfalz"}},{"name":"In der Bühl","postalCode":"52396","locality":"Heimbach","municipality":{"key":"05358012","name":"Heimbach, Stadt","type":"Stadt"},"district":{"key":"05358","name":"Düren","type":"Kreis"},"federalState":{"key":"05","name":"Nordrhein-Westfalen"}},{"name":"In der Goldkuhl","postalCode":"52396","locality":"Heimbach","municipality":{"key":"05358012","name":"Heimbach, Stadt","type":"Stadt"},"district":{"key":"05358","name":"Düren","type":"Kreis"},"federalState":{"key":"05","name":"Nordrhein-Westfalen"}},{"name":"In der Hilbach","postalCode":"52396","locality":"Heimbach","municipality":{"key":"05358012","name":"Heimbach, Stadt","type":"Stadt"},"district":{"key":"05358","name":"Düren","type":"Kreis"},"federalState":{"key":"05","name":"Nordrhein-Westfalen"}},{"name":"In der Hohl","postalCode":"55779","locality":"Heimbach","municipality":{"key":"07134036","name":"Heimbach","type":"Kreisangehörige_Gemeinde"},"district":{"key":"07134","name":"Birkenfeld","type":"Landkreis"},"federalState":{"key":"07","name":"Rheinland-Pfalz"}},{"name":"In der Ihlsbach","postalCode":"55779","locality":"Heimbach","municipality":{"key":"07134036","name":"Heimbach","type":"Kreisangehörige_Gemeinde"},"district":{"key":"07134","name":"Birkenfeld","type":"Landkreis"},"federalState":{"key":"07","name":"Rheinland-Pfalz"}},{"name":"In der Raupenhell","postalCode":"55413","locality":"Oberheimbach","municipality":{"key":"07339045","name":"Oberheimbach","type":"Kreisangehörige_Gemeinde"},"district":{"key":"07339","name":"Mainz-Bingen","type":"Landkreis"},"federalState":{"key":"07","name":"Rheinland-Pfalz"}},{"name":"In der Seiters","postalCode":"55779","locality":"Heimbach","municipality":{"key":"07134036","name":"Heimbach","type":"Kreisangehörige_Gemeinde"},"district":{"key":"07134","name":"Birkenfeld","type":"Landkreis"},"federalState":{"key":"07","name":"Rheinland-Pfalz"}},{"name":"In der Treibe","postalCode":"55779","locality":"Heimbach","municipality":{"key":"07134036","name":"Heimbach","type":"Kreisangehörige_Gemeinde"},"district":{"key":"07134","name":"Birkenfeld","type":"Landkreis"},"federalState":{"key":"07","name":"Rheinland-Pfalz"}},{"name":"In Feldersgarden","postalCode":"52396","locality":"Heimbach","municipality":{"key":"05358012","name":"Heimbach, Stadt","type":"Stadt"},"district":{"key":"05358","name":"Düren","type":"Kreis"},"federalState":{"key":"05","name":"Nordrhein-Westfalen"}},{"name":"Jägersteig","postalCode":"75217","locality":"Birkenfeld","municipality":{"key":"08236004","name":"Birkenfeld","type":"Kreisangehörige_Gemeinde"},"district":{"key":"08236","name":"Enzkreis","type":"Landkreis"},"federalState":{"key":"08","name":"Baden-Württemberg"}},{"name":"Jägersteig-Kreisel","postalCode":"75217","locality":"Birkenfeld","municipality":{"key":"08236004","name":"Birkenfeld","type":"Kreisangehörige_Gemeinde"},"district":{"key":"08236","name":"Enzkreis","type":"Landkreis"},"federalState":{"key":"08","name":"Baden-Württemberg"}},{"name":"Jahnstr.","postalCode":"75217","locality":"Birkenfeld","municipality":{"key":"08236004","name":"Birkenfeld","type":"Kreisangehörige_Gemeinde"},"district":{"key":"08236","name":"Enzkreis","type":"Landkreis"},"federalState":{"key":"08","name":"Baden-Württemberg"}},{"name":"Kälbchesweg","postalCode":"52396","locality":"Heimbach","municipality":{"key":"05358012","name":"Heimbach, Stadt","type":"Stadt"},"district":{"key":"05358","name":"Düren","type":"Kreis"},"federalState":{"key":"05","name":"Nordrhein-Westfalen"}},{"name":"Kapellenstr.","postalCode":"52396","locality":"Heimbach","municipality":{"key":"05358012","name":"Heimbach, Stadt","type":"Stadt"},"district":{"key":"05358","name":"Düren","type":"Kreis"},"federalState":{"key":"05","name":"Nordrhein-Westfalen"}},{"name":"Kastanienweg","postalCode":"52396","locality":"Heimbach","municipality":{"key":"05358012","name":"Heimbach, Stadt","type":"Stadt"},"district":{"key":"05358","name":"Düren","type":"Kreis"},"federalState":{"key":"05","name":"Nordrhein-Westfalen"}},{"name":"katzes","postalCode":"52396","locality":"Heimbach","municipality":{"key":"05358012","name":"Heimbach, Stadt","type":"Stadt"},"district":{"key":"05358","name":"Düren","type":"Kreis"},"federalState":{"key":"05","name":"Nordrhein-Westfalen"}},{"name":"Keltenweg","postalCode":"52396","locality":"Heimbach","municipality":{"key":"05358012","name":"Heimbach, Stadt","type":"Stadt"},"district":{"key":"05358","name":"Düren","type":"Kreis"},"federalState":{"key":"05","name":"Nordrhein-Westfalen"}},{"name":"Kermeterstr.","postalCode":"52396","locality":"Heimbach","municipality":{"key":"05358012","name":"Heimbach, Stadt","type":"Stadt"},"district":{"key":"05358","name":"Düren","type":"Kreis"},"federalState":{"key":"05","name":"Nordrhein-Westfalen"}},{"name":"Kiefernweg","postalCode":"52396","locality":"Heimbach","municipality":{"key":"05358012","name":"Heimbach, Stadt","type":"Stadt"},"district":{"key":"05358","name":"Düren","type":"Kreis"},"federalState":{"key":"05","name":"Nordrhein-Westfalen"}},{"name":"Kiefersheck","postalCode":"55779","locality":"Heimbach","municipality":{"key":"07134036","name":"Heimbach","type":"Kreisangehörige_Gemeinde"},"district":{"key":"07134","name":"Birkenfeld","type":"Landkreis"},"federalState":{"key":"07","name":"Rheinland-Pfalz"}},{"name":"Kirchbenden","postalCode":"52396","locality":"Heimbach","municipality":{"key":"05358012","name":"Heimbach, Stadt","type":"Stadt"},"district":{"key":"05358","name":"Düren","type":"Kreis"},"federalState":{"key":"05","name":"Nordrhein-Westfalen"}},{"name":"Kirchenbenden","postalCode":"52396","locality":"Heimbach","municipality":{"key":"05358012","name":"Heimbach, Stadt","type":"Stadt"},"district":{"key":"05358","name":"Düren","type":"Kreis"},"federalState":{"key":"05","name":"Nordrhein-Westfalen"}},{"name":"Kirchstr.","postalCode":"55413","locality":"Oberheimbach","municipality":{"key":"07339045","name":"Oberheimbach","type":"Kreisangehörige_Gemeinde"},"district":{"key":"07339","name":"Mainz-Bingen","type":"Landkreis"},"federalState":{"key":"07","name":"Rheinland-Pfalz"}},{"name":"Kleestr.","postalCode":"52396","locality":"Heimbach","municipality":{"key":"05358012","name":"Heimbach, Stadt","type":"Stadt"},"district":{"key":"05358","name":"Düren","type":"Kreis"},"federalState":{"key":"05","name":"Nordrhein-Westfalen"}},{"name":"Klosterweg","postalCode":"52396","locality":"Heimbach","municipality":{"key":"05358012","name":"Heimbach, Stadt","type":"Stadt"},"district":{"key":"05358","name":"Düren","type":"Kreis"},"federalState":{"key":"05","name":"Nordrhein-Westfalen"}},{"name":"Kohlgasse","postalCode":"55413","locality":"Oberheimbach","municipality":{"key":"07339045","name":"Oberheimbach","type":"Kreisangehörige_Gemeinde"},"district":{"key":"07339","name":"Mainz-Bingen","type":"Landkreis"},"federalState":{"key":"07","name":"Rheinland-Pfalz"}},{"name":"Kohnental","postalCode":"52396","locality":"Heimbach","municipality":{"key":"05358012","name":"Heimbach, Stadt","type":"Stadt"},"district":{"key":"05358","name":"Düren","type":"Kreis"},"federalState":{"key":"05","name":"Nordrhein-Westfalen"}},{"name":"Kollepötz","postalCode":"52396","locality":"Heimbach","municipality":{"key":"05358012","name":"Heimbach, Stadt","type":"Stadt"},"district":{"key":"05358","name":"Düren","type":"Kreis"},"federalState":{"key":"05","name":"Nordrhein-Westfalen"}},{"name":"Kornblumenweg","postalCode":"52396","locality":"Heimbach","municipality":{"key":"05358012","name":"Heimbach, Stadt","type":"Stadt"},"district":{"key":"05358","name":"Düren","type":"Kreis"},"federalState":{"key":"05","name":"Nordrhein-Westfalen"}},{"name":"Kuhweg","postalCode":"55413","locality":"Niederheimbach","municipality":{"key":"07339040","name":"Niederheimbach","type":"Kreisangehörige_Gemeinde"},"district":{"key":"07339","name":"Mainz-Bingen","type":"Landkreis"},"federalState":{"key":"07","name":"Rheinland-Pfalz"}},{"name":"Kupfergasse","postalCode":"52396","locality":"Heimbach","municipality":{"key":"05358012","name":"Heimbach, Stadt","type":"Stadt"},"district":{"key":"05358","name":"Düren","type":"Kreis"},"federalState":{"key":"05","name":"Nordrhein-Westfalen"}},{"name":"Kurpark","postalCode":"52396","locality":"Heimbach","municipality":{"key":"05358012","name":"Heimbach, Stadt","type":"Stadt"},"district":{"key":"05358","name":"Düren","type":"Kreis"},"federalState":{"key":"05","name":"Nordrhein-Westfalen"}},{"name":"Langerscheidt","postalCode":"52396","locality":"Heimbach","municipality":{"key":"05358012","name":"Heimbach, Stadt","type":"Stadt"},"district":{"key":"05358","name":"Düren","type":"Kreis"},"federalState":{"key":"05","name":"Nordrhein-Westfalen"}},{"name":"Lehmkaul","postalCode":"55779","locality":"Heimbach","municipality":{"key":"07134036","name":"Heimbach","type":"Kreisangehörige_Gemeinde"},"district":{"key":"07134","name":"Birkenfeld","type":"Landkreis"},"federalState":{"key":"07","name":"Rheinland-Pfalz"}},{"name":"Lindenweg","postalCode":"52396","locality":"Heimbach","municipality":{"key":"05358012","name":"Heimbach, Stadt","type":"Stadt"},"district":{"key":"05358","name":"Düren","type":"Kreis"},"federalState":{"key":"05","name":"Nordrhein-Westfalen"}},{"name":"Löwenheller Weg","postalCode":"55413","locality":"Niederheimbach","municipality":{"key":"07339040","name":"Niederheimbach","type":"Kreisangehörige_Gemeinde"},"district":{"key":"07339","name":"Mainz-Bingen","type":"Landkreis"},"federalState":{"key":"07","name":"Rheinland-Pfalz"}},{"name":"Märchenhainstr.","postalCode":"55413","locality":"Niederheimbach","municipality":{"key":"07339040","name":"Niederheimbach","type":"Kreisangehörige_Gemeinde"},"district":{"key":"07339","name":"Mainz-Bingen","type":"Landkreis"},"federalState":{"key":"07","name":"Rheinland-Pfalz"}},{"name":"Mariawalder Str.","postalCode":"52396","locality":"Heimbach","municipality":{"key":"05358012","name":"Heimbach, Stadt","type":"Stadt"},"district":{"key":"05358","name":"Düren","type":"Kreis"},"federalState":{"key":"05","name":"Nordrhein-Westfalen"}},{"name":"Martinusstr.","postalCode":"52396","locality":"Heimbach","municipality":{"key":"05358012","name":"Heimbach, Stadt","type":"Stadt"},"district":{"key":"05358","name":"Düren","type":"Kreis"},"federalState":{"key":"05","name":"Nordrhein-Westfalen"}},{"name":"Merodestr.","postalCode":"52396","locality":"Heimbach","municipality":{"key":"05358012","name":"Heimbach, Stadt","type":"Stadt"},"district":{"key":"05358","name":"Düren","type":"Kreis"},"federalState":{"key":"05","name":"Nordrhein-Westfalen"}},{"name":"Mönicher Heck","postalCode":"52396","locality":"Heimbach","municipality":{"key":"05358012","name":"Heimbach, Stadt","type":"Stadt"},"district":{"key":"05358","name":"Düren","type":"Kreis"},"federalState":{"key":"05","name":"Nordrhein-Westfalen"}},{"name":"Mühlengasse","postalCode":"52396","locality":"Heimbach","municipality":{"key":"05358012","name":"Heimbach, Stadt","type":"Stadt"},"district":{"key":"05358","name":"Düren","type":"Kreis"},"federalState":{"key":"05","name":"Nordrhein-Westfalen"}},{"name":"Nideggener Weg","postalCode":"52396","locality":"Heimbach","municipality":{"key":"05358012","name":"Heimbach, Stadt","type":"Stadt"},"district":{"key":"05358","name":"Düren","type":"Kreis"},"federalState":{"key":"05","name":"Nordrhein-Westfalen"}},{"name":"Obere Bergstr.","postalCode":"52396","locality":"Heimbach","municipality":{"key":"05358012","name":"Heimbach, Stadt","type":"Stadt"},"district":{"key":"05358","name":"Düren","type":"Kreis"},"federalState":{"key":"05","name":"Nordrhein-Westfalen"}},{"name":"Odenbachstr.","postalCode":"52396","locality":"Heimbach","municipality":{"key":"05358012","name":"Heimbach, Stadt","type":"Stadt"},"district":{"key":"05358","name":"Düren","type":"Kreis"},"federalState":{"key":"05","name":"Nordrhein-Westfalen"}},{"name":"Odenbachweg","postalCode":"52396","locality":"Heimbach","municipality":{"key":"05358012","name":"Heimbach, Stadt","type":"Stadt"},"district":{"key":"05358","name":"Düren","type":"Kreis"},"federalState":{"key":"05","name":"Nordrhein-Westfalen"}},{"name":"Pützfeldstr.","postalCode":"52396","locality":"Heimbach","municipality":{"key":"05358012","name":"Heimbach, Stadt","type":"Stadt"},"district":{"key":"05358","name":"Düren","type":"Kreis"},"federalState":{"key":"05","name":"Nordrhein-Westfalen"}},{"name":"Quellenstr.","postalCode":"52396","locality":"Heimbach","municipality":{"key":"05358012","name":"Heimbach, Stadt","type":"Stadt"},"district":{"key":"05358","name":"Düren","type":"Kreis"},"federalState":{"key":"05","name":"Nordrhein-Westfalen"}},{"name":"Raupenhell","postalCode":"55413","locality":"Niederheimbach","municipality":{"key":"07339040","name":"Niederheimbach","type":"Kreisangehörige_Gemeinde"},"district":{"key":"07339","name":"Mainz-Bingen","type":"Landkreis"},"federalState":{"key":"07","name":"Rheinland-Pfalz"}},{"name":"Reiffeisenplatz","postalCode":"52396","locality":"Heimbach","municipality":{"key":"05358012","name":"Heimbach, Stadt","type":"Stadt"},"district":{"key":"05358","name":"Düren","type":"Kreis"},"federalState":{"key":"05","name":"Nordrhein-Westfalen"}},{"name":"Rheinstr.","postalCode":"55413","locality":"Niederheimbach","municipality":{"key":"07339040","name":"Niederheimbach","type":"Kreisangehörige_Gemeinde"},"district":{"key":"07339","name":"Mainz-Bingen","type":"Landkreis"},"federalState":{"key":"07","name":"Rheinland-Pfalz"}},{"name":"Ringweg","postalCode":"52396","locality":"Heimbach","municipality":{"key":"05358012","name":"Heimbach, Stadt","type":"Stadt"},"district":{"key":"05358","name":"Düren","type":"Kreis"},"federalState":{"key":"05","name":"Nordrhein-Westfalen"}},{"name":"Römerstr.","postalCode":"52396","locality":"Heimbach","municipality":{"key":"05358012","name":"Heimbach, Stadt","type":"Stadt"},"district":{"key":"05358","name":"Düren","type":"Kreis"},"federalState":{"key":"05","name":"Nordrhein-Westfalen"}},{"name":"Rursteg","postalCode":"52396","locality":"Heimbach","municipality":{"key":"05358012","name":"Heimbach, Stadt","type":"Stadt"},"district":{"key":"05358","name":"Düren","type":"Kreis"},"federalState":{"key":"05","name":"Nordrhein-Westfalen"}},{"name":"Rurstr.","postalCode":"52396","locality":"Heimbach","municipality":{"key":"05358012","name":"Heimbach, Stadt","type":"Stadt"},"district":{"key":"05358","name":"Düren","type":"Kreis"},"federalState":{"key":"05","name":"Nordrhein-Westfalen"}},{"name":"Sankt-Georg-Str.","postalCode":"52396","locality":"Heimbach","municipality":{"key":"05358012","name":"Heimbach, Stadt","type":"Stadt"},"district":{"key":"05358","name":"Düren","type":"Kreis"},"federalState":{"key":"05","name":"Nordrhein-Westfalen"}},{"name":"Sankt-Michael-Str.","postalCode":"52396","locality":"Heimbach","municipality":{"key":"05358012","name":"Heimbach, Stadt","type":"Stadt"},"district":{"key":"05358","name":"Düren","type":"Kreis"},"federalState":{"key":"05","name":"Nordrhein-Westfalen"}},{"name":"Schäfersgarten","postalCode":"52396","locality":"Heimbach","municipality":{"key":"05358012","name":"Heimbach, Stadt","type":"Stadt"},"district":{"key":"05358","name":"Düren","type":"Kreis"},"federalState":{"key":"05","name":"Nordrhein-Westfalen"}},{"name":"Schönblick","postalCode":"52396","locality":"Heimbach","municipality":{"key":"05358012","name":"Heimbach, Stadt","type":"Stadt"},"district":{"key":"05358","name":"Düren","type":"Kreis"},"federalState":{"key":"05","name":"Nordrhein-Westfalen"}},{"name":"Schulstr.","postalCode":"52396","locality":"Heimbach","municipality":{"key":"05358012","name":"Heimbach, Stadt","type":"Stadt"},"district":{"key":"05358","name":"Düren","type":"Kreis"},"federalState":{"key":"05","name":"Nordrhein-Westfalen"}},{"name":"Schulstr.","postalCode":"55413","locality":"Niederheimbach","municipality":{"key":"07339040","name":"Niederheimbach","type":"Kreisangehörige_Gemeinde"},"district":{"key":"07339","name":"Mainz-Bingen","type":"Landkreis"},"federalState":{"key":"07","name":"Rheinland-Pfalz"}},{"name":"Schwammenaueler Str.","postalCode":"52396","locality":"Heimbach","municipality":{"key":"05358012","name":"Heimbach, Stadt","type":"Stadt"},"district":{"key":"05358","name":"Düren","type":"Kreis"},"federalState":{"key":"05","name":"Nordrhein-Westfalen"}},{"name":"Schweizertal","postalCode":"55413","locality":"Oberheimbach","municipality":{"key":"07339045","name":"Oberheimbach","type":"Kreisangehörige_Gemeinde"},"district":{"key":"07339","name":"Mainz-Bingen","type":"Landkreis"},"federalState":{"key":"07","name":"Rheinland-Pfalz"}},{"name":"Soonecker Str.","postalCode":"55413","locality":"Niederheimbach","municipality":{"key":"07339040","name":"Niederheimbach","type":"Kreisangehörige_Gemeinde"},"district":{"key":"07339","name":"Mainz-Bingen","type":"Landkreis"},"federalState":{"key":"07","name":"Rheinland-Pfalz"}},{"name":"Steinbachtal","postalCode":"52396","locality":"Heimbach","municipality":{"key":"05358012","name":"Heimbach, Stadt","type":"Stadt"},"district":{"key":"05358","name":"Düren","type":"Kreis"},"federalState":{"key":"05","name":"Nordrhein-Westfalen"}},{"name":"Steinmühlen","postalCode":"52396","locality":"Heimbach","municipality":{"key":"05358012","name":"Heimbach, Stadt","type":"Stadt"},"district":{"key":"05358","name":"Düren","type":"Kreis"},"federalState":{"key":"05","name":"Nordrhein-Westfalen"}},{"name":"Steinweg","postalCode":"52396","locality":"Heimbach","municipality":{"key":"05358012","name":"Heimbach, Stadt","type":"Stadt"},"district":{"key":"05358","name":"Düren","type":"Kreis"},"federalState":{"key":"05","name":"Nordrhein-Westfalen"}},{"name":"St.-Nikolaus-Str.","postalCode":"52396","locality":"Heimbach","municipality":{"key":"05358012","name":"Heimbach, Stadt","type":"Stadt"},"district":{"key":"05358","name":"Düren","type":"Kreis"},"federalState":{"key":"05","name":"Nordrhein-Westfalen"}},{"name":"Tannenweg","postalCode":"52396","locality":"Heimbach","municipality":{"key":"05358012","name":"Heimbach, Stadt","type":"Stadt"},"district":{"key":"05358","name":"Düren","type":"Kreis"},"federalState":{"key":"05","name":"Nordrhein-Westfalen"}},{"name":"Teichstr.","postalCode":"52396","locality":"Heimbach","municipality":{"key":"05358012","name":"Heimbach, Stadt","type":"Stadt"},"district":{"key":"05358","name":"Düren","type":"Kreis"},"federalState":{"key":"05","name":"Nordrhein-Westfalen"}},{"name":"Trierer Str.","postalCode":"52396","locality":"Heimbach","municipality":{"key":"05358012","name":"Heimbach, Stadt","type":"Stadt"},"district":{"key":"05358","name":"Düren","type":"Kreis"},"federalState":{"key":"05","name":"Nordrhein-Westfalen"}},{"name":"Triftstr.","postalCode":"52396","locality":"Heimbach","municipality":{"key":"05358012","name":"Heimbach, Stadt","type":"Stadt"},"district":{"key":"05358","name":"Düren","type":"Kreis"},"federalState":{"key":"05","name":"Nordrhein-Westfalen"}},{"name":"Unnerstr.","postalCode":"55779","locality":"Heimbach","municipality":{"key":"07134036","name":"Heimbach","type":"Kreisangehörige_Gemeinde"},"district":{"key":"07134","name":"Birkenfeld","type":"Landkreis"},"federalState":{"key":"07","name":"Rheinland-Pfalz"}},{"name":"Von-Drais-Str.","postalCode":"75217","locality":"Birkenfeld","municipality":{"key":"08236004","name":"Birkenfeld","type":"Kreisangehörige_Gemeinde"},"district":{"key":"08236","name":"Enzkreis","type":"Landkreis"},"federalState":{"key":"08","name":"Baden-Württemberg"}},{"name":"Vor der Sielbach","postalCode":"55765","locality":"Birkenfeld","municipality":{"key":"07134010","name":"Birkenfeld, Stadt","type":"Stadt"},"district":{"key":"07134","name":"Birkenfeld","type":"Landkreis"},"federalState":{"key":"07","name":"Rheinland-Pfalz"}},{"name":"Vor Klopp","postalCode":"55765","locality":"Birkenfeld","municipality":{"key":"07134010","name":"Birkenfeld, Stadt","type":"Stadt"},"district":{"key":"07134","name":"Birkenfeld","type":"Landkreis"},"federalState":{"key":"07","name":"Rheinland-Pfalz"}},{"name":"Walbig","postalCode":"52396","locality":"Heimbach","municipality":{"key":"05358012","name":"Heimbach, Stadt","type":"Stadt"},"district":{"key":"05358","name":"Düren","type":"Kreis"},"federalState":{"key":"05","name":"Nordrhein-Westfalen"}},{"name":"Waldweg","postalCode":"52396","locality":"Heimbach","municipality":{"key":"05358012","name":"Heimbach, Stadt","type":"Stadt"},"district":{"key":"05358","name":"Düren","type":"Kreis"},"federalState":{"key":"05","name":"Nordrhein-Westfalen"}},{"name":"Waldweg","postalCode":"55413","locality":"Niederheimbach","municipality":{"key":"07339040","name":"Niederheimbach","type":"Kreisangehörige_Gemeinde"},"district":{"key":"07339","name":"Mainz-Bingen","type":"Landkreis"},"federalState":{"key":"07","name":"Rheinland-Pfalz"}},{"name":"Weberstr.","postalCode":"52396","locality":"Heimbach","municipality":{"key":"05358012","name":"Heimbach, Stadt","type":"Stadt"},"district":{"key":"05358","name":"Düren","type":"Kreis"},"federalState":{"key":"05","name":"Nordrhein-Westfalen"}},{"name":"Weg 48 - EV Hausen","postalCode":"52396","locality":"Heimbach","municipality":{"key":"05358012","name":"Heimbach, Stadt","type":"Stadt"},"district":{"key":"05358","name":"Düren","type":"Kreis"},"federalState":{"key":"05","name":"Nordrhein-Westfalen"}},{"name":"Wilder Weg","postalCode":"52396","locality":"Heimbach","municipality":{"key":"05358012","name":"Heimbach, Stadt","type":"Stadt"},"district":{"key":"05358","name":"Düren","type":"Kreis"},"federalState":{"key":"05","name":"Nordrhein-Westfalen"}},{"name":"Wildnistrail (Eifel)","postalCode":"52396","locality":"Heimbach","municipality":{"key":"05358012","name":"Heimbach, Stadt","type":"Stadt"},"district":{"key":"05358","name":"Düren","type":"Kreis"},"federalState":{"key":"05","name":"Nordrhein-Westfalen"}},{"name":"Zum Bleiberg","postalCode":"52396","locality":"Heimbach","municipality":{"key":"05358012","name":"Heimbach, Stadt","type":"Stadt"},"district":{"key":"05358","name":"Düren","type":"Kreis"},"federalState":{"key":"05","name":"Nordrhein-Westfalen"}},{"name":"Zum Dich","postalCode":"52396","locality":"Heimbach","municipality":{"key":"05358012","name":"Heimbach, Stadt","type":"Stadt"},"district":{"key":"05358","name":"Düren","type":"Kreis"},"federalState":{"key":"05","name":"Nordrhein-Westfalen"}},{"name":"Zum Friedhof","postalCode":"55779","locality":"Heimbach","municipality":{"key":"07134036","name":"Heimbach","type":"Kreisangehörige_Gemeinde"},"district":{"key":"07134","name":"Birkenfeld","type":"Landkreis"},"federalState":{"key":"07","name":"Rheinland-Pfalz"}},{"name":"Zum Hohen Schirm","postalCode":"52396","locality":"Heimbach","municipality":{"key":"05358012","name":"Heimbach, Stadt","type":"Stadt"},"district":{"key":"05358","name":"Düren","type":"Kreis"},"federalState":{"key":"05","name":"Nordrhein-Westfalen"}},{"name":"Zum Homersch","postalCode":"52396","locality":"Heimbach","municipality":{"key":"05358012","name":"Heimbach, Stadt","type":"Stadt"},"district":{"key":"05358","name":"Düren","type":"Kreis"},"federalState":{"key":"05","name":"Nordrhein-Westfalen"}},{"name":"Zum Rodenbusch","postalCode":"52396","locality":"Heimbach","municipality":{"key":"05358012","name":"Heimbach, Stadt","type":"Stadt"},"district":{"key":"05358","name":"Düren","type":"Kreis"},"federalState":{"key":"05","name":"Nordrhein-Westfalen"}},{"name":"Zum Wachberg","postalCode":"52396","locality":"Heimbach","municipality":{"key":"05358012","name":"Heimbach, Stadt","type":"Stadt"},"district":{"key":"05358","name":"Düren","type":"Kreis"},"federalState":{"key":"05","name":"Nordrhein-Westfalen"}},{"name":"Über Rur","postalCode":"52396","locality":"Heimbach","municipality":{"key":"05358012","name":"Heimbach, Stadt","type":"Stadt"},"district":{"key":"05358","name":"Düren","type":"Kreis"},"federalState":{"key":"05","name":"Nordrhein-Westfalen"}},]