[{"name":"Addenstorfer Str.","postalCode":"29585","locality":"Jelmstorf","municipality":{"key":"03360012","name":"Jelmstorf","type":"Kreisangehörige_Gemeinde"},"district":{"key":"03360","name":"Uelzen","type":"Landkreis"},"federalState":{"key":"03","name":"Niedersachsen"}},{"name":"Aubruchsweg","postalCode":"29585","locality":"Jelmstorf","municipality":{"key":"03360012","name":"Jelmstorf","type":"Kreisangehörige_Gemeinde"},"district":{"key":"03360","name":"Uelzen","type":"Landkreis"},"federalState":{"key":"03","name":"Niedersachsen"}},{"name":"Bergstr.","postalCode":"29585","locality":"Jelmstorf","municipality":{"key":"03360012","name":"Jelmstorf","type":"Kreisangehörige_Gemeinde"},"district":{"key":"03360","name":"Uelzen","type":"Landkreis"},"federalState":{"key":"03","name":"Niedersachsen"}},{"name":"Bruchtorfer Str.","postalCode":"29585","locality":"Jelmstorf","municipality":{"key":"03360012","name":"Jelmstorf","type":"Kreisangehörige_Gemeinde"},"district":{"key":"03360","name":"Uelzen","type":"Landkreis"},"federalState":{"key":"03","name":"Niedersachsen"}},{"name":"Bruchtorf-Ost","postalCode":"29585","locality":"Jelmstorf","municipality":{"key":"03360012","name":"Jelmstorf","type":"Kreisangehörige_Gemeinde"},"district":{"key":"03360","name":"Uelzen","type":"Landkreis"},"federalState":{"key":"03","name":"Niedersachsen"}},{"name":"Caspar-Lehman-Str.","postalCode":"29525","locality":"Uelzen","municipality":{"key":"03360025","name":"Uelzen, Hansestadt","type":"Stadt"},"district":{"key":"03360","name":"Uelzen","type":"Landkreis"},"federalState":{"key":"03","name":"Niedersachsen"}},{"name":"Celler Str.","postalCode":"29525","locality":"Uelzen","municipality":{"key":"03360025","name":"Uelzen, Hansestadt","type":"Stadt"},"district":{"key":"03360","name":"Uelzen","type":"Landkreis"},"federalState":{"key":"03","name":"Niedersachsen"}},{"name":"Dorfstr.","postalCode":"29585","locality":"Jelmstorf","municipality":{"key":"03360012","name":"Jelmstorf","type":"Kreisangehörige_Gemeinde"},"district":{"key":"03360","name":"Uelzen","type":"Landkreis"},"federalState":{"key":"03","name":"Niedersachsen"}},{"name":"Eichenstr.","postalCode":"29585","locality":"Jelmstorf","municipality":{"key":"03360012","name":"Jelmstorf","type":"Kreisangehörige_Gemeinde"},"district":{"key":"03360","name":"Uelzen","type":"Landkreis"},"federalState":{"key":"03","name":"Niedersachsen"}},{"name":"Feldstr.","postalCode":"29585","locality":"Jelmstorf","municipality":{"key":"03360012","name":"Jelmstorf","type":"Kreisangehörige_Gemeinde"},"district":{"key":"03360","name":"Uelzen","type":"Landkreis"},"federalState":{"key":"03","name":"Niedersachsen"}},{"name":"Gartenstr.","postalCode":"29585","locality":"Jelmstorf","municipality":{"key":"03360012","name":"Jelmstorf","type":"Kreisangehörige_Gemeinde"},"district":{"key":"03360","name":"Uelzen","type":"Landkreis"},"federalState":{"key":"03","name":"Niedersachsen"}},{"name":"Hauptstr.","postalCode":"29585","locality":"Jelmstorf","municipality":{"key":"03360012","name":"Jelmstorf","type":"Kreisangehörige_Gemeinde"},"district":{"key":"03360","name":"Uelzen","type":"Landkreis"},"federalState":{"key":"03","name":"Niedersachsen"}},{"name":"Heidestr.","postalCode":"29585","locality":"Jelmstorf","municipality":{"key":"03360012","name":"Jelmstorf","type":"Kreisangehörige_Gemeinde"},"district":{"key":"03360","name":"Uelzen","type":"Landkreis"},"federalState":{"key":"03","name":"Niedersachsen"}},{"name":"Ilmenaustr.","postalCode":"29585","locality":"Jelmstorf","municipality":{"key":"03360012","name":"Jelmstorf","type":"Kreisangehörige_Gemeinde"},"district":{"key":"03360","name":"Uelzen","type":"Landkreis"},"federalState":{"key":"03","name":"Niedersachsen"}},{"name":"Ilmenau-Uferweg","postalCode":"29585","locality":"Jelmstorf","municipality":{"key":"03360012","name":"Jelmstorf","type":"Kreisangehörige_Gemeinde"},"district":{"key":"03360","name":"Uelzen","type":"Landkreis"},"federalState":{"key":"03","name":"Niedersachsen"}},{"name":"Jägerstr.","postalCode":"29525","locality":"Uelzen","municipality":{"key":"03360025","name":"Uelzen, Hansestadt","type":"Stadt"},"district":{"key":"03360","name":"Uelzen","type":"Landkreis"},"federalState":{"key":"03","name":"Niedersachsen"}},{"name":"Johannesstr.","postalCode":"29525","locality":"Uelzen","municipality":{"key":"03360025","name":"Uelzen, Hansestadt","type":"Stadt"},"district":{"key":"03360","name":"Uelzen","type":"Landkreis"},"federalState":{"key":"03","name":"Niedersachsen"}},{"name":"Johnsburg","postalCode":"29525","locality":"Uelzen","municipality":{"key":"03360025","name":"Uelzen, Hansestadt","type":"Stadt"},"district":{"key":"03360","name":"Uelzen","type":"Landkreis"},"federalState":{"key":"03","name":"Niedersachsen"}},{"name":"Johnsburg Kreisel","postalCode":"29525","locality":"Uelzen","municipality":{"key":"03360025","name":"Uelzen, Hansestadt","type":"Stadt"},"district":{"key":"03360","name":"Uelzen","type":"Landkreis"},"federalState":{"key":"03","name":"Niedersachsen"}},{"name":"Klappenheide","postalCode":"29585","locality":"Jelmstorf","municipality":{"key":"03360012","name":"Jelmstorf","type":"Kreisangehörige_Gemeinde"},"district":{"key":"03360","name":"Uelzen","type":"Landkreis"},"federalState":{"key":"03","name":"Niedersachsen"}},{"name":"Klosterweg","postalCode":"29585","locality":"Jelmstorf","municipality":{"key":"03360012","name":"Jelmstorf","type":"Kreisangehörige_Gemeinde"},"district":{"key":"03360","name":"Uelzen","type":"Landkreis"},"federalState":{"key":"03","name":"Niedersachsen"}},{"name":"Koppelweg","postalCode":"29585","locality":"Jelmstorf","municipality":{"key":"03360012","name":"Jelmstorf","type":"Kreisangehörige_Gemeinde"},"district":{"key":"03360","name":"Uelzen","type":"Landkreis"},"federalState":{"key":"03","name":"Niedersachsen"}},{"name":"Kurze Str.","postalCode":"29585","locality":"Jelmstorf","municipality":{"key":"03360012","name":"Jelmstorf","type":"Kreisangehörige_Gemeinde"},"district":{"key":"03360","name":"Uelzen","type":"Landkreis"},"federalState":{"key":"03","name":"Niedersachsen"}},{"name":"Lahgarten","postalCode":"29525","locality":"Uelzen","municipality":{"key":"03360025","name":"Uelzen, Hansestadt","type":"Stadt"},"district":{"key":"03360","name":"Uelzen","type":"Landkreis"},"federalState":{"key":"03","name":"Niedersachsen"}},{"name":"Lahweg","postalCode":"29525","locality":"Uelzen","municipality":{"key":"03360025","name":"Uelzen, Hansestadt","type":"Stadt"},"district":{"key":"03360","name":"Uelzen","type":"Landkreis"},"federalState":{"key":"03","name":"Niedersachsen"}},{"name":"Lärchenhof","postalCode":"29525","locality":"Uelzen","municipality":{"key":"03360025","name":"Uelzen, Hansestadt","type":"Stadt"},"district":{"key":"03360","name":"Uelzen","type":"Landkreis"},"federalState":{"key":"03","name":"Niedersachsen"}},{"name":"Laufbahn","postalCode":"29525","locality":"Uelzen","municipality":{"key":"03360025","name":"Uelzen, Hansestadt","type":"Stadt"},"district":{"key":"03360","name":"Uelzen","type":"Landkreis"},"federalState":{"key":"03","name":"Niedersachsen"}},{"name":"Lehmker Str.","postalCode":"29525","locality":"Uelzen","municipality":{"key":"03360025","name":"Uelzen, Hansestadt","type":"Stadt"},"district":{"key":"03360","name":"Uelzen","type":"Landkreis"},"federalState":{"key":"03","name":"Niedersachsen"}},{"name":"Lehmkuhle","postalCode":"29525","locality":"Uelzen","municipality":{"key":"03360025","name":"Uelzen, Hansestadt","type":"Stadt"},"district":{"key":"03360","name":"Uelzen","type":"Landkreis"},"federalState":{"key":"03","name":"Niedersachsen"}},{"name":"Lembekestr.","postalCode":"29525","locality":"Uelzen","municipality":{"key":"03360025","name":"Uelzen, Hansestadt","type":"Stadt"},"district":{"key":"03360","name":"Uelzen","type":"Landkreis"},"federalState":{"key":"03","name":"Niedersachsen"}},{"name":"Lerchenweg","postalCode":"29525","locality":"Uelzen","municipality":{"key":"03360025","name":"Uelzen, Hansestadt","type":"Stadt"},"district":{"key":"03360","name":"Uelzen","type":"Landkreis"},"federalState":{"key":"03","name":"Niedersachsen"}},{"name":"Libellenweg","postalCode":"29525","locality":"Uelzen","municipality":{"key":"03360025","name":"Uelzen, Hansestadt","type":"Stadt"},"district":{"key":"03360","name":"Uelzen","type":"Landkreis"},"federalState":{"key":"03","name":"Niedersachsen"}},{"name":"Ligusterweg","postalCode":"29525","locality":"Uelzen","municipality":{"key":"03360025","name":"Uelzen, Hansestadt","type":"Stadt"},"district":{"key":"03360","name":"Uelzen","type":"Landkreis"},"federalState":{"key":"03","name":"Niedersachsen"}},{"name":"Lindenallee","postalCode":"29525","locality":"Uelzen","municipality":{"key":"03360025","name":"Uelzen, Hansestadt","type":"Stadt"},"district":{"key":"03360","name":"Uelzen","type":"Landkreis"},"federalState":{"key":"03","name":"Niedersachsen"}},{"name":"Lindenstr.","postalCode":"29525","locality":"Uelzen","municipality":{"key":"03360025","name":"Uelzen, Hansestadt","type":"Stadt"},"district":{"key":"03360","name":"Uelzen","type":"Landkreis"},"federalState":{"key":"03","name":"Niedersachsen"}},{"name":"Lindenweg","postalCode":"29525","locality":"Uelzen","municipality":{"key":"03360025","name":"Uelzen, Hansestadt","type":"Stadt"},"district":{"key":"03360","name":"Uelzen","type":"Landkreis"},"federalState":{"key":"03","name":"Niedersachsen"}},{"name":"Linsingenstr.","postalCode":"29525","locality":"Uelzen","municipality":{"key":"03360025","name":"Uelzen, Hansestadt","type":"Stadt"},"district":{"key":"03360","name":"Uelzen","type":"Landkreis"},"federalState":{"key":"03","name":"Niedersachsen"}},{"name":"Livlandhof","postalCode":"29525","locality":"Uelzen","municipality":{"key":"03360025","name":"Uelzen, Hansestadt","type":"Stadt"},"district":{"key":"03360","name":"Uelzen","type":"Landkreis"},"federalState":{"key":"03","name":"Niedersachsen"}},{"name":"Lönsstr.","postalCode":"29525","locality":"Uelzen","municipality":{"key":"03360025","name":"Uelzen, Hansestadt","type":"Stadt"},"district":{"key":"03360","name":"Uelzen","type":"Landkreis"},"federalState":{"key":"03","name":"Niedersachsen"}},{"name":"Loosekamp","postalCode":"29525","locality":"Uelzen","municipality":{"key":"03360025","name":"Uelzen, Hansestadt","type":"Stadt"},"district":{"key":"03360","name":"Uelzen","type":"Landkreis"},"federalState":{"key":"03","name":"Niedersachsen"}},{"name":"Luisenstr.","postalCode":"29525","locality":"Uelzen","municipality":{"key":"03360025","name":"Uelzen, Hansestadt","type":"Stadt"},"district":{"key":"03360","name":"Uelzen","type":"Landkreis"},"federalState":{"key":"03","name":"Niedersachsen"}},{"name":"Lüneburger Str.","postalCode":"29525","locality":"Uelzen","municipality":{"key":"03360025","name":"Uelzen, Hansestadt","type":"Stadt"},"district":{"key":"03360","name":"Uelzen","type":"Landkreis"},"federalState":{"key":"03","name":"Niedersachsen"}},{"name":"Machandelweg","postalCode":"29525","locality":"Uelzen","municipality":{"key":"03360025","name":"Uelzen, Hansestadt","type":"Stadt"},"district":{"key":"03360","name":"Uelzen","type":"Landkreis"},"federalState":{"key":"03","name":"Niedersachsen"}},{"name":"Mahonienweg","postalCode":"29525","locality":"Uelzen","municipality":{"key":"03360025","name":"Uelzen, Hansestadt","type":"Stadt"},"district":{"key":"03360","name":"Uelzen","type":"Landkreis"},"federalState":{"key":"03","name":"Niedersachsen"}},{"name":"Malerwinkel","postalCode":"29525","locality":"Uelzen","municipality":{"key":"03360025","name":"Uelzen, Hansestadt","type":"Stadt"},"district":{"key":"03360","name":"Uelzen","type":"Landkreis"},"federalState":{"key":"03","name":"Niedersachsen"}},{"name":"Marderhof","postalCode":"29525","locality":"Uelzen","municipality":{"key":"03360025","name":"Uelzen, Hansestadt","type":"Stadt"},"district":{"key":"03360","name":"Uelzen","type":"Landkreis"},"federalState":{"key":"03","name":"Niedersachsen"}},{"name":"Margaretenstr.","postalCode":"29525","locality":"Uelzen","municipality":{"key":"03360025","name":"Uelzen, Hansestadt","type":"Stadt"},"district":{"key":"03360","name":"Uelzen","type":"Landkreis"},"federalState":{"key":"03","name":"Niedersachsen"}},{"name":"Margarete-Wolf-Schlemm-Str.","postalCode":"29525","locality":"Uelzen","municipality":{"key":"03360025","name":"Uelzen, Hansestadt","type":"Stadt"},"district":{"key":"03360","name":"Uelzen","type":"Landkreis"},"federalState":{"key":"03","name":"Niedersachsen"}},{"name":"Marienburger Str.","postalCode":"29525","locality":"Uelzen","municipality":{"key":"03360025","name":"Uelzen, Hansestadt","type":"Stadt"},"district":{"key":"03360","name":"Uelzen","type":"Landkreis"},"federalState":{"key":"03","name":"Niedersachsen"}},{"name":"Marrée","postalCode":"29525","locality":"Uelzen","municipality":{"key":"03360025","name":"Uelzen, Hansestadt","type":"Stadt"},"district":{"key":"03360","name":"Uelzen","type":"Landkreis"},"federalState":{"key":"03","name":"Niedersachsen"}},{"name":"Mauerstr.","postalCode":"29525","locality":"Uelzen","municipality":{"key":"03360025","name":"Uelzen, Hansestadt","type":"Stadt"},"district":{"key":"03360","name":"Uelzen","type":"Landkreis"},"federalState":{"key":"03","name":"Niedersachsen"}},{"name":"Medingstr.","postalCode":"29525","locality":"Uelzen","municipality":{"key":"03360025","name":"Uelzen, Hansestadt","type":"Stadt"},"district":{"key":"03360","name":"Uelzen","type":"Landkreis"},"federalState":{"key":"03","name":"Niedersachsen"}},{"name":"Mehlenkamp","postalCode":"29525","locality":"Uelzen","municipality":{"key":"03360025","name":"Uelzen, Hansestadt","type":"Stadt"},"district":{"key":"03360","name":"Uelzen","type":"Landkreis"},"federalState":{"key":"03","name":"Niedersachsen"}},{"name":"Meierstr.","postalCode":"29525","locality":"Uelzen","municipality":{"key":"03360025","name":"Uelzen, Hansestadt","type":"Stadt"},"district":{"key":"03360","name":"Uelzen","type":"Landkreis"},"federalState":{"key":"03","name":"Niedersachsen"}},{"name":"Meilereiweg","postalCode":"29525","locality":"Uelzen","municipality":{"key":"03360025","name":"Uelzen, Hansestadt","type":"Stadt"},"district":{"key":"03360","name":"Uelzen","type":"Landkreis"},"federalState":{"key":"03","name":"Niedersachsen"}},{"name":"Meisenstieg","postalCode":"29525","locality":"Uelzen","municipality":{"key":"03360025","name":"Uelzen, Hansestadt","type":"Stadt"},"district":{"key":"03360","name":"Uelzen","type":"Landkreis"},"federalState":{"key":"03","name":"Niedersachsen"}},{"name":"Meisenweg","postalCode":"29525","locality":"Uelzen","municipality":{"key":"03360025","name":"Uelzen, Hansestadt","type":"Stadt"},"district":{"key":"03360","name":"Uelzen","type":"Landkreis"},"federalState":{"key":"03","name":"Niedersachsen"}},{"name":"Memeler Str.","postalCode":"29525","locality":"Uelzen","municipality":{"key":"03360025","name":"Uelzen, Hansestadt","type":"Stadt"},"district":{"key":"03360","name":"Uelzen","type":"Landkreis"},"federalState":{"key":"03","name":"Niedersachsen"}},{"name":"Mestwartstr.","postalCode":"29525","locality":"Uelzen","municipality":{"key":"03360025","name":"Uelzen, Hansestadt","type":"Stadt"},"district":{"key":"03360","name":"Uelzen","type":"Landkreis"},"federalState":{"key":"03","name":"Niedersachsen"}},{"name":"Meyerholzweg","postalCode":"29525","locality":"Uelzen","municipality":{"key":"03360025","name":"Uelzen, Hansestadt","type":"Stadt"},"district":{"key":"03360","name":"Uelzen","type":"Landkreis"},"federalState":{"key":"03","name":"Niedersachsen"}},{"name":"Miesbacher Str.","postalCode":"29525","locality":"Uelzen","municipality":{"key":"03360025","name":"Uelzen, Hansestadt","type":"Stadt"},"district":{"key":"03360","name":"Uelzen","type":"Landkreis"},"federalState":{"key":"03","name":"Niedersachsen"}},{"name":"Mithoffweg","postalCode":"29525","locality":"Uelzen","municipality":{"key":"03360025","name":"Uelzen, Hansestadt","type":"Stadt"},"district":{"key":"03360","name":"Uelzen","type":"Landkreis"},"federalState":{"key":"03","name":"Niedersachsen"}},{"name":"Mittelweg","postalCode":"29525","locality":"Uelzen","municipality":{"key":"03360025","name":"Uelzen, Hansestadt","type":"Stadt"},"district":{"key":"03360","name":"Uelzen","type":"Landkreis"},"federalState":{"key":"03","name":"Niedersachsen"}},{"name":"Molkereistr.","postalCode":"29525","locality":"Uelzen","municipality":{"key":"03360025","name":"Uelzen, Hansestadt","type":"Stadt"},"district":{"key":"03360","name":"Uelzen","type":"Landkreis"},"federalState":{"key":"03","name":"Niedersachsen"}},{"name":"Molzener Bergstr.","postalCode":"29525","locality":"Uelzen","municipality":{"key":"03360025","name":"Uelzen, Hansestadt","type":"Stadt"},"district":{"key":"03360","name":"Uelzen","type":"Landkreis"},"federalState":{"key":"03","name":"Niedersachsen"}},{"name":"Molzener Kirchstr.","postalCode":"29525","locality":"Uelzen","municipality":{"key":"03360025","name":"Uelzen, Hansestadt","type":"Stadt"},"district":{"key":"03360","name":"Uelzen","type":"Landkreis"},"federalState":{"key":"03","name":"Niedersachsen"}},{"name":"Molzener Sandweg","postalCode":"29525","locality":"Uelzen","municipality":{"key":"03360025","name":"Uelzen, Hansestadt","type":"Stadt"},"district":{"key":"03360","name":"Uelzen","type":"Landkreis"},"federalState":{"key":"03","name":"Niedersachsen"}},{"name":"Molzener Schulstr.","postalCode":"29525","locality":"Uelzen","municipality":{"key":"03360025","name":"Uelzen, Hansestadt","type":"Stadt"},"district":{"key":"03360","name":"Uelzen","type":"Landkreis"},"federalState":{"key":"03","name":"Niedersachsen"}},{"name":"Molzener Str.","postalCode":"29525","locality":"Uelzen","municipality":{"key":"03360025","name":"Uelzen, Hansestadt","type":"Stadt"},"district":{"key":"03360","name":"Uelzen","type":"Landkreis"},"federalState":{"key":"03","name":"Niedersachsen"}},{"name":"Moorweg","postalCode":"29525","locality":"Uelzen","municipality":{"key":"03360025","name":"Uelzen, Hansestadt","type":"Stadt"},"district":{"key":"03360","name":"Uelzen","type":"Landkreis"},"federalState":{"key":"03","name":"Niedersachsen"}},{"name":"Moorwiesenweg","postalCode":"29525","locality":"Uelzen","municipality":{"key":"03360025","name":"Uelzen, Hansestadt","type":"Stadt"},"district":{"key":"03360","name":"Uelzen","type":"Landkreis"},"federalState":{"key":"03","name":"Niedersachsen"}},{"name":"Mozartstr.","postalCode":"29525","locality":"Uelzen","municipality":{"key":"03360025","name":"Uelzen, Hansestadt","type":"Stadt"},"district":{"key":"03360","name":"Uelzen","type":"Landkreis"},"federalState":{"key":"03","name":"Niedersachsen"}},{"name":"Mühlenfeldstr.","postalCode":"29525","locality":"Uelzen","municipality":{"key":"03360025","name":"Uelzen, Hansestadt","type":"Stadt"},"district":{"key":"03360","name":"Uelzen","type":"Landkreis"},"federalState":{"key":"03","name":"Niedersachsen"}},{"name":"Mühlenstr.","postalCode":"29525","locality":"Uelzen","municipality":{"key":"03360025","name":"Uelzen, Hansestadt","type":"Stadt"},"district":{"key":"03360","name":"Uelzen","type":"Landkreis"},"federalState":{"key":"03","name":"Niedersachsen"}},{"name":"Müllerstr.","postalCode":"29525","locality":"Uelzen","municipality":{"key":"03360025","name":"Uelzen, Hansestadt","type":"Stadt"},"district":{"key":"03360","name":"Uelzen","type":"Landkreis"},"federalState":{"key":"03","name":"Niedersachsen"}},{"name":"Nelkenweg","postalCode":"29525","locality":"Uelzen","municipality":{"key":"03360025","name":"Uelzen, Hansestadt","type":"Stadt"},"district":{"key":"03360","name":"Uelzen","type":"Landkreis"},"federalState":{"key":"03","name":"Niedersachsen"}},{"name":"Neu Ripdorf","postalCode":"29525","locality":"Uelzen","municipality":{"key":"03360025","name":"Uelzen, Hansestadt","type":"Stadt"},"district":{"key":"03360","name":"Uelzen","type":"Landkreis"},"federalState":{"key":"03","name":"Niedersachsen"}},{"name":"Niemannsweg","postalCode":"29525","locality":"Uelzen","municipality":{"key":"03360025","name":"Uelzen, Hansestadt","type":"Stadt"},"district":{"key":"03360","name":"Uelzen","type":"Landkreis"},"federalState":{"key":"03","name":"Niedersachsen"}},{"name":"Niendorfer Str.","postalCode":"29525","locality":"Uelzen","municipality":{"key":"03360025","name":"Uelzen, Hansestadt","type":"Stadt"},"district":{"key":"03360","name":"Uelzen","type":"Landkreis"},"federalState":{"key":"03","name":"Niedersachsen"}},{"name":"Niendorfer Weg","postalCode":"29525","locality":"Uelzen","municipality":{"key":"03360025","name":"Uelzen, Hansestadt","type":"Stadt"},"district":{"key":"03360","name":"Uelzen","type":"Landkreis"},"federalState":{"key":"03","name":"Niedersachsen"}},{"name":"Nordallee","postalCode":"29525","locality":"Uelzen","municipality":{"key":"03360025","name":"Uelzen, Hansestadt","type":"Stadt"},"district":{"key":"03360","name":"Uelzen","type":"Landkreis"},"federalState":{"key":"03","name":"Niedersachsen"}},{"name":"Norkstr.","postalCode":"29525","locality":"Uelzen","municipality":{"key":"03360025","name":"Uelzen, Hansestadt","type":"Stadt"},"district":{"key":"03360","name":"Uelzen","type":"Landkreis"},"federalState":{"key":"03","name":"Niedersachsen"}},{"name":"Nothmannstr.","postalCode":"29525","locality":"Uelzen","municipality":{"key":"03360025","name":"Uelzen, Hansestadt","type":"Stadt"},"district":{"key":"03360","name":"Uelzen","type":"Landkreis"},"federalState":{"key":"03","name":"Niedersachsen"}},{"name":"Oetzener Str.","postalCode":"29525","locality":"Uelzen","municipality":{"key":"03360025","name":"Uelzen, Hansestadt","type":"Stadt"},"district":{"key":"03360","name":"Uelzen","type":"Landkreis"},"federalState":{"key":"03","name":"Niedersachsen"}},{"name":"Oldenstädter Str.","postalCode":"29525","locality":"Uelzen","municipality":{"key":"03360025","name":"Uelzen, Hansestadt","type":"Stadt"},"district":{"key":"03360","name":"Uelzen","type":"Landkreis"},"federalState":{"key":"03","name":"Niedersachsen"}},{"name":"Orchideenweg","postalCode":"29525","locality":"Uelzen","municipality":{"key":"03360025","name":"Uelzen, Hansestadt","type":"Stadt"},"district":{"key":"03360","name":"Uelzen","type":"Landkreis"},"federalState":{"key":"03","name":"Niedersachsen"}},{"name":"Ortsumgehung Kirchweyhe","postalCode":"29525","locality":"Uelzen","municipality":{"key":"03360025","name":"Uelzen, Hansestadt","type":"Stadt"},"district":{"key":"03360","name":"Uelzen","type":"Landkreis"},"federalState":{"key":"03","name":"Niedersachsen"}},{"name":"Oskar-Wachler-Weg","postalCode":"29525","locality":"Uelzen","municipality":{"key":"03360025","name":"Uelzen, Hansestadt","type":"Stadt"},"district":{"key":"03360","name":"Uelzen","type":"Landkreis"},"federalState":{"key":"03","name":"Niedersachsen"}},{"name":"Ostermarsch","postalCode":"29525","locality":"Uelzen","municipality":{"key":"03360025","name":"Uelzen, Hansestadt","type":"Stadt"},"district":{"key":"03360","name":"Uelzen","type":"Landkreis"},"federalState":{"key":"03","name":"Niedersachsen"}},{"name":"Osterstr.","postalCode":"29525","locality":"Uelzen","municipality":{"key":"03360025","name":"Uelzen, Hansestadt","type":"Stadt"},"district":{"key":"03360","name":"Uelzen","type":"Landkreis"},"federalState":{"key":"03","name":"Niedersachsen"}},{"name":"Ostmarkstr.","postalCode":"29525","locality":"Uelzen","municipality":{"key":"03360025","name":"Uelzen, Hansestadt","type":"Stadt"},"district":{"key":"03360","name":"Uelzen","type":"Landkreis"},"federalState":{"key":"03","name":"Niedersachsen"}},{"name":"Ostpreußenring","postalCode":"29525","locality":"Uelzen","municipality":{"key":"03360025","name":"Uelzen, Hansestadt","type":"Stadt"},"district":{"key":"03360","name":"Uelzen","type":"Landkreis"},"federalState":{"key":"03","name":"Niedersachsen"}},{"name":"Papagonenweg","postalCode":"29525","locality":"Uelzen","municipality":{"key":"03360025","name":"Uelzen, Hansestadt","type":"Stadt"},"district":{"key":"03360","name":"Uelzen","type":"Landkreis"},"federalState":{"key":"03","name":"Niedersachsen"}},{"name":"Parkstr.","postalCode":"29525","locality":"Uelzen","municipality":{"key":"03360025","name":"Uelzen, Hansestadt","type":"Stadt"},"district":{"key":"03360","name":"Uelzen","type":"Landkreis"},"federalState":{"key":"03","name":"Niedersachsen"}},{"name":"Pastorenkoppel","postalCode":"29525","locality":"Uelzen","municipality":{"key":"03360025","name":"Uelzen, Hansestadt","type":"Stadt"},"district":{"key":"03360","name":"Uelzen","type":"Landkreis"},"federalState":{"key":"03","name":"Niedersachsen"}},{"name":"Pastorenstr.","postalCode":"29525","locality":"Uelzen","municipality":{"key":"03360025","name":"Uelzen, Hansestadt","type":"Stadt"},"district":{"key":"03360","name":"Uelzen","type":"Landkreis"},"federalState":{"key":"03","name":"Niedersachsen"}},{"name":"Paul-Schäffer-Weg","postalCode":"29525","locality":"Uelzen","municipality":{"key":"03360025","name":"Uelzen, Hansestadt","type":"Stadt"},"district":{"key":"03360","name":"Uelzen","type":"Landkreis"},"federalState":{"key":"03","name":"Niedersachsen"}},{"name":"Paul-Tilly-Weg","postalCode":"29525","locality":"Uelzen","municipality":{"key":"03360025","name":"Uelzen, Hansestadt","type":"Stadt"},"district":{"key":"03360","name":"Uelzen","type":"Landkreis"},"federalState":{"key":"03","name":"Niedersachsen"}},{"name":"Peter-Cordes-Weg","postalCode":"29525","locality":"Uelzen","municipality":{"key":"03360025","name":"Uelzen, Hansestadt","type":"Stadt"},"district":{"key":"03360","name":"Uelzen","type":"Landkreis"},"federalState":{"key":"03","name":"Niedersachsen"}},{"name":"Philiaweg","postalCode":"29525","locality":"Uelzen","municipality":{"key":"03360025","name":"Uelzen, Hansestadt","type":"Stadt"},"district":{"key":"03360","name":"Uelzen","type":"Landkreis"},"federalState":{"key":"03","name":"Niedersachsen"}},{"name":"Pieperhöfen","postalCode":"29525","locality":"Uelzen","municipality":{"key":"03360025","name":"Uelzen, Hansestadt","type":"Stadt"},"district":{"key":"03360","name":"Uelzen","type":"Landkreis"},"federalState":{"key":"03","name":"Niedersachsen"}},{"name":"Platenmeisterstr.","postalCode":"29525","locality":"Uelzen","municipality":{"key":"03360025","name":"Uelzen, Hansestadt","type":"Stadt"},"district":{"key":"03360","name":"Uelzen","type":"Landkreis"},"federalState":{"key":"03","name":"Niedersachsen"}},{"name":"Pohlmannstr.","postalCode":"29525","locality":"Uelzen","municipality":{"key":"03360025","name":"Uelzen, Hansestadt","type":"Stadt"},"district":{"key":"03360","name":"Uelzen","type":"Landkreis"},"federalState":{"key":"03","name":"Niedersachsen"}},{"name":"Pommernweg","postalCode":"29525","locality":"Uelzen","municipality":{"key":"03360025","name":"Uelzen, Hansestadt","type":"Stadt"},"district":{"key":"03360","name":"Uelzen","type":"Landkreis"},"federalState":{"key":"03","name":"Niedersachsen"}},{"name":"Posener Str.","postalCode":"29525","locality":"Uelzen","municipality":{"key":"03360025","name":"Uelzen, Hansestadt","type":"Stadt"},"district":{"key":"03360","name":"Uelzen","type":"Landkreis"},"federalState":{"key":"03","name":"Niedersachsen"}},{"name":"Probst-Raven-Str.","postalCode":"29525","locality":"Uelzen","municipality":{"key":"03360025","name":"Uelzen, Hansestadt","type":"Stadt"},"district":{"key":"03360","name":"Uelzen","type":"Landkreis"},"federalState":{"key":"03","name":"Niedersachsen"}},{"name":"Quellenweg","postalCode":"29585","locality":"Jelmstorf","municipality":{"key":"03360012","name":"Jelmstorf","type":"Kreisangehörige_Gemeinde"},"district":{"key":"03360","name":"Uelzen","type":"Landkreis"},"federalState":{"key":"03","name":"Niedersachsen"}},{"name":"Ringstr.","postalCode":"29585","locality":"Jelmstorf","municipality":{"key":"03360012","name":"Jelmstorf","type":"Kreisangehörige_Gemeinde"},"district":{"key":"03360","name":"Uelzen","type":"Landkreis"},"federalState":{"key":"03","name":"Niedersachsen"}},{"name":"Salzwedeler Str.","postalCode":"29525","locality":"Uelzen","municipality":{"key":"03360025","name":"Uelzen, Hansestadt","type":"Stadt"},"district":{"key":"03360","name":"Uelzen","type":"Landkreis"},"federalState":{"key":"03","name":"Niedersachsen"}},{"name":"Samlandhof","postalCode":"29525","locality":"Uelzen","municipality":{"key":"03360025","name":"Uelzen, Hansestadt","type":"Stadt"},"district":{"key":"03360","name":"Uelzen","type":"Landkreis"},"federalState":{"key":"03","name":"Niedersachsen"}},{"name":"Sandberg","postalCode":"29525","locality":"Uelzen","municipality":{"key":"03360025","name":"Uelzen, Hansestadt","type":"Stadt"},"district":{"key":"03360","name":"Uelzen","type":"Landkreis"},"federalState":{"key":"03","name":"Niedersachsen"}},{"name":"Sandweg","postalCode":"29525","locality":"Uelzen","municipality":{"key":"03360025","name":"Uelzen, Hansestadt","type":"Stadt"},"district":{"key":"03360","name":"Uelzen","type":"Landkreis"},"federalState":{"key":"03","name":"Niedersachsen"}},{"name":"Sankt-Georg-Str.","postalCode":"29525","locality":"Uelzen","municipality":{"key":"03360025","name":"Uelzen, Hansestadt","type":"Stadt"},"district":{"key":"03360","name":"Uelzen","type":"Landkreis"},"federalState":{"key":"03","name":"Niedersachsen"}},{"name":"Sankt-Viti-Str.","postalCode":"29525","locality":"Uelzen","municipality":{"key":"03360025","name":"Uelzen, Hansestadt","type":"Stadt"},"district":{"key":"03360","name":"Uelzen","type":"Landkreis"},"federalState":{"key":"03","name":"Niedersachsen"}},{"name":"Scharnhorststr.","postalCode":"29525","locality":"Uelzen","municipality":{"key":"03360025","name":"Uelzen, Hansestadt","type":"Stadt"},"district":{"key":"03360","name":"Uelzen","type":"Landkreis"},"federalState":{"key":"03","name":"Niedersachsen"}},{"name":"Schillerstr.","postalCode":"29525","locality":"Uelzen","municipality":{"key":"03360025","name":"Uelzen, Hansestadt","type":"Stadt"},"district":{"key":"03360","name":"Uelzen","type":"Landkreis"},"federalState":{"key":"03","name":"Niedersachsen"}},{"name":"Schlehenweg","postalCode":"29525","locality":"Uelzen","municipality":{"key":"03360025","name":"Uelzen, Hansestadt","type":"Stadt"},"district":{"key":"03360","name":"Uelzen","type":"Landkreis"},"federalState":{"key":"03","name":"Niedersachsen"}},{"name":"Schlosspark","postalCode":"29525","locality":"Uelzen","municipality":{"key":"03360025","name":"Uelzen, Hansestadt","type":"Stadt"},"district":{"key":"03360","name":"Uelzen","type":"Landkreis"},"federalState":{"key":"03","name":"Niedersachsen"}},{"name":"Schlossstr.","postalCode":"29525","locality":"Uelzen","municipality":{"key":"03360025","name":"Uelzen, Hansestadt","type":"Stadt"},"district":{"key":"03360","name":"Uelzen","type":"Landkreis"},"federalState":{"key":"03","name":"Niedersachsen"}},{"name":"Schmiedestr.","postalCode":"29525","locality":"Uelzen","municipality":{"key":"03360025","name":"Uelzen, Hansestadt","type":"Stadt"},"district":{"key":"03360","name":"Uelzen","type":"Landkreis"},"federalState":{"key":"03","name":"Niedersachsen"}},{"name":"Schmiedeweg","postalCode":"29525","locality":"Uelzen","municipality":{"key":"03360025","name":"Uelzen, Hansestadt","type":"Stadt"},"district":{"key":"03360","name":"Uelzen","type":"Landkreis"},"federalState":{"key":"03","name":"Niedersachsen"}},{"name":"Schnellenmarkt","postalCode":"29525","locality":"Uelzen","municipality":{"key":"03360025","name":"Uelzen, Hansestadt","type":"Stadt"},"district":{"key":"03360","name":"Uelzen","type":"Landkreis"},"federalState":{"key":"03","name":"Niedersachsen"}},{"name":"Schuhstr.","postalCode":"29525","locality":"Uelzen","municipality":{"key":"03360025","name":"Uelzen, Hansestadt","type":"Stadt"},"district":{"key":"03360","name":"Uelzen","type":"Landkreis"},"federalState":{"key":"03","name":"Niedersachsen"}},{"name":"Schulweg","postalCode":"29525","locality":"Uelzen","municipality":{"key":"03360025","name":"Uelzen, Hansestadt","type":"Stadt"},"district":{"key":"03360","name":"Uelzen","type":"Landkreis"},"federalState":{"key":"03","name":"Niedersachsen"}},{"name":"Schützenstr.","postalCode":"29525","locality":"Uelzen","municipality":{"key":"03360025","name":"Uelzen, Hansestadt","type":"Stadt"},"district":{"key":"03360","name":"Uelzen","type":"Landkreis"},"federalState":{"key":"03","name":"Niedersachsen"}},{"name":"Schwarzer Weg","postalCode":"29525","locality":"Uelzen","municipality":{"key":"03360025","name":"Uelzen, Hansestadt","type":"Stadt"},"district":{"key":"03360","name":"Uelzen","type":"Landkreis"},"federalState":{"key":"03","name":"Niedersachsen"}},{"name":"Seifriedring","postalCode":"29525","locality":"Uelzen","municipality":{"key":"03360025","name":"Uelzen, Hansestadt","type":"Stadt"},"district":{"key":"03360","name":"Uelzen","type":"Landkreis"},"federalState":{"key":"03","name":"Niedersachsen"}},{"name":"Sieburgstr.","postalCode":"29525","locality":"Uelzen","municipality":{"key":"03360025","name":"Uelzen, Hansestadt","type":"Stadt"},"district":{"key":"03360","name":"Uelzen","type":"Landkreis"},"federalState":{"key":"03","name":"Niedersachsen"}},{"name":"Siedlerweg","postalCode":"29525","locality":"Uelzen","municipality":{"key":"03360025","name":"Uelzen, Hansestadt","type":"Stadt"},"district":{"key":"03360","name":"Uelzen","type":"Landkreis"},"federalState":{"key":"03","name":"Niedersachsen"}},{"name":"Silberbergstr.","postalCode":"29525","locality":"Uelzen","municipality":{"key":"03360025","name":"Uelzen, Hansestadt","type":"Stadt"},"district":{"key":"03360","name":"Uelzen","type":"Landkreis"},"federalState":{"key":"03","name":"Niedersachsen"}},{"name":"Soltauer Str.","postalCode":"29525","locality":"Uelzen","municipality":{"key":"03360025","name":"Uelzen, Hansestadt","type":"Stadt"},"district":{"key":"03360","name":"Uelzen","type":"Landkreis"},"federalState":{"key":"03","name":"Niedersachsen"}},{"name":"Spechtstr.","postalCode":"29525","locality":"Uelzen","municipality":{"key":"03360025","name":"Uelzen, Hansestadt","type":"Stadt"},"district":{"key":"03360","name":"Uelzen","type":"Landkreis"},"federalState":{"key":"03","name":"Niedersachsen"}},{"name":"Spechtweg","postalCode":"29525","locality":"Uelzen","municipality":{"key":"03360025","name":"Uelzen, Hansestadt","type":"Stadt"},"district":{"key":"03360","name":"Uelzen","type":"Landkreis"},"federalState":{"key":"03","name":"Niedersachsen"}},{"name":"Sportweg","postalCode":"29525","locality":"Uelzen","municipality":{"key":"03360025","name":"Uelzen, Hansestadt","type":"Stadt"},"district":{"key":"03360","name":"Uelzen","type":"Landkreis"},"federalState":{"key":"03","name":"Niedersachsen"}},{"name":"Stadenser Weg","postalCode":"29525","locality":"Uelzen","municipality":{"key":"03360025","name":"Uelzen, Hansestadt","type":"Stadt"},"district":{"key":"03360","name":"Uelzen","type":"Landkreis"},"federalState":{"key":"03","name":"Niedersachsen"}},{"name":"Stadtberg","postalCode":"29525","locality":"Uelzen","municipality":{"key":"03360025","name":"Uelzen, Hansestadt","type":"Stadt"},"district":{"key":"03360","name":"Uelzen","type":"Landkreis"},"federalState":{"key":"03","name":"Niedersachsen"}},{"name":"Stadtweg","postalCode":"29525","locality":"Uelzen","municipality":{"key":"03360025","name":"Uelzen, Hansestadt","type":"Stadt"},"district":{"key":"03360","name":"Uelzen","type":"Landkreis"},"federalState":{"key":"03","name":"Niedersachsen"}},{"name":"Stargarder Str.","postalCode":"29525","locality":"Uelzen","municipality":{"key":"03360025","name":"Uelzen, Hansestadt","type":"Stadt"},"district":{"key":"03360","name":"Uelzen","type":"Landkreis"},"federalState":{"key":"03","name":"Niedersachsen"}},{"name":"Stegekamp","postalCode":"29525","locality":"Uelzen","municipality":{"key":"03360025","name":"Uelzen, Hansestadt","type":"Stadt"},"district":{"key":"03360","name":"Uelzen","type":"Landkreis"},"federalState":{"key":"03","name":"Niedersachsen"}},{"name":"Stern","postalCode":"29525","locality":"Uelzen","municipality":{"key":"03360025","name":"Uelzen, Hansestadt","type":"Stadt"},"district":{"key":"03360","name":"Uelzen","type":"Landkreis"},"federalState":{"key":"03","name":"Niedersachsen"}},{"name":"Sternplatz","postalCode":"29525","locality":"Uelzen","municipality":{"key":"03360025","name":"Uelzen, Hansestadt","type":"Stadt"},"district":{"key":"03360","name":"Uelzen","type":"Landkreis"},"federalState":{"key":"03","name":"Niedersachsen"}},{"name":"Sternstr.","postalCode":"29525","locality":"Uelzen","municipality":{"key":"03360025","name":"Uelzen, Hansestadt","type":"Stadt"},"district":{"key":"03360","name":"Uelzen","type":"Landkreis"},"federalState":{"key":"03","name":"Niedersachsen"}},{"name":"Stettiner Str.","postalCode":"29525","locality":"Uelzen","municipality":{"key":"03360025","name":"Uelzen, Hansestadt","type":"Stadt"},"district":{"key":"03360","name":"Uelzen","type":"Landkreis"},"federalState":{"key":"03","name":"Niedersachsen"}},{"name":"Stiftstr.","postalCode":"29525","locality":"Uelzen","municipality":{"key":"03360025","name":"Uelzen, Hansestadt","type":"Stadt"},"district":{"key":"03360","name":"Uelzen","type":"Landkreis"},"federalState":{"key":"03","name":"Niedersachsen"}},{"name":"Störtenbüttel","postalCode":"29525","locality":"Uelzen","municipality":{"key":"03360025","name":"Uelzen, Hansestadt","type":"Stadt"},"district":{"key":"03360","name":"Uelzen","type":"Landkreis"},"federalState":{"key":"03","name":"Niedersachsen"}},{"name":"Störtenbütteler Weg","postalCode":"29525","locality":"Uelzen","municipality":{"key":"03360025","name":"Uelzen, Hansestadt","type":"Stadt"},"district":{"key":"03360","name":"Uelzen","type":"Landkreis"},"federalState":{"key":"03","name":"Niedersachsen"}},{"name":"Südstr.","postalCode":"29525","locality":"Uelzen","municipality":{"key":"03360025","name":"Uelzen, Hansestadt","type":"Stadt"},"district":{"key":"03360","name":"Uelzen","type":"Landkreis"},"federalState":{"key":"03","name":"Niedersachsen"}},{"name":"Sudweg","postalCode":"29525","locality":"Uelzen","municipality":{"key":"03360025","name":"Uelzen, Hansestadt","type":"Stadt"},"district":{"key":"03360","name":"Uelzen","type":"Landkreis"},"federalState":{"key":"03","name":"Niedersachsen"}},{"name":"Talstr.","postalCode":"29525","locality":"Uelzen","municipality":{"key":"03360025","name":"Uelzen, Hansestadt","type":"Stadt"},"district":{"key":"03360","name":"Uelzen","type":"Landkreis"},"federalState":{"key":"03","name":"Niedersachsen"}},{"name":"Tannenweg","postalCode":"29525","locality":"Uelzen","municipality":{"key":"03360025","name":"Uelzen, Hansestadt","type":"Stadt"},"district":{"key":"03360","name":"Uelzen","type":"Landkreis"},"federalState":{"key":"03","name":"Niedersachsen"}},{"name":"Tatern","postalCode":"29525","locality":"Uelzen","municipality":{"key":"03360025","name":"Uelzen, Hansestadt","type":"Stadt"},"district":{"key":"03360","name":"Uelzen","type":"Landkreis"},"federalState":{"key":"03","name":"Niedersachsen"}},{"name":"Taubenplan","postalCode":"29525","locality":"Uelzen","municipality":{"key":"03360025","name":"Uelzen, Hansestadt","type":"Stadt"},"district":{"key":"03360","name":"Uelzen","type":"Landkreis"},"federalState":{"key":"03","name":"Niedersachsen"}},{"name":"Taubenstr.","postalCode":"29525","locality":"Uelzen","municipality":{"key":"03360025","name":"Uelzen, Hansestadt","type":"Stadt"},"district":{"key":"03360","name":"Uelzen","type":"Landkreis"},"federalState":{"key":"03","name":"Niedersachsen"}},{"name":"Taubenweg","postalCode":"29525","locality":"Uelzen","municipality":{"key":"03360025","name":"Uelzen, Hansestadt","type":"Stadt"},"district":{"key":"03360","name":"Uelzen","type":"Landkreis"},"federalState":{"key":"03","name":"Niedersachsen"}},{"name":"Theodor-Kaufmann-Weg","postalCode":"29525","locality":"Uelzen","municipality":{"key":"03360025","name":"Uelzen, Hansestadt","type":"Stadt"},"district":{"key":"03360","name":"Uelzen","type":"Landkreis"},"federalState":{"key":"03","name":"Niedersachsen"}},{"name":"Tile-Hagemann-Str.","postalCode":"29525","locality":"Uelzen","municipality":{"key":"03360025","name":"Uelzen, Hansestadt","type":"Stadt"},"district":{"key":"03360","name":"Uelzen","type":"Landkreis"},"federalState":{"key":"03","name":"Niedersachsen"}},{"name":"Tilsiter Str.","postalCode":"29525","locality":"Uelzen","municipality":{"key":"03360025","name":"Uelzen, Hansestadt","type":"Stadt"},"district":{"key":"03360","name":"Uelzen","type":"Landkreis"},"federalState":{"key":"03","name":"Niedersachsen"}},{"name":"Tivolistr.","postalCode":"29525","locality":"Uelzen","municipality":{"key":"03360025","name":"Uelzen, Hansestadt","type":"Stadt"},"district":{"key":"03360","name":"Uelzen","type":"Landkreis"},"federalState":{"key":"03","name":"Niedersachsen"}},{"name":"Treuburger Str.","postalCode":"29525","locality":"Uelzen","municipality":{"key":"03360025","name":"Uelzen, Hansestadt","type":"Stadt"},"district":{"key":"03360","name":"Uelzen","type":"Landkreis"},"federalState":{"key":"03","name":"Niedersachsen"}},{"name":"Tritschler Gasse","postalCode":"29525","locality":"Uelzen","municipality":{"key":"03360025","name":"Uelzen, Hansestadt","type":"Stadt"},"district":{"key":"03360","name":"Uelzen","type":"Landkreis"},"federalState":{"key":"03","name":"Niedersachsen"}},{"name":"Tulpenweg","postalCode":"29525","locality":"Uelzen","municipality":{"key":"03360025","name":"Uelzen, Hansestadt","type":"Stadt"},"district":{"key":"03360","name":"Uelzen","type":"Landkreis"},"federalState":{"key":"03","name":"Niedersachsen"}},{"name":"Turmstr.","postalCode":"29525","locality":"Uelzen","municipality":{"key":"03360025","name":"Uelzen, Hansestadt","type":"Stadt"},"district":{"key":"03360","name":"Uelzen","type":"Landkreis"},"federalState":{"key":"03","name":"Niedersachsen"}},{"name":"Uelzener Str.","postalCode":"29525","locality":"Uelzen","municipality":{"key":"03360025","name":"Uelzen, Hansestadt","type":"Stadt"},"district":{"key":"03360","name":"Uelzen","type":"Landkreis"},"federalState":{"key":"03","name":"Niedersachsen"}},{"name":"Uferschwalbenweg","postalCode":"29525","locality":"Uelzen","municipality":{"key":"03360025","name":"Uelzen, Hansestadt","type":"Stadt"},"district":{"key":"03360","name":"Uelzen","type":"Landkreis"},"federalState":{"key":"03","name":"Niedersachsen"}},{"name":"Uhlenweg","postalCode":"29525","locality":"Uelzen","municipality":{"key":"03360025","name":"Uelzen, Hansestadt","type":"Stadt"},"district":{"key":"03360","name":"Uelzen","type":"Landkreis"},"federalState":{"key":"03","name":"Niedersachsen"}},{"name":"Ulmenweg","postalCode":"29525","locality":"Uelzen","municipality":{"key":"03360025","name":"Uelzen, Hansestadt","type":"Stadt"},"district":{"key":"03360","name":"Uelzen","type":"Landkreis"},"federalState":{"key":"03","name":"Niedersachsen"}},{"name":"Vareniusweg","postalCode":"29525","locality":"Uelzen","municipality":{"key":"03360025","name":"Uelzen, Hansestadt","type":"Stadt"},"district":{"key":"03360","name":"Uelzen","type":"Landkreis"},"federalState":{"key":"03","name":"Niedersachsen"}},{"name":"Veerßer Str.","postalCode":"29525","locality":"Uelzen","municipality":{"key":"03360025","name":"Uelzen, Hansestadt","type":"Stadt"},"district":{"key":"03360","name":"Uelzen","type":"Landkreis"},"federalState":{"key":"03","name":"Niedersachsen"}},{"name":"Von-Estorff-Str.","postalCode":"29525","locality":"Uelzen","municipality":{"key":"03360025","name":"Uelzen, Hansestadt","type":"Stadt"},"district":{"key":"03360","name":"Uelzen","type":"Landkreis"},"federalState":{"key":"03","name":"Niedersachsen"}},{"name":"Vor dem Kamp","postalCode":"29525","locality":"Uelzen","municipality":{"key":"03360025","name":"Uelzen, Hansestadt","type":"Stadt"},"district":{"key":"03360","name":"Uelzen","type":"Landkreis"},"federalState":{"key":"03","name":"Niedersachsen"}},{"name":"Vor den Fischteichen","postalCode":"29525","locality":"Uelzen","municipality":{"key":"03360025","name":"Uelzen, Hansestadt","type":"Stadt"},"district":{"key":"03360","name":"Uelzen","type":"Landkreis"},"federalState":{"key":"03","name":"Niedersachsen"}},{"name":"Vor der Deine","postalCode":"29525","locality":"Uelzen","municipality":{"key":"03360025","name":"Uelzen, Hansestadt","type":"Stadt"},"district":{"key":"03360","name":"Uelzen","type":"Landkreis"},"federalState":{"key":"03","name":"Niedersachsen"}},{"name":"Wacholderhof","postalCode":"29525","locality":"Uelzen","municipality":{"key":"03360025","name":"Uelzen, Hansestadt","type":"Stadt"},"district":{"key":"03360","name":"Uelzen","type":"Landkreis"},"federalState":{"key":"03","name":"Niedersachsen"}},{"name":"Wächterweg","postalCode":"29525","locality":"Uelzen","municipality":{"key":"03360025","name":"Uelzen, Hansestadt","type":"Stadt"},"district":{"key":"03360","name":"Uelzen","type":"Landkreis"},"federalState":{"key":"03","name":"Niedersachsen"}},{"name":"Waldstr.","postalCode":"29525","locality":"Uelzen","municipality":{"key":"03360025","name":"Uelzen, Hansestadt","type":"Stadt"},"district":{"key":"03360","name":"Uelzen","type":"Landkreis"},"federalState":{"key":"03","name":"Niedersachsen"}},{"name":"Waldweg","postalCode":"29525","locality":"Uelzen","municipality":{"key":"03360025","name":"Uelzen, Hansestadt","type":"Stadt"},"district":{"key":"03360","name":"Uelzen","type":"Landkreis"},"federalState":{"key":"03","name":"Niedersachsen"}},{"name":"Weg","postalCode":"29525","locality":"Uelzen","municipality":{"key":"03360025","name":"Uelzen, Hansestadt","type":"Stadt"},"district":{"key":"03360","name":"Uelzen","type":"Landkreis"},"federalState":{"key":"03","name":"Niedersachsen"}},{"name":"Weinbergstr.","postalCode":"29525","locality":"Uelzen","municipality":{"key":"03360025","name":"Uelzen, Hansestadt","type":"Stadt"},"district":{"key":"03360","name":"Uelzen","type":"Landkreis"},"federalState":{"key":"03","name":"Niedersachsen"}},{"name":"Weißdornweg","postalCode":"29525","locality":"Uelzen","municipality":{"key":"03360025","name":"Uelzen, Hansestadt","type":"Stadt"},"district":{"key":"03360","name":"Uelzen","type":"Landkreis"},"federalState":{"key":"03","name":"Niedersachsen"}},{"name":"Welfenplatz","postalCode":"29525","locality":"Uelzen","municipality":{"key":"03360025","name":"Uelzen, Hansestadt","type":"Stadt"},"district":{"key":"03360","name":"Uelzen","type":"Landkreis"},"federalState":{"key":"03","name":"Niedersachsen"}},{"name":"Welfenstr.","postalCode":"29525","locality":"Uelzen","municipality":{"key":"03360025","name":"Uelzen, Hansestadt","type":"Stadt"},"district":{"key":"03360","name":"Uelzen","type":"Landkreis"},"federalState":{"key":"03","name":"Niedersachsen"}},{"name":"Welfenweg","postalCode":"29525","locality":"Uelzen","municipality":{"key":"03360025","name":"Uelzen, Hansestadt","type":"Stadt"},"district":{"key":"03360","name":"Uelzen","type":"Landkreis"},"federalState":{"key":"03","name":"Niedersachsen"}},{"name":"Wendlands Kamp","postalCode":"29525","locality":"Uelzen","municipality":{"key":"03360025","name":"Uelzen, Hansestadt","type":"Stadt"},"district":{"key":"03360","name":"Uelzen","type":"Landkreis"},"federalState":{"key":"03","name":"Niedersachsen"}},{"name":"Wendlandstr.","postalCode":"29525","locality":"Uelzen","municipality":{"key":"03360025","name":"Uelzen, Hansestadt","type":"Stadt"},"district":{"key":"03360","name":"Uelzen","type":"Landkreis"},"federalState":{"key":"03","name":"Niedersachsen"}},{"name":"Westerfeld","postalCode":"29525","locality":"Uelzen","municipality":{"key":"03360025","name":"Uelzen, Hansestadt","type":"Stadt"},"district":{"key":"03360","name":"Uelzen","type":"Landkreis"},"federalState":{"key":"03","name":"Niedersachsen"}},{"name":"Westerweyher Str.","postalCode":"29525","locality":"Uelzen","municipality":{"key":"03360025","name":"Uelzen, Hansestadt","type":"Stadt"},"district":{"key":"03360","name":"Uelzen","type":"Landkreis"},"federalState":{"key":"03","name":"Niedersachsen"}},{"name":"Westkoppel","postalCode":"29525","locality":"Uelzen","municipality":{"key":"03360025","name":"Uelzen, Hansestadt","type":"Stadt"},"district":{"key":"03360","name":"Uelzen","type":"Landkreis"},"federalState":{"key":"03","name":"Niedersachsen"}},{"name":"Wiedemanns Koppel","postalCode":"29525","locality":"Uelzen","municipality":{"key":"03360025","name":"Uelzen, Hansestadt","type":"Stadt"},"district":{"key":"03360","name":"Uelzen","type":"Landkreis"},"federalState":{"key":"03","name":"Niedersachsen"}},{"name":"Wieselhof","postalCode":"29525","locality":"Uelzen","municipality":{"key":"03360025","name":"Uelzen, Hansestadt","type":"Stadt"},"district":{"key":"03360","name":"Uelzen","type":"Landkreis"},"federalState":{"key":"03","name":"Niedersachsen"}},{"name":"Wiesengrund","postalCode":"29525","locality":"Uelzen","municipality":{"key":"03360025","name":"Uelzen, Hansestadt","type":"Stadt"},"district":{"key":"03360","name":"Uelzen","type":"Landkreis"},"federalState":{"key":"03","name":"Niedersachsen"}},{"name":"Wiesenstr.","postalCode":"29525","locality":"Uelzen","municipality":{"key":"03360025","name":"Uelzen, Hansestadt","type":"Stadt"},"district":{"key":"03360","name":"Uelzen","type":"Landkreis"},"federalState":{"key":"03","name":"Niedersachsen"}},{"name":"Wilhelm-Burmeister-Weg","postalCode":"29525","locality":"Uelzen","municipality":{"key":"03360025","name":"Uelzen, Hansestadt","type":"Stadt"},"district":{"key":"03360","name":"Uelzen","type":"Landkreis"},"federalState":{"key":"03","name":"Niedersachsen"}},{"name":"Wilhelm-Busch-Str.","postalCode":"29525","locality":"Uelzen","municipality":{"key":"03360025","name":"Uelzen, Hansestadt","type":"Stadt"},"district":{"key":"03360","name":"Uelzen","type":"Landkreis"},"federalState":{"key":"03","name":"Niedersachsen"}},{"name":"Wilhelm-Seedorf-Str.","postalCode":"29525","locality":"Uelzen","municipality":{"key":"03360025","name":"Uelzen, Hansestadt","type":"Stadt"},"district":{"key":"03360","name":"Uelzen","type":"Landkreis"},"federalState":{"key":"03","name":"Niedersachsen"}},{"name":"Wilhelmshöhe","postalCode":"29525","locality":"Uelzen","municipality":{"key":"03360025","name":"Uelzen, Hansestadt","type":"Stadt"},"district":{"key":"03360","name":"Uelzen","type":"Landkreis"},"federalState":{"key":"03","name":"Niedersachsen"}},{"name":"Wilhelmstr.","postalCode":"29525","locality":"Uelzen","municipality":{"key":"03360025","name":"Uelzen, Hansestadt","type":"Stadt"},"district":{"key":"03360","name":"Uelzen","type":"Landkreis"},"federalState":{"key":"03","name":"Niedersachsen"}},{"name":"Wilhelm-Thiermann-Weg","postalCode":"29525","locality":"Uelzen","municipality":{"key":"03360025","name":"Uelzen, Hansestadt","type":"Stadt"},"district":{"key":"03360","name":"Uelzen","type":"Landkreis"},"federalState":{"key":"03","name":"Niedersachsen"}},{"name":"Windfeld","postalCode":"29525","locality":"Uelzen","municipality":{"key":"03360025","name":"Uelzen, Hansestadt","type":"Stadt"},"district":{"key":"03360","name":"Uelzen","type":"Landkreis"},"federalState":{"key":"03","name":"Niedersachsen"}},{"name":"Winkelberg","postalCode":"29525","locality":"Uelzen","municipality":{"key":"03360025","name":"Uelzen, Hansestadt","type":"Stadt"},"district":{"key":"03360","name":"Uelzen","type":"Landkreis"},"federalState":{"key":"03","name":"Niedersachsen"}},{"name":"Withop","postalCode":"29525","locality":"Uelzen","municipality":{"key":"03360025","name":"Uelzen, Hansestadt","type":"Stadt"},"district":{"key":"03360","name":"Uelzen","type":"Landkreis"},"federalState":{"key":"03","name":"Niedersachsen"}},{"name":"Wollsteiner Str.","postalCode":"29525","locality":"Uelzen","municipality":{"key":"03360025","name":"Uelzen, Hansestadt","type":"Stadt"},"district":{"key":"03360","name":"Uelzen","type":"Landkreis"},"federalState":{"key":"03","name":"Niedersachsen"}},{"name":"Woltersburg","postalCode":"29525","locality":"Uelzen","municipality":{"key":"03360025","name":"Uelzen, Hansestadt","type":"Stadt"},"district":{"key":"03360","name":"Uelzen","type":"Landkreis"},"federalState":{"key":"03","name":"Niedersachsen"}},{"name":"Woltersburger Mühle","postalCode":"29525","locality":"Uelzen","municipality":{"key":"03360025","name":"Uelzen, Hansestadt","type":"Stadt"},"district":{"key":"03360","name":"Uelzen","type":"Landkreis"},"federalState":{"key":"03","name":"Niedersachsen"}},{"name":"Woltersburger Mühlenweg","postalCode":"29525","locality":"Uelzen","municipality":{"key":"03360025","name":"Uelzen, Hansestadt","type":"Stadt"},"district":{"key":"03360","name":"Uelzen","type":"Landkreis"},"federalState":{"key":"03","name":"Niedersachsen"}},{"name":"Wullhop","postalCode":"29525","locality":"Uelzen","municipality":{"key":"03360025","name":"Uelzen, Hansestadt","type":"Stadt"},"district":{"key":"03360","name":"Uelzen","type":"Landkreis"},"federalState":{"key":"03","name":"Niedersachsen"}},{"name":"Ziegeleistr.","postalCode":"29585","locality":"Jelmstorf","municipality":{"key":"03360012","name":"Jelmstorf","type":"Kreisangehörige_Gemeinde"},"district":{"key":"03360","name":"Uelzen","type":"Landkreis"},"federalState":{"key":"03","name":"Niedersachsen"}},]