[{"name":"Alfons-Goppel-Str.","postalCode":"95676","locality":"Wiesau","municipality":{"key":"09377159","name":"Wiesau, M","type":"Markt"},"district":{"key":"09377","name":"Tirschenreuth","type":"Landkreis"},"federalState":{"key":"09","name":"Bayern"}},{"name":"Alte Schulstr.","postalCode":"95676","locality":"Wiesau","municipality":{"key":"09377159","name":"Wiesau, M","type":"Markt"},"district":{"key":"09377","name":"Tirschenreuth","type":"Landkreis"},"federalState":{"key":"09","name":"Bayern"}},{"name":"Alte Siedlung","postalCode":"95676","locality":"Wiesau","municipality":{"key":"09377159","name":"Wiesau, M","type":"Markt"},"district":{"key":"09377","name":"Tirschenreuth","type":"Landkreis"},"federalState":{"key":"09","name":"Bayern"}},{"name":"Alte wiesauer Str.","postalCode":"95676","locality":"Wiesau","municipality":{"key":"09377159","name":"Wiesau, M","type":"Markt"},"district":{"key":"09377","name":"Tirschenreuth","type":"Landkreis"},"federalState":{"key":"09","name":"Bayern"}},{"name":"Am Gstaudach","postalCode":"95676","locality":"Wiesau","municipality":{"key":"09377159","name":"Wiesau, M","type":"Markt"},"district":{"key":"09377","name":"Tirschenreuth","type":"Landkreis"},"federalState":{"key":"09","name":"Bayern"}},{"name":"Am Rathaus","postalCode":"95676","locality":"Wiesau","municipality":{"key":"09377159","name":"Wiesau, M","type":"Markt"},"district":{"key":"09377","name":"Tirschenreuth","type":"Landkreis"},"federalState":{"key":"09","name":"Bayern"}},{"name":"Amselweg","postalCode":"95676","locality":"Wiesau","municipality":{"key":"09377159","name":"Wiesau, M","type":"Markt"},"district":{"key":"09377","name":"Tirschenreuth","type":"Landkreis"},"federalState":{"key":"09","name":"Bayern"}},{"name":"Andreas-Thoma-Str.","postalCode":"95676","locality":"Wiesau","municipality":{"key":"09377159","name":"Wiesau, M","type":"Markt"},"district":{"key":"09377","name":"Tirschenreuth","type":"Landkreis"},"federalState":{"key":"09","name":"Bayern"}},{"name":"Apelweg","postalCode":"95676","locality":"Wiesau","municipality":{"key":"09377159","name":"Wiesau, M","type":"Markt"},"district":{"key":"09377","name":"Tirschenreuth","type":"Landkreis"},"federalState":{"key":"09","name":"Bayern"}},{"name":"Bahnhofplatz","postalCode":"95676","locality":"Wiesau","municipality":{"key":"09377159","name":"Wiesau, M","type":"Markt"},"district":{"key":"09377","name":"Tirschenreuth","type":"Landkreis"},"federalState":{"key":"09","name":"Bayern"}},{"name":"Bahnhofstr.","postalCode":"95676","locality":"Wiesau","municipality":{"key":"09377159","name":"Wiesau, M","type":"Markt"},"district":{"key":"09377","name":"Tirschenreuth","type":"Landkreis"},"federalState":{"key":"09","name":"Bayern"}},{"name":"Basaltwerkstr.","postalCode":"95676","locality":"Wiesau","municipality":{"key":"09377159","name":"Wiesau, M","type":"Markt"},"district":{"key":"09377","name":"Tirschenreuth","type":"Landkreis"},"federalState":{"key":"09","name":"Bayern"}},{"name":"Bauvereinstr.","postalCode":"95676","locality":"Wiesau","municipality":{"key":"09377159","name":"Wiesau, M","type":"Markt"},"district":{"key":"09377","name":"Tirschenreuth","type":"Landkreis"},"federalState":{"key":"09","name":"Bayern"}},{"name":"Birkenweg","postalCode":"95676","locality":"Wiesau","municipality":{"key":"09377159","name":"Wiesau, M","type":"Markt"},"district":{"key":"09377","name":"Tirschenreuth","type":"Landkreis"},"federalState":{"key":"09","name":"Bayern"}},{"name":"Brandweg","postalCode":"95676","locality":"Wiesau","municipality":{"key":"09377159","name":"Wiesau, M","type":"Markt"},"district":{"key":"09377","name":"Tirschenreuth","type":"Landkreis"},"federalState":{"key":"09","name":"Bayern"}},{"name":"Breslauer Str.","postalCode":"95676","locality":"Wiesau","municipality":{"key":"09377159","name":"Wiesau, M","type":"Markt"},"district":{"key":"09377","name":"Tirschenreuth","type":"Landkreis"},"federalState":{"key":"09","name":"Bayern"}},{"name":"Brunnenstr.","postalCode":"95676","locality":"Wiesau","municipality":{"key":"09377159","name":"Wiesau, M","type":"Markt"},"district":{"key":"09377","name":"Tirschenreuth","type":"Landkreis"},"federalState":{"key":"09","name":"Bayern"}},{"name":"Buchweg","postalCode":"95676","locality":"Wiesau","municipality":{"key":"09377159","name":"Wiesau, M","type":"Markt"},"district":{"key":"09377","name":"Tirschenreuth","type":"Landkreis"},"federalState":{"key":"09","name":"Bayern"}},{"name":"Dachsweg","postalCode":"95676","locality":"Wiesau","municipality":{"key":"09377159","name":"Wiesau, M","type":"Markt"},"district":{"key":"09377","name":"Tirschenreuth","type":"Landkreis"},"federalState":{"key":"09","name":"Bayern"}},{"name":"Dammweg","postalCode":"95676","locality":"Wiesau","municipality":{"key":"09377159","name":"Wiesau, M","type":"Markt"},"district":{"key":"09377","name":"Tirschenreuth","type":"Landkreis"},"federalState":{"key":"09","name":"Bayern"}},{"name":"Dorfplatz","postalCode":"95676","locality":"Wiesau","municipality":{"key":"09377159","name":"Wiesau, M","type":"Markt"},"district":{"key":"09377","name":"Tirschenreuth","type":"Landkreis"},"federalState":{"key":"09","name":"Bayern"}},{"name":"Egerstr.","postalCode":"95676","locality":"Wiesau","municipality":{"key":"09377159","name":"Wiesau, M","type":"Markt"},"district":{"key":"09377","name":"Tirschenreuth","type":"Landkreis"},"federalState":{"key":"09","name":"Bayern"}},{"name":"Falkenberger Str.","postalCode":"95676","locality":"Wiesau","municipality":{"key":"09377159","name":"Wiesau, M","type":"Markt"},"district":{"key":"09377","name":"Tirschenreuth","type":"Landkreis"},"federalState":{"key":"09","name":"Bayern"}},{"name":"Fichtenstr.","postalCode":"95676","locality":"Wiesau","municipality":{"key":"09377159","name":"Wiesau, M","type":"Markt"},"district":{"key":"09377","name":"Tirschenreuth","type":"Landkreis"},"federalState":{"key":"09","name":"Bayern"}},{"name":"Fliederstr.","postalCode":"95676","locality":"Wiesau","municipality":{"key":"09377159","name":"Wiesau, M","type":"Markt"},"district":{"key":"09377","name":"Tirschenreuth","type":"Landkreis"},"federalState":{"key":"09","name":"Bayern"}},{"name":"Flurweg","postalCode":"95676","locality":"Wiesau","municipality":{"key":"09377159","name":"Wiesau, M","type":"Markt"},"district":{"key":"09377","name":"Tirschenreuth","type":"Landkreis"},"federalState":{"key":"09","name":"Bayern"}},{"name":"Föhrlesweg","postalCode":"95676","locality":"Wiesau","municipality":{"key":"09377159","name":"Wiesau, M","type":"Markt"},"district":{"key":"09377","name":"Tirschenreuth","type":"Landkreis"},"federalState":{"key":"09","name":"Bayern"}},{"name":"Friedenfelser Str.","postalCode":"95676","locality":"Wiesau","municipality":{"key":"09377159","name":"Wiesau, M","type":"Markt"},"district":{"key":"09377","name":"Tirschenreuth","type":"Landkreis"},"federalState":{"key":"09","name":"Bayern"}},{"name":"Friedenstr.","postalCode":"95676","locality":"Wiesau","municipality":{"key":"09377159","name":"Wiesau, M","type":"Markt"},"district":{"key":"09377","name":"Tirschenreuth","type":"Landkreis"},"federalState":{"key":"09","name":"Bayern"}},{"name":"Fuchsgasse","postalCode":"95676","locality":"Wiesau","municipality":{"key":"09377159","name":"Wiesau, M","type":"Markt"},"district":{"key":"09377","name":"Tirschenreuth","type":"Landkreis"},"federalState":{"key":"09","name":"Bayern"}},{"name":"Gartenweg","postalCode":"95676","locality":"Wiesau","municipality":{"key":"09377159","name":"Wiesau, M","type":"Markt"},"district":{"key":"09377","name":"Tirschenreuth","type":"Landkreis"},"federalState":{"key":"09","name":"Bayern"}},{"name":"Gewerbepark Egerstr.","postalCode":"95676","locality":"Wiesau","municipality":{"key":"09377159","name":"Wiesau, M","type":"Markt"},"district":{"key":"09377","name":"Tirschenreuth","type":"Landkreis"},"federalState":{"key":"09","name":"Bayern"}},{"name":"Goethestr.","postalCode":"95676","locality":"Wiesau","municipality":{"key":"09377159","name":"Wiesau, M","type":"Markt"},"district":{"key":"09377","name":"Tirschenreuth","type":"Landkreis"},"federalState":{"key":"09","name":"Bayern"}},{"name":"Griesweg","postalCode":"95676","locality":"Wiesau","municipality":{"key":"09377159","name":"Wiesau, M","type":"Markt"},"district":{"key":"09377","name":"Tirschenreuth","type":"Landkreis"},"federalState":{"key":"09","name":"Bayern"}},{"name":"Hackelsteinweg","postalCode":"95676","locality":"Wiesau","municipality":{"key":"09377159","name":"Wiesau, M","type":"Markt"},"district":{"key":"09377","name":"Tirschenreuth","type":"Landkreis"},"federalState":{"key":"09","name":"Bayern"}},{"name":"Hammergasse","postalCode":"95676","locality":"Wiesau","municipality":{"key":"09377159","name":"Wiesau, M","type":"Markt"},"district":{"key":"09377","name":"Tirschenreuth","type":"Landkreis"},"federalState":{"key":"09","name":"Bayern"}},{"name":"Hans-Fröhlich-Str.","postalCode":"95676","locality":"Wiesau","municipality":{"key":"09377159","name":"Wiesau, M","type":"Markt"},"district":{"key":"09377","name":"Tirschenreuth","type":"Landkreis"},"federalState":{"key":"09","name":"Bayern"}},{"name":"Hauptstr.","postalCode":"95676","locality":"Wiesau","municipality":{"key":"09377159","name":"Wiesau, M","type":"Markt"},"district":{"key":"09377","name":"Tirschenreuth","type":"Landkreis"},"federalState":{"key":"09","name":"Bayern"}},{"name":"Herbstweg","postalCode":"95676","locality":"Wiesau","municipality":{"key":"09377159","name":"Wiesau, M","type":"Markt"},"district":{"key":"09377","name":"Tirschenreuth","type":"Landkreis"},"federalState":{"key":"09","name":"Bayern"}},{"name":"Im Grund","postalCode":"95676","locality":"Wiesau","municipality":{"key":"09377159","name":"Wiesau, M","type":"Markt"},"district":{"key":"09377","name":"Tirschenreuth","type":"Landkreis"},"federalState":{"key":"09","name":"Bayern"}},{"name":"Im Pfarrgrund","postalCode":"95676","locality":"Wiesau","municipality":{"key":"09377159","name":"Wiesau, M","type":"Markt"},"district":{"key":"09377","name":"Tirschenreuth","type":"Landkreis"},"federalState":{"key":"09","name":"Bayern"}},{"name":"Im Tal","postalCode":"95676","locality":"Wiesau","municipality":{"key":"09377159","name":"Wiesau, M","type":"Markt"},"district":{"key":"09377","name":"Tirschenreuth","type":"Landkreis"},"federalState":{"key":"09","name":"Bayern"}},{"name":"Jägerstr.","postalCode":"95643","locality":"Tirschenreuth","municipality":{"key":"09377154","name":"Tirschenreuth, St","type":"Stadt"},"district":{"key":"09377","name":"Tirschenreuth","type":"Landkreis"},"federalState":{"key":"09","name":"Bayern"}},{"name":"Jahnstr.","postalCode":"95643","locality":"Tirschenreuth","municipality":{"key":"09377154","name":"Tirschenreuth, St","type":"Stadt"},"district":{"key":"09377","name":"Tirschenreuth","type":"Landkreis"},"federalState":{"key":"09","name":"Bayern"}},{"name":"Johann-Brunner-Str.","postalCode":"95643","locality":"Tirschenreuth","municipality":{"key":"09377154","name":"Tirschenreuth, St","type":"Stadt"},"district":{"key":"09377","name":"Tirschenreuth","type":"Landkreis"},"federalState":{"key":"09","name":"Bayern"}},{"name":"Johannisstr.","postalCode":"95643","locality":"Tirschenreuth","municipality":{"key":"09377154","name":"Tirschenreuth, St","type":"Stadt"},"district":{"key":"09377","name":"Tirschenreuth","type":"Landkreis"},"federalState":{"key":"09","name":"Bayern"}},{"name":"Johann-Keiner-Weg","postalCode":"95643","locality":"Tirschenreuth","municipality":{"key":"09377154","name":"Tirschenreuth, St","type":"Stadt"},"district":{"key":"09377","name":"Tirschenreuth","type":"Landkreis"},"federalState":{"key":"09","name":"Bayern"}},{"name":"Kettelerstr.","postalCode":"95676","locality":"Wiesau","municipality":{"key":"09377159","name":"Wiesau, M","type":"Markt"},"district":{"key":"09377","name":"Tirschenreuth","type":"Landkreis"},"federalState":{"key":"09","name":"Bayern"}},{"name":"Kirchplatz","postalCode":"95676","locality":"Wiesau","municipality":{"key":"09377159","name":"Wiesau, M","type":"Markt"},"district":{"key":"09377","name":"Tirschenreuth","type":"Landkreis"},"federalState":{"key":"09","name":"Bayern"}},{"name":"Kolpingstr.","postalCode":"95676","locality":"Wiesau","municipality":{"key":"09377159","name":"Wiesau, M","type":"Markt"},"district":{"key":"09377","name":"Tirschenreuth","type":"Landkreis"},"federalState":{"key":"09","name":"Bayern"}},{"name":"Konrad-Adenauer-Str.","postalCode":"95676","locality":"Wiesau","municipality":{"key":"09377159","name":"Wiesau, M","type":"Markt"},"district":{"key":"09377","name":"Tirschenreuth","type":"Landkreis"},"federalState":{"key":"09","name":"Bayern"}},{"name":"Kornthan","postalCode":"95676","locality":"Wiesau","municipality":{"key":"09377159","name":"Wiesau, M","type":"Markt"},"district":{"key":"09377","name":"Tirschenreuth","type":"Landkreis"},"federalState":{"key":"09","name":"Bayern"}},{"name":"Kowitzanger","postalCode":"95676","locality":"Wiesau","municipality":{"key":"09377159","name":"Wiesau, M","type":"Markt"},"district":{"key":"09377","name":"Tirschenreuth","type":"Landkreis"},"federalState":{"key":"09","name":"Bayern"}},{"name":"Kurt-Schumacher-Str.","postalCode":"95676","locality":"Wiesau","municipality":{"key":"09377159","name":"Wiesau, M","type":"Markt"},"district":{"key":"09377","name":"Tirschenreuth","type":"Landkreis"},"federalState":{"key":"09","name":"Bayern"}},{"name":"Leugaser Str.","postalCode":"95676","locality":"Wiesau","municipality":{"key":"09377159","name":"Wiesau, M","type":"Markt"},"district":{"key":"09377","name":"Tirschenreuth","type":"Landkreis"},"federalState":{"key":"09","name":"Bayern"}},{"name":"Lilienstr.","postalCode":"95676","locality":"Wiesau","municipality":{"key":"09377159","name":"Wiesau, M","type":"Markt"},"district":{"key":"09377","name":"Tirschenreuth","type":"Landkreis"},"federalState":{"key":"09","name":"Bayern"}},{"name":"Lindenweg","postalCode":"95676","locality":"Wiesau","municipality":{"key":"09377159","name":"Wiesau, M","type":"Markt"},"district":{"key":"09377","name":"Tirschenreuth","type":"Landkreis"},"federalState":{"key":"09","name":"Bayern"}},{"name":"Marktplatz","postalCode":"95676","locality":"Wiesau","municipality":{"key":"09377159","name":"Wiesau, M","type":"Markt"},"district":{"key":"09377","name":"Tirschenreuth","type":"Landkreis"},"federalState":{"key":"09","name":"Bayern"}},{"name":"Marktstr.","postalCode":"95676","locality":"Wiesau","municipality":{"key":"09377159","name":"Wiesau, M","type":"Markt"},"district":{"key":"09377","name":"Tirschenreuth","type":"Landkreis"},"federalState":{"key":"09","name":"Bayern"}},{"name":"Martin-Luther-Str.","postalCode":"95676","locality":"Wiesau","municipality":{"key":"09377159","name":"Wiesau, M","type":"Markt"},"district":{"key":"09377","name":"Tirschenreuth","type":"Landkreis"},"federalState":{"key":"09","name":"Bayern"}},{"name":"Max-Planck-Weg","postalCode":"95676","locality":"Wiesau","municipality":{"key":"09377159","name":"Wiesau, M","type":"Markt"},"district":{"key":"09377","name":"Tirschenreuth","type":"Landkreis"},"federalState":{"key":"09","name":"Bayern"}},{"name":"Max-Reger-Str.","postalCode":"95676","locality":"Wiesau","municipality":{"key":"09377159","name":"Wiesau, M","type":"Markt"},"district":{"key":"09377","name":"Tirschenreuth","type":"Landkreis"},"federalState":{"key":"09","name":"Bayern"}},{"name":"Meisenweg","postalCode":"95676","locality":"Wiesau","municipality":{"key":"09377159","name":"Wiesau, M","type":"Markt"},"district":{"key":"09377","name":"Tirschenreuth","type":"Landkreis"},"federalState":{"key":"09","name":"Bayern"}},{"name":"Mitterteicher Str.","postalCode":"95676","locality":"Wiesau","municipality":{"key":"09377159","name":"Wiesau, M","type":"Markt"},"district":{"key":"09377","name":"Tirschenreuth","type":"Landkreis"},"federalState":{"key":"09","name":"Bayern"}},{"name":"Muckenthal","postalCode":"95676","locality":"Wiesau","municipality":{"key":"09377159","name":"Wiesau, M","type":"Markt"},"district":{"key":"09377","name":"Tirschenreuth","type":"Landkreis"},"federalState":{"key":"09","name":"Bayern"}},{"name":"Mühlhofweg","postalCode":"95676","locality":"Wiesau","municipality":{"key":"09377159","name":"Wiesau, M","type":"Markt"},"district":{"key":"09377","name":"Tirschenreuth","type":"Landkreis"},"federalState":{"key":"09","name":"Bayern"}},{"name":"Nelkenweg","postalCode":"95676","locality":"Wiesau","municipality":{"key":"09377159","name":"Wiesau, M","type":"Markt"},"district":{"key":"09377","name":"Tirschenreuth","type":"Landkreis"},"federalState":{"key":"09","name":"Bayern"}},{"name":"Ostengasse","postalCode":"95676","locality":"Wiesau","municipality":{"key":"09377159","name":"Wiesau, M","type":"Markt"},"district":{"key":"09377","name":"Tirschenreuth","type":"Landkreis"},"federalState":{"key":"09","name":"Bayern"}},{"name":"Ottobadstr.","postalCode":"95676","locality":"Wiesau","municipality":{"key":"09377159","name":"Wiesau, M","type":"Markt"},"district":{"key":"09377","name":"Tirschenreuth","type":"Landkreis"},"federalState":{"key":"09","name":"Bayern"}},{"name":"Pestalozzistr.","postalCode":"95676","locality":"Wiesau","municipality":{"key":"09377159","name":"Wiesau, M","type":"Markt"},"district":{"key":"09377","name":"Tirschenreuth","type":"Landkreis"},"federalState":{"key":"09","name":"Bayern"}},{"name":"Pfarrer-Ferstl-Str.","postalCode":"95676","locality":"Wiesau","municipality":{"key":"09377159","name":"Wiesau, M","type":"Markt"},"district":{"key":"09377","name":"Tirschenreuth","type":"Landkreis"},"federalState":{"key":"09","name":"Bayern"}},{"name":"Pfarrer-Plecher-Str.","postalCode":"95676","locality":"Wiesau","municipality":{"key":"09377159","name":"Wiesau, M","type":"Markt"},"district":{"key":"09377","name":"Tirschenreuth","type":"Landkreis"},"federalState":{"key":"09","name":"Bayern"}},{"name":"Raiffeisenweg","postalCode":"95676","locality":"Wiesau","municipality":{"key":"09377159","name":"Wiesau, M","type":"Markt"},"district":{"key":"09377","name":"Tirschenreuth","type":"Landkreis"},"federalState":{"key":"09","name":"Bayern"}},{"name":"Richard-Wagner-Str.","postalCode":"95676","locality":"Wiesau","municipality":{"key":"09377159","name":"Wiesau, M","type":"Markt"},"district":{"key":"09377","name":"Tirschenreuth","type":"Landkreis"},"federalState":{"key":"09","name":"Bayern"}},{"name":"Ringstr.","postalCode":"95676","locality":"Wiesau","municipality":{"key":"09377159","name":"Wiesau, M","type":"Markt"},"district":{"key":"09377","name":"Tirschenreuth","type":"Landkreis"},"federalState":{"key":"09","name":"Bayern"}},{"name":"Rosenstr.","postalCode":"95676","locality":"Wiesau","municipality":{"key":"09377159","name":"Wiesau, M","type":"Markt"},"district":{"key":"09377","name":"Tirschenreuth","type":"Landkreis"},"federalState":{"key":"09","name":"Bayern"}},{"name":"Roteckerweg","postalCode":"95676","locality":"Wiesau","municipality":{"key":"09377159","name":"Wiesau, M","type":"Markt"},"district":{"key":"09377","name":"Tirschenreuth","type":"Landkreis"},"federalState":{"key":"09","name":"Bayern"}},{"name":"Schmiedgasse","postalCode":"95676","locality":"Wiesau","municipality":{"key":"09377159","name":"Wiesau, M","type":"Markt"},"district":{"key":"09377","name":"Tirschenreuth","type":"Landkreis"},"federalState":{"key":"09","name":"Bayern"}},{"name":"Schönfelder Str.","postalCode":"95676","locality":"Wiesau","municipality":{"key":"09377159","name":"Wiesau, M","type":"Markt"},"district":{"key":"09377","name":"Tirschenreuth","type":"Landkreis"},"federalState":{"key":"09","name":"Bayern"}},{"name":"Schönhaider Str.","postalCode":"95676","locality":"Wiesau","municipality":{"key":"09377159","name":"Wiesau, M","type":"Markt"},"district":{"key":"09377","name":"Tirschenreuth","type":"Landkreis"},"federalState":{"key":"09","name":"Bayern"}},{"name":"Schulstr.","postalCode":"95676","locality":"Wiesau","municipality":{"key":"09377159","name":"Wiesau, M","type":"Markt"},"district":{"key":"09377","name":"Tirschenreuth","type":"Landkreis"},"federalState":{"key":"09","name":"Bayern"}},{"name":"Schwalbenweg","postalCode":"95676","locality":"Wiesau","municipality":{"key":"09377159","name":"Wiesau, M","type":"Markt"},"district":{"key":"09377","name":"Tirschenreuth","type":"Landkreis"},"federalState":{"key":"09","name":"Bayern"}},{"name":"Sommerstr.","postalCode":"95676","locality":"Wiesau","municipality":{"key":"09377159","name":"Wiesau, M","type":"Markt"},"district":{"key":"09377","name":"Tirschenreuth","type":"Landkreis"},"federalState":{"key":"09","name":"Bayern"}},{"name":"Sonnenstr.","postalCode":"95676","locality":"Wiesau","municipality":{"key":"09377159","name":"Wiesau, M","type":"Markt"},"district":{"key":"09377","name":"Tirschenreuth","type":"Landkreis"},"federalState":{"key":"09","name":"Bayern"}},{"name":"Starenweg","postalCode":"95676","locality":"Wiesau","municipality":{"key":"09377159","name":"Wiesau, M","type":"Markt"},"district":{"key":"09377","name":"Tirschenreuth","type":"Landkreis"},"federalState":{"key":"09","name":"Bayern"}},{"name":"Steigweg","postalCode":"95676","locality":"Wiesau","municipality":{"key":"09377159","name":"Wiesau, M","type":"Markt"},"district":{"key":"09377","name":"Tirschenreuth","type":"Landkreis"},"federalState":{"key":"09","name":"Bayern"}},{"name":"Steinackerweg","postalCode":"95676","locality":"Wiesau","municipality":{"key":"09377159","name":"Wiesau, M","type":"Markt"},"district":{"key":"09377","name":"Tirschenreuth","type":"Landkreis"},"federalState":{"key":"09","name":"Bayern"}},{"name":"Steinwaldstr.","postalCode":"95676","locality":"Wiesau","municipality":{"key":"09377159","name":"Wiesau, M","type":"Markt"},"district":{"key":"09377","name":"Tirschenreuth","type":"Landkreis"},"federalState":{"key":"09","name":"Bayern"}},{"name":"Sudetenstr.","postalCode":"95676","locality":"Wiesau","municipality":{"key":"09377159","name":"Wiesau, M","type":"Markt"},"district":{"key":"09377","name":"Tirschenreuth","type":"Landkreis"},"federalState":{"key":"09","name":"Bayern"}},{"name":"Südweg","postalCode":"95676","locality":"Wiesau","municipality":{"key":"09377159","name":"Wiesau, M","type":"Markt"},"district":{"key":"09377","name":"Tirschenreuth","type":"Landkreis"},"federalState":{"key":"09","name":"Bayern"}},{"name":"Tannenloheweg","postalCode":"95676","locality":"Wiesau","municipality":{"key":"09377159","name":"Wiesau, M","type":"Markt"},"district":{"key":"09377","name":"Tirschenreuth","type":"Landkreis"},"federalState":{"key":"09","name":"Bayern"}},{"name":"Tannweg","postalCode":"95676","locality":"Wiesau","municipality":{"key":"09377159","name":"Wiesau, M","type":"Markt"},"district":{"key":"09377","name":"Tirschenreuth","type":"Landkreis"},"federalState":{"key":"09","name":"Bayern"}},{"name":"Teichlbergweg","postalCode":"95676","locality":"Wiesau","municipality":{"key":"09377159","name":"Wiesau, M","type":"Markt"},"district":{"key":"09377","name":"Tirschenreuth","type":"Landkreis"},"federalState":{"key":"09","name":"Bayern"}},{"name":"Tonwerkstr.","postalCode":"95676","locality":"Wiesau","municipality":{"key":"09377159","name":"Wiesau, M","type":"Markt"},"district":{"key":"09377","name":"Tirschenreuth","type":"Landkreis"},"federalState":{"key":"09","name":"Bayern"}},{"name":"Triftweg","postalCode":"95676","locality":"Wiesau","municipality":{"key":"09377159","name":"Wiesau, M","type":"Markt"},"district":{"key":"09377","name":"Tirschenreuth","type":"Landkreis"},"federalState":{"key":"09","name":"Bayern"}},{"name":"Tulpenweg","postalCode":"95676","locality":"Wiesau","municipality":{"key":"09377159","name":"Wiesau, M","type":"Markt"},"district":{"key":"09377","name":"Tirschenreuth","type":"Landkreis"},"federalState":{"key":"09","name":"Bayern"}},{"name":"Turnersloheweg","postalCode":"95676","locality":"Wiesau","municipality":{"key":"09377159","name":"Wiesau, M","type":"Markt"},"district":{"key":"09377","name":"Tirschenreuth","type":"Landkreis"},"federalState":{"key":"09","name":"Bayern"}},{"name":"Ulmenweg","postalCode":"95676","locality":"Wiesau","municipality":{"key":"09377159","name":"Wiesau, M","type":"Markt"},"district":{"key":"09377","name":"Tirschenreuth","type":"Landkreis"},"federalState":{"key":"09","name":"Bayern"}},{"name":"Vizinalbahnradweg","postalCode":"95643","locality":"Tirschenreuth","municipality":{"key":"09377154","name":"Tirschenreuth, St","type":"Stadt"},"district":{"key":"09377","name":"Tirschenreuth","type":"Landkreis"},"federalState":{"key":"09","name":"Bayern"}},{"name":"Vorholzplatz","postalCode":"95643","locality":"Tirschenreuth","municipality":{"key":"09377154","name":"Tirschenreuth, St","type":"Stadt"},"district":{"key":"09377","name":"Tirschenreuth","type":"Landkreis"},"federalState":{"key":"09","name":"Bayern"}},{"name":"Vorholzweg","postalCode":"95643","locality":"Tirschenreuth","municipality":{"key":"09377154","name":"Tirschenreuth, St","type":"Stadt"},"district":{"key":"09377","name":"Tirschenreuth","type":"Landkreis"},"federalState":{"key":"09","name":"Bayern"}},{"name":"Wagnergasse","postalCode":"95676","locality":"Wiesau","municipality":{"key":"09377159","name":"Wiesau, M","type":"Markt"},"district":{"key":"09377","name":"Tirschenreuth","type":"Landkreis"},"federalState":{"key":"09","name":"Bayern"}},{"name":"Waldgasse","postalCode":"95676","locality":"Wiesau","municipality":{"key":"09377159","name":"Wiesau, M","type":"Markt"},"district":{"key":"09377","name":"Tirschenreuth","type":"Landkreis"},"federalState":{"key":"09","name":"Bayern"}},{"name":"Weißensteinweg","postalCode":"95676","locality":"Wiesau","municipality":{"key":"09377159","name":"Wiesau, M","type":"Markt"},"district":{"key":"09377","name":"Tirschenreuth","type":"Landkreis"},"federalState":{"key":"09","name":"Bayern"}},{"name":"Wiesenstr.","postalCode":"95676","locality":"Wiesau","municipality":{"key":"09377159","name":"Wiesau, M","type":"Markt"},"district":{"key":"09377","name":"Tirschenreuth","type":"Landkreis"},"federalState":{"key":"09","name":"Bayern"}},{"name":"Wilhelm-Maurer-Weg","postalCode":"95676","locality":"Wiesau","municipality":{"key":"09377159","name":"Wiesau, M","type":"Markt"},"district":{"key":"09377","name":"Tirschenreuth","type":"Landkreis"},"federalState":{"key":"09","name":"Bayern"}},{"name":"Wolfsäcker","postalCode":"95676","locality":"Wiesau","municipality":{"key":"09377159","name":"Wiesau, M","type":"Markt"},"district":{"key":"09377","name":"Tirschenreuth","type":"Landkreis"},"federalState":{"key":"09","name":"Bayern"}},{"name":"Wolfsgasse","postalCode":"95676","locality":"Wiesau","municipality":{"key":"09377159","name":"Wiesau, M","type":"Markt"},"district":{"key":"09377","name":"Tirschenreuth","type":"Landkreis"},"federalState":{"key":"09","name":"Bayern"}},{"name":"Ziegelhütte","postalCode":"95643","locality":"Tirschenreuth","municipality":{"key":"09377154","name":"Tirschenreuth, St","type":"Stadt"},"district":{"key":"09377","name":"Tirschenreuth","type":"Landkreis"},"federalState":{"key":"09","name":"Bayern"}},{"name":"Äußere Regensburger Str.","postalCode":"95643","locality":"Tirschenreuth","municipality":{"key":"09377154","name":"Tirschenreuth, St","type":"Stadt"},"district":{"key":"09377","name":"Tirschenreuth","type":"Landkreis"},"federalState":{"key":"09","name":"Bayern"}},]