[{"name":"Adalbert-Stifter-Str.","postalCode":"93152","locality":"Nittendorf","municipality":{"key":"09375175","name":"Nittendorf, M","type":"Markt"},"district":{"key":"09375","name":"Regensburg","type":"Landkreis"},"federalState":{"key":"09","name":"Bayern"}},{"name":"Ahornstr.","postalCode":"93152","locality":"Nittendorf","municipality":{"key":"09375175","name":"Nittendorf, M","type":"Markt"},"district":{"key":"09375","name":"Regensburg","type":"Landkreis"},"federalState":{"key":"09","name":"Bayern"}},{"name":"Alfred-Sußbauer-Str.","postalCode":"93152","locality":"Nittendorf","municipality":{"key":"09375175","name":"Nittendorf, M","type":"Markt"},"district":{"key":"09375","name":"Regensburg","type":"Landkreis"},"federalState":{"key":"09","name":"Bayern"}},{"name":"Alfred-Wölfel-Str.","postalCode":"93152","locality":"Nittendorf","municipality":{"key":"09375175","name":"Nittendorf, M","type":"Markt"},"district":{"key":"09375","name":"Regensburg","type":"Landkreis"},"federalState":{"key":"09","name":"Bayern"}},{"name":"Almstr.","postalCode":"93152","locality":"Nittendorf","municipality":{"key":"09375175","name":"Nittendorf, M","type":"Markt"},"district":{"key":"09375","name":"Regensburg","type":"Landkreis"},"federalState":{"key":"09","name":"Bayern"}},{"name":"Alois-Riedl-Str.","postalCode":"93152","locality":"Nittendorf","municipality":{"key":"09375175","name":"Nittendorf, M","type":"Markt"},"district":{"key":"09375","name":"Regensburg","type":"Landkreis"},"federalState":{"key":"09","name":"Bayern"}},{"name":"Alpinenstr.","postalCode":"93152","locality":"Nittendorf","municipality":{"key":"09375175","name":"Nittendorf, M","type":"Markt"},"district":{"key":"09375","name":"Regensburg","type":"Landkreis"},"federalState":{"key":"09","name":"Bayern"}},{"name":"Alte Kneitinger Str.","postalCode":"93152","locality":"Nittendorf","municipality":{"key":"09375175","name":"Nittendorf, M","type":"Markt"},"district":{"key":"09375","name":"Regensburg","type":"Landkreis"},"federalState":{"key":"09","name":"Bayern"}},{"name":"Altwasserweg","postalCode":"93152","locality":"Nittendorf","municipality":{"key":"09375175","name":"Nittendorf, M","type":"Markt"},"district":{"key":"09375","name":"Regensburg","type":"Landkreis"},"federalState":{"key":"09","name":"Bayern"}},{"name":"Am Angerberg","postalCode":"93152","locality":"Nittendorf","municipality":{"key":"09375175","name":"Nittendorf, M","type":"Markt"},"district":{"key":"09375","name":"Regensburg","type":"Landkreis"},"federalState":{"key":"09","name":"Bayern"}},{"name":"Am Bauernfeld","postalCode":"93152","locality":"Nittendorf","municipality":{"key":"09375175","name":"Nittendorf, M","type":"Markt"},"district":{"key":"09375","name":"Regensburg","type":"Landkreis"},"federalState":{"key":"09","name":"Bayern"}},{"name":"Am Berg","postalCode":"93152","locality":"Nittendorf","municipality":{"key":"09375175","name":"Nittendorf, M","type":"Markt"},"district":{"key":"09375","name":"Regensburg","type":"Landkreis"},"federalState":{"key":"09","name":"Bayern"}},{"name":"Am Boberg","postalCode":"93152","locality":"Nittendorf","municipality":{"key":"09375175","name":"Nittendorf, M","type":"Markt"},"district":{"key":"09375","name":"Regensburg","type":"Landkreis"},"federalState":{"key":"09","name":"Bayern"}},{"name":"Am Fürstenholz","postalCode":"93152","locality":"Nittendorf","municipality":{"key":"09375175","name":"Nittendorf, M","type":"Markt"},"district":{"key":"09375","name":"Regensburg","type":"Landkreis"},"federalState":{"key":"09","name":"Bayern"}},{"name":"Am Grund","postalCode":"93152","locality":"Nittendorf","municipality":{"key":"09375175","name":"Nittendorf, M","type":"Markt"},"district":{"key":"09375","name":"Regensburg","type":"Landkreis"},"federalState":{"key":"09","name":"Bayern"}},{"name":"Am Haslach","postalCode":"93152","locality":"Nittendorf","municipality":{"key":"09375175","name":"Nittendorf, M","type":"Markt"},"district":{"key":"09375","name":"Regensburg","type":"Landkreis"},"federalState":{"key":"09","name":"Bayern"}},{"name":"Am Heppfeld","postalCode":"93152","locality":"Nittendorf","municipality":{"key":"09375175","name":"Nittendorf, M","type":"Markt"},"district":{"key":"09375","name":"Regensburg","type":"Landkreis"},"federalState":{"key":"09","name":"Bayern"}},{"name":"Am Hohen Rain","postalCode":"93152","locality":"Nittendorf","municipality":{"key":"09375175","name":"Nittendorf, M","type":"Markt"},"district":{"key":"09375","name":"Regensburg","type":"Landkreis"},"federalState":{"key":"09","name":"Bayern"}},{"name":"Am Hölzl","postalCode":"93152","locality":"Nittendorf","municipality":{"key":"09375175","name":"Nittendorf, M","type":"Markt"},"district":{"key":"09375","name":"Regensburg","type":"Landkreis"},"federalState":{"key":"09","name":"Bayern"}},{"name":"Am Hüllerl","postalCode":"93152","locality":"Nittendorf","municipality":{"key":"09375175","name":"Nittendorf, M","type":"Markt"},"district":{"key":"09375","name":"Regensburg","type":"Landkreis"},"federalState":{"key":"09","name":"Bayern"}},{"name":"Am Kirchberg","postalCode":"93152","locality":"Nittendorf","municipality":{"key":"09375175","name":"Nittendorf, M","type":"Markt"},"district":{"key":"09375","name":"Regensburg","type":"Landkreis"},"federalState":{"key":"09","name":"Bayern"}},{"name":"Am Kugelbaum","postalCode":"93152","locality":"Nittendorf","municipality":{"key":"09375175","name":"Nittendorf, M","type":"Markt"},"district":{"key":"09375","name":"Regensburg","type":"Landkreis"},"federalState":{"key":"09","name":"Bayern"}},{"name":"Am Marktplatz","postalCode":"93152","locality":"Nittendorf","municipality":{"key":"09375175","name":"Nittendorf, M","type":"Markt"},"district":{"key":"09375","name":"Regensburg","type":"Landkreis"},"federalState":{"key":"09","name":"Bayern"}},{"name":"Am Nickelberg","postalCode":"93152","locality":"Nittendorf","municipality":{"key":"09375175","name":"Nittendorf, M","type":"Markt"},"district":{"key":"09375","name":"Regensburg","type":"Landkreis"},"federalState":{"key":"09","name":"Bayern"}},{"name":"Am Sandberg","postalCode":"93152","locality":"Nittendorf","municipality":{"key":"09375175","name":"Nittendorf, M","type":"Markt"},"district":{"key":"09375","name":"Regensburg","type":"Landkreis"},"federalState":{"key":"09","name":"Bayern"}},{"name":"Amselstr.","postalCode":"93152","locality":"Nittendorf","municipality":{"key":"09375175","name":"Nittendorf, M","type":"Markt"},"district":{"key":"09375","name":"Regensburg","type":"Landkreis"},"federalState":{"key":"09","name":"Bayern"}},{"name":"Am Tannach","postalCode":"93152","locality":"Nittendorf","municipality":{"key":"09375175","name":"Nittendorf, M","type":"Markt"},"district":{"key":"09375","name":"Regensburg","type":"Landkreis"},"federalState":{"key":"09","name":"Bayern"}},{"name":"Am Weiher","postalCode":"93152","locality":"Nittendorf","municipality":{"key":"09375175","name":"Nittendorf, M","type":"Markt"},"district":{"key":"09375","name":"Regensburg","type":"Landkreis"},"federalState":{"key":"09","name":"Bayern"}},{"name":"Am Weizäckerl","postalCode":"93152","locality":"Nittendorf","municipality":{"key":"09375175","name":"Nittendorf, M","type":"Markt"},"district":{"key":"09375","name":"Regensburg","type":"Landkreis"},"federalState":{"key":"09","name":"Bayern"}},{"name":"Am Zeiler","postalCode":"93152","locality":"Nittendorf","municipality":{"key":"09375175","name":"Nittendorf, M","type":"Markt"},"district":{"key":"09375","name":"Regensburg","type":"Landkreis"},"federalState":{"key":"09","name":"Bayern"}},{"name":"An der Brunnenwiese","postalCode":"93152","locality":"Nittendorf","municipality":{"key":"09375175","name":"Nittendorf, M","type":"Markt"},"district":{"key":"09375","name":"Regensburg","type":"Landkreis"},"federalState":{"key":"09","name":"Bayern"}},{"name":"An der Steinbuchse","postalCode":"93152","locality":"Nittendorf","municipality":{"key":"09375175","name":"Nittendorf, M","type":"Markt"},"district":{"key":"09375","name":"Regensburg","type":"Landkreis"},"federalState":{"key":"09","name":"Bayern"}},{"name":"An der Werkleite","postalCode":"93152","locality":"Nittendorf","municipality":{"key":"09375175","name":"Nittendorf, M","type":"Markt"},"district":{"key":"09375","name":"Regensburg","type":"Landkreis"},"federalState":{"key":"09","name":"Bayern"}},{"name":"Anton-Keffer-Str.","postalCode":"93152","locality":"Nittendorf","municipality":{"key":"09375175","name":"Nittendorf, M","type":"Markt"},"district":{"key":"09375","name":"Regensburg","type":"Landkreis"},"federalState":{"key":"09","name":"Bayern"}},{"name":"Arberstr.","postalCode":"93152","locality":"Nittendorf","municipality":{"key":"09375175","name":"Nittendorf, M","type":"Markt"},"district":{"key":"09375","name":"Regensburg","type":"Landkreis"},"federalState":{"key":"09","name":"Bayern"}},{"name":"Arzweg","postalCode":"93152","locality":"Nittendorf","municipality":{"key":"09375175","name":"Nittendorf, M","type":"Markt"},"district":{"key":"09375","name":"Regensburg","type":"Landkreis"},"federalState":{"key":"09","name":"Bayern"}},{"name":"Bachgasse","postalCode":"93152","locality":"Nittendorf","municipality":{"key":"09375175","name":"Nittendorf, M","type":"Markt"},"district":{"key":"09375","name":"Regensburg","type":"Landkreis"},"federalState":{"key":"09","name":"Bayern"}},{"name":"Bahnhofsfußweg","postalCode":"93152","locality":"Nittendorf","municipality":{"key":"09375175","name":"Nittendorf, M","type":"Markt"},"district":{"key":"09375","name":"Regensburg","type":"Landkreis"},"federalState":{"key":"09","name":"Bayern"}},{"name":"Bahnhofstr.","postalCode":"93152","locality":"Nittendorf","municipality":{"key":"09375175","name":"Nittendorf, M","type":"Markt"},"district":{"key":"09375","name":"Regensburg","type":"Landkreis"},"federalState":{"key":"09","name":"Bayern"}},{"name":"Bergstr.","postalCode":"93152","locality":"Nittendorf","municipality":{"key":"09375175","name":"Nittendorf, M","type":"Markt"},"district":{"key":"09375","name":"Regensburg","type":"Landkreis"},"federalState":{"key":"09","name":"Bayern"}},{"name":"Bernsteinstr.","postalCode":"93152","locality":"Nittendorf","municipality":{"key":"09375175","name":"Nittendorf, M","type":"Markt"},"district":{"key":"09375","name":"Regensburg","type":"Landkreis"},"federalState":{"key":"09","name":"Bayern"}},{"name":"Birkenstr.","postalCode":"93152","locality":"Nittendorf","municipality":{"key":"09375175","name":"Nittendorf, M","type":"Markt"},"district":{"key":"09375","name":"Regensburg","type":"Landkreis"},"federalState":{"key":"09","name":"Bayern"}},{"name":"Birkenweg","postalCode":"93152","locality":"Nittendorf","municipality":{"key":"09375175","name":"Nittendorf, M","type":"Markt"},"district":{"key":"09375","name":"Regensburg","type":"Landkreis"},"federalState":{"key":"09","name":"Bayern"}},{"name":"Bischof-Rudolf-Str.","postalCode":"93152","locality":"Nittendorf","municipality":{"key":"09375175","name":"Nittendorf, M","type":"Markt"},"district":{"key":"09375","name":"Regensburg","type":"Landkreis"},"federalState":{"key":"09","name":"Bayern"}},{"name":"Blumenstr.","postalCode":"93152","locality":"Nittendorf","municipality":{"key":"09375175","name":"Nittendorf, M","type":"Markt"},"district":{"key":"09375","name":"Regensburg","type":"Landkreis"},"federalState":{"key":"09","name":"Bayern"}},{"name":"Brunnenstr.","postalCode":"93152","locality":"Nittendorf","municipality":{"key":"09375175","name":"Nittendorf, M","type":"Markt"},"district":{"key":"09375","name":"Regensburg","type":"Landkreis"},"federalState":{"key":"09","name":"Bayern"}},{"name":"Brunngasse","postalCode":"93152","locality":"Nittendorf","municipality":{"key":"09375175","name":"Nittendorf, M","type":"Markt"},"district":{"key":"09375","name":"Regensburg","type":"Landkreis"},"federalState":{"key":"09","name":"Bayern"}},{"name":"Brunnleite","postalCode":"93152","locality":"Nittendorf","municipality":{"key":"09375175","name":"Nittendorf, M","type":"Markt"},"district":{"key":"09375","name":"Regensburg","type":"Landkreis"},"federalState":{"key":"09","name":"Bayern"}},{"name":"Buchenstr.","postalCode":"93152","locality":"Nittendorf","municipality":{"key":"09375175","name":"Nittendorf, M","type":"Markt"},"district":{"key":"09375","name":"Regensburg","type":"Landkreis"},"federalState":{"key":"09","name":"Bayern"}},{"name":"Burgweg","postalCode":"93152","locality":"Nittendorf","municipality":{"key":"09375175","name":"Nittendorf, M","type":"Markt"},"district":{"key":"09375","name":"Regensburg","type":"Landkreis"},"federalState":{"key":"09","name":"Bayern"}},{"name":"Camille-Claudel-Str.","postalCode":"93055","locality":"Regensburg","municipality":{"key":"09362000","name":"Regensburg","type":"Kreisfreie_Stadt"},"district":{"key":"09362","name":"Regensburg","type":"Kreisfreie_Stadt"},"federalState":{"key":"09","name":"Bayern"}},{"name":"Carl-Maria-von-Weber-Str.","postalCode":"93053","locality":"Regensburg","municipality":{"key":"09362000","name":"Regensburg","type":"Kreisfreie_Stadt"},"district":{"key":"09362","name":"Regensburg","type":"Kreisfreie_Stadt"},"federalState":{"key":"09","name":"Bayern"}},{"name":"Carl-Orff-Weg","postalCode":"93051","locality":"Regensburg","municipality":{"key":"09362000","name":"Regensburg","type":"Kreisfreie_Stadt"},"district":{"key":"09362","name":"Regensburg","type":"Kreisfreie_Stadt"},"federalState":{"key":"09","name":"Bayern"}},{"name":"Carlstr.","postalCode":"93049","locality":"Regensburg","municipality":{"key":"09362000","name":"Regensburg","type":"Kreisfreie_Stadt"},"district":{"key":"09362","name":"Regensburg","type":"Kreisfreie_Stadt"},"federalState":{"key":"09","name":"Bayern"}},{"name":"Carl-Thiel-Str.","postalCode":"93053","locality":"Regensburg","municipality":{"key":"09362000","name":"Regensburg","type":"Kreisfreie_Stadt"},"district":{"key":"09362","name":"Regensburg","type":"Kreisfreie_Stadt"},"federalState":{"key":"09","name":"Bayern"}},{"name":"Caroline-Herschel-Str.","postalCode":"93055","locality":"Regensburg","municipality":{"key":"09362000","name":"Regensburg","type":"Kreisfreie_Stadt"},"district":{"key":"09362","name":"Regensburg","type":"Kreisfreie_Stadt"},"federalState":{"key":"09","name":"Bayern"}},{"name":"Cecilie-Vogt-Weg","postalCode":"93055","locality":"Regensburg","municipality":{"key":"09362000","name":"Regensburg","type":"Kreisfreie_Stadt"},"district":{"key":"09362","name":"Regensburg","type":"Kreisfreie_Stadt"},"federalState":{"key":"09","name":"Bayern"}},{"name":"Ceresweg","postalCode":"93055","locality":"Regensburg","municipality":{"key":"09362000","name":"Regensburg","type":"Kreisfreie_Stadt"},"district":{"key":"09362","name":"Regensburg","type":"Kreisfreie_Stadt"},"federalState":{"key":"09","name":"Bayern"}},{"name":"Chamer Str.","postalCode":"93057","locality":"Regensburg","municipality":{"key":"09362000","name":"Regensburg","type":"Kreisfreie_Stadt"},"district":{"key":"09362","name":"Regensburg","type":"Kreisfreie_Stadt"},"federalState":{"key":"09","name":"Bayern"}},{"name":"Charles-Lindbergh-Str.","postalCode":"93049","locality":"Regensburg","municipality":{"key":"09362000","name":"Regensburg","type":"Kreisfreie_Stadt"},"district":{"key":"09362","name":"Regensburg","type":"Kreisfreie_Stadt"},"federalState":{"key":"09","name":"Bayern"}},{"name":"Christine-Friedlein-Str.","postalCode":"93055","locality":"Regensburg","municipality":{"key":"09362000","name":"Regensburg","type":"Kreisfreie_Stadt"},"district":{"key":"09362","name":"Regensburg","type":"Kreisfreie_Stadt"},"federalState":{"key":"09","name":"Bayern"}},{"name":"Christliebstr.","postalCode":"93055","locality":"Regensburg","municipality":{"key":"09362000","name":"Regensburg","type":"Kreisfreie_Stadt"},"district":{"key":"09362","name":"Regensburg","type":"Kreisfreie_Stadt"},"federalState":{"key":"09","name":"Bayern"}},{"name":"Clara-Schumann-Str.","postalCode":"93049","locality":"Regensburg","municipality":{"key":"09362000","name":"Regensburg","type":"Kreisfreie_Stadt"},"district":{"key":"09362","name":"Regensburg","type":"Kreisfreie_Stadt"},"federalState":{"key":"09","name":"Bayern"}},{"name":"Clausewitzstr.","postalCode":"93049","locality":"Regensburg","municipality":{"key":"09362000","name":"Regensburg","type":"Kreisfreie_Stadt"},"district":{"key":"09362","name":"Regensburg","type":"Kreisfreie_Stadt"},"federalState":{"key":"09","name":"Bayern"}},{"name":"Clermont-Ferrand-Allee","postalCode":"93049","locality":"Regensburg","municipality":{"key":"09362000","name":"Regensburg","type":"Kreisfreie_Stadt"},"district":{"key":"09362","name":"Regensburg","type":"Kreisfreie_Stadt"},"federalState":{"key":"09","name":"Bayern"}},{"name":"Coburger Str.","postalCode":"93057","locality":"Regensburg","municipality":{"key":"09362000","name":"Regensburg","type":"Kreisfreie_Stadt"},"district":{"key":"09362","name":"Regensburg","type":"Kreisfreie_Stadt"},"federalState":{"key":"09","name":"Bayern"}},{"name":"Colmarer Str.","postalCode":"93057","locality":"Regensburg","municipality":{"key":"09362000","name":"Regensburg","type":"Kreisfreie_Stadt"},"district":{"key":"09362","name":"Regensburg","type":"Kreisfreie_Stadt"},"federalState":{"key":"09","name":"Bayern"}},{"name":"Coulmiersstr.","postalCode":"93055","locality":"Regensburg","municipality":{"key":"09362000","name":"Regensburg","type":"Kreisfreie_Stadt"},"district":{"key":"09362","name":"Regensburg","type":"Kreisfreie_Stadt"},"federalState":{"key":"09","name":"Bayern"}},{"name":"Cranachweg","postalCode":"93051","locality":"Regensburg","municipality":{"key":"09362000","name":"Regensburg","type":"Kreisfreie_Stadt"},"district":{"key":"09362","name":"Regensburg","type":"Kreisfreie_Stadt"},"federalState":{"key":"09","name":"Bayern"}},{"name":"Dachgred","postalCode":"93152","locality":"Nittendorf","municipality":{"key":"09375175","name":"Nittendorf, M","type":"Markt"},"district":{"key":"09375","name":"Regensburg","type":"Landkreis"},"federalState":{"key":"09","name":"Bayern"}},{"name":"Dahlienweg","postalCode":"93152","locality":"Nittendorf","municipality":{"key":"09375175","name":"Nittendorf, M","type":"Markt"},"district":{"key":"09375","name":"Regensburg","type":"Landkreis"},"federalState":{"key":"09","name":"Bayern"}},{"name":"Deuerlinger Str.","postalCode":"93152","locality":"Nittendorf","municipality":{"key":"09375175","name":"Nittendorf, M","type":"Markt"},"district":{"key":"09375","name":"Regensburg","type":"Landkreis"},"federalState":{"key":"09","name":"Bayern"}},{"name":"Domspatzenstr.","postalCode":"93152","locality":"Nittendorf","municipality":{"key":"09375175","name":"Nittendorf, M","type":"Markt"},"district":{"key":"09375","name":"Regensburg","type":"Landkreis"},"federalState":{"key":"09","name":"Bayern"}},{"name":"Drabastr.","postalCode":"93152","locality":"Nittendorf","municipality":{"key":"09375175","name":"Nittendorf, M","type":"Markt"},"district":{"key":"09375","name":"Regensburg","type":"Landkreis"},"federalState":{"key":"09","name":"Bayern"}},{"name":"Dr.-Hermann-Braun-Str.","postalCode":"93152","locality":"Nittendorf","municipality":{"key":"09375175","name":"Nittendorf, M","type":"Markt"},"district":{"key":"09375","name":"Regensburg","type":"Landkreis"},"federalState":{"key":"09","name":"Bayern"}},{"name":"Dr.-Johann-Maier-Str.","postalCode":"93152","locality":"Nittendorf","municipality":{"key":"09375175","name":"Nittendorf, M","type":"Markt"},"district":{"key":"09375","name":"Regensburg","type":"Landkreis"},"federalState":{"key":"09","name":"Bayern"}},{"name":"Ebenwieser Str.","postalCode":"93152","locality":"Nittendorf","municipality":{"key":"09375175","name":"Nittendorf, M","type":"Markt"},"district":{"key":"09375","name":"Regensburg","type":"Landkreis"},"federalState":{"key":"09","name":"Bayern"}},{"name":"Eichhofener Str.","postalCode":"93152","locality":"Nittendorf","municipality":{"key":"09375175","name":"Nittendorf, M","type":"Markt"},"district":{"key":"09375","name":"Regensburg","type":"Landkreis"},"federalState":{"key":"09","name":"Bayern"}},{"name":"Eilsbrunner Weg","postalCode":"93152","locality":"Nittendorf","municipality":{"key":"09375175","name":"Nittendorf, M","type":"Markt"},"district":{"key":"09375","name":"Regensburg","type":"Landkreis"},"federalState":{"key":"09","name":"Bayern"}},{"name":"Eitelbergstr.","postalCode":"93152","locality":"Nittendorf","municipality":{"key":"09375175","name":"Nittendorf, M","type":"Markt"},"district":{"key":"09375","name":"Regensburg","type":"Landkreis"},"federalState":{"key":"09","name":"Bayern"}},{"name":"Erikaweg","postalCode":"93152","locality":"Nittendorf","municipality":{"key":"09375175","name":"Nittendorf, M","type":"Markt"},"district":{"key":"09375","name":"Regensburg","type":"Landkreis"},"federalState":{"key":"09","name":"Bayern"}},{"name":"Erlenweg","postalCode":"93152","locality":"Nittendorf","municipality":{"key":"09375175","name":"Nittendorf, M","type":"Markt"},"district":{"key":"09375","name":"Regensburg","type":"Landkreis"},"federalState":{"key":"09","name":"Bayern"}},{"name":"Eschenweg","postalCode":"93152","locality":"Nittendorf","municipality":{"key":"09375175","name":"Nittendorf, M","type":"Markt"},"district":{"key":"09375","name":"Regensburg","type":"Landkreis"},"federalState":{"key":"09","name":"Bayern"}},{"name":"Fasaneneck","postalCode":"93152","locality":"Nittendorf","municipality":{"key":"09375175","name":"Nittendorf, M","type":"Markt"},"district":{"key":"09375","name":"Regensburg","type":"Landkreis"},"federalState":{"key":"09","name":"Bayern"}},{"name":"Fichtenstr.","postalCode":"93152","locality":"Nittendorf","municipality":{"key":"09375175","name":"Nittendorf, M","type":"Markt"},"district":{"key":"09375","name":"Regensburg","type":"Landkreis"},"federalState":{"key":"09","name":"Bayern"}},{"name":"Finstertalweg","postalCode":"93152","locality":"Nittendorf","municipality":{"key":"09375175","name":"Nittendorf, M","type":"Markt"},"district":{"key":"09375","name":"Regensburg","type":"Landkreis"},"federalState":{"key":"09","name":"Bayern"}},{"name":"Fliederstr.","postalCode":"93152","locality":"Nittendorf","municipality":{"key":"09375175","name":"Nittendorf, M","type":"Markt"},"district":{"key":"09375","name":"Regensburg","type":"Landkreis"},"federalState":{"key":"09","name":"Bayern"}},{"name":"Föhrenstr.","postalCode":"93152","locality":"Nittendorf","municipality":{"key":"09375175","name":"Nittendorf, M","type":"Markt"},"district":{"key":"09375","name":"Regensburg","type":"Landkreis"},"federalState":{"key":"09","name":"Bayern"}},{"name":"Forstweg","postalCode":"93152","locality":"Nittendorf","municipality":{"key":"09375175","name":"Nittendorf, M","type":"Markt"},"district":{"key":"09375","name":"Regensburg","type":"Landkreis"},"federalState":{"key":"09","name":"Bayern"}},{"name":"Franz-Oberhofer-Str.","postalCode":"93152","locality":"Nittendorf","municipality":{"key":"09375175","name":"Nittendorf, M","type":"Markt"},"district":{"key":"09375","name":"Regensburg","type":"Landkreis"},"federalState":{"key":"09","name":"Bayern"}},{"name":"Gartenstr.","postalCode":"93152","locality":"Nittendorf","municipality":{"key":"09375175","name":"Nittendorf, M","type":"Markt"},"district":{"key":"09375","name":"Regensburg","type":"Landkreis"},"federalState":{"key":"09","name":"Bayern"}},{"name":"Gartenweg","postalCode":"93152","locality":"Nittendorf","municipality":{"key":"09375175","name":"Nittendorf, M","type":"Markt"},"district":{"key":"09375","name":"Regensburg","type":"Landkreis"},"federalState":{"key":"09","name":"Bayern"}},{"name":"Georg-Britting-Str.","postalCode":"93152","locality":"Nittendorf","municipality":{"key":"09375175","name":"Nittendorf, M","type":"Markt"},"district":{"key":"09375","name":"Regensburg","type":"Landkreis"},"federalState":{"key":"09","name":"Bayern"}},{"name":"Glashüttenstr.","postalCode":"93152","locality":"Nittendorf","municipality":{"key":"09375175","name":"Nittendorf, M","type":"Markt"},"district":{"key":"09375","name":"Regensburg","type":"Landkreis"},"federalState":{"key":"09","name":"Bayern"}},{"name":"Glockenstr.","postalCode":"93152","locality":"Nittendorf","municipality":{"key":"09375175","name":"Nittendorf, M","type":"Markt"},"district":{"key":"09375","name":"Regensburg","type":"Landkreis"},"federalState":{"key":"09","name":"Bayern"}},{"name":"Goethestr.","postalCode":"93152","locality":"Nittendorf","municipality":{"key":"09375175","name":"Nittendorf, M","type":"Markt"},"district":{"key":"09375","name":"Regensburg","type":"Landkreis"},"federalState":{"key":"09","name":"Bayern"}},{"name":"Goldbergstr.","postalCode":"93152","locality":"Nittendorf","municipality":{"key":"09375175","name":"Nittendorf, M","type":"Markt"},"district":{"key":"09375","name":"Regensburg","type":"Landkreis"},"federalState":{"key":"09","name":"Bayern"}},{"name":"Grabenweg","postalCode":"93152","locality":"Nittendorf","municipality":{"key":"09375175","name":"Nittendorf, M","type":"Markt"},"district":{"key":"09375","name":"Regensburg","type":"Landkreis"},"federalState":{"key":"09","name":"Bayern"}},{"name":"Grafenrieder Weg","postalCode":"93152","locality":"Nittendorf","municipality":{"key":"09375175","name":"Nittendorf, M","type":"Markt"},"district":{"key":"09375","name":"Regensburg","type":"Landkreis"},"federalState":{"key":"09","name":"Bayern"}},{"name":"Hammerweg","postalCode":"93152","locality":"Nittendorf","municipality":{"key":"09375175","name":"Nittendorf, M","type":"Markt"},"district":{"key":"09375","name":"Regensburg","type":"Landkreis"},"federalState":{"key":"09","name":"Bayern"}},{"name":"Hasenbergl","postalCode":"93152","locality":"Nittendorf","municipality":{"key":"09375175","name":"Nittendorf, M","type":"Markt"},"district":{"key":"09375","name":"Regensburg","type":"Landkreis"},"federalState":{"key":"09","name":"Bayern"}},{"name":"Haugenrieder Str.","postalCode":"93152","locality":"Nittendorf","municipality":{"key":"09375175","name":"Nittendorf, M","type":"Markt"},"district":{"key":"09375","name":"Regensburg","type":"Landkreis"},"federalState":{"key":"09","name":"Bayern"}},{"name":"Hauserweg","postalCode":"93152","locality":"Nittendorf","municipality":{"key":"09375175","name":"Nittendorf, M","type":"Markt"},"district":{"key":"09375","name":"Regensburg","type":"Landkreis"},"federalState":{"key":"09","name":"Bayern"}},{"name":"Heimberger Str.","postalCode":"93152","locality":"Nittendorf","municipality":{"key":"09375175","name":"Nittendorf, M","type":"Markt"},"district":{"key":"09375","name":"Regensburg","type":"Landkreis"},"federalState":{"key":"09","name":"Bayern"}},{"name":"Hennerbergl","postalCode":"93152","locality":"Nittendorf","municipality":{"key":"09375175","name":"Nittendorf, M","type":"Markt"},"district":{"key":"09375","name":"Regensburg","type":"Landkreis"},"federalState":{"key":"09","name":"Bayern"}},{"name":"Hochrainstr.","postalCode":"93152","locality":"Nittendorf","municipality":{"key":"09375175","name":"Nittendorf, M","type":"Markt"},"district":{"key":"09375","name":"Regensburg","type":"Landkreis"},"federalState":{"key":"09","name":"Bayern"}},{"name":"Hochstr.","postalCode":"93152","locality":"Nittendorf","municipality":{"key":"09375175","name":"Nittendorf, M","type":"Markt"},"district":{"key":"09375","name":"Regensburg","type":"Landkreis"},"federalState":{"key":"09","name":"Bayern"}},{"name":"Hochweg","postalCode":"93152","locality":"Nittendorf","municipality":{"key":"09375175","name":"Nittendorf, M","type":"Markt"},"district":{"key":"09375","name":"Regensburg","type":"Landkreis"},"federalState":{"key":"09","name":"Bayern"}},{"name":"Hofmarkstr.","postalCode":"93152","locality":"Nittendorf","municipality":{"key":"09375175","name":"Nittendorf, M","type":"Markt"},"district":{"key":"09375","name":"Regensburg","type":"Landkreis"},"federalState":{"key":"09","name":"Bayern"}},{"name":"Hoher Brachweg","postalCode":"93152","locality":"Nittendorf","municipality":{"key":"09375175","name":"Nittendorf, M","type":"Markt"},"district":{"key":"09375","name":"Regensburg","type":"Landkreis"},"federalState":{"key":"09","name":"Bayern"}},{"name":"Holunderweg","postalCode":"93152","locality":"Nittendorf","municipality":{"key":"09375175","name":"Nittendorf, M","type":"Markt"},"district":{"key":"09375","name":"Regensburg","type":"Landkreis"},"federalState":{"key":"09","name":"Bayern"}},{"name":"Hopfenstr.","postalCode":"93152","locality":"Nittendorf","municipality":{"key":"09375175","name":"Nittendorf, M","type":"Markt"},"district":{"key":"09375","name":"Regensburg","type":"Landkreis"},"federalState":{"key":"09","name":"Bayern"}},{"name":"Illerstr.","postalCode":"93057","locality":"Regensburg","municipality":{"key":"09362000","name":"Regensburg","type":"Kreisfreie_Stadt"},"district":{"key":"09362","name":"Regensburg","type":"Kreisfreie_Stadt"},"federalState":{"key":"09","name":"Bayern"}},{"name":"Ilmstr.","postalCode":"93059","locality":"Regensburg","municipality":{"key":"09362000","name":"Regensburg","type":"Kreisfreie_Stadt"},"district":{"key":"09362","name":"Regensburg","type":"Kreisfreie_Stadt"},"federalState":{"key":"09","name":"Bayern"}},{"name":"Ilse-Gräbner-Str.","postalCode":"93055","locality":"Regensburg","municipality":{"key":"09362000","name":"Regensburg","type":"Kreisfreie_Stadt"},"district":{"key":"09362","name":"Regensburg","type":"Kreisfreie_Stadt"},"federalState":{"key":"09","name":"Bayern"}},{"name":"Ilzstr.","postalCode":"93059","locality":"Regensburg","municipality":{"key":"09362000","name":"Regensburg","type":"Kreisfreie_Stadt"},"district":{"key":"09362","name":"Regensburg","type":"Kreisfreie_Stadt"},"federalState":{"key":"09","name":"Bayern"}},{"name":"Im Gewerbepark","postalCode":"93059","locality":"Regensburg","municipality":{"key":"09362000","name":"Regensburg","type":"Kreisfreie_Stadt"},"district":{"key":"09362","name":"Regensburg","type":"Kreisfreie_Stadt"},"federalState":{"key":"09","name":"Bayern"}},{"name":"Im Gschwander","postalCode":"93057","locality":"Regensburg","municipality":{"key":"09362000","name":"Regensburg","type":"Kreisfreie_Stadt"},"district":{"key":"09362","name":"Regensburg","type":"Kreisfreie_Stadt"},"federalState":{"key":"09","name":"Bayern"}},{"name":"Im Langen Gwend","postalCode":"93057","locality":"Regensburg","municipality":{"key":"09362000","name":"Regensburg","type":"Kreisfreie_Stadt"},"district":{"key":"09362","name":"Regensburg","type":"Kreisfreie_Stadt"},"federalState":{"key":"09","name":"Bayern"}},{"name":"Immelmannstr.","postalCode":"93051","locality":"Regensburg","municipality":{"key":"09362000","name":"Regensburg","type":"Kreisfreie_Stadt"},"district":{"key":"09362","name":"Regensburg","type":"Kreisfreie_Stadt"},"federalState":{"key":"09","name":"Bayern"}},{"name":"Im Reichen Winkel","postalCode":"93057","locality":"Regensburg","municipality":{"key":"09362000","name":"Regensburg","type":"Kreisfreie_Stadt"},"district":{"key":"09362","name":"Regensburg","type":"Kreisfreie_Stadt"},"federalState":{"key":"09","name":"Bayern"}},{"name":"Im Ried","postalCode":"93055","locality":"Regensburg","municipality":{"key":"09362000","name":"Regensburg","type":"Kreisfreie_Stadt"},"district":{"key":"09362","name":"Regensburg","type":"Kreisfreie_Stadt"},"federalState":{"key":"09","name":"Bayern"}},{"name":"In der Obern Au","postalCode":"93055","locality":"Regensburg","municipality":{"key":"09362000","name":"Regensburg","type":"Kreisfreie_Stadt"},"district":{"key":"09362","name":"Regensburg","type":"Kreisfreie_Stadt"},"federalState":{"key":"09","name":"Bayern"}},{"name":"Ingeborg-Bachmann-Weg","postalCode":"93055","locality":"Regensburg","municipality":{"key":"09362000","name":"Regensburg","type":"Kreisfreie_Stadt"},"district":{"key":"09362","name":"Regensburg","type":"Kreisfreie_Stadt"},"federalState":{"key":"09","name":"Bayern"}},{"name":"Innstr.","postalCode":"93059","locality":"Regensburg","municipality":{"key":"09362000","name":"Regensburg","type":"Kreisfreie_Stadt"},"district":{"key":"09362","name":"Regensburg","type":"Kreisfreie_Stadt"},"federalState":{"key":"09","name":"Bayern"}},{"name":"Inselpark","postalCode":"93059","locality":"Regensburg","municipality":{"key":"09362000","name":"Regensburg","type":"Kreisfreie_Stadt"},"district":{"key":"09362","name":"Regensburg","type":"Kreisfreie_Stadt"},"federalState":{"key":"09","name":"Bayern"}},{"name":"Inselstr.","postalCode":"93059","locality":"Regensburg","municipality":{"key":"09362000","name":"Regensburg","type":"Kreisfreie_Stadt"},"district":{"key":"09362","name":"Regensburg","type":"Kreisfreie_Stadt"},"federalState":{"key":"09","name":"Bayern"}},{"name":"Irl","postalCode":"93055","locality":"Regensburg","municipality":{"key":"09362000","name":"Regensburg","type":"Kreisfreie_Stadt"},"district":{"key":"09362","name":"Regensburg","type":"Kreisfreie_Stadt"},"federalState":{"key":"09","name":"Bayern"}},{"name":"Irlmauth","postalCode":"93055","locality":"Regensburg","municipality":{"key":"09362000","name":"Regensburg","type":"Kreisfreie_Stadt"},"district":{"key":"09362","name":"Regensburg","type":"Kreisfreie_Stadt"},"federalState":{"key":"09","name":"Bayern"}},{"name":"Isarstr.","postalCode":"93057","locality":"Regensburg","municipality":{"key":"09362000","name":"Regensburg","type":"Kreisfreie_Stadt"},"district":{"key":"09362","name":"Regensburg","type":"Kreisfreie_Stadt"},"federalState":{"key":"09","name":"Bayern"}},{"name":"Isinoweg","postalCode":"93053","locality":"Regensburg","municipality":{"key":"09362000","name":"Regensburg","type":"Kreisfreie_Stadt"},"district":{"key":"09362","name":"Regensburg","type":"Kreisfreie_Stadt"},"federalState":{"key":"09","name":"Bayern"}},{"name":"Islinger Weg","postalCode":"93055","locality":"Regensburg","municipality":{"key":"09362000","name":"Regensburg","type":"Kreisfreie_Stadt"},"district":{"key":"09362","name":"Regensburg","type":"Kreisfreie_Stadt"},"federalState":{"key":"09","name":"Bayern"}},{"name":"Isonzostr.","postalCode":"93057","locality":"Regensburg","municipality":{"key":"09362000","name":"Regensburg","type":"Kreisfreie_Stadt"},"district":{"key":"09362","name":"Regensburg","type":"Kreisfreie_Stadt"},"federalState":{"key":"09","name":"Bayern"}},{"name":"Jacklberg","postalCode":"93152","locality":"Nittendorf","municipality":{"key":"09375175","name":"Nittendorf, M","type":"Markt"},"district":{"key":"09375","name":"Regensburg","type":"Landkreis"},"federalState":{"key":"09","name":"Bayern"}},{"name":"Jahnweg","postalCode":"93152","locality":"Nittendorf","municipality":{"key":"09375175","name":"Nittendorf, M","type":"Markt"},"district":{"key":"09375","name":"Regensburg","type":"Landkreis"},"federalState":{"key":"09","name":"Bayern"}},{"name":"Josef-Geller-Str.","postalCode":"93152","locality":"Nittendorf","municipality":{"key":"09375175","name":"Nittendorf, M","type":"Markt"},"district":{"key":"09375","name":"Regensburg","type":"Landkreis"},"federalState":{"key":"09","name":"Bayern"}},{"name":"Josef-Jobst-Str.","postalCode":"93152","locality":"Nittendorf","municipality":{"key":"09375175","name":"Nittendorf, M","type":"Markt"},"district":{"key":"09375","name":"Regensburg","type":"Landkreis"},"federalState":{"key":"09","name":"Bayern"}},{"name":"Josef-Schilling-Str.","postalCode":"93152","locality":"Nittendorf","municipality":{"key":"09375175","name":"Nittendorf, M","type":"Markt"},"district":{"key":"09375","name":"Regensburg","type":"Landkreis"},"federalState":{"key":"09","name":"Bayern"}},{"name":"Jurastr.","postalCode":"93152","locality":"Nittendorf","municipality":{"key":"09375175","name":"Nittendorf, M","type":"Markt"},"district":{"key":"09375","name":"Regensburg","type":"Landkreis"},"federalState":{"key":"09","name":"Bayern"}},{"name":"Karlberg","postalCode":"93152","locality":"Nittendorf","municipality":{"key":"09375175","name":"Nittendorf, M","type":"Markt"},"district":{"key":"09375","name":"Regensburg","type":"Landkreis"},"federalState":{"key":"09","name":"Bayern"}},{"name":"Kastanienstr.","postalCode":"93152","locality":"Nittendorf","municipality":{"key":"09375175","name":"Nittendorf, M","type":"Markt"},"district":{"key":"09375","name":"Regensburg","type":"Landkreis"},"federalState":{"key":"09","name":"Bayern"}},{"name":"Kelheimer Str.","postalCode":"93152","locality":"Nittendorf","municipality":{"key":"09375175","name":"Nittendorf, M","type":"Markt"},"district":{"key":"09375","name":"Regensburg","type":"Landkreis"},"federalState":{"key":"09","name":"Bayern"}},{"name":"Kirchbergstr.","postalCode":"93152","locality":"Nittendorf","municipality":{"key":"09375175","name":"Nittendorf, M","type":"Markt"},"district":{"key":"09375","name":"Regensburg","type":"Landkreis"},"federalState":{"key":"09","name":"Bayern"}},{"name":"Kirchstr.","postalCode":"93152","locality":"Nittendorf","municipality":{"key":"09375175","name":"Nittendorf, M","type":"Markt"},"district":{"key":"09375","name":"Regensburg","type":"Landkreis"},"federalState":{"key":"09","name":"Bayern"}},{"name":"Kirschenweg","postalCode":"93152","locality":"Nittendorf","municipality":{"key":"09375175","name":"Nittendorf, M","type":"Markt"},"district":{"key":"09375","name":"Regensburg","type":"Landkreis"},"federalState":{"key":"09","name":"Bayern"}},{"name":"Kleiststr.","postalCode":"93152","locality":"Nittendorf","municipality":{"key":"09375175","name":"Nittendorf, M","type":"Markt"},"district":{"key":"09375","name":"Regensburg","type":"Landkreis"},"federalState":{"key":"09","name":"Bayern"}},{"name":"Kühschlagstr.","postalCode":"93152","locality":"Nittendorf","municipality":{"key":"09375175","name":"Nittendorf, M","type":"Markt"},"district":{"key":"09375","name":"Regensburg","type":"Landkreis"},"federalState":{"key":"09","name":"Bayern"}},{"name":"Labertalstr.","postalCode":"93152","locality":"Nittendorf","municipality":{"key":"09375175","name":"Nittendorf, M","type":"Markt"},"district":{"key":"09375","name":"Regensburg","type":"Landkreis"},"federalState":{"key":"09","name":"Bayern"}},{"name":"Lärchenweg","postalCode":"93152","locality":"Nittendorf","municipality":{"key":"09375175","name":"Nittendorf, M","type":"Markt"},"district":{"key":"09375","name":"Regensburg","type":"Landkreis"},"federalState":{"key":"09","name":"Bayern"}},{"name":"Leindlweg","postalCode":"93152","locality":"Nittendorf","municipality":{"key":"09375175","name":"Nittendorf, M","type":"Markt"},"district":{"key":"09375","name":"Regensburg","type":"Landkreis"},"federalState":{"key":"09","name":"Bayern"}},{"name":"Leithenweg","postalCode":"93152","locality":"Nittendorf","municipality":{"key":"09375175","name":"Nittendorf, M","type":"Markt"},"district":{"key":"09375","name":"Regensburg","type":"Landkreis"},"federalState":{"key":"09","name":"Bayern"}},{"name":"Lessingstr.","postalCode":"93152","locality":"Nittendorf","municipality":{"key":"09375175","name":"Nittendorf, M","type":"Markt"},"district":{"key":"09375","name":"Regensburg","type":"Landkreis"},"federalState":{"key":"09","name":"Bayern"}},{"name":"Lindenstr.","postalCode":"93152","locality":"Nittendorf","municipality":{"key":"09375175","name":"Nittendorf, M","type":"Markt"},"district":{"key":"09375","name":"Regensburg","type":"Landkreis"},"federalState":{"key":"09","name":"Bayern"}},{"name":"Löserlweg","postalCode":"93152","locality":"Nittendorf","municipality":{"key":"09375175","name":"Nittendorf, M","type":"Markt"},"district":{"key":"09375","name":"Regensburg","type":"Landkreis"},"federalState":{"key":"09","name":"Bayern"}},{"name":"Löweneckstr.","postalCode":"93152","locality":"Nittendorf","municipality":{"key":"09375175","name":"Nittendorf, M","type":"Markt"},"district":{"key":"09375","name":"Regensburg","type":"Landkreis"},"federalState":{"key":"09","name":"Bayern"}},{"name":"Ludwig-Thoma-Str.","postalCode":"93152","locality":"Nittendorf","municipality":{"key":"09375175","name":"Nittendorf, M","type":"Markt"},"district":{"key":"09375","name":"Regensburg","type":"Landkreis"},"federalState":{"key":"09","name":"Bayern"}},{"name":"Lusenstr.","postalCode":"93152","locality":"Nittendorf","municipality":{"key":"09375175","name":"Nittendorf, M","type":"Markt"},"district":{"key":"09375","name":"Regensburg","type":"Landkreis"},"federalState":{"key":"09","name":"Bayern"}},{"name":"Mariaorter Str.","postalCode":"93152","locality":"Nittendorf","municipality":{"key":"09375175","name":"Nittendorf, M","type":"Markt"},"district":{"key":"09375","name":"Regensburg","type":"Landkreis"},"federalState":{"key":"09","name":"Bayern"}},{"name":"Marienstr.","postalCode":"93152","locality":"Nittendorf","municipality":{"key":"09375175","name":"Nittendorf, M","type":"Markt"},"district":{"key":"09375","name":"Regensburg","type":"Landkreis"},"federalState":{"key":"09","name":"Bayern"}},{"name":"Marktsteinstr.","postalCode":"93152","locality":"Nittendorf","municipality":{"key":"09375175","name":"Nittendorf, M","type":"Markt"},"district":{"key":"09375","name":"Regensburg","type":"Landkreis"},"federalState":{"key":"09","name":"Bayern"}},{"name":"Max-Reger-Str.","postalCode":"93152","locality":"Nittendorf","municipality":{"key":"09375175","name":"Nittendorf, M","type":"Markt"},"district":{"key":"09375","name":"Regensburg","type":"Landkreis"},"federalState":{"key":"09","name":"Bayern"}},{"name":"Mühlweg","postalCode":"93152","locality":"Nittendorf","municipality":{"key":"09375175","name":"Nittendorf, M","type":"Markt"},"district":{"key":"09375","name":"Regensburg","type":"Landkreis"},"federalState":{"key":"09","name":"Bayern"}},{"name":"Nadelspitzweg","postalCode":"93152","locality":"Nittendorf","municipality":{"key":"09375175","name":"Nittendorf, M","type":"Markt"},"district":{"key":"09375","name":"Regensburg","type":"Landkreis"},"federalState":{"key":"09","name":"Bayern"}},{"name":"Nelkenweg","postalCode":"93152","locality":"Nittendorf","municipality":{"key":"09375175","name":"Nittendorf, M","type":"Markt"},"district":{"key":"09375","name":"Regensburg","type":"Landkreis"},"federalState":{"key":"09","name":"Bayern"}},{"name":"Niederholzstr.","postalCode":"93152","locality":"Nittendorf","municipality":{"key":"09375175","name":"Nittendorf, M","type":"Markt"},"district":{"key":"09375","name":"Regensburg","type":"Landkreis"},"federalState":{"key":"09","name":"Bayern"}},{"name":"Nittendorfer Str.","postalCode":"93152","locality":"Nittendorf","municipality":{"key":"09375175","name":"Nittendorf, M","type":"Markt"},"district":{"key":"09375","name":"Regensburg","type":"Landkreis"},"federalState":{"key":"09","name":"Bayern"}},{"name":"Nürnberger Str.","postalCode":"93152","locality":"Nittendorf","municipality":{"key":"09375175","name":"Nittendorf, M","type":"Markt"},"district":{"key":"09375","name":"Regensburg","type":"Landkreis"},"federalState":{"key":"09","name":"Bayern"}},{"name":"Obere Fischerbergstr.","postalCode":"93152","locality":"Nittendorf","municipality":{"key":"09375175","name":"Nittendorf, M","type":"Markt"},"district":{"key":"09375","name":"Regensburg","type":"Landkreis"},"federalState":{"key":"09","name":"Bayern"}},{"name":"Oberholzstr.","postalCode":"93152","locality":"Nittendorf","municipality":{"key":"09375175","name":"Nittendorf, M","type":"Markt"},"district":{"key":"09375","name":"Regensburg","type":"Landkreis"},"federalState":{"key":"09","name":"Bayern"}},{"name":"Osserstr.","postalCode":"93152","locality":"Nittendorf","municipality":{"key":"09375175","name":"Nittendorf, M","type":"Markt"},"district":{"key":"09375","name":"Regensburg","type":"Landkreis"},"federalState":{"key":"09","name":"Bayern"}},{"name":"Peter-Rosegger-Str.","postalCode":"93152","locality":"Nittendorf","municipality":{"key":"09375175","name":"Nittendorf, M","type":"Markt"},"district":{"key":"09375","name":"Regensburg","type":"Landkreis"},"federalState":{"key":"09","name":"Bayern"}},{"name":"Pfarrgasse","postalCode":"93152","locality":"Nittendorf","municipality":{"key":"09375175","name":"Nittendorf, M","type":"Markt"},"district":{"key":"09375","name":"Regensburg","type":"Landkreis"},"federalState":{"key":"09","name":"Bayern"}},{"name":"Pollenrieder Weg","postalCode":"93152","locality":"Nittendorf","municipality":{"key":"09375175","name":"Nittendorf, M","type":"Markt"},"district":{"key":"09375","name":"Regensburg","type":"Landkreis"},"federalState":{"key":"09","name":"Bayern"}},{"name":"Poststeig","postalCode":"93152","locality":"Nittendorf","municipality":{"key":"09375175","name":"Nittendorf, M","type":"Markt"},"district":{"key":"09375","name":"Regensburg","type":"Landkreis"},"federalState":{"key":"09","name":"Bayern"}},{"name":"Quartiersplatz","postalCode":"93053","locality":"Regensburg","municipality":{"key":"09362000","name":"Regensburg","type":"Kreisfreie_Stadt"},"district":{"key":"09362","name":"Regensburg","type":"Kreisfreie_Stadt"},"federalState":{"key":"09","name":"Bayern"}},{"name":"Rachelstr.","postalCode":"93152","locality":"Nittendorf","municipality":{"key":"09375175","name":"Nittendorf, M","type":"Markt"},"district":{"key":"09375","name":"Regensburg","type":"Landkreis"},"federalState":{"key":"09","name":"Bayern"}},{"name":"Rammelsteiner Weg","postalCode":"93152","locality":"Nittendorf","municipality":{"key":"09375175","name":"Nittendorf, M","type":"Markt"},"district":{"key":"09375","name":"Regensburg","type":"Landkreis"},"federalState":{"key":"09","name":"Bayern"}},{"name":"Rathausstr.","postalCode":"93152","locality":"Nittendorf","municipality":{"key":"09375175","name":"Nittendorf, M","type":"Markt"},"district":{"key":"09375","name":"Regensburg","type":"Landkreis"},"federalState":{"key":"09","name":"Bayern"}},{"name":"Rauschbergstr.","postalCode":"93152","locality":"Nittendorf","municipality":{"key":"09375175","name":"Nittendorf, M","type":"Markt"},"district":{"key":"09375","name":"Regensburg","type":"Landkreis"},"federalState":{"key":"09","name":"Bayern"}},{"name":"Regensburger Str.","postalCode":"93152","locality":"Nittendorf","municipality":{"key":"09375175","name":"Nittendorf, M","type":"Markt"},"district":{"key":"09375","name":"Regensburg","type":"Landkreis"},"federalState":{"key":"09","name":"Bayern"}},{"name":"Rilkestr.","postalCode":"93152","locality":"Nittendorf","municipality":{"key":"09375175","name":"Nittendorf, M","type":"Markt"},"district":{"key":"09375","name":"Regensburg","type":"Landkreis"},"federalState":{"key":"09","name":"Bayern"}},{"name":"Ringofenstr.","postalCode":"93152","locality":"Nittendorf","municipality":{"key":"09375175","name":"Nittendorf, M","type":"Markt"},"district":{"key":"09375","name":"Regensburg","type":"Landkreis"},"federalState":{"key":"09","name":"Bayern"}},{"name":"Ritter-Babo-Weg","postalCode":"93152","locality":"Nittendorf","municipality":{"key":"09375175","name":"Nittendorf, M","type":"Markt"},"district":{"key":"09375","name":"Regensburg","type":"Landkreis"},"federalState":{"key":"09","name":"Bayern"}},{"name":"Rödlbergstr.","postalCode":"93152","locality":"Nittendorf","municipality":{"key":"09375175","name":"Nittendorf, M","type":"Markt"},"district":{"key":"09375","name":"Regensburg","type":"Landkreis"},"federalState":{"key":"09","name":"Bayern"}},{"name":"Rosenstr.","postalCode":"93152","locality":"Nittendorf","municipality":{"key":"09375175","name":"Nittendorf, M","type":"Markt"},"district":{"key":"09375","name":"Regensburg","type":"Landkreis"},"federalState":{"key":"09","name":"Bayern"}},{"name":"Sauerzapfstr.","postalCode":"93152","locality":"Nittendorf","municipality":{"key":"09375175","name":"Nittendorf, M","type":"Markt"},"district":{"key":"09375","name":"Regensburg","type":"Landkreis"},"federalState":{"key":"09","name":"Bayern"}},{"name":"Schellerstr.","postalCode":"93152","locality":"Nittendorf","municipality":{"key":"09375175","name":"Nittendorf, M","type":"Markt"},"district":{"key":"09375","name":"Regensburg","type":"Landkreis"},"federalState":{"key":"09","name":"Bayern"}},{"name":"Schererweg","postalCode":"93152","locality":"Nittendorf","municipality":{"key":"09375175","name":"Nittendorf, M","type":"Markt"},"district":{"key":"09375","name":"Regensburg","type":"Landkreis"},"federalState":{"key":"09","name":"Bayern"}},{"name":"Schillerstr.","postalCode":"93152","locality":"Nittendorf","municipality":{"key":"09375175","name":"Nittendorf, M","type":"Markt"},"district":{"key":"09375","name":"Regensburg","type":"Landkreis"},"federalState":{"key":"09","name":"Bayern"}},{"name":"Schlossergasse","postalCode":"93152","locality":"Nittendorf","municipality":{"key":"09375175","name":"Nittendorf, M","type":"Markt"},"district":{"key":"09375","name":"Regensburg","type":"Landkreis"},"federalState":{"key":"09","name":"Bayern"}},{"name":"Schloßstr.","postalCode":"93152","locality":"Nittendorf","municipality":{"key":"09375175","name":"Nittendorf, M","type":"Markt"},"district":{"key":"09375","name":"Regensburg","type":"Landkreis"},"federalState":{"key":"09","name":"Bayern"}},{"name":"Schreinerweg","postalCode":"93152","locality":"Nittendorf","municipality":{"key":"09375175","name":"Nittendorf, M","type":"Markt"},"district":{"key":"09375","name":"Regensburg","type":"Landkreis"},"federalState":{"key":"09","name":"Bayern"}},{"name":"Schwarzholzsteig","postalCode":"93152","locality":"Nittendorf","municipality":{"key":"09375175","name":"Nittendorf, M","type":"Markt"},"district":{"key":"09375","name":"Regensburg","type":"Landkreis"},"federalState":{"key":"09","name":"Bayern"}},{"name":"Simmettal","postalCode":"93152","locality":"Nittendorf","municipality":{"key":"09375175","name":"Nittendorf, M","type":"Markt"},"district":{"key":"09375","name":"Regensburg","type":"Landkreis"},"federalState":{"key":"09","name":"Bayern"}},{"name":"Sonnenstr.","postalCode":"93152","locality":"Nittendorf","municipality":{"key":"09375175","name":"Nittendorf, M","type":"Markt"},"district":{"key":"09375","name":"Regensburg","type":"Landkreis"},"federalState":{"key":"09","name":"Bayern"}},{"name":"Sonnenweg","postalCode":"93152","locality":"Nittendorf","municipality":{"key":"09375175","name":"Nittendorf, M","type":"Markt"},"district":{"key":"09375","name":"Regensburg","type":"Landkreis"},"federalState":{"key":"09","name":"Bayern"}},{"name":"Sonnhang","postalCode":"93152","locality":"Nittendorf","municipality":{"key":"09375175","name":"Nittendorf, M","type":"Markt"},"district":{"key":"09375","name":"Regensburg","type":"Landkreis"},"federalState":{"key":"09","name":"Bayern"}},{"name":"St.-Christopherus-Platz","postalCode":"93152","locality":"Nittendorf","municipality":{"key":"09375175","name":"Nittendorf, M","type":"Markt"},"district":{"key":"09375","name":"Regensburg","type":"Landkreis"},"federalState":{"key":"09","name":"Bayern"}},{"name":"Steinbuchser Str.","postalCode":"93152","locality":"Nittendorf","municipality":{"key":"09375175","name":"Nittendorf, M","type":"Markt"},"district":{"key":"09375","name":"Regensburg","type":"Landkreis"},"federalState":{"key":"09","name":"Bayern"}},{"name":"Stockloher Str.","postalCode":"93152","locality":"Nittendorf","municipality":{"key":"09375175","name":"Nittendorf, M","type":"Markt"},"district":{"key":"09375","name":"Regensburg","type":"Landkreis"},"federalState":{"key":"09","name":"Bayern"}},{"name":"St.-Wolfgangs-Gasse","postalCode":"93152","locality":"Nittendorf","municipality":{"key":"09375175","name":"Nittendorf, M","type":"Markt"},"district":{"key":"09375","name":"Regensburg","type":"Landkreis"},"federalState":{"key":"09","name":"Bayern"}},{"name":"Sudetendeutsche Str.","postalCode":"93152","locality":"Nittendorf","municipality":{"key":"09375175","name":"Nittendorf, M","type":"Markt"},"district":{"key":"09375","name":"Regensburg","type":"Landkreis"},"federalState":{"key":"09","name":"Bayern"}},{"name":"Talblick","postalCode":"93152","locality":"Nittendorf","municipality":{"key":"09375175","name":"Nittendorf, M","type":"Markt"},"district":{"key":"09375","name":"Regensburg","type":"Landkreis"},"federalState":{"key":"09","name":"Bayern"}},{"name":"Talstr.","postalCode":"93152","locality":"Nittendorf","municipality":{"key":"09375175","name":"Nittendorf, M","type":"Markt"},"district":{"key":"09375","name":"Regensburg","type":"Landkreis"},"federalState":{"key":"09","name":"Bayern"}},{"name":"Tannenstr.","postalCode":"93152","locality":"Nittendorf","municipality":{"key":"09375175","name":"Nittendorf, M","type":"Markt"},"district":{"key":"09375","name":"Regensburg","type":"Landkreis"},"federalState":{"key":"09","name":"Bayern"}},{"name":"Taubengasse","postalCode":"93152","locality":"Nittendorf","municipality":{"key":"09375175","name":"Nittendorf, M","type":"Markt"},"district":{"key":"09375","name":"Regensburg","type":"Landkreis"},"federalState":{"key":"09","name":"Bayern"}},{"name":"Tegelstr.","postalCode":"93152","locality":"Nittendorf","municipality":{"key":"09375175","name":"Nittendorf, M","type":"Markt"},"district":{"key":"09375","name":"Regensburg","type":"Landkreis"},"federalState":{"key":"09","name":"Bayern"}},{"name":"Tulpenweg","postalCode":"93152","locality":"Nittendorf","municipality":{"key":"09375175","name":"Nittendorf, M","type":"Markt"},"district":{"key":"09375","name":"Regensburg","type":"Landkreis"},"federalState":{"key":"09","name":"Bayern"}},{"name":"Tunnelstr.","postalCode":"93152","locality":"Nittendorf","municipality":{"key":"09375175","name":"Nittendorf, M","type":"Markt"},"district":{"key":"09375","name":"Regensburg","type":"Landkreis"},"federalState":{"key":"09","name":"Bayern"}},{"name":"Uferweg","postalCode":"93152","locality":"Nittendorf","municipality":{"key":"09375175","name":"Nittendorf, M","type":"Markt"},"district":{"key":"09375","name":"Regensburg","type":"Landkreis"},"federalState":{"key":"09","name":"Bayern"}},{"name":"Ulmenweg","postalCode":"93152","locality":"Nittendorf","municipality":{"key":"09375175","name":"Nittendorf, M","type":"Markt"},"district":{"key":"09375","name":"Regensburg","type":"Landkreis"},"federalState":{"key":"09","name":"Bayern"}},{"name":"Ulrichstr.","postalCode":"93152","locality":"Nittendorf","municipality":{"key":"09375175","name":"Nittendorf, M","type":"Markt"},"district":{"key":"09375","name":"Regensburg","type":"Landkreis"},"federalState":{"key":"09","name":"Bayern"}},{"name":"Von-Rosenbusch-Str.","postalCode":"93152","locality":"Nittendorf","municipality":{"key":"09375175","name":"Nittendorf, M","type":"Markt"},"district":{"key":"09375","name":"Regensburg","type":"Landkreis"},"federalState":{"key":"09","name":"Bayern"}},{"name":"Wagnerbergstr.","postalCode":"93152","locality":"Nittendorf","municipality":{"key":"09375175","name":"Nittendorf, M","type":"Markt"},"district":{"key":"09375","name":"Regensburg","type":"Landkreis"},"federalState":{"key":"09","name":"Bayern"}},{"name":"Waldstr.","postalCode":"93152","locality":"Nittendorf","municipality":{"key":"09375175","name":"Nittendorf, M","type":"Markt"},"district":{"key":"09375","name":"Regensburg","type":"Landkreis"},"federalState":{"key":"09","name":"Bayern"}},{"name":"Waldweg","postalCode":"93152","locality":"Nittendorf","municipality":{"key":"09375175","name":"Nittendorf, M","type":"Markt"},"district":{"key":"09375","name":"Regensburg","type":"Landkreis"},"federalState":{"key":"09","name":"Bayern"}},{"name":"Wasserfeldweg","postalCode":"93152","locality":"Nittendorf","municipality":{"key":"09375175","name":"Nittendorf, M","type":"Markt"},"district":{"key":"09375","name":"Regensburg","type":"Landkreis"},"federalState":{"key":"09","name":"Bayern"}},{"name":"Weinbergstr.","postalCode":"93152","locality":"Nittendorf","municipality":{"key":"09375175","name":"Nittendorf, M","type":"Markt"},"district":{"key":"09375","name":"Regensburg","type":"Landkreis"},"federalState":{"key":"09","name":"Bayern"}},{"name":"Werdenfelser Str.","postalCode":"93152","locality":"Nittendorf","municipality":{"key":"09375175","name":"Nittendorf, M","type":"Markt"},"district":{"key":"09375","name":"Regensburg","type":"Landkreis"},"federalState":{"key":"09","name":"Bayern"}},{"name":"Werdenfelser Weg","postalCode":"93152","locality":"Nittendorf","municipality":{"key":"09375175","name":"Nittendorf, M","type":"Markt"},"district":{"key":"09375","name":"Regensburg","type":"Landkreis"},"federalState":{"key":"09","name":"Bayern"}},{"name":"Wiesengrund","postalCode":"93152","locality":"Nittendorf","municipality":{"key":"09375175","name":"Nittendorf, M","type":"Markt"},"district":{"key":"09375","name":"Regensburg","type":"Landkreis"},"federalState":{"key":"09","name":"Bayern"}},{"name":"Wolfgang-Dorfner-Str.","postalCode":"93152","locality":"Nittendorf","municipality":{"key":"09375175","name":"Nittendorf, M","type":"Markt"},"district":{"key":"09375","name":"Regensburg","type":"Landkreis"},"federalState":{"key":"09","name":"Bayern"}},{"name":"Wolfgang-Peter-Str.","postalCode":"93152","locality":"Nittendorf","municipality":{"key":"09375175","name":"Nittendorf, M","type":"Markt"},"district":{"key":"09375","name":"Regensburg","type":"Landkreis"},"federalState":{"key":"09","name":"Bayern"}},{"name":"Xaver-Fuhr-Str.","postalCode":"93055","locality":"Regensburg","municipality":{"key":"09362000","name":"Regensburg","type":"Kreisfreie_Stadt"},"district":{"key":"09362","name":"Regensburg","type":"Kreisfreie_Stadt"},"federalState":{"key":"09","name":"Bayern"}},{"name":"Yorckstr.","postalCode":"93049","locality":"Regensburg","municipality":{"key":"09362000","name":"Regensburg","type":"Kreisfreie_Stadt"},"district":{"key":"09362","name":"Regensburg","type":"Kreisfreie_Stadt"},"federalState":{"key":"09","name":"Bayern"}},{"name":"Zechenweg","postalCode":"93152","locality":"Nittendorf","municipality":{"key":"09375175","name":"Nittendorf, M","type":"Markt"},"district":{"key":"09375","name":"Regensburg","type":"Landkreis"},"federalState":{"key":"09","name":"Bayern"}},{"name":"Zeilerweg","postalCode":"93152","locality":"Nittendorf","municipality":{"key":"09375175","name":"Nittendorf, M","type":"Markt"},"district":{"key":"09375","name":"Regensburg","type":"Landkreis"},"federalState":{"key":"09","name":"Bayern"}},{"name":"Ziegelweg","postalCode":"93152","locality":"Nittendorf","municipality":{"key":"09375175","name":"Nittendorf, M","type":"Markt"},"district":{"key":"09375","name":"Regensburg","type":"Landkreis"},"federalState":{"key":"09","name":"Bayern"}},{"name":"Zum Winkel","postalCode":"93152","locality":"Nittendorf","municipality":{"key":"09375175","name":"Nittendorf, M","type":"Markt"},"district":{"key":"09375","name":"Regensburg","type":"Landkreis"},"federalState":{"key":"09","name":"Bayern"}},{"name":"Ägidienplatz","postalCode":"93047","locality":"Regensburg","municipality":{"key":"09362000","name":"Regensburg","type":"Kreisfreie_Stadt"},"district":{"key":"09362","name":"Regensburg","type":"Kreisfreie_Stadt"},"federalState":{"key":"09","name":"Bayern"}},{"name":"Äußere Wiener Str.","postalCode":"93055","locality":"Regensburg","municipality":{"key":"09362000","name":"Regensburg","type":"Kreisfreie_Stadt"},"district":{"key":"09362","name":"Regensburg","type":"Kreisfreie_Stadt"},"federalState":{"key":"09","name":"Bayern"}},{"name":"Ödenthal","postalCode":"93057","locality":"Regensburg","municipality":{"key":"09362000","name":"Regensburg","type":"Kreisfreie_Stadt"},"district":{"key":"09362","name":"Regensburg","type":"Kreisfreie_Stadt"},"federalState":{"key":"09","name":"Bayern"}},{"name":"Ödenthaler Weg","postalCode":"93057","locality":"Regensburg","municipality":{"key":"09362000","name":"Regensburg","type":"Kreisfreie_Stadt"},"district":{"key":"09362","name":"Regensburg","type":"Kreisfreie_Stadt"},"federalState":{"key":"09","name":"Bayern"}},{"name":"Ödenthalweg","postalCode":"93057","locality":"Regensburg","municipality":{"key":"09362000","name":"Regensburg","type":"Kreisfreie_Stadt"},"district":{"key":"09362","name":"Regensburg","type":"Kreisfreie_Stadt"},"federalState":{"key":"09","name":"Bayern"}},]