[{"name":"Aalweg","postalCode":"15537","locality":"Gosen-Neu Zittau","municipality":{"key":"12067173","name":"Gosen-Neu Zittau","type":"Kreisangehörige_Gemeinde"},"district":{"key":"12067","name":"Oder-Spree","type":"Landkreis"},"federalState":{"key":"12","name":"Brandenburg"}},{"name":"Ablageweg","postalCode":"15537","locality":"Gosen-Neu Zittau","municipality":{"key":"12067173","name":"Gosen-Neu Zittau","type":"Kreisangehörige_Gemeinde"},"district":{"key":"12067","name":"Oder-Spree","type":"Landkreis"},"federalState":{"key":"12","name":"Brandenburg"}},{"name":"Ahornweg","postalCode":"15537","locality":"Gosen-Neu Zittau","municipality":{"key":"12067173","name":"Gosen-Neu Zittau","type":"Kreisangehörige_Gemeinde"},"district":{"key":"12067","name":"Oder-Spree","type":"Landkreis"},"federalState":{"key":"12","name":"Brandenburg"}},{"name":"Am Bergpark","postalCode":"15537","locality":"Gosen-Neu Zittau","municipality":{"key":"12067173","name":"Gosen-Neu Zittau","type":"Kreisangehörige_Gemeinde"},"district":{"key":"12067","name":"Oder-Spree","type":"Landkreis"},"federalState":{"key":"12","name":"Brandenburg"}},{"name":"Am Müggelpark","postalCode":"15537","locality":"Gosen-Neu Zittau","municipality":{"key":"12067173","name":"Gosen-Neu Zittau","type":"Kreisangehörige_Gemeinde"},"district":{"key":"12067","name":"Oder-Spree","type":"Landkreis"},"federalState":{"key":"12","name":"Brandenburg"}},{"name":"Am Spreebord","postalCode":"15537","locality":"Gosen-Neu Zittau","municipality":{"key":"12067173","name":"Gosen-Neu Zittau","type":"Kreisangehörige_Gemeinde"},"district":{"key":"12067","name":"Oder-Spree","type":"Landkreis"},"federalState":{"key":"12","name":"Brandenburg"}},{"name":"Am Walde","postalCode":"15537","locality":"Gosen-Neu Zittau","municipality":{"key":"12067173","name":"Gosen-Neu Zittau","type":"Kreisangehörige_Gemeinde"},"district":{"key":"12067","name":"Oder-Spree","type":"Landkreis"},"federalState":{"key":"12","name":"Brandenburg"}},{"name":"Am Wurgel","postalCode":"15537","locality":"Gosen-Neu Zittau","municipality":{"key":"12067173","name":"Gosen-Neu Zittau","type":"Kreisangehörige_Gemeinde"},"district":{"key":"12067","name":"Oder-Spree","type":"Landkreis"},"federalState":{"key":"12","name":"Brandenburg"}},{"name":"Berliner Str.","postalCode":"15537","locality":"Gosen-Neu Zittau","municipality":{"key":"12067173","name":"Gosen-Neu Zittau","type":"Kreisangehörige_Gemeinde"},"district":{"key":"12067","name":"Oder-Spree","type":"Landkreis"},"federalState":{"key":"12","name":"Brandenburg"}},{"name":"Birkenweg","postalCode":"15537","locality":"Gosen-Neu Zittau","municipality":{"key":"12067173","name":"Gosen-Neu Zittau","type":"Kreisangehörige_Gemeinde"},"district":{"key":"12067","name":"Oder-Spree","type":"Landkreis"},"federalState":{"key":"12","name":"Brandenburg"}},{"name":"Bruchweg","postalCode":"15537","locality":"Gosen-Neu Zittau","municipality":{"key":"12067173","name":"Gosen-Neu Zittau","type":"Kreisangehörige_Gemeinde"},"district":{"key":"12067","name":"Oder-Spree","type":"Landkreis"},"federalState":{"key":"12","name":"Brandenburg"}},{"name":"Domdeystr.","postalCode":"15537","locality":"Gosen-Neu Zittau","municipality":{"key":"12067173","name":"Gosen-Neu Zittau","type":"Kreisangehörige_Gemeinde"},"district":{"key":"12067","name":"Oder-Spree","type":"Landkreis"},"federalState":{"key":"12","name":"Brandenburg"}},{"name":"Eichenweg","postalCode":"15537","locality":"Gosen-Neu Zittau","municipality":{"key":"12067173","name":"Gosen-Neu Zittau","type":"Kreisangehörige_Gemeinde"},"district":{"key":"12067","name":"Oder-Spree","type":"Landkreis"},"federalState":{"key":"12","name":"Brandenburg"}},{"name":"Eichwalder Ausbau","postalCode":"15537","locality":"Gosen-Neu Zittau","municipality":{"key":"12067173","name":"Gosen-Neu Zittau","type":"Kreisangehörige_Gemeinde"},"district":{"key":"12067","name":"Oder-Spree","type":"Landkreis"},"federalState":{"key":"12","name":"Brandenburg"}},{"name":"Eichwalder Str.","postalCode":"15537","locality":"Gosen-Neu Zittau","municipality":{"key":"12067173","name":"Gosen-Neu Zittau","type":"Kreisangehörige_Gemeinde"},"district":{"key":"12067","name":"Oder-Spree","type":"Landkreis"},"federalState":{"key":"12","name":"Brandenburg"}},{"name":"Feldweg","postalCode":"15537","locality":"Gosen-Neu Zittau","municipality":{"key":"12067173","name":"Gosen-Neu Zittau","type":"Kreisangehörige_Gemeinde"},"district":{"key":"12067","name":"Oder-Spree","type":"Landkreis"},"federalState":{"key":"12","name":"Brandenburg"}},{"name":"Fliederweg","postalCode":"15537","locality":"Gosen-Neu Zittau","municipality":{"key":"12067173","name":"Gosen-Neu Zittau","type":"Kreisangehörige_Gemeinde"},"district":{"key":"12067","name":"Oder-Spree","type":"Landkreis"},"federalState":{"key":"12","name":"Brandenburg"}},{"name":"Forellenweg","postalCode":"15537","locality":"Gosen-Neu Zittau","municipality":{"key":"12067173","name":"Gosen-Neu Zittau","type":"Kreisangehörige_Gemeinde"},"district":{"key":"12067","name":"Oder-Spree","type":"Landkreis"},"federalState":{"key":"12","name":"Brandenburg"}},{"name":"Forstweg","postalCode":"15537","locality":"Gosen-Neu Zittau","municipality":{"key":"12067173","name":"Gosen-Neu Zittau","type":"Kreisangehörige_Gemeinde"},"district":{"key":"12067","name":"Oder-Spree","type":"Landkreis"},"federalState":{"key":"12","name":"Brandenburg"}},{"name":"Friedersdorfer Str.","postalCode":"15537","locality":"Gosen-Neu Zittau","municipality":{"key":"12067173","name":"Gosen-Neu Zittau","type":"Kreisangehörige_Gemeinde"},"district":{"key":"12067","name":"Oder-Spree","type":"Landkreis"},"federalState":{"key":"12","name":"Brandenburg"}},{"name":"Gartenstr.","postalCode":"15537","locality":"Gosen-Neu Zittau","municipality":{"key":"12067173","name":"Gosen-Neu Zittau","type":"Kreisangehörige_Gemeinde"},"district":{"key":"12067","name":"Oder-Spree","type":"Landkreis"},"federalState":{"key":"12","name":"Brandenburg"}},{"name":"Gersdorfstr.","postalCode":"15537","locality":"Gosen-Neu Zittau","municipality":{"key":"12067173","name":"Gosen-Neu Zittau","type":"Kreisangehörige_Gemeinde"},"district":{"key":"12067","name":"Oder-Spree","type":"Landkreis"},"federalState":{"key":"12","name":"Brandenburg"}},{"name":"Geschwister-Scholl-Str.","postalCode":"15537","locality":"Gosen-Neu Zittau","municipality":{"key":"12067173","name":"Gosen-Neu Zittau","type":"Kreisangehörige_Gemeinde"},"district":{"key":"12067","name":"Oder-Spree","type":"Landkreis"},"federalState":{"key":"12","name":"Brandenburg"}},{"name":"Grüner Weg","postalCode":"15537","locality":"Gosen-Neu Zittau","municipality":{"key":"12067173","name":"Gosen-Neu Zittau","type":"Kreisangehörige_Gemeinde"},"district":{"key":"12067","name":"Oder-Spree","type":"Landkreis"},"federalState":{"key":"12","name":"Brandenburg"}},{"name":"Heideweg","postalCode":"15537","locality":"Gosen-Neu Zittau","municipality":{"key":"12067173","name":"Gosen-Neu Zittau","type":"Kreisangehörige_Gemeinde"},"district":{"key":"12067","name":"Oder-Spree","type":"Landkreis"},"federalState":{"key":"12","name":"Brandenburg"}},{"name":"Heuweg","postalCode":"15537","locality":"Gosen-Neu Zittau","municipality":{"key":"12067173","name":"Gosen-Neu Zittau","type":"Kreisangehörige_Gemeinde"},"district":{"key":"12067","name":"Oder-Spree","type":"Landkreis"},"federalState":{"key":"12","name":"Brandenburg"}},{"name":"Jägerstr.","postalCode":"15537","locality":"Gosen-Neu Zittau","municipality":{"key":"12067173","name":"Gosen-Neu Zittau","type":"Kreisangehörige_Gemeinde"},"district":{"key":"12067","name":"Oder-Spree","type":"Landkreis"},"federalState":{"key":"12","name":"Brandenburg"}},{"name":"Kappweg","postalCode":"15537","locality":"Gosen-Neu Zittau","municipality":{"key":"12067173","name":"Gosen-Neu Zittau","type":"Kreisangehörige_Gemeinde"},"district":{"key":"12067","name":"Oder-Spree","type":"Landkreis"},"federalState":{"key":"12","name":"Brandenburg"}},{"name":"Karl-Liebknecht-Str.","postalCode":"15537","locality":"Gosen-Neu Zittau","municipality":{"key":"12067173","name":"Gosen-Neu Zittau","type":"Kreisangehörige_Gemeinde"},"district":{"key":"12067","name":"Oder-Spree","type":"Landkreis"},"federalState":{"key":"12","name":"Brandenburg"}},{"name":"Karpfenweg","postalCode":"15537","locality":"Gosen-Neu Zittau","municipality":{"key":"12067173","name":"Gosen-Neu Zittau","type":"Kreisangehörige_Gemeinde"},"district":{"key":"12067","name":"Oder-Spree","type":"Landkreis"},"federalState":{"key":"12","name":"Brandenburg"}},{"name":"Kiefernweg","postalCode":"15537","locality":"Gosen-Neu Zittau","municipality":{"key":"12067173","name":"Gosen-Neu Zittau","type":"Kreisangehörige_Gemeinde"},"district":{"key":"12067","name":"Oder-Spree","type":"Landkreis"},"federalState":{"key":"12","name":"Brandenburg"}},{"name":"Köpenicker Str.","postalCode":"15537","locality":"Gosen-Neu Zittau","municipality":{"key":"12067173","name":"Gosen-Neu Zittau","type":"Kreisangehörige_Gemeinde"},"district":{"key":"12067","name":"Oder-Spree","type":"Landkreis"},"federalState":{"key":"12","name":"Brandenburg"}},{"name":"Kronprinzengestell","postalCode":"15537","locality":"Gosen-Neu Zittau","municipality":{"key":"12067173","name":"Gosen-Neu Zittau","type":"Kreisangehörige_Gemeinde"},"district":{"key":"12067","name":"Oder-Spree","type":"Landkreis"},"federalState":{"key":"12","name":"Brandenburg"}},{"name":"Kurze Str.","postalCode":"15537","locality":"Gosen-Neu Zittau","municipality":{"key":"12067173","name":"Gosen-Neu Zittau","type":"Kreisangehörige_Gemeinde"},"district":{"key":"12067","name":"Oder-Spree","type":"Landkreis"},"federalState":{"key":"12","name":"Brandenburg"}},{"name":"Lerchengasse","postalCode":"15537","locality":"Gosen-Neu Zittau","municipality":{"key":"12067173","name":"Gosen-Neu Zittau","type":"Kreisangehörige_Gemeinde"},"district":{"key":"12067","name":"Oder-Spree","type":"Landkreis"},"federalState":{"key":"12","name":"Brandenburg"}},{"name":"Liesestr.","postalCode":"15537","locality":"Gosen-Neu Zittau","municipality":{"key":"12067173","name":"Gosen-Neu Zittau","type":"Kreisangehörige_Gemeinde"},"district":{"key":"12067","name":"Oder-Spree","type":"Landkreis"},"federalState":{"key":"12","name":"Brandenburg"}},{"name":"Lindenweg","postalCode":"15537","locality":"Gosen-Neu Zittau","municipality":{"key":"12067173","name":"Gosen-Neu Zittau","type":"Kreisangehörige_Gemeinde"},"district":{"key":"12067","name":"Oder-Spree","type":"Landkreis"},"federalState":{"key":"12","name":"Brandenburg"}},{"name":"Mittelstr.","postalCode":"15537","locality":"Gosen-Neu Zittau","municipality":{"key":"12067173","name":"Gosen-Neu Zittau","type":"Kreisangehörige_Gemeinde"},"district":{"key":"12067","name":"Oder-Spree","type":"Landkreis"},"federalState":{"key":"12","name":"Brandenburg"}},{"name":"Mühlenberg","postalCode":"15537","locality":"Gosen-Neu Zittau","municipality":{"key":"12067173","name":"Gosen-Neu Zittau","type":"Kreisangehörige_Gemeinde"},"district":{"key":"12067","name":"Oder-Spree","type":"Landkreis"},"federalState":{"key":"12","name":"Brandenburg"}},{"name":"Mühlenstr.","postalCode":"15537","locality":"Gosen-Neu Zittau","municipality":{"key":"12067173","name":"Gosen-Neu Zittau","type":"Kreisangehörige_Gemeinde"},"district":{"key":"12067","name":"Oder-Spree","type":"Landkreis"},"federalState":{"key":"12","name":"Brandenburg"}},{"name":"Petersstr.","postalCode":"15537","locality":"Gosen-Neu Zittau","municipality":{"key":"12067173","name":"Gosen-Neu Zittau","type":"Kreisangehörige_Gemeinde"},"district":{"key":"12067","name":"Oder-Spree","type":"Landkreis"},"federalState":{"key":"12","name":"Brandenburg"}},{"name":"Plötzenweg","postalCode":"15537","locality":"Gosen-Neu Zittau","municipality":{"key":"12067173","name":"Gosen-Neu Zittau","type":"Kreisangehörige_Gemeinde"},"district":{"key":"12067","name":"Oder-Spree","type":"Landkreis"},"federalState":{"key":"12","name":"Brandenburg"}},{"name":"Rotdornweg","postalCode":"15537","locality":"Gosen-Neu Zittau","municipality":{"key":"12067173","name":"Gosen-Neu Zittau","type":"Kreisangehörige_Gemeinde"},"district":{"key":"12067","name":"Oder-Spree","type":"Landkreis"},"federalState":{"key":"12","name":"Brandenburg"}},{"name":"Rotfederweg","postalCode":"15537","locality":"Gosen-Neu Zittau","municipality":{"key":"12067173","name":"Gosen-Neu Zittau","type":"Kreisangehörige_Gemeinde"},"district":{"key":"12067","name":"Oder-Spree","type":"Landkreis"},"federalState":{"key":"12","name":"Brandenburg"}},{"name":"Schleiweg","postalCode":"15537","locality":"Gosen-Neu Zittau","municipality":{"key":"12067173","name":"Gosen-Neu Zittau","type":"Kreisangehörige_Gemeinde"},"district":{"key":"12067","name":"Oder-Spree","type":"Landkreis"},"federalState":{"key":"12","name":"Brandenburg"}},{"name":"Seestr.","postalCode":"15537","locality":"Gosen-Neu Zittau","municipality":{"key":"12067173","name":"Gosen-Neu Zittau","type":"Kreisangehörige_Gemeinde"},"district":{"key":"12067","name":"Oder-Spree","type":"Landkreis"},"federalState":{"key":"12","name":"Brandenburg"}},{"name":"Seeweg","postalCode":"15537","locality":"Gosen-Neu Zittau","municipality":{"key":"12067173","name":"Gosen-Neu Zittau","type":"Kreisangehörige_Gemeinde"},"district":{"key":"12067","name":"Oder-Spree","type":"Landkreis"},"federalState":{"key":"12","name":"Brandenburg"}},{"name":"Spreebordstr.","postalCode":"15537","locality":"Gosen-Neu Zittau","municipality":{"key":"12067173","name":"Gosen-Neu Zittau","type":"Kreisangehörige_Gemeinde"},"district":{"key":"12067","name":"Oder-Spree","type":"Landkreis"},"federalState":{"key":"12","name":"Brandenburg"}},{"name":"Spreestr.","postalCode":"15537","locality":"Gosen-Neu Zittau","municipality":{"key":"12067173","name":"Gosen-Neu Zittau","type":"Kreisangehörige_Gemeinde"},"district":{"key":"12067","name":"Oder-Spree","type":"Landkreis"},"federalState":{"key":"12","name":"Brandenburg"}},{"name":"Stäbchener Weg","postalCode":"15537","locality":"Gosen-Neu Zittau","municipality":{"key":"12067173","name":"Gosen-Neu Zittau","type":"Kreisangehörige_Gemeinde"},"district":{"key":"12067","name":"Oder-Spree","type":"Landkreis"},"federalState":{"key":"12","name":"Brandenburg"}},{"name":"Steinfurter Str.","postalCode":"15537","locality":"Gosen-Neu Zittau","municipality":{"key":"12067173","name":"Gosen-Neu Zittau","type":"Kreisangehörige_Gemeinde"},"district":{"key":"12067","name":"Oder-Spree","type":"Landkreis"},"federalState":{"key":"12","name":"Brandenburg"}},{"name":"Stichweg","postalCode":"15537","locality":"Gosen-Neu Zittau","municipality":{"key":"12067173","name":"Gosen-Neu Zittau","type":"Kreisangehörige_Gemeinde"},"district":{"key":"12067","name":"Oder-Spree","type":"Landkreis"},"federalState":{"key":"12","name":"Brandenburg"}},{"name":"Storkower Str.","postalCode":"15537","locality":"Gosen-Neu Zittau","municipality":{"key":"12067173","name":"Gosen-Neu Zittau","type":"Kreisangehörige_Gemeinde"},"district":{"key":"12067","name":"Oder-Spree","type":"Landkreis"},"federalState":{"key":"12","name":"Brandenburg"}},{"name":"Strandweg","postalCode":"15537","locality":"Gosen-Neu Zittau","municipality":{"key":"12067173","name":"Gosen-Neu Zittau","type":"Kreisangehörige_Gemeinde"},"district":{"key":"12067","name":"Oder-Spree","type":"Landkreis"},"federalState":{"key":"12","name":"Brandenburg"}},{"name":"Triftweg","postalCode":"15537","locality":"Gosen-Neu Zittau","municipality":{"key":"12067173","name":"Gosen-Neu Zittau","type":"Kreisangehörige_Gemeinde"},"district":{"key":"12067","name":"Oder-Spree","type":"Landkreis"},"federalState":{"key":"12","name":"Brandenburg"}},{"name":"Tulpenweg","postalCode":"15537","locality":"Gosen-Neu Zittau","municipality":{"key":"12067173","name":"Gosen-Neu Zittau","type":"Kreisangehörige_Gemeinde"},"district":{"key":"12067","name":"Oder-Spree","type":"Landkreis"},"federalState":{"key":"12","name":"Brandenburg"}},{"name":"Uferplatz","postalCode":"15537","locality":"Gosen-Neu Zittau","municipality":{"key":"12067173","name":"Gosen-Neu Zittau","type":"Kreisangehörige_Gemeinde"},"district":{"key":"12067","name":"Oder-Spree","type":"Landkreis"},"federalState":{"key":"12","name":"Brandenburg"}},{"name":"Uferweg","postalCode":"15537","locality":"Gosen-Neu Zittau","municipality":{"key":"12067173","name":"Gosen-Neu Zittau","type":"Kreisangehörige_Gemeinde"},"district":{"key":"12067","name":"Oder-Spree","type":"Landkreis"},"federalState":{"key":"12","name":"Brandenburg"}},{"name":"Waldstr.","postalCode":"15537","locality":"Gosen-Neu Zittau","municipality":{"key":"12067173","name":"Gosen-Neu Zittau","type":"Kreisangehörige_Gemeinde"},"district":{"key":"12067","name":"Oder-Spree","type":"Landkreis"},"federalState":{"key":"12","name":"Brandenburg"}},{"name":"Walther-Rathenau-Str.","postalCode":"15537","locality":"Gosen-Neu Zittau","municipality":{"key":"12067173","name":"Gosen-Neu Zittau","type":"Kreisangehörige_Gemeinde"},"district":{"key":"12067","name":"Oder-Spree","type":"Landkreis"},"federalState":{"key":"12","name":"Brandenburg"}},{"name":"Wernsdorfer Str.","postalCode":"15537","locality":"Gosen-Neu Zittau","municipality":{"key":"12067173","name":"Gosen-Neu Zittau","type":"Kreisangehörige_Gemeinde"},"district":{"key":"12067","name":"Oder-Spree","type":"Landkreis"},"federalState":{"key":"12","name":"Brandenburg"}},{"name":"Wiesengarten","postalCode":"15537","locality":"Gosen-Neu Zittau","municipality":{"key":"12067173","name":"Gosen-Neu Zittau","type":"Kreisangehörige_Gemeinde"},"district":{"key":"12067","name":"Oder-Spree","type":"Landkreis"},"federalState":{"key":"12","name":"Brandenburg"}},{"name":"Zanderweg","postalCode":"15537","locality":"Gosen-Neu Zittau","municipality":{"key":"12067173","name":"Gosen-Neu Zittau","type":"Kreisangehörige_Gemeinde"},"district":{"key":"12067","name":"Oder-Spree","type":"Landkreis"},"federalState":{"key":"12","name":"Brandenburg"}},]