[{"name":"Altenburger Str.","postalCode":"04617","locality":"Kriebitzsch","municipality":{"key":"16077022","name":"Kriebitzsch","type":"Kreisangehörige_Gemeinde"},"district":{"key":"16077","name":"Altenburger Land","type":"Landkreis"},"federalState":{"key":"16","name":"Thüringen"}},{"name":"Altpoderschau","postalCode":"04617","locality":"Kriebitzsch","municipality":{"key":"16077022","name":"Kriebitzsch","type":"Kreisangehörige_Gemeinde"},"district":{"key":"16077","name":"Altenburger Land","type":"Landkreis"},"federalState":{"key":"16","name":"Thüringen"}},{"name":"Altpoderschauer Str.","postalCode":"04617","locality":"Kriebitzsch","municipality":{"key":"16077022","name":"Kriebitzsch","type":"Kreisangehörige_Gemeinde"},"district":{"key":"16077","name":"Altenburger Land","type":"Landkreis"},"federalState":{"key":"16","name":"Thüringen"}},{"name":"Bachgasse","postalCode":"04617","locality":"Kriebitzsch","municipality":{"key":"16077022","name":"Kriebitzsch","type":"Kreisangehörige_Gemeinde"},"district":{"key":"16077","name":"Altenburger Land","type":"Landkreis"},"federalState":{"key":"16","name":"Thüringen"}},{"name":"Ernst-Thälmann-Str.","postalCode":"04617","locality":"Kriebitzsch","municipality":{"key":"16077022","name":"Kriebitzsch","type":"Kreisangehörige_Gemeinde"},"district":{"key":"16077","name":"Altenburger Land","type":"Landkreis"},"federalState":{"key":"16","name":"Thüringen"}},{"name":"Franz-Burkhardt-Str.","postalCode":"04617","locality":"Kriebitzsch","municipality":{"key":"16077022","name":"Kriebitzsch","type":"Kreisangehörige_Gemeinde"},"district":{"key":"16077","name":"Altenburger Land","type":"Landkreis"},"federalState":{"key":"16","name":"Thüringen"}},{"name":"Hauptstr.","postalCode":"04617","locality":"Kriebitzsch","municipality":{"key":"16077022","name":"Kriebitzsch","type":"Kreisangehörige_Gemeinde"},"district":{"key":"16077","name":"Altenburger Land","type":"Landkreis"},"federalState":{"key":"16","name":"Thüringen"}},{"name":"Kellergasse","postalCode":"04617","locality":"Kriebitzsch","municipality":{"key":"16077022","name":"Kriebitzsch","type":"Kreisangehörige_Gemeinde"},"district":{"key":"16077","name":"Altenburger Land","type":"Landkreis"},"federalState":{"key":"16","name":"Thüringen"}},{"name":"Kirchgasse","postalCode":"04617","locality":"Kriebitzsch","municipality":{"key":"16077022","name":"Kriebitzsch","type":"Kreisangehörige_Gemeinde"},"district":{"key":"16077","name":"Altenburger Land","type":"Landkreis"},"federalState":{"key":"16","name":"Thüringen"}},{"name":"Kurze Str.","postalCode":"04617","locality":"Kriebitzsch","municipality":{"key":"16077022","name":"Kriebitzsch","type":"Kreisangehörige_Gemeinde"},"district":{"key":"16077","name":"Altenburger Land","type":"Landkreis"},"federalState":{"key":"16","name":"Thüringen"}},{"name":"Mittelstr.","postalCode":"04617","locality":"Kriebitzsch","municipality":{"key":"16077022","name":"Kriebitzsch","type":"Kreisangehörige_Gemeinde"},"district":{"key":"16077","name":"Altenburger Land","type":"Landkreis"},"federalState":{"key":"16","name":"Thüringen"}},{"name":"Neuer Weg","postalCode":"04617","locality":"Kriebitzsch","municipality":{"key":"16077022","name":"Kriebitzsch","type":"Kreisangehörige_Gemeinde"},"district":{"key":"16077","name":"Altenburger Land","type":"Landkreis"},"federalState":{"key":"16","name":"Thüringen"}},{"name":"Neue Str.","postalCode":"04617","locality":"Kriebitzsch","municipality":{"key":"16077022","name":"Kriebitzsch","type":"Kreisangehörige_Gemeinde"},"district":{"key":"16077","name":"Altenburger Land","type":"Landkreis"},"federalState":{"key":"16","name":"Thüringen"}},{"name":"Otto-Engert-Str.","postalCode":"04617","locality":"Kriebitzsch","municipality":{"key":"16077022","name":"Kriebitzsch","type":"Kreisangehörige_Gemeinde"},"district":{"key":"16077","name":"Altenburger Land","type":"Landkreis"},"federalState":{"key":"16","name":"Thüringen"}},{"name":"Petsaer Weg","postalCode":"04617","locality":"Kriebitzsch","municipality":{"key":"16077022","name":"Kriebitzsch","type":"Kreisangehörige_Gemeinde"},"district":{"key":"16077","name":"Altenburger Land","type":"Landkreis"},"federalState":{"key":"16","name":"Thüringen"}},{"name":"Poderschauer Str.","postalCode":"04617","locality":"Kriebitzsch","municipality":{"key":"16077022","name":"Kriebitzsch","type":"Kreisangehörige_Gemeinde"},"district":{"key":"16077","name":"Altenburger Land","type":"Landkreis"},"federalState":{"key":"16","name":"Thüringen"}},{"name":"Rositzer Str.","postalCode":"04617","locality":"Kriebitzsch","municipality":{"key":"16077022","name":"Kriebitzsch","type":"Kreisangehörige_Gemeinde"},"district":{"key":"16077","name":"Altenburger Land","type":"Landkreis"},"federalState":{"key":"16","name":"Thüringen"}},{"name":"Waltersdorfer Weg","postalCode":"04617","locality":"Kriebitzsch","municipality":{"key":"16077022","name":"Kriebitzsch","type":"Kreisangehörige_Gemeinde"},"district":{"key":"16077","name":"Altenburger Land","type":"Landkreis"},"federalState":{"key":"16","name":"Thüringen"}},{"name":"Wasserwerk","postalCode":"04617","locality":"Kriebitzsch","municipality":{"key":"16077022","name":"Kriebitzsch","type":"Kreisangehörige_Gemeinde"},"district":{"key":"16077","name":"Altenburger Land","type":"Landkreis"},"federalState":{"key":"16","name":"Thüringen"}},{"name":"Weinberg","postalCode":"04617","locality":"Kriebitzsch","municipality":{"key":"16077022","name":"Kriebitzsch","type":"Kreisangehörige_Gemeinde"},"district":{"key":"16077","name":"Altenburger Land","type":"Landkreis"},"federalState":{"key":"16","name":"Thüringen"}},{"name":"Wiesenstr.","postalCode":"04617","locality":"Kriebitzsch","municipality":{"key":"16077022","name":"Kriebitzsch","type":"Kreisangehörige_Gemeinde"},"district":{"key":"16077","name":"Altenburger Land","type":"Landkreis"},"federalState":{"key":"16","name":"Thüringen"}},{"name":"Wilhelm-Pieck-Str.","postalCode":"04617","locality":"Kriebitzsch","municipality":{"key":"16077022","name":"Kriebitzsch","type":"Kreisangehörige_Gemeinde"},"district":{"key":"16077","name":"Altenburger Land","type":"Landkreis"},"federalState":{"key":"16","name":"Thüringen"}},{"name":"Zechauer Str.","postalCode":"04617","locality":"Kriebitzsch","municipality":{"key":"16077022","name":"Kriebitzsch","type":"Kreisangehörige_Gemeinde"},"district":{"key":"16077","name":"Altenburger Land","type":"Landkreis"},"federalState":{"key":"16","name":"Thüringen"}},]