[{"key":"10239025","name":"A1","postalCode":"4665","locality":"Oftringen","commune":{"key":"4280","name":"Oftringen","shortName":"Oftringen"},"district":{"key":"1910","name":"Bezirk Zofingen"},"canton":{"key":"19","code":"AG","name":"Aargau"},"status":"Real"},{"key":"10114545","name":"Ackerweg","postalCode":"4665","locality":"Oftringen","commune":{"key":"4280","name":"Oftringen","shortName":"Oftringen"},"district":{"key":"1910","name":"Bezirk Zofingen"},"canton":{"key":"19","code":"AG","name":"Aargau"},"status":"Real"},{"key":"10037307","name":"Aecherligasse","postalCode":"4665","locality":"Oftringen","commune":{"key":"4280","name":"Oftringen","shortName":"Oftringen"},"district":{"key":"1910","name":"Bezirk Zofingen"},"canton":{"key":"19","code":"AG","name":"Aargau"},"status":"Real"},{"key":"10037308","name":"Aecherliring","postalCode":"4665","locality":"Oftringen","commune":{"key":"4280","name":"Oftringen","shortName":"Oftringen"},"district":{"key":"1910","name":"Bezirk Zofingen"},"canton":{"key":"19","code":"AG","name":"Aargau"},"status":"Real"},{"key":"10037309","name":"Aeschenbachweg","postalCode":"4665","locality":"Oftringen","commune":{"key":"4280","name":"Oftringen","shortName":"Oftringen"},"district":{"key":"1910","name":"Bezirk Zofingen"},"canton":{"key":"19","code":"AG","name":"Aargau"},"status":"Real"},{"key":"10078442","name":"Aeschwuhrstrasse","postalCode":"4665","locality":"Oftringen","commune":{"key":"4280","name":"Oftringen","shortName":"Oftringen"},"district":{"key":"1910","name":"Bezirk Zofingen"},"canton":{"key":"19","code":"AG","name":"Aargau"},"status":"Real"},{"key":"10094659","name":"Aeschwuhrweg","postalCode":"4665","locality":"Oftringen","commune":{"key":"4280","name":"Oftringen","shortName":"Oftringen"},"district":{"key":"1910","name":"Bezirk Zofingen"},"canton":{"key":"19","code":"AG","name":"Aargau"},"status":"Real"},{"key":"10128766","name":"Aeussere Luzernerstrasse","postalCode":"4665","locality":"Oftringen","commune":{"key":"4280","name":"Oftringen","shortName":"Oftringen"},"district":{"key":"1910","name":"Bezirk Zofingen"},"canton":{"key":"19","code":"AG","name":"Aargau"},"status":"Real"},{"key":"10037310","name":"Ahornweg","postalCode":"4665","locality":"Oftringen","commune":{"key":"4280","name":"Oftringen","shortName":"Oftringen"},"district":{"key":"1910","name":"Bezirk Zofingen"},"canton":{"key":"19","code":"AG","name":"Aargau"},"status":"Real"},{"key":"10111108","name":"Akazienweg","postalCode":"4665","locality":"Oftringen","commune":{"key":"4280","name":"Oftringen","shortName":"Oftringen"},"district":{"key":"1910","name":"Bezirk Zofingen"},"canton":{"key":"19","code":"AG","name":"Aargau"},"status":"Real"},{"key":"10184243","name":"Alpenblickweg","postalCode":"4665","locality":"Oftringen","commune":{"key":"4280","name":"Oftringen","shortName":"Oftringen"},"district":{"key":"1910","name":"Bezirk Zofingen"},"canton":{"key":"19","code":"AG","name":"Aargau"},"status":"Real"},{"key":"10094660","name":"Alte Bühnenbergstrasse","postalCode":"4665","locality":"Oftringen","commune":{"key":"4280","name":"Oftringen","shortName":"Oftringen"},"district":{"key":"1910","name":"Bezirk Zofingen"},"canton":{"key":"19","code":"AG","name":"Aargau"},"status":"Real"},{"key":"10078443","name":"Alte Strasse","postalCode":"4665","locality":"Oftringen","commune":{"key":"4280","name":"Oftringen","shortName":"Oftringen"},"district":{"key":"1910","name":"Bezirk Zofingen"},"canton":{"key":"19","code":"AG","name":"Aargau"},"status":"Real"},{"key":"10037311","name":"Am Dorfbach","postalCode":"4665","locality":"Oftringen","commune":{"key":"4280","name":"Oftringen","shortName":"Oftringen"},"district":{"key":"1910","name":"Bezirk Zofingen"},"canton":{"key":"19","code":"AG","name":"Aargau"},"status":"Real"},{"key":"10037313","name":"Amselweg","postalCode":"4665","locality":"Oftringen","commune":{"key":"4280","name":"Oftringen","shortName":"Oftringen"},"district":{"key":"1910","name":"Bezirk Zofingen"},"canton":{"key":"19","code":"AG","name":"Aargau"},"status":"Real"},{"key":"10037312","name":"Am Tych","postalCode":"4665","locality":"Oftringen","commune":{"key":"4280","name":"Oftringen","shortName":"Oftringen"},"district":{"key":"1910","name":"Bezirk Zofingen"},"canton":{"key":"19","code":"AG","name":"Aargau"},"status":"Real"},{"key":"10124857","name":"Am Tych","postalCode":"4665","locality":"Oftringen","commune":{"key":"4280","name":"Oftringen","shortName":"Oftringen"},"district":{"key":"1910","name":"Bezirk Zofingen"},"canton":{"key":"19","code":"AG","name":"Aargau"},"status":"Real"},{"key":"10037314","name":"Anemonenweg","postalCode":"4665","locality":"Oftringen","commune":{"key":"4280","name":"Oftringen","shortName":"Oftringen"},"district":{"key":"1910","name":"Bezirk Zofingen"},"canton":{"key":"19","code":"AG","name":"Aargau"},"status":"Real"},{"key":"10078444","name":"Arnikaweg","postalCode":"4665","locality":"Oftringen","commune":{"key":"4280","name":"Oftringen","shortName":"Oftringen"},"district":{"key":"1910","name":"Bezirk Zofingen"},"canton":{"key":"19","code":"AG","name":"Aargau"},"status":"Real"},{"key":"10037315","name":"Bachmattweg","postalCode":"4665","locality":"Oftringen","commune":{"key":"4280","name":"Oftringen","shortName":"Oftringen"},"district":{"key":"1910","name":"Bezirk Zofingen"},"canton":{"key":"19","code":"AG","name":"Aargau"},"status":"Real"},{"key":"10117484","name":"Bachweg","postalCode":"4665","locality":"Oftringen","commune":{"key":"4280","name":"Oftringen","shortName":"Oftringen"},"district":{"key":"1910","name":"Bezirk Zofingen"},"canton":{"key":"19","code":"AG","name":"Aargau"},"status":"Real"},{"key":"10124871","name":"Badiweg","postalCode":"4665","locality":"Oftringen","commune":{"key":"4280","name":"Oftringen","shortName":"Oftringen"},"district":{"key":"1910","name":"Bezirk Zofingen"},"canton":{"key":"19","code":"AG","name":"Aargau"},"status":"Real"},{"key":"10037589","name":"Bahnweg","postalCode":"4665","locality":"Oftringen","commune":{"key":"4280","name":"Oftringen","shortName":"Oftringen"},"district":{"key":"1910","name":"Bezirk Zofingen"},"canton":{"key":"19","code":"AG","name":"Aargau"},"status":"Real"},{"key":"10128331","name":"Baslerstrasse","postalCode":"4665","locality":"Oftringen","commune":{"key":"4280","name":"Oftringen","shortName":"Oftringen"},"district":{"key":"1910","name":"Bezirk Zofingen"},"canton":{"key":"19","code":"AG","name":"Aargau"},"status":"Real"},{"key":"10184244","name":"Bergliweg","postalCode":"4665","locality":"Oftringen","commune":{"key":"4280","name":"Oftringen","shortName":"Oftringen"},"district":{"key":"1910","name":"Bezirk Zofingen"},"canton":{"key":"19","code":"AG","name":"Aargau"},"status":"Real"},{"key":"10052491","name":"Bernstrasse","postalCode":"4665","locality":"Oftringen","commune":{"key":"4280","name":"Oftringen","shortName":"Oftringen"},"district":{"key":"1910","name":"Bezirk Zofingen"},"canton":{"key":"19","code":"AG","name":"Aargau"},"status":"Real"},{"key":"10094661","name":"Bernstrasse","postalCode":"4665","locality":"Oftringen","commune":{"key":"4280","name":"Oftringen","shortName":"Oftringen"},"district":{"key":"1910","name":"Bezirk Zofingen"},"canton":{"key":"19","code":"AG","name":"Aargau"},"status":"Real"},{"key":"10037590","name":"Bifang","postalCode":"4665","locality":"Oftringen","commune":{"key":"4280","name":"Oftringen","shortName":"Oftringen"},"district":{"key":"1910","name":"Bezirk Zofingen"},"canton":{"key":"19","code":"AG","name":"Aargau"},"status":"Real"},{"key":"10037591","name":"Birchenfeld","postalCode":"4665","locality":"Oftringen","commune":{"key":"4280","name":"Oftringen","shortName":"Oftringen"},"district":{"key":"1910","name":"Bezirk Zofingen"},"canton":{"key":"19","code":"AG","name":"Aargau"},"status":"Real"},{"key":"10078445","name":"Birkenweg","postalCode":"4665","locality":"Oftringen","commune":{"key":"4280","name":"Oftringen","shortName":"Oftringen"},"district":{"key":"1910","name":"Bezirk Zofingen"},"canton":{"key":"19","code":"AG","name":"Aargau"},"status":"Real"},{"key":"10037592","name":"Blumenweg","postalCode":"4665","locality":"Oftringen","commune":{"key":"4280","name":"Oftringen","shortName":"Oftringen"},"district":{"key":"1910","name":"Bezirk Zofingen"},"canton":{"key":"19","code":"AG","name":"Aargau"},"status":"Real"},{"key":"10111109","name":"Bornweg","postalCode":"4665","locality":"Oftringen","commune":{"key":"4280","name":"Oftringen","shortName":"Oftringen"},"district":{"key":"1910","name":"Bezirk Zofingen"},"canton":{"key":"19","code":"AG","name":"Aargau"},"status":"Real"},{"key":"10094662","name":"Brauereiweg","postalCode":"4665","locality":"Oftringen","commune":{"key":"4280","name":"Oftringen","shortName":"Oftringen"},"district":{"key":"1910","name":"Bezirk Zofingen"},"canton":{"key":"19","code":"AG","name":"Aargau"},"status":"Real"},{"key":"10116153","name":"Brüschiweg","postalCode":"4665","locality":"Oftringen","commune":{"key":"4280","name":"Oftringen","shortName":"Oftringen"},"district":{"key":"1910","name":"Bezirk Zofingen"},"canton":{"key":"19","code":"AG","name":"Aargau"},"status":"Real"},{"key":"10037593","name":"Buchenweg","postalCode":"4665","locality":"Oftringen","commune":{"key":"4280","name":"Oftringen","shortName":"Oftringen"},"district":{"key":"1910","name":"Bezirk Zofingen"},"canton":{"key":"19","code":"AG","name":"Aargau"},"status":"Real"},{"key":"10037594","name":"Bündtenmattweg","postalCode":"4665","locality":"Oftringen","commune":{"key":"4280","name":"Oftringen","shortName":"Oftringen"},"district":{"key":"1910","name":"Bezirk Zofingen"},"canton":{"key":"19","code":"AG","name":"Aargau"},"status":"Real"},{"key":"10094663","name":"Bündtenstrasse","postalCode":"4665","locality":"Oftringen","commune":{"key":"4280","name":"Oftringen","shortName":"Oftringen"},"district":{"key":"1910","name":"Bezirk Zofingen"},"canton":{"key":"19","code":"AG","name":"Aargau"},"status":"Real"},{"key":"10037595","name":"Campingweg","postalCode":"4665","locality":"Oftringen","commune":{"key":"4280","name":"Oftringen","shortName":"Oftringen"},"district":{"key":"1910","name":"Bezirk Zofingen"},"canton":{"key":"19","code":"AG","name":"Aargau"},"status":"Real"},{"key":"10078446","name":"Chaletweg","postalCode":"4665","locality":"Oftringen","commune":{"key":"4280","name":"Oftringen","shortName":"Oftringen"},"district":{"key":"1910","name":"Bezirk Zofingen"},"canton":{"key":"19","code":"AG","name":"Aargau"},"status":"Real"},{"key":"10184245","name":"Chäsiweg","postalCode":"4665","locality":"Oftringen","commune":{"key":"4280","name":"Oftringen","shortName":"Oftringen"},"district":{"key":"1910","name":"Bezirk Zofingen"},"canton":{"key":"19","code":"AG","name":"Aargau"},"status":"Real"},{"key":"10037596","name":"Dahlienweg","postalCode":"4665","locality":"Oftringen","commune":{"key":"4280","name":"Oftringen","shortName":"Oftringen"},"district":{"key":"1910","name":"Bezirk Zofingen"},"canton":{"key":"19","code":"AG","name":"Aargau"},"status":"Real"},{"key":"10120123","name":"Dammrain","postalCode":"4665","locality":"Oftringen","commune":{"key":"4280","name":"Oftringen","shortName":"Oftringen"},"district":{"key":"1910","name":"Bezirk Zofingen"},"canton":{"key":"19","code":"AG","name":"Aargau"},"status":"Real"},{"key":"10123869","name":"Dammstrasse","postalCode":"4665","locality":"Oftringen","commune":{"key":"4280","name":"Oftringen","shortName":"Oftringen"},"district":{"key":"1910","name":"Bezirk Zofingen"},"canton":{"key":"19","code":"AG","name":"Aargau"},"status":"Real"},{"key":"10037598","name":"Döbeligut","postalCode":"4665","locality":"Oftringen","commune":{"key":"4280","name":"Oftringen","shortName":"Oftringen"},"district":{"key":"1910","name":"Bezirk Zofingen"},"canton":{"key":"19","code":"AG","name":"Aargau"},"status":"Real"},{"key":"10078447","name":"Dorfblickstrasse","postalCode":"4665","locality":"Oftringen","commune":{"key":"4280","name":"Oftringen","shortName":"Oftringen"},"district":{"key":"1910","name":"Bezirk Zofingen"},"canton":{"key":"19","code":"AG","name":"Aargau"},"status":"Real"},{"key":"10124872","name":"Dorfstrasse","postalCode":"4665","locality":"Oftringen","commune":{"key":"4280","name":"Oftringen","shortName":"Oftringen"},"district":{"key":"1910","name":"Bezirk Zofingen"},"canton":{"key":"19","code":"AG","name":"Aargau"},"status":"Real"},{"key":"10037597","name":"Drosselweg","postalCode":"4665","locality":"Oftringen","commune":{"key":"4280","name":"Oftringen","shortName":"Oftringen"},"district":{"key":"1910","name":"Bezirk Zofingen"},"canton":{"key":"19","code":"AG","name":"Aargau"},"status":"Real"},{"key":"10094664","name":"Eichmattstrasse","postalCode":"4665","locality":"Oftringen","commune":{"key":"4280","name":"Oftringen","shortName":"Oftringen"},"district":{"key":"1910","name":"Bezirk Zofingen"},"canton":{"key":"19","code":"AG","name":"Aargau"},"status":"Real"},{"key":"10184246","name":"Eigerweg","postalCode":"4665","locality":"Oftringen","commune":{"key":"4280","name":"Oftringen","shortName":"Oftringen"},"district":{"key":"1910","name":"Bezirk Zofingen"},"canton":{"key":"19","code":"AG","name":"Aargau"},"status":"Real"},{"key":"10078448","name":"Eismattweg","postalCode":"4665","locality":"Oftringen","commune":{"key":"4280","name":"Oftringen","shortName":"Oftringen"},"district":{"key":"1910","name":"Bezirk Zofingen"},"canton":{"key":"19","code":"AG","name":"Aargau"},"status":"Real"},{"key":"10037599","name":"Engelbergstrasse","postalCode":"4665","locality":"Oftringen","commune":{"key":"4280","name":"Oftringen","shortName":"Oftringen"},"district":{"key":"1910","name":"Bezirk Zofingen"},"canton":{"key":"19","code":"AG","name":"Aargau"},"status":"Real"},{"key":"10111110","name":"Erikaweg","postalCode":"4665","locality":"Oftringen","commune":{"key":"4280","name":"Oftringen","shortName":"Oftringen"},"district":{"key":"1910","name":"Bezirk Zofingen"},"canton":{"key":"19","code":"AG","name":"Aargau"},"status":"Real"},{"key":"10037600","name":"Erlenweg","postalCode":"4665","locality":"Oftringen","commune":{"key":"4280","name":"Oftringen","shortName":"Oftringen"},"district":{"key":"1910","name":"Bezirk Zofingen"},"canton":{"key":"19","code":"AG","name":"Aargau"},"status":"Real"},{"key":"10046228","name":"Eschenweg","postalCode":"4665","locality":"Oftringen","commune":{"key":"4280","name":"Oftringen","shortName":"Oftringen"},"district":{"key":"1910","name":"Bezirk Zofingen"},"canton":{"key":"19","code":"AG","name":"Aargau"},"status":"Real"},{"key":"10037604","name":"Färbestrasse","postalCode":"4665","locality":"Oftringen","commune":{"key":"4280","name":"Oftringen","shortName":"Oftringen"},"district":{"key":"1910","name":"Bezirk Zofingen"},"canton":{"key":"19","code":"AG","name":"Aargau"},"status":"Real"},{"key":"10111229","name":"Feldstrasse","postalCode":"4665","locality":"Oftringen","commune":{"key":"4280","name":"Oftringen","shortName":"Oftringen"},"district":{"key":"1910","name":"Bezirk Zofingen"},"canton":{"key":"19","code":"AG","name":"Aargau"},"status":"Real"},{"key":"10046229","name":"Fichtenweg","postalCode":"4665","locality":"Oftringen","commune":{"key":"4280","name":"Oftringen","shortName":"Oftringen"},"district":{"key":"1910","name":"Bezirk Zofingen"},"canton":{"key":"19","code":"AG","name":"Aargau"},"status":"Real"},{"key":"10037601","name":"Finkenweg","postalCode":"4665","locality":"Oftringen","commune":{"key":"4280","name":"Oftringen","shortName":"Oftringen"},"district":{"key":"1910","name":"Bezirk Zofingen"},"canton":{"key":"19","code":"AG","name":"Aargau"},"status":"Real"},{"key":"10037602","name":"Finsterthüelen","postalCode":"4665","locality":"Oftringen","commune":{"key":"4280","name":"Oftringen","shortName":"Oftringen"},"district":{"key":"1910","name":"Bezirk Zofingen"},"canton":{"key":"19","code":"AG","name":"Aargau"},"status":"Real"},{"key":"10037603","name":"Fischerweg","postalCode":"4665","locality":"Oftringen","commune":{"key":"4280","name":"Oftringen","shortName":"Oftringen"},"district":{"key":"1910","name":"Bezirk Zofingen"},"canton":{"key":"19","code":"AG","name":"Aargau"},"status":"Real"},{"key":"10107574","name":"Fliederweg","postalCode":"4665","locality":"Oftringen","commune":{"key":"4280","name":"Oftringen","shortName":"Oftringen"},"district":{"key":"1910","name":"Bezirk Zofingen"},"canton":{"key":"19","code":"AG","name":"Aargau"},"status":"Real"},{"key":"10078449","name":"Floragut","postalCode":"4665","locality":"Oftringen","commune":{"key":"4280","name":"Oftringen","shortName":"Oftringen"},"district":{"key":"1910","name":"Bezirk Zofingen"},"canton":{"key":"19","code":"AG","name":"Aargau"},"status":"Real"},{"key":"10094666","name":"Florastrasse","postalCode":"4665","locality":"Oftringen","commune":{"key":"4280","name":"Oftringen","shortName":"Oftringen"},"district":{"key":"1910","name":"Bezirk Zofingen"},"canton":{"key":"19","code":"AG","name":"Aargau"},"status":"Real"},{"key":"10184247","name":"Flurstrasse","postalCode":"4665","locality":"Oftringen","commune":{"key":"4280","name":"Oftringen","shortName":"Oftringen"},"district":{"key":"1910","name":"Bezirk Zofingen"},"canton":{"key":"19","code":"AG","name":"Aargau"},"status":"Real"},{"key":"10109221","name":"Föhrenweg","postalCode":"4665","locality":"Oftringen","commune":{"key":"4280","name":"Oftringen","shortName":"Oftringen"},"district":{"key":"1910","name":"Bezirk Zofingen"},"canton":{"key":"19","code":"AG","name":"Aargau"},"status":"Real"},{"key":"10046230","name":"Frohburgstrasse","postalCode":"4665","locality":"Oftringen","commune":{"key":"4280","name":"Oftringen","shortName":"Oftringen"},"district":{"key":"1910","name":"Bezirk Zofingen"},"canton":{"key":"19","code":"AG","name":"Aargau"},"status":"Real"},{"key":"10189458","name":"Gartenstrasse","postalCode":"4665","locality":"Oftringen","commune":{"key":"4280","name":"Oftringen","shortName":"Oftringen"},"district":{"key":"1910","name":"Bezirk Zofingen"},"canton":{"key":"19","code":"AG","name":"Aargau"},"status":"Real"},{"key":"10159404","name":"Gärtnereiweg","postalCode":"4665","locality":"Oftringen","commune":{"key":"4280","name":"Oftringen","shortName":"Oftringen"},"district":{"key":"1910","name":"Bezirk Zofingen"},"canton":{"key":"19","code":"AG","name":"Aargau"},"status":"Real"},{"key":"10046232","name":"Gässli","postalCode":"4665","locality":"Oftringen","commune":{"key":"4280","name":"Oftringen","shortName":"Oftringen"},"district":{"key":"1910","name":"Bezirk Zofingen"},"canton":{"key":"19","code":"AG","name":"Aargau"},"status":"Real"},{"key":"10117485","name":"Gilamstrasse","postalCode":"4665","locality":"Oftringen","commune":{"key":"4280","name":"Oftringen","shortName":"Oftringen"},"district":{"key":"1910","name":"Bezirk Zofingen"},"canton":{"key":"19","code":"AG","name":"Aargau"},"status":"Real"},{"key":"10037605","name":"Ginsterweg","postalCode":"4665","locality":"Oftringen","commune":{"key":"4280","name":"Oftringen","shortName":"Oftringen"},"district":{"key":"1910","name":"Bezirk Zofingen"},"canton":{"key":"19","code":"AG","name":"Aargau"},"status":"Real"},{"key":"10037606","name":"Gishalde","postalCode":"4665","locality":"Oftringen","commune":{"key":"4280","name":"Oftringen","shortName":"Oftringen"},"district":{"key":"1910","name":"Bezirk Zofingen"},"canton":{"key":"19","code":"AG","name":"Aargau"},"status":"Real"},{"key":"10124873","name":"Grenzstrasse","postalCode":"4665","locality":"Oftringen","commune":{"key":"4280","name":"Oftringen","shortName":"Oftringen"},"district":{"key":"1910","name":"Bezirk Zofingen"},"canton":{"key":"19","code":"AG","name":"Aargau"},"status":"Real"},{"key":"10046231","name":"Grubenweg","postalCode":"4665","locality":"Oftringen","commune":{"key":"4280","name":"Oftringen","shortName":"Oftringen"},"district":{"key":"1910","name":"Bezirk Zofingen"},"canton":{"key":"19","code":"AG","name":"Aargau"},"status":"Real"},{"key":"10078450","name":"Grünau","postalCode":"4665","locality":"Oftringen","commune":{"key":"4280","name":"Oftringen","shortName":"Oftringen"},"district":{"key":"1910","name":"Bezirk Zofingen"},"canton":{"key":"19","code":"AG","name":"Aargau"},"status":"Real"},{"key":"10094667","name":"Grünmattstrasse","postalCode":"4665","locality":"Oftringen","commune":{"key":"4280","name":"Oftringen","shortName":"Oftringen"},"district":{"key":"1910","name":"Bezirk Zofingen"},"canton":{"key":"19","code":"AG","name":"Aargau"},"status":"Real"},{"key":"10037607","name":"Gygerweg","postalCode":"4665","locality":"Oftringen","commune":{"key":"4280","name":"Oftringen","shortName":"Oftringen"},"district":{"key":"1910","name":"Bezirk Zofingen"},"canton":{"key":"19","code":"AG","name":"Aargau"},"status":"Real"},{"key":"10078451","name":"Hagmannstrasse","postalCode":"4665","locality":"Oftringen","commune":{"key":"4280","name":"Oftringen","shortName":"Oftringen"},"district":{"key":"1910","name":"Bezirk Zofingen"},"canton":{"key":"19","code":"AG","name":"Aargau"},"status":"Real"},{"key":"10107575","name":"Haldenweg","postalCode":"4665","locality":"Oftringen","commune":{"key":"4280","name":"Oftringen","shortName":"Oftringen"},"district":{"key":"1910","name":"Bezirk Zofingen"},"canton":{"key":"19","code":"AG","name":"Aargau"},"status":"Real"},{"key":"10037608","name":"Haselweg","postalCode":"4665","locality":"Oftringen","commune":{"key":"4280","name":"Oftringen","shortName":"Oftringen"},"district":{"key":"1910","name":"Bezirk Zofingen"},"canton":{"key":"19","code":"AG","name":"Aargau"},"status":"Real"},{"key":"10037609","name":"Heidengässli","postalCode":"4665","locality":"Oftringen","commune":{"key":"4280","name":"Oftringen","shortName":"Oftringen"},"district":{"key":"1910","name":"Bezirk Zofingen"},"canton":{"key":"19","code":"AG","name":"Aargau"},"status":"Real"},{"key":"10046233","name":"Heuweg","postalCode":"4665","locality":"Oftringen","commune":{"key":"4280","name":"Oftringen","shortName":"Oftringen"},"district":{"key":"1910","name":"Bezirk Zofingen"},"canton":{"key":"19","code":"AG","name":"Aargau"},"status":"Real"},{"key":"10046234","name":"Höhenweg","postalCode":"4665","locality":"Oftringen","commune":{"key":"4280","name":"Oftringen","shortName":"Oftringen"},"district":{"key":"1910","name":"Bezirk Zofingen"},"canton":{"key":"19","code":"AG","name":"Aargau"},"status":"Real"},{"key":"10111111","name":"Holunderweg","postalCode":"4665","locality":"Oftringen","commune":{"key":"4280","name":"Oftringen","shortName":"Oftringen"},"district":{"key":"1910","name":"Bezirk Zofingen"},"canton":{"key":"19","code":"AG","name":"Aargau"},"status":"Real"},{"key":"10078452","name":"Hölzliweg","postalCode":"4665","locality":"Oftringen","commune":{"key":"4280","name":"Oftringen","shortName":"Oftringen"},"district":{"key":"1910","name":"Bezirk Zofingen"},"canton":{"key":"19","code":"AG","name":"Aargau"},"status":"Real"},{"key":"10094668","name":"Hottigergasse","postalCode":"4665","locality":"Oftringen","commune":{"key":"4280","name":"Oftringen","shortName":"Oftringen"},"district":{"key":"1910","name":"Bezirk Zofingen"},"canton":{"key":"19","code":"AG","name":"Aargau"},"status":"Real"},{"key":"10184248","name":"Im Esel","postalCode":"4665","locality":"Oftringen","commune":{"key":"4280","name":"Oftringen","shortName":"Oftringen"},"district":{"key":"1910","name":"Bezirk Zofingen"},"canton":{"key":"19","code":"AG","name":"Aargau"},"status":"Real"},{"key":"10046235","name":"Industriestrasse","postalCode":"4665","locality":"Oftringen","commune":{"key":"4280","name":"Oftringen","shortName":"Oftringen"},"district":{"key":"1910","name":"Bezirk Zofingen"},"canton":{"key":"19","code":"AG","name":"Aargau"},"status":"Real"},{"key":"10037610","name":"Irisweg","postalCode":"4665","locality":"Oftringen","commune":{"key":"4280","name":"Oftringen","shortName":"Oftringen"},"district":{"key":"1910","name":"Bezirk Zofingen"},"canton":{"key":"19","code":"AG","name":"Aargau"},"status":"Real"},{"key":"10114023","name":"Jungfraustrasse","postalCode":"4665","locality":"Oftringen","commune":{"key":"4280","name":"Oftringen","shortName":"Oftringen"},"district":{"key":"1910","name":"Bezirk Zofingen"},"canton":{"key":"19","code":"AG","name":"Aargau"},"status":"Real"},{"key":"10037611","name":"Juraweg","postalCode":"4665","locality":"Oftringen","commune":{"key":"4280","name":"Oftringen","shortName":"Oftringen"},"district":{"key":"1910","name":"Bezirk Zofingen"},"canton":{"key":"19","code":"AG","name":"Aargau"},"status":"Real"},{"key":"10037612","name":"Kallernhagstrasse","postalCode":"4665","locality":"Oftringen","commune":{"key":"4280","name":"Oftringen","shortName":"Oftringen"},"district":{"key":"1910","name":"Bezirk Zofingen"},"canton":{"key":"19","code":"AG","name":"Aargau"},"status":"Real"},{"key":"10111230","name":"Kallernring","postalCode":"4665","locality":"Oftringen","commune":{"key":"4280","name":"Oftringen","shortName":"Oftringen"},"district":{"key":"1910","name":"Bezirk Zofingen"},"canton":{"key":"19","code":"AG","name":"Aargau"},"status":"Real"},{"key":"10094669","name":"Kaserloch","postalCode":"4665","locality":"Oftringen","commune":{"key":"4280","name":"Oftringen","shortName":"Oftringen"},"district":{"key":"1910","name":"Bezirk Zofingen"},"canton":{"key":"19","code":"AG","name":"Aargau"},"status":"Real"},{"key":"10046236","name":"Kieferstrasse","postalCode":"4665","locality":"Oftringen","commune":{"key":"4280","name":"Oftringen","shortName":"Oftringen"},"district":{"key":"1910","name":"Bezirk Zofingen"},"canton":{"key":"19","code":"AG","name":"Aargau"},"status":"Real"},{"key":"10037613","name":"Kirchstrasse","postalCode":"4665","locality":"Oftringen","commune":{"key":"4280","name":"Oftringen","shortName":"Oftringen"},"district":{"key":"1910","name":"Bezirk Zofingen"},"canton":{"key":"19","code":"AG","name":"Aargau"},"status":"Real"},{"key":"10114546","name":"Kirchweg","postalCode":"4665","locality":"Oftringen","commune":{"key":"4280","name":"Oftringen","shortName":"Oftringen"},"district":{"key":"1910","name":"Bezirk Zofingen"},"canton":{"key":"19","code":"AG","name":"Aargau"},"status":"Real"},{"key":"10151395","name":"Kleinfeld","postalCode":"4665","locality":"Oftringen","commune":{"key":"4280","name":"Oftringen","shortName":"Oftringen"},"district":{"key":"1910","name":"Bezirk Zofingen"},"canton":{"key":"19","code":"AG","name":"Aargau"},"status":"Real"},{"key":"10107576","name":"Kornweg","postalCode":"4665","locality":"Oftringen","commune":{"key":"4280","name":"Oftringen","shortName":"Oftringen"},"district":{"key":"1910","name":"Bezirk Zofingen"},"canton":{"key":"19","code":"AG","name":"Aargau"},"status":"Real"},{"key":"10122323","name":"Kreuzstrasse","postalCode":"4665","locality":"Oftringen","commune":{"key":"4280","name":"Oftringen","shortName":"Oftringen"},"district":{"key":"1910","name":"Bezirk Zofingen"},"canton":{"key":"19","code":"AG","name":"Aargau"},"status":"Real"},{"key":"10056645","name":"Langernrain","postalCode":"4665","locality":"Oftringen","commune":{"key":"4280","name":"Oftringen","shortName":"Oftringen"},"district":{"key":"1910","name":"Bezirk Zofingen"},"canton":{"key":"19","code":"AG","name":"Aargau"},"status":"Real"},{"key":"10184249","name":"Langernweg","postalCode":"4665","locality":"Oftringen","commune":{"key":"4280","name":"Oftringen","shortName":"Oftringen"},"district":{"key":"1910","name":"Bezirk Zofingen"},"canton":{"key":"19","code":"AG","name":"Aargau"},"status":"Real"},{"key":"10037617","name":"Lärchenweg","postalCode":"4665","locality":"Oftringen","commune":{"key":"4280","name":"Oftringen","shortName":"Oftringen"},"district":{"key":"1910","name":"Bezirk Zofingen"},"canton":{"key":"19","code":"AG","name":"Aargau"},"status":"Real"},{"key":"10046237","name":"Lauterbachstrasse","postalCode":"4665","locality":"Oftringen","commune":{"key":"4280","name":"Oftringen","shortName":"Oftringen"},"district":{"key":"1910","name":"Bezirk Zofingen"},"canton":{"key":"19","code":"AG","name":"Aargau"},"status":"Real"},{"key":"10037614","name":"Lerbhaldenstrasse","postalCode":"4665","locality":"Oftringen","commune":{"key":"4280","name":"Oftringen","shortName":"Oftringen"},"district":{"key":"1910","name":"Bezirk Zofingen"},"canton":{"key":"19","code":"AG","name":"Aargau"},"status":"Real"},{"key":"10094670","name":"Lerchenfeld","postalCode":"4665","locality":"Oftringen","commune":{"key":"4280","name":"Oftringen","shortName":"Oftringen"},"district":{"key":"1910","name":"Bezirk Zofingen"},"canton":{"key":"19","code":"AG","name":"Aargau"},"status":"Real"},{"key":"10116154","name":"Lilienweg","postalCode":"4665","locality":"Oftringen","commune":{"key":"4280","name":"Oftringen","shortName":"Oftringen"},"district":{"key":"1910","name":"Bezirk Zofingen"},"canton":{"key":"19","code":"AG","name":"Aargau"},"status":"Real"},{"key":"10078453","name":"Lindenhofstrasse","postalCode":"4665","locality":"Oftringen","commune":{"key":"4280","name":"Oftringen","shortName":"Oftringen"},"district":{"key":"1910","name":"Bezirk Zofingen"},"canton":{"key":"19","code":"AG","name":"Aargau"},"status":"Real"},{"key":"10037615","name":"Lindenrain","postalCode":"4665","locality":"Oftringen","commune":{"key":"4280","name":"Oftringen","shortName":"Oftringen"},"district":{"key":"1910","name":"Bezirk Zofingen"},"canton":{"key":"19","code":"AG","name":"Aargau"},"status":"Real"},{"key":"10037616","name":"Loogasse","postalCode":"4665","locality":"Oftringen","commune":{"key":"4280","name":"Oftringen","shortName":"Oftringen"},"district":{"key":"1910","name":"Bezirk Zofingen"},"canton":{"key":"19","code":"AG","name":"Aargau"},"status":"Real"},{"key":"10124874","name":"Loohalde","postalCode":"4665","locality":"Oftringen","commune":{"key":"4280","name":"Oftringen","shortName":"Oftringen"},"district":{"key":"1910","name":"Bezirk Zofingen"},"canton":{"key":"19","code":"AG","name":"Aargau"},"status":"Real"},{"key":"10111231","name":"Luzernerstrasse","postalCode":"4665","locality":"Oftringen","commune":{"key":"4280","name":"Oftringen","shortName":"Oftringen"},"district":{"key":"1910","name":"Bezirk Zofingen"},"canton":{"key":"19","code":"AG","name":"Aargau"},"status":"Real"},{"key":"10112949","name":"Mattenring","postalCode":"4665","locality":"Oftringen","commune":{"key":"4280","name":"Oftringen","shortName":"Oftringen"},"district":{"key":"1910","name":"Bezirk Zofingen"},"canton":{"key":"19","code":"AG","name":"Aargau"},"status":"Real"},{"key":"10046238","name":"Mattenweg","postalCode":"4665","locality":"Oftringen","commune":{"key":"4280","name":"Oftringen","shortName":"Oftringen"},"district":{"key":"1910","name":"Bezirk Zofingen"},"canton":{"key":"19","code":"AG","name":"Aargau"},"status":"Real"},{"key":"10037618","name":"Meienweg","postalCode":"4665","locality":"Oftringen","commune":{"key":"4280","name":"Oftringen","shortName":"Oftringen"},"district":{"key":"1910","name":"Bezirk Zofingen"},"canton":{"key":"19","code":"AG","name":"Aargau"},"status":"Real"},{"key":"10094671","name":"Meisenweg","postalCode":"4665","locality":"Oftringen","commune":{"key":"4280","name":"Oftringen","shortName":"Oftringen"},"district":{"key":"1910","name":"Bezirk Zofingen"},"canton":{"key":"19","code":"AG","name":"Aargau"},"status":"Real"},{"key":"10074951","name":"Mittlere Bühnenbergstrasse","postalCode":"4665","locality":"Oftringen","commune":{"key":"4280","name":"Oftringen","shortName":"Oftringen"},"district":{"key":"1910","name":"Bezirk Zofingen"},"canton":{"key":"19","code":"AG","name":"Aargau"},"status":"Real"},{"key":"10184250","name":"Narzissenweg","postalCode":"4665","locality":"Oftringen","commune":{"key":"4280","name":"Oftringen","shortName":"Oftringen"},"district":{"key":"1910","name":"Bezirk Zofingen"},"canton":{"key":"19","code":"AG","name":"Aargau"},"status":"Real"},{"key":"10111112","name":"Nelkenweg","postalCode":"4665","locality":"Oftringen","commune":{"key":"4280","name":"Oftringen","shortName":"Oftringen"},"district":{"key":"1910","name":"Bezirk Zofingen"},"canton":{"key":"19","code":"AG","name":"Aargau"},"status":"Real"},{"key":"10078454","name":"Neue Bühnenbergstrasse","postalCode":"4665","locality":"Oftringen","commune":{"key":"4280","name":"Oftringen","shortName":"Oftringen"},"district":{"key":"1910","name":"Bezirk Zofingen"},"canton":{"key":"19","code":"AG","name":"Aargau"},"status":"Real"},{"key":"10148535","name":"Neugasse","postalCode":"4665","locality":"Oftringen","commune":{"key":"4280","name":"Oftringen","shortName":"Oftringen"},"district":{"key":"1910","name":"Bezirk Zofingen"},"canton":{"key":"19","code":"AG","name":"Aargau"},"status":"Real"},{"key":"10037619","name":"Neuquartier","postalCode":"4665","locality":"Oftringen","commune":{"key":"4280","name":"Oftringen","shortName":"Oftringen"},"district":{"key":"1910","name":"Bezirk Zofingen"},"canton":{"key":"19","code":"AG","name":"Aargau"},"status":"Real"},{"key":"10192803","name":"Nigglishüserstrasse","postalCode":"4665","locality":"Oftringen","commune":{"key":"4280","name":"Oftringen","shortName":"Oftringen"},"district":{"key":"1910","name":"Bezirk Zofingen"},"canton":{"key":"19","code":"AG","name":"Aargau"},"status":"Real"},{"key":"10095769","name":"Nordstrasse","postalCode":"4665","locality":"Oftringen","commune":{"key":"4280","name":"Oftringen","shortName":"Oftringen"},"district":{"key":"1910","name":"Bezirk Zofingen"},"canton":{"key":"19","code":"AG","name":"Aargau"},"status":"Real"},{"key":"10186551","name":"Obere Hauptstrasse","postalCode":"4665","locality":"Oftringen","commune":{"key":"4280","name":"Oftringen","shortName":"Oftringen"},"district":{"key":"1910","name":"Bezirk Zofingen"},"canton":{"key":"19","code":"AG","name":"Aargau"},"status":"Real"},{"key":"10078455","name":"Oberfeldstrasse","postalCode":"4665","locality":"Oftringen","commune":{"key":"4280","name":"Oftringen","shortName":"Oftringen"},"district":{"key":"1910","name":"Bezirk Zofingen"},"canton":{"key":"19","code":"AG","name":"Aargau"},"status":"Real"},{"key":"10037620","name":"Obristweg","postalCode":"4665","locality":"Oftringen","commune":{"key":"4280","name":"Oftringen","shortName":"Oftringen"},"district":{"key":"1910","name":"Bezirk Zofingen"},"canton":{"key":"19","code":"AG","name":"Aargau"},"status":"Real"},{"key":"10095770","name":"Panoramastrasse","postalCode":"4665","locality":"Oftringen","commune":{"key":"4280","name":"Oftringen","shortName":"Oftringen"},"district":{"key":"1910","name":"Bezirk Zofingen"},"canton":{"key":"19","code":"AG","name":"Aargau"},"status":"Real"},{"key":"10172814","name":"Pappelweg","postalCode":"4665","locality":"Oftringen","commune":{"key":"4280","name":"Oftringen","shortName":"Oftringen"},"district":{"key":"1910","name":"Bezirk Zofingen"},"canton":{"key":"19","code":"AG","name":"Aargau"},"status":"Real"},{"key":"10145894","name":"Parkstrasse","postalCode":"4665","locality":"Oftringen","commune":{"key":"4280","name":"Oftringen","shortName":"Oftringen"},"district":{"key":"1910","name":"Bezirk Zofingen"},"canton":{"key":"19","code":"AG","name":"Aargau"},"status":"Real"},{"key":"10037621","name":"Parkweg","postalCode":"4665","locality":"Oftringen","commune":{"key":"4280","name":"Oftringen","shortName":"Oftringen"},"district":{"key":"1910","name":"Bezirk Zofingen"},"canton":{"key":"19","code":"AG","name":"Aargau"},"status":"Real"},{"key":"10223087","name":"Peyerhäuser","postalCode":"4665","locality":"Oftringen","commune":{"key":"4280","name":"Oftringen","shortName":"Oftringen"},"district":{"key":"1910","name":"Bezirk Zofingen"},"canton":{"key":"19","code":"AG","name":"Aargau"},"status":"Real"},{"key":"10037622","name":"Peyerland","postalCode":"4665","locality":"Oftringen","commune":{"key":"4280","name":"Oftringen","shortName":"Oftringen"},"district":{"key":"1910","name":"Bezirk Zofingen"},"canton":{"key":"19","code":"AG","name":"Aargau"},"status":"Real"},{"key":"10037623","name":"Peyermattstrasse","postalCode":"4665","locality":"Oftringen","commune":{"key":"4280","name":"Oftringen","shortName":"Oftringen"},"district":{"key":"1910","name":"Bezirk Zofingen"},"canton":{"key":"19","code":"AG","name":"Aargau"},"status":"Real"},{"key":"10078456","name":"Pilatusstrasse","postalCode":"4665","locality":"Oftringen","commune":{"key":"4280","name":"Oftringen","shortName":"Oftringen"},"district":{"key":"1910","name":"Bezirk Zofingen"},"canton":{"key":"19","code":"AG","name":"Aargau"},"status":"Real"},{"key":"10095771","name":"Pintenweg","postalCode":"4665","locality":"Oftringen","commune":{"key":"4280","name":"Oftringen","shortName":"Oftringen"},"district":{"key":"1910","name":"Bezirk Zofingen"},"canton":{"key":"19","code":"AG","name":"Aargau"},"status":"Real"},{"key":"10111113","name":"Postweg","postalCode":"4665","locality":"Oftringen","commune":{"key":"4280","name":"Oftringen","shortName":"Oftringen"},"district":{"key":"1910","name":"Bezirk Zofingen"},"canton":{"key":"19","code":"AG","name":"Aargau"},"status":"Real"},{"key":"10037624","name":"Rainweg","postalCode":"4665","locality":"Oftringen","commune":{"key":"4280","name":"Oftringen","shortName":"Oftringen"},"district":{"key":"1910","name":"Bezirk Zofingen"},"canton":{"key":"19","code":"AG","name":"Aargau"},"status":"Real"},{"key":"10184251","name":"Reckolderhubel","postalCode":"4665","locality":"Oftringen","commune":{"key":"4280","name":"Oftringen","shortName":"Oftringen"},"district":{"key":"1910","name":"Bezirk Zofingen"},"canton":{"key":"19","code":"AG","name":"Aargau"},"status":"Real"},{"key":"10125489","name":"Resedastrasse","postalCode":"4665","locality":"Oftringen","commune":{"key":"4280","name":"Oftringen","shortName":"Oftringen"},"district":{"key":"1910","name":"Bezirk Zofingen"},"canton":{"key":"19","code":"AG","name":"Aargau"},"status":"Real"},{"key":"10037625","name":"Rigiweg","postalCode":"4665","locality":"Oftringen","commune":{"key":"4280","name":"Oftringen","shortName":"Oftringen"},"district":{"key":"1910","name":"Bezirk Zofingen"},"canton":{"key":"19","code":"AG","name":"Aargau"},"status":"Real"},{"key":"10112950","name":"Roggenstrasse","postalCode":"4665","locality":"Oftringen","commune":{"key":"4280","name":"Oftringen","shortName":"Oftringen"},"district":{"key":"1910","name":"Bezirk Zofingen"},"canton":{"key":"19","code":"AG","name":"Aargau"},"status":"Real"},{"key":"10037627","name":"Römerweg","postalCode":"4665","locality":"Oftringen","commune":{"key":"4280","name":"Oftringen","shortName":"Oftringen"},"district":{"key":"1910","name":"Bezirk Zofingen"},"canton":{"key":"19","code":"AG","name":"Aargau"},"status":"Real"},{"key":"10078457","name":"Röseliweg","postalCode":"4665","locality":"Oftringen","commune":{"key":"4280","name":"Oftringen","shortName":"Oftringen"},"district":{"key":"1910","name":"Bezirk Zofingen"},"canton":{"key":"19","code":"AG","name":"Aargau"},"status":"Real"},{"key":"10094394","name":"Rosenstrasse","postalCode":"4665","locality":"Oftringen","commune":{"key":"4280","name":"Oftringen","shortName":"Oftringen"},"district":{"key":"1910","name":"Bezirk Zofingen"},"canton":{"key":"19","code":"AG","name":"Aargau"},"status":"Real"},{"key":"10037626","name":"Ruhbank","postalCode":"4665","locality":"Oftringen","commune":{"key":"4280","name":"Oftringen","shortName":"Oftringen"},"district":{"key":"1910","name":"Bezirk Zofingen"},"canton":{"key":"19","code":"AG","name":"Aargau"},"status":"Real"},{"key":"10094399","name":"Säliblickstrasse","postalCode":"4665","locality":"Oftringen","commune":{"key":"4280","name":"Oftringen","shortName":"Oftringen"},"district":{"key":"1910","name":"Bezirk Zofingen"},"canton":{"key":"19","code":"AG","name":"Aargau"},"status":"Real"},{"key":"10120124","name":"Sälistrasse","postalCode":"4665","locality":"Oftringen","commune":{"key":"4280","name":"Oftringen","shortName":"Oftringen"},"district":{"key":"1910","name":"Bezirk Zofingen"},"canton":{"key":"19","code":"AG","name":"Aargau"},"status":"Real"},{"key":"10037628","name":"Sandackerweg","postalCode":"4665","locality":"Oftringen","commune":{"key":"4280","name":"Oftringen","shortName":"Oftringen"},"district":{"key":"1910","name":"Bezirk Zofingen"},"canton":{"key":"19","code":"AG","name":"Aargau"},"status":"Real"},{"key":"10094395","name":"Schlossweg","postalCode":"4665","locality":"Oftringen","commune":{"key":"4280","name":"Oftringen","shortName":"Oftringen"},"district":{"key":"1910","name":"Bezirk Zofingen"},"canton":{"key":"19","code":"AG","name":"Aargau"},"status":"Real"},{"key":"10206272","name":"Schmiedgasse","postalCode":"4665","locality":"Oftringen","commune":{"key":"4280","name":"Oftringen","shortName":"Oftringen"},"district":{"key":"1910","name":"Bezirk Zofingen"},"canton":{"key":"19","code":"AG","name":"Aargau"},"status":"Real"},{"key":"10037629","name":"Schneckenbergstrasse","postalCode":"4665","locality":"Oftringen","commune":{"key":"4280","name":"Oftringen","shortName":"Oftringen"},"district":{"key":"1910","name":"Bezirk Zofingen"},"canton":{"key":"19","code":"AG","name":"Aargau"},"status":"Real"},{"key":"10037631","name":"Schöneggstrasse","postalCode":"4665","locality":"Oftringen","commune":{"key":"4280","name":"Oftringen","shortName":"Oftringen"},"district":{"key":"1910","name":"Bezirk Zofingen"},"canton":{"key":"19","code":"AG","name":"Aargau"},"status":"Real"},{"key":"10037630","name":"Schreinerweg","postalCode":"4665","locality":"Oftringen","commune":{"key":"4280","name":"Oftringen","shortName":"Oftringen"},"district":{"key":"1910","name":"Bezirk Zofingen"},"canton":{"key":"19","code":"AG","name":"Aargau"},"status":"Real"},{"key":"10078458","name":"Schulhausstrasse","postalCode":"4665","locality":"Oftringen","commune":{"key":"4280","name":"Oftringen","shortName":"Oftringen"},"district":{"key":"1910","name":"Bezirk Zofingen"},"canton":{"key":"19","code":"AG","name":"Aargau"},"status":"Real"},{"key":"10184252","name":"Schürli","postalCode":"4665","locality":"Oftringen","commune":{"key":"4280","name":"Oftringen","shortName":"Oftringen"},"district":{"key":"1910","name":"Bezirk Zofingen"},"canton":{"key":"19","code":"AG","name":"Aargau"},"status":"Real"},{"key":"10094397","name":"Schürrainstrasse","postalCode":"4665","locality":"Oftringen","commune":{"key":"4280","name":"Oftringen","shortName":"Oftringen"},"district":{"key":"1910","name":"Bezirk Zofingen"},"canton":{"key":"19","code":"AG","name":"Aargau"},"status":"Real"},{"key":"10094396","name":"Schwarzhaar","postalCode":"4665","locality":"Oftringen","commune":{"key":"4280","name":"Oftringen","shortName":"Oftringen"},"district":{"key":"1910","name":"Bezirk Zofingen"},"canton":{"key":"19","code":"AG","name":"Aargau"},"status":"Real"},{"key":"10119977","name":"Schwarzhaarhalde","postalCode":"4665","locality":"Oftringen","commune":{"key":"4280","name":"Oftringen","shortName":"Oftringen"},"district":{"key":"1910","name":"Bezirk Zofingen"},"canton":{"key":"19","code":"AG","name":"Aargau"},"status":"Real"},{"key":"10143125","name":"Schwarzhaarrain","postalCode":"4665","locality":"Oftringen","commune":{"key":"4280","name":"Oftringen","shortName":"Oftringen"},"district":{"key":"1910","name":"Bezirk Zofingen"},"canton":{"key":"19","code":"AG","name":"Aargau"},"status":"Real"},{"key":"10037632","name":"Sonnenweg","postalCode":"4665","locality":"Oftringen","commune":{"key":"4280","name":"Oftringen","shortName":"Oftringen"},"district":{"key":"1910","name":"Bezirk Zofingen"},"canton":{"key":"19","code":"AG","name":"Aargau"},"status":"Real"},{"key":"10078459","name":"Sonnhalde","postalCode":"4665","locality":"Oftringen","commune":{"key":"4280","name":"Oftringen","shortName":"Oftringen"},"district":{"key":"1910","name":"Bezirk Zofingen"},"canton":{"key":"19","code":"AG","name":"Aargau"},"status":"Real"},{"key":"10111114","name":"Sonnmattstrasse","postalCode":"4665","locality":"Oftringen","commune":{"key":"4280","name":"Oftringen","shortName":"Oftringen"},"district":{"key":"1910","name":"Bezirk Zofingen"},"canton":{"key":"19","code":"AG","name":"Aargau"},"status":"Real"},{"key":"10124875","name":"Sonnrain","postalCode":"4665","locality":"Oftringen","commune":{"key":"4280","name":"Oftringen","shortName":"Oftringen"},"district":{"key":"1910","name":"Bezirk Zofingen"},"canton":{"key":"19","code":"AG","name":"Aargau"},"status":"Real"},{"key":"10116155","name":"Spitalweidstrasse","postalCode":"4665","locality":"Oftringen","commune":{"key":"4280","name":"Oftringen","shortName":"Oftringen"},"district":{"key":"1910","name":"Bezirk Zofingen"},"canton":{"key":"19","code":"AG","name":"Aargau"},"status":"Real"},{"key":"10151288","name":"Spittelhofring","postalCode":"4665","locality":"Oftringen","commune":{"key":"4280","name":"Oftringen","shortName":"Oftringen"},"district":{"key":"1910","name":"Bezirk Zofingen"},"canton":{"key":"19","code":"AG","name":"Aargau"},"status":"Real"},{"key":"10239032","name":"Sportplatzstrasse","postalCode":"4665","locality":"Oftringen","commune":{"key":"4280","name":"Oftringen","shortName":"Oftringen"},"district":{"key":"1910","name":"Bezirk Zofingen"},"canton":{"key":"19","code":"AG","name":"Aargau"},"status":"Real"},{"key":"10094398","name":"Stampfistrasse","postalCode":"4665","locality":"Oftringen","commune":{"key":"4280","name":"Oftringen","shortName":"Oftringen"},"district":{"key":"1910","name":"Bezirk Zofingen"},"canton":{"key":"19","code":"AG","name":"Aargau"},"status":"Real"},{"key":"10037633","name":"Staufergutstrasse","postalCode":"4665","locality":"Oftringen","commune":{"key":"4280","name":"Oftringen","shortName":"Oftringen"},"district":{"key":"1910","name":"Bezirk Zofingen"},"canton":{"key":"19","code":"AG","name":"Aargau"},"status":"Real"},{"key":"10166611","name":"Steinbillen","postalCode":"4665","locality":"Oftringen","commune":{"key":"4280","name":"Oftringen","shortName":"Oftringen"},"district":{"key":"1910","name":"Bezirk Zofingen"},"canton":{"key":"19","code":"AG","name":"Aargau"},"status":"Real"},{"key":"10037634","name":"Striegelstrasse","postalCode":"4665","locality":"Oftringen","commune":{"key":"4280","name":"Oftringen","shortName":"Oftringen"},"district":{"key":"1910","name":"Bezirk Zofingen"},"canton":{"key":"19","code":"AG","name":"Aargau"},"status":"Real"},{"key":"10111232","name":"Südstrasse","postalCode":"4665","locality":"Oftringen","commune":{"key":"4280","name":"Oftringen","shortName":"Oftringen"},"district":{"key":"1910","name":"Bezirk Zofingen"},"canton":{"key":"19","code":"AG","name":"Aargau"},"status":"Real"},{"key":"10184253","name":"Talweg","postalCode":"4665","locality":"Oftringen","commune":{"key":"4280","name":"Oftringen","shortName":"Oftringen"},"district":{"key":"1910","name":"Bezirk Zofingen"},"canton":{"key":"19","code":"AG","name":"Aargau"},"status":"Real"},{"key":"10037635","name":"Tannenweg","postalCode":"4665","locality":"Oftringen","commune":{"key":"4280","name":"Oftringen","shortName":"Oftringen"},"district":{"key":"1910","name":"Bezirk Zofingen"},"canton":{"key":"19","code":"AG","name":"Aargau"},"status":"Real"},{"key":"10037636","name":"Tanngrabenstrasse","postalCode":"4665","locality":"Oftringen","commune":{"key":"4280","name":"Oftringen","shortName":"Oftringen"},"district":{"key":"1910","name":"Bezirk Zofingen"},"canton":{"key":"19","code":"AG","name":"Aargau"},"status":"Real"},{"key":"10094400","name":"Titlisstrasse","postalCode":"4665","locality":"Oftringen","commune":{"key":"4280","name":"Oftringen","shortName":"Oftringen"},"district":{"key":"1910","name":"Bezirk Zofingen"},"canton":{"key":"19","code":"AG","name":"Aargau"},"status":"Real"},{"key":"10078460","name":"Tulpenweg","postalCode":"4665","locality":"Oftringen","commune":{"key":"4280","name":"Oftringen","shortName":"Oftringen"},"district":{"key":"1910","name":"Bezirk Zofingen"},"canton":{"key":"19","code":"AG","name":"Aargau"},"status":"Real"},{"key":"10037637","name":"Tychbodenstrasse","postalCode":"4665","locality":"Oftringen","commune":{"key":"4280","name":"Oftringen","shortName":"Oftringen"},"district":{"key":"1910","name":"Bezirk Zofingen"},"canton":{"key":"19","code":"AG","name":"Aargau"},"status":"Real"},{"key":"10037638","name":"Tychfeldstrasse","postalCode":"4665","locality":"Oftringen","commune":{"key":"4280","name":"Oftringen","shortName":"Oftringen"},"district":{"key":"1910","name":"Bezirk Zofingen"},"canton":{"key":"19","code":"AG","name":"Aargau"},"status":"Real"},{"key":"10094401","name":"Untere Hauptstrasse","postalCode":"4665","locality":"Oftringen","commune":{"key":"4280","name":"Oftringen","shortName":"Oftringen"},"district":{"key":"1910","name":"Bezirk Zofingen"},"canton":{"key":"19","code":"AG","name":"Aargau"},"status":"Real"},{"key":"10037639","name":"Unterer Sonnenweg","postalCode":"4665","locality":"Oftringen","commune":{"key":"4280","name":"Oftringen","shortName":"Oftringen"},"district":{"key":"1910","name":"Bezirk Zofingen"},"canton":{"key":"19","code":"AG","name":"Aargau"},"status":"Real"},{"key":"10150758","name":"Unterfeldmatte","postalCode":"4665","locality":"Oftringen","commune":{"key":"4280","name":"Oftringen","shortName":"Oftringen"},"district":{"key":"1910","name":"Bezirk Zofingen"},"canton":{"key":"19","code":"AG","name":"Aargau"},"status":"Real"},{"key":"10209194","name":"Unterfeldstrasse","postalCode":"4665","locality":"Oftringen","commune":{"key":"4280","name":"Oftringen","shortName":"Oftringen"},"district":{"key":"1910","name":"Bezirk Zofingen"},"canton":{"key":"19","code":"AG","name":"Aargau"},"status":"Real"},{"key":"10078461","name":"Veilchenweg","postalCode":"4665","locality":"Oftringen","commune":{"key":"4280","name":"Oftringen","shortName":"Oftringen"},"district":{"key":"1910","name":"Bezirk Zofingen"},"canton":{"key":"19","code":"AG","name":"Aargau"},"status":"Real"},{"key":"10037640","name":"Wagnerweg","postalCode":"4665","locality":"Oftringen","commune":{"key":"4280","name":"Oftringen","shortName":"Oftringen"},"district":{"key":"1910","name":"Bezirk Zofingen"},"canton":{"key":"19","code":"AG","name":"Aargau"},"status":"Real"},{"key":"10094402","name":"Waldpark","postalCode":"4665","locality":"Oftringen","commune":{"key":"4280","name":"Oftringen","shortName":"Oftringen"},"district":{"key":"1910","name":"Bezirk Zofingen"},"canton":{"key":"19","code":"AG","name":"Aargau"},"status":"Real"},{"key":"10124876","name":"Waldrain","postalCode":"4665","locality":"Oftringen","commune":{"key":"4280","name":"Oftringen","shortName":"Oftringen"},"district":{"key":"1910","name":"Bezirk Zofingen"},"canton":{"key":"19","code":"AG","name":"Aargau"},"status":"Real"},{"key":"10078462","name":"Walterswilerstrasse","postalCode":"4665","locality":"Oftringen","commune":{"key":"4280","name":"Oftringen","shortName":"Oftringen"},"district":{"key":"1910","name":"Bezirk Zofingen"},"canton":{"key":"19","code":"AG","name":"Aargau"},"status":"Real"},{"key":"10037641","name":"Wartburgstrasse","postalCode":"4665","locality":"Oftringen","commune":{"key":"4280","name":"Oftringen","shortName":"Oftringen"},"district":{"key":"1910","name":"Bezirk Zofingen"},"canton":{"key":"19","code":"AG","name":"Aargau"},"status":"Real"},{"key":"10094403","name":"Weichlerrain","postalCode":"4665","locality":"Oftringen","commune":{"key":"4280","name":"Oftringen","shortName":"Oftringen"},"district":{"key":"1910","name":"Bezirk Zofingen"},"canton":{"key":"19","code":"AG","name":"Aargau"},"status":"Real"},{"key":"10037642","name":"Weichlerweg","postalCode":"4665","locality":"Oftringen","commune":{"key":"4280","name":"Oftringen","shortName":"Oftringen"},"district":{"key":"1910","name":"Bezirk Zofingen"},"canton":{"key":"19","code":"AG","name":"Aargau"},"status":"Real"},{"key":"10037643","name":"Weidenweg","postalCode":"4665","locality":"Oftringen","commune":{"key":"4280","name":"Oftringen","shortName":"Oftringen"},"district":{"key":"1910","name":"Bezirk Zofingen"},"canton":{"key":"19","code":"AG","name":"Aargau"},"status":"Real"},{"key":"10111115","name":"Weissbergstrasse","postalCode":"4665","locality":"Oftringen","commune":{"key":"4280","name":"Oftringen","shortName":"Oftringen"},"district":{"key":"1910","name":"Bezirk Zofingen"},"canton":{"key":"19","code":"AG","name":"Aargau"},"status":"Real"},{"key":"10111233","name":"Weststrasse","postalCode":"4665","locality":"Oftringen","commune":{"key":"4280","name":"Oftringen","shortName":"Oftringen"},"district":{"key":"1910","name":"Bezirk Zofingen"},"canton":{"key":"19","code":"AG","name":"Aargau"},"status":"Real"},{"key":"10094404","name":"Wiesenstrasse","postalCode":"4665","locality":"Oftringen","commune":{"key":"4280","name":"Oftringen","shortName":"Oftringen"},"district":{"key":"1910","name":"Bezirk Zofingen"},"canton":{"key":"19","code":"AG","name":"Aargau"},"status":"Real"},{"key":"10223086","name":"Wiggermatte","postalCode":"4665","locality":"Oftringen","commune":{"key":"4280","name":"Oftringen","shortName":"Oftringen"},"district":{"key":"1910","name":"Bezirk Zofingen"},"canton":{"key":"19","code":"AG","name":"Aargau"},"status":"Real"},{"key":"10223085","name":"Wiggertalstrasse","postalCode":"4665","locality":"Oftringen","commune":{"key":"4280","name":"Oftringen","shortName":"Oftringen"},"district":{"key":"1910","name":"Bezirk Zofingen"},"canton":{"key":"19","code":"AG","name":"Aargau"},"status":"Real"},{"key":"10037644","name":"Wiggerweg","postalCode":"4665","locality":"Oftringen","commune":{"key":"4280","name":"Oftringen","shortName":"Oftringen"},"district":{"key":"1910","name":"Bezirk Zofingen"},"canton":{"key":"19","code":"AG","name":"Aargau"},"status":"Real"},{"key":"10107577","name":"Winkelstrasse","postalCode":"4665","locality":"Oftringen","commune":{"key":"4280","name":"Oftringen","shortName":"Oftringen"},"district":{"key":"1910","name":"Bezirk Zofingen"},"canton":{"key":"19","code":"AG","name":"Aargau"},"status":"Real"},{"key":"10145892","name":"Winterhaldenstrasse","postalCode":"4665","locality":"Oftringen","commune":{"key":"4280","name":"Oftringen","shortName":"Oftringen"},"district":{"key":"1910","name":"Bezirk Zofingen"},"canton":{"key":"19","code":"AG","name":"Aargau"},"status":"Real"},{"key":"10094405","name":"Wirtshüslistrasse","postalCode":"4665","locality":"Oftringen","commune":{"key":"4280","name":"Oftringen","shortName":"Oftringen"},"district":{"key":"1910","name":"Bezirk Zofingen"},"canton":{"key":"19","code":"AG","name":"Aargau"},"status":"Real"},{"key":"10173479","name":"Wolfbachblick","postalCode":"4665","locality":"Oftringen","commune":{"key":"4280","name":"Oftringen","shortName":"Oftringen"},"district":{"key":"1910","name":"Bezirk Zofingen"},"canton":{"key":"19","code":"AG","name":"Aargau"},"status":"Real"},{"key":"10053849","name":"Wolfbachring","postalCode":"4665","locality":"Oftringen","commune":{"key":"4280","name":"Oftringen","shortName":"Oftringen"},"district":{"key":"1910","name":"Bezirk Zofingen"},"canton":{"key":"19","code":"AG","name":"Aargau"},"status":"Real"},{"key":"10109222","name":"Wolfbachstrasse","postalCode":"4665","locality":"Oftringen","commune":{"key":"4280","name":"Oftringen","shortName":"Oftringen"},"district":{"key":"1910","name":"Bezirk Zofingen"},"canton":{"key":"19","code":"AG","name":"Aargau"},"status":"Real"},{"key":"10145890","name":"Zimmereiweg","postalCode":"4665","locality":"Oftringen","commune":{"key":"4280","name":"Oftringen","shortName":"Oftringen"},"district":{"key":"1910","name":"Bezirk Zofingen"},"canton":{"key":"19","code":"AG","name":"Aargau"},"status":"Real"},{"key":"10189459","name":"Zofingerstrasse","postalCode":"4665","locality":"Oftringen","commune":{"key":"4280","name":"Oftringen","shortName":"Oftringen"},"district":{"key":"1910","name":"Bezirk Zofingen"},"canton":{"key":"19","code":"AG","name":"Aargau"},"status":"Real"},{"key":"10037645","name":"Zürichstrasse","postalCode":"4665","locality":"Oftringen","commune":{"key":"4280","name":"Oftringen","shortName":"Oftringen"},"district":{"key":"1910","name":"Bezirk Zofingen"},"canton":{"key":"19","code":"AG","name":"Aargau"},"status":"Real"},]