[{"key":"10016366","name":"Absyte","postalCode":"2540","locality":"Grenchen","commune":{"key":"2546","name":"Grenchen","shortName":"Grenchen"},"district":{"key":"1107","name":"Bezirk Lebern"},"canton":{"key":"11","code":"SO","name":"Solothurn"},"status":"Real"},{"key":"10103755","name":"Adolf Furrer-Strasse","postalCode":"2540","locality":"Grenchen","commune":{"key":"2546","name":"Grenchen","shortName":"Grenchen"},"district":{"key":"1107","name":"Bezirk Lebern"},"canton":{"key":"11","code":"SO","name":"Solothurn"},"status":"Real"},{"key":"10176091","name":"Alemannenweg","postalCode":"2540","locality":"Grenchen","commune":{"key":"2546","name":"Grenchen","shortName":"Grenchen"},"district":{"key":"1107","name":"Bezirk Lebern"},"canton":{"key":"11","code":"SO","name":"Solothurn"},"status":"Real"},{"key":"10181851","name":"Allerheiligenstrasse","postalCode":"2540","locality":"Grenchen","commune":{"key":"2546","name":"Grenchen","shortName":"Grenchen"},"district":{"key":"1107","name":"Bezirk Lebern"},"canton":{"key":"11","code":"SO","name":"Solothurn"},"status":"Real"},{"key":"10016367","name":"Allmendstrasse","postalCode":"2540","locality":"Grenchen","commune":{"key":"2546","name":"Grenchen","shortName":"Grenchen"},"district":{"key":"1107","name":"Bezirk Lebern"},"canton":{"key":"11","code":"SO","name":"Solothurn"},"status":"Real"},{"key":"10214138","name":"Allmendweg","postalCode":"2540","locality":"Grenchen","commune":{"key":"2546","name":"Grenchen","shortName":"Grenchen"},"district":{"key":"1107","name":"Bezirk Lebern"},"canton":{"key":"11","code":"SO","name":"Solothurn"},"status":"Real"},{"key":"10089565","name":"Alpenstrasse","postalCode":"2540","locality":"Grenchen","commune":{"key":"2546","name":"Grenchen","shortName":"Grenchen"},"district":{"key":"1107","name":"Bezirk Lebern"},"canton":{"key":"11","code":"SO","name":"Solothurn"},"status":"Real"},{"key":"10214141","name":"Alter Rotflueweg","postalCode":"2540","locality":"Grenchen","commune":{"key":"2546","name":"Grenchen","shortName":"Grenchen"},"district":{"key":"1107","name":"Bezirk Lebern"},"canton":{"key":"11","code":"SO","name":"Solothurn"},"status":"Real"},{"key":"10016368","name":"Altweg","postalCode":"2540","locality":"Grenchen","commune":{"key":"2546","name":"Grenchen","shortName":"Grenchen"},"district":{"key":"1107","name":"Bezirk Lebern"},"canton":{"key":"11","code":"SO","name":"Solothurn"},"status":"Real"},{"key":"10016369","name":"Am Weinberg","postalCode":"2540","locality":"Grenchen","commune":{"key":"2546","name":"Grenchen","shortName":"Grenchen"},"district":{"key":"1107","name":"Bezirk Lebern"},"canton":{"key":"11","code":"SO","name":"Solothurn"},"status":"Real"},{"key":"10066468","name":"Ankerstrasse","postalCode":"2540","locality":"Grenchen","commune":{"key":"2546","name":"Grenchen","shortName":"Grenchen"},"district":{"key":"1107","name":"Bezirk Lebern"},"canton":{"key":"11","code":"SO","name":"Solothurn"},"status":"Real"},{"key":"10137908","name":"Archmattenweg","postalCode":"2540","locality":"Grenchen","commune":{"key":"2546","name":"Grenchen","shortName":"Grenchen"},"district":{"key":"1107","name":"Bezirk Lebern"},"canton":{"key":"11","code":"SO","name":"Solothurn"},"status":"Real"},{"key":"10016370","name":"Archstrasse","postalCode":"2540","locality":"Grenchen","commune":{"key":"2546","name":"Grenchen","shortName":"Grenchen"},"district":{"key":"1107","name":"Bezirk Lebern"},"canton":{"key":"11","code":"SO","name":"Solothurn"},"status":"Real"},{"key":"10077450","name":"Arnold Baumgartner-Strasse","postalCode":"2540","locality":"Grenchen","commune":{"key":"2546","name":"Grenchen","shortName":"Grenchen"},"district":{"key":"1107","name":"Bezirk Lebern"},"canton":{"key":"11","code":"SO","name":"Solothurn"},"status":"Real"},{"key":"10016371","name":"Austrasse","postalCode":"2540","locality":"Grenchen","commune":{"key":"2546","name":"Grenchen","shortName":"Grenchen"},"district":{"key":"1107","name":"Bezirk Lebern"},"canton":{"key":"11","code":"SO","name":"Solothurn"},"status":"Real"},{"key":"10242656","name":"Autobahn A5","postalCode":"2540","locality":"Grenchen","commune":{"key":"2546","name":"Grenchen","shortName":"Grenchen"},"district":{"key":"1107","name":"Bezirk Lebern"},"canton":{"key":"11","code":"SO","name":"Solothurn"},"status":"Real"},{"key":"10089566","name":"Bachstrasse","postalCode":"2540","locality":"Grenchen","commune":{"key":"2546","name":"Grenchen","shortName":"Grenchen"},"district":{"key":"1107","name":"Bezirk Lebern"},"canton":{"key":"11","code":"SO","name":"Solothurn"},"status":"Real"},{"key":"10066469","name":"Bachtelenrain","postalCode":"2540","locality":"Grenchen","commune":{"key":"2546","name":"Grenchen","shortName":"Grenchen"},"district":{"key":"1107","name":"Bezirk Lebern"},"canton":{"key":"11","code":"SO","name":"Solothurn"},"status":"Real"},{"key":"10183597","name":"Bachtelenstrasse","postalCode":"2540","locality":"Grenchen","commune":{"key":"2546","name":"Grenchen","shortName":"Grenchen"},"district":{"key":"1107","name":"Bezirk Lebern"},"canton":{"key":"11","code":"SO","name":"Solothurn"},"status":"Real"},{"key":"10111361","name":"Bahnhofstrasse","postalCode":"2540","locality":"Grenchen","commune":{"key":"2546","name":"Grenchen","shortName":"Grenchen"},"district":{"key":"1107","name":"Bezirk Lebern"},"canton":{"key":"11","code":"SO","name":"Solothurn"},"status":"Real"},{"key":"10214145","name":"Banneggweg","postalCode":"2540","locality":"Grenchen","commune":{"key":"2546","name":"Grenchen","shortName":"Grenchen"},"district":{"key":"1107","name":"Bezirk Lebern"},"canton":{"key":"11","code":"SO","name":"Solothurn"},"status":"Real"},{"key":"10214149","name":"Bannstrasse","postalCode":"2540","locality":"Grenchen","commune":{"key":"2546","name":"Grenchen","shortName":"Grenchen"},"district":{"key":"1107","name":"Bezirk Lebern"},"canton":{"key":"11","code":"SO","name":"Solothurn"},"status":"Real"},{"key":"10214152","name":"Basisweg","postalCode":"2540","locality":"Grenchen","commune":{"key":"2546","name":"Grenchen","shortName":"Grenchen"},"district":{"key":"1107","name":"Bezirk Lebern"},"canton":{"key":"11","code":"SO","name":"Solothurn"},"status":"Real"},{"key":"10089567","name":"Baumgartenstrasse","postalCode":"2540","locality":"Grenchen","commune":{"key":"2546","name":"Grenchen","shortName":"Grenchen"},"district":{"key":"1107","name":"Bezirk Lebern"},"canton":{"key":"11","code":"SO","name":"Solothurn"},"status":"Real"},{"key":"10016372","name":"Bellevuestrasse","postalCode":"2540","locality":"Grenchen","commune":{"key":"2546","name":"Grenchen","shortName":"Grenchen"},"district":{"key":"1107","name":"Bezirk Lebern"},"canton":{"key":"11","code":"SO","name":"Solothurn"},"status":"Real"},{"key":"10066470","name":"Bergstrasse","postalCode":"2540","locality":"Grenchen","commune":{"key":"2546","name":"Grenchen","shortName":"Grenchen"},"district":{"key":"1107","name":"Bezirk Lebern"},"canton":{"key":"11","code":"SO","name":"Solothurn"},"status":"Real"},{"key":"10214155","name":"Bernerwegli","postalCode":"2540","locality":"Grenchen","commune":{"key":"2546","name":"Grenchen","shortName":"Grenchen"},"district":{"key":"1107","name":"Bezirk Lebern"},"canton":{"key":"11","code":"SO","name":"Solothurn"},"status":"Real"},{"key":"10016373","name":"Berthastrasse","postalCode":"2540","locality":"Grenchen","commune":{"key":"2546","name":"Grenchen","shortName":"Grenchen"},"district":{"key":"1107","name":"Bezirk Lebern"},"canton":{"key":"11","code":"SO","name":"Solothurn"},"status":"Real"},{"key":"10089568","name":"Bettlachstrasse","postalCode":"2540","locality":"Grenchen","commune":{"key":"2546","name":"Grenchen","shortName":"Grenchen"},"district":{"key":"1107","name":"Bezirk Lebern"},"canton":{"key":"11","code":"SO","name":"Solothurn"},"status":"Real"},{"key":"10016374","name":"Bielstrasse","postalCode":"2540","locality":"Grenchen","commune":{"key":"2546","name":"Grenchen","shortName":"Grenchen"},"district":{"key":"1107","name":"Bezirk Lebern"},"canton":{"key":"11","code":"SO","name":"Solothurn"},"status":"Real"},{"key":"10016375","name":"Blumenrainstrasse","postalCode":"2540","locality":"Grenchen","commune":{"key":"2546","name":"Grenchen","shortName":"Grenchen"},"district":{"key":"1107","name":"Bezirk Lebern"},"canton":{"key":"11","code":"SO","name":"Solothurn"},"status":"Real"},{"key":"10181233","name":"Bodenrain","postalCode":"2540","locality":"Grenchen","commune":{"key":"2546","name":"Grenchen","shortName":"Grenchen"},"district":{"key":"1107","name":"Bezirk Lebern"},"canton":{"key":"11","code":"SO","name":"Solothurn"},"status":"Real"},{"key":"10016376","name":"Breidensteinweg","postalCode":"2540","locality":"Grenchen","commune":{"key":"2546","name":"Grenchen","shortName":"Grenchen"},"district":{"key":"1107","name":"Bezirk Lebern"},"canton":{"key":"11","code":"SO","name":"Solothurn"},"status":"Real"},{"key":"10089569","name":"Breitengasse","postalCode":"2540","locality":"Grenchen","commune":{"key":"2546","name":"Grenchen","shortName":"Grenchen"},"district":{"key":"1107","name":"Bezirk Lebern"},"canton":{"key":"11","code":"SO","name":"Solothurn"},"status":"Real"},{"key":"10066471","name":"Brühlstrasse","postalCode":"2540","locality":"Grenchen","commune":{"key":"2546","name":"Grenchen","shortName":"Grenchen"},"district":{"key":"1107","name":"Bezirk Lebern"},"canton":{"key":"11","code":"SO","name":"Solothurn"},"status":"Real"},{"key":"10214161","name":"Brünnliskopfweg","postalCode":"2540","locality":"Grenchen","commune":{"key":"2546","name":"Grenchen","shortName":"Grenchen"},"district":{"key":"1107","name":"Bezirk Lebern"},"canton":{"key":"11","code":"SO","name":"Solothurn"},"status":"Real"},{"key":"10214163","name":"Brünnliweg","postalCode":"2540","locality":"Grenchen","commune":{"key":"2546","name":"Grenchen","shortName":"Grenchen"},"district":{"key":"1107","name":"Bezirk Lebern"},"canton":{"key":"11","code":"SO","name":"Solothurn"},"status":"Real"},{"key":"10016377","name":"Bucheggstrasse","postalCode":"2540","locality":"Grenchen","commune":{"key":"2546","name":"Grenchen","shortName":"Grenchen"},"district":{"key":"1107","name":"Bezirk Lebern"},"canton":{"key":"11","code":"SO","name":"Solothurn"},"status":"Real"},{"key":"10214168","name":"Büelenweg","postalCode":"2540","locality":"Grenchen","commune":{"key":"2546","name":"Grenchen","shortName":"Grenchen"},"district":{"key":"1107","name":"Bezirk Lebern"},"canton":{"key":"11","code":"SO","name":"Solothurn"},"status":"Real"},{"key":"10089570","name":"Bündengasse","postalCode":"2540","locality":"Grenchen","commune":{"key":"2546","name":"Grenchen","shortName":"Grenchen"},"district":{"key":"1107","name":"Bezirk Lebern"},"canton":{"key":"11","code":"SO","name":"Solothurn"},"status":"Real"},{"key":"10214172","name":"Bürenbergweg","postalCode":"2540","locality":"Grenchen","commune":{"key":"2546","name":"Grenchen","shortName":"Grenchen"},"district":{"key":"1107","name":"Bezirk Lebern"},"canton":{"key":"11","code":"SO","name":"Solothurn"},"status":"Real"},{"key":"10214176","name":"Bürenkopfweg","postalCode":"2540","locality":"Grenchen","commune":{"key":"2546","name":"Grenchen","shortName":"Grenchen"},"district":{"key":"1107","name":"Bezirk Lebern"},"canton":{"key":"11","code":"SO","name":"Solothurn"},"status":"Real"},{"key":"10214180","name":"Bürenstrasse","postalCode":"2540","locality":"Grenchen","commune":{"key":"2546","name":"Grenchen","shortName":"Grenchen"},"district":{"key":"1107","name":"Bezirk Lebern"},"canton":{"key":"11","code":"SO","name":"Solothurn"},"status":"Real"},{"key":"10214184","name":"Burgmattweg","postalCode":"2540","locality":"Grenchen","commune":{"key":"2546","name":"Grenchen","shortName":"Grenchen"},"district":{"key":"1107","name":"Bezirk Lebern"},"canton":{"key":"11","code":"SO","name":"Solothurn"},"status":"Real"},{"key":"10181852","name":"Burgunderweg","postalCode":"2540","locality":"Grenchen","commune":{"key":"2546","name":"Grenchen","shortName":"Grenchen"},"district":{"key":"1107","name":"Bezirk Lebern"},"canton":{"key":"11","code":"SO","name":"Solothurn"},"status":"Real"},{"key":"10016378","name":"Burgweg","postalCode":"2540","locality":"Grenchen","commune":{"key":"2546","name":"Grenchen","shortName":"Grenchen"},"district":{"key":"1107","name":"Bezirk Lebern"},"canton":{"key":"11","code":"SO","name":"Solothurn"},"status":"Real"},{"key":"10016379","name":"Calvinstrasse","postalCode":"2540","locality":"Grenchen","commune":{"key":"2546","name":"Grenchen","shortName":"Grenchen"},"district":{"key":"1107","name":"Bezirk Lebern"},"canton":{"key":"11","code":"SO","name":"Solothurn"},"status":"Real"},{"key":"10188262","name":"Centralstrasse","postalCode":"2540","locality":"Grenchen","commune":{"key":"2546","name":"Grenchen","shortName":"Grenchen"},"district":{"key":"1107","name":"Bezirk Lebern"},"canton":{"key":"11","code":"SO","name":"Solothurn"},"status":"Real"},{"key":"10214188","name":"Chaletweg","postalCode":"2540","locality":"Grenchen","commune":{"key":"2546","name":"Grenchen","shortName":"Grenchen"},"district":{"key":"1107","name":"Bezirk Lebern"},"canton":{"key":"11","code":"SO","name":"Solothurn"},"status":"Real"},{"key":"10214192","name":"Chappelikehrweg","postalCode":"2540","locality":"Grenchen","commune":{"key":"2546","name":"Grenchen","shortName":"Grenchen"},"district":{"key":"1107","name":"Bezirk Lebern"},"canton":{"key":"11","code":"SO","name":"Solothurn"},"status":"Real"},{"key":"10214737","name":"Chappeliweg","postalCode":"2540","locality":"Grenchen","commune":{"key":"2546","name":"Grenchen","shortName":"Grenchen"},"district":{"key":"1107","name":"Bezirk Lebern"},"canton":{"key":"11","code":"SO","name":"Solothurn"},"status":"Real"},{"key":"10016381","name":"Däderizstrasse","postalCode":"2540","locality":"Grenchen","commune":{"key":"2546","name":"Grenchen","shortName":"Grenchen"},"district":{"key":"1107","name":"Bezirk Lebern"},"canton":{"key":"11","code":"SO","name":"Solothurn"},"status":"Real"},{"key":"10214741","name":"Dählenbrüggli","postalCode":"2540","locality":"Grenchen","commune":{"key":"2546","name":"Grenchen","shortName":"Grenchen"},"district":{"key":"1107","name":"Bezirk Lebern"},"canton":{"key":"11","code":"SO","name":"Solothurn"},"status":"Real"},{"key":"10214746","name":"Dählenbrüggliweg","postalCode":"2540","locality":"Grenchen","commune":{"key":"2546","name":"Grenchen","shortName":"Grenchen"},"district":{"key":"1107","name":"Bezirk Lebern"},"canton":{"key":"11","code":"SO","name":"Solothurn"},"status":"Real"},{"key":"10214750","name":"Dählengrabenweg","postalCode":"2540","locality":"Grenchen","commune":{"key":"2546","name":"Grenchen","shortName":"Grenchen"},"district":{"key":"1107","name":"Bezirk Lebern"},"canton":{"key":"11","code":"SO","name":"Solothurn"},"status":"Real"},{"key":"10066472","name":"Dählenstrasse","postalCode":"2540","locality":"Grenchen","commune":{"key":"2546","name":"Grenchen","shortName":"Grenchen"},"district":{"key":"1107","name":"Bezirk Lebern"},"canton":{"key":"11","code":"SO","name":"Solothurn"},"status":"Real"},{"key":"10115318","name":"Dahlienweg","postalCode":"2540","locality":"Grenchen","commune":{"key":"2546","name":"Grenchen","shortName":"Grenchen"},"district":{"key":"1107","name":"Bezirk Lebern"},"canton":{"key":"11","code":"SO","name":"Solothurn"},"status":"Real"},{"key":"10016380","name":"Dammstrasse","postalCode":"2540","locality":"Grenchen","commune":{"key":"2546","name":"Grenchen","shortName":"Grenchen"},"district":{"key":"1107","name":"Bezirk Lebern"},"canton":{"key":"11","code":"SO","name":"Solothurn"},"status":"Real"},{"key":"10214754","name":"Ebenimattweg","postalCode":"2540","locality":"Grenchen","commune":{"key":"2546","name":"Grenchen","shortName":"Grenchen"},"district":{"key":"1107","name":"Bezirk Lebern"},"canton":{"key":"11","code":"SO","name":"Solothurn"},"status":"Real"},{"key":"10016382","name":"Eichholzweg","postalCode":"2540","locality":"Grenchen","commune":{"key":"2546","name":"Grenchen","shortName":"Grenchen"},"district":{"key":"1107","name":"Bezirk Lebern"},"canton":{"key":"11","code":"SO","name":"Solothurn"},"status":"Real"},{"key":"10016383","name":"Eigerweg","postalCode":"2540","locality":"Grenchen","commune":{"key":"2546","name":"Grenchen","shortName":"Grenchen"},"district":{"key":"1107","name":"Bezirk Lebern"},"canton":{"key":"11","code":"SO","name":"Solothurn"},"status":"Real"},{"key":"10089572","name":"Elisabeth Frei-Strasse","postalCode":"2540","locality":"Grenchen","commune":{"key":"2546","name":"Grenchen","shortName":"Grenchen"},"district":{"key":"1107","name":"Bezirk Lebern"},"canton":{"key":"11","code":"SO","name":"Solothurn"},"status":"Real"},{"key":"10016384","name":"Erlenstrasse","postalCode":"2540","locality":"Grenchen","commune":{"key":"2546","name":"Grenchen","shortName":"Grenchen"},"district":{"key":"1107","name":"Bezirk Lebern"},"canton":{"key":"11","code":"SO","name":"Solothurn"},"status":"Real"},{"key":"10214757","name":"Erzweg","postalCode":"2540","locality":"Grenchen","commune":{"key":"2546","name":"Grenchen","shortName":"Grenchen"},"district":{"key":"1107","name":"Bezirk Lebern"},"canton":{"key":"11","code":"SO","name":"Solothurn"},"status":"Real"},{"key":"10124071","name":"Eschenrain","postalCode":"2540","locality":"Grenchen","commune":{"key":"2546","name":"Grenchen","shortName":"Grenchen"},"district":{"key":"1107","name":"Bezirk Lebern"},"canton":{"key":"11","code":"SO","name":"Solothurn"},"status":"Real"},{"key":"10183598","name":"Eschenstrasse","postalCode":"2540","locality":"Grenchen","commune":{"key":"2546","name":"Grenchen","shortName":"Grenchen"},"district":{"key":"1107","name":"Bezirk Lebern"},"canton":{"key":"11","code":"SO","name":"Solothurn"},"status":"Real"},{"key":"10214761","name":"Fallernkehrweg","postalCode":"2540","locality":"Grenchen","commune":{"key":"2546","name":"Grenchen","shortName":"Grenchen"},"district":{"key":"1107","name":"Bezirk Lebern"},"canton":{"key":"11","code":"SO","name":"Solothurn"},"status":"Real"},{"key":"10214766","name":"Fallernweg","postalCode":"2540","locality":"Grenchen","commune":{"key":"2546","name":"Grenchen","shortName":"Grenchen"},"district":{"key":"1107","name":"Bezirk Lebern"},"canton":{"key":"11","code":"SO","name":"Solothurn"},"status":"Real"},{"key":"10111362","name":"Fichtenweg","postalCode":"2540","locality":"Grenchen","commune":{"key":"2546","name":"Grenchen","shortName":"Grenchen"},"district":{"key":"1107","name":"Bezirk Lebern"},"canton":{"key":"11","code":"SO","name":"Solothurn"},"status":"Real"},{"key":"10214770","name":"Firsiweg","postalCode":"2540","locality":"Grenchen","commune":{"key":"2546","name":"Grenchen","shortName":"Grenchen"},"district":{"key":"1107","name":"Bezirk Lebern"},"canton":{"key":"11","code":"SO","name":"Solothurn"},"status":"Real"},{"key":"10016385","name":"Fliederweg","postalCode":"2540","locality":"Grenchen","commune":{"key":"2546","name":"Grenchen","shortName":"Grenchen"},"district":{"key":"1107","name":"Bezirk Lebern"},"canton":{"key":"11","code":"SO","name":"Solothurn"},"status":"Real"},{"key":"10089573","name":"Florastrasse","postalCode":"2540","locality":"Grenchen","commune":{"key":"2546","name":"Grenchen","shortName":"Grenchen"},"district":{"key":"1107","name":"Bezirk Lebern"},"canton":{"key":"11","code":"SO","name":"Solothurn"},"status":"Real"},{"key":"10137907","name":"Flughafenstrasse","postalCode":"2540","locality":"Grenchen","commune":{"key":"2546","name":"Grenchen","shortName":"Grenchen"},"district":{"key":"1107","name":"Bezirk Lebern"},"canton":{"key":"11","code":"SO","name":"Solothurn"},"status":"Real"},{"key":"10181853","name":"Flurstrasse","postalCode":"2540","locality":"Grenchen","commune":{"key":"2546","name":"Grenchen","shortName":"Grenchen"},"district":{"key":"1107","name":"Bezirk Lebern"},"canton":{"key":"11","code":"SO","name":"Solothurn"},"status":"Real"},{"key":"10214774","name":"Flurweg","postalCode":"2540","locality":"Grenchen","commune":{"key":"2546","name":"Grenchen","shortName":"Grenchen"},"district":{"key":"1107","name":"Bezirk Lebern"},"canton":{"key":"11","code":"SO","name":"Solothurn"},"status":"Real"},{"key":"10016386","name":"Freiestrasse","postalCode":"2540","locality":"Grenchen","commune":{"key":"2546","name":"Grenchen","shortName":"Grenchen"},"district":{"key":"1107","name":"Bezirk Lebern"},"canton":{"key":"11","code":"SO","name":"Solothurn"},"status":"Real"},{"key":"10197554","name":"Freytagstrasse","postalCode":"2540","locality":"Grenchen","commune":{"key":"2546","name":"Grenchen","shortName":"Grenchen"},"district":{"key":"1107","name":"Bezirk Lebern"},"canton":{"key":"11","code":"SO","name":"Solothurn"},"status":"Real"},{"key":"10016387","name":"Friedensweg","postalCode":"2540","locality":"Grenchen","commune":{"key":"2546","name":"Grenchen","shortName":"Grenchen"},"district":{"key":"1107","name":"Bezirk Lebern"},"canton":{"key":"11","code":"SO","name":"Solothurn"},"status":"Real"},{"key":"10089574","name":"Friedhofstrasse","postalCode":"2540","locality":"Grenchen","commune":{"key":"2546","name":"Grenchen","shortName":"Grenchen"},"district":{"key":"1107","name":"Bezirk Lebern"},"canton":{"key":"11","code":"SO","name":"Solothurn"},"status":"Real"},{"key":"10016388","name":"Galenweg","postalCode":"2540","locality":"Grenchen","commune":{"key":"2546","name":"Grenchen","shortName":"Grenchen"},"district":{"key":"1107","name":"Bezirk Lebern"},"canton":{"key":"11","code":"SO","name":"Solothurn"},"status":"Real"},{"key":"10051294","name":"Garnbuchiweg","postalCode":"2540","locality":"Grenchen","commune":{"key":"2546","name":"Grenchen","shortName":"Grenchen"},"district":{"key":"1107","name":"Bezirk Lebern"},"canton":{"key":"11","code":"SO","name":"Solothurn"},"status":"Real"},{"key":"10103756","name":"Gartenstrasse","postalCode":"2540","locality":"Grenchen","commune":{"key":"2546","name":"Grenchen","shortName":"Grenchen"},"district":{"key":"1107","name":"Bezirk Lebern"},"canton":{"key":"11","code":"SO","name":"Solothurn"},"status":"Real"},{"key":"10020761","name":"Geranienweg","postalCode":"2540","locality":"Grenchen","commune":{"key":"2546","name":"Grenchen","shortName":"Grenchen"},"district":{"key":"1107","name":"Bezirk Lebern"},"canton":{"key":"11","code":"SO","name":"Solothurn"},"status":"Real"},{"key":"10175686","name":"Gespermoosstrasse","postalCode":"2540","locality":"Grenchen","commune":{"key":"2546","name":"Grenchen","shortName":"Grenchen"},"district":{"key":"1107","name":"Bezirk Lebern"},"canton":{"key":"11","code":"SO","name":"Solothurn"},"status":"Real"},{"key":"10020762","name":"Gibelfeldstrasse","postalCode":"2540","locality":"Grenchen","commune":{"key":"2546","name":"Grenchen","shortName":"Grenchen"},"district":{"key":"1107","name":"Bezirk Lebern"},"canton":{"key":"11","code":"SO","name":"Solothurn"},"status":"Real"},{"key":"10089575","name":"Gibelstrasse","postalCode":"2540","locality":"Grenchen","commune":{"key":"2546","name":"Grenchen","shortName":"Grenchen"},"district":{"key":"1107","name":"Bezirk Lebern"},"canton":{"key":"11","code":"SO","name":"Solothurn"},"status":"Real"},{"key":"10115319","name":"Girardstrasse","postalCode":"2540","locality":"Grenchen","commune":{"key":"2546","name":"Grenchen","shortName":"Grenchen"},"district":{"key":"1107","name":"Bezirk Lebern"},"canton":{"key":"11","code":"SO","name":"Solothurn"},"status":"Real"},{"key":"10091840","name":"Glockenweg","postalCode":"2540","locality":"Grenchen","commune":{"key":"2546","name":"Grenchen","shortName":"Grenchen"},"district":{"key":"1107","name":"Bezirk Lebern"},"canton":{"key":"11","code":"SO","name":"Solothurn"},"status":"Real"},{"key":"10116666","name":"Gotthelfweg","postalCode":"2540","locality":"Grenchen","commune":{"key":"2546","name":"Grenchen","shortName":"Grenchen"},"district":{"key":"1107","name":"Bezirk Lebern"},"canton":{"key":"11","code":"SO","name":"Solothurn"},"status":"Real"},{"key":"10020763","name":"Grenzweg","postalCode":"2540","locality":"Grenchen","commune":{"key":"2546","name":"Grenchen","shortName":"Grenchen"},"district":{"key":"1107","name":"Bezirk Lebern"},"canton":{"key":"11","code":"SO","name":"Solothurn"},"status":"Real"},{"key":"10214778","name":"Grosskehrweg","postalCode":"2540","locality":"Grenchen","commune":{"key":"2546","name":"Grenchen","shortName":"Grenchen"},"district":{"key":"1107","name":"Bezirk Lebern"},"canton":{"key":"11","code":"SO","name":"Solothurn"},"status":"Real"},{"key":"10051295","name":"Grotweg","postalCode":"2540","locality":"Grenchen","commune":{"key":"2546","name":"Grenchen","shortName":"Grenchen"},"district":{"key":"1107","name":"Bezirk Lebern"},"canton":{"key":"11","code":"SO","name":"Solothurn"},"status":"Real"},{"key":"10181854","name":"Grubenweg","postalCode":"2540","locality":"Grenchen","commune":{"key":"2546","name":"Grenchen","shortName":"Grenchen"},"district":{"key":"1107","name":"Bezirk Lebern"},"canton":{"key":"11","code":"SO","name":"Solothurn"},"status":"Real"},{"key":"10089576","name":"Guglerweg","postalCode":"2540","locality":"Grenchen","commune":{"key":"2546","name":"Grenchen","shortName":"Grenchen"},"district":{"key":"1107","name":"Bezirk Lebern"},"canton":{"key":"11","code":"SO","name":"Solothurn"},"status":"Real"},{"key":"10051296","name":"Gummenweg","postalCode":"2540","locality":"Grenchen","commune":{"key":"2546","name":"Grenchen","shortName":"Grenchen"},"district":{"key":"1107","name":"Bezirk Lebern"},"canton":{"key":"11","code":"SO","name":"Solothurn"},"status":"Real"},{"key":"10020764","name":"Güterstrasse","postalCode":"2540","locality":"Grenchen","commune":{"key":"2546","name":"Grenchen","shortName":"Grenchen"},"district":{"key":"1107","name":"Bezirk Lebern"},"canton":{"key":"11","code":"SO","name":"Solothurn"},"status":"Real"},{"key":"10066474","name":"Hagstrasse","postalCode":"2540","locality":"Grenchen","commune":{"key":"2546","name":"Grenchen","shortName":"Grenchen"},"district":{"key":"1107","name":"Bezirk Lebern"},"canton":{"key":"11","code":"SO","name":"Solothurn"},"status":"Real"},{"key":"10187912","name":"Haldensteig","postalCode":"2540","locality":"Grenchen","commune":{"key":"2546","name":"Grenchen","shortName":"Grenchen"},"district":{"key":"1107","name":"Bezirk Lebern"},"canton":{"key":"11","code":"SO","name":"Solothurn"},"status":"Real"},{"key":"10051297","name":"Haldenstrasse","postalCode":"2540","locality":"Grenchen","commune":{"key":"2546","name":"Grenchen","shortName":"Grenchen"},"district":{"key":"1107","name":"Bezirk Lebern"},"canton":{"key":"11","code":"SO","name":"Solothurn"},"status":"Real"},{"key":"10020765","name":"Hasenmattstrasse","postalCode":"2540","locality":"Grenchen","commune":{"key":"2546","name":"Grenchen","shortName":"Grenchen"},"district":{"key":"1107","name":"Bezirk Lebern"},"canton":{"key":"11","code":"SO","name":"Solothurn"},"status":"Real"},{"key":"10020766","name":"Herderweg","postalCode":"2540","locality":"Grenchen","commune":{"key":"2546","name":"Grenchen","shortName":"Grenchen"},"district":{"key":"1107","name":"Bezirk Lebern"},"canton":{"key":"11","code":"SO","name":"Solothurn"},"status":"Real"},{"key":"10051298","name":"Hessostrasse","postalCode":"2540","locality":"Grenchen","commune":{"key":"2546","name":"Grenchen","shortName":"Grenchen"},"district":{"key":"1107","name":"Bezirk Lebern"},"canton":{"key":"11","code":"SO","name":"Solothurn"},"status":"Real"},{"key":"10191259","name":"Heuweg","postalCode":"2540","locality":"Grenchen","commune":{"key":"2546","name":"Grenchen","shortName":"Grenchen"},"district":{"key":"1107","name":"Bezirk Lebern"},"canton":{"key":"11","code":"SO","name":"Solothurn"},"status":"Real"},{"key":"10214781","name":"Hinter Egg-Weg","postalCode":"2540","locality":"Grenchen","commune":{"key":"2546","name":"Grenchen","shortName":"Grenchen"},"district":{"key":"1107","name":"Bezirk Lebern"},"canton":{"key":"11","code":"SO","name":"Solothurn"},"status":"Real"},{"key":"10111363","name":"Hirtenweg","postalCode":"2540","locality":"Grenchen","commune":{"key":"2546","name":"Grenchen","shortName":"Grenchen"},"district":{"key":"1107","name":"Bezirk Lebern"},"canton":{"key":"11","code":"SO","name":"Solothurn"},"status":"Real"},{"key":"10214785","name":"Hofackerweg","postalCode":"2540","locality":"Grenchen","commune":{"key":"2546","name":"Grenchen","shortName":"Grenchen"},"district":{"key":"1107","name":"Bezirk Lebern"},"canton":{"key":"11","code":"SO","name":"Solothurn"},"status":"Real"},{"key":"10186504","name":"Hofweg","postalCode":"2540","locality":"Grenchen","commune":{"key":"2546","name":"Grenchen","shortName":"Grenchen"},"district":{"key":"1107","name":"Bezirk Lebern"},"canton":{"key":"11","code":"SO","name":"Solothurn"},"status":"Real"},{"key":"10091841","name":"Höhenweg","postalCode":"2540","locality":"Grenchen","commune":{"key":"2546","name":"Grenchen","shortName":"Grenchen"},"district":{"key":"1107","name":"Bezirk Lebern"},"canton":{"key":"11","code":"SO","name":"Solothurn"},"status":"Real"},{"key":"10187778","name":"Hohlenstrasse","postalCode":"2540","locality":"Grenchen","commune":{"key":"2546","name":"Grenchen","shortName":"Grenchen"},"district":{"key":"1107","name":"Bezirk Lebern"},"canton":{"key":"11","code":"SO","name":"Solothurn"},"status":"Real"},{"key":"10197094","name":"Hornusserweg","postalCode":"2540","locality":"Grenchen","commune":{"key":"2546","name":"Grenchen","shortName":"Grenchen"},"district":{"key":"1107","name":"Bezirk Lebern"},"canton":{"key":"11","code":"SO","name":"Solothurn"},"status":"Real"},{"key":"10183599","name":"Hubelweg","postalCode":"2540","locality":"Grenchen","commune":{"key":"2546","name":"Grenchen","shortName":"Grenchen"},"district":{"key":"1107","name":"Bezirk Lebern"},"canton":{"key":"11","code":"SO","name":"Solothurn"},"status":"Real"},{"key":"10089577","name":"Hundsacker","postalCode":"2540","locality":"Grenchen","commune":{"key":"2546","name":"Grenchen","shortName":"Grenchen"},"district":{"key":"1107","name":"Bezirk Lebern"},"canton":{"key":"11","code":"SO","name":"Solothurn"},"status":"Real"},{"key":"10020767","name":"Ilgenstrasse","postalCode":"2540","locality":"Grenchen","commune":{"key":"2546","name":"Grenchen","shortName":"Grenchen"},"district":{"key":"1107","name":"Bezirk Lebern"},"canton":{"key":"11","code":"SO","name":"Solothurn"},"status":"Real"},{"key":"10020768","name":"Im Breitholz","postalCode":"2540","locality":"Grenchen","commune":{"key":"2546","name":"Grenchen","shortName":"Grenchen"},"district":{"key":"1107","name":"Bezirk Lebern"},"canton":{"key":"11","code":"SO","name":"Solothurn"},"status":"Real"},{"key":"10066475","name":"Im Kornfeld","postalCode":"2540","locality":"Grenchen","commune":{"key":"2546","name":"Grenchen","shortName":"Grenchen"},"district":{"key":"1107","name":"Bezirk Lebern"},"canton":{"key":"11","code":"SO","name":"Solothurn"},"status":"Real"},{"key":"10159009","name":"Im Mösli","postalCode":"2540","locality":"Grenchen","commune":{"key":"2546","name":"Grenchen","shortName":"Grenchen"},"district":{"key":"1107","name":"Bezirk Lebern"},"canton":{"key":"11","code":"SO","name":"Solothurn"},"status":"Real"},{"key":"10214790","name":"In den Stauden","postalCode":"2540","locality":"Grenchen","commune":{"key":"2546","name":"Grenchen","shortName":"Grenchen"},"district":{"key":"1107","name":"Bezirk Lebern"},"canton":{"key":"11","code":"SO","name":"Solothurn"},"status":"Real"},{"key":"10214793","name":"Ittenbergweg","postalCode":"2540","locality":"Grenchen","commune":{"key":"2546","name":"Grenchen","shortName":"Grenchen"},"district":{"key":"1107","name":"Bezirk Lebern"},"canton":{"key":"11","code":"SO","name":"Solothurn"},"status":"Real"},{"key":"10214797","name":"Jeansbodenweg","postalCode":"2540","locality":"Grenchen","commune":{"key":"2546","name":"Grenchen","shortName":"Grenchen"},"district":{"key":"1107","name":"Bezirk Lebern"},"canton":{"key":"11","code":"SO","name":"Solothurn"},"status":"Real"},{"key":"10256609","name":"John Harwood-Strasse","postalCode":"2540","locality":"Grenchen","commune":{"key":"2546","name":"Grenchen","shortName":"Grenchen"},"district":{"key":"1107","name":"Bezirk Lebern"},"canton":{"key":"11","code":"SO","name":"Solothurn"},"status":"Real"},{"key":"10107045","name":"Jungfrauweg","postalCode":"2540","locality":"Grenchen","commune":{"key":"2546","name":"Grenchen","shortName":"Grenchen"},"district":{"key":"1107","name":"Bezirk Lebern"},"canton":{"key":"11","code":"SO","name":"Solothurn"},"status":"Real"},{"key":"10020769","name":"Jurastrasse","postalCode":"2540","locality":"Grenchen","commune":{"key":"2546","name":"Grenchen","shortName":"Grenchen"},"district":{"key":"1107","name":"Bezirk Lebern"},"canton":{"key":"11","code":"SO","name":"Solothurn"},"status":"Real"},{"key":"10089578","name":"Kapellstrasse","postalCode":"2540","locality":"Grenchen","commune":{"key":"2546","name":"Grenchen","shortName":"Grenchen"},"district":{"key":"1107","name":"Bezirk Lebern"},"canton":{"key":"11","code":"SO","name":"Solothurn"},"status":"Real"},{"key":"10020770","name":"Karl Mathy-Strasse","postalCode":"2540","locality":"Grenchen","commune":{"key":"2546","name":"Grenchen","shortName":"Grenchen"},"district":{"key":"1107","name":"Bezirk Lebern"},"canton":{"key":"11","code":"SO","name":"Solothurn"},"status":"Real"},{"key":"10190064","name":"Kastelsstrasse","postalCode":"2540","locality":"Grenchen","commune":{"key":"2546","name":"Grenchen","shortName":"Grenchen"},"district":{"key":"1107","name":"Bezirk Lebern"},"canton":{"key":"11","code":"SO","name":"Solothurn"},"status":"Real"},{"key":"10066476","name":"Keltenweg","postalCode":"2540","locality":"Grenchen","commune":{"key":"2546","name":"Grenchen","shortName":"Grenchen"},"district":{"key":"1107","name":"Bezirk Lebern"},"canton":{"key":"11","code":"SO","name":"Solothurn"},"status":"Real"},{"key":"10214803","name":"Kiebitzweg","postalCode":"2540","locality":"Grenchen","commune":{"key":"2546","name":"Grenchen","shortName":"Grenchen"},"district":{"key":"1107","name":"Bezirk Lebern"},"canton":{"key":"11","code":"SO","name":"Solothurn"},"status":"Real"},{"key":"10020771","name":"Kirchstrasse","postalCode":"2540","locality":"Grenchen","commune":{"key":"2546","name":"Grenchen","shortName":"Grenchen"},"district":{"key":"1107","name":"Bezirk Lebern"},"canton":{"key":"11","code":"SO","name":"Solothurn"},"status":"Real"},{"key":"10214808","name":"Lachenweg","postalCode":"2540","locality":"Grenchen","commune":{"key":"2546","name":"Grenchen","shortName":"Grenchen"},"district":{"key":"1107","name":"Bezirk Lebern"},"canton":{"key":"11","code":"SO","name":"Solothurn"},"status":"Real"},{"key":"10051299","name":"Langhagstrasse","postalCode":"2540","locality":"Grenchen","commune":{"key":"2546","name":"Grenchen","shortName":"Grenchen"},"district":{"key":"1107","name":"Bezirk Lebern"},"canton":{"key":"11","code":"SO","name":"Solothurn"},"status":"Real"},{"key":"10214812","name":"Längschwandstrasse","postalCode":"2540","locality":"Grenchen","commune":{"key":"2546","name":"Grenchen","shortName":"Grenchen"},"district":{"key":"1107","name":"Bezirk Lebern"},"canton":{"key":"11","code":"SO","name":"Solothurn"},"status":"Real"},{"key":"10089579","name":"Lebernstrasse","postalCode":"2540","locality":"Grenchen","commune":{"key":"2546","name":"Grenchen","shortName":"Grenchen"},"district":{"key":"1107","name":"Bezirk Lebern"},"canton":{"key":"11","code":"SO","name":"Solothurn"},"status":"Real"},{"key":"10181855","name":"Leimenstrasse","postalCode":"2540","locality":"Grenchen","commune":{"key":"2546","name":"Grenchen","shortName":"Grenchen"},"district":{"key":"1107","name":"Bezirk Lebern"},"canton":{"key":"11","code":"SO","name":"Solothurn"},"status":"Real"},{"key":"10020772","name":"Lengnaustrasse","postalCode":"2540","locality":"Grenchen","commune":{"key":"2546","name":"Grenchen","shortName":"Grenchen"},"district":{"key":"1107","name":"Bezirk Lebern"},"canton":{"key":"11","code":"SO","name":"Solothurn"},"status":"Real"},{"key":"10243127","name":"Léon Breitling-Strasse","postalCode":"2540","locality":"Grenchen","commune":{"key":"2546","name":"Grenchen","shortName":"Grenchen"},"district":{"key":"1107","name":"Bezirk Lebern"},"canton":{"key":"11","code":"SO","name":"Solothurn"},"status":"Real"},{"key":"10092110","name":"Lerchenweg","postalCode":"2540","locality":"Grenchen","commune":{"key":"2546","name":"Grenchen","shortName":"Grenchen"},"district":{"key":"1107","name":"Bezirk Lebern"},"canton":{"key":"11","code":"SO","name":"Solothurn"},"status":"Real"},{"key":"10067603","name":"Leuzigenstrasse","postalCode":"2540","locality":"Grenchen","commune":{"key":"2546","name":"Grenchen","shortName":"Grenchen"},"district":{"key":"1107","name":"Bezirk Lebern"},"canton":{"key":"11","code":"SO","name":"Solothurn"},"status":"Real"},{"key":"10089580","name":"Lindenstrasse","postalCode":"2540","locality":"Grenchen","commune":{"key":"2546","name":"Grenchen","shortName":"Grenchen"},"district":{"key":"1107","name":"Bezirk Lebern"},"canton":{"key":"11","code":"SO","name":"Solothurn"},"status":"Real"},{"key":"10051300","name":"Lingerizstrasse","postalCode":"2540","locality":"Grenchen","commune":{"key":"2546","name":"Grenchen","shortName":"Grenchen"},"district":{"key":"1107","name":"Bezirk Lebern"},"canton":{"key":"11","code":"SO","name":"Solothurn"},"status":"Real"},{"key":"10121131","name":"Lötschbergweg","postalCode":"2540","locality":"Grenchen","commune":{"key":"2546","name":"Grenchen","shortName":"Grenchen"},"district":{"key":"1107","name":"Bezirk Lebern"},"canton":{"key":"11","code":"SO","name":"Solothurn"},"status":"Real"},{"key":"10115320","name":"Maienstrasse","postalCode":"2540","locality":"Grenchen","commune":{"key":"2546","name":"Grenchen","shortName":"Grenchen"},"district":{"key":"1107","name":"Bezirk Lebern"},"canton":{"key":"11","code":"SO","name":"Solothurn"},"status":"Real"},{"key":"10051301","name":"Maria Schürer-Strasse","postalCode":"2540","locality":"Grenchen","commune":{"key":"2546","name":"Grenchen","shortName":"Grenchen"},"district":{"key":"1107","name":"Bezirk Lebern"},"canton":{"key":"11","code":"SO","name":"Solothurn"},"status":"Real"},{"key":"10183600","name":"Marktplatz","postalCode":"2540","locality":"Grenchen","commune":{"key":"2546","name":"Grenchen","shortName":"Grenchen"},"district":{"key":"1107","name":"Bezirk Lebern"},"canton":{"key":"11","code":"SO","name":"Solothurn"},"status":"Real"},{"key":"10089581","name":"Marktstrasse","postalCode":"2540","locality":"Grenchen","commune":{"key":"2546","name":"Grenchen","shortName":"Grenchen"},"district":{"key":"1107","name":"Bezirk Lebern"},"canton":{"key":"11","code":"SO","name":"Solothurn"},"status":"Real"},{"key":"10137909","name":"Mattenhofweg","postalCode":"2540","locality":"Grenchen","commune":{"key":"2546","name":"Grenchen","shortName":"Grenchen"},"district":{"key":"1107","name":"Bezirk Lebern"},"canton":{"key":"11","code":"SO","name":"Solothurn"},"status":"Real"},{"key":"10067604","name":"Mattenstrasse","postalCode":"2540","locality":"Grenchen","commune":{"key":"2546","name":"Grenchen","shortName":"Grenchen"},"district":{"key":"1107","name":"Bezirk Lebern"},"canton":{"key":"11","code":"SO","name":"Solothurn"},"status":"Real"},{"key":"10020773","name":"Mazzinistrasse","postalCode":"2540","locality":"Grenchen","commune":{"key":"2546","name":"Grenchen","shortName":"Grenchen"},"district":{"key":"1107","name":"Bezirk Lebern"},"canton":{"key":"11","code":"SO","name":"Solothurn"},"status":"Real"},{"key":"10129792","name":"Meisenstrasse","postalCode":"2540","locality":"Grenchen","commune":{"key":"2546","name":"Grenchen","shortName":"Grenchen"},"district":{"key":"1107","name":"Bezirk Lebern"},"canton":{"key":"11","code":"SO","name":"Solothurn"},"status":"Real"},{"key":"10051302","name":"Molerweg","postalCode":"2540","locality":"Grenchen","commune":{"key":"2546","name":"Grenchen","shortName":"Grenchen"},"district":{"key":"1107","name":"Bezirk Lebern"},"canton":{"key":"11","code":"SO","name":"Solothurn"},"status":"Real"},{"key":"10020774","name":"Moosrain","postalCode":"2540","locality":"Grenchen","commune":{"key":"2546","name":"Grenchen","shortName":"Grenchen"},"district":{"key":"1107","name":"Bezirk Lebern"},"canton":{"key":"11","code":"SO","name":"Solothurn"},"status":"Real"},{"key":"10089582","name":"Moosstrasse","postalCode":"2540","locality":"Grenchen","commune":{"key":"2546","name":"Grenchen","shortName":"Grenchen"},"district":{"key":"1107","name":"Bezirk Lebern"},"canton":{"key":"11","code":"SO","name":"Solothurn"},"status":"Real"},{"key":"10067605","name":"Mühlestrasse","postalCode":"2540","locality":"Grenchen","commune":{"key":"2546","name":"Grenchen","shortName":"Grenchen"},"district":{"key":"1107","name":"Bezirk Lebern"},"canton":{"key":"11","code":"SO","name":"Solothurn"},"status":"Real"},{"key":"10092111","name":"Muntersweg","postalCode":"2540","locality":"Grenchen","commune":{"key":"2546","name":"Grenchen","shortName":"Grenchen"},"district":{"key":"1107","name":"Bezirk Lebern"},"canton":{"key":"11","code":"SO","name":"Solothurn"},"status":"Real"},{"key":"10020775","name":"Narzissenweg","postalCode":"2540","locality":"Grenchen","commune":{"key":"2546","name":"Grenchen","shortName":"Grenchen"},"district":{"key":"1107","name":"Bezirk Lebern"},"canton":{"key":"11","code":"SO","name":"Solothurn"},"status":"Real"},{"key":"10158947","name":"Neckarsulmstrasse","postalCode":"2540","locality":"Grenchen","commune":{"key":"2546","name":"Grenchen","shortName":"Grenchen"},"district":{"key":"1107","name":"Bezirk Lebern"},"canton":{"key":"11","code":"SO","name":"Solothurn"},"status":"Real"},{"key":"10051303","name":"Nelkenstrasse","postalCode":"2540","locality":"Grenchen","commune":{"key":"2546","name":"Grenchen","shortName":"Grenchen"},"district":{"key":"1107","name":"Bezirk Lebern"},"canton":{"key":"11","code":"SO","name":"Solothurn"},"status":"Real"},{"key":"10020776","name":"Neumattstrasse","postalCode":"2540","locality":"Grenchen","commune":{"key":"2546","name":"Grenchen","shortName":"Grenchen"},"district":{"key":"1107","name":"Bezirk Lebern"},"canton":{"key":"11","code":"SO","name":"Solothurn"},"status":"Real"},{"key":"10089583","name":"Niklaus Wengi-Strasse","postalCode":"2540","locality":"Grenchen","commune":{"key":"2546","name":"Grenchen","shortName":"Grenchen"},"district":{"key":"1107","name":"Bezirk Lebern"},"canton":{"key":"11","code":"SO","name":"Solothurn"},"status":"Real"},{"key":"10020777","name":"Nordbahnhofstrasse","postalCode":"2540","locality":"Grenchen","commune":{"key":"2546","name":"Grenchen","shortName":"Grenchen"},"district":{"key":"1107","name":"Bezirk Lebern"},"canton":{"key":"11","code":"SO","name":"Solothurn"},"status":"Real"},{"key":"10214816","name":"Oberbergstrasse","postalCode":"2540","locality":"Grenchen","commune":{"key":"2546","name":"Grenchen","shortName":"Grenchen"},"district":{"key":"1107","name":"Bezirk Lebern"},"canton":{"key":"11","code":"SO","name":"Solothurn"},"status":"Real"},{"key":"10051304","name":"Obere Flurstrasse","postalCode":"2540","locality":"Grenchen","commune":{"key":"2546","name":"Grenchen","shortName":"Grenchen"},"district":{"key":"1107","name":"Bezirk Lebern"},"canton":{"key":"11","code":"SO","name":"Solothurn"},"status":"Real"},{"key":"10053780","name":"Obergrenchenberg","postalCode":"2540","locality":"Grenchen","commune":{"key":"2546","name":"Grenchen","shortName":"Grenchen"},"district":{"key":"1107","name":"Bezirk Lebern"},"canton":{"key":"11","code":"SO","name":"Solothurn"},"status":"Real"},{"key":"10214821","name":"Oelestrasse","postalCode":"2540","locality":"Grenchen","commune":{"key":"2546","name":"Grenchen","shortName":"Grenchen"},"district":{"key":"1107","name":"Bezirk Lebern"},"canton":{"key":"11","code":"SO","name":"Solothurn"},"status":"Real"},{"key":"10214825","name":"Oelirain","postalCode":"2540","locality":"Grenchen","commune":{"key":"2546","name":"Grenchen","shortName":"Grenchen"},"district":{"key":"1107","name":"Bezirk Lebern"},"canton":{"key":"11","code":"SO","name":"Solothurn"},"status":"Real"},{"key":"10208095","name":"Panoramaweg","postalCode":"2540","locality":"Grenchen","commune":{"key":"2546","name":"Grenchen","shortName":"Grenchen"},"district":{"key":"1107","name":"Bezirk Lebern"},"canton":{"key":"11","code":"SO","name":"Solothurn"},"status":"Real"},{"key":"10214829","name":"Pappelstrasse","postalCode":"2540","locality":"Grenchen","commune":{"key":"2546","name":"Grenchen","shortName":"Grenchen"},"district":{"key":"1107","name":"Bezirk Lebern"},"canton":{"key":"11","code":"SO","name":"Solothurn"},"status":"Real"},{"key":"10020778","name":"Pflugstrasse","postalCode":"2540","locality":"Grenchen","commune":{"key":"2546","name":"Grenchen","shortName":"Grenchen"},"district":{"key":"1107","name":"Bezirk Lebern"},"canton":{"key":"11","code":"SO","name":"Solothurn"},"status":"Real"},{"key":"10214833","name":"Plattenbodenweg","postalCode":"2540","locality":"Grenchen","commune":{"key":"2546","name":"Grenchen","shortName":"Grenchen"},"district":{"key":"1107","name":"Bezirk Lebern"},"canton":{"key":"11","code":"SO","name":"Solothurn"},"status":"Real"},{"key":"10020779","name":"Promenadenweg","postalCode":"2540","locality":"Grenchen","commune":{"key":"2546","name":"Grenchen","shortName":"Grenchen"},"district":{"key":"1107","name":"Bezirk Lebern"},"canton":{"key":"11","code":"SO","name":"Solothurn"},"status":"Real"},{"key":"10089584","name":"Quartierstrasse","postalCode":"2540","locality":"Grenchen","commune":{"key":"2546","name":"Grenchen","shortName":"Grenchen"},"district":{"key":"1107","name":"Bezirk Lebern"},"canton":{"key":"11","code":"SO","name":"Solothurn"},"status":"Real"},{"key":"10130036","name":"Rainstrasse","postalCode":"2540","locality":"Grenchen","commune":{"key":"2546","name":"Grenchen","shortName":"Grenchen"},"district":{"key":"1107","name":"Bezirk Lebern"},"canton":{"key":"11","code":"SO","name":"Solothurn"},"status":"Real"},{"key":"10067606","name":"Rebgasse","postalCode":"2540","locality":"Grenchen","commune":{"key":"2546","name":"Grenchen","shortName":"Grenchen"},"district":{"key":"1107","name":"Bezirk Lebern"},"canton":{"key":"11","code":"SO","name":"Solothurn"},"status":"Real"},{"key":"10111364","name":"Rebgässli","postalCode":"2540","locality":"Grenchen","commune":{"key":"2546","name":"Grenchen","shortName":"Grenchen"},"district":{"key":"1107","name":"Bezirk Lebern"},"canton":{"key":"11","code":"SO","name":"Solothurn"},"status":"Real"},{"key":"10020780","name":"Rebhalde","postalCode":"2540","locality":"Grenchen","commune":{"key":"2546","name":"Grenchen","shortName":"Grenchen"},"district":{"key":"1107","name":"Bezirk Lebern"},"canton":{"key":"11","code":"SO","name":"Solothurn"},"status":"Real"},{"key":"10181856","name":"Rehweg","postalCode":"2540","locality":"Grenchen","commune":{"key":"2546","name":"Grenchen","shortName":"Grenchen"},"district":{"key":"1107","name":"Bezirk Lebern"},"canton":{"key":"11","code":"SO","name":"Solothurn"},"status":"Real"},{"key":"10187779","name":"Reibenstrasse","postalCode":"2540","locality":"Grenchen","commune":{"key":"2546","name":"Grenchen","shortName":"Grenchen"},"district":{"key":"1107","name":"Bezirk Lebern"},"canton":{"key":"11","code":"SO","name":"Solothurn"},"status":"Real"},{"key":"10191260","name":"Reiherstrasse","postalCode":"2540","locality":"Grenchen","commune":{"key":"2546","name":"Grenchen","shortName":"Grenchen"},"district":{"key":"1107","name":"Bezirk Lebern"},"canton":{"key":"11","code":"SO","name":"Solothurn"},"status":"Real"},{"key":"10020781","name":"Reiserhubelweg","postalCode":"2540","locality":"Grenchen","commune":{"key":"2546","name":"Grenchen","shortName":"Grenchen"},"district":{"key":"1107","name":"Bezirk Lebern"},"canton":{"key":"11","code":"SO","name":"Solothurn"},"status":"Real"},{"key":"10214837","name":"Reservoirweg","postalCode":"2540","locality":"Grenchen","commune":{"key":"2546","name":"Grenchen","shortName":"Grenchen"},"district":{"key":"1107","name":"Bezirk Lebern"},"canton":{"key":"11","code":"SO","name":"Solothurn"},"status":"Real"},{"key":"10020782","name":"Riedernstrasse","postalCode":"2540","locality":"Grenchen","commune":{"key":"2546","name":"Grenchen","shortName":"Grenchen"},"district":{"key":"1107","name":"Bezirk Lebern"},"canton":{"key":"11","code":"SO","name":"Solothurn"},"status":"Real"},{"key":"10089585","name":"Ringstrasse","postalCode":"2540","locality":"Grenchen","commune":{"key":"2546","name":"Grenchen","shortName":"Grenchen"},"district":{"key":"1107","name":"Bezirk Lebern"},"canton":{"key":"11","code":"SO","name":"Solothurn"},"status":"Real"},{"key":"10020783","name":"Robert Luterbacher-Strasse","postalCode":"2540","locality":"Grenchen","commune":{"key":"2546","name":"Grenchen","shortName":"Grenchen"},"district":{"key":"1107","name":"Bezirk Lebern"},"canton":{"key":"11","code":"SO","name":"Solothurn"},"status":"Real"},{"key":"10214840","name":"Romattenschwandweg","postalCode":"2540","locality":"Grenchen","commune":{"key":"2546","name":"Grenchen","shortName":"Grenchen"},"district":{"key":"1107","name":"Bezirk Lebern"},"canton":{"key":"11","code":"SO","name":"Solothurn"},"status":"Real"},{"key":"10020784","name":"Römerbrunnenweg","postalCode":"2540","locality":"Grenchen","commune":{"key":"2546","name":"Grenchen","shortName":"Grenchen"},"district":{"key":"1107","name":"Bezirk Lebern"},"canton":{"key":"11","code":"SO","name":"Solothurn"},"status":"Real"},{"key":"10214844","name":"Romontstrasse","postalCode":"2540","locality":"Grenchen","commune":{"key":"2546","name":"Grenchen","shortName":"Grenchen"},"district":{"key":"1107","name":"Bezirk Lebern"},"canton":{"key":"11","code":"SO","name":"Solothurn"},"status":"Real"},{"key":"10181234","name":"Rosenstrasse","postalCode":"2540","locality":"Grenchen","commune":{"key":"2546","name":"Grenchen","shortName":"Grenchen"},"district":{"key":"1107","name":"Bezirk Lebern"},"canton":{"key":"11","code":"SO","name":"Solothurn"},"status":"Real"},{"key":"10020785","name":"Rötistrasse","postalCode":"2540","locality":"Grenchen","commune":{"key":"2546","name":"Grenchen","shortName":"Grenchen"},"district":{"key":"1107","name":"Bezirk Lebern"},"canton":{"key":"11","code":"SO","name":"Solothurn"},"status":"Real"},{"key":"10089586","name":"Ruffinistrasse","postalCode":"2540","locality":"Grenchen","commune":{"key":"2546","name":"Grenchen","shortName":"Grenchen"},"district":{"key":"1107","name":"Bezirk Lebern"},"canton":{"key":"11","code":"SO","name":"Solothurn"},"status":"Real"},{"key":"10089592","name":"Sägemattstrasse","postalCode":"2540","locality":"Grenchen","commune":{"key":"2546","name":"Grenchen","shortName":"Grenchen"},"district":{"key":"1107","name":"Bezirk Lebern"},"canton":{"key":"11","code":"SO","name":"Solothurn"},"status":"Real"},{"key":"10020786","name":"Schalensteinweg","postalCode":"2540","locality":"Grenchen","commune":{"key":"2546","name":"Grenchen","shortName":"Grenchen"},"district":{"key":"1107","name":"Bezirk Lebern"},"canton":{"key":"11","code":"SO","name":"Solothurn"},"status":"Real"},{"key":"10067607","name":"Schild-Hugi-Strasse","postalCode":"2540","locality":"Grenchen","commune":{"key":"2546","name":"Grenchen","shortName":"Grenchen"},"district":{"key":"1107","name":"Bezirk Lebern"},"canton":{"key":"11","code":"SO","name":"Solothurn"},"status":"Real"},{"key":"10089587","name":"Schild-Rust-Strasse","postalCode":"2540","locality":"Grenchen","commune":{"key":"2546","name":"Grenchen","shortName":"Grenchen"},"district":{"key":"1107","name":"Bezirk Lebern"},"canton":{"key":"11","code":"SO","name":"Solothurn"},"status":"Real"},{"key":"10020787","name":"Schlachthausstrasse","postalCode":"2540","locality":"Grenchen","commune":{"key":"2546","name":"Grenchen","shortName":"Grenchen"},"district":{"key":"1107","name":"Bezirk Lebern"},"canton":{"key":"11","code":"SO","name":"Solothurn"},"status":"Real"},{"key":"10181857","name":"Schlettstadtstrasse","postalCode":"2540","locality":"Grenchen","commune":{"key":"2546","name":"Grenchen","shortName":"Grenchen"},"district":{"key":"1107","name":"Bezirk Lebern"},"canton":{"key":"11","code":"SO","name":"Solothurn"},"status":"Real"},{"key":"10089588","name":"Schmelzirain","postalCode":"2540","locality":"Grenchen","commune":{"key":"2546","name":"Grenchen","shortName":"Grenchen"},"district":{"key":"1107","name":"Bezirk Lebern"},"canton":{"key":"11","code":"SO","name":"Solothurn"},"status":"Real"},{"key":"10020788","name":"Schmelzistrasse","postalCode":"2540","locality":"Grenchen","commune":{"key":"2546","name":"Grenchen","shortName":"Grenchen"},"district":{"key":"1107","name":"Bezirk Lebern"},"canton":{"key":"11","code":"SO","name":"Solothurn"},"status":"Real"},{"key":"10122260","name":"Schöneggrain","postalCode":"2540","locality":"Grenchen","commune":{"key":"2546","name":"Grenchen","shortName":"Grenchen"},"district":{"key":"1107","name":"Bezirk Lebern"},"canton":{"key":"11","code":"SO","name":"Solothurn"},"status":"Real"},{"key":"10089589","name":"Schöneggstrasse","postalCode":"2540","locality":"Grenchen","commune":{"key":"2546","name":"Grenchen","shortName":"Grenchen"},"district":{"key":"1107","name":"Bezirk Lebern"},"canton":{"key":"11","code":"SO","name":"Solothurn"},"status":"Real"},{"key":"10067608","name":"Schulstrasse","postalCode":"2540","locality":"Grenchen","commune":{"key":"2546","name":"Grenchen","shortName":"Grenchen"},"district":{"key":"1107","name":"Bezirk Lebern"},"canton":{"key":"11","code":"SO","name":"Solothurn"},"status":"Real"},{"key":"10111365","name":"Schützengasse","postalCode":"2540","locality":"Grenchen","commune":{"key":"2546","name":"Grenchen","shortName":"Grenchen"},"district":{"key":"1107","name":"Bezirk Lebern"},"canton":{"key":"11","code":"SO","name":"Solothurn"},"status":"Real"},{"key":"10020789","name":"Simplonstrasse","postalCode":"2540","locality":"Grenchen","commune":{"key":"2546","name":"Grenchen","shortName":"Grenchen"},"district":{"key":"1107","name":"Bezirk Lebern"},"canton":{"key":"11","code":"SO","name":"Solothurn"},"status":"Real"},{"key":"10067609","name":"Solothurnstrasse","postalCode":"2540","locality":"Grenchen","commune":{"key":"2546","name":"Grenchen","shortName":"Grenchen"},"district":{"key":"1107","name":"Bezirk Lebern"},"canton":{"key":"11","code":"SO","name":"Solothurn"},"status":"Real"},{"key":"10089590","name":"Sonnenrainstrasse","postalCode":"2540","locality":"Grenchen","commune":{"key":"2546","name":"Grenchen","shortName":"Grenchen"},"district":{"key":"1107","name":"Bezirk Lebern"},"canton":{"key":"11","code":"SO","name":"Solothurn"},"status":"Real"},{"key":"10214848","name":"Sonnenrainweg","postalCode":"2540","locality":"Grenchen","commune":{"key":"2546","name":"Grenchen","shortName":"Grenchen"},"district":{"key":"1107","name":"Bezirk Lebern"},"canton":{"key":"11","code":"SO","name":"Solothurn"},"status":"Real"},{"key":"10020790","name":"Sportstrasse","postalCode":"2540","locality":"Grenchen","commune":{"key":"2546","name":"Grenchen","shortName":"Grenchen"},"district":{"key":"1107","name":"Bezirk Lebern"},"canton":{"key":"11","code":"SO","name":"Solothurn"},"status":"Real"},{"key":"10020791","name":"Staadstrasse","postalCode":"2540","locality":"Grenchen","commune":{"key":"2546","name":"Grenchen","shortName":"Grenchen"},"district":{"key":"1107","name":"Bezirk Lebern"},"canton":{"key":"11","code":"SO","name":"Solothurn"},"status":"Real"},{"key":"10214852","name":"Staatswaldstrasse","postalCode":"2540","locality":"Grenchen","commune":{"key":"2546","name":"Grenchen","shortName":"Grenchen"},"district":{"key":"1107","name":"Bezirk Lebern"},"canton":{"key":"11","code":"SO","name":"Solothurn"},"status":"Real"},{"key":"10214856","name":"Staatswaldweg","postalCode":"2540","locality":"Grenchen","commune":{"key":"2546","name":"Grenchen","shortName":"Grenchen"},"district":{"key":"1107","name":"Bezirk Lebern"},"canton":{"key":"11","code":"SO","name":"Solothurn"},"status":"Real"},{"key":"10020792","name":"Standweg","postalCode":"2540","locality":"Grenchen","commune":{"key":"2546","name":"Grenchen","shortName":"Grenchen"},"district":{"key":"1107","name":"Bezirk Lebern"},"canton":{"key":"11","code":"SO","name":"Solothurn"},"status":"Real"},{"key":"10020793","name":"Steinachstrasse","postalCode":"2540","locality":"Grenchen","commune":{"key":"2546","name":"Grenchen","shortName":"Grenchen"},"district":{"key":"1107","name":"Bezirk Lebern"},"canton":{"key":"11","code":"SO","name":"Solothurn"},"status":"Real"},{"key":"10214860","name":"Steinackerweg","postalCode":"2540","locality":"Grenchen","commune":{"key":"2546","name":"Grenchen","shortName":"Grenchen"},"district":{"key":"1107","name":"Bezirk Lebern"},"canton":{"key":"11","code":"SO","name":"Solothurn"},"status":"Real"},{"key":"10214864","name":"Steiniger Weg","postalCode":"2540","locality":"Grenchen","commune":{"key":"2546","name":"Grenchen","shortName":"Grenchen"},"district":{"key":"1107","name":"Bezirk Lebern"},"canton":{"key":"11","code":"SO","name":"Solothurn"},"status":"Real"},{"key":"10067610","name":"Sternenweg","postalCode":"2540","locality":"Grenchen","commune":{"key":"2546","name":"Grenchen","shortName":"Grenchen"},"district":{"key":"1107","name":"Bezirk Lebern"},"canton":{"key":"11","code":"SO","name":"Solothurn"},"status":"Real"},{"key":"10089591","name":"Stierenberg","postalCode":"2540","locality":"Grenchen","commune":{"key":"2546","name":"Grenchen","shortName":"Grenchen"},"district":{"key":"1107","name":"Bezirk Lebern"},"canton":{"key":"11","code":"SO","name":"Solothurn"},"status":"Real"},{"key":"10214868","name":"Stierenbergstrasse","postalCode":"2540","locality":"Grenchen","commune":{"key":"2546","name":"Grenchen","shortName":"Grenchen"},"district":{"key":"1107","name":"Bezirk Lebern"},"canton":{"key":"11","code":"SO","name":"Solothurn"},"status":"Real"},{"key":"10020794","name":"Storchengasse","postalCode":"2540","locality":"Grenchen","commune":{"key":"2546","name":"Grenchen","shortName":"Grenchen"},"district":{"key":"1107","name":"Bezirk Lebern"},"canton":{"key":"11","code":"SO","name":"Solothurn"},"status":"Real"},{"key":"10020795","name":"Studenstrasse","postalCode":"2540","locality":"Grenchen","commune":{"key":"2546","name":"Grenchen","shortName":"Grenchen"},"district":{"key":"1107","name":"Bezirk Lebern"},"canton":{"key":"11","code":"SO","name":"Solothurn"},"status":"Real"},{"key":"10214872","name":"Stützliweg","postalCode":"2540","locality":"Grenchen","commune":{"key":"2546","name":"Grenchen","shortName":"Grenchen"},"district":{"key":"1107","name":"Bezirk Lebern"},"canton":{"key":"11","code":"SO","name":"Solothurn"},"status":"Real"},{"key":"10136256","name":"Tannhofstrasse","postalCode":"2540","locality":"Grenchen","commune":{"key":"2546","name":"Grenchen","shortName":"Grenchen"},"district":{"key":"1107","name":"Bezirk Lebern"},"canton":{"key":"11","code":"SO","name":"Solothurn"},"status":"Real"},{"key":"10214874","name":"Tiefmattweg","postalCode":"2540","locality":"Grenchen","commune":{"key":"2546","name":"Grenchen","shortName":"Grenchen"},"district":{"key":"1107","name":"Bezirk Lebern"},"canton":{"key":"11","code":"SO","name":"Solothurn"},"status":"Real"},{"key":"10115321","name":"Traubenweg","postalCode":"2540","locality":"Grenchen","commune":{"key":"2546","name":"Grenchen","shortName":"Grenchen"},"district":{"key":"1107","name":"Bezirk Lebern"},"canton":{"key":"11","code":"SO","name":"Solothurn"},"status":"Real"},{"key":"10214878","name":"Tuffgrubenweg","postalCode":"2540","locality":"Grenchen","commune":{"key":"2546","name":"Grenchen","shortName":"Grenchen"},"district":{"key":"1107","name":"Bezirk Lebern"},"canton":{"key":"11","code":"SO","name":"Solothurn"},"status":"Real"},{"key":"10020796","name":"Tulpenstrasse","postalCode":"2540","locality":"Grenchen","commune":{"key":"2546","name":"Grenchen","shortName":"Grenchen"},"district":{"key":"1107","name":"Bezirk Lebern"},"canton":{"key":"11","code":"SO","name":"Solothurn"},"status":"Real"},{"key":"10181858","name":"Tunnelstrasse","postalCode":"2540","locality":"Grenchen","commune":{"key":"2546","name":"Grenchen","shortName":"Grenchen"},"district":{"key":"1107","name":"Bezirk Lebern"},"canton":{"key":"11","code":"SO","name":"Solothurn"},"status":"Real"},{"key":"10214888","name":"Unterbergstrasse","postalCode":"2540","locality":"Grenchen","commune":{"key":"2546","name":"Grenchen","shortName":"Grenchen"},"district":{"key":"1107","name":"Bezirk Lebern"},"canton":{"key":"11","code":"SO","name":"Solothurn"},"status":"Real"},{"key":"10214884","name":"Unter Egg-Weg","postalCode":"2540","locality":"Grenchen","commune":{"key":"2546","name":"Grenchen","shortName":"Grenchen"},"district":{"key":"1107","name":"Bezirk Lebern"},"canton":{"key":"11","code":"SO","name":"Solothurn"},"status":"Real"},{"key":"10020797","name":"Untergrenchenberg","postalCode":"2540","locality":"Grenchen","commune":{"key":"2546","name":"Grenchen","shortName":"Grenchen"},"district":{"key":"1107","name":"Bezirk Lebern"},"canton":{"key":"11","code":"SO","name":"Solothurn"},"status":"Real"},{"key":"10214891","name":"Unterschlagweg","postalCode":"2540","locality":"Grenchen","commune":{"key":"2546","name":"Grenchen","shortName":"Grenchen"},"district":{"key":"1107","name":"Bezirk Lebern"},"canton":{"key":"11","code":"SO","name":"Solothurn"},"status":"Real"},{"key":"10067611","name":"Veilchenstrasse","postalCode":"2540","locality":"Grenchen","commune":{"key":"2546","name":"Grenchen","shortName":"Grenchen"},"district":{"key":"1107","name":"Bezirk Lebern"},"canton":{"key":"11","code":"SO","name":"Solothurn"},"status":"Real"},{"key":"10183601","name":"Viaduktstrasse","postalCode":"2540","locality":"Grenchen","commune":{"key":"2546","name":"Grenchen","shortName":"Grenchen"},"district":{"key":"1107","name":"Bezirk Lebern"},"canton":{"key":"11","code":"SO","name":"Solothurn"},"status":"Real"},{"key":"10214900","name":"Vorbergstrasse","postalCode":"2540","locality":"Grenchen","commune":{"key":"2546","name":"Grenchen","shortName":"Grenchen"},"district":{"key":"1107","name":"Bezirk Lebern"},"canton":{"key":"11","code":"SO","name":"Solothurn"},"status":"Real"},{"key":"10214896","name":"Vor der Egg-Weg","postalCode":"2540","locality":"Grenchen","commune":{"key":"2546","name":"Grenchen","shortName":"Grenchen"},"district":{"key":"1107","name":"Bezirk Lebern"},"canton":{"key":"11","code":"SO","name":"Solothurn"},"status":"Real"},{"key":"10128617","name":"Waldeggstrasse","postalCode":"2540","locality":"Grenchen","commune":{"key":"2546","name":"Grenchen","shortName":"Grenchen"},"district":{"key":"1107","name":"Bezirk Lebern"},"canton":{"key":"11","code":"SO","name":"Solothurn"},"status":"Real"},{"key":"10020798","name":"Waldheimstrasse","postalCode":"2540","locality":"Grenchen","commune":{"key":"2546","name":"Grenchen","shortName":"Grenchen"},"district":{"key":"1107","name":"Bezirk Lebern"},"canton":{"key":"11","code":"SO","name":"Solothurn"},"status":"Real"},{"key":"10020799","name":"Wandfluhstrasse","postalCode":"2540","locality":"Grenchen","commune":{"key":"2546","name":"Grenchen","shortName":"Grenchen"},"district":{"key":"1107","name":"Bezirk Lebern"},"canton":{"key":"11","code":"SO","name":"Solothurn"},"status":"Real"},{"key":"10214904","name":"Wäsmelistrasse","postalCode":"2540","locality":"Grenchen","commune":{"key":"2546","name":"Grenchen","shortName":"Grenchen"},"district":{"key":"1107","name":"Bezirk Lebern"},"canton":{"key":"11","code":"SO","name":"Solothurn"},"status":"Real"},{"key":"10214910","name":"Wasserlochweg","postalCode":"2540","locality":"Grenchen","commune":{"key":"2546","name":"Grenchen","shortName":"Grenchen"},"district":{"key":"1107","name":"Bezirk Lebern"},"canton":{"key":"11","code":"SO","name":"Solothurn"},"status":"Real"},{"key":"10020800","name":"Weidstrasse","postalCode":"2540","locality":"Grenchen","commune":{"key":"2546","name":"Grenchen","shortName":"Grenchen"},"district":{"key":"1107","name":"Bezirk Lebern"},"canton":{"key":"11","code":"SO","name":"Solothurn"},"status":"Real"},{"key":"10064661","name":"Weinbergstrasse","postalCode":"2540","locality":"Grenchen","commune":{"key":"2546","name":"Grenchen","shortName":"Grenchen"},"district":{"key":"1107","name":"Bezirk Lebern"},"canton":{"key":"11","code":"SO","name":"Solothurn"},"status":"Real"},{"key":"10191261","name":"Weissensteinstrasse","postalCode":"2540","locality":"Grenchen","commune":{"key":"2546","name":"Grenchen","shortName":"Grenchen"},"district":{"key":"1107","name":"Bezirk Lebern"},"canton":{"key":"11","code":"SO","name":"Solothurn"},"status":"Real"},{"key":"10111366","name":"Werner Strub-Strasse","postalCode":"2540","locality":"Grenchen","commune":{"key":"2546","name":"Grenchen","shortName":"Grenchen"},"district":{"key":"1107","name":"Bezirk Lebern"},"canton":{"key":"11","code":"SO","name":"Solothurn"},"status":"Real"},{"key":"10051305","name":"Wiesenstrasse","postalCode":"2540","locality":"Grenchen","commune":{"key":"2546","name":"Grenchen","shortName":"Grenchen"},"district":{"key":"1107","name":"Bezirk Lebern"},"canton":{"key":"11","code":"SO","name":"Solothurn"},"status":"Real"},{"key":"10020801","name":"Wissbächlistrasse","postalCode":"2540","locality":"Grenchen","commune":{"key":"2546","name":"Grenchen","shortName":"Grenchen"},"district":{"key":"1107","name":"Bezirk Lebern"},"canton":{"key":"11","code":"SO","name":"Solothurn"},"status":"Real"},{"key":"10153938","name":"Witiweg","postalCode":"2540","locality":"Grenchen","commune":{"key":"2546","name":"Grenchen","shortName":"Grenchen"},"district":{"key":"1107","name":"Bezirk Lebern"},"canton":{"key":"11","code":"SO","name":"Solothurn"},"status":"Real"},{"key":"10089594","name":"Witmattstrasse","postalCode":"2540","locality":"Grenchen","commune":{"key":"2546","name":"Grenchen","shortName":"Grenchen"},"district":{"key":"1107","name":"Bezirk Lebern"},"canton":{"key":"11","code":"SO","name":"Solothurn"},"status":"Real"},{"key":"10214914","name":"Witteliweg","postalCode":"2540","locality":"Grenchen","commune":{"key":"2546","name":"Grenchen","shortName":"Grenchen"},"district":{"key":"1107","name":"Bezirk Lebern"},"canton":{"key":"11","code":"SO","name":"Solothurn"},"status":"Real"},{"key":"10130491","name":"Wydenstrasse","postalCode":"2540","locality":"Grenchen","commune":{"key":"2546","name":"Grenchen","shortName":"Grenchen"},"district":{"key":"1107","name":"Bezirk Lebern"},"canton":{"key":"11","code":"SO","name":"Solothurn"},"status":"Real"},{"key":"10180289","name":"Zelgweg","postalCode":"2540","locality":"Grenchen","commune":{"key":"2546","name":"Grenchen","shortName":"Grenchen"},"district":{"key":"1107","name":"Bezirk Lebern"},"canton":{"key":"11","code":"SO","name":"Solothurn"},"status":"Real"},{"key":"10020802","name":"Ziegelmattstrasse","postalCode":"2540","locality":"Grenchen","commune":{"key":"2546","name":"Grenchen","shortName":"Grenchen"},"district":{"key":"1107","name":"Bezirk Lebern"},"canton":{"key":"11","code":"SO","name":"Solothurn"},"status":"Real"},{"key":"10214918","name":"Zwärweg","postalCode":"2540","locality":"Grenchen","commune":{"key":"2546","name":"Grenchen","shortName":"Grenchen"},"district":{"key":"1107","name":"Bezirk Lebern"},"canton":{"key":"11","code":"SO","name":"Solothurn"},"status":"Real"},{"key":"10051306","name":"Zwinglistrasse","postalCode":"2540","locality":"Grenchen","commune":{"key":"2546","name":"Grenchen","shortName":"Grenchen"},"district":{"key":"1107","name":"Bezirk Lebern"},"canton":{"key":"11","code":"SO","name":"Solothurn"},"status":"Real"},]