[{"name":"Adolf-Kolping-Str.","postalCode":"92526","locality":"Oberviechtach","municipality":{"key":"09376151","name":"Oberviechtach, St","type":"Stadt"},"district":{"key":"09376","name":"Schwandorf","type":"Landkreis"},"federalState":{"key":"09","name":"Bayern"}},{"name":"Alfons-Goppel-Str.","postalCode":"92526","locality":"Oberviechtach","municipality":{"key":"09376151","name":"Oberviechtach, St","type":"Stadt"},"district":{"key":"09376","name":"Schwandorf","type":"Landkreis"},"federalState":{"key":"09","name":"Bayern"}},{"name":"Am Bahnhof","postalCode":"92526","locality":"Oberviechtach","municipality":{"key":"09376151","name":"Oberviechtach, St","type":"Stadt"},"district":{"key":"09376","name":"Schwandorf","type":"Landkreis"},"federalState":{"key":"09","name":"Bayern"}},{"name":"Am Bleichanger","postalCode":"92526","locality":"Oberviechtach","municipality":{"key":"09376151","name":"Oberviechtach, St","type":"Stadt"},"district":{"key":"09376","name":"Schwandorf","type":"Landkreis"},"federalState":{"key":"09","name":"Bayern"}},{"name":"Am Galgenberg","postalCode":"92526","locality":"Oberviechtach","municipality":{"key":"09376151","name":"Oberviechtach, St","type":"Stadt"},"district":{"key":"09376","name":"Schwandorf","type":"Landkreis"},"federalState":{"key":"09","name":"Bayern"}},{"name":"Am Hopfengarten","postalCode":"92526","locality":"Oberviechtach","municipality":{"key":"09376151","name":"Oberviechtach, St","type":"Stadt"},"district":{"key":"09376","name":"Schwandorf","type":"Landkreis"},"federalState":{"key":"09","name":"Bayern"}},{"name":"Am Sandradl","postalCode":"92526","locality":"Oberviechtach","municipality":{"key":"09376151","name":"Oberviechtach, St","type":"Stadt"},"district":{"key":"09376","name":"Schwandorf","type":"Landkreis"},"federalState":{"key":"09","name":"Bayern"}},{"name":"Am Schießanger","postalCode":"92526","locality":"Oberviechtach","municipality":{"key":"09376151","name":"Oberviechtach, St","type":"Stadt"},"district":{"key":"09376","name":"Schwandorf","type":"Landkreis"},"federalState":{"key":"09","name":"Bayern"}},{"name":"Am Schlosserfeld","postalCode":"92526","locality":"Oberviechtach","municipality":{"key":"09376151","name":"Oberviechtach, St","type":"Stadt"},"district":{"key":"09376","name":"Schwandorf","type":"Landkreis"},"federalState":{"key":"09","name":"Bayern"}},{"name":"Am Schützenheim","postalCode":"92526","locality":"Oberviechtach","municipality":{"key":"09376151","name":"Oberviechtach, St","type":"Stadt"},"district":{"key":"09376","name":"Schwandorf","type":"Landkreis"},"federalState":{"key":"09","name":"Bayern"}},{"name":"Am Steinforst","postalCode":"92526","locality":"Oberviechtach","municipality":{"key":"09376151","name":"Oberviechtach, St","type":"Stadt"},"district":{"key":"09376","name":"Schwandorf","type":"Landkreis"},"federalState":{"key":"09","name":"Bayern"}},{"name":"Antelsdorf","postalCode":"92526","locality":"Oberviechtach","municipality":{"key":"09376151","name":"Oberviechtach, St","type":"Stadt"},"district":{"key":"09376","name":"Schwandorf","type":"Landkreis"},"federalState":{"key":"09","name":"Bayern"}},{"name":"Bahnhofstr.","postalCode":"92526","locality":"Oberviechtach","municipality":{"key":"09376151","name":"Oberviechtach, St","type":"Stadt"},"district":{"key":"09376","name":"Schwandorf","type":"Landkreis"},"federalState":{"key":"09","name":"Bayern"}},{"name":"Bezirksamtstr.","postalCode":"92526","locality":"Oberviechtach","municipality":{"key":"09376151","name":"Oberviechtach, St","type":"Stadt"},"district":{"key":"09376","name":"Schwandorf","type":"Landkreis"},"federalState":{"key":"09","name":"Bayern"}},{"name":"Birkenweg","postalCode":"92526","locality":"Oberviechtach","municipality":{"key":"09376151","name":"Oberviechtach, St","type":"Stadt"},"district":{"key":"09376","name":"Schwandorf","type":"Landkreis"},"federalState":{"key":"09","name":"Bayern"}},{"name":"Bischofweg","postalCode":"92526","locality":"Oberviechtach","municipality":{"key":"09376151","name":"Oberviechtach, St","type":"Stadt"},"district":{"key":"09376","name":"Schwandorf","type":"Landkreis"},"federalState":{"key":"09","name":"Bayern"}},{"name":"Böhmerwaldstr.","postalCode":"92526","locality":"Oberviechtach","municipality":{"key":"09376151","name":"Oberviechtach, St","type":"Stadt"},"district":{"key":"09376","name":"Schwandorf","type":"Landkreis"},"federalState":{"key":"09","name":"Bayern"}},{"name":"Buchbergerstr.","postalCode":"92526","locality":"Oberviechtach","municipality":{"key":"09376151","name":"Oberviechtach, St","type":"Stadt"},"district":{"key":"09376","name":"Schwandorf","type":"Landkreis"},"federalState":{"key":"09","name":"Bayern"}},{"name":"Bürgermeister-Fuhrmann-Str.","postalCode":"92526","locality":"Oberviechtach","municipality":{"key":"09376151","name":"Oberviechtach, St","type":"Stadt"},"district":{"key":"09376","name":"Schwandorf","type":"Landkreis"},"federalState":{"key":"09","name":"Bayern"}},{"name":"Bürgermeister-Neuber-Str.","postalCode":"92526","locality":"Oberviechtach","municipality":{"key":"09376151","name":"Oberviechtach, St","type":"Stadt"},"district":{"key":"09376","name":"Schwandorf","type":"Landkreis"},"federalState":{"key":"09","name":"Bayern"}},{"name":"Bürgermeister-Roßmann-Str.","postalCode":"92526","locality":"Oberviechtach","municipality":{"key":"09376151","name":"Oberviechtach, St","type":"Stadt"},"district":{"key":"09376","name":"Schwandorf","type":"Landkreis"},"federalState":{"key":"09","name":"Bayern"}},{"name":"Celsiusstr.","postalCode":"92421","locality":"Schwandorf","municipality":{"key":"09376161","name":"Schwandorf, GKSt","type":"Große_Kreisstadt"},"district":{"key":"09376","name":"Schwandorf","type":"Landkreis"},"federalState":{"key":"09","name":"Bayern"}},{"name":"Charlottenhof","postalCode":"92421","locality":"Schwandorf","municipality":{"key":"09376161","name":"Schwandorf, GKSt","type":"Große_Kreisstadt"},"district":{"key":"09376","name":"Schwandorf","type":"Landkreis"},"federalState":{"key":"09","name":"Bayern"}},{"name":"Diepoldstr.","postalCode":"92526","locality":"Oberviechtach","municipality":{"key":"09376151","name":"Oberviechtach, St","type":"Stadt"},"district":{"key":"09376","name":"Schwandorf","type":"Landkreis"},"federalState":{"key":"09","name":"Bayern"}},{"name":"Dietersdorf","postalCode":"92526","locality":"Oberviechtach","municipality":{"key":"09376151","name":"Oberviechtach, St","type":"Stadt"},"district":{"key":"09376","name":"Schwandorf","type":"Landkreis"},"federalState":{"key":"09","name":"Bayern"}},{"name":"Dreifaltigkeit","postalCode":"92526","locality":"Oberviechtach","municipality":{"key":"09376151","name":"Oberviechtach, St","type":"Stadt"},"district":{"key":"09376","name":"Schwandorf","type":"Landkreis"},"federalState":{"key":"09","name":"Bayern"}},{"name":"Dr.-Eisenbarth-Str.","postalCode":"92526","locality":"Oberviechtach","municipality":{"key":"09376151","name":"Oberviechtach, St","type":"Stadt"},"district":{"key":"09376","name":"Schwandorf","type":"Landkreis"},"federalState":{"key":"09","name":"Bayern"}},{"name":"Dr.-Mathieu-Str.","postalCode":"92526","locality":"Oberviechtach","municipality":{"key":"09376151","name":"Oberviechtach, St","type":"Stadt"},"district":{"key":"09376","name":"Schwandorf","type":"Landkreis"},"federalState":{"key":"09","name":"Bayern"}},{"name":"Dr.-Max-Schwarz-Platz","postalCode":"92526","locality":"Oberviechtach","municipality":{"key":"09376151","name":"Oberviechtach, St","type":"Stadt"},"district":{"key":"09376","name":"Schwandorf","type":"Landkreis"},"federalState":{"key":"09","name":"Bayern"}},{"name":"Dr.-Max-Schwarz-Str.","postalCode":"92526","locality":"Oberviechtach","municipality":{"key":"09376151","name":"Oberviechtach, St","type":"Stadt"},"district":{"key":"09376","name":"Schwandorf","type":"Landkreis"},"federalState":{"key":"09","name":"Bayern"}},{"name":"Eigelsberg","postalCode":"92526","locality":"Oberviechtach","municipality":{"key":"09376151","name":"Oberviechtach, St","type":"Stadt"},"district":{"key":"09376","name":"Schwandorf","type":"Landkreis"},"federalState":{"key":"09","name":"Bayern"}},{"name":"Eigelsberger Str.","postalCode":"92526","locality":"Oberviechtach","municipality":{"key":"09376151","name":"Oberviechtach, St","type":"Stadt"},"district":{"key":"09376","name":"Schwandorf","type":"Landkreis"},"federalState":{"key":"09","name":"Bayern"}},{"name":"Erika-Odemer-Str.","postalCode":"92526","locality":"Oberviechtach","municipality":{"key":"09376151","name":"Oberviechtach, St","type":"Stadt"},"district":{"key":"09376","name":"Schwandorf","type":"Landkreis"},"federalState":{"key":"09","name":"Bayern"}},{"name":"Fichtenbühl","postalCode":"92526","locality":"Oberviechtach","municipality":{"key":"09376151","name":"Oberviechtach, St","type":"Stadt"},"district":{"key":"09376","name":"Schwandorf","type":"Landkreis"},"federalState":{"key":"09","name":"Bayern"}},{"name":"Gartenried","postalCode":"92526","locality":"Oberviechtach","municipality":{"key":"09376151","name":"Oberviechtach, St","type":"Stadt"},"district":{"key":"09376","name":"Schwandorf","type":"Landkreis"},"federalState":{"key":"09","name":"Bayern"}},{"name":"Goldlehrpfad","postalCode":"92526","locality":"Oberviechtach","municipality":{"key":"09376151","name":"Oberviechtach, St","type":"Stadt"},"district":{"key":"09376","name":"Schwandorf","type":"Landkreis"},"federalState":{"key":"09","name":"Bayern"}},{"name":"Hann. Mündener Str.","postalCode":"92526","locality":"Oberviechtach","municipality":{"key":"09376151","name":"Oberviechtach, St","type":"Stadt"},"district":{"key":"09376","name":"Schwandorf","type":"Landkreis"},"federalState":{"key":"09","name":"Bayern"}},{"name":"Hans-Lang-Str.","postalCode":"92526","locality":"Oberviechtach","municipality":{"key":"09376151","name":"Oberviechtach, St","type":"Stadt"},"district":{"key":"09376","name":"Schwandorf","type":"Landkreis"},"federalState":{"key":"09","name":"Bayern"}},{"name":"Hans-Schneeberger-Str.","postalCode":"92526","locality":"Oberviechtach","municipality":{"key":"09376151","name":"Oberviechtach, St","type":"Stadt"},"district":{"key":"09376","name":"Schwandorf","type":"Landkreis"},"federalState":{"key":"09","name":"Bayern"}},{"name":"Hauptstr.","postalCode":"92526","locality":"Oberviechtach","municipality":{"key":"09376151","name":"Oberviechtach, St","type":"Stadt"},"district":{"key":"09376","name":"Schwandorf","type":"Landkreis"},"federalState":{"key":"09","name":"Bayern"}},{"name":"Hintere Sailergasse","postalCode":"92526","locality":"Oberviechtach","municipality":{"key":"09376151","name":"Oberviechtach, St","type":"Stadt"},"district":{"key":"09376","name":"Schwandorf","type":"Landkreis"},"federalState":{"key":"09","name":"Bayern"}},{"name":"Hof","postalCode":"92526","locality":"Oberviechtach","municipality":{"key":"09376151","name":"Oberviechtach, St","type":"Stadt"},"district":{"key":"09376","name":"Schwandorf","type":"Landkreis"},"federalState":{"key":"09","name":"Bayern"}},{"name":"Hütgraben","postalCode":"92526","locality":"Oberviechtach","municipality":{"key":"09376151","name":"Oberviechtach, St","type":"Stadt"},"district":{"key":"09376","name":"Schwandorf","type":"Landkreis"},"federalState":{"key":"09","name":"Bayern"}},{"name":"Im Wiesengrund","postalCode":"92526","locality":"Oberviechtach","municipality":{"key":"09376151","name":"Oberviechtach, St","type":"Stadt"},"district":{"key":"09376","name":"Schwandorf","type":"Landkreis"},"federalState":{"key":"09","name":"Bayern"}},{"name":"Im Winkl","postalCode":"92526","locality":"Oberviechtach","municipality":{"key":"09376151","name":"Oberviechtach, St","type":"Stadt"},"district":{"key":"09376","name":"Schwandorf","type":"Landkreis"},"federalState":{"key":"09","name":"Bayern"}},{"name":"In den Siechenwiesen","postalCode":"92526","locality":"Oberviechtach","municipality":{"key":"09376151","name":"Oberviechtach, St","type":"Stadt"},"district":{"key":"09376","name":"Schwandorf","type":"Landkreis"},"federalState":{"key":"09","name":"Bayern"}},{"name":"Jahnstr.","postalCode":"92526","locality":"Oberviechtach","municipality":{"key":"09376151","name":"Oberviechtach, St","type":"Stadt"},"district":{"key":"09376","name":"Schwandorf","type":"Landkreis"},"federalState":{"key":"09","name":"Bayern"}},{"name":"Johannisberg","postalCode":"92526","locality":"Oberviechtach","municipality":{"key":"09376151","name":"Oberviechtach, St","type":"Stadt"},"district":{"key":"09376","name":"Schwandorf","type":"Landkreis"},"federalState":{"key":"09","name":"Bayern"}},{"name":"Johannisweg","postalCode":"92526","locality":"Oberviechtach","municipality":{"key":"09376151","name":"Oberviechtach, St","type":"Stadt"},"district":{"key":"09376","name":"Schwandorf","type":"Landkreis"},"federalState":{"key":"09","name":"Bayern"}},{"name":"Kapellenweg","postalCode":"92526","locality":"Oberviechtach","municipality":{"key":"09376151","name":"Oberviechtach, St","type":"Stadt"},"district":{"key":"09376","name":"Schwandorf","type":"Landkreis"},"federalState":{"key":"09","name":"Bayern"}},{"name":"Kardinal-Bengsch-Str.","postalCode":"92526","locality":"Oberviechtach","municipality":{"key":"09376151","name":"Oberviechtach, St","type":"Stadt"},"district":{"key":"09376","name":"Schwandorf","type":"Landkreis"},"federalState":{"key":"09","name":"Bayern"}},{"name":"Karfreitaggasse","postalCode":"92526","locality":"Oberviechtach","municipality":{"key":"09376151","name":"Oberviechtach, St","type":"Stadt"},"district":{"key":"09376","name":"Schwandorf","type":"Landkreis"},"federalState":{"key":"09","name":"Bayern"}},{"name":"Kastlstr.","postalCode":"92526","locality":"Oberviechtach","municipality":{"key":"09376151","name":"Oberviechtach, St","type":"Stadt"},"district":{"key":"09376","name":"Schwandorf","type":"Landkreis"},"federalState":{"key":"09","name":"Bayern"}},{"name":"Klostergasse","postalCode":"92526","locality":"Oberviechtach","municipality":{"key":"09376151","name":"Oberviechtach, St","type":"Stadt"},"district":{"key":"09376","name":"Schwandorf","type":"Landkreis"},"federalState":{"key":"09","name":"Bayern"}},{"name":"Krankenhausstr.","postalCode":"92526","locality":"Oberviechtach","municipality":{"key":"09376151","name":"Oberviechtach, St","type":"Stadt"},"district":{"key":"09376","name":"Schwandorf","type":"Landkreis"},"federalState":{"key":"09","name":"Bayern"}},{"name":"Kreissiedlung","postalCode":"92526","locality":"Oberviechtach","municipality":{"key":"09376151","name":"Oberviechtach, St","type":"Stadt"},"district":{"key":"09376","name":"Schwandorf","type":"Landkreis"},"federalState":{"key":"09","name":"Bayern"}},{"name":"Lind","postalCode":"92526","locality":"Oberviechtach","municipality":{"key":"09376151","name":"Oberviechtach, St","type":"Stadt"},"district":{"key":"09376","name":"Schwandorf","type":"Landkreis"},"federalState":{"key":"09","name":"Bayern"}},{"name":"Lukahammer","postalCode":"92526","locality":"Oberviechtach","municipality":{"key":"09376151","name":"Oberviechtach, St","type":"Stadt"},"district":{"key":"09376","name":"Schwandorf","type":"Landkreis"},"federalState":{"key":"09","name":"Bayern"}},{"name":"Marktgasse","postalCode":"92526","locality":"Oberviechtach","municipality":{"key":"09376151","name":"Oberviechtach, St","type":"Stadt"},"district":{"key":"09376","name":"Schwandorf","type":"Landkreis"},"federalState":{"key":"09","name":"Bayern"}},{"name":"Marktplatz","postalCode":"92526","locality":"Oberviechtach","municipality":{"key":"09376151","name":"Oberviechtach, St","type":"Stadt"},"district":{"key":"09376","name":"Schwandorf","type":"Landkreis"},"federalState":{"key":"09","name":"Bayern"}},{"name":"Marktweiherweg","postalCode":"92526","locality":"Oberviechtach","municipality":{"key":"09376151","name":"Oberviechtach, St","type":"Stadt"},"district":{"key":"09376","name":"Schwandorf","type":"Landkreis"},"federalState":{"key":"09","name":"Bayern"}},{"name":"Martelweg","postalCode":"92526","locality":"Oberviechtach","municipality":{"key":"09376151","name":"Oberviechtach, St","type":"Stadt"},"district":{"key":"09376","name":"Schwandorf","type":"Landkreis"},"federalState":{"key":"09","name":"Bayern"}},{"name":"Mitterlangau","postalCode":"92526","locality":"Oberviechtach","municipality":{"key":"09376151","name":"Oberviechtach, St","type":"Stadt"},"district":{"key":"09376","name":"Schwandorf","type":"Landkreis"},"federalState":{"key":"09","name":"Bayern"}},{"name":"Mühlweg","postalCode":"92526","locality":"Oberviechtach","municipality":{"key":"09376151","name":"Oberviechtach, St","type":"Stadt"},"district":{"key":"09376","name":"Schwandorf","type":"Landkreis"},"federalState":{"key":"09","name":"Bayern"}},{"name":"Münchner Ring","postalCode":"92526","locality":"Oberviechtach","municipality":{"key":"09376151","name":"Oberviechtach, St","type":"Stadt"},"district":{"key":"09376","name":"Schwandorf","type":"Landkreis"},"federalState":{"key":"09","name":"Bayern"}},{"name":"Muracher Str.","postalCode":"92526","locality":"Oberviechtach","municipality":{"key":"09376151","name":"Oberviechtach, St","type":"Stadt"},"district":{"key":"09376","name":"Schwandorf","type":"Landkreis"},"federalState":{"key":"09","name":"Bayern"}},{"name":"Nabburger Str.","postalCode":"92526","locality":"Oberviechtach","municipality":{"key":"09376151","name":"Oberviechtach, St","type":"Stadt"},"district":{"key":"09376","name":"Schwandorf","type":"Landkreis"},"federalState":{"key":"09","name":"Bayern"}},{"name":"Nepomukstr.","postalCode":"92526","locality":"Oberviechtach","municipality":{"key":"09376151","name":"Oberviechtach, St","type":"Stadt"},"district":{"key":"09376","name":"Schwandorf","type":"Landkreis"},"federalState":{"key":"09","name":"Bayern"}},{"name":"Niesaß","postalCode":"92526","locality":"Oberviechtach","municipality":{"key":"09376151","name":"Oberviechtach, St","type":"Stadt"},"district":{"key":"09376","name":"Schwandorf","type":"Landkreis"},"federalState":{"key":"09","name":"Bayern"}},{"name":"Nunzenrieder Str.","postalCode":"92526","locality":"Oberviechtach","municipality":{"key":"09376151","name":"Oberviechtach, St","type":"Stadt"},"district":{"key":"09376","name":"Schwandorf","type":"Landkreis"},"federalState":{"key":"09","name":"Bayern"}},{"name":"Oberlangau","postalCode":"92526","locality":"Oberviechtach","municipality":{"key":"09376151","name":"Oberviechtach, St","type":"Stadt"},"district":{"key":"09376","name":"Schwandorf","type":"Landkreis"},"federalState":{"key":"09","name":"Bayern"}},{"name":"Obermurach","postalCode":"92526","locality":"Oberviechtach","municipality":{"key":"09376151","name":"Oberviechtach, St","type":"Stadt"},"district":{"key":"09376","name":"Schwandorf","type":"Landkreis"},"federalState":{"key":"09","name":"Bayern"}},{"name":"Ortenburgstr.","postalCode":"92526","locality":"Oberviechtach","municipality":{"key":"09376151","name":"Oberviechtach, St","type":"Stadt"},"district":{"key":"09376","name":"Schwandorf","type":"Landkreis"},"federalState":{"key":"09","name":"Bayern"}},{"name":"Ostmarkstr.","postalCode":"92526","locality":"Oberviechtach","municipality":{"key":"09376151","name":"Oberviechtach, St","type":"Stadt"},"district":{"key":"09376","name":"Schwandorf","type":"Landkreis"},"federalState":{"key":"09","name":"Bayern"}},{"name":"Ottensteig","postalCode":"92526","locality":"Oberviechtach","municipality":{"key":"09376151","name":"Oberviechtach, St","type":"Stadt"},"district":{"key":"09376","name":"Schwandorf","type":"Landkreis"},"federalState":{"key":"09","name":"Bayern"}},{"name":"Pater-Knellinger-Str.","postalCode":"92526","locality":"Oberviechtach","municipality":{"key":"09376151","name":"Oberviechtach, St","type":"Stadt"},"district":{"key":"09376","name":"Schwandorf","type":"Landkreis"},"federalState":{"key":"09","name":"Bayern"}},{"name":"Pfälzerweg","postalCode":"92526","locality":"Oberviechtach","municipality":{"key":"09376151","name":"Oberviechtach, St","type":"Stadt"},"district":{"key":"09376","name":"Schwandorf","type":"Landkreis"},"federalState":{"key":"09","name":"Bayern"}},{"name":"Pfarrer-von-Miller-Str.","postalCode":"92526","locality":"Oberviechtach","municipality":{"key":"09376151","name":"Oberviechtach, St","type":"Stadt"},"district":{"key":"09376","name":"Schwandorf","type":"Landkreis"},"federalState":{"key":"09","name":"Bayern"}},{"name":"Pirk","postalCode":"92526","locality":"Oberviechtach","municipality":{"key":"09376151","name":"Oberviechtach, St","type":"Stadt"},"district":{"key":"09376","name":"Schwandorf","type":"Landkreis"},"federalState":{"key":"09","name":"Bayern"}},{"name":"Pirkhof","postalCode":"92526","locality":"Oberviechtach","municipality":{"key":"09376151","name":"Oberviechtach, St","type":"Stadt"},"district":{"key":"09376","name":"Schwandorf","type":"Landkreis"},"federalState":{"key":"09","name":"Bayern"}},{"name":"Plechhammer","postalCode":"92526","locality":"Oberviechtach","municipality":{"key":"09376151","name":"Oberviechtach, St","type":"Stadt"},"district":{"key":"09376","name":"Schwandorf","type":"Landkreis"},"federalState":{"key":"09","name":"Bayern"}},{"name":"Prälat-Sindersberger-Str.","postalCode":"92526","locality":"Oberviechtach","municipality":{"key":"09376151","name":"Oberviechtach, St","type":"Stadt"},"district":{"key":"09376","name":"Schwandorf","type":"Landkreis"},"federalState":{"key":"09","name":"Bayern"}},{"name":"Pullenried","postalCode":"92526","locality":"Oberviechtach","municipality":{"key":"09376151","name":"Oberviechtach, St","type":"Stadt"},"district":{"key":"09376","name":"Schwandorf","type":"Landkreis"},"federalState":{"key":"09","name":"Bayern"}},{"name":"Quellweg","postalCode":"92421","locality":"Schwandorf","municipality":{"key":"09376161","name":"Schwandorf, GKSt","type":"Große_Kreisstadt"},"district":{"key":"09376","name":"Schwandorf","type":"Landkreis"},"federalState":{"key":"09","name":"Bayern"}},{"name":"Rapotohöhe","postalCode":"92526","locality":"Oberviechtach","municipality":{"key":"09376151","name":"Oberviechtach, St","type":"Stadt"},"district":{"key":"09376","name":"Schwandorf","type":"Landkreis"},"federalState":{"key":"09","name":"Bayern"}},{"name":"Raschauer Str.","postalCode":"92526","locality":"Oberviechtach","municipality":{"key":"09376151","name":"Oberviechtach, St","type":"Stadt"},"district":{"key":"09376","name":"Schwandorf","type":"Landkreis"},"federalState":{"key":"09","name":"Bayern"}},{"name":"Reiterstr.","postalCode":"92526","locality":"Oberviechtach","municipality":{"key":"09376151","name":"Oberviechtach, St","type":"Stadt"},"district":{"key":"09376","name":"Schwandorf","type":"Landkreis"},"federalState":{"key":"09","name":"Bayern"}},{"name":"Rot-Kreuz-Weg","postalCode":"92526","locality":"Oberviechtach","municipality":{"key":"09376151","name":"Oberviechtach, St","type":"Stadt"},"district":{"key":"09376","name":"Schwandorf","type":"Landkreis"},"federalState":{"key":"09","name":"Bayern"}},{"name":"Sailergasse","postalCode":"92526","locality":"Oberviechtach","municipality":{"key":"09376151","name":"Oberviechtach, St","type":"Stadt"},"district":{"key":"09376","name":"Schwandorf","type":"Landkreis"},"federalState":{"key":"09","name":"Bayern"}},{"name":"Sankt-Wendelin-Str.","postalCode":"92526","locality":"Oberviechtach","municipality":{"key":"09376151","name":"Oberviechtach, St","type":"Stadt"},"district":{"key":"09376","name":"Schwandorf","type":"Landkreis"},"federalState":{"key":"09","name":"Bayern"}},{"name":"Schlesierstr.","postalCode":"92526","locality":"Oberviechtach","municipality":{"key":"09376151","name":"Oberviechtach, St","type":"Stadt"},"district":{"key":"09376","name":"Schwandorf","type":"Landkreis"},"federalState":{"key":"09","name":"Bayern"}},{"name":"Schmiedgasse","postalCode":"92526","locality":"Oberviechtach","municipality":{"key":"09376151","name":"Oberviechtach, St","type":"Stadt"},"district":{"key":"09376","name":"Schwandorf","type":"Landkreis"},"federalState":{"key":"09","name":"Bayern"}},{"name":"Schönseer Str.","postalCode":"92526","locality":"Oberviechtach","municipality":{"key":"09376151","name":"Oberviechtach, St","type":"Stadt"},"district":{"key":"09376","name":"Schwandorf","type":"Landkreis"},"federalState":{"key":"09","name":"Bayern"}},{"name":"Schönthan","postalCode":"92526","locality":"Oberviechtach","municipality":{"key":"09376151","name":"Oberviechtach, St","type":"Stadt"},"district":{"key":"09376","name":"Schwandorf","type":"Landkreis"},"federalState":{"key":"09","name":"Bayern"}},{"name":"Schützenring","postalCode":"92526","locality":"Oberviechtach","municipality":{"key":"09376151","name":"Oberviechtach, St","type":"Stadt"},"district":{"key":"09376","name":"Schwandorf","type":"Landkreis"},"federalState":{"key":"09","name":"Bayern"}},{"name":"Sudetenstr.","postalCode":"92526","locality":"Oberviechtach","municipality":{"key":"09376151","name":"Oberviechtach, St","type":"Stadt"},"district":{"key":"09376","name":"Schwandorf","type":"Landkreis"},"federalState":{"key":"09","name":"Bayern"}},{"name":"Tannenweg","postalCode":"92526","locality":"Oberviechtach","municipality":{"key":"09376151","name":"Oberviechtach, St","type":"Stadt"},"district":{"key":"09376","name":"Schwandorf","type":"Landkreis"},"federalState":{"key":"09","name":"Bayern"}},{"name":"Taubenplatz","postalCode":"92526","locality":"Oberviechtach","municipality":{"key":"09376151","name":"Oberviechtach, St","type":"Stadt"},"district":{"key":"09376","name":"Schwandorf","type":"Landkreis"},"federalState":{"key":"09","name":"Bayern"}},{"name":"Teunzer Str.","postalCode":"92526","locality":"Oberviechtach","municipality":{"key":"09376151","name":"Oberviechtach, St","type":"Stadt"},"district":{"key":"09376","name":"Schwandorf","type":"Landkreis"},"federalState":{"key":"09","name":"Bayern"}},{"name":"Tressenrieder Str.","postalCode":"92526","locality":"Oberviechtach","municipality":{"key":"09376151","name":"Oberviechtach, St","type":"Stadt"},"district":{"key":"09376","name":"Schwandorf","type":"Landkreis"},"federalState":{"key":"09","name":"Bayern"}},{"name":"Turnerweg","postalCode":"92526","locality":"Oberviechtach","municipality":{"key":"09376151","name":"Oberviechtach, St","type":"Stadt"},"district":{"key":"09376","name":"Schwandorf","type":"Landkreis"},"federalState":{"key":"09","name":"Bayern"}},{"name":"Uferstr.","postalCode":"92421","locality":"Schwandorf","municipality":{"key":"09376161","name":"Schwandorf, GKSt","type":"Große_Kreisstadt"},"district":{"key":"09376","name":"Schwandorf","type":"Landkreis"},"federalState":{"key":"09","name":"Bayern"}},{"name":"Uhlandstr.","postalCode":"92421","locality":"Schwandorf","municipality":{"key":"09376161","name":"Schwandorf, GKSt","type":"Große_Kreisstadt"},"district":{"key":"09376","name":"Schwandorf","type":"Landkreis"},"federalState":{"key":"09","name":"Bayern"}},{"name":"Ulmenstr.","postalCode":"92421","locality":"Schwandorf","municipality":{"key":"09376161","name":"Schwandorf, GKSt","type":"Große_Kreisstadt"},"district":{"key":"09376","name":"Schwandorf","type":"Landkreis"},"federalState":{"key":"09","name":"Bayern"}},{"name":"Ulrich-Hiltl-Str.","postalCode":"92421","locality":"Schwandorf","municipality":{"key":"09376161","name":"Schwandorf, GKSt","type":"Große_Kreisstadt"},"district":{"key":"09376","name":"Schwandorf","type":"Landkreis"},"federalState":{"key":"09","name":"Bayern"}},{"name":"Veilchenstr.","postalCode":"92421","locality":"Schwandorf","municipality":{"key":"09376161","name":"Schwandorf, GKSt","type":"Große_Kreisstadt"},"district":{"key":"09376","name":"Schwandorf","type":"Landkreis"},"federalState":{"key":"09","name":"Bayern"}},{"name":"Verbindungs-Rad-Feld-Weg Naabeck-Büchelkühn","postalCode":"92421","locality":"Schwandorf","municipality":{"key":"09376161","name":"Schwandorf, GKSt","type":"Große_Kreisstadt"},"district":{"key":"09376","name":"Schwandorf","type":"Landkreis"},"federalState":{"key":"09","name":"Bayern"}},{"name":"Virchowstr.","postalCode":"92421","locality":"Schwandorf","municipality":{"key":"09376161","name":"Schwandorf, GKSt","type":"Große_Kreisstadt"},"district":{"key":"09376","name":"Schwandorf","type":"Landkreis"},"federalState":{"key":"09","name":"Bayern"}},{"name":"Vogelstr.","postalCode":"92421","locality":"Schwandorf","municipality":{"key":"09376161","name":"Schwandorf, GKSt","type":"Große_Kreisstadt"},"district":{"key":"09376","name":"Schwandorf","type":"Landkreis"},"federalState":{"key":"09","name":"Bayern"}},{"name":"Vogelweide","postalCode":"92421","locality":"Schwandorf","municipality":{"key":"09376161","name":"Schwandorf, GKSt","type":"Große_Kreisstadt"},"district":{"key":"09376","name":"Schwandorf","type":"Landkreis"},"federalState":{"key":"09","name":"Bayern"}},{"name":"Voithenbergstr.","postalCode":"92421","locality":"Schwandorf","municipality":{"key":"09376161","name":"Schwandorf, GKSt","type":"Große_Kreisstadt"},"district":{"key":"09376","name":"Schwandorf","type":"Landkreis"},"federalState":{"key":"09","name":"Bayern"}},{"name":"Voltastr.","postalCode":"92421","locality":"Schwandorf","municipality":{"key":"09376161","name":"Schwandorf, GKSt","type":"Große_Kreisstadt"},"district":{"key":"09376","name":"Schwandorf","type":"Landkreis"},"federalState":{"key":"09","name":"Bayern"}},{"name":"Vorstr.","postalCode":"92421","locality":"Schwandorf","municipality":{"key":"09376161","name":"Schwandorf, GKSt","type":"Große_Kreisstadt"},"district":{"key":"09376","name":"Schwandorf","type":"Landkreis"},"federalState":{"key":"09","name":"Bayern"}},{"name":"Weidenweg","postalCode":"92526","locality":"Oberviechtach","municipality":{"key":"09376151","name":"Oberviechtach, St","type":"Stadt"},"district":{"key":"09376","name":"Schwandorf","type":"Landkreis"},"federalState":{"key":"09","name":"Bayern"}},{"name":"Wildeppenried","postalCode":"92526","locality":"Oberviechtach","municipality":{"key":"09376151","name":"Oberviechtach, St","type":"Stadt"},"district":{"key":"09376","name":"Schwandorf","type":"Landkreis"},"federalState":{"key":"09","name":"Bayern"}},{"name":"Wolfgrubenweg","postalCode":"92526","locality":"Oberviechtach","municipality":{"key":"09376151","name":"Oberviechtach, St","type":"Stadt"},"district":{"key":"09376","name":"Schwandorf","type":"Landkreis"},"federalState":{"key":"09","name":"Bayern"}},{"name":"Wolfsgrubenweg","postalCode":"92526","locality":"Oberviechtach","municipality":{"key":"09376151","name":"Oberviechtach, St","type":"Stadt"},"district":{"key":"09376","name":"Schwandorf","type":"Landkreis"},"federalState":{"key":"09","name":"Bayern"}},{"name":"Zahlweingarten","postalCode":"92526","locality":"Oberviechtach","municipality":{"key":"09376151","name":"Oberviechtach, St","type":"Stadt"},"district":{"key":"09376","name":"Schwandorf","type":"Landkreis"},"federalState":{"key":"09","name":"Bayern"}},{"name":"Ziegelanger","postalCode":"92526","locality":"Oberviechtach","municipality":{"key":"09376151","name":"Oberviechtach, St","type":"Stadt"},"district":{"key":"09376","name":"Schwandorf","type":"Landkreis"},"federalState":{"key":"09","name":"Bayern"}},{"name":"Zum Bahnhof","postalCode":"92526","locality":"Oberviechtach","municipality":{"key":"09376151","name":"Oberviechtach, St","type":"Stadt"},"district":{"key":"09376","name":"Schwandorf","type":"Landkreis"},"federalState":{"key":"09","name":"Bayern"}},{"name":"Zwischen den Gassen","postalCode":"92526","locality":"Oberviechtach","municipality":{"key":"09376151","name":"Oberviechtach, St","type":"Stadt"},"district":{"key":"09376","name":"Schwandorf","type":"Landkreis"},"federalState":{"key":"09","name":"Bayern"}},]