[{"name":"Aitrachstr.","postalCode":"78187","locality":"Geisingen","municipality":{"key":"08327018","name":"Geisingen, Stadt","type":"Stadt"},"district":{"key":"08327","name":"Tuttlingen","type":"Landkreis"},"federalState":{"key":"08","name":"Baden-Württemberg"}},{"name":"Aitrachtalstr.","postalCode":"78187","locality":"Geisingen","municipality":{"key":"08327018","name":"Geisingen, Stadt","type":"Stadt"},"district":{"key":"08327","name":"Tuttlingen","type":"Landkreis"},"federalState":{"key":"08","name":"Baden-Württemberg"}},{"name":"Alemannenstr.","postalCode":"78187","locality":"Geisingen","municipality":{"key":"08327018","name":"Geisingen, Stadt","type":"Stadt"},"district":{"key":"08327","name":"Tuttlingen","type":"Landkreis"},"federalState":{"key":"08","name":"Baden-Württemberg"}},{"name":"Alte Gärtnerei","postalCode":"78187","locality":"Geisingen","municipality":{"key":"08327018","name":"Geisingen, Stadt","type":"Stadt"},"district":{"key":"08327","name":"Tuttlingen","type":"Landkreis"},"federalState":{"key":"08","name":"Baden-Württemberg"}},{"name":"Altenhauweg","postalCode":"78187","locality":"Geisingen","municipality":{"key":"08327018","name":"Geisingen, Stadt","type":"Stadt"},"district":{"key":"08327","name":"Tuttlingen","type":"Landkreis"},"federalState":{"key":"08","name":"Baden-Württemberg"}},{"name":"Alter Postweg","postalCode":"78187","locality":"Geisingen","municipality":{"key":"08327018","name":"Geisingen, Stadt","type":"Stadt"},"district":{"key":"08327","name":"Tuttlingen","type":"Landkreis"},"federalState":{"key":"08","name":"Baden-Württemberg"}},{"name":"Am Amtenstieg","postalCode":"78187","locality":"Geisingen","municipality":{"key":"08327018","name":"Geisingen, Stadt","type":"Stadt"},"district":{"key":"08327","name":"Tuttlingen","type":"Landkreis"},"federalState":{"key":"08","name":"Baden-Württemberg"}},{"name":"Am Bahnhof","postalCode":"78187","locality":"Geisingen","municipality":{"key":"08327018","name":"Geisingen, Stadt","type":"Stadt"},"district":{"key":"08327","name":"Tuttlingen","type":"Landkreis"},"federalState":{"key":"08","name":"Baden-Württemberg"}},{"name":"Am Bergle","postalCode":"78187","locality":"Geisingen","municipality":{"key":"08327018","name":"Geisingen, Stadt","type":"Stadt"},"district":{"key":"08327","name":"Tuttlingen","type":"Landkreis"},"federalState":{"key":"08","name":"Baden-Württemberg"}},{"name":"Am Espen","postalCode":"78187","locality":"Geisingen","municipality":{"key":"08327018","name":"Geisingen, Stadt","type":"Stadt"},"district":{"key":"08327","name":"Tuttlingen","type":"Landkreis"},"federalState":{"key":"08","name":"Baden-Württemberg"}},{"name":"Am Göhren","postalCode":"78187","locality":"Geisingen","municipality":{"key":"08327018","name":"Geisingen, Stadt","type":"Stadt"},"district":{"key":"08327","name":"Tuttlingen","type":"Landkreis"},"federalState":{"key":"08","name":"Baden-Württemberg"}},{"name":"Am Hölzle","postalCode":"78187","locality":"Geisingen","municipality":{"key":"08327018","name":"Geisingen, Stadt","type":"Stadt"},"district":{"key":"08327","name":"Tuttlingen","type":"Landkreis"},"federalState":{"key":"08","name":"Baden-Württemberg"}},{"name":"Am Holzplatz","postalCode":"78187","locality":"Geisingen","municipality":{"key":"08327018","name":"Geisingen, Stadt","type":"Stadt"},"district":{"key":"08327","name":"Tuttlingen","type":"Landkreis"},"federalState":{"key":"08","name":"Baden-Württemberg"}},{"name":"Am Homberg","postalCode":"78187","locality":"Geisingen","municipality":{"key":"08327018","name":"Geisingen, Stadt","type":"Stadt"},"district":{"key":"08327","name":"Tuttlingen","type":"Landkreis"},"federalState":{"key":"08","name":"Baden-Württemberg"}},{"name":"Am Kalkofen","postalCode":"78187","locality":"Geisingen","municipality":{"key":"08327018","name":"Geisingen, Stadt","type":"Stadt"},"district":{"key":"08327","name":"Tuttlingen","type":"Landkreis"},"federalState":{"key":"08","name":"Baden-Württemberg"}},{"name":"Am Pulverturm","postalCode":"78187","locality":"Geisingen","municipality":{"key":"08327018","name":"Geisingen, Stadt","type":"Stadt"},"district":{"key":"08327","name":"Tuttlingen","type":"Landkreis"},"federalState":{"key":"08","name":"Baden-Württemberg"}},{"name":"Am Roten Kreuz","postalCode":"78187","locality":"Geisingen","municipality":{"key":"08327018","name":"Geisingen, Stadt","type":"Stadt"},"district":{"key":"08327","name":"Tuttlingen","type":"Landkreis"},"federalState":{"key":"08","name":"Baden-Württemberg"}},{"name":"Am Schmidtengraben","postalCode":"78187","locality":"Geisingen","municipality":{"key":"08327018","name":"Geisingen, Stadt","type":"Stadt"},"district":{"key":"08327","name":"Tuttlingen","type":"Landkreis"},"federalState":{"key":"08","name":"Baden-Württemberg"}},{"name":"Am Schmittendobel","postalCode":"78187","locality":"Geisingen","municipality":{"key":"08327018","name":"Geisingen, Stadt","type":"Stadt"},"district":{"key":"08327","name":"Tuttlingen","type":"Landkreis"},"federalState":{"key":"08","name":"Baden-Württemberg"}},{"name":"Am Tierenbach","postalCode":"78187","locality":"Geisingen","municipality":{"key":"08327018","name":"Geisingen, Stadt","type":"Stadt"},"district":{"key":"08327","name":"Tuttlingen","type":"Landkreis"},"federalState":{"key":"08","name":"Baden-Württemberg"}},{"name":"An der Steig","postalCode":"78187","locality":"Geisingen","municipality":{"key":"08327018","name":"Geisingen, Stadt","type":"Stadt"},"district":{"key":"08327","name":"Tuttlingen","type":"Landkreis"},"federalState":{"key":"08","name":"Baden-Württemberg"}},{"name":"Auf der warmen Steig","postalCode":"78187","locality":"Geisingen","municipality":{"key":"08327018","name":"Geisingen, Stadt","type":"Stadt"},"district":{"key":"08327","name":"Tuttlingen","type":"Landkreis"},"federalState":{"key":"08","name":"Baden-Württemberg"}},{"name":"Auf Hochstetten","postalCode":"78187","locality":"Geisingen","municipality":{"key":"08327018","name":"Geisingen, Stadt","type":"Stadt"},"district":{"key":"08327","name":"Tuttlingen","type":"Landkreis"},"federalState":{"key":"08","name":"Baden-Württemberg"}},{"name":"Auf Wiehl","postalCode":"78187","locality":"Geisingen","municipality":{"key":"08327018","name":"Geisingen, Stadt","type":"Stadt"},"district":{"key":"08327","name":"Tuttlingen","type":"Landkreis"},"federalState":{"key":"08","name":"Baden-Württemberg"}},{"name":"Bachgasse","postalCode":"78187","locality":"Geisingen","municipality":{"key":"08327018","name":"Geisingen, Stadt","type":"Stadt"},"district":{"key":"08327","name":"Tuttlingen","type":"Landkreis"},"federalState":{"key":"08","name":"Baden-Württemberg"}},{"name":"Badisch Morgenweg","postalCode":"78187","locality":"Geisingen","municipality":{"key":"08327018","name":"Geisingen, Stadt","type":"Stadt"},"district":{"key":"08327","name":"Tuttlingen","type":"Landkreis"},"federalState":{"key":"08","name":"Baden-Württemberg"}},{"name":"Bahnhofstr.","postalCode":"78187","locality":"Geisingen","municipality":{"key":"08327018","name":"Geisingen, Stadt","type":"Stadt"},"district":{"key":"08327","name":"Tuttlingen","type":"Landkreis"},"federalState":{"key":"08","name":"Baden-Württemberg"}},{"name":"Baldinger Str.","postalCode":"78187","locality":"Geisingen","municipality":{"key":"08327018","name":"Geisingen, Stadt","type":"Stadt"},"district":{"key":"08327","name":"Tuttlingen","type":"Landkreis"},"federalState":{"key":"08","name":"Baden-Württemberg"}},{"name":"Banatstr.","postalCode":"78187","locality":"Geisingen","municipality":{"key":"08327018","name":"Geisingen, Stadt","type":"Stadt"},"district":{"key":"08327","name":"Tuttlingen","type":"Landkreis"},"federalState":{"key":"08","name":"Baden-Württemberg"}},{"name":"Bärhaldenweg","postalCode":"78187","locality":"Geisingen","municipality":{"key":"08327018","name":"Geisingen, Stadt","type":"Stadt"},"district":{"key":"08327","name":"Tuttlingen","type":"Landkreis"},"federalState":{"key":"08","name":"Baden-Württemberg"}},{"name":"Bergleweg","postalCode":"78187","locality":"Geisingen","municipality":{"key":"08327018","name":"Geisingen, Stadt","type":"Stadt"},"district":{"key":"08327","name":"Tuttlingen","type":"Landkreis"},"federalState":{"key":"08","name":"Baden-Württemberg"}},{"name":"Bergstr.","postalCode":"78187","locality":"Geisingen","municipality":{"key":"08327018","name":"Geisingen, Stadt","type":"Stadt"},"district":{"key":"08327","name":"Tuttlingen","type":"Landkreis"},"federalState":{"key":"08","name":"Baden-Württemberg"}},{"name":"Birkenweg","postalCode":"78187","locality":"Geisingen","municipality":{"key":"08327018","name":"Geisingen, Stadt","type":"Stadt"},"district":{"key":"08327","name":"Tuttlingen","type":"Landkreis"},"federalState":{"key":"08","name":"Baden-Württemberg"}},{"name":"Bitzstr.","postalCode":"78187","locality":"Geisingen","municipality":{"key":"08327018","name":"Geisingen, Stadt","type":"Stadt"},"district":{"key":"08327","name":"Tuttlingen","type":"Landkreis"},"federalState":{"key":"08","name":"Baden-Württemberg"}},{"name":"Bodenseestr.","postalCode":"78187","locality":"Geisingen","municipality":{"key":"08327018","name":"Geisingen, Stadt","type":"Stadt"},"district":{"key":"08327","name":"Tuttlingen","type":"Landkreis"},"federalState":{"key":"08","name":"Baden-Württemberg"}},{"name":"Bogengasse","postalCode":"78187","locality":"Geisingen","municipality":{"key":"08327018","name":"Geisingen, Stadt","type":"Stadt"},"district":{"key":"08327","name":"Tuttlingen","type":"Landkreis"},"federalState":{"key":"08","name":"Baden-Württemberg"}},{"name":"Bohlstr.","postalCode":"78187","locality":"Geisingen","municipality":{"key":"08327018","name":"Geisingen, Stadt","type":"Stadt"},"district":{"key":"08327","name":"Tuttlingen","type":"Landkreis"},"federalState":{"key":"08","name":"Baden-Württemberg"}},{"name":"Bohlweg","postalCode":"78187","locality":"Geisingen","municipality":{"key":"08327018","name":"Geisingen, Stadt","type":"Stadt"},"district":{"key":"08327","name":"Tuttlingen","type":"Landkreis"},"federalState":{"key":"08","name":"Baden-Württemberg"}},{"name":"Brühlstr.","postalCode":"78187","locality":"Geisingen","municipality":{"key":"08327018","name":"Geisingen, Stadt","type":"Stadt"},"district":{"key":"08327","name":"Tuttlingen","type":"Landkreis"},"federalState":{"key":"08","name":"Baden-Württemberg"}},{"name":"Buckstr.","postalCode":"78187","locality":"Geisingen","municipality":{"key":"08327018","name":"Geisingen, Stadt","type":"Stadt"},"district":{"key":"08327","name":"Tuttlingen","type":"Landkreis"},"federalState":{"key":"08","name":"Baden-Württemberg"}},{"name":"Carl-Benz-Str.","postalCode":"78532","locality":"Tuttlingen","municipality":{"key":"08327050","name":"Tuttlingen, Stadt","type":"Große_Kreisstadt"},"district":{"key":"08327","name":"Tuttlingen","type":"Landkreis"},"federalState":{"key":"08","name":"Baden-Württemberg"}},{"name":"Carl-Zeiss-Str.","postalCode":"78532","locality":"Tuttlingen","municipality":{"key":"08327050","name":"Tuttlingen, Stadt","type":"Große_Kreisstadt"},"district":{"key":"08327","name":"Tuttlingen","type":"Landkreis"},"federalState":{"key":"08","name":"Baden-Württemberg"}},{"name":"Charlottenstr.","postalCode":"78532","locality":"Tuttlingen","municipality":{"key":"08327050","name":"Tuttlingen, Stadt","type":"Große_Kreisstadt"},"district":{"key":"08327","name":"Tuttlingen","type":"Landkreis"},"federalState":{"key":"08","name":"Baden-Württemberg"}},{"name":"Christian-Scheerer-Str.","postalCode":"78532","locality":"Tuttlingen","municipality":{"key":"08327050","name":"Tuttlingen, Stadt","type":"Große_Kreisstadt"},"district":{"key":"08327","name":"Tuttlingen","type":"Landkreis"},"federalState":{"key":"08","name":"Baden-Württemberg"}},{"name":"Christophstr.","postalCode":"78532","locality":"Tuttlingen","municipality":{"key":"08327050","name":"Tuttlingen, Stadt","type":"Große_Kreisstadt"},"district":{"key":"08327","name":"Tuttlingen","type":"Landkreis"},"federalState":{"key":"08","name":"Baden-Württemberg"}},{"name":"Dekan-Hornung-Str.","postalCode":"78187","locality":"Geisingen","municipality":{"key":"08327018","name":"Geisingen, Stadt","type":"Stadt"},"district":{"key":"08327","name":"Tuttlingen","type":"Landkreis"},"federalState":{"key":"08","name":"Baden-Württemberg"}},{"name":"Doktor-Arko-Str.","postalCode":"78187","locality":"Geisingen","municipality":{"key":"08327018","name":"Geisingen, Stadt","type":"Stadt"},"district":{"key":"08327","name":"Tuttlingen","type":"Landkreis"},"federalState":{"key":"08","name":"Baden-Württemberg"}},{"name":"Donaustr.","postalCode":"78187","locality":"Geisingen","municipality":{"key":"08327018","name":"Geisingen, Stadt","type":"Stadt"},"district":{"key":"08327","name":"Tuttlingen","type":"Landkreis"},"federalState":{"key":"08","name":"Baden-Württemberg"}},{"name":"Donautalstr.","postalCode":"78187","locality":"Geisingen","municipality":{"key":"08327018","name":"Geisingen, Stadt","type":"Stadt"},"district":{"key":"08327","name":"Tuttlingen","type":"Landkreis"},"federalState":{"key":"08","name":"Baden-Württemberg"}},{"name":"Droste-Hülshoff-Str.","postalCode":"78187","locality":"Geisingen","municipality":{"key":"08327018","name":"Geisingen, Stadt","type":"Stadt"},"district":{"key":"08327","name":"Tuttlingen","type":"Landkreis"},"federalState":{"key":"08","name":"Baden-Württemberg"}},{"name":"Ehrenburg Hauptweg","postalCode":"78187","locality":"Geisingen","municipality":{"key":"08327018","name":"Geisingen, Stadt","type":"Stadt"},"district":{"key":"08327","name":"Tuttlingen","type":"Landkreis"},"federalState":{"key":"08","name":"Baden-Württemberg"}},{"name":"Ehrenburg Rundweg","postalCode":"78187","locality":"Geisingen","municipality":{"key":"08327018","name":"Geisingen, Stadt","type":"Stadt"},"district":{"key":"08327","name":"Tuttlingen","type":"Landkreis"},"federalState":{"key":"08","name":"Baden-Württemberg"}},{"name":"Ehrenburgsteigweg","postalCode":"78187","locality":"Geisingen","municipality":{"key":"08327018","name":"Geisingen, Stadt","type":"Stadt"},"district":{"key":"08327","name":"Tuttlingen","type":"Landkreis"},"federalState":{"key":"08","name":"Baden-Württemberg"}},{"name":"Eichbergweg","postalCode":"78187","locality":"Geisingen","municipality":{"key":"08327018","name":"Geisingen, Stadt","type":"Stadt"},"district":{"key":"08327","name":"Tuttlingen","type":"Landkreis"},"federalState":{"key":"08","name":"Baden-Württemberg"}},{"name":"Eichendorffstr.","postalCode":"78187","locality":"Geisingen","municipality":{"key":"08327018","name":"Geisingen, Stadt","type":"Stadt"},"district":{"key":"08327","name":"Tuttlingen","type":"Landkreis"},"federalState":{"key":"08","name":"Baden-Württemberg"}},{"name":"Eichhaldenstr.","postalCode":"78187","locality":"Geisingen","municipality":{"key":"08327018","name":"Geisingen, Stadt","type":"Stadt"},"district":{"key":"08327","name":"Tuttlingen","type":"Landkreis"},"federalState":{"key":"08","name":"Baden-Württemberg"}},{"name":"Eigentalweg","postalCode":"78187","locality":"Geisingen","municipality":{"key":"08327018","name":"Geisingen, Stadt","type":"Stadt"},"district":{"key":"08327","name":"Tuttlingen","type":"Landkreis"},"federalState":{"key":"08","name":"Baden-Württemberg"}},{"name":"Emmishofer-Str.","postalCode":"78187","locality":"Geisingen","municipality":{"key":"08327018","name":"Geisingen, Stadt","type":"Stadt"},"district":{"key":"08327","name":"Tuttlingen","type":"Landkreis"},"federalState":{"key":"08","name":"Baden-Württemberg"}},{"name":"Engener Str.","postalCode":"78187","locality":"Geisingen","municipality":{"key":"08327018","name":"Geisingen, Stadt","type":"Stadt"},"district":{"key":"08327","name":"Tuttlingen","type":"Landkreis"},"federalState":{"key":"08","name":"Baden-Württemberg"}},{"name":"Eschentalweg","postalCode":"78187","locality":"Geisingen","municipality":{"key":"08327018","name":"Geisingen, Stadt","type":"Stadt"},"district":{"key":"08327","name":"Tuttlingen","type":"Landkreis"},"federalState":{"key":"08","name":"Baden-Württemberg"}},{"name":"Eselmühlenweg","postalCode":"78187","locality":"Geisingen","municipality":{"key":"08327018","name":"Geisingen, Stadt","type":"Stadt"},"district":{"key":"08327","name":"Tuttlingen","type":"Landkreis"},"federalState":{"key":"08","name":"Baden-Württemberg"}},{"name":"Felix-Wankel-Str.","postalCode":"78187","locality":"Geisingen","municipality":{"key":"08327018","name":"Geisingen, Stadt","type":"Stadt"},"district":{"key":"08327","name":"Tuttlingen","type":"Landkreis"},"federalState":{"key":"08","name":"Baden-Württemberg"}},{"name":"Fichtenweg","postalCode":"78187","locality":"Geisingen","municipality":{"key":"08327018","name":"Geisingen, Stadt","type":"Stadt"},"district":{"key":"08327","name":"Tuttlingen","type":"Landkreis"},"federalState":{"key":"08","name":"Baden-Württemberg"}},{"name":"Fliederweg","postalCode":"78187","locality":"Geisingen","municipality":{"key":"08327018","name":"Geisingen, Stadt","type":"Stadt"},"district":{"key":"08327","name":"Tuttlingen","type":"Landkreis"},"federalState":{"key":"08","name":"Baden-Württemberg"}},{"name":"Friedhofstr.","postalCode":"78187","locality":"Geisingen","municipality":{"key":"08327018","name":"Geisingen, Stadt","type":"Stadt"},"district":{"key":"08327","name":"Tuttlingen","type":"Landkreis"},"federalState":{"key":"08","name":"Baden-Württemberg"}},{"name":"Fünfeckerweg","postalCode":"78187","locality":"Geisingen","municipality":{"key":"08327018","name":"Geisingen, Stadt","type":"Stadt"},"district":{"key":"08327","name":"Tuttlingen","type":"Landkreis"},"federalState":{"key":"08","name":"Baden-Württemberg"}},{"name":"Gartenstr.","postalCode":"78187","locality":"Geisingen","municipality":{"key":"08327018","name":"Geisingen, Stadt","type":"Stadt"},"district":{"key":"08327","name":"Tuttlingen","type":"Landkreis"},"federalState":{"key":"08","name":"Baden-Württemberg"}},{"name":"Gauertstr.","postalCode":"78187","locality":"Geisingen","municipality":{"key":"08327018","name":"Geisingen, Stadt","type":"Stadt"},"district":{"key":"08327","name":"Tuttlingen","type":"Landkreis"},"federalState":{"key":"08","name":"Baden-Württemberg"}},{"name":"Gemeindewiesweg","postalCode":"78187","locality":"Geisingen","municipality":{"key":"08327018","name":"Geisingen, Stadt","type":"Stadt"},"district":{"key":"08327","name":"Tuttlingen","type":"Landkreis"},"federalState":{"key":"08","name":"Baden-Württemberg"}},{"name":"Geranienweg","postalCode":"78187","locality":"Geisingen","municipality":{"key":"08327018","name":"Geisingen, Stadt","type":"Stadt"},"district":{"key":"08327","name":"Tuttlingen","type":"Landkreis"},"federalState":{"key":"08","name":"Baden-Württemberg"}},{"name":"Gerber-Fischer-Str.","postalCode":"78187","locality":"Geisingen","municipality":{"key":"08327018","name":"Geisingen, Stadt","type":"Stadt"},"district":{"key":"08327","name":"Tuttlingen","type":"Landkreis"},"federalState":{"key":"08","name":"Baden-Württemberg"}},{"name":"Gerwigstr.","postalCode":"78187","locality":"Geisingen","municipality":{"key":"08327018","name":"Geisingen, Stadt","type":"Stadt"},"district":{"key":"08327","name":"Tuttlingen","type":"Landkreis"},"federalState":{"key":"08","name":"Baden-Württemberg"}},{"name":"Goethestr.","postalCode":"78187","locality":"Geisingen","municipality":{"key":"08327018","name":"Geisingen, Stadt","type":"Stadt"},"district":{"key":"08327","name":"Tuttlingen","type":"Landkreis"},"federalState":{"key":"08","name":"Baden-Württemberg"}},{"name":"Grillplatz im Pfaffental","postalCode":"78187","locality":"Geisingen","municipality":{"key":"08327018","name":"Geisingen, Stadt","type":"Stadt"},"district":{"key":"08327","name":"Tuttlingen","type":"Landkreis"},"federalState":{"key":"08","name":"Baden-Württemberg"}},{"name":"Grünwinkel","postalCode":"78187","locality":"Geisingen","municipality":{"key":"08327018","name":"Geisingen, Stadt","type":"Stadt"},"district":{"key":"08327","name":"Tuttlingen","type":"Landkreis"},"federalState":{"key":"08","name":"Baden-Württemberg"}},{"name":"Hangstr.","postalCode":"78187","locality":"Geisingen","municipality":{"key":"08327018","name":"Geisingen, Stadt","type":"Stadt"},"district":{"key":"08327","name":"Tuttlingen","type":"Landkreis"},"federalState":{"key":"08","name":"Baden-Württemberg"}},{"name":"Hans-Kramer-Str.","postalCode":"78187","locality":"Geisingen","municipality":{"key":"08327018","name":"Geisingen, Stadt","type":"Stadt"},"district":{"key":"08327","name":"Tuttlingen","type":"Landkreis"},"federalState":{"key":"08","name":"Baden-Württemberg"}},{"name":"Hans-Thoma-Str.","postalCode":"78187","locality":"Geisingen","municipality":{"key":"08327018","name":"Geisingen, Stadt","type":"Stadt"},"district":{"key":"08327","name":"Tuttlingen","type":"Landkreis"},"federalState":{"key":"08","name":"Baden-Württemberg"}},{"name":"Hauptstr.","postalCode":"78187","locality":"Geisingen","municipality":{"key":"08327018","name":"Geisingen, Stadt","type":"Stadt"},"district":{"key":"08327","name":"Tuttlingen","type":"Landkreis"},"federalState":{"key":"08","name":"Baden-Württemberg"}},{"name":"Hauserswiesen-Ring","postalCode":"78187","locality":"Geisingen","municipality":{"key":"08327018","name":"Geisingen, Stadt","type":"Stadt"},"district":{"key":"08327","name":"Tuttlingen","type":"Landkreis"},"federalState":{"key":"08","name":"Baden-Württemberg"}},{"name":"Hebelstr.","postalCode":"78187","locality":"Geisingen","municipality":{"key":"08327018","name":"Geisingen, Stadt","type":"Stadt"},"district":{"key":"08327","name":"Tuttlingen","type":"Landkreis"},"federalState":{"key":"08","name":"Baden-Württemberg"}},{"name":"Hegaustr.","postalCode":"78187","locality":"Geisingen","municipality":{"key":"08327018","name":"Geisingen, Stadt","type":"Stadt"},"district":{"key":"08327","name":"Tuttlingen","type":"Landkreis"},"federalState":{"key":"08","name":"Baden-Württemberg"}},{"name":"Hermann-Schäufele-Str.","postalCode":"78187","locality":"Geisingen","municipality":{"key":"08327018","name":"Geisingen, Stadt","type":"Stadt"},"district":{"key":"08327","name":"Tuttlingen","type":"Landkreis"},"federalState":{"key":"08","name":"Baden-Württemberg"}},{"name":"Herrenkäpfle-Haldenweg","postalCode":"78187","locality":"Geisingen","municipality":{"key":"08327018","name":"Geisingen, Stadt","type":"Stadt"},"district":{"key":"08327","name":"Tuttlingen","type":"Landkreis"},"federalState":{"key":"08","name":"Baden-Württemberg"}},{"name":"Hinter Gärten","postalCode":"78187","locality":"Geisingen","municipality":{"key":"08327018","name":"Geisingen, Stadt","type":"Stadt"},"district":{"key":"08327","name":"Tuttlingen","type":"Landkreis"},"federalState":{"key":"08","name":"Baden-Württemberg"}},{"name":"Hinterhofen","postalCode":"78187","locality":"Geisingen","municipality":{"key":"08327018","name":"Geisingen, Stadt","type":"Stadt"},"district":{"key":"08327","name":"Tuttlingen","type":"Landkreis"},"federalState":{"key":"08","name":"Baden-Württemberg"}},{"name":"Hirschgasse","postalCode":"78187","locality":"Geisingen","municipality":{"key":"08327018","name":"Geisingen, Stadt","type":"Stadt"},"district":{"key":"08327","name":"Tuttlingen","type":"Landkreis"},"federalState":{"key":"08","name":"Baden-Württemberg"}},{"name":"Hühnerbühlweg","postalCode":"78187","locality":"Geisingen","municipality":{"key":"08327018","name":"Geisingen, Stadt","type":"Stadt"},"district":{"key":"08327","name":"Tuttlingen","type":"Landkreis"},"federalState":{"key":"08","name":"Baden-Württemberg"}},{"name":"Hüttenweg","postalCode":"78187","locality":"Geisingen","municipality":{"key":"08327018","name":"Geisingen, Stadt","type":"Stadt"},"district":{"key":"08327","name":"Tuttlingen","type":"Landkreis"},"federalState":{"key":"08","name":"Baden-Württemberg"}},{"name":"Im Espel","postalCode":"78187","locality":"Geisingen","municipality":{"key":"08327018","name":"Geisingen, Stadt","type":"Stadt"},"district":{"key":"08327","name":"Tuttlingen","type":"Landkreis"},"federalState":{"key":"08","name":"Baden-Württemberg"}},{"name":"Im Gässle","postalCode":"78187","locality":"Geisingen","municipality":{"key":"08327018","name":"Geisingen, Stadt","type":"Stadt"},"district":{"key":"08327","name":"Tuttlingen","type":"Landkreis"},"federalState":{"key":"08","name":"Baden-Württemberg"}},{"name":"Im Krähenloch","postalCode":"78187","locality":"Geisingen","municipality":{"key":"08327018","name":"Geisingen, Stadt","type":"Stadt"},"district":{"key":"08327","name":"Tuttlingen","type":"Landkreis"},"federalState":{"key":"08","name":"Baden-Württemberg"}},{"name":"Im Krautgartenweg","postalCode":"78187","locality":"Geisingen","municipality":{"key":"08327018","name":"Geisingen, Stadt","type":"Stadt"},"district":{"key":"08327","name":"Tuttlingen","type":"Landkreis"},"federalState":{"key":"08","name":"Baden-Württemberg"}},{"name":"Immensitz","postalCode":"78187","locality":"Geisingen","municipality":{"key":"08327018","name":"Geisingen, Stadt","type":"Stadt"},"district":{"key":"08327","name":"Tuttlingen","type":"Landkreis"},"federalState":{"key":"08","name":"Baden-Württemberg"}},{"name":"Im Ried","postalCode":"78187","locality":"Geisingen","municipality":{"key":"08327018","name":"Geisingen, Stadt","type":"Stadt"},"district":{"key":"08327","name":"Tuttlingen","type":"Landkreis"},"federalState":{"key":"08","name":"Baden-Württemberg"}},{"name":"Im Winkel","postalCode":"78187","locality":"Geisingen","municipality":{"key":"08327018","name":"Geisingen, Stadt","type":"Stadt"},"district":{"key":"08327","name":"Tuttlingen","type":"Landkreis"},"federalState":{"key":"08","name":"Baden-Württemberg"}},{"name":"In der Au","postalCode":"78187","locality":"Geisingen","municipality":{"key":"08327018","name":"Geisingen, Stadt","type":"Stadt"},"district":{"key":"08327","name":"Tuttlingen","type":"Landkreis"},"federalState":{"key":"08","name":"Baden-Württemberg"}},{"name":"Jakob-Barth-Str.","postalCode":"78187","locality":"Geisingen","municipality":{"key":"08327018","name":"Geisingen, Stadt","type":"Stadt"},"district":{"key":"08327","name":"Tuttlingen","type":"Landkreis"},"federalState":{"key":"08","name":"Baden-Württemberg"}},{"name":"Kaiserhüttenweg","postalCode":"78187","locality":"Geisingen","municipality":{"key":"08327018","name":"Geisingen, Stadt","type":"Stadt"},"district":{"key":"08327","name":"Tuttlingen","type":"Landkreis"},"federalState":{"key":"08","name":"Baden-Württemberg"}},{"name":"Kaltenbrunnenweg","postalCode":"78187","locality":"Geisingen","municipality":{"key":"08327018","name":"Geisingen, Stadt","type":"Stadt"},"district":{"key":"08327","name":"Tuttlingen","type":"Landkreis"},"federalState":{"key":"08","name":"Baden-Württemberg"}},{"name":"Karl-Blaser-Str.","postalCode":"78187","locality":"Geisingen","municipality":{"key":"08327018","name":"Geisingen, Stadt","type":"Stadt"},"district":{"key":"08327","name":"Tuttlingen","type":"Landkreis"},"federalState":{"key":"08","name":"Baden-Württemberg"}},{"name":"Karl-Hall-Str.","postalCode":"78187","locality":"Geisingen","municipality":{"key":"08327018","name":"Geisingen, Stadt","type":"Stadt"},"district":{"key":"08327","name":"Tuttlingen","type":"Landkreis"},"federalState":{"key":"08","name":"Baden-Württemberg"}},{"name":"Karl-Jäck-Str.","postalCode":"78187","locality":"Geisingen","municipality":{"key":"08327018","name":"Geisingen, Stadt","type":"Stadt"},"district":{"key":"08327","name":"Tuttlingen","type":"Landkreis"},"federalState":{"key":"08","name":"Baden-Württemberg"}},{"name":"Karl-Wacker-Str.","postalCode":"78187","locality":"Geisingen","municipality":{"key":"08327018","name":"Geisingen, Stadt","type":"Stadt"},"district":{"key":"08327","name":"Tuttlingen","type":"Landkreis"},"federalState":{"key":"08","name":"Baden-Württemberg"}},{"name":"Katzensteigweg","postalCode":"78187","locality":"Geisingen","municipality":{"key":"08327018","name":"Geisingen, Stadt","type":"Stadt"},"district":{"key":"08327","name":"Tuttlingen","type":"Landkreis"},"federalState":{"key":"08","name":"Baden-Württemberg"}},{"name":"Kellhofstr.","postalCode":"78187","locality":"Geisingen","municipality":{"key":"08327018","name":"Geisingen, Stadt","type":"Stadt"},"district":{"key":"08327","name":"Tuttlingen","type":"Landkreis"},"federalState":{"key":"08","name":"Baden-Württemberg"}},{"name":"Kindergartenweg","postalCode":"78187","locality":"Geisingen","municipality":{"key":"08327018","name":"Geisingen, Stadt","type":"Stadt"},"district":{"key":"08327","name":"Tuttlingen","type":"Landkreis"},"federalState":{"key":"08","name":"Baden-Württemberg"}},{"name":"Kirchstr.","postalCode":"78187","locality":"Geisingen","municipality":{"key":"08327018","name":"Geisingen, Stadt","type":"Stadt"},"district":{"key":"08327","name":"Tuttlingen","type":"Landkreis"},"federalState":{"key":"08","name":"Baden-Württemberg"}},{"name":"Kirchtalstr.","postalCode":"78187","locality":"Geisingen","municipality":{"key":"08327018","name":"Geisingen, Stadt","type":"Stadt"},"district":{"key":"08327","name":"Tuttlingen","type":"Landkreis"},"federalState":{"key":"08","name":"Baden-Württemberg"}},{"name":"Kirchweg","postalCode":"78187","locality":"Geisingen","municipality":{"key":"08327018","name":"Geisingen, Stadt","type":"Stadt"},"district":{"key":"08327","name":"Tuttlingen","type":"Landkreis"},"federalState":{"key":"08","name":"Baden-Württemberg"}},{"name":"Klausenertalweg","postalCode":"78187","locality":"Geisingen","municipality":{"key":"08327018","name":"Geisingen, Stadt","type":"Stadt"},"district":{"key":"08327","name":"Tuttlingen","type":"Landkreis"},"federalState":{"key":"08","name":"Baden-Württemberg"}},{"name":"Kleine Breite","postalCode":"78187","locality":"Geisingen","municipality":{"key":"08327018","name":"Geisingen, Stadt","type":"Stadt"},"district":{"key":"08327","name":"Tuttlingen","type":"Landkreis"},"federalState":{"key":"08","name":"Baden-Württemberg"}},{"name":"KM","postalCode":"78187","locality":"Geisingen","municipality":{"key":"08327018","name":"Geisingen, Stadt","type":"Stadt"},"district":{"key":"08327","name":"Tuttlingen","type":"Landkreis"},"federalState":{"key":"08","name":"Baden-Württemberg"}},{"name":"Kötachstr.","postalCode":"78187","locality":"Geisingen","municipality":{"key":"08327018","name":"Geisingen, Stadt","type":"Stadt"},"district":{"key":"08327","name":"Tuttlingen","type":"Landkreis"},"federalState":{"key":"08","name":"Baden-Württemberg"}},{"name":"Krankenhausstr.","postalCode":"78187","locality":"Geisingen","municipality":{"key":"08327018","name":"Geisingen, Stadt","type":"Stadt"},"district":{"key":"08327","name":"Tuttlingen","type":"Landkreis"},"federalState":{"key":"08","name":"Baden-Württemberg"}},{"name":"Kreyenloch","postalCode":"78187","locality":"Geisingen","municipality":{"key":"08327018","name":"Geisingen, Stadt","type":"Stadt"},"district":{"key":"08327","name":"Tuttlingen","type":"Landkreis"},"federalState":{"key":"08","name":"Baden-Württemberg"}},{"name":"Lange Steig","postalCode":"78187","locality":"Geisingen","municipality":{"key":"08327018","name":"Geisingen, Stadt","type":"Stadt"},"district":{"key":"08327","name":"Tuttlingen","type":"Landkreis"},"federalState":{"key":"08","name":"Baden-Württemberg"}},{"name":"Längestr.","postalCode":"78187","locality":"Geisingen","municipality":{"key":"08327018","name":"Geisingen, Stadt","type":"Stadt"},"district":{"key":"08327","name":"Tuttlingen","type":"Landkreis"},"federalState":{"key":"08","name":"Baden-Württemberg"}},{"name":"Längewaldstr.","postalCode":"78187","locality":"Geisingen","municipality":{"key":"08327018","name":"Geisingen, Stadt","type":"Stadt"},"district":{"key":"08327","name":"Tuttlingen","type":"Landkreis"},"federalState":{"key":"08","name":"Baden-Württemberg"}},{"name":"Längeweg","postalCode":"78187","locality":"Geisingen","municipality":{"key":"08327018","name":"Geisingen, Stadt","type":"Stadt"},"district":{"key":"08327","name":"Tuttlingen","type":"Landkreis"},"federalState":{"key":"08","name":"Baden-Württemberg"}},{"name":"Längstelweg","postalCode":"78187","locality":"Geisingen","municipality":{"key":"08327018","name":"Geisingen, Stadt","type":"Stadt"},"district":{"key":"08327","name":"Tuttlingen","type":"Landkreis"},"federalState":{"key":"08","name":"Baden-Württemberg"}},{"name":"Leinäckerweg","postalCode":"78187","locality":"Geisingen","municipality":{"key":"08327018","name":"Geisingen, Stadt","type":"Stadt"},"district":{"key":"08327","name":"Tuttlingen","type":"Landkreis"},"federalState":{"key":"08","name":"Baden-Württemberg"}},{"name":"Leitelsteigweg","postalCode":"78187","locality":"Geisingen","municipality":{"key":"08327018","name":"Geisingen, Stadt","type":"Stadt"},"district":{"key":"08327","name":"Tuttlingen","type":"Landkreis"},"federalState":{"key":"08","name":"Baden-Württemberg"}},{"name":"Lilienweg","postalCode":"78187","locality":"Geisingen","municipality":{"key":"08327018","name":"Geisingen, Stadt","type":"Stadt"},"district":{"key":"08327","name":"Tuttlingen","type":"Landkreis"},"federalState":{"key":"08","name":"Baden-Württemberg"}},{"name":"Löwengasse","postalCode":"78187","locality":"Geisingen","municipality":{"key":"08327018","name":"Geisingen, Stadt","type":"Stadt"},"district":{"key":"08327","name":"Tuttlingen","type":"Landkreis"},"federalState":{"key":"08","name":"Baden-Württemberg"}},{"name":"Luitfriedstr.","postalCode":"78187","locality":"Geisingen","municipality":{"key":"08327018","name":"Geisingen, Stadt","type":"Stadt"},"district":{"key":"08327","name":"Tuttlingen","type":"Landkreis"},"federalState":{"key":"08","name":"Baden-Württemberg"}},{"name":"Margeritenweg","postalCode":"78187","locality":"Geisingen","municipality":{"key":"08327018","name":"Geisingen, Stadt","type":"Stadt"},"district":{"key":"08327","name":"Tuttlingen","type":"Landkreis"},"federalState":{"key":"08","name":"Baden-Württemberg"}},{"name":"Mohrengasse","postalCode":"78187","locality":"Geisingen","municipality":{"key":"08327018","name":"Geisingen, Stadt","type":"Stadt"},"district":{"key":"08327","name":"Tuttlingen","type":"Landkreis"},"federalState":{"key":"08","name":"Baden-Württemberg"}},{"name":"Molkereigasse","postalCode":"78187","locality":"Geisingen","municipality":{"key":"08327018","name":"Geisingen, Stadt","type":"Stadt"},"district":{"key":"08327","name":"Tuttlingen","type":"Landkreis"},"federalState":{"key":"08","name":"Baden-Württemberg"}},{"name":"Mühlenweg","postalCode":"78187","locality":"Geisingen","municipality":{"key":"08327018","name":"Geisingen, Stadt","type":"Stadt"},"district":{"key":"08327","name":"Tuttlingen","type":"Landkreis"},"federalState":{"key":"08","name":"Baden-Württemberg"}},{"name":"Mühltalstr.","postalCode":"78187","locality":"Geisingen","municipality":{"key":"08327018","name":"Geisingen, Stadt","type":"Stadt"},"district":{"key":"08327","name":"Tuttlingen","type":"Landkreis"},"federalState":{"key":"08","name":"Baden-Württemberg"}},{"name":"Münstergasse","postalCode":"78187","locality":"Geisingen","municipality":{"key":"08327018","name":"Geisingen, Stadt","type":"Stadt"},"district":{"key":"08327","name":"Tuttlingen","type":"Landkreis"},"federalState":{"key":"08","name":"Baden-Württemberg"}},{"name":"Nelkenstr.","postalCode":"78187","locality":"Geisingen","municipality":{"key":"08327018","name":"Geisingen, Stadt","type":"Stadt"},"district":{"key":"08327","name":"Tuttlingen","type":"Landkreis"},"federalState":{"key":"08","name":"Baden-Württemberg"}},{"name":"Niedelweg","postalCode":"78187","locality":"Geisingen","municipality":{"key":"08327018","name":"Geisingen, Stadt","type":"Stadt"},"district":{"key":"08327","name":"Tuttlingen","type":"Landkreis"},"federalState":{"key":"08","name":"Baden-Württemberg"}},{"name":"Nikolausstr.","postalCode":"78187","locality":"Geisingen","municipality":{"key":"08327018","name":"Geisingen, Stadt","type":"Stadt"},"district":{"key":"08327","name":"Tuttlingen","type":"Landkreis"},"federalState":{"key":"08","name":"Baden-Württemberg"}},{"name":"Ob dem Hanfgarten","postalCode":"78187","locality":"Geisingen","municipality":{"key":"08327018","name":"Geisingen, Stadt","type":"Stadt"},"district":{"key":"08327","name":"Tuttlingen","type":"Landkreis"},"federalState":{"key":"08","name":"Baden-Württemberg"}},{"name":"Ob den Häusern","postalCode":"78187","locality":"Geisingen","municipality":{"key":"08327018","name":"Geisingen, Stadt","type":"Stadt"},"district":{"key":"08327","name":"Tuttlingen","type":"Landkreis"},"federalState":{"key":"08","name":"Baden-Württemberg"}},{"name":"Ob.d.Langen Stein","postalCode":"78187","locality":"Geisingen","municipality":{"key":"08327018","name":"Geisingen, Stadt","type":"Stadt"},"district":{"key":"08327","name":"Tuttlingen","type":"Landkreis"},"federalState":{"key":"08","name":"Baden-Württemberg"}},{"name":"Oberer Kohlerhauweg","postalCode":"78187","locality":"Geisingen","municipality":{"key":"08327018","name":"Geisingen, Stadt","type":"Stadt"},"district":{"key":"08327","name":"Tuttlingen","type":"Landkreis"},"federalState":{"key":"08","name":"Baden-Württemberg"}},{"name":"Oberer Saufangweg","postalCode":"78187","locality":"Geisingen","municipality":{"key":"08327018","name":"Geisingen, Stadt","type":"Stadt"},"district":{"key":"08327","name":"Tuttlingen","type":"Landkreis"},"federalState":{"key":"08","name":"Baden-Württemberg"}},{"name":"Orchideenstr.","postalCode":"78187","locality":"Geisingen","municipality":{"key":"08327018","name":"Geisingen, Stadt","type":"Stadt"},"district":{"key":"08327","name":"Tuttlingen","type":"Landkreis"},"federalState":{"key":"08","name":"Baden-Württemberg"}},{"name":"Orchideenweg","postalCode":"78187","locality":"Geisingen","municipality":{"key":"08327018","name":"Geisingen, Stadt","type":"Stadt"},"district":{"key":"08327","name":"Tuttlingen","type":"Landkreis"},"federalState":{"key":"08","name":"Baden-Württemberg"}},{"name":"Otto-und-Erna-Kreuzer-Str.","postalCode":"78187","locality":"Geisingen","municipality":{"key":"08327018","name":"Geisingen, Stadt","type":"Stadt"},"district":{"key":"08327","name":"Tuttlingen","type":"Landkreis"},"federalState":{"key":"08","name":"Baden-Württemberg"}},{"name":"Pauliweg","postalCode":"78187","locality":"Geisingen","municipality":{"key":"08327018","name":"Geisingen, Stadt","type":"Stadt"},"district":{"key":"08327","name":"Tuttlingen","type":"Landkreis"},"federalState":{"key":"08","name":"Baden-Württemberg"}},{"name":"Pfaffentalstr.","postalCode":"78187","locality":"Geisingen","municipality":{"key":"08327018","name":"Geisingen, Stadt","type":"Stadt"},"district":{"key":"08327","name":"Tuttlingen","type":"Landkreis"},"federalState":{"key":"08","name":"Baden-Württemberg"}},{"name":"Pfarrgarten","postalCode":"78187","locality":"Geisingen","municipality":{"key":"08327018","name":"Geisingen, Stadt","type":"Stadt"},"district":{"key":"08327","name":"Tuttlingen","type":"Landkreis"},"federalState":{"key":"08","name":"Baden-Württemberg"}},{"name":"Poststr.","postalCode":"78187","locality":"Geisingen","municipality":{"key":"08327018","name":"Geisingen, Stadt","type":"Stadt"},"district":{"key":"08327","name":"Tuttlingen","type":"Landkreis"},"federalState":{"key":"08","name":"Baden-Württemberg"}},{"name":"Professor-Bader-Str.","postalCode":"78187","locality":"Geisingen","municipality":{"key":"08327018","name":"Geisingen, Stadt","type":"Stadt"},"district":{"key":"08327","name":"Tuttlingen","type":"Landkreis"},"federalState":{"key":"08","name":"Baden-Württemberg"}},{"name":"Querstr.","postalCode":"78532","locality":"Tuttlingen","municipality":{"key":"08327050","name":"Tuttlingen, Stadt","type":"Große_Kreisstadt"},"district":{"key":"08327","name":"Tuttlingen","type":"Landkreis"},"federalState":{"key":"08","name":"Baden-Württemberg"}},{"name":"Reckenbachstr.","postalCode":"78187","locality":"Geisingen","municipality":{"key":"08327018","name":"Geisingen, Stadt","type":"Stadt"},"district":{"key":"08327","name":"Tuttlingen","type":"Landkreis"},"federalState":{"key":"08","name":"Baden-Württemberg"}},{"name":"Ringstr.","postalCode":"78187","locality":"Geisingen","municipality":{"key":"08327018","name":"Geisingen, Stadt","type":"Stadt"},"district":{"key":"08327","name":"Tuttlingen","type":"Landkreis"},"federalState":{"key":"08","name":"Baden-Württemberg"}},{"name":"Robert-Knapp-Str.","postalCode":"78187","locality":"Geisingen","municipality":{"key":"08327018","name":"Geisingen, Stadt","type":"Stadt"},"district":{"key":"08327","name":"Tuttlingen","type":"Landkreis"},"federalState":{"key":"08","name":"Baden-Württemberg"}},{"name":"Roosgartenstr.","postalCode":"78187","locality":"Geisingen","municipality":{"key":"08327018","name":"Geisingen, Stadt","type":"Stadt"},"district":{"key":"08327","name":"Tuttlingen","type":"Landkreis"},"federalState":{"key":"08","name":"Baden-Württemberg"}},{"name":"Rosenweg","postalCode":"78187","locality":"Geisingen","municipality":{"key":"08327018","name":"Geisingen, Stadt","type":"Stadt"},"district":{"key":"08327","name":"Tuttlingen","type":"Landkreis"},"federalState":{"key":"08","name":"Baden-Württemberg"}},{"name":"Roßbergweg","postalCode":"78187","locality":"Geisingen","municipality":{"key":"08327018","name":"Geisingen, Stadt","type":"Stadt"},"district":{"key":"08327","name":"Tuttlingen","type":"Landkreis"},"federalState":{"key":"08","name":"Baden-Württemberg"}},{"name":"Rosskopfweg","postalCode":"78187","locality":"Geisingen","municipality":{"key":"08327018","name":"Geisingen, Stadt","type":"Stadt"},"district":{"key":"08327","name":"Tuttlingen","type":"Landkreis"},"federalState":{"key":"08","name":"Baden-Württemberg"}},{"name":"Rotmundweg","postalCode":"78187","locality":"Geisingen","municipality":{"key":"08327018","name":"Geisingen, Stadt","type":"Stadt"},"district":{"key":"08327","name":"Tuttlingen","type":"Landkreis"},"federalState":{"key":"08","name":"Baden-Württemberg"}},{"name":"Rückenweg","postalCode":"78187","locality":"Geisingen","municipality":{"key":"08327018","name":"Geisingen, Stadt","type":"Stadt"},"district":{"key":"08327","name":"Tuttlingen","type":"Landkreis"},"federalState":{"key":"08","name":"Baden-Württemberg"}},{"name":"Sankt-Joos-Str.","postalCode":"78187","locality":"Geisingen","municipality":{"key":"08327018","name":"Geisingen, Stadt","type":"Stadt"},"district":{"key":"08327","name":"Tuttlingen","type":"Landkreis"},"federalState":{"key":"08","name":"Baden-Württemberg"}},{"name":"Sautierstr.","postalCode":"78187","locality":"Geisingen","municipality":{"key":"08327018","name":"Geisingen, Stadt","type":"Stadt"},"district":{"key":"08327","name":"Tuttlingen","type":"Landkreis"},"federalState":{"key":"08","name":"Baden-Württemberg"}},{"name":"Schabelweg","postalCode":"78187","locality":"Geisingen","municipality":{"key":"08327018","name":"Geisingen, Stadt","type":"Stadt"},"district":{"key":"08327","name":"Tuttlingen","type":"Landkreis"},"federalState":{"key":"08","name":"Baden-Württemberg"}},{"name":"Schalmenwasenweg","postalCode":"78187","locality":"Geisingen","municipality":{"key":"08327018","name":"Geisingen, Stadt","type":"Stadt"},"district":{"key":"08327","name":"Tuttlingen","type":"Landkreis"},"federalState":{"key":"08","name":"Baden-Württemberg"}},{"name":"Scheibenbuckstr.","postalCode":"78187","locality":"Geisingen","municipality":{"key":"08327018","name":"Geisingen, Stadt","type":"Stadt"},"district":{"key":"08327","name":"Tuttlingen","type":"Landkreis"},"federalState":{"key":"08","name":"Baden-Württemberg"}},{"name":"Scheibenstuhlweg","postalCode":"78187","locality":"Geisingen","municipality":{"key":"08327018","name":"Geisingen, Stadt","type":"Stadt"},"district":{"key":"08327","name":"Tuttlingen","type":"Landkreis"},"federalState":{"key":"08","name":"Baden-Württemberg"}},{"name":"Schelmenwasenweg","postalCode":"78187","locality":"Geisingen","municipality":{"key":"08327018","name":"Geisingen, Stadt","type":"Stadt"},"district":{"key":"08327","name":"Tuttlingen","type":"Landkreis"},"federalState":{"key":"08","name":"Baden-Württemberg"}},{"name":"Schillerstr.","postalCode":"78187","locality":"Geisingen","municipality":{"key":"08327018","name":"Geisingen, Stadt","type":"Stadt"},"district":{"key":"08327","name":"Tuttlingen","type":"Landkreis"},"federalState":{"key":"08","name":"Baden-Württemberg"}},{"name":"Schlachthausstr.","postalCode":"78187","locality":"Geisingen","municipality":{"key":"08327018","name":"Geisingen, Stadt","type":"Stadt"},"district":{"key":"08327","name":"Tuttlingen","type":"Landkreis"},"federalState":{"key":"08","name":"Baden-Württemberg"}},{"name":"Schlemmersbrühlstr.","postalCode":"78187","locality":"Geisingen","municipality":{"key":"08327018","name":"Geisingen, Stadt","type":"Stadt"},"district":{"key":"08327","name":"Tuttlingen","type":"Landkreis"},"federalState":{"key":"08","name":"Baden-Württemberg"}},{"name":"Schloßplatz","postalCode":"78187","locality":"Geisingen","municipality":{"key":"08327018","name":"Geisingen, Stadt","type":"Stadt"},"district":{"key":"08327","name":"Tuttlingen","type":"Landkreis"},"federalState":{"key":"08","name":"Baden-Württemberg"}},{"name":"Schloßstr.","postalCode":"78187","locality":"Geisingen","municipality":{"key":"08327018","name":"Geisingen, Stadt","type":"Stadt"},"district":{"key":"08327","name":"Tuttlingen","type":"Landkreis"},"federalState":{"key":"08","name":"Baden-Württemberg"}},{"name":"Schmittshauweg","postalCode":"78187","locality":"Geisingen","municipality":{"key":"08327018","name":"Geisingen, Stadt","type":"Stadt"},"district":{"key":"08327","name":"Tuttlingen","type":"Landkreis"},"federalState":{"key":"08","name":"Baden-Württemberg"}},{"name":"Schulstr.","postalCode":"78187","locality":"Geisingen","municipality":{"key":"08327018","name":"Geisingen, Stadt","type":"Stadt"},"district":{"key":"08327","name":"Tuttlingen","type":"Landkreis"},"federalState":{"key":"08","name":"Baden-Württemberg"}},{"name":"Seltelweg","postalCode":"78187","locality":"Geisingen","municipality":{"key":"08327018","name":"Geisingen, Stadt","type":"Stadt"},"district":{"key":"08327","name":"Tuttlingen","type":"Landkreis"},"federalState":{"key":"08","name":"Baden-Württemberg"}},{"name":"Sonnenhalde","postalCode":"78187","locality":"Geisingen","municipality":{"key":"08327018","name":"Geisingen, Stadt","type":"Stadt"},"district":{"key":"08327","name":"Tuttlingen","type":"Landkreis"},"federalState":{"key":"08","name":"Baden-Württemberg"}},{"name":"Spitalweg","postalCode":"78187","locality":"Geisingen","municipality":{"key":"08327018","name":"Geisingen, Stadt","type":"Stadt"},"district":{"key":"08327","name":"Tuttlingen","type":"Landkreis"},"federalState":{"key":"08","name":"Baden-Württemberg"}},{"name":"Stadtgrabenstr.","postalCode":"78187","locality":"Geisingen","municipality":{"key":"08327018","name":"Geisingen, Stadt","type":"Stadt"},"district":{"key":"08327","name":"Tuttlingen","type":"Landkreis"},"federalState":{"key":"08","name":"Baden-Württemberg"}},{"name":"St. Michaelstr.","postalCode":"78187","locality":"Geisingen","municipality":{"key":"08327018","name":"Geisingen, Stadt","type":"Stadt"},"district":{"key":"08327","name":"Tuttlingen","type":"Landkreis"},"federalState":{"key":"08","name":"Baden-Württemberg"}},{"name":"Strickweg","postalCode":"78187","locality":"Geisingen","municipality":{"key":"08327018","name":"Geisingen, Stadt","type":"Stadt"},"district":{"key":"08327","name":"Tuttlingen","type":"Landkreis"},"federalState":{"key":"08","name":"Baden-Württemberg"}},{"name":"Tännelhauweg","postalCode":"78187","locality":"Geisingen","municipality":{"key":"08327018","name":"Geisingen, Stadt","type":"Stadt"},"district":{"key":"08327","name":"Tuttlingen","type":"Landkreis"},"federalState":{"key":"08","name":"Baden-Württemberg"}},{"name":"Tannenweg","postalCode":"78187","locality":"Geisingen","municipality":{"key":"08327018","name":"Geisingen, Stadt","type":"Stadt"},"district":{"key":"08327","name":"Tuttlingen","type":"Landkreis"},"federalState":{"key":"08","name":"Baden-Württemberg"}},{"name":"Tännlehauweg","postalCode":"78187","locality":"Geisingen","municipality":{"key":"08327018","name":"Geisingen, Stadt","type":"Stadt"},"district":{"key":"08327","name":"Tuttlingen","type":"Landkreis"},"federalState":{"key":"08","name":"Baden-Württemberg"}},{"name":"Tauweg","postalCode":"78187","locality":"Geisingen","municipality":{"key":"08327018","name":"Geisingen, Stadt","type":"Stadt"},"district":{"key":"08327","name":"Tuttlingen","type":"Landkreis"},"federalState":{"key":"08","name":"Baden-Württemberg"}},{"name":"Tengener Str.","postalCode":"78187","locality":"Geisingen","municipality":{"key":"08327018","name":"Geisingen, Stadt","type":"Stadt"},"district":{"key":"08327","name":"Tuttlingen","type":"Landkreis"},"federalState":{"key":"08","name":"Baden-Württemberg"}},{"name":"Teschenweg","postalCode":"78187","locality":"Geisingen","municipality":{"key":"08327018","name":"Geisingen, Stadt","type":"Stadt"},"district":{"key":"08327","name":"Tuttlingen","type":"Landkreis"},"federalState":{"key":"08","name":"Baden-Württemberg"}},{"name":"Tulpenstr.","postalCode":"78187","locality":"Geisingen","municipality":{"key":"08327018","name":"Geisingen, Stadt","type":"Stadt"},"district":{"key":"08327","name":"Tuttlingen","type":"Landkreis"},"federalState":{"key":"08","name":"Baden-Württemberg"}},{"name":"Tuttlinger Str.","postalCode":"78187","locality":"Geisingen","municipality":{"key":"08327018","name":"Geisingen, Stadt","type":"Stadt"},"district":{"key":"08327","name":"Tuttlingen","type":"Landkreis"},"federalState":{"key":"08","name":"Baden-Württemberg"}},{"name":"unterer Bruderholzweg","postalCode":"78187","locality":"Geisingen","municipality":{"key":"08327018","name":"Geisingen, Stadt","type":"Stadt"},"district":{"key":"08327","name":"Tuttlingen","type":"Landkreis"},"federalState":{"key":"08","name":"Baden-Württemberg"}},{"name":"Unterer Saufangweg","postalCode":"78187","locality":"Geisingen","municipality":{"key":"08327018","name":"Geisingen, Stadt","type":"Stadt"},"district":{"key":"08327","name":"Tuttlingen","type":"Landkreis"},"federalState":{"key":"08","name":"Baden-Württemberg"}},{"name":"Viertelweg","postalCode":"78187","locality":"Geisingen","municipality":{"key":"08327018","name":"Geisingen, Stadt","type":"Stadt"},"district":{"key":"08327","name":"Tuttlingen","type":"Landkreis"},"federalState":{"key":"08","name":"Baden-Württemberg"}},{"name":"Vorderer Gauertweg","postalCode":"78187","locality":"Geisingen","municipality":{"key":"08327018","name":"Geisingen, Stadt","type":"Stadt"},"district":{"key":"08327","name":"Tuttlingen","type":"Landkreis"},"federalState":{"key":"08","name":"Baden-Württemberg"}},{"name":"Waagstr.","postalCode":"78187","locality":"Geisingen","municipality":{"key":"08327018","name":"Geisingen, Stadt","type":"Stadt"},"district":{"key":"08327","name":"Tuttlingen","type":"Landkreis"},"federalState":{"key":"08","name":"Baden-Württemberg"}},{"name":"Walburgisweg","postalCode":"78187","locality":"Geisingen","municipality":{"key":"08327018","name":"Geisingen, Stadt","type":"Stadt"},"district":{"key":"08327","name":"Tuttlingen","type":"Landkreis"},"federalState":{"key":"08","name":"Baden-Württemberg"}},{"name":"Waldstr.","postalCode":"78187","locality":"Geisingen","municipality":{"key":"08327018","name":"Geisingen, Stadt","type":"Stadt"},"district":{"key":"08327","name":"Tuttlingen","type":"Landkreis"},"federalState":{"key":"08","name":"Baden-Württemberg"}},{"name":"Wanderweg","postalCode":"78187","locality":"Geisingen","municipality":{"key":"08327018","name":"Geisingen, Stadt","type":"Stadt"},"district":{"key":"08327","name":"Tuttlingen","type":"Landkreis"},"federalState":{"key":"08","name":"Baden-Württemberg"}},{"name":"Weilerstr.","postalCode":"78187","locality":"Geisingen","municipality":{"key":"08327018","name":"Geisingen, Stadt","type":"Stadt"},"district":{"key":"08327","name":"Tuttlingen","type":"Landkreis"},"federalState":{"key":"08","name":"Baden-Württemberg"}},{"name":"Wiesenstr.","postalCode":"78187","locality":"Geisingen","municipality":{"key":"08327018","name":"Geisingen, Stadt","type":"Stadt"},"district":{"key":"08327","name":"Tuttlingen","type":"Landkreis"},"federalState":{"key":"08","name":"Baden-Württemberg"}},{"name":"Wildtalstr.","postalCode":"78187","locality":"Geisingen","municipality":{"key":"08327018","name":"Geisingen, Stadt","type":"Stadt"},"district":{"key":"08327","name":"Tuttlingen","type":"Landkreis"},"federalState":{"key":"08","name":"Baden-Württemberg"}},{"name":"Zehntgasse","postalCode":"78187","locality":"Geisingen","municipality":{"key":"08327018","name":"Geisingen, Stadt","type":"Stadt"},"district":{"key":"08327","name":"Tuttlingen","type":"Landkreis"},"federalState":{"key":"08","name":"Baden-Württemberg"}},{"name":"Öfingerhauweg","postalCode":"78187","locality":"Geisingen","municipality":{"key":"08327018","name":"Geisingen, Stadt","type":"Stadt"},"district":{"key":"08327","name":"Tuttlingen","type":"Landkreis"},"federalState":{"key":"08","name":"Baden-Württemberg"}},]