[{"name":"Allee","postalCode":"21502","locality":"Worth","municipality":{"key":"01053135","name":"Worth","type":"Kreisangehörige_Gemeinde"},"district":{"key":"01053","name":"Herzogtum Lauenburg","type":"Kreis"},"federalState":{"key":"01","name":"Schleswig-Holstein"}},{"name":"An der Medem","postalCode":"21775","locality":"Ihlienworth","municipality":{"key":"03352025","name":"Ihlienworth","type":"Kreisangehörige_Gemeinde"},"district":{"key":"03352","name":"Cuxhaven","type":"Landkreis"},"federalState":{"key":"03","name":"Niedersachsen"}},{"name":"An der Meierei","postalCode":"21775","locality":"Ihlienworth","municipality":{"key":"03352025","name":"Ihlienworth","type":"Kreisangehörige_Gemeinde"},"district":{"key":"03352","name":"Cuxhaven","type":"Landkreis"},"federalState":{"key":"03","name":"Niedersachsen"}},{"name":"An der Schmiede","postalCode":"21502","locality":"Worth","municipality":{"key":"01053135","name":"Worth","type":"Kreisangehörige_Gemeinde"},"district":{"key":"01053","name":"Herzogtum Lauenburg","type":"Kreis"},"federalState":{"key":"01","name":"Schleswig-Holstein"}},{"name":"Auedeich","postalCode":"21775","locality":"Ihlienworth","municipality":{"key":"03352025","name":"Ihlienworth","type":"Kreisangehörige_Gemeinde"},"district":{"key":"03352","name":"Cuxhaven","type":"Landkreis"},"federalState":{"key":"03","name":"Niedersachsen"}},{"name":"Auestade","postalCode":"21775","locality":"Ihlienworth","municipality":{"key":"03352025","name":"Ihlienworth","type":"Kreisangehörige_Gemeinde"},"district":{"key":"03352","name":"Cuxhaven","type":"Landkreis"},"federalState":{"key":"03","name":"Niedersachsen"}},{"name":"Birkenweg","postalCode":"21775","locality":"Ihlienworth","municipality":{"key":"03352025","name":"Ihlienworth","type":"Kreisangehörige_Gemeinde"},"district":{"key":"03352","name":"Cuxhaven","type":"Landkreis"},"federalState":{"key":"03","name":"Niedersachsen"}},{"name":"Bogenstr.","postalCode":"21502","locality":"Worth","municipality":{"key":"01053135","name":"Worth","type":"Kreisangehörige_Gemeinde"},"district":{"key":"01053","name":"Herzogtum Lauenburg","type":"Kreis"},"federalState":{"key":"01","name":"Schleswig-Holstein"}},{"name":"Breslauer Str.","postalCode":"21775","locality":"Ihlienworth","municipality":{"key":"03352025","name":"Ihlienworth","type":"Kreisangehörige_Gemeinde"},"district":{"key":"03352","name":"Cuxhaven","type":"Landkreis"},"federalState":{"key":"03","name":"Niedersachsen"}},{"name":"Deichweg","postalCode":"21775","locality":"Ihlienworth","municipality":{"key":"03352025","name":"Ihlienworth","type":"Kreisangehörige_Gemeinde"},"district":{"key":"03352","name":"Cuxhaven","type":"Landkreis"},"federalState":{"key":"03","name":"Niedersachsen"}},{"name":"Dorfstr.","postalCode":"21502","locality":"Worth","municipality":{"key":"01053135","name":"Worth","type":"Kreisangehörige_Gemeinde"},"district":{"key":"01053","name":"Herzogtum Lauenburg","type":"Kreis"},"federalState":{"key":"01","name":"Schleswig-Holstein"}},{"name":"Dreihausendorf","postalCode":"21775","locality":"Ihlienworth","municipality":{"key":"03352025","name":"Ihlienworth","type":"Kreisangehörige_Gemeinde"},"district":{"key":"03352","name":"Cuxhaven","type":"Landkreis"},"federalState":{"key":"03","name":"Niedersachsen"}},{"name":"Eichenweg","postalCode":"21775","locality":"Ihlienworth","municipality":{"key":"03352025","name":"Ihlienworth","type":"Kreisangehörige_Gemeinde"},"district":{"key":"03352","name":"Cuxhaven","type":"Landkreis"},"federalState":{"key":"03","name":"Niedersachsen"}},{"name":"Erlenweg","postalCode":"21775","locality":"Ihlienworth","municipality":{"key":"03352025","name":"Ihlienworth","type":"Kreisangehörige_Gemeinde"},"district":{"key":"03352","name":"Cuxhaven","type":"Landkreis"},"federalState":{"key":"03","name":"Niedersachsen"}},{"name":"Hamwarder Str.","postalCode":"21502","locality":"Worth","municipality":{"key":"01053135","name":"Worth","type":"Kreisangehörige_Gemeinde"},"district":{"key":"01053","name":"Herzogtum Lauenburg","type":"Kreis"},"federalState":{"key":"01","name":"Schleswig-Holstein"}},{"name":"Hauptstr.","postalCode":"21775","locality":"Ihlienworth","municipality":{"key":"03352025","name":"Ihlienworth","type":"Kreisangehörige_Gemeinde"},"district":{"key":"03352","name":"Cuxhaven","type":"Landkreis"},"federalState":{"key":"03","name":"Niedersachsen"}},{"name":"Heerhopweg","postalCode":"21502","locality":"Worth","municipality":{"key":"01053135","name":"Worth","type":"Kreisangehörige_Gemeinde"},"district":{"key":"01053","name":"Herzogtum Lauenburg","type":"Kreis"},"federalState":{"key":"01","name":"Schleswig-Holstein"}},{"name":"Im Hohenfelde","postalCode":"21775","locality":"Ihlienworth","municipality":{"key":"03352025","name":"Ihlienworth","type":"Kreisangehörige_Gemeinde"},"district":{"key":"03352","name":"Cuxhaven","type":"Landkreis"},"federalState":{"key":"03","name":"Niedersachsen"}},{"name":"Kirchenkate","postalCode":"21502","locality":"Worth","municipality":{"key":"01053135","name":"Worth","type":"Kreisangehörige_Gemeinde"},"district":{"key":"01053","name":"Herzogtum Lauenburg","type":"Kreis"},"federalState":{"key":"01","name":"Schleswig-Holstein"}},{"name":"Königsberger Str.","postalCode":"21775","locality":"Ihlienworth","municipality":{"key":"03352025","name":"Ihlienworth","type":"Kreisangehörige_Gemeinde"},"district":{"key":"03352","name":"Cuxhaven","type":"Landkreis"},"federalState":{"key":"03","name":"Niedersachsen"}},{"name":"Langenstücken","postalCode":"21502","locality":"Worth","municipality":{"key":"01053135","name":"Worth","type":"Kreisangehörige_Gemeinde"},"district":{"key":"01053","name":"Herzogtum Lauenburg","type":"Kreis"},"federalState":{"key":"01","name":"Schleswig-Holstein"}},{"name":"Medemstade","postalCode":"21775","locality":"Ihlienworth","municipality":{"key":"03352025","name":"Ihlienworth","type":"Kreisangehörige_Gemeinde"},"district":{"key":"03352","name":"Cuxhaven","type":"Landkreis"},"federalState":{"key":"03","name":"Niedersachsen"}},{"name":"Meisterstr.","postalCode":"21775","locality":"Ihlienworth","municipality":{"key":"03352025","name":"Ihlienworth","type":"Kreisangehörige_Gemeinde"},"district":{"key":"03352","name":"Cuxhaven","type":"Landkreis"},"federalState":{"key":"03","name":"Niedersachsen"}},{"name":"Mislag","postalCode":"21775","locality":"Ihlienworth","municipality":{"key":"03352025","name":"Ihlienworth","type":"Kreisangehörige_Gemeinde"},"district":{"key":"03352","name":"Cuxhaven","type":"Landkreis"},"federalState":{"key":"03","name":"Niedersachsen"}},{"name":"Mittelteil","postalCode":"21775","locality":"Ihlienworth","municipality":{"key":"03352025","name":"Ihlienworth","type":"Kreisangehörige_Gemeinde"},"district":{"key":"03352","name":"Cuxhaven","type":"Landkreis"},"federalState":{"key":"03","name":"Niedersachsen"}},{"name":"Mühlenweg","postalCode":"21775","locality":"Ihlienworth","municipality":{"key":"03352025","name":"Ihlienworth","type":"Kreisangehörige_Gemeinde"},"district":{"key":"03352","name":"Cuxhaven","type":"Landkreis"},"federalState":{"key":"03","name":"Niedersachsen"}},{"name":"Neuer Weg","postalCode":"21775","locality":"Ihlienworth","municipality":{"key":"03352025","name":"Ihlienworth","type":"Kreisangehörige_Gemeinde"},"district":{"key":"03352","name":"Cuxhaven","type":"Landkreis"},"federalState":{"key":"03","name":"Niedersachsen"}},{"name":"Osterstr.","postalCode":"21775","locality":"Ihlienworth","municipality":{"key":"03352025","name":"Ihlienworth","type":"Kreisangehörige_Gemeinde"},"district":{"key":"03352","name":"Cuxhaven","type":"Landkreis"},"federalState":{"key":"03","name":"Niedersachsen"}},{"name":"Rosenstr.","postalCode":"21775","locality":"Ihlienworth","municipality":{"key":"03352025","name":"Ihlienworth","type":"Kreisangehörige_Gemeinde"},"district":{"key":"03352","name":"Cuxhaven","type":"Landkreis"},"federalState":{"key":"03","name":"Niedersachsen"}},{"name":"Sattlerweg","postalCode":"21775","locality":"Ihlienworth","municipality":{"key":"03352025","name":"Ihlienworth","type":"Kreisangehörige_Gemeinde"},"district":{"key":"03352","name":"Cuxhaven","type":"Landkreis"},"federalState":{"key":"03","name":"Niedersachsen"}},{"name":"Schöpfwerkstr.","postalCode":"21775","locality":"Ihlienworth","municipality":{"key":"03352025","name":"Ihlienworth","type":"Kreisangehörige_Gemeinde"},"district":{"key":"03352","name":"Cuxhaven","type":"Landkreis"},"federalState":{"key":"03","name":"Niedersachsen"}},{"name":"Schulstr.","postalCode":"21775","locality":"Ihlienworth","municipality":{"key":"03352025","name":"Ihlienworth","type":"Kreisangehörige_Gemeinde"},"district":{"key":"03352","name":"Cuxhaven","type":"Landkreis"},"federalState":{"key":"03","name":"Niedersachsen"}},{"name":"Vierhausendorf","postalCode":"21775","locality":"Ihlienworth","municipality":{"key":"03352025","name":"Ihlienworth","type":"Kreisangehörige_Gemeinde"},"district":{"key":"03352","name":"Cuxhaven","type":"Landkreis"},"federalState":{"key":"03","name":"Niedersachsen"}},{"name":"Westerende","postalCode":"21775","locality":"Ihlienworth","municipality":{"key":"03352025","name":"Ihlienworth","type":"Kreisangehörige_Gemeinde"},"district":{"key":"03352","name":"Cuxhaven","type":"Landkreis"},"federalState":{"key":"03","name":"Niedersachsen"}},{"name":"Zum Schönenfelde","postalCode":"21775","locality":"Ihlienworth","municipality":{"key":"03352025","name":"Ihlienworth","type":"Kreisangehörige_Gemeinde"},"district":{"key":"03352","name":"Cuxhaven","type":"Landkreis"},"federalState":{"key":"03","name":"Niedersachsen"}},{"name":"Zur Worth","postalCode":"21775","locality":"Ihlienworth","municipality":{"key":"03352025","name":"Ihlienworth","type":"Kreisangehörige_Gemeinde"},"district":{"key":"03352","name":"Cuxhaven","type":"Landkreis"},"federalState":{"key":"03","name":"Niedersachsen"}},]