[{"name":"Alpenstr.","postalCode":"82436","locality":"Eglfing","municipality":{"key":"09190121","name":"Eglfing","type":"Kreisangehörige_Gemeinde"},"district":{"key":"09190","name":"Weilheim-Schongau","type":"Landkreis"},"federalState":{"key":"09","name":"Bayern"}},{"name":"Am Fuchsbichl","postalCode":"82436","locality":"Eglfing","municipality":{"key":"09190121","name":"Eglfing","type":"Kreisangehörige_Gemeinde"},"district":{"key":"09190","name":"Weilheim-Schongau","type":"Landkreis"},"federalState":{"key":"09","name":"Bayern"}},{"name":"Am Mühlberg","postalCode":"82436","locality":"Eglfing","municipality":{"key":"09190121","name":"Eglfing","type":"Kreisangehörige_Gemeinde"},"district":{"key":"09190","name":"Weilheim-Schongau","type":"Landkreis"},"federalState":{"key":"09","name":"Bayern"}},{"name":"Am Zwiesel","postalCode":"82436","locality":"Eglfing","municipality":{"key":"09190121","name":"Eglfing","type":"Kreisangehörige_Gemeinde"},"district":{"key":"09190","name":"Weilheim-Schongau","type":"Landkreis"},"federalState":{"key":"09","name":"Bayern"}},{"name":"Angerweg","postalCode":"82436","locality":"Eglfing","municipality":{"key":"09190121","name":"Eglfing","type":"Kreisangehörige_Gemeinde"},"district":{"key":"09190","name":"Weilheim-Schongau","type":"Landkreis"},"federalState":{"key":"09","name":"Bayern"}},{"name":"Bachstr.","postalCode":"82436","locality":"Eglfing","municipality":{"key":"09190121","name":"Eglfing","type":"Kreisangehörige_Gemeinde"},"district":{"key":"09190","name":"Weilheim-Schongau","type":"Landkreis"},"federalState":{"key":"09","name":"Bayern"}},{"name":"Benediktweg","postalCode":"82436","locality":"Eglfing","municipality":{"key":"09190121","name":"Eglfing","type":"Kreisangehörige_Gemeinde"},"district":{"key":"09190","name":"Weilheim-Schongau","type":"Landkreis"},"federalState":{"key":"09","name":"Bayern"}},{"name":"Bergstr.","postalCode":"82436","locality":"Eglfing","municipality":{"key":"09190121","name":"Eglfing","type":"Kreisangehörige_Gemeinde"},"district":{"key":"09190","name":"Weilheim-Schongau","type":"Landkreis"},"federalState":{"key":"09","name":"Bayern"}},{"name":"Brunnenweg","postalCode":"82436","locality":"Eglfing","municipality":{"key":"09190121","name":"Eglfing","type":"Kreisangehörige_Gemeinde"},"district":{"key":"09190","name":"Weilheim-Schongau","type":"Landkreis"},"federalState":{"key":"09","name":"Bayern"}},{"name":"Danzbichl","postalCode":"82436","locality":"Eglfing","municipality":{"key":"09190121","name":"Eglfing","type":"Kreisangehörige_Gemeinde"},"district":{"key":"09190","name":"Weilheim-Schongau","type":"Landkreis"},"federalState":{"key":"09","name":"Bayern"}},{"name":"Daserweg","postalCode":"82436","locality":"Eglfing","municipality":{"key":"09190121","name":"Eglfing","type":"Kreisangehörige_Gemeinde"},"district":{"key":"09190","name":"Weilheim-Schongau","type":"Landkreis"},"federalState":{"key":"09","name":"Bayern"}},{"name":"Dorfstr.","postalCode":"82436","locality":"Eglfing","municipality":{"key":"09190121","name":"Eglfing","type":"Kreisangehörige_Gemeinde"},"district":{"key":"09190","name":"Weilheim-Schongau","type":"Landkreis"},"federalState":{"key":"09","name":"Bayern"}},{"name":"Hadergasse","postalCode":"82436","locality":"Eglfing","municipality":{"key":"09190121","name":"Eglfing","type":"Kreisangehörige_Gemeinde"},"district":{"key":"09190","name":"Weilheim-Schongau","type":"Landkreis"},"federalState":{"key":"09","name":"Bayern"}},{"name":"Hangweg","postalCode":"82436","locality":"Eglfing","municipality":{"key":"09190121","name":"Eglfing","type":"Kreisangehörige_Gemeinde"},"district":{"key":"09190","name":"Weilheim-Schongau","type":"Landkreis"},"federalState":{"key":"09","name":"Bayern"}},{"name":"Hardtstr.","postalCode":"82436","locality":"Eglfing","municipality":{"key":"09190121","name":"Eglfing","type":"Kreisangehörige_Gemeinde"},"district":{"key":"09190","name":"Weilheim-Schongau","type":"Landkreis"},"federalState":{"key":"09","name":"Bayern"}},{"name":"Hauptstr.","postalCode":"82436","locality":"Eglfing","municipality":{"key":"09190121","name":"Eglfing","type":"Kreisangehörige_Gemeinde"},"district":{"key":"09190","name":"Weilheim-Schongau","type":"Landkreis"},"federalState":{"key":"09","name":"Bayern"}},{"name":"Heimgartenstr.","postalCode":"82436","locality":"Eglfing","municipality":{"key":"09190121","name":"Eglfing","type":"Kreisangehörige_Gemeinde"},"district":{"key":"09190","name":"Weilheim-Schongau","type":"Landkreis"},"federalState":{"key":"09","name":"Bayern"}},{"name":"Hofgasse","postalCode":"82436","locality":"Eglfing","municipality":{"key":"09190121","name":"Eglfing","type":"Kreisangehörige_Gemeinde"},"district":{"key":"09190","name":"Weilheim-Schongau","type":"Landkreis"},"federalState":{"key":"09","name":"Bayern"}},{"name":"Huglfinger Str.","postalCode":"82436","locality":"Eglfing","municipality":{"key":"09190121","name":"Eglfing","type":"Kreisangehörige_Gemeinde"},"district":{"key":"09190","name":"Weilheim-Schongau","type":"Landkreis"},"federalState":{"key":"09","name":"Bayern"}},{"name":"Keltenstr.","postalCode":"82436","locality":"Eglfing","municipality":{"key":"09190121","name":"Eglfing","type":"Kreisangehörige_Gemeinde"},"district":{"key":"09190","name":"Weilheim-Schongau","type":"Landkreis"},"federalState":{"key":"09","name":"Bayern"}},{"name":"Kerschgarten","postalCode":"82436","locality":"Eglfing","municipality":{"key":"09190121","name":"Eglfing","type":"Kreisangehörige_Gemeinde"},"district":{"key":"09190","name":"Weilheim-Schongau","type":"Landkreis"},"federalState":{"key":"09","name":"Bayern"}},{"name":"Kirchstr.","postalCode":"82436","locality":"Eglfing","municipality":{"key":"09190121","name":"Eglfing","type":"Kreisangehörige_Gemeinde"},"district":{"key":"09190","name":"Weilheim-Schongau","type":"Landkreis"},"federalState":{"key":"09","name":"Bayern"}},{"name":"Lärchenweg","postalCode":"82436","locality":"Eglfing","municipality":{"key":"09190121","name":"Eglfing","type":"Kreisangehörige_Gemeinde"},"district":{"key":"09190","name":"Weilheim-Schongau","type":"Landkreis"},"federalState":{"key":"09","name":"Bayern"}},{"name":"Leitenstr.","postalCode":"82436","locality":"Eglfing","municipality":{"key":"09190121","name":"Eglfing","type":"Kreisangehörige_Gemeinde"},"district":{"key":"09190","name":"Weilheim-Schongau","type":"Landkreis"},"federalState":{"key":"09","name":"Bayern"}},{"name":"Moosbrunnen","postalCode":"82436","locality":"Eglfing","municipality":{"key":"09190121","name":"Eglfing","type":"Kreisangehörige_Gemeinde"},"district":{"key":"09190","name":"Weilheim-Schongau","type":"Landkreis"},"federalState":{"key":"09","name":"Bayern"}},{"name":"Moosweg","postalCode":"82436","locality":"Eglfing","municipality":{"key":"09190121","name":"Eglfing","type":"Kreisangehörige_Gemeinde"},"district":{"key":"09190","name":"Weilheim-Schongau","type":"Landkreis"},"federalState":{"key":"09","name":"Bayern"}},{"name":"Schmiedgasse","postalCode":"82436","locality":"Eglfing","municipality":{"key":"09190121","name":"Eglfing","type":"Kreisangehörige_Gemeinde"},"district":{"key":"09190","name":"Weilheim-Schongau","type":"Landkreis"},"federalState":{"key":"09","name":"Bayern"}},{"name":"Schönbreiten","postalCode":"82436","locality":"Eglfing","municipality":{"key":"09190121","name":"Eglfing","type":"Kreisangehörige_Gemeinde"},"district":{"key":"09190","name":"Weilheim-Schongau","type":"Landkreis"},"federalState":{"key":"09","name":"Bayern"}},{"name":"Söcheringer Str.","postalCode":"82436","locality":"Eglfing","municipality":{"key":"09190121","name":"Eglfing","type":"Kreisangehörige_Gemeinde"},"district":{"key":"09190","name":"Weilheim-Schongau","type":"Landkreis"},"federalState":{"key":"09","name":"Bayern"}},{"name":"Talstr.","postalCode":"82436","locality":"Eglfing","municipality":{"key":"09190121","name":"Eglfing","type":"Kreisangehörige_Gemeinde"},"district":{"key":"09190","name":"Weilheim-Schongau","type":"Landkreis"},"federalState":{"key":"09","name":"Bayern"}},{"name":"Tautinger Str.","postalCode":"82436","locality":"Eglfing","municipality":{"key":"09190121","name":"Eglfing","type":"Kreisangehörige_Gemeinde"},"district":{"key":"09190","name":"Weilheim-Schongau","type":"Landkreis"},"federalState":{"key":"09","name":"Bayern"}},{"name":"Tradstr.","postalCode":"82436","locality":"Eglfing","municipality":{"key":"09190121","name":"Eglfing","type":"Kreisangehörige_Gemeinde"},"district":{"key":"09190","name":"Weilheim-Schongau","type":"Landkreis"},"federalState":{"key":"09","name":"Bayern"}},{"name":"Weidenstr.","postalCode":"82436","locality":"Eglfing","municipality":{"key":"09190121","name":"Eglfing","type":"Kreisangehörige_Gemeinde"},"district":{"key":"09190","name":"Weilheim-Schongau","type":"Landkreis"},"federalState":{"key":"09","name":"Bayern"}},{"name":"Willingweg","postalCode":"82436","locality":"Eglfing","municipality":{"key":"09190121","name":"Eglfing","type":"Kreisangehörige_Gemeinde"},"district":{"key":"09190","name":"Weilheim-Schongau","type":"Landkreis"},"federalState":{"key":"09","name":"Bayern"}},]