[{"name":"Adlerstr.","postalCode":"84169","locality":"Altfraunhofen","municipality":{"key":"09274114","name":"Altfraunhofen","type":"Kreisangehörige_Gemeinde"},"district":{"key":"09274","name":"Landshut","type":"Landkreis"},"federalState":{"key":"09","name":"Bayern"}},{"name":"Ahornstr.","postalCode":"84169","locality":"Altfraunhofen","municipality":{"key":"09274114","name":"Altfraunhofen","type":"Kreisangehörige_Gemeinde"},"district":{"key":"09274","name":"Landshut","type":"Landkreis"},"federalState":{"key":"09","name":"Bayern"}},{"name":"Am Anger","postalCode":"84169","locality":"Altfraunhofen","municipality":{"key":"09274114","name":"Altfraunhofen","type":"Kreisangehörige_Gemeinde"},"district":{"key":"09274","name":"Landshut","type":"Landkreis"},"federalState":{"key":"09","name":"Bayern"}},{"name":"Am Bäckerfeld","postalCode":"84169","locality":"Altfraunhofen","municipality":{"key":"09274114","name":"Altfraunhofen","type":"Kreisangehörige_Gemeinde"},"district":{"key":"09274","name":"Landshut","type":"Landkreis"},"federalState":{"key":"09","name":"Bayern"}},{"name":"Am Graben","postalCode":"84169","locality":"Altfraunhofen","municipality":{"key":"09274114","name":"Altfraunhofen","type":"Kreisangehörige_Gemeinde"},"district":{"key":"09274","name":"Landshut","type":"Landkreis"},"federalState":{"key":"09","name":"Bayern"}},{"name":"Am Hang","postalCode":"84169","locality":"Altfraunhofen","municipality":{"key":"09274114","name":"Altfraunhofen","type":"Kreisangehörige_Gemeinde"},"district":{"key":"09274","name":"Landshut","type":"Landkreis"},"federalState":{"key":"09","name":"Bayern"}},{"name":"Am Kellerberg","postalCode":"84169","locality":"Altfraunhofen","municipality":{"key":"09274114","name":"Altfraunhofen","type":"Kreisangehörige_Gemeinde"},"district":{"key":"09274","name":"Landshut","type":"Landkreis"},"federalState":{"key":"09","name":"Bayern"}},{"name":"Am Pfarrfeld","postalCode":"84169","locality":"Altfraunhofen","municipality":{"key":"09274114","name":"Altfraunhofen","type":"Kreisangehörige_Gemeinde"},"district":{"key":"09274","name":"Landshut","type":"Landkreis"},"federalState":{"key":"09","name":"Bayern"}},{"name":"Am Sandfeld","postalCode":"84169","locality":"Altfraunhofen","municipality":{"key":"09274114","name":"Altfraunhofen","type":"Kreisangehörige_Gemeinde"},"district":{"key":"09274","name":"Landshut","type":"Landkreis"},"federalState":{"key":"09","name":"Bayern"}},{"name":"Amselweg","postalCode":"84169","locality":"Altfraunhofen","municipality":{"key":"09274114","name":"Altfraunhofen","type":"Kreisangehörige_Gemeinde"},"district":{"key":"09274","name":"Landshut","type":"Landkreis"},"federalState":{"key":"09","name":"Bayern"}},{"name":"An der Vils","postalCode":"84169","locality":"Altfraunhofen","municipality":{"key":"09274114","name":"Altfraunhofen","type":"Kreisangehörige_Gemeinde"},"district":{"key":"09274","name":"Landshut","type":"Landkreis"},"federalState":{"key":"09","name":"Bayern"}},{"name":"Aufham","postalCode":"84169","locality":"Altfraunhofen","municipality":{"key":"09274114","name":"Altfraunhofen","type":"Kreisangehörige_Gemeinde"},"district":{"key":"09274","name":"Landshut","type":"Landkreis"},"federalState":{"key":"09","name":"Bayern"}},{"name":"Bachstr.","postalCode":"84169","locality":"Altfraunhofen","municipality":{"key":"09274114","name":"Altfraunhofen","type":"Kreisangehörige_Gemeinde"},"district":{"key":"09274","name":"Landshut","type":"Landkreis"},"federalState":{"key":"09","name":"Bayern"}},{"name":"Bergstr.","postalCode":"84169","locality":"Altfraunhofen","municipality":{"key":"09274114","name":"Altfraunhofen","type":"Kreisangehörige_Gemeinde"},"district":{"key":"09274","name":"Landshut","type":"Landkreis"},"federalState":{"key":"09","name":"Bayern"}},{"name":"Bienenstr.","postalCode":"84169","locality":"Altfraunhofen","municipality":{"key":"09274114","name":"Altfraunhofen","type":"Kreisangehörige_Gemeinde"},"district":{"key":"09274","name":"Landshut","type":"Landkreis"},"federalState":{"key":"09","name":"Bayern"}},{"name":"Blaimberg","postalCode":"84169","locality":"Altfraunhofen","municipality":{"key":"09274114","name":"Altfraunhofen","type":"Kreisangehörige_Gemeinde"},"district":{"key":"09274","name":"Landshut","type":"Landkreis"},"federalState":{"key":"09","name":"Bayern"}},{"name":"Bründlweg","postalCode":"84169","locality":"Altfraunhofen","municipality":{"key":"09274114","name":"Altfraunhofen","type":"Kreisangehörige_Gemeinde"},"district":{"key":"09274","name":"Landshut","type":"Landkreis"},"federalState":{"key":"09","name":"Bayern"}},{"name":"Buchenstr.","postalCode":"84169","locality":"Altfraunhofen","municipality":{"key":"09274114","name":"Altfraunhofen","type":"Kreisangehörige_Gemeinde"},"district":{"key":"09274","name":"Landshut","type":"Landkreis"},"federalState":{"key":"09","name":"Bayern"}},{"name":"Bussardstr.","postalCode":"84169","locality":"Altfraunhofen","municipality":{"key":"09274114","name":"Altfraunhofen","type":"Kreisangehörige_Gemeinde"},"district":{"key":"09274","name":"Landshut","type":"Landkreis"},"federalState":{"key":"09","name":"Bayern"}},{"name":"Christian-Jorhan-Str.","postalCode":"84169","locality":"Altfraunhofen","municipality":{"key":"09274114","name":"Altfraunhofen","type":"Kreisangehörige_Gemeinde"},"district":{"key":"09274","name":"Landshut","type":"Landkreis"},"federalState":{"key":"09","name":"Bayern"}},{"name":"Dinkelweg","postalCode":"84169","locality":"Altfraunhofen","municipality":{"key":"09274114","name":"Altfraunhofen","type":"Kreisangehörige_Gemeinde"},"district":{"key":"09274","name":"Landshut","type":"Landkreis"},"federalState":{"key":"09","name":"Bayern"}},{"name":"Eging","postalCode":"84169","locality":"Altfraunhofen","municipality":{"key":"09274114","name":"Altfraunhofen","type":"Kreisangehörige_Gemeinde"},"district":{"key":"09274","name":"Landshut","type":"Landkreis"},"federalState":{"key":"09","name":"Bayern"}},{"name":"Emmerweg","postalCode":"84169","locality":"Altfraunhofen","municipality":{"key":"09274114","name":"Altfraunhofen","type":"Kreisangehörige_Gemeinde"},"district":{"key":"09274","name":"Landshut","type":"Landkreis"},"federalState":{"key":"09","name":"Bayern"}},{"name":"Eulenweg","postalCode":"84169","locality":"Altfraunhofen","municipality":{"key":"09274114","name":"Altfraunhofen","type":"Kreisangehörige_Gemeinde"},"district":{"key":"09274","name":"Landshut","type":"Landkreis"},"federalState":{"key":"09","name":"Bayern"}},{"name":"Falkenweg","postalCode":"84169","locality":"Altfraunhofen","municipality":{"key":"09274114","name":"Altfraunhofen","type":"Kreisangehörige_Gemeinde"},"district":{"key":"09274","name":"Landshut","type":"Landkreis"},"federalState":{"key":"09","name":"Bayern"}},{"name":"Fasanenweg","postalCode":"84169","locality":"Altfraunhofen","municipality":{"key":"09274114","name":"Altfraunhofen","type":"Kreisangehörige_Gemeinde"},"district":{"key":"09274","name":"Landshut","type":"Landkreis"},"federalState":{"key":"09","name":"Bayern"}},{"name":"Fichtenstr.","postalCode":"84169","locality":"Altfraunhofen","municipality":{"key":"09274114","name":"Altfraunhofen","type":"Kreisangehörige_Gemeinde"},"district":{"key":"09274","name":"Landshut","type":"Landkreis"},"federalState":{"key":"09","name":"Bayern"}},{"name":"Fichtenweg","postalCode":"84169","locality":"Altfraunhofen","municipality":{"key":"09274114","name":"Altfraunhofen","type":"Kreisangehörige_Gemeinde"},"district":{"key":"09274","name":"Landshut","type":"Landkreis"},"federalState":{"key":"09","name":"Bayern"}},{"name":"Finkenstr.","postalCode":"84169","locality":"Altfraunhofen","municipality":{"key":"09274114","name":"Altfraunhofen","type":"Kreisangehörige_Gemeinde"},"district":{"key":"09274","name":"Landshut","type":"Landkreis"},"federalState":{"key":"09","name":"Bayern"}},{"name":"Finkenweg","postalCode":"84169","locality":"Altfraunhofen","municipality":{"key":"09274114","name":"Altfraunhofen","type":"Kreisangehörige_Gemeinde"},"district":{"key":"09274","name":"Landshut","type":"Landkreis"},"federalState":{"key":"09","name":"Bayern"}},{"name":"Florianstr.","postalCode":"84169","locality":"Altfraunhofen","municipality":{"key":"09274114","name":"Altfraunhofen","type":"Kreisangehörige_Gemeinde"},"district":{"key":"09274","name":"Landshut","type":"Landkreis"},"federalState":{"key":"09","name":"Bayern"}},{"name":"Geisenhausener Str.","postalCode":"84169","locality":"Altfraunhofen","municipality":{"key":"09274114","name":"Altfraunhofen","type":"Kreisangehörige_Gemeinde"},"district":{"key":"09274","name":"Landshut","type":"Landkreis"},"federalState":{"key":"09","name":"Bayern"}},{"name":"Gerstenweg","postalCode":"84169","locality":"Altfraunhofen","municipality":{"key":"09274114","name":"Altfraunhofen","type":"Kreisangehörige_Gemeinde"},"district":{"key":"09274","name":"Landshut","type":"Landkreis"},"federalState":{"key":"09","name":"Bayern"}},{"name":"Getreidestr.","postalCode":"84169","locality":"Altfraunhofen","municipality":{"key":"09274114","name":"Altfraunhofen","type":"Kreisangehörige_Gemeinde"},"district":{"key":"09274","name":"Landshut","type":"Landkreis"},"federalState":{"key":"09","name":"Bayern"}},{"name":"Haferweg","postalCode":"84169","locality":"Altfraunhofen","municipality":{"key":"09274114","name":"Altfraunhofen","type":"Kreisangehörige_Gemeinde"},"district":{"key":"09274","name":"Landshut","type":"Landkreis"},"federalState":{"key":"09","name":"Bayern"}},{"name":"Hangleite","postalCode":"84169","locality":"Altfraunhofen","municipality":{"key":"09274114","name":"Altfraunhofen","type":"Kreisangehörige_Gemeinde"},"district":{"key":"09274","name":"Landshut","type":"Landkreis"},"federalState":{"key":"09","name":"Bayern"}},{"name":"Hauptstr.","postalCode":"84169","locality":"Altfraunhofen","municipality":{"key":"09274114","name":"Altfraunhofen","type":"Kreisangehörige_Gemeinde"},"district":{"key":"09274","name":"Landshut","type":"Landkreis"},"federalState":{"key":"09","name":"Bayern"}},{"name":"Höhenweg","postalCode":"84169","locality":"Altfraunhofen","municipality":{"key":"09274114","name":"Altfraunhofen","type":"Kreisangehörige_Gemeinde"},"district":{"key":"09274","name":"Landshut","type":"Landkreis"},"federalState":{"key":"09","name":"Bayern"}},{"name":"Holzhäuseln","postalCode":"84169","locality":"Altfraunhofen","municipality":{"key":"09274114","name":"Altfraunhofen","type":"Kreisangehörige_Gemeinde"},"district":{"key":"09274","name":"Landshut","type":"Landkreis"},"federalState":{"key":"09","name":"Bayern"}},{"name":"Hummelweg","postalCode":"84169","locality":"Altfraunhofen","municipality":{"key":"09274114","name":"Altfraunhofen","type":"Kreisangehörige_Gemeinde"},"district":{"key":"09274","name":"Landshut","type":"Landkreis"},"federalState":{"key":"09","name":"Bayern"}},{"name":"Ida-Hilgärtner-Weg","postalCode":"84034","locality":"Landshut","municipality":{"key":"09261000","name":"Landshut","type":"Kreisfreie_Stadt"},"district":{"key":"09261","name":"Landshut","type":"Kreisfreie_Stadt"},"federalState":{"key":"09","name":"Bayern"}},{"name":"Iglauer Weg","postalCode":"84028","locality":"Landshut","municipality":{"key":"09261000","name":"Landshut","type":"Kreisfreie_Stadt"},"district":{"key":"09261","name":"Landshut","type":"Kreisfreie_Stadt"},"federalState":{"key":"09","name":"Bayern"}},{"name":"Illerweg","postalCode":"84036","locality":"Landshut","municipality":{"key":"09261000","name":"Landshut","type":"Kreisfreie_Stadt"},"district":{"key":"09261","name":"Landshut","type":"Kreisfreie_Stadt"},"federalState":{"key":"09","name":"Bayern"}},{"name":"Illoher Weg","postalCode":"84036","locality":"Landshut","municipality":{"key":"09261000","name":"Landshut","type":"Kreisfreie_Stadt"},"district":{"key":"09261","name":"Landshut","type":"Kreisfreie_Stadt"},"federalState":{"key":"09","name":"Bayern"}},{"name":"Ilzstr.","postalCode":"84036","locality":"Landshut","municipality":{"key":"09261000","name":"Landshut","type":"Kreisfreie_Stadt"},"district":{"key":"09261","name":"Landshut","type":"Kreisfreie_Stadt"},"federalState":{"key":"09","name":"Bayern"}},{"name":"Im Moos","postalCode":"84034","locality":"Landshut","municipality":{"key":"09261000","name":"Landshut","type":"Kreisfreie_Stadt"},"district":{"key":"09261","name":"Landshut","type":"Kreisfreie_Stadt"},"federalState":{"key":"09","name":"Bayern"}},{"name":"Ina-Seidel-Str.","postalCode":"84032","locality":"Landshut","municipality":{"key":"09261000","name":"Landshut","type":"Kreisfreie_Stadt"},"district":{"key":"09261","name":"Landshut","type":"Kreisfreie_Stadt"},"federalState":{"key":"09","name":"Bayern"}},{"name":"In den Schwaigen","postalCode":"84034","locality":"Landshut","municipality":{"key":"09261000","name":"Landshut","type":"Kreisfreie_Stadt"},"district":{"key":"09261","name":"Landshut","type":"Kreisfreie_Stadt"},"federalState":{"key":"09","name":"Bayern"}},{"name":"Industriestr.","postalCode":"84030","locality":"Landshut","municipality":{"key":"09261000","name":"Landshut","type":"Kreisfreie_Stadt"},"district":{"key":"09261","name":"Landshut","type":"Kreisfreie_Stadt"},"federalState":{"key":"09","name":"Bayern"}},{"name":"Ingbert-Naab-Str.","postalCode":"84032","locality":"Landshut","municipality":{"key":"09261000","name":"Landshut","type":"Kreisfreie_Stadt"},"district":{"key":"09261","name":"Landshut","type":"Kreisfreie_Stadt"},"federalState":{"key":"09","name":"Bayern"}},{"name":"Inge-Sedlmaier-Str.","postalCode":"84036","locality":"Landshut","municipality":{"key":"09261000","name":"Landshut","type":"Kreisfreie_Stadt"},"district":{"key":"09261","name":"Landshut","type":"Kreisfreie_Stadt"},"federalState":{"key":"09","name":"Bayern"}},{"name":"Innere Münchener Str.","postalCode":"84028","locality":"Landshut","municipality":{"key":"09261000","name":"Landshut","type":"Kreisfreie_Stadt"},"district":{"key":"09261","name":"Landshut","type":"Kreisfreie_Stadt"},"federalState":{"key":"09","name":"Bayern"}},{"name":"Innere Münchener Str.","postalCode":"84036","locality":"Landshut","municipality":{"key":"09261000","name":"Landshut","type":"Kreisfreie_Stadt"},"district":{"key":"09261","name":"Landshut","type":"Kreisfreie_Stadt"},"federalState":{"key":"09","name":"Bayern"}},{"name":"Innere Münchner Str.","postalCode":"84036","locality":"Landshut","municipality":{"key":"09261000","name":"Landshut","type":"Kreisfreie_Stadt"},"district":{"key":"09261","name":"Landshut","type":"Kreisfreie_Stadt"},"federalState":{"key":"09","name":"Bayern"}},{"name":"Innere Regensburger Str.","postalCode":"84034","locality":"Landshut","municipality":{"key":"09261000","name":"Landshut","type":"Kreisfreie_Stadt"},"district":{"key":"09261","name":"Landshut","type":"Kreisfreie_Stadt"},"federalState":{"key":"09","name":"Bayern"}},{"name":"Innstr.","postalCode":"84036","locality":"Landshut","municipality":{"key":"09261000","name":"Landshut","type":"Kreisfreie_Stadt"},"district":{"key":"09261","name":"Landshut","type":"Kreisfreie_Stadt"},"federalState":{"key":"09","name":"Bayern"}},{"name":"Isarradweg","postalCode":"84036","locality":"Landshut","municipality":{"key":"09261000","name":"Landshut","type":"Kreisfreie_Stadt"},"district":{"key":"09261","name":"Landshut","type":"Kreisfreie_Stadt"},"federalState":{"key":"09","name":"Bayern"}},{"name":"Isarweg","postalCode":"84028","locality":"Landshut","municipality":{"key":"09261000","name":"Landshut","type":"Kreisfreie_Stadt"},"district":{"key":"09261","name":"Landshut","type":"Kreisfreie_Stadt"},"federalState":{"key":"09","name":"Bayern"}},{"name":"Isenstr.","postalCode":"84036","locality":"Landshut","municipality":{"key":"09261000","name":"Landshut","type":"Kreisfreie_Stadt"},"district":{"key":"09261","name":"Landshut","type":"Kreisfreie_Stadt"},"federalState":{"key":"09","name":"Bayern"}},{"name":"Isolde-Kurz-Str.","postalCode":"84032","locality":"Landshut","municipality":{"key":"09261000","name":"Landshut","type":"Kreisfreie_Stadt"},"district":{"key":"09261","name":"Landshut","type":"Kreisfreie_Stadt"},"federalState":{"key":"09","name":"Bayern"}},{"name":"Jakob-Mieslinger-Str.","postalCode":"84034","locality":"Landshut","municipality":{"key":"09261000","name":"Landshut","type":"Kreisfreie_Stadt"},"district":{"key":"09261","name":"Landshut","type":"Kreisfreie_Stadt"},"federalState":{"key":"09","name":"Bayern"}},{"name":"Jennerstr.","postalCode":"84034","locality":"Landshut","municipality":{"key":"09261000","name":"Landshut","type":"Kreisfreie_Stadt"},"district":{"key":"09261","name":"Landshut","type":"Kreisfreie_Stadt"},"federalState":{"key":"09","name":"Bayern"}},{"name":"Jodoksgasse","postalCode":"84028","locality":"Landshut","municipality":{"key":"09261000","name":"Landshut","type":"Kreisfreie_Stadt"},"district":{"key":"09261","name":"Landshut","type":"Kreisfreie_Stadt"},"federalState":{"key":"09","name":"Bayern"}},{"name":"Johann-A.-Schmeller-Str.","postalCode":"84032","locality":"Landshut","municipality":{"key":"09261000","name":"Landshut","type":"Kreisfreie_Stadt"},"district":{"key":"09261","name":"Landshut","type":"Kreisfreie_Stadt"},"federalState":{"key":"09","name":"Bayern"}},{"name":"Johann-Hengl-Str.","postalCode":"84036","locality":"Landshut","municipality":{"key":"09261000","name":"Landshut","type":"Kreisfreie_Stadt"},"district":{"key":"09261","name":"Landshut","type":"Kreisfreie_Stadt"},"federalState":{"key":"09","name":"Bayern"}},{"name":"Johannisstr.","postalCode":"84034","locality":"Landshut","municipality":{"key":"09261000","name":"Landshut","type":"Kreisfreie_Stadt"},"district":{"key":"09261","name":"Landshut","type":"Kreisfreie_Stadt"},"federalState":{"key":"09","name":"Bayern"}},{"name":"Johann-Weiß-Weg","postalCode":"84028","locality":"Landshut","municipality":{"key":"09261000","name":"Landshut","type":"Kreisfreie_Stadt"},"district":{"key":"09261","name":"Landshut","type":"Kreisfreie_Stadt"},"federalState":{"key":"09","name":"Bayern"}},{"name":"Jörg-Breu-Str.","postalCode":"84034","locality":"Landshut","municipality":{"key":"09261000","name":"Landshut","type":"Kreisfreie_Stadt"},"district":{"key":"09261","name":"Landshut","type":"Kreisfreie_Stadt"},"federalState":{"key":"09","name":"Bayern"}},{"name":"Josef-Bergler-Str.","postalCode":"84034","locality":"Landshut","municipality":{"key":"09261000","name":"Landshut","type":"Kreisfreie_Stadt"},"district":{"key":"09261","name":"Landshut","type":"Kreisfreie_Stadt"},"federalState":{"key":"09","name":"Bayern"}},{"name":"Josef-Deimer-Tunnel","postalCode":"84028","locality":"Landshut","municipality":{"key":"09261000","name":"Landshut","type":"Kreisfreie_Stadt"},"district":{"key":"09261","name":"Landshut","type":"Kreisfreie_Stadt"},"federalState":{"key":"09","name":"Bayern"}},{"name":"Josef-Deimer-Tunnel","postalCode":"84036","locality":"Landshut","municipality":{"key":"09261000","name":"Landshut","type":"Kreisfreie_Stadt"},"district":{"key":"09261","name":"Landshut","type":"Kreisfreie_Stadt"},"federalState":{"key":"09","name":"Bayern"}},{"name":"Josef-Götz-Str.","postalCode":"84034","locality":"Landshut","municipality":{"key":"09261000","name":"Landshut","type":"Kreisfreie_Stadt"},"district":{"key":"09261","name":"Landshut","type":"Kreisfreie_Stadt"},"federalState":{"key":"09","name":"Bayern"}},{"name":"Joseph-Schlicht-Str.","postalCode":"84032","locality":"Landshut","municipality":{"key":"09261000","name":"Landshut","type":"Kreisfreie_Stadt"},"district":{"key":"09261","name":"Landshut","type":"Kreisfreie_Stadt"},"federalState":{"key":"09","name":"Bayern"}},{"name":"Judithstr.","postalCode":"84032","locality":"Landshut","municipality":{"key":"09261000","name":"Landshut","type":"Kreisfreie_Stadt"},"district":{"key":"09261","name":"Landshut","type":"Kreisfreie_Stadt"},"federalState":{"key":"09","name":"Bayern"}},{"name":"Jürgen-Schumann-Str.","postalCode":"84034","locality":"Landshut","municipality":{"key":"09261000","name":"Landshut","type":"Kreisfreie_Stadt"},"district":{"key":"09261","name":"Landshut","type":"Kreisfreie_Stadt"},"federalState":{"key":"09","name":"Bayern"}},{"name":"Kamillenweg","postalCode":"84169","locality":"Altfraunhofen","municipality":{"key":"09274114","name":"Altfraunhofen","type":"Kreisangehörige_Gemeinde"},"district":{"key":"09274","name":"Landshut","type":"Landkreis"},"federalState":{"key":"09","name":"Bayern"}},{"name":"Kamutweg","postalCode":"84169","locality":"Altfraunhofen","municipality":{"key":"09274114","name":"Altfraunhofen","type":"Kreisangehörige_Gemeinde"},"district":{"key":"09274","name":"Landshut","type":"Landkreis"},"federalState":{"key":"09","name":"Bayern"}},{"name":"Kirchplatz","postalCode":"84169","locality":"Altfraunhofen","municipality":{"key":"09274114","name":"Altfraunhofen","type":"Kreisangehörige_Gemeinde"},"district":{"key":"09274","name":"Landshut","type":"Landkreis"},"federalState":{"key":"09","name":"Bayern"}},{"name":"Landshuter Str.","postalCode":"84169","locality":"Altfraunhofen","municipality":{"key":"09274114","name":"Altfraunhofen","type":"Kreisangehörige_Gemeinde"},"district":{"key":"09274","name":"Landshut","type":"Landkreis"},"federalState":{"key":"09","name":"Bayern"}},{"name":"Lärchenstr.","postalCode":"84169","locality":"Altfraunhofen","municipality":{"key":"09274114","name":"Altfraunhofen","type":"Kreisangehörige_Gemeinde"},"district":{"key":"09274","name":"Landshut","type":"Landkreis"},"federalState":{"key":"09","name":"Bayern"}},{"name":"Lohhub","postalCode":"84169","locality":"Altfraunhofen","municipality":{"key":"09274114","name":"Altfraunhofen","type":"Kreisangehörige_Gemeinde"},"district":{"key":"09274","name":"Landshut","type":"Landkreis"},"federalState":{"key":"09","name":"Bayern"}},{"name":"Meisenweg","postalCode":"84169","locality":"Altfraunhofen","municipality":{"key":"09274114","name":"Altfraunhofen","type":"Kreisangehörige_Gemeinde"},"district":{"key":"09274","name":"Landshut","type":"Landkreis"},"federalState":{"key":"09","name":"Bayern"}},{"name":"Mesner-Zapf-Str.","postalCode":"84169","locality":"Altfraunhofen","municipality":{"key":"09274114","name":"Altfraunhofen","type":"Kreisangehörige_Gemeinde"},"district":{"key":"09274","name":"Landshut","type":"Landkreis"},"federalState":{"key":"09","name":"Bayern"}},{"name":"Mesner-Zapf-Weg","postalCode":"84169","locality":"Altfraunhofen","municipality":{"key":"09274114","name":"Altfraunhofen","type":"Kreisangehörige_Gemeinde"},"district":{"key":"09274","name":"Landshut","type":"Landkreis"},"federalState":{"key":"09","name":"Bayern"}},{"name":"Mitterweg","postalCode":"84169","locality":"Altfraunhofen","municipality":{"key":"09274114","name":"Altfraunhofen","type":"Kreisangehörige_Gemeinde"},"district":{"key":"09274","name":"Landshut","type":"Landkreis"},"federalState":{"key":"09","name":"Bayern"}},{"name":"Moorloh","postalCode":"84169","locality":"Altfraunhofen","municipality":{"key":"09274114","name":"Altfraunhofen","type":"Kreisangehörige_Gemeinde"},"district":{"key":"09274","name":"Landshut","type":"Landkreis"},"federalState":{"key":"09","name":"Bayern"}},{"name":"Moorloher Str.","postalCode":"84169","locality":"Altfraunhofen","municipality":{"key":"09274114","name":"Altfraunhofen","type":"Kreisangehörige_Gemeinde"},"district":{"key":"09274","name":"Landshut","type":"Landkreis"},"federalState":{"key":"09","name":"Bayern"}},{"name":"Moosburger Str.","postalCode":"84169","locality":"Altfraunhofen","municipality":{"key":"09274114","name":"Altfraunhofen","type":"Kreisangehörige_Gemeinde"},"district":{"key":"09274","name":"Landshut","type":"Landkreis"},"federalState":{"key":"09","name":"Bayern"}},{"name":"Neutzkam","postalCode":"84169","locality":"Altfraunhofen","municipality":{"key":"09274114","name":"Altfraunhofen","type":"Kreisangehörige_Gemeinde"},"district":{"key":"09274","name":"Landshut","type":"Landkreis"},"federalState":{"key":"09","name":"Bayern"}},{"name":"Obergangkofener Str.","postalCode":"84169","locality":"Altfraunhofen","municipality":{"key":"09274114","name":"Altfraunhofen","type":"Kreisangehörige_Gemeinde"},"district":{"key":"09274","name":"Landshut","type":"Landkreis"},"federalState":{"key":"09","name":"Bayern"}},{"name":"Oberheldenberg","postalCode":"84169","locality":"Altfraunhofen","municipality":{"key":"09274114","name":"Altfraunhofen","type":"Kreisangehörige_Gemeinde"},"district":{"key":"09274","name":"Landshut","type":"Landkreis"},"federalState":{"key":"09","name":"Bayern"}},{"name":"Peißing","postalCode":"84169","locality":"Altfraunhofen","municipality":{"key":"09274114","name":"Altfraunhofen","type":"Kreisangehörige_Gemeinde"},"district":{"key":"09274","name":"Landshut","type":"Landkreis"},"federalState":{"key":"09","name":"Bayern"}},{"name":"Peißinger Weg","postalCode":"84169","locality":"Altfraunhofen","municipality":{"key":"09274114","name":"Altfraunhofen","type":"Kreisangehörige_Gemeinde"},"district":{"key":"09274","name":"Landshut","type":"Landkreis"},"federalState":{"key":"09","name":"Bayern"}},{"name":"Pfründestr.","postalCode":"84169","locality":"Altfraunhofen","municipality":{"key":"09274114","name":"Altfraunhofen","type":"Kreisangehörige_Gemeinde"},"district":{"key":"09274","name":"Landshut","type":"Landkreis"},"federalState":{"key":"09","name":"Bayern"}},{"name":"Querstr.","postalCode":"84034","locality":"Landshut","municipality":{"key":"09261000","name":"Landshut","type":"Kreisfreie_Stadt"},"district":{"key":"09261","name":"Landshut","type":"Kreisfreie_Stadt"},"federalState":{"key":"09","name":"Bayern"}},{"name":"Querweg","postalCode":"84028","locality":"Landshut","municipality":{"key":"09261000","name":"Landshut","type":"Kreisfreie_Stadt"},"district":{"key":"09261","name":"Landshut","type":"Kreisfreie_Stadt"},"federalState":{"key":"09","name":"Bayern"}},{"name":"Riedlkam","postalCode":"84169","locality":"Altfraunhofen","municipality":{"key":"09274114","name":"Altfraunhofen","type":"Kreisangehörige_Gemeinde"},"district":{"key":"09274","name":"Landshut","type":"Landkreis"},"federalState":{"key":"09","name":"Bayern"}},{"name":"Roggenweg","postalCode":"84169","locality":"Altfraunhofen","municipality":{"key":"09274114","name":"Altfraunhofen","type":"Kreisangehörige_Gemeinde"},"district":{"key":"09274","name":"Landshut","type":"Landkreis"},"federalState":{"key":"09","name":"Bayern"}},{"name":"Schloßinselstr.","postalCode":"84169","locality":"Altfraunhofen","municipality":{"key":"09274114","name":"Altfraunhofen","type":"Kreisangehörige_Gemeinde"},"district":{"key":"09274","name":"Landshut","type":"Landkreis"},"federalState":{"key":"09","name":"Bayern"}},{"name":"Schulstr.","postalCode":"84169","locality":"Altfraunhofen","municipality":{"key":"09274114","name":"Altfraunhofen","type":"Kreisangehörige_Gemeinde"},"district":{"key":"09274","name":"Landshut","type":"Landkreis"},"federalState":{"key":"09","name":"Bayern"}},{"name":"Sonnenring","postalCode":"84169","locality":"Altfraunhofen","municipality":{"key":"09274114","name":"Altfraunhofen","type":"Kreisangehörige_Gemeinde"},"district":{"key":"09274","name":"Landshut","type":"Landkreis"},"federalState":{"key":"09","name":"Bayern"}},{"name":"Spechtstr.","postalCode":"84169","locality":"Altfraunhofen","municipality":{"key":"09274114","name":"Altfraunhofen","type":"Kreisangehörige_Gemeinde"},"district":{"key":"09274","name":"Landshut","type":"Landkreis"},"federalState":{"key":"09","name":"Bayern"}},{"name":"Sr.-Mildgitha-Bachleitner-Weg","postalCode":"84169","locality":"Altfraunhofen","municipality":{"key":"09274114","name":"Altfraunhofen","type":"Kreisangehörige_Gemeinde"},"district":{"key":"09274","name":"Landshut","type":"Landkreis"},"federalState":{"key":"09","name":"Bayern"}},{"name":"Stadelbogen","postalCode":"84169","locality":"Altfraunhofen","municipality":{"key":"09274114","name":"Altfraunhofen","type":"Kreisangehörige_Gemeinde"},"district":{"key":"09274","name":"Landshut","type":"Landkreis"},"federalState":{"key":"09","name":"Bayern"}},{"name":"St.-Nikolaus-Str.","postalCode":"84169","locality":"Altfraunhofen","municipality":{"key":"09274114","name":"Altfraunhofen","type":"Kreisangehörige_Gemeinde"},"district":{"key":"09274","name":"Landshut","type":"Landkreis"},"federalState":{"key":"09","name":"Bayern"}},{"name":"Tannenweg","postalCode":"84169","locality":"Altfraunhofen","municipality":{"key":"09274114","name":"Altfraunhofen","type":"Kreisangehörige_Gemeinde"},"district":{"key":"09274","name":"Landshut","type":"Landkreis"},"federalState":{"key":"09","name":"Bayern"}},{"name":"Ulmenstr.","postalCode":"84169","locality":"Altfraunhofen","municipality":{"key":"09274114","name":"Altfraunhofen","type":"Kreisangehörige_Gemeinde"},"district":{"key":"09274","name":"Landshut","type":"Landkreis"},"federalState":{"key":"09","name":"Bayern"}},{"name":"Veldener Str.","postalCode":"84169","locality":"Altfraunhofen","municipality":{"key":"09274114","name":"Altfraunhofen","type":"Kreisangehörige_Gemeinde"},"district":{"key":"09274","name":"Landshut","type":"Landkreis"},"federalState":{"key":"09","name":"Bayern"}},{"name":"Von-Fraunhofen-Str.","postalCode":"84169","locality":"Altfraunhofen","municipality":{"key":"09274114","name":"Altfraunhofen","type":"Kreisangehörige_Gemeinde"},"district":{"key":"09274","name":"Landshut","type":"Landkreis"},"federalState":{"key":"09","name":"Bayern"}},{"name":"Waldweg","postalCode":"84169","locality":"Altfraunhofen","municipality":{"key":"09274114","name":"Altfraunhofen","type":"Kreisangehörige_Gemeinde"},"district":{"key":"09274","name":"Landshut","type":"Landkreis"},"federalState":{"key":"09","name":"Bayern"}},{"name":"Weizenweg","postalCode":"84169","locality":"Altfraunhofen","municipality":{"key":"09274114","name":"Altfraunhofen","type":"Kreisangehörige_Gemeinde"},"district":{"key":"09274","name":"Landshut","type":"Landkreis"},"federalState":{"key":"09","name":"Bayern"}},{"name":"Wiesenweg","postalCode":"84169","locality":"Altfraunhofen","municipality":{"key":"09274114","name":"Altfraunhofen","type":"Kreisangehörige_Gemeinde"},"district":{"key":"09274","name":"Landshut","type":"Landkreis"},"federalState":{"key":"09","name":"Bayern"}},{"name":"Wörnstorf","postalCode":"84169","locality":"Altfraunhofen","municipality":{"key":"09274114","name":"Altfraunhofen","type":"Kreisangehörige_Gemeinde"},"district":{"key":"09274","name":"Landshut","type":"Landkreis"},"federalState":{"key":"09","name":"Bayern"}},{"name":"Zur Linde","postalCode":"84169","locality":"Altfraunhofen","municipality":{"key":"09274114","name":"Altfraunhofen","type":"Kreisangehörige_Gemeinde"},"district":{"key":"09274","name":"Landshut","type":"Landkreis"},"federalState":{"key":"09","name":"Bayern"}},{"name":"Äußere Münchener Str.","postalCode":"84036","locality":"Landshut","municipality":{"key":"09261000","name":"Landshut","type":"Kreisfreie_Stadt"},"district":{"key":"09261","name":"Landshut","type":"Kreisfreie_Stadt"},"federalState":{"key":"09","name":"Bayern"}},{"name":"Äußere Regensburger Str.","postalCode":"84030","locality":"Landshut","municipality":{"key":"09261000","name":"Landshut","type":"Kreisfreie_Stadt"},"district":{"key":"09261","name":"Landshut","type":"Kreisfreie_Stadt"},"federalState":{"key":"09","name":"Bayern"}},{"name":"Äußere Regensburger Str.","postalCode":"84034","locality":"Landshut","municipality":{"key":"09261000","name":"Landshut","type":"Kreisfreie_Stadt"},"district":{"key":"09261","name":"Landshut","type":"Kreisfreie_Stadt"},"federalState":{"key":"09","name":"Bayern"}},{"name":"Überreiterweg","postalCode":"84036","locality":"Landshut","municipality":{"key":"09261000","name":"Landshut","type":"Kreisfreie_Stadt"},"district":{"key":"09261","name":"Landshut","type":"Kreisfreie_Stadt"},"federalState":{"key":"09","name":"Bayern"}},]