[{"name":"1. Kanal","postalCode":"21737","locality":"Wischhafen","municipality":{"key":"03359040","name":"Wischhafen","type":"Kreisangehörige_Gemeinde"},"district":{"key":"03359","name":"Stade","type":"Landkreis"},"federalState":{"key":"03","name":"Niedersachsen"}},{"name":"2. Kanal","postalCode":"21737","locality":"Wischhafen","municipality":{"key":"03359040","name":"Wischhafen","type":"Kreisangehörige_Gemeinde"},"district":{"key":"03359","name":"Stade","type":"Landkreis"},"federalState":{"key":"03","name":"Niedersachsen"}},{"name":"3. Kanal","postalCode":"21737","locality":"Wischhafen","municipality":{"key":"03359040","name":"Wischhafen","type":"Kreisangehörige_Gemeinde"},"district":{"key":"03359","name":"Stade","type":"Landkreis"},"federalState":{"key":"03","name":"Niedersachsen"}},{"name":"4. Kanal","postalCode":"21737","locality":"Wischhafen","municipality":{"key":"03359040","name":"Wischhafen","type":"Kreisangehörige_Gemeinde"},"district":{"key":"03359","name":"Stade","type":"Landkreis"},"federalState":{"key":"03","name":"Niedersachsen"}},{"name":"Ackerweg","postalCode":"21737","locality":"Wischhafen","municipality":{"key":"03359040","name":"Wischhafen","type":"Kreisangehörige_Gemeinde"},"district":{"key":"03359","name":"Stade","type":"Landkreis"},"federalState":{"key":"03","name":"Niedersachsen"}},{"name":"Ahornweg","postalCode":"21737","locality":"Wischhafen","municipality":{"key":"03359040","name":"Wischhafen","type":"Kreisangehörige_Gemeinde"},"district":{"key":"03359","name":"Stade","type":"Landkreis"},"federalState":{"key":"03","name":"Niedersachsen"}},{"name":"Allwördener Deich","postalCode":"21737","locality":"Wischhafen","municipality":{"key":"03359040","name":"Wischhafen","type":"Kreisangehörige_Gemeinde"},"district":{"key":"03359","name":"Stade","type":"Landkreis"},"federalState":{"key":"03","name":"Niedersachsen"}},{"name":"Altendorf","postalCode":"21737","locality":"Wischhafen","municipality":{"key":"03359040","name":"Wischhafen","type":"Kreisangehörige_Gemeinde"},"district":{"key":"03359","name":"Stade","type":"Landkreis"},"federalState":{"key":"03","name":"Niedersachsen"}},{"name":"Alter Deichweg","postalCode":"21737","locality":"Wischhafen","municipality":{"key":"03359040","name":"Wischhafen","type":"Kreisangehörige_Gemeinde"},"district":{"key":"03359","name":"Stade","type":"Landkreis"},"federalState":{"key":"03","name":"Niedersachsen"}},{"name":"Alter Schulweg","postalCode":"21737","locality":"Wischhafen","municipality":{"key":"03359040","name":"Wischhafen","type":"Kreisangehörige_Gemeinde"},"district":{"key":"03359","name":"Stade","type":"Landkreis"},"federalState":{"key":"03","name":"Niedersachsen"}},{"name":"Am Fleth","postalCode":"21737","locality":"Wischhafen","municipality":{"key":"03359040","name":"Wischhafen","type":"Kreisangehörige_Gemeinde"},"district":{"key":"03359","name":"Stade","type":"Landkreis"},"federalState":{"key":"03","name":"Niedersachsen"}},{"name":"Am Ring","postalCode":"21737","locality":"Wischhafen","municipality":{"key":"03359040","name":"Wischhafen","type":"Kreisangehörige_Gemeinde"},"district":{"key":"03359","name":"Stade","type":"Landkreis"},"federalState":{"key":"03","name":"Niedersachsen"}},{"name":"Am Sportplatz","postalCode":"21737","locality":"Wischhafen","municipality":{"key":"03359040","name":"Wischhafen","type":"Kreisangehörige_Gemeinde"},"district":{"key":"03359","name":"Stade","type":"Landkreis"},"federalState":{"key":"03","name":"Niedersachsen"}},{"name":"Auf dem Moordeich","postalCode":"21737","locality":"Wischhafen","municipality":{"key":"03359040","name":"Wischhafen","type":"Kreisangehörige_Gemeinde"},"district":{"key":"03359","name":"Stade","type":"Landkreis"},"federalState":{"key":"03","name":"Niedersachsen"}},{"name":"Backsteinweg","postalCode":"21737","locality":"Wischhafen","municipality":{"key":"03359040","name":"Wischhafen","type":"Kreisangehörige_Gemeinde"},"district":{"key":"03359","name":"Stade","type":"Landkreis"},"federalState":{"key":"03","name":"Niedersachsen"}},{"name":"Bahnhofsweg","postalCode":"21737","locality":"Wischhafen","municipality":{"key":"03359040","name":"Wischhafen","type":"Kreisangehörige_Gemeinde"},"district":{"key":"03359","name":"Stade","type":"Landkreis"},"federalState":{"key":"03","name":"Niedersachsen"}},{"name":"Bei der Kirche","postalCode":"21737","locality":"Wischhafen","municipality":{"key":"03359040","name":"Wischhafen","type":"Kreisangehörige_Gemeinde"},"district":{"key":"03359","name":"Stade","type":"Landkreis"},"federalState":{"key":"03","name":"Niedersachsen"}},{"name":"Binsenweg","postalCode":"21737","locality":"Wischhafen","municipality":{"key":"03359040","name":"Wischhafen","type":"Kreisangehörige_Gemeinde"},"district":{"key":"03359","name":"Stade","type":"Landkreis"},"federalState":{"key":"03","name":"Niedersachsen"}},{"name":"Birkenstr.","postalCode":"21737","locality":"Wischhafen","municipality":{"key":"03359040","name":"Wischhafen","type":"Kreisangehörige_Gemeinde"},"district":{"key":"03359","name":"Stade","type":"Landkreis"},"federalState":{"key":"03","name":"Niedersachsen"}},{"name":"Brammerweg","postalCode":"21737","locality":"Wischhafen","municipality":{"key":"03359040","name":"Wischhafen","type":"Kreisangehörige_Gemeinde"},"district":{"key":"03359","name":"Stade","type":"Landkreis"},"federalState":{"key":"03","name":"Niedersachsen"}},{"name":"Brennofenweg","postalCode":"21737","locality":"Wischhafen","municipality":{"key":"03359040","name":"Wischhafen","type":"Kreisangehörige_Gemeinde"},"district":{"key":"03359","name":"Stade","type":"Landkreis"},"federalState":{"key":"03","name":"Niedersachsen"}},{"name":"Camper Str.","postalCode":"21680","locality":"Stade","municipality":{"key":"03359038","name":"Stade, Hansestadt","type":"Stadt"},"district":{"key":"03359","name":"Stade","type":"Landkreis"},"federalState":{"key":"03","name":"Niedersachsen"}},{"name":"Carl-Benz-Str.","postalCode":"21684","locality":"Stade","municipality":{"key":"03359038","name":"Stade, Hansestadt","type":"Stadt"},"district":{"key":"03359","name":"Stade","type":"Landkreis"},"federalState":{"key":"03","name":"Niedersachsen"}},{"name":"Carl-Diercke-Park","postalCode":"21682","locality":"Stade","municipality":{"key":"03359038","name":"Stade, Hansestadt","type":"Stadt"},"district":{"key":"03359","name":"Stade","type":"Landkreis"},"federalState":{"key":"03","name":"Niedersachsen"}},{"name":"Carl-Goerdeler-Weg","postalCode":"21684","locality":"Stade","municipality":{"key":"03359038","name":"Stade, Hansestadt","type":"Stadt"},"district":{"key":"03359","name":"Stade","type":"Landkreis"},"federalState":{"key":"03","name":"Niedersachsen"}},{"name":"Carl-von-Ossietzky-Weg","postalCode":"21684","locality":"Stade","municipality":{"key":"03359038","name":"Stade, Hansestadt","type":"Stadt"},"district":{"key":"03359","name":"Stade","type":"Landkreis"},"federalState":{"key":"03","name":"Niedersachsen"}},{"name":"Casmannstr.","postalCode":"21680","locality":"Stade","municipality":{"key":"03359038","name":"Stade, Hansestadt","type":"Stadt"},"district":{"key":"03359","name":"Stade","type":"Landkreis"},"federalState":{"key":"03","name":"Niedersachsen"}},{"name":"Celler Str.","postalCode":"21680","locality":"Stade","municipality":{"key":"03359038","name":"Stade, Hansestadt","type":"Stadt"},"district":{"key":"03359","name":"Stade","type":"Landkreis"},"federalState":{"key":"03","name":"Niedersachsen"}},{"name":"Chaukenstr.","postalCode":"21680","locality":"Stade","municipality":{"key":"03359038","name":"Stade, Hansestadt","type":"Stadt"},"district":{"key":"03359","name":"Stade","type":"Landkreis"},"federalState":{"key":"03","name":"Niedersachsen"}},{"name":"Cheruskerweg","postalCode":"21680","locality":"Stade","municipality":{"key":"03359038","name":"Stade, Hansestadt","type":"Stadt"},"district":{"key":"03359","name":"Stade","type":"Landkreis"},"federalState":{"key":"03","name":"Niedersachsen"}},{"name":"Christian-Reichert-Str.","postalCode":"55271","locality":"Stadecken-Elsheim","municipality":{"key":"07339057","name":"Stadecken-Elsheim","type":"Kreisangehörige_Gemeinde"},"district":{"key":"07339","name":"Mainz-Bingen","type":"Landkreis"},"federalState":{"key":"07","name":"Rheinland-Pfalz"}},{"name":"Christophorusweg","postalCode":"21683","locality":"Stade","municipality":{"key":"03359038","name":"Stade, Hansestadt","type":"Stadt"},"district":{"key":"03359","name":"Stade","type":"Landkreis"},"federalState":{"key":"03","name":"Niedersachsen"}},{"name":"Clara-Schumannstr.","postalCode":"55271","locality":"Stadecken-Elsheim","municipality":{"key":"07339057","name":"Stadecken-Elsheim","type":"Kreisangehörige_Gemeinde"},"district":{"key":"07339","name":"Mainz-Bingen","type":"Landkreis"},"federalState":{"key":"07","name":"Rheinland-Pfalz"}},{"name":"Claus-von-Stauffenberg-Weg","postalCode":"21684","locality":"Stade","municipality":{"key":"03359038","name":"Stade, Hansestadt","type":"Stadt"},"district":{"key":"03359","name":"Stade","type":"Landkreis"},"federalState":{"key":"03","name":"Niedersachsen"}},{"name":"Cosmae-Kirchhof","postalCode":"21682","locality":"Stade","municipality":{"key":"03359038","name":"Stade, Hansestadt","type":"Stadt"},"district":{"key":"03359","name":"Stade","type":"Landkreis"},"federalState":{"key":"03","name":"Niedersachsen"}},{"name":"Cranzer Str.","postalCode":"21680","locality":"Stade","municipality":{"key":"03359038","name":"Stade, Hansestadt","type":"Stadt"},"district":{"key":"03359","name":"Stade","type":"Landkreis"},"federalState":{"key":"03","name":"Niedersachsen"}},{"name":"Diercks-Diekhof-Str.","postalCode":"21737","locality":"Wischhafen","municipality":{"key":"03359040","name":"Wischhafen","type":"Kreisangehörige_Gemeinde"},"district":{"key":"03359","name":"Stade","type":"Landkreis"},"federalState":{"key":"03","name":"Niedersachsen"}},{"name":"Dorfstieg","postalCode":"21737","locality":"Wischhafen","municipality":{"key":"03359040","name":"Wischhafen","type":"Kreisangehörige_Gemeinde"},"district":{"key":"03359","name":"Stade","type":"Landkreis"},"federalState":{"key":"03","name":"Niedersachsen"}},{"name":"Drakenstieg","postalCode":"21737","locality":"Wischhafen","municipality":{"key":"03359040","name":"Wischhafen","type":"Kreisangehörige_Gemeinde"},"district":{"key":"03359","name":"Stade","type":"Landkreis"},"federalState":{"key":"03","name":"Niedersachsen"}},{"name":"Drosselkamp","postalCode":"21737","locality":"Wischhafen","municipality":{"key":"03359040","name":"Wischhafen","type":"Kreisangehörige_Gemeinde"},"district":{"key":"03359","name":"Stade","type":"Landkreis"},"federalState":{"key":"03","name":"Niedersachsen"}},{"name":"Eichenhüll","postalCode":"96187","locality":"Stadelhofen","municipality":{"key":"09471189","name":"Stadelhofen","type":"Kreisangehörige_Gemeinde"},"district":{"key":"09471","name":"Bamberg","type":"Landkreis"},"federalState":{"key":"09","name":"Bayern"}},{"name":"Eichenstr.","postalCode":"21684","locality":"Stade","municipality":{"key":"03359038","name":"Stade, Hansestadt","type":"Stadt"},"district":{"key":"03359","name":"Stade","type":"Landkreis"},"federalState":{"key":"03","name":"Niedersachsen"}},{"name":"Eisenbahnstr.","postalCode":"21680","locality":"Stade","municipality":{"key":"03359038","name":"Stade, Hansestadt","type":"Stadt"},"district":{"key":"03359","name":"Stade","type":"Landkreis"},"federalState":{"key":"03","name":"Niedersachsen"}},{"name":"Elbinger Str.","postalCode":"21680","locality":"Stade","municipality":{"key":"03359038","name":"Stade, Hansestadt","type":"Stadt"},"district":{"key":"03359","name":"Stade","type":"Landkreis"},"federalState":{"key":"03","name":"Niedersachsen"}},{"name":"Elbstr.","postalCode":"21683","locality":"Stade","municipality":{"key":"03359038","name":"Stade, Hansestadt","type":"Stadt"},"district":{"key":"03359","name":"Stade","type":"Landkreis"},"federalState":{"key":"03","name":"Niedersachsen"}},{"name":"Elsternstr.","postalCode":"21683","locality":"Stade","municipality":{"key":"03359038","name":"Stade, Hansestadt","type":"Stadt"},"district":{"key":"03359","name":"Stade","type":"Landkreis"},"federalState":{"key":"03","name":"Niedersachsen"}},{"name":"Entenstieg","postalCode":"21682","locality":"Stade","municipality":{"key":"03359038","name":"Stade, Hansestadt","type":"Stadt"},"district":{"key":"03359","name":"Stade","type":"Landkreis"},"federalState":{"key":"03","name":"Niedersachsen"}},{"name":"Erich-Kästner-Weg","postalCode":"21684","locality":"Stade","municipality":{"key":"03359038","name":"Stade, Hansestadt","type":"Stadt"},"district":{"key":"03359","name":"Stade","type":"Landkreis"},"federalState":{"key":"03","name":"Niedersachsen"}},{"name":"Erlengrund","postalCode":"21684","locality":"Stade","municipality":{"key":"03359038","name":"Stade, Hansestadt","type":"Stadt"},"district":{"key":"03359","name":"Stade","type":"Landkreis"},"federalState":{"key":"03","name":"Niedersachsen"}},{"name":"Erlenweg","postalCode":"21683","locality":"Stade","municipality":{"key":"03359038","name":"Stade, Hansestadt","type":"Stadt"},"district":{"key":"03359","name":"Stade","type":"Landkreis"},"federalState":{"key":"03","name":"Niedersachsen"}},{"name":"Ernst-August-Str.","postalCode":"21683","locality":"Stade","municipality":{"key":"03359038","name":"Stade, Hansestadt","type":"Stadt"},"district":{"key":"03359","name":"Stade","type":"Landkreis"},"federalState":{"key":"03","name":"Niedersachsen"}},{"name":"Ernstweg","postalCode":"21684","locality":"Stade","municipality":{"key":"03359038","name":"Stade, Hansestadt","type":"Stadt"},"district":{"key":"03359","name":"Stade","type":"Landkreis"},"federalState":{"key":"03","name":"Niedersachsen"}},{"name":"Essenheimer Str.","postalCode":"55271","locality":"Stadecken-Elsheim","municipality":{"key":"07339057","name":"Stadecken-Elsheim","type":"Kreisangehörige_Gemeinde"},"district":{"key":"07339","name":"Mainz-Bingen","type":"Landkreis"},"federalState":{"key":"07","name":"Rheinland-Pfalz"}},{"name":"Estebrügger Str.","postalCode":"21680","locality":"Stade","municipality":{"key":"03359038","name":"Stade, Hansestadt","type":"Stadt"},"district":{"key":"03359","name":"Stade","type":"Landkreis"},"federalState":{"key":"03","name":"Niedersachsen"}},{"name":"Eulenweg","postalCode":"21684","locality":"Stade","municipality":{"key":"03359038","name":"Stade, Hansestadt","type":"Stadt"},"district":{"key":"03359","name":"Stade","type":"Landkreis"},"federalState":{"key":"03","name":"Niedersachsen"}},{"name":"Fährstr.","postalCode":"21737","locality":"Wischhafen","municipality":{"key":"03359040","name":"Wischhafen","type":"Kreisangehörige_Gemeinde"},"district":{"key":"03359","name":"Stade","type":"Landkreis"},"federalState":{"key":"03","name":"Niedersachsen"}},{"name":"Fasanenweg","postalCode":"21737","locality":"Wischhafen","municipality":{"key":"03359040","name":"Wischhafen","type":"Kreisangehörige_Gemeinde"},"district":{"key":"03359","name":"Stade","type":"Landkreis"},"federalState":{"key":"03","name":"Niedersachsen"}},{"name":"Feldstr.","postalCode":"21737","locality":"Wischhafen","municipality":{"key":"03359040","name":"Wischhafen","type":"Kreisangehörige_Gemeinde"},"district":{"key":"03359","name":"Stade","type":"Landkreis"},"federalState":{"key":"03","name":"Niedersachsen"}},{"name":"Finkengang","postalCode":"21737","locality":"Wischhafen","municipality":{"key":"03359040","name":"Wischhafen","type":"Kreisangehörige_Gemeinde"},"district":{"key":"03359","name":"Stade","type":"Landkreis"},"federalState":{"key":"03","name":"Niedersachsen"}},{"name":"Gartenstr.","postalCode":"21737","locality":"Wischhafen","municipality":{"key":"03359040","name":"Wischhafen","type":"Kreisangehörige_Gemeinde"},"district":{"key":"03359","name":"Stade","type":"Landkreis"},"federalState":{"key":"03","name":"Niedersachsen"}},{"name":"Glückstädter Str.","postalCode":"21737","locality":"Wischhafen","municipality":{"key":"03359040","name":"Wischhafen","type":"Kreisangehörige_Gemeinde"},"district":{"key":"03359","name":"Stade","type":"Landkreis"},"federalState":{"key":"03","name":"Niedersachsen"}},{"name":"Hafenstr.","postalCode":"21737","locality":"Wischhafen","municipality":{"key":"03359040","name":"Wischhafen","type":"Kreisangehörige_Gemeinde"},"district":{"key":"03359","name":"Stade","type":"Landkreis"},"federalState":{"key":"03","name":"Niedersachsen"}},{"name":"Hahnstr.","postalCode":"21737","locality":"Wischhafen","municipality":{"key":"03359040","name":"Wischhafen","type":"Kreisangehörige_Gemeinde"},"district":{"key":"03359","name":"Stade","type":"Landkreis"},"federalState":{"key":"03","name":"Niedersachsen"}},{"name":"Hohler Weg","postalCode":"21737","locality":"Wischhafen","municipality":{"key":"03359040","name":"Wischhafen","type":"Kreisangehörige_Gemeinde"},"district":{"key":"03359","name":"Stade","type":"Landkreis"},"federalState":{"key":"03","name":"Niedersachsen"}},{"name":"Hollerdeich","postalCode":"21737","locality":"Wischhafen","municipality":{"key":"03359040","name":"Wischhafen","type":"Kreisangehörige_Gemeinde"},"district":{"key":"03359","name":"Stade","type":"Landkreis"},"federalState":{"key":"03","name":"Niedersachsen"}},{"name":"Hüttenweg","postalCode":"21737","locality":"Wischhafen","municipality":{"key":"03359040","name":"Wischhafen","type":"Kreisangehörige_Gemeinde"},"district":{"key":"03359","name":"Stade","type":"Landkreis"},"federalState":{"key":"03","name":"Niedersachsen"}},{"name":"Iltisweg","postalCode":"21682","locality":"Stade","municipality":{"key":"03359038","name":"Stade, Hansestadt","type":"Stadt"},"district":{"key":"03359","name":"Stade","type":"Landkreis"},"federalState":{"key":"03","name":"Niedersachsen"}},{"name":"Im Acker","postalCode":"21684","locality":"Stade","municipality":{"key":"03359038","name":"Stade, Hansestadt","type":"Stadt"},"district":{"key":"03359","name":"Stade","type":"Landkreis"},"federalState":{"key":"03","name":"Niedersachsen"}},{"name":"Immelmannstr.","postalCode":"21680","locality":"Stade","municipality":{"key":"03359038","name":"Stade, Hansestadt","type":"Stadt"},"district":{"key":"03359","name":"Stade","type":"Landkreis"},"federalState":{"key":"03","name":"Niedersachsen"}},{"name":"Im Neuwerk","postalCode":"21680","locality":"Stade","municipality":{"key":"03359038","name":"Stade, Hansestadt","type":"Stadt"},"district":{"key":"03359","name":"Stade","type":"Landkreis"},"federalState":{"key":"03","name":"Niedersachsen"}},{"name":"Im Ring","postalCode":"21680","locality":"Stade","municipality":{"key":"03359038","name":"Stade, Hansestadt","type":"Stadt"},"district":{"key":"03359","name":"Stade","type":"Landkreis"},"federalState":{"key":"03","name":"Niedersachsen"}},{"name":"Im Sandberg","postalCode":"21684","locality":"Stade","municipality":{"key":"03359038","name":"Stade, Hansestadt","type":"Stadt"},"district":{"key":"03359","name":"Stade","type":"Landkreis"},"federalState":{"key":"03","name":"Niedersachsen"}},{"name":"Im Selztal","postalCode":"55271","locality":"Stadecken-Elsheim","municipality":{"key":"07339057","name":"Stadecken-Elsheim","type":"Kreisangehörige_Gemeinde"},"district":{"key":"07339","name":"Mainz-Bingen","type":"Landkreis"},"federalState":{"key":"07","name":"Rheinland-Pfalz"}},{"name":"Im Weinklauer","postalCode":"55271","locality":"Stadecken-Elsheim","municipality":{"key":"07339057","name":"Stadecken-Elsheim","type":"Kreisangehörige_Gemeinde"},"district":{"key":"07339","name":"Mainz-Bingen","type":"Landkreis"},"federalState":{"key":"07","name":"Rheinland-Pfalz"}},{"name":"Im Winkel","postalCode":"21682","locality":"Stade","municipality":{"key":"03359038","name":"Stade, Hansestadt","type":"Stadt"},"district":{"key":"03359","name":"Stade","type":"Landkreis"},"federalState":{"key":"03","name":"Niedersachsen"}},{"name":"In den Acht Morgen","postalCode":"55271","locality":"Stadecken-Elsheim","municipality":{"key":"07339057","name":"Stadecken-Elsheim","type":"Kreisangehörige_Gemeinde"},"district":{"key":"07339","name":"Mainz-Bingen","type":"Landkreis"},"federalState":{"key":"07","name":"Rheinland-Pfalz"}},{"name":"In den Auen","postalCode":"21680","locality":"Stade","municipality":{"key":"03359038","name":"Stade, Hansestadt","type":"Stadt"},"district":{"key":"03359","name":"Stade","type":"Landkreis"},"federalState":{"key":"03","name":"Niedersachsen"}},{"name":"In der Kolonie","postalCode":"21683","locality":"Stade","municipality":{"key":"03359038","name":"Stade, Hansestadt","type":"Stadt"},"district":{"key":"03359","name":"Stade","type":"Landkreis"},"federalState":{"key":"03","name":"Niedersachsen"}},{"name":"Ingelheimer Str.","postalCode":"55271","locality":"Stadecken-Elsheim","municipality":{"key":"07339057","name":"Stadecken-Elsheim","type":"Kreisangehörige_Gemeinde"},"district":{"key":"07339","name":"Mainz-Bingen","type":"Landkreis"},"federalState":{"key":"07","name":"Rheinland-Pfalz"}},{"name":"Inselstr.","postalCode":"21682","locality":"Stade","municipality":{"key":"03359038","name":"Stade, Hansestadt","type":"Stadt"},"district":{"key":"03359","name":"Stade","type":"Landkreis"},"federalState":{"key":"03","name":"Niedersachsen"}},{"name":"Insterburger Str.","postalCode":"21680","locality":"Stade","municipality":{"key":"03359038","name":"Stade, Hansestadt","type":"Stadt"},"district":{"key":"03359","name":"Stade","type":"Landkreis"},"federalState":{"key":"03","name":"Niedersachsen"}},{"name":"Jahnstr.","postalCode":"21680","locality":"Stade","municipality":{"key":"03359038","name":"Stade, Hansestadt","type":"Stadt"},"district":{"key":"03359","name":"Stade","type":"Landkreis"},"federalState":{"key":"03","name":"Niedersachsen"}},{"name":"Jobelmannstr.","postalCode":"21680","locality":"Stade","municipality":{"key":"03359038","name":"Stade, Hansestadt","type":"Stadt"},"district":{"key":"03359","name":"Stade","type":"Landkreis"},"federalState":{"key":"03","name":"Niedersachsen"}},{"name":"Johannisburger Str.","postalCode":"21680","locality":"Stade","municipality":{"key":"03359038","name":"Stade, Hansestadt","type":"Stadt"},"district":{"key":"03359","name":"Stade","type":"Landkreis"},"federalState":{"key":"03","name":"Niedersachsen"}},{"name":"Johannisstr.","postalCode":"21682","locality":"Stade","municipality":{"key":"03359038","name":"Stade, Hansestadt","type":"Stadt"},"district":{"key":"03359","name":"Stade","type":"Landkreis"},"federalState":{"key":"03","name":"Niedersachsen"}},{"name":"Jorker Str.","postalCode":"21680","locality":"Stade","municipality":{"key":"03359038","name":"Stade, Hansestadt","type":"Stadt"},"district":{"key":"03359","name":"Stade","type":"Landkreis"},"federalState":{"key":"03","name":"Niedersachsen"}},{"name":"Julius-Leber-Weg","postalCode":"21684","locality":"Stade","municipality":{"key":"03359038","name":"Stade, Hansestadt","type":"Stadt"},"district":{"key":"03359","name":"Stade","type":"Landkreis"},"federalState":{"key":"03","name":"Niedersachsen"}},{"name":"Justus-Delbrück-Weg","postalCode":"21684","locality":"Stade","municipality":{"key":"03359038","name":"Stade, Hansestadt","type":"Stadt"},"district":{"key":"03359","name":"Stade","type":"Landkreis"},"federalState":{"key":"03","name":"Niedersachsen"}},{"name":"Kanalsteig","postalCode":"21737","locality":"Wischhafen","municipality":{"key":"03359040","name":"Wischhafen","type":"Kreisangehörige_Gemeinde"},"district":{"key":"03359","name":"Stade","type":"Landkreis"},"federalState":{"key":"03","name":"Niedersachsen"}},{"name":"Kapitänstr.","postalCode":"21737","locality":"Wischhafen","municipality":{"key":"03359040","name":"Wischhafen","type":"Kreisangehörige_Gemeinde"},"district":{"key":"03359","name":"Stade","type":"Landkreis"},"federalState":{"key":"03","name":"Niedersachsen"}},{"name":"Kastanienweg","postalCode":"21737","locality":"Wischhafen","municipality":{"key":"03359040","name":"Wischhafen","type":"Kreisangehörige_Gemeinde"},"district":{"key":"03359","name":"Stade","type":"Landkreis"},"federalState":{"key":"03","name":"Niedersachsen"}},{"name":"Ketelseel","postalCode":"21737","locality":"Wischhafen","municipality":{"key":"03359040","name":"Wischhafen","type":"Kreisangehörige_Gemeinde"},"district":{"key":"03359","name":"Stade","type":"Landkreis"},"federalState":{"key":"03","name":"Niedersachsen"}},{"name":"Kirchweg","postalCode":"21737","locality":"Wischhafen","municipality":{"key":"03359040","name":"Wischhafen","type":"Kreisangehörige_Gemeinde"},"district":{"key":"03359","name":"Stade","type":"Landkreis"},"federalState":{"key":"03","name":"Niedersachsen"}},{"name":"Kleeweg","postalCode":"21737","locality":"Wischhafen","municipality":{"key":"03359040","name":"Wischhafen","type":"Kreisangehörige_Gemeinde"},"district":{"key":"03359","name":"Stade","type":"Landkreis"},"federalState":{"key":"03","name":"Niedersachsen"}},{"name":"Klütenblock","postalCode":"21737","locality":"Wischhafen","municipality":{"key":"03359040","name":"Wischhafen","type":"Kreisangehörige_Gemeinde"},"district":{"key":"03359","name":"Stade","type":"Landkreis"},"federalState":{"key":"03","name":"Niedersachsen"}},{"name":"Kornblumenweg","postalCode":"21737","locality":"Wischhafen","municipality":{"key":"03359040","name":"Wischhafen","type":"Kreisangehörige_Gemeinde"},"district":{"key":"03359","name":"Stade","type":"Landkreis"},"federalState":{"key":"03","name":"Niedersachsen"}},{"name":"Kraienkamp","postalCode":"21737","locality":"Wischhafen","municipality":{"key":"03359040","name":"Wischhafen","type":"Kreisangehörige_Gemeinde"},"district":{"key":"03359","name":"Stade","type":"Landkreis"},"federalState":{"key":"03","name":"Niedersachsen"}},{"name":"Lippscher Str.","postalCode":"21737","locality":"Wischhafen","municipality":{"key":"03359040","name":"Wischhafen","type":"Kreisangehörige_Gemeinde"},"district":{"key":"03359","name":"Stade","type":"Landkreis"},"federalState":{"key":"03","name":"Niedersachsen"}},{"name":"Lückenweg","postalCode":"21737","locality":"Wischhafen","municipality":{"key":"03359040","name":"Wischhafen","type":"Kreisangehörige_Gemeinde"},"district":{"key":"03359","name":"Stade","type":"Landkreis"},"federalState":{"key":"03","name":"Niedersachsen"}},{"name":"Meisenstieg","postalCode":"21737","locality":"Wischhafen","municipality":{"key":"03359040","name":"Wischhafen","type":"Kreisangehörige_Gemeinde"},"district":{"key":"03359","name":"Stade","type":"Landkreis"},"federalState":{"key":"03","name":"Niedersachsen"}},{"name":"Meisterweg","postalCode":"21737","locality":"Wischhafen","municipality":{"key":"03359040","name":"Wischhafen","type":"Kreisangehörige_Gemeinde"},"district":{"key":"03359","name":"Stade","type":"Landkreis"},"federalState":{"key":"03","name":"Niedersachsen"}},{"name":"Moorchaussee","postalCode":"21737","locality":"Wischhafen","municipality":{"key":"03359040","name":"Wischhafen","type":"Kreisangehörige_Gemeinde"},"district":{"key":"03359","name":"Stade","type":"Landkreis"},"federalState":{"key":"03","name":"Niedersachsen"}},{"name":"Moosweg","postalCode":"21737","locality":"Wischhafen","municipality":{"key":"03359040","name":"Wischhafen","type":"Kreisangehörige_Gemeinde"},"district":{"key":"03359","name":"Stade","type":"Landkreis"},"federalState":{"key":"03","name":"Niedersachsen"}},{"name":"Moppelweg","postalCode":"21737","locality":"Wischhafen","municipality":{"key":"03359040","name":"Wischhafen","type":"Kreisangehörige_Gemeinde"},"district":{"key":"03359","name":"Stade","type":"Landkreis"},"federalState":{"key":"03","name":"Niedersachsen"}},{"name":"Nachtigallenweg","postalCode":"21682","locality":"Stade","municipality":{"key":"03359038","name":"Stade, Hansestadt","type":"Stadt"},"district":{"key":"03359","name":"Stade","type":"Landkreis"},"federalState":{"key":"03","name":"Niedersachsen"}},{"name":"Nagelstiftsweg","postalCode":"21682","locality":"Stade","municipality":{"key":"03359038","name":"Stade, Hansestadt","type":"Stadt"},"district":{"key":"03359","name":"Stade","type":"Landkreis"},"federalState":{"key":"03","name":"Niedersachsen"}},{"name":"Neidenburger Weg","postalCode":"21680","locality":"Stade","municipality":{"key":"03359038","name":"Stade, Hansestadt","type":"Stadt"},"district":{"key":"03359","name":"Stade","type":"Landkreis"},"federalState":{"key":"03","name":"Niedersachsen"}},{"name":"Nelkenweg","postalCode":"21684","locality":"Stade","municipality":{"key":"03359038","name":"Stade, Hansestadt","type":"Stadt"},"district":{"key":"03359","name":"Stade","type":"Landkreis"},"federalState":{"key":"03","name":"Niedersachsen"}},{"name":"Nettelbeckweg","postalCode":"21680","locality":"Stade","municipality":{"key":"03359038","name":"Stade, Hansestadt","type":"Stadt"},"district":{"key":"03359","name":"Stade","type":"Landkreis"},"federalState":{"key":"03","name":"Niedersachsen"}},{"name":"Neubourgstr.","postalCode":"21682","locality":"Stade","municipality":{"key":"03359038","name":"Stade, Hansestadt","type":"Stadt"},"district":{"key":"03359","name":"Stade","type":"Landkreis"},"federalState":{"key":"03","name":"Niedersachsen"}},{"name":"Neuenfelder Str.","postalCode":"21680","locality":"Stade","municipality":{"key":"03359038","name":"Stade, Hansestadt","type":"Stadt"},"district":{"key":"03359","name":"Stade","type":"Landkreis"},"federalState":{"key":"03","name":"Niedersachsen"}},{"name":"Neue-Stücken-Feld","postalCode":"21684","locality":"Stade","municipality":{"key":"03359038","name":"Stade, Hansestadt","type":"Stadt"},"district":{"key":"03359","name":"Stade","type":"Landkreis"},"federalState":{"key":"03","name":"Niedersachsen"}},{"name":"Neugasse","postalCode":"55271","locality":"Stadecken-Elsheim","municipality":{"key":"07339057","name":"Stadecken-Elsheim","type":"Kreisangehörige_Gemeinde"},"district":{"key":"07339","name":"Mainz-Bingen","type":"Landkreis"},"federalState":{"key":"07","name":"Rheinland-Pfalz"}},{"name":"Neu-Schnee","postalCode":"21683","locality":"Stade","municipality":{"key":"03359038","name":"Stade, Hansestadt","type":"Stadt"},"district":{"key":"03359","name":"Stade","type":"Landkreis"},"federalState":{"key":"03","name":"Niedersachsen"}},{"name":"Nicolaus-Dreyer-Str.","postalCode":"21683","locality":"Stade","municipality":{"key":"03359038","name":"Stade, Hansestadt","type":"Stadt"},"district":{"key":"03359","name":"Stade","type":"Landkreis"},"federalState":{"key":"03","name":"Niedersachsen"}},{"name":"Nikolaus-Otto-Str.","postalCode":"21684","locality":"Stade","municipality":{"key":"03359038","name":"Stade, Hansestadt","type":"Stadt"},"district":{"key":"03359","name":"Stade","type":"Landkreis"},"federalState":{"key":"03","name":"Niedersachsen"}},{"name":"Norderstr.","postalCode":"21683","locality":"Stade","municipality":{"key":"03359038","name":"Stade, Hansestadt","type":"Stadt"},"district":{"key":"03359","name":"Stade","type":"Landkreis"},"federalState":{"key":"03","name":"Niedersachsen"}},{"name":"Normannenstr.","postalCode":"21680","locality":"Stade","municipality":{"key":"03359038","name":"Stade, Hansestadt","type":"Stadt"},"district":{"key":"03359","name":"Stade","type":"Landkreis"},"federalState":{"key":"03","name":"Niedersachsen"}},{"name":"Oltmannsweg","postalCode":"21737","locality":"Wischhafen","municipality":{"key":"03359040","name":"Wischhafen","type":"Kreisangehörige_Gemeinde"},"district":{"key":"03359","name":"Stade","type":"Landkreis"},"federalState":{"key":"03","name":"Niedersachsen"}},{"name":"Ostener Str.","postalCode":"21737","locality":"Wischhafen","municipality":{"key":"03359040","name":"Wischhafen","type":"Kreisangehörige_Gemeinde"},"district":{"key":"03359","name":"Stade","type":"Landkreis"},"federalState":{"key":"03","name":"Niedersachsen"}},{"name":"Peerkoppel","postalCode":"21737","locality":"Wischhafen","municipality":{"key":"03359040","name":"Wischhafen","type":"Kreisangehörige_Gemeinde"},"district":{"key":"03359","name":"Stade","type":"Landkreis"},"federalState":{"key":"03","name":"Niedersachsen"}},{"name":"Querweg","postalCode":"21682","locality":"Stade","municipality":{"key":"03359038","name":"Stade, Hansestadt","type":"Stadt"},"district":{"key":"03359","name":"Stade","type":"Landkreis"},"federalState":{"key":"03","name":"Niedersachsen"}},{"name":"Reeperbahn","postalCode":"21737","locality":"Wischhafen","municipality":{"key":"03359040","name":"Wischhafen","type":"Kreisangehörige_Gemeinde"},"district":{"key":"03359","name":"Stade","type":"Landkreis"},"federalState":{"key":"03","name":"Niedersachsen"}},{"name":"Rosenweg","postalCode":"21737","locality":"Wischhafen","municipality":{"key":"03359040","name":"Wischhafen","type":"Kreisangehörige_Gemeinde"},"district":{"key":"03359","name":"Stade","type":"Landkreis"},"federalState":{"key":"03","name":"Niedersachsen"}},{"name":"Schienenweg","postalCode":"21737","locality":"Wischhafen","municipality":{"key":"03359040","name":"Wischhafen","type":"Kreisangehörige_Gemeinde"},"district":{"key":"03359","name":"Stade","type":"Landkreis"},"federalState":{"key":"03","name":"Niedersachsen"}},{"name":"Schilfweg","postalCode":"21737","locality":"Wischhafen","municipality":{"key":"03359040","name":"Wischhafen","type":"Kreisangehörige_Gemeinde"},"district":{"key":"03359","name":"Stade","type":"Landkreis"},"federalState":{"key":"03","name":"Niedersachsen"}},{"name":"Schinkelweg","postalCode":"21737","locality":"Wischhafen","municipality":{"key":"03359040","name":"Wischhafen","type":"Kreisangehörige_Gemeinde"},"district":{"key":"03359","name":"Stade","type":"Landkreis"},"federalState":{"key":"03","name":"Niedersachsen"}},{"name":"Schmiedestr.","postalCode":"21737","locality":"Wischhafen","municipality":{"key":"03359040","name":"Wischhafen","type":"Kreisangehörige_Gemeinde"},"district":{"key":"03359","name":"Stade","type":"Landkreis"},"federalState":{"key":"03","name":"Niedersachsen"}},{"name":"Schwalbenweg","postalCode":"21737","locality":"Wischhafen","municipality":{"key":"03359040","name":"Wischhafen","type":"Kreisangehörige_Gemeinde"},"district":{"key":"03359","name":"Stade","type":"Landkreis"},"federalState":{"key":"03","name":"Niedersachsen"}},{"name":"Sethmanns Sietwende","postalCode":"21737","locality":"Wischhafen","municipality":{"key":"03359040","name":"Wischhafen","type":"Kreisangehörige_Gemeinde"},"district":{"key":"03359","name":"Stade","type":"Landkreis"},"federalState":{"key":"03","name":"Niedersachsen"}},{"name":"Spatzenpfad","postalCode":"21737","locality":"Wischhafen","municipality":{"key":"03359040","name":"Wischhafen","type":"Kreisangehörige_Gemeinde"},"district":{"key":"03359","name":"Stade","type":"Landkreis"},"federalState":{"key":"03","name":"Niedersachsen"}},{"name":"Stader Str.","postalCode":"21737","locality":"Wischhafen","municipality":{"key":"03359040","name":"Wischhafen","type":"Kreisangehörige_Gemeinde"},"district":{"key":"03359","name":"Stade","type":"Landkreis"},"federalState":{"key":"03","name":"Niedersachsen"}},{"name":"Steuen","postalCode":"21737","locality":"Wischhafen","municipality":{"key":"03359040","name":"Wischhafen","type":"Kreisangehörige_Gemeinde"},"district":{"key":"03359","name":"Stade","type":"Landkreis"},"federalState":{"key":"03","name":"Niedersachsen"}},{"name":"Tulpenweg","postalCode":"21737","locality":"Wischhafen","municipality":{"key":"03359040","name":"Wischhafen","type":"Kreisangehörige_Gemeinde"},"district":{"key":"03359","name":"Stade","type":"Landkreis"},"federalState":{"key":"03","name":"Niedersachsen"}},{"name":"Uhlenkamp","postalCode":"21737","locality":"Wischhafen","municipality":{"key":"03359040","name":"Wischhafen","type":"Kreisangehörige_Gemeinde"},"district":{"key":"03359","name":"Stade","type":"Landkreis"},"federalState":{"key":"03","name":"Niedersachsen"}},{"name":"Unterm Deich","postalCode":"21737","locality":"Wischhafen","municipality":{"key":"03359040","name":"Wischhafen","type":"Kreisangehörige_Gemeinde"},"district":{"key":"03359","name":"Stade","type":"Landkreis"},"federalState":{"key":"03","name":"Niedersachsen"}},{"name":"Verdener Weg","postalCode":"21683","locality":"Stade","municipality":{"key":"03359038","name":"Stade, Hansestadt","type":"Stadt"},"district":{"key":"03359","name":"Stade","type":"Landkreis"},"federalState":{"key":"03","name":"Niedersachsen"}},{"name":"Vergißmeinnicht","postalCode":"21682","locality":"Stade","municipality":{"key":"03359038","name":"Stade, Hansestadt","type":"Stadt"},"district":{"key":"03359","name":"Stade","type":"Landkreis"},"federalState":{"key":"03","name":"Niedersachsen"}},{"name":"Vfl Stade","postalCode":"21684","locality":"Stade","municipality":{"key":"03359038","name":"Stade, Hansestadt","type":"Stadt"},"district":{"key":"03359","name":"Stade","type":"Landkreis"},"federalState":{"key":"03","name":"Niedersachsen"}},{"name":"Vincent-Luebeck-Str.","postalCode":"21682","locality":"Stade","municipality":{"key":"03359038","name":"Stade, Hansestadt","type":"Stadt"},"district":{"key":"03359","name":"Stade","type":"Landkreis"},"federalState":{"key":"03","name":"Niedersachsen"}},{"name":"Visbyweg","postalCode":"21682","locality":"Stade","municipality":{"key":"03359038","name":"Stade, Hansestadt","type":"Stadt"},"district":{"key":"03359","name":"Stade","type":"Landkreis"},"federalState":{"key":"03","name":"Niedersachsen"}},{"name":"Vogelsang","postalCode":"21682","locality":"Stade","municipality":{"key":"03359038","name":"Stade, Hansestadt","type":"Stadt"},"district":{"key":"03359","name":"Stade","type":"Landkreis"},"federalState":{"key":"03","name":"Niedersachsen"}},{"name":"Vor dem Kamp","postalCode":"21680","locality":"Stade","municipality":{"key":"03359038","name":"Stade, Hansestadt","type":"Stadt"},"district":{"key":"03359","name":"Stade","type":"Landkreis"},"federalState":{"key":"03","name":"Niedersachsen"}},{"name":"Vor dem Rüsch","postalCode":"21680","locality":"Stade","municipality":{"key":"03359038","name":"Stade, Hansestadt","type":"Stadt"},"district":{"key":"03359","name":"Stade","type":"Landkreis"},"federalState":{"key":"03","name":"Niedersachsen"}},{"name":"Vor den Höfen","postalCode":"21683","locality":"Stade","municipality":{"key":"03359038","name":"Stade, Hansestadt","type":"Stadt"},"district":{"key":"03359","name":"Stade","type":"Landkreis"},"federalState":{"key":"03","name":"Niedersachsen"}},{"name":"Vor der Weide","postalCode":"21683","locality":"Stade","municipality":{"key":"03359038","name":"Stade, Hansestadt","type":"Stadt"},"district":{"key":"03359","name":"Stade","type":"Landkreis"},"federalState":{"key":"03","name":"Niedersachsen"}},{"name":"Vör de Weid","postalCode":"21684","locality":"Stade","municipality":{"key":"03359038","name":"Stade, Hansestadt","type":"Stadt"},"district":{"key":"03359","name":"Stade","type":"Landkreis"},"federalState":{"key":"03","name":"Niedersachsen"}},{"name":"Vorwerkstr.","postalCode":"21680","locality":"Stade","municipality":{"key":"03359038","name":"Stade, Hansestadt","type":"Stadt"},"district":{"key":"03359","name":"Stade","type":"Landkreis"},"federalState":{"key":"03","name":"Niedersachsen"}},{"name":"Voßkuhl","postalCode":"21682","locality":"Stade","municipality":{"key":"03359038","name":"Stade, Hansestadt","type":"Stadt"},"district":{"key":"03359","name":"Stade","type":"Landkreis"},"federalState":{"key":"03","name":"Niedersachsen"}},{"name":"Weidenstr.","postalCode":"21737","locality":"Wischhafen","municipality":{"key":"03359040","name":"Wischhafen","type":"Kreisangehörige_Gemeinde"},"district":{"key":"03359","name":"Stade","type":"Landkreis"},"federalState":{"key":"03","name":"Niedersachsen"}},{"name":"Wiesendamm","postalCode":"21737","locality":"Wischhafen","municipality":{"key":"03359040","name":"Wischhafen","type":"Kreisangehörige_Gemeinde"},"district":{"key":"03359","name":"Stade","type":"Landkreis"},"federalState":{"key":"03","name":"Niedersachsen"}},{"name":"Wollgrasweg","postalCode":"21737","locality":"Wischhafen","municipality":{"key":"03359040","name":"Wischhafen","type":"Kreisangehörige_Gemeinde"},"district":{"key":"03359","name":"Stade","type":"Landkreis"},"federalState":{"key":"03","name":"Niedersachsen"}},{"name":"Ystadweg","postalCode":"21682","locality":"Stade","municipality":{"key":"03359038","name":"Stade, Hansestadt","type":"Stadt"},"district":{"key":"03359","name":"Stade","type":"Landkreis"},"federalState":{"key":"03","name":"Niedersachsen"}},{"name":"Ziegelstr.","postalCode":"21737","locality":"Wischhafen","municipality":{"key":"03359040","name":"Wischhafen","type":"Kreisangehörige_Gemeinde"},"district":{"key":"03359","name":"Stade","type":"Landkreis"},"federalState":{"key":"03","name":"Niedersachsen"}},{"name":"Zum Brack","postalCode":"21737","locality":"Wischhafen","municipality":{"key":"03359040","name":"Wischhafen","type":"Kreisangehörige_Gemeinde"},"district":{"key":"03359","name":"Stade","type":"Landkreis"},"federalState":{"key":"03","name":"Niedersachsen"}},{"name":"Über den Burgwiesen","postalCode":"21682","locality":"Stade","municipality":{"key":"03359038","name":"Stade, Hansestadt","type":"Stadt"},"district":{"key":"03359","name":"Stade","type":"Landkreis"},"federalState":{"key":"03","name":"Niedersachsen"}},]