[{"key":"10183841","name":"Chemin de la Moille Cugy","postalCode":"1513","locality":"Hermenches","commune":{"key":"5673","name":"Hermenches","shortName":"Hermenches"},"district":{"key":"2222","name":"District de la Broye-Vully"},"canton":{"key":"22","code":"VD","name":"Vaud"},"status":"Real"},{"key":"10041583","name":"Chemin de la Verne","postalCode":"1513","locality":"Hermenches","commune":{"key":"5673","name":"Hermenches","shortName":"Hermenches"},"district":{"key":"2222","name":"District de la Broye-Vully"},"canton":{"key":"22","code":"VD","name":"Vaud"},"status":"Real"},{"key":"10059621","name":"Chemin de Mont Frioud","postalCode":"1513","locality":"Hermenches","commune":{"key":"5673","name":"Hermenches","shortName":"Hermenches"},"district":{"key":"2222","name":"District de la Broye-Vully"},"canton":{"key":"22","code":"VD","name":"Vaud"},"status":"Real"},{"key":"10116995","name":"Chemin de Pélau","postalCode":"1513","locality":"Hermenches","commune":{"key":"5673","name":"Hermenches","shortName":"Hermenches"},"district":{"key":"2222","name":"District de la Broye-Vully"},"canton":{"key":"22","code":"VD","name":"Vaud"},"status":"Real"},{"key":"10147697","name":"Chemin des Chênes","postalCode":"1513","locality":"Hermenches","commune":{"key":"5673","name":"Hermenches","shortName":"Hermenches"},"district":{"key":"2222","name":"District de la Broye-Vully"},"canton":{"key":"22","code":"VD","name":"Vaud"},"status":"Real"},{"key":"10099787","name":"Chemin des Galites","postalCode":"1513","locality":"Hermenches","commune":{"key":"5673","name":"Hermenches","shortName":"Hermenches"},"district":{"key":"2222","name":"District de la Broye-Vully"},"canton":{"key":"22","code":"VD","name":"Vaud"},"status":"Real"},{"key":"10007669","name":"Chemin des Galites","postalCode":"1513","locality":"Hermenches","commune":{"key":"5673","name":"Hermenches","shortName":"Hermenches"},"district":{"key":"2222","name":"District de la Broye-Vully"},"canton":{"key":"22","code":"VD","name":"Vaud"},"status":"Real"},{"key":"10069022","name":"Chemin des Méleries","postalCode":"1513","locality":"Hermenches","commune":{"key":"5673","name":"Hermenches","shortName":"Hermenches"},"district":{"key":"2222","name":"District de la Broye-Vully"},"canton":{"key":"22","code":"VD","name":"Vaud"},"status":"Real"},{"key":"10041582","name":"Chemin du Clos du Riau","postalCode":"1513","locality":"Hermenches","commune":{"key":"5673","name":"Hermenches","shortName":"Hermenches"},"district":{"key":"2222","name":"District de la Broye-Vully"},"canton":{"key":"22","code":"VD","name":"Vaud"},"status":"Real"},{"key":"10099788","name":"Chemin du Pré au Favre","postalCode":"1513","locality":"Hermenches","commune":{"key":"5673","name":"Hermenches","shortName":"Hermenches"},"district":{"key":"2222","name":"District de la Broye-Vully"},"canton":{"key":"22","code":"VD","name":"Vaud"},"status":"Real"},{"key":"10152315","name":"Chemin du Refuge","postalCode":"1513","locality":"Hermenches","commune":{"key":"5673","name":"Hermenches","shortName":"Hermenches"},"district":{"key":"2222","name":"District de la Broye-Vully"},"canton":{"key":"22","code":"VD","name":"Vaud"},"status":"Real"},{"key":"10041586","name":"Route de la Moille Robert","postalCode":"1513","locality":"Hermenches","commune":{"key":"5673","name":"Hermenches","shortName":"Hermenches"},"district":{"key":"2222","name":"District de la Broye-Vully"},"canton":{"key":"22","code":"VD","name":"Vaud"},"status":"Real"},{"key":"10069019","name":"Rue du Village","postalCode":"1513","locality":"Hermenches","commune":{"key":"5673","name":"Hermenches","shortName":"Hermenches"},"district":{"key":"2222","name":"District de la Broye-Vully"},"canton":{"key":"22","code":"VD","name":"Vaud"},"status":"Real"},{"key":"10147699","name":"Ruelle de la Forge","postalCode":"1513","locality":"Hermenches","commune":{"key":"5673","name":"Hermenches","shortName":"Hermenches"},"district":{"key":"2222","name":"District de la Broye-Vully"},"canton":{"key":"22","code":"VD","name":"Vaud"},"status":"Real"},]