[{"name":"Akazienweg","postalCode":"15299","locality":"Mixdorf","municipality":{"key":"12067324","name":"Mixdorf","type":"Kreisangehörige_Gemeinde"},"district":{"key":"12067","name":"Oder-Spree","type":"Landkreis"},"federalState":{"key":"12","name":"Brandenburg"}},{"name":"Am Bahnhof","postalCode":"15299","locality":"Mixdorf","municipality":{"key":"12067324","name":"Mixdorf","type":"Kreisangehörige_Gemeinde"},"district":{"key":"12067","name":"Oder-Spree","type":"Landkreis"},"federalState":{"key":"12","name":"Brandenburg"}},{"name":"Am Kiefernhain","postalCode":"15299","locality":"Mixdorf","municipality":{"key":"12067324","name":"Mixdorf","type":"Kreisangehörige_Gemeinde"},"district":{"key":"12067","name":"Oder-Spree","type":"Landkreis"},"federalState":{"key":"12","name":"Brandenburg"}},{"name":"Am Lerchenhang","postalCode":"15299","locality":"Mixdorf","municipality":{"key":"12067324","name":"Mixdorf","type":"Kreisangehörige_Gemeinde"},"district":{"key":"12067","name":"Oder-Spree","type":"Landkreis"},"federalState":{"key":"12","name":"Brandenburg"}},{"name":"An den Birken","postalCode":"15299","locality":"Mixdorf","municipality":{"key":"12067324","name":"Mixdorf","type":"Kreisangehörige_Gemeinde"},"district":{"key":"12067","name":"Oder-Spree","type":"Landkreis"},"federalState":{"key":"12","name":"Brandenburg"}},{"name":"Bahnhofstr.","postalCode":"15299","locality":"Mixdorf","municipality":{"key":"12067324","name":"Mixdorf","type":"Kreisangehörige_Gemeinde"},"district":{"key":"12067","name":"Oder-Spree","type":"Landkreis"},"federalState":{"key":"12","name":"Brandenburg"}},{"name":"Dammendorfer Weg","postalCode":"15299","locality":"Mixdorf","municipality":{"key":"12067324","name":"Mixdorf","type":"Kreisangehörige_Gemeinde"},"district":{"key":"12067","name":"Oder-Spree","type":"Landkreis"},"federalState":{"key":"12","name":"Brandenburg"}},{"name":"Dorfstr.","postalCode":"15299","locality":"Mixdorf","municipality":{"key":"12067324","name":"Mixdorf","type":"Kreisangehörige_Gemeinde"},"district":{"key":"12067","name":"Oder-Spree","type":"Landkreis"},"federalState":{"key":"12","name":"Brandenburg"}},{"name":"Eichenring","postalCode":"15299","locality":"Mixdorf","municipality":{"key":"12067324","name":"Mixdorf","type":"Kreisangehörige_Gemeinde"},"district":{"key":"12067","name":"Oder-Spree","type":"Landkreis"},"federalState":{"key":"12","name":"Brandenburg"}},{"name":"Hauptstr.","postalCode":"15299","locality":"Mixdorf","municipality":{"key":"12067324","name":"Mixdorf","type":"Kreisangehörige_Gemeinde"},"district":{"key":"12067","name":"Oder-Spree","type":"Landkreis"},"federalState":{"key":"12","name":"Brandenburg"}},{"name":"Heideweg","postalCode":"15299","locality":"Mixdorf","municipality":{"key":"12067324","name":"Mixdorf","type":"Kreisangehörige_Gemeinde"},"district":{"key":"12067","name":"Oder-Spree","type":"Landkreis"},"federalState":{"key":"12","name":"Brandenburg"}},{"name":"Im Amselgrund","postalCode":"15299","locality":"Mixdorf","municipality":{"key":"12067324","name":"Mixdorf","type":"Kreisangehörige_Gemeinde"},"district":{"key":"12067","name":"Oder-Spree","type":"Landkreis"},"federalState":{"key":"12","name":"Brandenburg"}},{"name":"Merzer Chaussee","postalCode":"15299","locality":"Mixdorf","municipality":{"key":"12067324","name":"Mixdorf","type":"Kreisangehörige_Gemeinde"},"district":{"key":"12067","name":"Oder-Spree","type":"Landkreis"},"federalState":{"key":"12","name":"Brandenburg"}},{"name":"Neue Str.","postalCode":"15299","locality":"Mixdorf","municipality":{"key":"12067324","name":"Mixdorf","type":"Kreisangehörige_Gemeinde"},"district":{"key":"12067","name":"Oder-Spree","type":"Landkreis"},"federalState":{"key":"12","name":"Brandenburg"}},{"name":"Rehwinkel","postalCode":"15299","locality":"Mixdorf","municipality":{"key":"12067324","name":"Mixdorf","type":"Kreisangehörige_Gemeinde"},"district":{"key":"12067","name":"Oder-Spree","type":"Landkreis"},"federalState":{"key":"12","name":"Brandenburg"}},{"name":"Schlaubeeck","postalCode":"15299","locality":"Mixdorf","municipality":{"key":"12067324","name":"Mixdorf","type":"Kreisangehörige_Gemeinde"},"district":{"key":"12067","name":"Oder-Spree","type":"Landkreis"},"federalState":{"key":"12","name":"Brandenburg"}},{"name":"Schneeberger Weg","postalCode":"15299","locality":"Mixdorf","municipality":{"key":"12067324","name":"Mixdorf","type":"Kreisangehörige_Gemeinde"},"district":{"key":"12067","name":"Oder-Spree","type":"Landkreis"},"federalState":{"key":"12","name":"Brandenburg"}},{"name":"Zeisigweg","postalCode":"15299","locality":"Mixdorf","municipality":{"key":"12067324","name":"Mixdorf","type":"Kreisangehörige_Gemeinde"},"district":{"key":"12067","name":"Oder-Spree","type":"Landkreis"},"federalState":{"key":"12","name":"Brandenburg"}},{"name":"Zur Demnitz","postalCode":"15299","locality":"Mixdorf","municipality":{"key":"12067324","name":"Mixdorf","type":"Kreisangehörige_Gemeinde"},"district":{"key":"12067","name":"Oder-Spree","type":"Landkreis"},"federalState":{"key":"12","name":"Brandenburg"}},]