[{"name":"An der Breiten","postalCode":"82444","locality":"Schlehdorf","municipality":{"key":"09173142","name":"Schlehdorf","type":"Kreisangehörige_Gemeinde"},"district":{"key":"09173","name":"Bad Tölz-Wolfratshausen","type":"Landkreis"},"federalState":{"key":"09","name":"Bayern"}},{"name":"Brombergstr.","postalCode":"82444","locality":"Schlehdorf","municipality":{"key":"09173142","name":"Schlehdorf","type":"Kreisangehörige_Gemeinde"},"district":{"key":"09173","name":"Bad Tölz-Wolfratshausen","type":"Landkreis"},"federalState":{"key":"09","name":"Bayern"}},{"name":"Dominikusweg","postalCode":"82444","locality":"Schlehdorf","municipality":{"key":"09173142","name":"Schlehdorf","type":"Kreisangehörige_Gemeinde"},"district":{"key":"09173","name":"Bad Tölz-Wolfratshausen","type":"Landkreis"},"federalState":{"key":"09","name":"Bayern"}},{"name":"Felsenweg","postalCode":"82444","locality":"Schlehdorf","municipality":{"key":"09173142","name":"Schlehdorf","type":"Kreisangehörige_Gemeinde"},"district":{"key":"09173","name":"Bad Tölz-Wolfratshausen","type":"Landkreis"},"federalState":{"key":"09","name":"Bayern"}},{"name":"Fürsaumstr.","postalCode":"82444","locality":"Schlehdorf","municipality":{"key":"09173142","name":"Schlehdorf","type":"Kreisangehörige_Gemeinde"},"district":{"key":"09173","name":"Bad Tölz-Wolfratshausen","type":"Landkreis"},"federalState":{"key":"09","name":"Bayern"}},{"name":"Heimgartenstr.","postalCode":"82444","locality":"Schlehdorf","municipality":{"key":"09173142","name":"Schlehdorf","type":"Kreisangehörige_Gemeinde"},"district":{"key":"09173","name":"Bad Tölz-Wolfratshausen","type":"Landkreis"},"federalState":{"key":"09","name":"Bayern"}},{"name":"Herrenbergstr.","postalCode":"82444","locality":"Schlehdorf","municipality":{"key":"09173142","name":"Schlehdorf","type":"Kreisangehörige_Gemeinde"},"district":{"key":"09173","name":"Bad Tölz-Wolfratshausen","type":"Landkreis"},"federalState":{"key":"09","name":"Bayern"}},{"name":"Herzogstandstr.","postalCode":"82444","locality":"Schlehdorf","municipality":{"key":"09173142","name":"Schlehdorf","type":"Kreisangehörige_Gemeinde"},"district":{"key":"09173","name":"Bad Tölz-Wolfratshausen","type":"Landkreis"},"federalState":{"key":"09","name":"Bayern"}},{"name":"Jochbergstr.","postalCode":"82444","locality":"Schlehdorf","municipality":{"key":"09173142","name":"Schlehdorf","type":"Kreisangehörige_Gemeinde"},"district":{"key":"09173","name":"Bad Tölz-Wolfratshausen","type":"Landkreis"},"federalState":{"key":"09","name":"Bayern"}},{"name":"Jocher Höhenweg","postalCode":"82444","locality":"Schlehdorf","municipality":{"key":"09173142","name":"Schlehdorf","type":"Kreisangehörige_Gemeinde"},"district":{"key":"09173","name":"Bad Tölz-Wolfratshausen","type":"Landkreis"},"federalState":{"key":"09","name":"Bayern"}},{"name":"Karpfseestr.","postalCode":"82444","locality":"Schlehdorf","municipality":{"key":"09173142","name":"Schlehdorf","type":"Kreisangehörige_Gemeinde"},"district":{"key":"09173","name":"Bad Tölz-Wolfratshausen","type":"Landkreis"},"federalState":{"key":"09","name":"Bayern"}},{"name":"Kernweg","postalCode":"82444","locality":"Schlehdorf","municipality":{"key":"09173142","name":"Schlehdorf","type":"Kreisangehörige_Gemeinde"},"district":{"key":"09173","name":"Bad Tölz-Wolfratshausen","type":"Landkreis"},"federalState":{"key":"09","name":"Bayern"}},{"name":"Kirchstr.","postalCode":"82444","locality":"Schlehdorf","municipality":{"key":"09173142","name":"Schlehdorf","type":"Kreisangehörige_Gemeinde"},"district":{"key":"09173","name":"Bad Tölz-Wolfratshausen","type":"Landkreis"},"federalState":{"key":"09","name":"Bayern"}},{"name":"Kirschbergweg","postalCode":"82444","locality":"Schlehdorf","municipality":{"key":"09173142","name":"Schlehdorf","type":"Kreisangehörige_Gemeinde"},"district":{"key":"09173","name":"Bad Tölz-Wolfratshausen","type":"Landkreis"},"federalState":{"key":"09","name":"Bayern"}},{"name":"Kocheler Str.","postalCode":"82444","locality":"Schlehdorf","municipality":{"key":"09173142","name":"Schlehdorf","type":"Kreisangehörige_Gemeinde"},"district":{"key":"09173","name":"Bad Tölz-Wolfratshausen","type":"Landkreis"},"federalState":{"key":"09","name":"Bayern"}},{"name":"Kohllaineweg","postalCode":"82444","locality":"Schlehdorf","municipality":{"key":"09173142","name":"Schlehdorf","type":"Kreisangehörige_Gemeinde"},"district":{"key":"09173","name":"Bad Tölz-Wolfratshausen","type":"Landkreis"},"federalState":{"key":"09","name":"Bayern"}},{"name":"Kreuzbühlstr.","postalCode":"82444","locality":"Schlehdorf","municipality":{"key":"09173142","name":"Schlehdorf","type":"Kreisangehörige_Gemeinde"},"district":{"key":"09173","name":"Bad Tölz-Wolfratshausen","type":"Landkreis"},"federalState":{"key":"09","name":"Bayern"}},{"name":"Mittelstr.","postalCode":"82444","locality":"Schlehdorf","municipality":{"key":"09173142","name":"Schlehdorf","type":"Kreisangehörige_Gemeinde"},"district":{"key":"09173","name":"Bad Tölz-Wolfratshausen","type":"Landkreis"},"federalState":{"key":"09","name":"Bayern"}},{"name":"Moosstr.","postalCode":"82444","locality":"Schlehdorf","municipality":{"key":"09173142","name":"Schlehdorf","type":"Kreisangehörige_Gemeinde"},"district":{"key":"09173","name":"Bad Tölz-Wolfratshausen","type":"Landkreis"},"federalState":{"key":"09","name":"Bayern"}},{"name":"Mühlbachstr.","postalCode":"82444","locality":"Schlehdorf","municipality":{"key":"09173142","name":"Schlehdorf","type":"Kreisangehörige_Gemeinde"},"district":{"key":"09173","name":"Bad Tölz-Wolfratshausen","type":"Landkreis"},"federalState":{"key":"09","name":"Bayern"}},{"name":"Neuer Weg","postalCode":"82444","locality":"Schlehdorf","municipality":{"key":"09173142","name":"Schlehdorf","type":"Kreisangehörige_Gemeinde"},"district":{"key":"09173","name":"Bad Tölz-Wolfratshausen","type":"Landkreis"},"federalState":{"key":"09","name":"Bayern"}},{"name":"Raiffeisenweg","postalCode":"82444","locality":"Schlehdorf","municipality":{"key":"09173142","name":"Schlehdorf","type":"Kreisangehörige_Gemeinde"},"district":{"key":"09173","name":"Bad Tölz-Wolfratshausen","type":"Landkreis"},"federalState":{"key":"09","name":"Bayern"}},{"name":"Schiffbauerstr.","postalCode":"82444","locality":"Schlehdorf","municipality":{"key":"09173142","name":"Schlehdorf","type":"Kreisangehörige_Gemeinde"},"district":{"key":"09173","name":"Bad Tölz-Wolfratshausen","type":"Landkreis"},"federalState":{"key":"09","name":"Bayern"}},{"name":"Schleißheimer Str.","postalCode":"82444","locality":"Schlehdorf","municipality":{"key":"09173142","name":"Schlehdorf","type":"Kreisangehörige_Gemeinde"},"district":{"key":"09173","name":"Bad Tölz-Wolfratshausen","type":"Landkreis"},"federalState":{"key":"09","name":"Bayern"}},{"name":"Seestr.","postalCode":"82444","locality":"Schlehdorf","municipality":{"key":"09173142","name":"Schlehdorf","type":"Kreisangehörige_Gemeinde"},"district":{"key":"09173","name":"Bad Tölz-Wolfratshausen","type":"Landkreis"},"federalState":{"key":"09","name":"Bayern"}},{"name":"Unterau","postalCode":"82444","locality":"Schlehdorf","municipality":{"key":"09173142","name":"Schlehdorf","type":"Kreisangehörige_Gemeinde"},"district":{"key":"09173","name":"Bad Tölz-Wolfratshausen","type":"Landkreis"},"federalState":{"key":"09","name":"Bayern"}},{"name":"Unterauer Str.","postalCode":"82444","locality":"Schlehdorf","municipality":{"key":"09173142","name":"Schlehdorf","type":"Kreisangehörige_Gemeinde"},"district":{"key":"09173","name":"Bad Tölz-Wolfratshausen","type":"Landkreis"},"federalState":{"key":"09","name":"Bayern"}},]