[{"name":"Am Bahnhof","postalCode":"07922","locality":"Tanna","municipality":{"key":"16075132","name":"Tanna, Stadt","type":"Stadt"},"district":{"key":"16075","name":"Saale-Orla-Kreis","type":"Landkreis"},"federalState":{"key":"16","name":"Thüringen"}},{"name":"Am Gries","postalCode":"07922","locality":"Tanna","municipality":{"key":"16075132","name":"Tanna, Stadt","type":"Stadt"},"district":{"key":"16075","name":"Saale-Orla-Kreis","type":"Landkreis"},"federalState":{"key":"16","name":"Thüringen"}},{"name":"Am Kornberg","postalCode":"07922","locality":"Tanna","municipality":{"key":"16075132","name":"Tanna, Stadt","type":"Stadt"},"district":{"key":"16075","name":"Saale-Orla-Kreis","type":"Landkreis"},"federalState":{"key":"16","name":"Thüringen"}},{"name":"Am Wolfsteig","postalCode":"07922","locality":"Tanna","municipality":{"key":"16075132","name":"Tanna, Stadt","type":"Stadt"},"district":{"key":"16075","name":"Saale-Orla-Kreis","type":"Landkreis"},"federalState":{"key":"16","name":"Thüringen"}},{"name":"Bachgasse","postalCode":"07922","locality":"Tanna","municipality":{"key":"16075132","name":"Tanna, Stadt","type":"Stadt"},"district":{"key":"16075","name":"Saale-Orla-Kreis","type":"Landkreis"},"federalState":{"key":"16","name":"Thüringen"}},{"name":"Bahnhofstr.","postalCode":"07922","locality":"Tanna","municipality":{"key":"16075132","name":"Tanna, Stadt","type":"Stadt"},"district":{"key":"16075","name":"Saale-Orla-Kreis","type":"Landkreis"},"federalState":{"key":"16","name":"Thüringen"}},{"name":"Beunten","postalCode":"07922","locality":"Tanna","municipality":{"key":"16075132","name":"Tanna, Stadt","type":"Stadt"},"district":{"key":"16075","name":"Saale-Orla-Kreis","type":"Landkreis"},"federalState":{"key":"16","name":"Thüringen"}},{"name":"Birkenweg","postalCode":"07922","locality":"Tanna","municipality":{"key":"16075132","name":"Tanna, Stadt","type":"Stadt"},"district":{"key":"16075","name":"Saale-Orla-Kreis","type":"Landkreis"},"federalState":{"key":"16","name":"Thüringen"}},{"name":"Bundschuh-Siedlung","postalCode":"07922","locality":"Tanna","municipality":{"key":"16075132","name":"Tanna, Stadt","type":"Stadt"},"district":{"key":"16075","name":"Saale-Orla-Kreis","type":"Landkreis"},"federalState":{"key":"16","name":"Thüringen"}},{"name":"Dr.-Karkosch-Str.","postalCode":"07922","locality":"Tanna","municipality":{"key":"16075132","name":"Tanna, Stadt","type":"Stadt"},"district":{"key":"16075","name":"Saale-Orla-Kreis","type":"Landkreis"},"federalState":{"key":"16","name":"Thüringen"}},{"name":"Ebersberg","postalCode":"07922","locality":"Tanna","municipality":{"key":"16075132","name":"Tanna, Stadt","type":"Stadt"},"district":{"key":"16075","name":"Saale-Orla-Kreis","type":"Landkreis"},"federalState":{"key":"16","name":"Thüringen"}},{"name":"Frankendorf","postalCode":"07922","locality":"Tanna","municipality":{"key":"16075132","name":"Tanna, Stadt","type":"Stadt"},"district":{"key":"16075","name":"Saale-Orla-Kreis","type":"Landkreis"},"federalState":{"key":"16","name":"Thüringen"}},{"name":"Frankendorfer Steig","postalCode":"07922","locality":"Tanna","municipality":{"key":"16075132","name":"Tanna, Stadt","type":"Stadt"},"district":{"key":"16075","name":"Saale-Orla-Kreis","type":"Landkreis"},"federalState":{"key":"16","name":"Thüringen"}},{"name":"Frankendorfer Str.","postalCode":"07922","locality":"Tanna","municipality":{"key":"16075132","name":"Tanna, Stadt","type":"Stadt"},"district":{"key":"16075","name":"Saale-Orla-Kreis","type":"Landkreis"},"federalState":{"key":"16","name":"Thüringen"}},{"name":"Gartenweg","postalCode":"07922","locality":"Tanna","municipality":{"key":"16075132","name":"Tanna, Stadt","type":"Stadt"},"district":{"key":"16075","name":"Saale-Orla-Kreis","type":"Landkreis"},"federalState":{"key":"16","name":"Thüringen"}},{"name":"Hotteraweg","postalCode":"07922","locality":"Tanna","municipality":{"key":"16075132","name":"Tanna, Stadt","type":"Stadt"},"district":{"key":"16075","name":"Saale-Orla-Kreis","type":"Landkreis"},"federalState":{"key":"16","name":"Thüringen"}},{"name":"In den Leiten","postalCode":"07922","locality":"Tanna","municipality":{"key":"16075132","name":"Tanna, Stadt","type":"Stadt"},"district":{"key":"16075","name":"Saale-Orla-Kreis","type":"Landkreis"},"federalState":{"key":"16","name":"Thüringen"}},{"name":"Industriegebiet Kapelle","postalCode":"07922","locality":"Tanna","municipality":{"key":"16075132","name":"Tanna, Stadt","type":"Stadt"},"district":{"key":"16075","name":"Saale-Orla-Kreis","type":"Landkreis"},"federalState":{"key":"16","name":"Thüringen"}},{"name":"Juliengasse","postalCode":"07922","locality":"Tanna","municipality":{"key":"16075132","name":"Tanna, Stadt","type":"Stadt"},"district":{"key":"16075","name":"Saale-Orla-Kreis","type":"Landkreis"},"federalState":{"key":"16","name":"Thüringen"}},{"name":"Kapellenstr.","postalCode":"07922","locality":"Tanna","municipality":{"key":"16075132","name":"Tanna, Stadt","type":"Stadt"},"district":{"key":"16075","name":"Saale-Orla-Kreis","type":"Landkreis"},"federalState":{"key":"16","name":"Thüringen"}},{"name":"Kirchgasse","postalCode":"07922","locality":"Tanna","municipality":{"key":"16075132","name":"Tanna, Stadt","type":"Stadt"},"district":{"key":"16075","name":"Saale-Orla-Kreis","type":"Landkreis"},"federalState":{"key":"16","name":"Thüringen"}},{"name":"Koskauer Str.","postalCode":"07922","locality":"Tanna","municipality":{"key":"16075132","name":"Tanna, Stadt","type":"Stadt"},"district":{"key":"16075","name":"Saale-Orla-Kreis","type":"Landkreis"},"federalState":{"key":"16","name":"Thüringen"}},{"name":"Markt","postalCode":"07922","locality":"Tanna","municipality":{"key":"16075132","name":"Tanna, Stadt","type":"Stadt"},"district":{"key":"16075","name":"Saale-Orla-Kreis","type":"Landkreis"},"federalState":{"key":"16","name":"Thüringen"}},{"name":"Marmorweg","postalCode":"07922","locality":"Tanna","municipality":{"key":"16075132","name":"Tanna, Stadt","type":"Stadt"},"district":{"key":"16075","name":"Saale-Orla-Kreis","type":"Landkreis"},"federalState":{"key":"16","name":"Thüringen"}},{"name":"Neue Str.","postalCode":"07922","locality":"Tanna","municipality":{"key":"16075132","name":"Tanna, Stadt","type":"Stadt"},"district":{"key":"16075","name":"Saale-Orla-Kreis","type":"Landkreis"},"federalState":{"key":"16","name":"Thüringen"}},{"name":"Oelgasse","postalCode":"07922","locality":"Tanna","municipality":{"key":"16075132","name":"Tanna, Stadt","type":"Stadt"},"district":{"key":"16075","name":"Saale-Orla-Kreis","type":"Landkreis"},"federalState":{"key":"16","name":"Thüringen"}},{"name":"Seubtendorf","postalCode":"07922","locality":"Tanna","municipality":{"key":"16075132","name":"Tanna, Stadt","type":"Stadt"},"district":{"key":"16075","name":"Saale-Orla-Kreis","type":"Landkreis"},"federalState":{"key":"16","name":"Thüringen"}},{"name":"Sparkassenplatz","postalCode":"07922","locality":"Tanna","municipality":{"key":"16075132","name":"Tanna, Stadt","type":"Stadt"},"district":{"key":"16075","name":"Saale-Orla-Kreis","type":"Landkreis"},"federalState":{"key":"16","name":"Thüringen"}},{"name":"Stelzen","postalCode":"07922","locality":"Tanna","municipality":{"key":"16075132","name":"Tanna, Stadt","type":"Stadt"},"district":{"key":"16075","name":"Saale-Orla-Kreis","type":"Landkreis"},"federalState":{"key":"16","name":"Thüringen"}},{"name":"Stickereiweg","postalCode":"07922","locality":"Tanna","municipality":{"key":"16075132","name":"Tanna, Stadt","type":"Stadt"},"district":{"key":"16075","name":"Saale-Orla-Kreis","type":"Landkreis"},"federalState":{"key":"16","name":"Thüringen"}},{"name":"Unterkoskau","postalCode":"07922","locality":"Tanna","municipality":{"key":"16075132","name":"Tanna, Stadt","type":"Stadt"},"district":{"key":"16075","name":"Saale-Orla-Kreis","type":"Landkreis"},"federalState":{"key":"16","name":"Thüringen"}},{"name":"Unterkoskau Forsthaus","postalCode":"07922","locality":"Tanna","municipality":{"key":"16075132","name":"Tanna, Stadt","type":"Stadt"},"district":{"key":"16075","name":"Saale-Orla-Kreis","type":"Landkreis"},"federalState":{"key":"16","name":"Thüringen"}},{"name":"Wiesenstr.","postalCode":"07922","locality":"Tanna","municipality":{"key":"16075132","name":"Tanna, Stadt","type":"Stadt"},"district":{"key":"16075","name":"Saale-Orla-Kreis","type":"Landkreis"},"federalState":{"key":"16","name":"Thüringen"}},{"name":"Willersdorf","postalCode":"07922","locality":"Tanna","municipality":{"key":"16075132","name":"Tanna, Stadt","type":"Stadt"},"district":{"key":"16075","name":"Saale-Orla-Kreis","type":"Landkreis"},"federalState":{"key":"16","name":"Thüringen"}},]