[{"name":"Alice-Prausnitz-Weg","postalCode":"24306","locality":"Plön","municipality":{"key":"01057057","name":"Plön, Stadt","type":"Stadt"},"district":{"key":"01057","name":"Plön","type":"Kreis"},"federalState":{"key":"01","name":"Schleswig-Holstein"}},{"name":"Am alten Güterbahnhof","postalCode":"24306","locality":"Plön","municipality":{"key":"01057057","name":"Plön, Stadt","type":"Stadt"},"district":{"key":"01057","name":"Plön","type":"Kreis"},"federalState":{"key":"01","name":"Schleswig-Holstein"}},{"name":"Am Bootshafen","postalCode":"24306","locality":"Plön","municipality":{"key":"01057057","name":"Plön, Stadt","type":"Stadt"},"district":{"key":"01057","name":"Plön","type":"Kreis"},"federalState":{"key":"01","name":"Schleswig-Holstein"}},{"name":"Am Hang","postalCode":"24306","locality":"Plön","municipality":{"key":"01057057","name":"Plön, Stadt","type":"Stadt"},"district":{"key":"01057","name":"Plön","type":"Kreis"},"federalState":{"key":"01","name":"Schleswig-Holstein"}},{"name":"Am Moore","postalCode":"24306","locality":"Plön","municipality":{"key":"01057057","name":"Plön, Stadt","type":"Stadt"},"district":{"key":"01057","name":"Plön","type":"Kreis"},"federalState":{"key":"01","name":"Schleswig-Holstein"}},{"name":"Am Rodomstor","postalCode":"24306","locality":"Plön","municipality":{"key":"01057057","name":"Plön, Stadt","type":"Stadt"},"district":{"key":"01057","name":"Plön","type":"Kreis"},"federalState":{"key":"01","name":"Schleswig-Holstein"}},{"name":"Am Schiffsthal","postalCode":"24306","locality":"Plön","municipality":{"key":"01057057","name":"Plön, Stadt","type":"Stadt"},"district":{"key":"01057","name":"Plön","type":"Kreis"},"federalState":{"key":"01","name":"Schleswig-Holstein"}},{"name":"Am Schwanensee","postalCode":"24306","locality":"Plön","municipality":{"key":"01057057","name":"Plön, Stadt","type":"Stadt"},"district":{"key":"01057","name":"Plön","type":"Kreis"},"federalState":{"key":"01","name":"Schleswig-Holstein"}},{"name":"Amselstieg","postalCode":"24306","locality":"Plön","municipality":{"key":"01057057","name":"Plön, Stadt","type":"Stadt"},"district":{"key":"01057","name":"Plön","type":"Kreis"},"federalState":{"key":"01","name":"Schleswig-Holstein"}},{"name":"Am Stadtwäldchen","postalCode":"24306","locality":"Plön","municipality":{"key":"01057057","name":"Plön, Stadt","type":"Stadt"},"district":{"key":"01057","name":"Plön","type":"Kreis"},"federalState":{"key":"01","name":"Schleswig-Holstein"}},{"name":"Am Trammer See","postalCode":"24306","locality":"Plön","municipality":{"key":"01057057","name":"Plön, Stadt","type":"Stadt"},"district":{"key":"01057","name":"Plön","type":"Kreis"},"federalState":{"key":"01","name":"Schleswig-Holstein"}},{"name":"An der B 76","postalCode":"24306","locality":"Plön","municipality":{"key":"01057057","name":"Plön, Stadt","type":"Stadt"},"district":{"key":"01057","name":"Plön","type":"Kreis"},"federalState":{"key":"01","name":"Schleswig-Holstein"}},{"name":"Anleger Fegetasche","postalCode":"24306","locality":"Plön","municipality":{"key":"01057057","name":"Plön, Stadt","type":"Stadt"},"district":{"key":"01057","name":"Plön","type":"Kreis"},"federalState":{"key":"01","name":"Schleswig-Holstein"}},{"name":"Anna-Richter-Str.","postalCode":"24306","locality":"Plön","municipality":{"key":"01057057","name":"Plön, Stadt","type":"Stadt"},"district":{"key":"01057","name":"Plön","type":"Kreis"},"federalState":{"key":"01","name":"Schleswig-Holstein"}},{"name":"Apenrader Str.","postalCode":"24306","locality":"Plön","municipality":{"key":"01057057","name":"Plön, Stadt","type":"Stadt"},"district":{"key":"01057","name":"Plön","type":"Kreis"},"federalState":{"key":"01","name":"Schleswig-Holstein"}},{"name":"Apothekertwiete","postalCode":"24306","locality":"Plön","municipality":{"key":"01057057","name":"Plön, Stadt","type":"Stadt"},"district":{"key":"01057","name":"Plön","type":"Kreis"},"federalState":{"key":"01","name":"Schleswig-Holstein"}},{"name":"Appelwarder","postalCode":"24306","locality":"Plön","municipality":{"key":"01057057","name":"Plön, Stadt","type":"Stadt"},"district":{"key":"01057","name":"Plön","type":"Kreis"},"federalState":{"key":"01","name":"Schleswig-Holstein"}},{"name":"Ascheberger Str.","postalCode":"24306","locality":"Plön","municipality":{"key":"01057057","name":"Plön, Stadt","type":"Stadt"},"district":{"key":"01057","name":"Plön","type":"Kreis"},"federalState":{"key":"01","name":"Schleswig-Holstein"}},{"name":"August-Thienemann-Str.","postalCode":"24306","locality":"Plön","municipality":{"key":"01057057","name":"Plön, Stadt","type":"Stadt"},"district":{"key":"01057","name":"Plön","type":"Kreis"},"federalState":{"key":"01","name":"Schleswig-Holstein"}},{"name":"Buchberger Weg","postalCode":"24321","locality":"Tröndel","municipality":{"key":"01057082","name":"Tröndel","type":"Kreisangehörige_Gemeinde"},"district":{"key":"01057","name":"Plön","type":"Kreis"},"federalState":{"key":"01","name":"Schleswig-Holstein"}},{"name":"Buernredder","postalCode":"24321","locality":"Tröndel","municipality":{"key":"01057082","name":"Tröndel","type":"Kreisangehörige_Gemeinde"},"district":{"key":"01057","name":"Plön","type":"Kreis"},"federalState":{"key":"01","name":"Schleswig-Holstein"}},{"name":"Campingplatz Spitzenort","postalCode":"24306","locality":"Plön","municipality":{"key":"01057057","name":"Plön, Stadt","type":"Stadt"},"district":{"key":"01057","name":"Plön","type":"Kreis"},"federalState":{"key":"01","name":"Schleswig-Holstein"}},{"name":"Charlotte-Niese-Weg","postalCode":"24306","locality":"Plön","municipality":{"key":"01057057","name":"Plön, Stadt","type":"Stadt"},"district":{"key":"01057","name":"Plön","type":"Kreis"},"federalState":{"key":"01","name":"Schleswig-Holstein"}},{"name":"Danziger Str.","postalCode":"24306","locality":"Plön","municipality":{"key":"01057057","name":"Plön, Stadt","type":"Stadt"},"district":{"key":"01057","name":"Plön","type":"Kreis"},"federalState":{"key":"01","name":"Schleswig-Holstein"}},{"name":"Düvelsbrook","postalCode":"24306","locality":"Plön","municipality":{"key":"01057057","name":"Plön, Stadt","type":"Stadt"},"district":{"key":"01057","name":"Plön","type":"Kreis"},"federalState":{"key":"01","name":"Schleswig-Holstein"}},{"name":"Emkendorfer Weg","postalCode":"24321","locality":"Tröndel","municipality":{"key":"01057082","name":"Tröndel","type":"Kreisangehörige_Gemeinde"},"district":{"key":"01057","name":"Plön","type":"Kreis"},"federalState":{"key":"01","name":"Schleswig-Holstein"}},{"name":"Fegetasche","postalCode":"24306","locality":"Plön","municipality":{"key":"01057057","name":"Plön, Stadt","type":"Stadt"},"district":{"key":"01057","name":"Plön","type":"Kreis"},"federalState":{"key":"01","name":"Schleswig-Holstein"}},{"name":"Feldweg am Schöhsee","postalCode":"24306","locality":"Plön","municipality":{"key":"01057057","name":"Plön, Stadt","type":"Stadt"},"district":{"key":"01057","name":"Plön","type":"Kreis"},"federalState":{"key":"01","name":"Schleswig-Holstein"}},{"name":"Friedrich-Lamp-Str.","postalCode":"24306","locality":"Plön","municipality":{"key":"01057057","name":"Plön, Stadt","type":"Stadt"},"district":{"key":"01057","name":"Plön","type":"Kreis"},"federalState":{"key":"01","name":"Schleswig-Holstein"}},{"name":"Friedrichstr.","postalCode":"24306","locality":"Plön","municipality":{"key":"01057057","name":"Plön, Stadt","type":"Stadt"},"district":{"key":"01057","name":"Plön","type":"Kreis"},"federalState":{"key":"01","name":"Schleswig-Holstein"}},{"name":"Fünf-Seen-Allee","postalCode":"24306","locality":"Plön","municipality":{"key":"01057057","name":"Plön, Stadt","type":"Stadt"},"district":{"key":"01057","name":"Plön","type":"Kreis"},"federalState":{"key":"01","name":"Schleswig-Holstein"}},{"name":"Gadendorfer Weg","postalCode":"24321","locality":"Tröndel","municipality":{"key":"01057082","name":"Tröndel","type":"Kreisangehörige_Gemeinde"},"district":{"key":"01057","name":"Plön","type":"Kreis"},"federalState":{"key":"01","name":"Schleswig-Holstein"}},{"name":"Hasenkrönsredder","postalCode":"24321","locality":"Tröndel","municipality":{"key":"01057082","name":"Tröndel","type":"Kreisangehörige_Gemeinde"},"district":{"key":"01057","name":"Plön","type":"Kreis"},"federalState":{"key":"01","name":"Schleswig-Holstein"}},{"name":"Hauptstr.","postalCode":"24321","locality":"Tröndel","municipality":{"key":"01057082","name":"Tröndel","type":"Kreisangehörige_Gemeinde"},"district":{"key":"01057","name":"Plön","type":"Kreis"},"federalState":{"key":"01","name":"Schleswig-Holstein"}},{"name":"Hessensteiner Weg","postalCode":"24321","locality":"Tröndel","municipality":{"key":"01057082","name":"Tröndel","type":"Kreisangehörige_Gemeinde"},"district":{"key":"01057","name":"Plön","type":"Kreis"},"federalState":{"key":"01","name":"Schleswig-Holstein"}},{"name":"Hohenhopsredder","postalCode":"24321","locality":"Tröndel","municipality":{"key":"01057082","name":"Tröndel","type":"Kreisangehörige_Gemeinde"},"district":{"key":"01057","name":"Plön","type":"Kreis"},"federalState":{"key":"01","name":"Schleswig-Holstein"}},{"name":"Johannisstr.","postalCode":"24306","locality":"Plön","municipality":{"key":"01057057","name":"Plön, Stadt","type":"Stadt"},"district":{"key":"01057","name":"Plön","type":"Kreis"},"federalState":{"key":"01","name":"Schleswig-Holstein"}},{"name":"Jörg-Steinbach-Ring","postalCode":"24306","locality":"Plön","municipality":{"key":"01057057","name":"Plön, Stadt","type":"Stadt"},"district":{"key":"01057","name":"Plön","type":"Kreis"},"federalState":{"key":"01","name":"Schleswig-Holstein"}},{"name":"Kaaktwiete","postalCode":"24306","locality":"Plön","municipality":{"key":"01057057","name":"Plön, Stadt","type":"Stadt"},"district":{"key":"01057","name":"Plön","type":"Kreis"},"federalState":{"key":"01","name":"Schleswig-Holstein"}},{"name":"Kannegießerberg","postalCode":"24306","locality":"Plön","municipality":{"key":"01057057","name":"Plön, Stadt","type":"Stadt"},"district":{"key":"01057","name":"Plön","type":"Kreis"},"federalState":{"key":"01","name":"Schleswig-Holstein"}},{"name":"Käthe-Seidel-Ring","postalCode":"24306","locality":"Plön","municipality":{"key":"01057057","name":"Plön, Stadt","type":"Stadt"},"district":{"key":"01057","name":"Plön","type":"Kreis"},"federalState":{"key":"01","name":"Schleswig-Holstein"}},{"name":"Kieler Kamp","postalCode":"24306","locality":"Plön","municipality":{"key":"01057057","name":"Plön, Stadt","type":"Stadt"},"district":{"key":"01057","name":"Plön","type":"Kreis"},"federalState":{"key":"01","name":"Schleswig-Holstein"}},{"name":"Klanderstr.","postalCode":"24306","locality":"Plön","municipality":{"key":"01057057","name":"Plön, Stadt","type":"Stadt"},"district":{"key":"01057","name":"Plön","type":"Kreis"},"federalState":{"key":"01","name":"Schleswig-Holstein"}},{"name":"Klosterstr.","postalCode":"24306","locality":"Plön","municipality":{"key":"01057057","name":"Plön, Stadt","type":"Stadt"},"district":{"key":"01057","name":"Plön","type":"Kreis"},"federalState":{"key":"01","name":"Schleswig-Holstein"}},{"name":"Klostertwiete","postalCode":"24306","locality":"Plön","municipality":{"key":"01057057","name":"Plön, Stadt","type":"Stadt"},"district":{"key":"01057","name":"Plön","type":"Kreis"},"federalState":{"key":"01","name":"Schleswig-Holstein"}},{"name":"Knivsbergring","postalCode":"24306","locality":"Plön","municipality":{"key":"01057057","name":"Plön, Stadt","type":"Stadt"},"district":{"key":"01057","name":"Plön","type":"Kreis"},"federalState":{"key":"01","name":"Schleswig-Holstein"}},{"name":"Königsberger Str.","postalCode":"24306","locality":"Plön","municipality":{"key":"01057057","name":"Plön, Stadt","type":"Stadt"},"district":{"key":"01057","name":"Plön","type":"Kreis"},"federalState":{"key":"01","name":"Schleswig-Holstein"}},{"name":"Königsgehege","postalCode":"24306","locality":"Plön","municipality":{"key":"01057057","name":"Plön, Stadt","type":"Stadt"},"district":{"key":"01057","name":"Plön","type":"Kreis"},"federalState":{"key":"01","name":"Schleswig-Holstein"}},{"name":"Koppelsberg","postalCode":"24306","locality":"Plön","municipality":{"key":"01057057","name":"Plön, Stadt","type":"Stadt"},"district":{"key":"01057","name":"Plön","type":"Kreis"},"federalState":{"key":"01","name":"Schleswig-Holstein"}},{"name":"Krabbe","postalCode":"24306","locality":"Plön","municipality":{"key":"01057057","name":"Plön, Stadt","type":"Stadt"},"district":{"key":"01057","name":"Plön","type":"Kreis"},"federalState":{"key":"01","name":"Schleswig-Holstein"}},{"name":"Kreherstr.","postalCode":"24306","locality":"Plön","municipality":{"key":"01057057","name":"Plön, Stadt","type":"Stadt"},"district":{"key":"01057","name":"Plön","type":"Kreis"},"federalState":{"key":"01","name":"Schleswig-Holstein"}},{"name":"Krögen","postalCode":"24306","locality":"Plön","municipality":{"key":"01057057","name":"Plön, Stadt","type":"Stadt"},"district":{"key":"01057","name":"Plön","type":"Kreis"},"federalState":{"key":"01","name":"Schleswig-Holstein"}},{"name":"Krusekoppel","postalCode":"24306","locality":"Plön","municipality":{"key":"01057057","name":"Plön, Stadt","type":"Stadt"},"district":{"key":"01057","name":"Plön","type":"Kreis"},"federalState":{"key":"01","name":"Schleswig-Holstein"}},{"name":"Lüttredder","postalCode":"24321","locality":"Tröndel","municipality":{"key":"01057082","name":"Tröndel","type":"Kreisangehörige_Gemeinde"},"district":{"key":"01057","name":"Plön","type":"Kreis"},"federalState":{"key":"01","name":"Schleswig-Holstein"}},{"name":"Mißbrookredder","postalCode":"24321","locality":"Tröndel","municipality":{"key":"01057082","name":"Tröndel","type":"Kreisangehörige_Gemeinde"},"district":{"key":"01057","name":"Plön","type":"Kreis"},"federalState":{"key":"01","name":"Schleswig-Holstein"}},{"name":"Moorbrooksredder","postalCode":"24321","locality":"Tröndel","municipality":{"key":"01057082","name":"Tröndel","type":"Kreisangehörige_Gemeinde"},"district":{"key":"01057","name":"Plön","type":"Kreis"},"federalState":{"key":"01","name":"Schleswig-Holstein"}},{"name":"Motelredder","postalCode":"24321","locality":"Tröndel","municipality":{"key":"01057082","name":"Tröndel","type":"Kreisangehörige_Gemeinde"},"district":{"key":"01057","name":"Plön","type":"Kreis"},"federalState":{"key":"01","name":"Schleswig-Holstein"}},{"name":"Osterfeldbergredder","postalCode":"24321","locality":"Tröndel","municipality":{"key":"01057082","name":"Tröndel","type":"Kreisangehörige_Gemeinde"},"district":{"key":"01057","name":"Plön","type":"Kreis"},"federalState":{"key":"01","name":"Schleswig-Holstein"}},{"name":"Parkstr.","postalCode":"24306","locality":"Plön","municipality":{"key":"01057057","name":"Plön, Stadt","type":"Stadt"},"district":{"key":"01057","name":"Plön","type":"Kreis"},"federalState":{"key":"01","name":"Schleswig-Holstein"}},{"name":"Parnaßweg","postalCode":"24306","locality":"Plön","municipality":{"key":"01057057","name":"Plön, Stadt","type":"Stadt"},"district":{"key":"01057","name":"Plön","type":"Kreis"},"federalState":{"key":"01","name":"Schleswig-Holstein"}},{"name":"Plauer Weg","postalCode":"24306","locality":"Plön","municipality":{"key":"01057057","name":"Plön, Stadt","type":"Stadt"},"district":{"key":"01057","name":"Plön","type":"Kreis"},"federalState":{"key":"01","name":"Schleswig-Holstein"}},{"name":"Pommernweg","postalCode":"24306","locality":"Plön","municipality":{"key":"01057057","name":"Plön, Stadt","type":"Stadt"},"district":{"key":"01057","name":"Plön","type":"Kreis"},"federalState":{"key":"01","name":"Schleswig-Holstein"}},{"name":"Prinzeninsel","postalCode":"24306","locality":"Plön","municipality":{"key":"01057057","name":"Plön, Stadt","type":"Stadt"},"district":{"key":"01057","name":"Plön","type":"Kreis"},"federalState":{"key":"01","name":"Schleswig-Holstein"}},{"name":"Prinzenstr.","postalCode":"24306","locality":"Plön","municipality":{"key":"01057057","name":"Plön, Stadt","type":"Stadt"},"district":{"key":"01057","name":"Plön","type":"Kreis"},"federalState":{"key":"01","name":"Schleswig-Holstein"}},{"name":"Rathaustwiete","postalCode":"24306","locality":"Plön","municipality":{"key":"01057057","name":"Plön, Stadt","type":"Stadt"},"district":{"key":"01057","name":"Plön","type":"Kreis"},"federalState":{"key":"01","name":"Schleswig-Holstein"}},{"name":"Rathjensdorfer Weg","postalCode":"24306","locality":"Plön","municipality":{"key":"01057057","name":"Plön, Stadt","type":"Stadt"},"district":{"key":"01057","name":"Plön","type":"Kreis"},"federalState":{"key":"01","name":"Schleswig-Holstein"}},{"name":"Rathsberg","postalCode":"24306","locality":"Plön","municipality":{"key":"01057057","name":"Plön, Stadt","type":"Stadt"},"district":{"key":"01057","name":"Plön","type":"Kreis"},"federalState":{"key":"01","name":"Schleswig-Holstein"}},{"name":"Rautenbergstr.","postalCode":"24306","locality":"Plön","municipality":{"key":"01057057","name":"Plön, Stadt","type":"Stadt"},"district":{"key":"01057","name":"Plön","type":"Kreis"},"federalState":{"key":"01","name":"Schleswig-Holstein"}},{"name":"Rodomstorstr.","postalCode":"24306","locality":"Plön","municipality":{"key":"01057057","name":"Plön, Stadt","type":"Stadt"},"district":{"key":"01057","name":"Plön","type":"Kreis"},"federalState":{"key":"01","name":"Schleswig-Holstein"}},{"name":"Rosenstr.","postalCode":"24306","locality":"Plön","municipality":{"key":"01057057","name":"Plön, Stadt","type":"Stadt"},"district":{"key":"01057","name":"Plön","type":"Kreis"},"federalState":{"key":"01","name":"Schleswig-Holstein"}},{"name":"Saalkampredder","postalCode":"24321","locality":"Tröndel","municipality":{"key":"01057082","name":"Tröndel","type":"Kreisangehörige_Gemeinde"},"district":{"key":"01057","name":"Plön","type":"Kreis"},"federalState":{"key":"01","name":"Schleswig-Holstein"}},{"name":"Schloßberg","postalCode":"24321","locality":"Tröndel","municipality":{"key":"01057082","name":"Tröndel","type":"Kreisangehörige_Gemeinde"},"district":{"key":"01057","name":"Plön","type":"Kreis"},"federalState":{"key":"01","name":"Schleswig-Holstein"}},{"name":"Schmalfeldsredder","postalCode":"24321","locality":"Tröndel","municipality":{"key":"01057082","name":"Tröndel","type":"Kreisangehörige_Gemeinde"},"district":{"key":"01057","name":"Plön","type":"Kreis"},"federalState":{"key":"01","name":"Schleswig-Holstein"}},{"name":"Steenig Redder","postalCode":"24321","locality":"Tröndel","municipality":{"key":"01057082","name":"Tröndel","type":"Kreisangehörige_Gemeinde"},"district":{"key":"01057","name":"Plön","type":"Kreis"},"federalState":{"key":"01","name":"Schleswig-Holstein"}},{"name":"Totenredder","postalCode":"24321","locality":"Tröndel","municipality":{"key":"01057082","name":"Tröndel","type":"Kreisangehörige_Gemeinde"},"district":{"key":"01057","name":"Plön","type":"Kreis"},"federalState":{"key":"01","name":"Schleswig-Holstein"}},{"name":"Ulmenstr.","postalCode":"24306","locality":"Plön","municipality":{"key":"01057057","name":"Plön, Stadt","type":"Stadt"},"district":{"key":"01057","name":"Plön","type":"Kreis"},"federalState":{"key":"01","name":"Schleswig-Holstein"}},{"name":"Unterer Rathsteichweg","postalCode":"24306","locality":"Plön","municipality":{"key":"01057057","name":"Plön, Stadt","type":"Stadt"},"district":{"key":"01057","name":"Plön","type":"Kreis"},"federalState":{"key":"01","name":"Schleswig-Holstein"}},{"name":"Vierschillingsberg","postalCode":"24306","locality":"Plön","municipality":{"key":"01057057","name":"Plön, Stadt","type":"Stadt"},"district":{"key":"01057","name":"Plön","type":"Kreis"},"federalState":{"key":"01","name":"Schleswig-Holstein"}},{"name":"Vogelberg","postalCode":"24306","locality":"Plön","municipality":{"key":"01057057","name":"Plön, Stadt","type":"Stadt"},"district":{"key":"01057","name":"Plön","type":"Kreis"},"federalState":{"key":"01","name":"Schleswig-Holstein"}},{"name":"Warderredder","postalCode":"24321","locality":"Tröndel","municipality":{"key":"01057082","name":"Tröndel","type":"Kreisangehörige_Gemeinde"},"district":{"key":"01057","name":"Plön","type":"Kreis"},"federalState":{"key":"01","name":"Schleswig-Holstein"}},{"name":"Weddelkampredder","postalCode":"24321","locality":"Tröndel","municipality":{"key":"01057082","name":"Tröndel","type":"Kreisangehörige_Gemeinde"},"district":{"key":"01057","name":"Plön","type":"Kreis"},"federalState":{"key":"01","name":"Schleswig-Holstein"}},{"name":"Ölmühlenallee","postalCode":"24306","locality":"Plön","municipality":{"key":"01057057","name":"Plön, Stadt","type":"Stadt"},"district":{"key":"01057","name":"Plön","type":"Kreis"},"federalState":{"key":"01","name":"Schleswig-Holstein"}},{"name":"Övelgönne","postalCode":"24306","locality":"Plön","municipality":{"key":"01057057","name":"Plön, Stadt","type":"Stadt"},"district":{"key":"01057","name":"Plön","type":"Kreis"},"federalState":{"key":"01","name":"Schleswig-Holstein"}},]