[{"key":"10178118","name":"Auf der Hollen","postalCode":"4146","locality":"Hochwald","commune":{"key":"2475","name":"Hochwald","shortName":"Hochwald"},"district":{"key":"1104","name":"Bezirk Dorneck"},"canton":{"key":"11","code":"SO","name":"Solothurn"},"status":"Real"},{"key":"10094908","name":"Baselweg","postalCode":"4146","locality":"Hochwald","commune":{"key":"2475","name":"Hochwald","shortName":"Hochwald"},"district":{"key":"1104","name":"Bezirk Dorneck"},"canton":{"key":"11","code":"SO","name":"Solothurn"},"status":"Real"},{"key":"10024472","name":"Buchackerweg","postalCode":"4146","locality":"Hochwald","commune":{"key":"2475","name":"Hochwald","shortName":"Hochwald"},"district":{"key":"1104","name":"Bezirk Dorneck"},"canton":{"key":"11","code":"SO","name":"Solothurn"},"status":"Real"},{"key":"10106771","name":"Bündtenackerweg","postalCode":"4146","locality":"Hochwald","commune":{"key":"2475","name":"Hochwald","shortName":"Hochwald"},"district":{"key":"1104","name":"Bezirk Dorneck"},"canton":{"key":"11","code":"SO","name":"Solothurn"},"status":"Real"},{"key":"10187755","name":"Bürenfluhweg","postalCode":"4146","locality":"Hochwald","commune":{"key":"2475","name":"Hochwald","shortName":"Hochwald"},"district":{"key":"1104","name":"Bezirk Dorneck"},"canton":{"key":"11","code":"SO","name":"Solothurn"},"status":"Real"},{"key":"10186068","name":"Bürenweg","postalCode":"4146","locality":"Hochwald","commune":{"key":"2475","name":"Hochwald","shortName":"Hochwald"},"district":{"key":"1104","name":"Bezirk Dorneck"},"canton":{"key":"11","code":"SO","name":"Solothurn"},"status":"Real"},{"key":"10213932","name":"Chälen","postalCode":"4146","locality":"Hochwald","commune":{"key":"2475","name":"Hochwald","shortName":"Hochwald"},"district":{"key":"1104","name":"Bezirk Dorneck"},"canton":{"key":"11","code":"SO","name":"Solothurn"},"status":"Real"},{"key":"10114233","name":"Chaletweg","postalCode":"4146","locality":"Hochwald","commune":{"key":"2475","name":"Hochwald","shortName":"Hochwald"},"district":{"key":"1104","name":"Bezirk Dorneck"},"canton":{"key":"11","code":"SO","name":"Solothurn"},"status":"Real"},{"key":"10213936","name":"Chessletweg","postalCode":"4146","locality":"Hochwald","commune":{"key":"2475","name":"Hochwald","shortName":"Hochwald"},"district":{"key":"1104","name":"Bezirk Dorneck"},"canton":{"key":"11","code":"SO","name":"Solothurn"},"status":"Real"},{"key":"10045867","name":"Dellenackerweg","postalCode":"4146","locality":"Hochwald","commune":{"key":"2475","name":"Hochwald","shortName":"Hochwald"},"district":{"key":"1104","name":"Bezirk Dorneck"},"canton":{"key":"11","code":"SO","name":"Solothurn"},"status":"Real"},{"key":"10213940","name":"Doppletkreuz","postalCode":"4146","locality":"Hochwald","commune":{"key":"2475","name":"Hochwald","shortName":"Hochwald"},"district":{"key":"1104","name":"Bezirk Dorneck"},"canton":{"key":"11","code":"SO","name":"Solothurn"},"status":"Real"},{"key":"10094909","name":"Dornacherstrasse","postalCode":"4146","locality":"Hochwald","commune":{"key":"2475","name":"Hochwald","shortName":"Hochwald"},"district":{"key":"1104","name":"Bezirk Dorneck"},"canton":{"key":"11","code":"SO","name":"Solothurn"},"status":"Real"},{"key":"10213944","name":"Falkenflueweg","postalCode":"4146","locality":"Hochwald","commune":{"key":"2475","name":"Hochwald","shortName":"Hochwald"},"district":{"key":"1104","name":"Bezirk Dorneck"},"canton":{"key":"11","code":"SO","name":"Solothurn"},"status":"Real"},{"key":"10024473","name":"Flöschmattweg","postalCode":"4146","locality":"Hochwald","commune":{"key":"2475","name":"Hochwald","shortName":"Hochwald"},"district":{"key":"1104","name":"Bezirk Dorneck"},"canton":{"key":"11","code":"SO","name":"Solothurn"},"status":"Real"},{"key":"10213948","name":"Forimattweg","postalCode":"4146","locality":"Hochwald","commune":{"key":"2475","name":"Hochwald","shortName":"Hochwald"},"district":{"key":"1104","name":"Bezirk Dorneck"},"canton":{"key":"11","code":"SO","name":"Solothurn"},"status":"Real"},{"key":"10091786","name":"Gässli","postalCode":"4146","locality":"Hochwald","commune":{"key":"2475","name":"Hochwald","shortName":"Hochwald"},"district":{"key":"1104","name":"Bezirk Dorneck"},"canton":{"key":"11","code":"SO","name":"Solothurn"},"status":"Real"},{"key":"10065885","name":"Geissackerweg","postalCode":"4146","locality":"Hochwald","commune":{"key":"2475","name":"Hochwald","shortName":"Hochwald"},"district":{"key":"1104","name":"Bezirk Dorneck"},"canton":{"key":"11","code":"SO","name":"Solothurn"},"status":"Real"},{"key":"10045868","name":"Gempenstrasse","postalCode":"4146","locality":"Hochwald","commune":{"key":"2475","name":"Hochwald","shortName":"Hochwald"},"district":{"key":"1104","name":"Bezirk Dorneck"},"canton":{"key":"11","code":"SO","name":"Solothurn"},"status":"Real"},{"key":"10024474","name":"Gobenweg","postalCode":"4146","locality":"Hochwald","commune":{"key":"2475","name":"Hochwald","shortName":"Hochwald"},"district":{"key":"1104","name":"Bezirk Dorneck"},"canton":{"key":"11","code":"SO","name":"Solothurn"},"status":"Real"},{"key":"10024475","name":"Grundweg","postalCode":"4146","locality":"Hochwald","commune":{"key":"2475","name":"Hochwald","shortName":"Hochwald"},"district":{"key":"1104","name":"Bezirk Dorneck"},"canton":{"key":"11","code":"SO","name":"Solothurn"},"status":"Real"},{"key":"10094910","name":"Hauptstrasse","postalCode":"4146","locality":"Hochwald","commune":{"key":"2475","name":"Hochwald","shortName":"Hochwald"},"district":{"key":"1104","name":"Bezirk Dorneck"},"canton":{"key":"11","code":"SO","name":"Solothurn"},"status":"Real"},{"key":"10024476","name":"Herrenmatt","postalCode":"4146","locality":"Hochwald","commune":{"key":"2475","name":"Hochwald","shortName":"Hochwald"},"district":{"key":"1104","name":"Bezirk Dorneck"},"canton":{"key":"11","code":"SO","name":"Solothurn"},"status":"Real"},{"key":"10045869","name":"Herrenmattweg","postalCode":"4146","locality":"Hochwald","commune":{"key":"2475","name":"Hochwald","shortName":"Hochwald"},"district":{"key":"1104","name":"Bezirk Dorneck"},"canton":{"key":"11","code":"SO","name":"Solothurn"},"status":"Real"},{"key":"10065886","name":"Hinter der Linde","postalCode":"4146","locality":"Hochwald","commune":{"key":"2475","name":"Hochwald","shortName":"Hochwald"},"district":{"key":"1104","name":"Bezirk Dorneck"},"canton":{"key":"11","code":"SO","name":"Solothurn"},"status":"Real"},{"key":"10024477","name":"Höfliweg","postalCode":"4146","locality":"Hochwald","commune":{"key":"2475","name":"Hochwald","shortName":"Hochwald"},"district":{"key":"1104","name":"Bezirk Dorneck"},"canton":{"key":"11","code":"SO","name":"Solothurn"},"status":"Real"},{"key":"10213952","name":"Hollenrainweg","postalCode":"4146","locality":"Hochwald","commune":{"key":"2475","name":"Hochwald","shortName":"Hochwald"},"district":{"key":"1104","name":"Bezirk Dorneck"},"canton":{"key":"11","code":"SO","name":"Solothurn"},"status":"Real"},{"key":"10024478","name":"Josengartenweg","postalCode":"4146","locality":"Hochwald","commune":{"key":"2475","name":"Hochwald","shortName":"Hochwald"},"district":{"key":"1104","name":"Bezirk Dorneck"},"canton":{"key":"11","code":"SO","name":"Solothurn"},"status":"Real"},{"key":"10213956","name":"Kapellenweg","postalCode":"4146","locality":"Hochwald","commune":{"key":"2475","name":"Hochwald","shortName":"Hochwald"},"district":{"key":"1104","name":"Bezirk Dorneck"},"canton":{"key":"11","code":"SO","name":"Solothurn"},"status":"Real"},{"key":"10024479","name":"Kirchmattweg","postalCode":"4146","locality":"Hochwald","commune":{"key":"2475","name":"Hochwald","shortName":"Hochwald"},"district":{"key":"1104","name":"Bezirk Dorneck"},"canton":{"key":"11","code":"SO","name":"Solothurn"},"status":"Real"},{"key":"10094911","name":"Kirchrain","postalCode":"4146","locality":"Hochwald","commune":{"key":"2475","name":"Hochwald","shortName":"Hochwald"},"district":{"key":"1104","name":"Bezirk Dorneck"},"canton":{"key":"11","code":"SO","name":"Solothurn"},"status":"Real"},{"key":"10065887","name":"Kirchweg","postalCode":"4146","locality":"Hochwald","commune":{"key":"2475","name":"Hochwald","shortName":"Hochwald"},"district":{"key":"1104","name":"Bezirk Dorneck"},"canton":{"key":"11","code":"SO","name":"Solothurn"},"status":"Real"},{"key":"10114234","name":"Kreuzmattweg","postalCode":"4146","locality":"Hochwald","commune":{"key":"2475","name":"Hochwald","shortName":"Hochwald"},"district":{"key":"1104","name":"Bezirk Dorneck"},"canton":{"key":"11","code":"SO","name":"Solothurn"},"status":"Real"},{"key":"10178119","name":"Langackerweg","postalCode":"4146","locality":"Hochwald","commune":{"key":"2475","name":"Hochwald","shortName":"Hochwald"},"district":{"key":"1104","name":"Bezirk Dorneck"},"canton":{"key":"11","code":"SO","name":"Solothurn"},"status":"Real"},{"key":"10094912","name":"Laubigartenweg","postalCode":"4146","locality":"Hochwald","commune":{"key":"2475","name":"Hochwald","shortName":"Hochwald"},"district":{"key":"1104","name":"Bezirk Dorneck"},"canton":{"key":"11","code":"SO","name":"Solothurn"},"status":"Real"},{"key":"10213960","name":"Legimatt","postalCode":"4146","locality":"Hochwald","commune":{"key":"2475","name":"Hochwald","shortName":"Hochwald"},"district":{"key":"1104","name":"Bezirk Dorneck"},"canton":{"key":"11","code":"SO","name":"Solothurn"},"status":"Real"},{"key":"10105058","name":"Lohweg","postalCode":"4146","locality":"Hochwald","commune":{"key":"2475","name":"Hochwald","shortName":"Hochwald"},"district":{"key":"1104","name":"Bezirk Dorneck"},"canton":{"key":"11","code":"SO","name":"Solothurn"},"status":"Real"},{"key":"10210886","name":"Mattenweg","postalCode":"4146","locality":"Hochwald","commune":{"key":"2475","name":"Hochwald","shortName":"Hochwald"},"district":{"key":"1104","name":"Bezirk Dorneck"},"canton":{"key":"11","code":"SO","name":"Solothurn"},"status":"Real"},{"key":"10213964","name":"Munimatt","postalCode":"4146","locality":"Hochwald","commune":{"key":"2475","name":"Hochwald","shortName":"Hochwald"},"district":{"key":"1104","name":"Bezirk Dorneck"},"canton":{"key":"11","code":"SO","name":"Solothurn"},"status":"Real"},{"key":"10031957","name":"Nettenbergweg","postalCode":"4146","locality":"Hochwald","commune":{"key":"2475","name":"Hochwald","shortName":"Hochwald"},"district":{"key":"1104","name":"Bezirk Dorneck"},"canton":{"key":"11","code":"SO","name":"Solothurn"},"status":"Real"},{"key":"10213967","name":"Neumattweg","postalCode":"4146","locality":"Hochwald","commune":{"key":"2475","name":"Hochwald","shortName":"Hochwald"},"district":{"key":"1104","name":"Bezirk Dorneck"},"canton":{"key":"11","code":"SO","name":"Solothurn"},"status":"Real"},{"key":"10213971","name":"Nüglerweg","postalCode":"4146","locality":"Hochwald","commune":{"key":"2475","name":"Hochwald","shortName":"Hochwald"},"district":{"key":"1104","name":"Bezirk Dorneck"},"canton":{"key":"11","code":"SO","name":"Solothurn"},"status":"Real"},{"key":"10024480","name":"Oberdorfstrasse","postalCode":"4146","locality":"Hochwald","commune":{"key":"2475","name":"Hochwald","shortName":"Hochwald"},"district":{"key":"1104","name":"Bezirk Dorneck"},"canton":{"key":"11","code":"SO","name":"Solothurn"},"status":"Real"},{"key":"10090635","name":"Obertiefental","postalCode":"4146","locality":"Hochwald","commune":{"key":"2475","name":"Hochwald","shortName":"Hochwald"},"district":{"key":"1104","name":"Bezirk Dorneck"},"canton":{"key":"11","code":"SO","name":"Solothurn"},"status":"Real"},{"key":"10024481","name":"Passwangstrasse","postalCode":"4146","locality":"Hochwald","commune":{"key":"2475","name":"Hochwald","shortName":"Hochwald"},"district":{"key":"1104","name":"Bezirk Dorneck"},"canton":{"key":"11","code":"SO","name":"Solothurn"},"status":"Real"},{"key":"10065888","name":"Radackerweg","postalCode":"4146","locality":"Hochwald","commune":{"key":"2475","name":"Hochwald","shortName":"Hochwald"},"district":{"key":"1104","name":"Bezirk Dorneck"},"canton":{"key":"11","code":"SO","name":"Solothurn"},"status":"Real"},{"key":"10134390","name":"Reservoirweg","postalCode":"4146","locality":"Hochwald","commune":{"key":"2475","name":"Hochwald","shortName":"Hochwald"},"district":{"key":"1104","name":"Bezirk Dorneck"},"canton":{"key":"11","code":"SO","name":"Solothurn"},"status":"Real"},{"key":"10024482","name":"Rötiweg","postalCode":"4146","locality":"Hochwald","commune":{"key":"2475","name":"Hochwald","shortName":"Hochwald"},"district":{"key":"1104","name":"Bezirk Dorneck"},"canton":{"key":"11","code":"SO","name":"Solothurn"},"status":"Real"},{"key":"10213975","name":"Rübackerweg","postalCode":"4146","locality":"Hochwald","commune":{"key":"2475","name":"Hochwald","shortName":"Hochwald"},"district":{"key":"1104","name":"Bezirk Dorneck"},"canton":{"key":"11","code":"SO","name":"Solothurn"},"status":"Real"},{"key":"10024483","name":"Rüteliwaldweg","postalCode":"4146","locality":"Hochwald","commune":{"key":"2475","name":"Hochwald","shortName":"Hochwald"},"district":{"key":"1104","name":"Bezirk Dorneck"},"canton":{"key":"11","code":"SO","name":"Solothurn"},"status":"Real"},{"key":"10090636","name":"Rüteliweg","postalCode":"4146","locality":"Hochwald","commune":{"key":"2475","name":"Hochwald","shortName":"Hochwald"},"district":{"key":"1104","name":"Bezirk Dorneck"},"canton":{"key":"11","code":"SO","name":"Solothurn"},"status":"Real"},{"key":"10186069","name":"Seewenstrasse","postalCode":"4146","locality":"Hochwald","commune":{"key":"2475","name":"Hochwald","shortName":"Hochwald"},"district":{"key":"1104","name":"Bezirk Dorneck"},"canton":{"key":"11","code":"SO","name":"Solothurn"},"status":"Real"},{"key":"10116657","name":"Seewenweg","postalCode":"4146","locality":"Hochwald","commune":{"key":"2475","name":"Hochwald","shortName":"Hochwald"},"district":{"key":"1104","name":"Bezirk Dorneck"},"canton":{"key":"11","code":"SO","name":"Solothurn"},"status":"Real"},{"key":"10024484","name":"Stelzenweg","postalCode":"4146","locality":"Hochwald","commune":{"key":"2475","name":"Hochwald","shortName":"Hochwald"},"district":{"key":"1104","name":"Bezirk Dorneck"},"canton":{"key":"11","code":"SO","name":"Solothurn"},"status":"Real"},{"key":"10024485","name":"Stockenweg","postalCode":"4146","locality":"Hochwald","commune":{"key":"2475","name":"Hochwald","shortName":"Hochwald"},"district":{"key":"1104","name":"Bezirk Dorneck"},"canton":{"key":"11","code":"SO","name":"Solothurn"},"status":"Real"},{"key":"10213979","name":"Strange","postalCode":"4146","locality":"Hochwald","commune":{"key":"2475","name":"Hochwald","shortName":"Hochwald"},"district":{"key":"1104","name":"Bezirk Dorneck"},"canton":{"key":"11","code":"SO","name":"Solothurn"},"status":"Real"},{"key":"10147906","name":"Unterer Buchackerweg","postalCode":"4146","locality":"Hochwald","commune":{"key":"2475","name":"Hochwald","shortName":"Hochwald"},"district":{"key":"1104","name":"Bezirk Dorneck"},"canton":{"key":"11","code":"SO","name":"Solothurn"},"status":"Real"},{"key":"10213981","name":"Waldrain","postalCode":"4146","locality":"Hochwald","commune":{"key":"2475","name":"Hochwald","shortName":"Hochwald"},"district":{"key":"1104","name":"Bezirk Dorneck"},"canton":{"key":"11","code":"SO","name":"Solothurn"},"status":"Real"},{"key":"10213985","name":"Wenstelweg","postalCode":"4146","locality":"Hochwald","commune":{"key":"2475","name":"Hochwald","shortName":"Hochwald"},"district":{"key":"1104","name":"Bezirk Dorneck"},"canton":{"key":"11","code":"SO","name":"Solothurn"},"status":"Real"},{"key":"10185134","name":"Ziegelscheuer","postalCode":"4146","locality":"Hochwald","commune":{"key":"2475","name":"Hochwald","shortName":"Hochwald"},"district":{"key":"1104","name":"Bezirk Dorneck"},"canton":{"key":"11","code":"SO","name":"Solothurn"},"status":"Real"},]