[{"name":"Auf der Bärenhütte","postalCode":"66989","locality":"Nünschweiler","municipality":{"key":"07340035","name":"Nünschweiler","type":"Kreisangehörige_Gemeinde"},"district":{"key":"07340","name":"Südwestpfalz","type":"Landkreis"},"federalState":{"key":"07","name":"Rheinland-Pfalz"}},{"name":"Bogenstr.","postalCode":"66989","locality":"Nünschweiler","municipality":{"key":"07340035","name":"Nünschweiler","type":"Kreisangehörige_Gemeinde"},"district":{"key":"07340","name":"Südwestpfalz","type":"Landkreis"},"federalState":{"key":"07","name":"Rheinland-Pfalz"}},{"name":"Dellfelder Weg","postalCode":"66989","locality":"Nünschweiler","municipality":{"key":"07340035","name":"Nünschweiler","type":"Kreisangehörige_Gemeinde"},"district":{"key":"07340","name":"Südwestpfalz","type":"Landkreis"},"federalState":{"key":"07","name":"Rheinland-Pfalz"}},{"name":"Füllengartenstr.","postalCode":"66989","locality":"Nünschweiler","municipality":{"key":"07340035","name":"Nünschweiler","type":"Kreisangehörige_Gemeinde"},"district":{"key":"07340","name":"Südwestpfalz","type":"Landkreis"},"federalState":{"key":"07","name":"Rheinland-Pfalz"}},{"name":"Graf-Heinrich-Ring","postalCode":"66989","locality":"Nünschweiler","municipality":{"key":"07340035","name":"Nünschweiler","type":"Kreisangehörige_Gemeinde"},"district":{"key":"07340","name":"Südwestpfalz","type":"Landkreis"},"federalState":{"key":"07","name":"Rheinland-Pfalz"}},{"name":"Hangstr.","postalCode":"66989","locality":"Nünschweiler","municipality":{"key":"07340035","name":"Nünschweiler","type":"Kreisangehörige_Gemeinde"},"district":{"key":"07340","name":"Südwestpfalz","type":"Landkreis"},"federalState":{"key":"07","name":"Rheinland-Pfalz"}},{"name":"Hauptstr.","postalCode":"66989","locality":"Nünschweiler","municipality":{"key":"07340035","name":"Nünschweiler","type":"Kreisangehörige_Gemeinde"},"district":{"key":"07340","name":"Südwestpfalz","type":"Landkreis"},"federalState":{"key":"07","name":"Rheinland-Pfalz"}},{"name":"Höheischweiler Weg","postalCode":"66989","locality":"Nünschweiler","municipality":{"key":"07340035","name":"Nünschweiler","type":"Kreisangehörige_Gemeinde"},"district":{"key":"07340","name":"Südwestpfalz","type":"Landkreis"},"federalState":{"key":"07","name":"Rheinland-Pfalz"}},{"name":"Johann-Exter-Str.","postalCode":"66989","locality":"Nünschweiler","municipality":{"key":"07340035","name":"Nünschweiler","type":"Kreisangehörige_Gemeinde"},"district":{"key":"07340","name":"Südwestpfalz","type":"Landkreis"},"federalState":{"key":"07","name":"Rheinland-Pfalz"}},{"name":"Kirchenstr.","postalCode":"66989","locality":"Nünschweiler","municipality":{"key":"07340035","name":"Nünschweiler","type":"Kreisangehörige_Gemeinde"},"district":{"key":"07340","name":"Südwestpfalz","type":"Landkreis"},"federalState":{"key":"07","name":"Rheinland-Pfalz"}},{"name":"Kirchstr.","postalCode":"66989","locality":"Nünschweiler","municipality":{"key":"07340035","name":"Nünschweiler","type":"Kreisangehörige_Gemeinde"},"district":{"key":"07340","name":"Südwestpfalz","type":"Landkreis"},"federalState":{"key":"07","name":"Rheinland-Pfalz"}},{"name":"Schulstr.","postalCode":"66989","locality":"Nünschweiler","municipality":{"key":"07340035","name":"Nünschweiler","type":"Kreisangehörige_Gemeinde"},"district":{"key":"07340","name":"Südwestpfalz","type":"Landkreis"},"federalState":{"key":"07","name":"Rheinland-Pfalz"}},{"name":"Siedlungsstr.","postalCode":"66989","locality":"Nünschweiler","municipality":{"key":"07340035","name":"Nünschweiler","type":"Kreisangehörige_Gemeinde"},"district":{"key":"07340","name":"Südwestpfalz","type":"Landkreis"},"federalState":{"key":"07","name":"Rheinland-Pfalz"}},{"name":"Ziegelhütter Str.","postalCode":"66989","locality":"Nünschweiler","municipality":{"key":"07340035","name":"Nünschweiler","type":"Kreisangehörige_Gemeinde"},"district":{"key":"07340","name":"Südwestpfalz","type":"Landkreis"},"federalState":{"key":"07","name":"Rheinland-Pfalz"}},]