[{"name":"Albertstr.","postalCode":"79787","locality":"Lauchringen","municipality":{"key":"08337065","name":"Lauchringen","type":"Kreisangehörige_Gemeinde"},"district":{"key":"08337","name":"Waldshut","type":"Landkreis"},"federalState":{"key":"08","name":"Baden-Württemberg"}},{"name":"Alemannenstr.","postalCode":"79787","locality":"Lauchringen","municipality":{"key":"08337065","name":"Lauchringen","type":"Kreisangehörige_Gemeinde"},"district":{"key":"08337","name":"Waldshut","type":"Landkreis"},"federalState":{"key":"08","name":"Baden-Württemberg"}},{"name":"Alte Rathausstr.","postalCode":"79787","locality":"Lauchringen","municipality":{"key":"08337065","name":"Lauchringen","type":"Kreisangehörige_Gemeinde"},"district":{"key":"08337","name":"Waldshut","type":"Landkreis"},"federalState":{"key":"08","name":"Baden-Württemberg"}},{"name":"Alter Schulplatz","postalCode":"79787","locality":"Lauchringen","municipality":{"key":"08337065","name":"Lauchringen","type":"Kreisangehörige_Gemeinde"},"district":{"key":"08337","name":"Waldshut","type":"Landkreis"},"federalState":{"key":"08","name":"Baden-Württemberg"}},{"name":"Am Eichwald","postalCode":"79787","locality":"Lauchringen","municipality":{"key":"08337065","name":"Lauchringen","type":"Kreisangehörige_Gemeinde"},"district":{"key":"08337","name":"Waldshut","type":"Landkreis"},"federalState":{"key":"08","name":"Baden-Württemberg"}},{"name":"Am Ibrunnenrain","postalCode":"79787","locality":"Lauchringen","municipality":{"key":"08337065","name":"Lauchringen","type":"Kreisangehörige_Gemeinde"},"district":{"key":"08337","name":"Waldshut","type":"Landkreis"},"federalState":{"key":"08","name":"Baden-Württemberg"}},{"name":"Am Mühlekanal","postalCode":"79787","locality":"Lauchringen","municipality":{"key":"08337065","name":"Lauchringen","type":"Kreisangehörige_Gemeinde"},"district":{"key":"08337","name":"Waldshut","type":"Landkreis"},"federalState":{"key":"08","name":"Baden-Württemberg"}},{"name":"Am Rappennest","postalCode":"79787","locality":"Lauchringen","municipality":{"key":"08337065","name":"Lauchringen","type":"Kreisangehörige_Gemeinde"},"district":{"key":"08337","name":"Waldshut","type":"Landkreis"},"federalState":{"key":"08","name":"Baden-Württemberg"}},{"name":"Badstr.","postalCode":"79787","locality":"Lauchringen","municipality":{"key":"08337065","name":"Lauchringen","type":"Kreisangehörige_Gemeinde"},"district":{"key":"08337","name":"Waldshut","type":"Landkreis"},"federalState":{"key":"08","name":"Baden-Württemberg"}},{"name":"Bahnhofstr.","postalCode":"79787","locality":"Lauchringen","municipality":{"key":"08337065","name":"Lauchringen","type":"Kreisangehörige_Gemeinde"},"district":{"key":"08337","name":"Waldshut","type":"Landkreis"},"federalState":{"key":"08","name":"Baden-Württemberg"}},{"name":"Beerengasse","postalCode":"79787","locality":"Lauchringen","municipality":{"key":"08337065","name":"Lauchringen","type":"Kreisangehörige_Gemeinde"},"district":{"key":"08337","name":"Waldshut","type":"Landkreis"},"federalState":{"key":"08","name":"Baden-Württemberg"}},{"name":"Beethovenstr.","postalCode":"79787","locality":"Lauchringen","municipality":{"key":"08337065","name":"Lauchringen","type":"Kreisangehörige_Gemeinde"},"district":{"key":"08337","name":"Waldshut","type":"Landkreis"},"federalState":{"key":"08","name":"Baden-Württemberg"}},{"name":"Belchenweg","postalCode":"79787","locality":"Lauchringen","municipality":{"key":"08337065","name":"Lauchringen","type":"Kreisangehörige_Gemeinde"},"district":{"key":"08337","name":"Waldshut","type":"Landkreis"},"federalState":{"key":"08","name":"Baden-Württemberg"}},{"name":"Bergstr.","postalCode":"79787","locality":"Lauchringen","municipality":{"key":"08337065","name":"Lauchringen","type":"Kreisangehörige_Gemeinde"},"district":{"key":"08337","name":"Waldshut","type":"Landkreis"},"federalState":{"key":"08","name":"Baden-Württemberg"}},{"name":"Bertold-Schmidt-Platz","postalCode":"79787","locality":"Lauchringen","municipality":{"key":"08337065","name":"Lauchringen","type":"Kreisangehörige_Gemeinde"},"district":{"key":"08337","name":"Waldshut","type":"Landkreis"},"federalState":{"key":"08","name":"Baden-Württemberg"}},{"name":"Brahmsweg","postalCode":"79787","locality":"Lauchringen","municipality":{"key":"08337065","name":"Lauchringen","type":"Kreisangehörige_Gemeinde"},"district":{"key":"08337","name":"Waldshut","type":"Landkreis"},"federalState":{"key":"08","name":"Baden-Württemberg"}},{"name":"Brucknerweg","postalCode":"79787","locality":"Lauchringen","municipality":{"key":"08337065","name":"Lauchringen","type":"Kreisangehörige_Gemeinde"},"district":{"key":"08337","name":"Waldshut","type":"Landkreis"},"federalState":{"key":"08","name":"Baden-Württemberg"}},{"name":"Brunnenwiesen","postalCode":"79787","locality":"Lauchringen","municipality":{"key":"08337065","name":"Lauchringen","type":"Kreisangehörige_Gemeinde"},"district":{"key":"08337","name":"Waldshut","type":"Landkreis"},"federalState":{"key":"08","name":"Baden-Württemberg"}},{"name":"Bühlweg","postalCode":"79787","locality":"Lauchringen","municipality":{"key":"08337065","name":"Lauchringen","type":"Kreisangehörige_Gemeinde"},"district":{"key":"08337","name":"Waldshut","type":"Landkreis"},"federalState":{"key":"08","name":"Baden-Württemberg"}},{"name":"Bundesstr.","postalCode":"79787","locality":"Lauchringen","municipality":{"key":"08337065","name":"Lauchringen","type":"Kreisangehörige_Gemeinde"},"district":{"key":"08337","name":"Waldshut","type":"Landkreis"},"federalState":{"key":"08","name":"Baden-Württemberg"}},{"name":"Bündtenweg","postalCode":"79787","locality":"Lauchringen","municipality":{"key":"08337065","name":"Lauchringen","type":"Kreisangehörige_Gemeinde"},"district":{"key":"08337","name":"Waldshut","type":"Landkreis"},"federalState":{"key":"08","name":"Baden-Württemberg"}},{"name":"Carl-Zeiss-Str.","postalCode":"79761","locality":"Waldshut-Tiengen","municipality":{"key":"08337126","name":"Waldshut-Tiengen, Stadt","type":"Große_Kreisstadt"},"district":{"key":"08337","name":"Waldshut","type":"Landkreis"},"federalState":{"key":"08","name":"Baden-Württemberg"}},{"name":"Chäpelleweg","postalCode":"79761","locality":"Waldshut-Tiengen","municipality":{"key":"08337126","name":"Waldshut-Tiengen, Stadt","type":"Große_Kreisstadt"},"district":{"key":"08337","name":"Waldshut","type":"Landkreis"},"federalState":{"key":"08","name":"Baden-Württemberg"}},{"name":"Chilbiweg","postalCode":"79761","locality":"Waldshut-Tiengen","municipality":{"key":"08337126","name":"Waldshut-Tiengen, Stadt","type":"Große_Kreisstadt"},"district":{"key":"08337","name":"Waldshut","type":"Landkreis"},"federalState":{"key":"08","name":"Baden-Württemberg"}},{"name":"Courtenaystr.","postalCode":"79761","locality":"Waldshut-Tiengen","municipality":{"key":"08337126","name":"Waldshut-Tiengen, Stadt","type":"Große_Kreisstadt"},"district":{"key":"08337","name":"Waldshut","type":"Landkreis"},"federalState":{"key":"08","name":"Baden-Württemberg"}},{"name":"Dammweg","postalCode":"79787","locality":"Lauchringen","municipality":{"key":"08337065","name":"Lauchringen","type":"Kreisangehörige_Gemeinde"},"district":{"key":"08337","name":"Waldshut","type":"Landkreis"},"federalState":{"key":"08","name":"Baden-Württemberg"}},{"name":"Detzelner Str.","postalCode":"79787","locality":"Lauchringen","municipality":{"key":"08337065","name":"Lauchringen","type":"Kreisangehörige_Gemeinde"},"district":{"key":"08337","name":"Waldshut","type":"Landkreis"},"federalState":{"key":"08","name":"Baden-Württemberg"}},{"name":"Dr.-Konrad-Adenauer-Ring","postalCode":"79787","locality":"Lauchringen","municipality":{"key":"08337065","name":"Lauchringen","type":"Kreisangehörige_Gemeinde"},"district":{"key":"08337","name":"Waldshut","type":"Landkreis"},"federalState":{"key":"08","name":"Baden-Württemberg"}},{"name":"Dr.-Konrad-Adenauer-Ring/Riedpark","postalCode":"79787","locality":"Lauchringen","municipality":{"key":"08337065","name":"Lauchringen","type":"Kreisangehörige_Gemeinde"},"district":{"key":"08337","name":"Waldshut","type":"Landkreis"},"federalState":{"key":"08","name":"Baden-Württemberg"}},{"name":"Dr.-Urnau-Str.","postalCode":"79787","locality":"Lauchringen","municipality":{"key":"08337065","name":"Lauchringen","type":"Kreisangehörige_Gemeinde"},"district":{"key":"08337","name":"Waldshut","type":"Landkreis"},"federalState":{"key":"08","name":"Baden-Württemberg"}},{"name":"Eberwiesenstr.","postalCode":"79787","locality":"Lauchringen","municipality":{"key":"08337065","name":"Lauchringen","type":"Kreisangehörige_Gemeinde"},"district":{"key":"08337","name":"Waldshut","type":"Landkreis"},"federalState":{"key":"08","name":"Baden-Württemberg"}},{"name":"Edwin-Kessler-Str.","postalCode":"79787","locality":"Lauchringen","municipality":{"key":"08337065","name":"Lauchringen","type":"Kreisangehörige_Gemeinde"},"district":{"key":"08337","name":"Waldshut","type":"Landkreis"},"federalState":{"key":"08","name":"Baden-Württemberg"}},{"name":"Eichendorffstr.","postalCode":"79787","locality":"Lauchringen","municipality":{"key":"08337065","name":"Lauchringen","type":"Kreisangehörige_Gemeinde"},"district":{"key":"08337","name":"Waldshut","type":"Landkreis"},"federalState":{"key":"08","name":"Baden-Württemberg"}},{"name":"Eichlestr.","postalCode":"79787","locality":"Lauchringen","municipality":{"key":"08337065","name":"Lauchringen","type":"Kreisangehörige_Gemeinde"},"district":{"key":"08337","name":"Waldshut","type":"Landkreis"},"federalState":{"key":"08","name":"Baden-Württemberg"}},{"name":"Fabrikstr.","postalCode":"79787","locality":"Lauchringen","municipality":{"key":"08337065","name":"Lauchringen","type":"Kreisangehörige_Gemeinde"},"district":{"key":"08337","name":"Waldshut","type":"Landkreis"},"federalState":{"key":"08","name":"Baden-Württemberg"}},{"name":"Feldbergstr.","postalCode":"79787","locality":"Lauchringen","municipality":{"key":"08337065","name":"Lauchringen","type":"Kreisangehörige_Gemeinde"},"district":{"key":"08337","name":"Waldshut","type":"Landkreis"},"federalState":{"key":"08","name":"Baden-Württemberg"}},{"name":"Franz-Simmler-Str.","postalCode":"79787","locality":"Lauchringen","municipality":{"key":"08337065","name":"Lauchringen","type":"Kreisangehörige_Gemeinde"},"district":{"key":"08337","name":"Waldshut","type":"Landkreis"},"federalState":{"key":"08","name":"Baden-Württemberg"}},{"name":"Friedhofstr.","postalCode":"79787","locality":"Lauchringen","municipality":{"key":"08337065","name":"Lauchringen","type":"Kreisangehörige_Gemeinde"},"district":{"key":"08337","name":"Waldshut","type":"Landkreis"},"federalState":{"key":"08","name":"Baden-Württemberg"}},{"name":"Friedrich-Fischer-Str.","postalCode":"79787","locality":"Lauchringen","municipality":{"key":"08337065","name":"Lauchringen","type":"Kreisangehörige_Gemeinde"},"district":{"key":"08337","name":"Waldshut","type":"Landkreis"},"federalState":{"key":"08","name":"Baden-Württemberg"}},{"name":"Fußgänger-Querungshilfe","postalCode":"79787","locality":"Lauchringen","municipality":{"key":"08337065","name":"Lauchringen","type":"Kreisangehörige_Gemeinde"},"district":{"key":"08337","name":"Waldshut","type":"Landkreis"},"federalState":{"key":"08","name":"Baden-Württemberg"}},{"name":"Fußgängerübergang (Ampel)","postalCode":"79787","locality":"Lauchringen","municipality":{"key":"08337065","name":"Lauchringen","type":"Kreisangehörige_Gemeinde"},"district":{"key":"08337","name":"Waldshut","type":"Landkreis"},"federalState":{"key":"08","name":"Baden-Württemberg"}},{"name":"Fußgängerunterführung","postalCode":"79787","locality":"Lauchringen","municipality":{"key":"08337065","name":"Lauchringen","type":"Kreisangehörige_Gemeinde"},"district":{"key":"08337","name":"Waldshut","type":"Landkreis"},"federalState":{"key":"08","name":"Baden-Württemberg"}},{"name":"Gartenstr.","postalCode":"79787","locality":"Lauchringen","municipality":{"key":"08337065","name":"Lauchringen","type":"Kreisangehörige_Gemeinde"},"district":{"key":"08337","name":"Waldshut","type":"Landkreis"},"federalState":{"key":"08","name":"Baden-Württemberg"}},{"name":"Gerhart-Hauptmann-Str.","postalCode":"79787","locality":"Lauchringen","municipality":{"key":"08337065","name":"Lauchringen","type":"Kreisangehörige_Gemeinde"},"district":{"key":"08337","name":"Waldshut","type":"Landkreis"},"federalState":{"key":"08","name":"Baden-Württemberg"}},{"name":"Goethestr.","postalCode":"79787","locality":"Lauchringen","municipality":{"key":"08337065","name":"Lauchringen","type":"Kreisangehörige_Gemeinde"},"district":{"key":"08337","name":"Waldshut","type":"Landkreis"},"federalState":{"key":"08","name":"Baden-Württemberg"}},{"name":"Grenzweg","postalCode":"79787","locality":"Lauchringen","municipality":{"key":"08337065","name":"Lauchringen","type":"Kreisangehörige_Gemeinde"},"district":{"key":"08337","name":"Waldshut","type":"Landkreis"},"federalState":{"key":"08","name":"Baden-Württemberg"}},{"name":"Greutwiesenstr.","postalCode":"79787","locality":"Lauchringen","municipality":{"key":"08337065","name":"Lauchringen","type":"Kreisangehörige_Gemeinde"},"district":{"key":"08337","name":"Waldshut","type":"Landkreis"},"federalState":{"key":"08","name":"Baden-Württemberg"}},{"name":"Grundstr.","postalCode":"79787","locality":"Lauchringen","municipality":{"key":"08337065","name":"Lauchringen","type":"Kreisangehörige_Gemeinde"},"district":{"key":"08337","name":"Waldshut","type":"Landkreis"},"federalState":{"key":"08","name":"Baden-Württemberg"}},{"name":"Gustav-Winkler-Str.","postalCode":"79787","locality":"Lauchringen","municipality":{"key":"08337065","name":"Lauchringen","type":"Kreisangehörige_Gemeinde"},"district":{"key":"08337","name":"Waldshut","type":"Landkreis"},"federalState":{"key":"08","name":"Baden-Württemberg"}},{"name":"Händelstr.","postalCode":"79787","locality":"Lauchringen","municipality":{"key":"08337065","name":"Lauchringen","type":"Kreisangehörige_Gemeinde"},"district":{"key":"08337","name":"Waldshut","type":"Landkreis"},"federalState":{"key":"08","name":"Baden-Württemberg"}},{"name":"Hans-Thoma-Str.","postalCode":"79787","locality":"Lauchringen","municipality":{"key":"08337065","name":"Lauchringen","type":"Kreisangehörige_Gemeinde"},"district":{"key":"08337","name":"Waldshut","type":"Landkreis"},"federalState":{"key":"08","name":"Baden-Württemberg"}},{"name":"Hauptstr.","postalCode":"79787","locality":"Lauchringen","municipality":{"key":"08337065","name":"Lauchringen","type":"Kreisangehörige_Gemeinde"},"district":{"key":"08337","name":"Waldshut","type":"Landkreis"},"federalState":{"key":"08","name":"Baden-Württemberg"}},{"name":"Hebelstr.","postalCode":"79787","locality":"Lauchringen","municipality":{"key":"08337065","name":"Lauchringen","type":"Kreisangehörige_Gemeinde"},"district":{"key":"08337","name":"Waldshut","type":"Landkreis"},"federalState":{"key":"08","name":"Baden-Württemberg"}},{"name":"Heidenäckerstr.","postalCode":"79787","locality":"Lauchringen","municipality":{"key":"08337065","name":"Lauchringen","type":"Kreisangehörige_Gemeinde"},"district":{"key":"08337","name":"Waldshut","type":"Landkreis"},"federalState":{"key":"08","name":"Baden-Württemberg"}},{"name":"Herderstr.","postalCode":"79787","locality":"Lauchringen","municipality":{"key":"08337065","name":"Lauchringen","type":"Kreisangehörige_Gemeinde"},"district":{"key":"08337","name":"Waldshut","type":"Landkreis"},"federalState":{"key":"08","name":"Baden-Württemberg"}},{"name":"Herrenfeldweg","postalCode":"79787","locality":"Lauchringen","municipality":{"key":"08337065","name":"Lauchringen","type":"Kreisangehörige_Gemeinde"},"district":{"key":"08337","name":"Waldshut","type":"Landkreis"},"federalState":{"key":"08","name":"Baden-Württemberg"}},{"name":"Hintergasse","postalCode":"79787","locality":"Lauchringen","municipality":{"key":"08337065","name":"Lauchringen","type":"Kreisangehörige_Gemeinde"},"district":{"key":"08337","name":"Waldshut","type":"Landkreis"},"federalState":{"key":"08","name":"Baden-Württemberg"}},{"name":"Hochstr.","postalCode":"79787","locality":"Lauchringen","municipality":{"key":"08337065","name":"Lauchringen","type":"Kreisangehörige_Gemeinde"},"district":{"key":"08337","name":"Waldshut","type":"Landkreis"},"federalState":{"key":"08","name":"Baden-Württemberg"}},{"name":"Hohrainstr.","postalCode":"79787","locality":"Lauchringen","municipality":{"key":"08337065","name":"Lauchringen","type":"Kreisangehörige_Gemeinde"},"district":{"key":"08337","name":"Waldshut","type":"Landkreis"},"federalState":{"key":"08","name":"Baden-Württemberg"}},{"name":"Holzäckerstr.","postalCode":"79787","locality":"Lauchringen","municipality":{"key":"08337065","name":"Lauchringen","type":"Kreisangehörige_Gemeinde"},"district":{"key":"08337","name":"Waldshut","type":"Landkreis"},"federalState":{"key":"08","name":"Baden-Württemberg"}},{"name":"Horheimer Str.","postalCode":"79787","locality":"Lauchringen","municipality":{"key":"08337065","name":"Lauchringen","type":"Kreisangehörige_Gemeinde"},"district":{"key":"08337","name":"Waldshut","type":"Landkreis"},"federalState":{"key":"08","name":"Baden-Württemberg"}},{"name":"Ibrunnenstr.","postalCode":"79787","locality":"Lauchringen","municipality":{"key":"08337065","name":"Lauchringen","type":"Kreisangehörige_Gemeinde"},"district":{"key":"08337","name":"Waldshut","type":"Landkreis"},"federalState":{"key":"08","name":"Baden-Württemberg"}},{"name":"Im Acker","postalCode":"79787","locality":"Lauchringen","municipality":{"key":"08337065","name":"Lauchringen","type":"Kreisangehörige_Gemeinde"},"district":{"key":"08337","name":"Waldshut","type":"Landkreis"},"federalState":{"key":"08","name":"Baden-Württemberg"}},{"name":"Im Greut","postalCode":"79787","locality":"Lauchringen","municipality":{"key":"08337065","name":"Lauchringen","type":"Kreisangehörige_Gemeinde"},"district":{"key":"08337","name":"Waldshut","type":"Landkreis"},"federalState":{"key":"08","name":"Baden-Württemberg"}},{"name":"Im Kleinfeld","postalCode":"79787","locality":"Lauchringen","municipality":{"key":"08337065","name":"Lauchringen","type":"Kreisangehörige_Gemeinde"},"district":{"key":"08337","name":"Waldshut","type":"Landkreis"},"federalState":{"key":"08","name":"Baden-Württemberg"}},{"name":"Im Nack","postalCode":"79787","locality":"Lauchringen","municipality":{"key":"08337065","name":"Lauchringen","type":"Kreisangehörige_Gemeinde"},"district":{"key":"08337","name":"Waldshut","type":"Landkreis"},"federalState":{"key":"08","name":"Baden-Württemberg"}},{"name":"Industriestr.","postalCode":"79787","locality":"Lauchringen","municipality":{"key":"08337065","name":"Lauchringen","type":"Kreisangehörige_Gemeinde"},"district":{"key":"08337","name":"Waldshut","type":"Landkreis"},"federalState":{"key":"08","name":"Baden-Württemberg"}},{"name":"Jahnstr.","postalCode":"79787","locality":"Lauchringen","municipality":{"key":"08337065","name":"Lauchringen","type":"Kreisangehörige_Gemeinde"},"district":{"key":"08337","name":"Waldshut","type":"Landkreis"},"federalState":{"key":"08","name":"Baden-Württemberg"}},{"name":"Kadelburger Str.","postalCode":"79787","locality":"Lauchringen","municipality":{"key":"08337065","name":"Lauchringen","type":"Kreisangehörige_Gemeinde"},"district":{"key":"08337","name":"Waldshut","type":"Landkreis"},"federalState":{"key":"08","name":"Baden-Württemberg"}},{"name":"Kirchstr.","postalCode":"79787","locality":"Lauchringen","municipality":{"key":"08337065","name":"Lauchringen","type":"Kreisangehörige_Gemeinde"},"district":{"key":"08337","name":"Waldshut","type":"Landkreis"},"federalState":{"key":"08","name":"Baden-Württemberg"}},{"name":"Klettgaustr.","postalCode":"79787","locality":"Lauchringen","municipality":{"key":"08337065","name":"Lauchringen","type":"Kreisangehörige_Gemeinde"},"district":{"key":"08337","name":"Waldshut","type":"Landkreis"},"federalState":{"key":"08","name":"Baden-Württemberg"}},{"name":"Kolpingstr.","postalCode":"79787","locality":"Lauchringen","municipality":{"key":"08337065","name":"Lauchringen","type":"Kreisangehörige_Gemeinde"},"district":{"key":"08337","name":"Waldshut","type":"Landkreis"},"federalState":{"key":"08","name":"Baden-Württemberg"}},{"name":"Königsberger Str.","postalCode":"79787","locality":"Lauchringen","municipality":{"key":"08337065","name":"Lauchringen","type":"Kreisangehörige_Gemeinde"},"district":{"key":"08337","name":"Waldshut","type":"Landkreis"},"federalState":{"key":"08","name":"Baden-Württemberg"}},{"name":"Konradin-Kreutzer-Str.","postalCode":"79787","locality":"Lauchringen","municipality":{"key":"08337065","name":"Lauchringen","type":"Kreisangehörige_Gemeinde"},"district":{"key":"08337","name":"Waldshut","type":"Landkreis"},"federalState":{"key":"08","name":"Baden-Württemberg"}},{"name":"Konstanzer Äcker","postalCode":"79787","locality":"Lauchringen","municipality":{"key":"08337065","name":"Lauchringen","type":"Kreisangehörige_Gemeinde"},"district":{"key":"08337","name":"Waldshut","type":"Landkreis"},"federalState":{"key":"08","name":"Baden-Württemberg"}},{"name":"Küssaburgstr.","postalCode":"79787","locality":"Lauchringen","municipality":{"key":"08337065","name":"Lauchringen","type":"Kreisangehörige_Gemeinde"},"district":{"key":"08337","name":"Waldshut","type":"Landkreis"},"federalState":{"key":"08","name":"Baden-Württemberg"}},{"name":"Lachenäckerstr.","postalCode":"79787","locality":"Lauchringen","municipality":{"key":"08337065","name":"Lauchringen","type":"Kreisangehörige_Gemeinde"},"district":{"key":"08337","name":"Waldshut","type":"Landkreis"},"federalState":{"key":"08","name":"Baden-Württemberg"}},{"name":"Landvogtweg","postalCode":"79787","locality":"Lauchringen","municipality":{"key":"08337065","name":"Lauchringen","type":"Kreisangehörige_Gemeinde"},"district":{"key":"08337","name":"Waldshut","type":"Landkreis"},"federalState":{"key":"08","name":"Baden-Württemberg"}},{"name":"Langwieden","postalCode":"79787","locality":"Lauchringen","municipality":{"key":"08337065","name":"Lauchringen","type":"Kreisangehörige_Gemeinde"},"district":{"key":"08337","name":"Waldshut","type":"Landkreis"},"federalState":{"key":"08","name":"Baden-Württemberg"}},{"name":"Lauchringer Str.","postalCode":"79787","locality":"Lauchringen","municipality":{"key":"08337065","name":"Lauchringen","type":"Kreisangehörige_Gemeinde"},"district":{"key":"08337","name":"Waldshut","type":"Landkreis"},"federalState":{"key":"08","name":"Baden-Württemberg"}},{"name":"Lessingstr.","postalCode":"79787","locality":"Lauchringen","municipality":{"key":"08337065","name":"Lauchringen","type":"Kreisangehörige_Gemeinde"},"district":{"key":"08337","name":"Waldshut","type":"Landkreis"},"federalState":{"key":"08","name":"Baden-Württemberg"}},{"name":"Lönsweg","postalCode":"79787","locality":"Lauchringen","municipality":{"key":"08337065","name":"Lauchringen","type":"Kreisangehörige_Gemeinde"},"district":{"key":"08337","name":"Waldshut","type":"Landkreis"},"federalState":{"key":"08","name":"Baden-Württemberg"}},{"name":"Martin-Luther-Str.","postalCode":"79787","locality":"Lauchringen","municipality":{"key":"08337065","name":"Lauchringen","type":"Kreisangehörige_Gemeinde"},"district":{"key":"08337","name":"Waldshut","type":"Landkreis"},"federalState":{"key":"08","name":"Baden-Württemberg"}},{"name":"Mörikestr.","postalCode":"79787","locality":"Lauchringen","municipality":{"key":"08337065","name":"Lauchringen","type":"Kreisangehörige_Gemeinde"},"district":{"key":"08337","name":"Waldshut","type":"Landkreis"},"federalState":{"key":"08","name":"Baden-Württemberg"}},{"name":"Mozartstr.","postalCode":"79787","locality":"Lauchringen","municipality":{"key":"08337065","name":"Lauchringen","type":"Kreisangehörige_Gemeinde"},"district":{"key":"08337","name":"Waldshut","type":"Landkreis"},"federalState":{"key":"08","name":"Baden-Württemberg"}},{"name":"Mühleweg","postalCode":"79787","locality":"Lauchringen","municipality":{"key":"08337065","name":"Lauchringen","type":"Kreisangehörige_Gemeinde"},"district":{"key":"08337","name":"Waldshut","type":"Landkreis"},"federalState":{"key":"08","name":"Baden-Württemberg"}},{"name":"Neue Gehrgass","postalCode":"79787","locality":"Lauchringen","municipality":{"key":"08337065","name":"Lauchringen","type":"Kreisangehörige_Gemeinde"},"district":{"key":"08337","name":"Waldshut","type":"Landkreis"},"federalState":{"key":"08","name":"Baden-Württemberg"}},{"name":"Neuweg","postalCode":"79787","locality":"Lauchringen","municipality":{"key":"08337065","name":"Lauchringen","type":"Kreisangehörige_Gemeinde"},"district":{"key":"08337","name":"Waldshut","type":"Landkreis"},"federalState":{"key":"08","name":"Baden-Württemberg"}},{"name":"Neuwiesenweg","postalCode":"79787","locality":"Lauchringen","municipality":{"key":"08337065","name":"Lauchringen","type":"Kreisangehörige_Gemeinde"},"district":{"key":"08337","name":"Waldshut","type":"Landkreis"},"federalState":{"key":"08","name":"Baden-Württemberg"}},{"name":"Oberalpfener Str.","postalCode":"79761","locality":"Waldshut-Tiengen","municipality":{"key":"08337126","name":"Waldshut-Tiengen, Stadt","type":"Große_Kreisstadt"},"district":{"key":"08337","name":"Waldshut","type":"Landkreis"},"federalState":{"key":"08","name":"Baden-Württemberg"}},{"name":"Obere Breitäckerstr.","postalCode":"79761","locality":"Waldshut-Tiengen","municipality":{"key":"08337126","name":"Waldshut-Tiengen, Stadt","type":"Große_Kreisstadt"},"district":{"key":"08337","name":"Waldshut","type":"Landkreis"},"federalState":{"key":"08","name":"Baden-Württemberg"}},{"name":"Obere Breite","postalCode":"79761","locality":"Waldshut-Tiengen","municipality":{"key":"08337126","name":"Waldshut-Tiengen, Stadt","type":"Große_Kreisstadt"},"district":{"key":"08337","name":"Waldshut","type":"Landkreis"},"federalState":{"key":"08","name":"Baden-Württemberg"}},{"name":"Obere Haspelstr.","postalCode":"79761","locality":"Waldshut-Tiengen","municipality":{"key":"08337126","name":"Waldshut-Tiengen, Stadt","type":"Große_Kreisstadt"},"district":{"key":"08337","name":"Waldshut","type":"Landkreis"},"federalState":{"key":"08","name":"Baden-Württemberg"}},{"name":"Obere Landstr.","postalCode":"79761","locality":"Waldshut-Tiengen","municipality":{"key":"08337126","name":"Waldshut-Tiengen, Stadt","type":"Große_Kreisstadt"},"district":{"key":"08337","name":"Waldshut","type":"Landkreis"},"federalState":{"key":"08","name":"Baden-Württemberg"}},{"name":"Oberendreiweg","postalCode":"79761","locality":"Waldshut-Tiengen","municipality":{"key":"08337126","name":"Waldshut-Tiengen, Stadt","type":"Große_Kreisstadt"},"district":{"key":"08337","name":"Waldshut","type":"Landkreis"},"federalState":{"key":"08","name":"Baden-Württemberg"}},{"name":"Oberer Sechserweg","postalCode":"79761","locality":"Waldshut-Tiengen","municipality":{"key":"08337126","name":"Waldshut-Tiengen, Stadt","type":"Große_Kreisstadt"},"district":{"key":"08337","name":"Waldshut","type":"Landkreis"},"federalState":{"key":"08","name":"Baden-Württemberg"}},{"name":"Oberer Tännlehauweg","postalCode":"79761","locality":"Waldshut-Tiengen","municipality":{"key":"08337126","name":"Waldshut-Tiengen, Stadt","type":"Große_Kreisstadt"},"district":{"key":"08337","name":"Waldshut","type":"Landkreis"},"federalState":{"key":"08","name":"Baden-Württemberg"}},{"name":"Oberer Zwölferweg","postalCode":"79761","locality":"Waldshut-Tiengen","municipality":{"key":"08337126","name":"Waldshut-Tiengen, Stadt","type":"Große_Kreisstadt"},"district":{"key":"08337","name":"Waldshut","type":"Landkreis"},"federalState":{"key":"08","name":"Baden-Württemberg"}},{"name":"Ochsensteige","postalCode":"79761","locality":"Waldshut-Tiengen","municipality":{"key":"08337126","name":"Waldshut-Tiengen, Stadt","type":"Große_Kreisstadt"},"district":{"key":"08337","name":"Waldshut","type":"Landkreis"},"federalState":{"key":"08","name":"Baden-Württemberg"}},{"name":"O. Gampweg","postalCode":"79761","locality":"Waldshut-Tiengen","municipality":{"key":"08337126","name":"Waldshut-Tiengen, Stadt","type":"Große_Kreisstadt"},"district":{"key":"08337","name":"Waldshut","type":"Landkreis"},"federalState":{"key":"08","name":"Baden-Württemberg"}},{"name":"Ortsstr.","postalCode":"79761","locality":"Waldshut-Tiengen","municipality":{"key":"08337126","name":"Waldshut-Tiengen, Stadt","type":"Große_Kreisstadt"},"district":{"key":"08337","name":"Waldshut","type":"Landkreis"},"federalState":{"key":"08","name":"Baden-Württemberg"}},{"name":"Osterwiesenweg","postalCode":"79761","locality":"Waldshut-Tiengen","municipality":{"key":"08337126","name":"Waldshut-Tiengen, Stadt","type":"Große_Kreisstadt"},"district":{"key":"08337","name":"Waldshut","type":"Landkreis"},"federalState":{"key":"08","name":"Baden-Württemberg"}},{"name":"Ostpreußenstr.","postalCode":"79761","locality":"Waldshut-Tiengen","municipality":{"key":"08337126","name":"Waldshut-Tiengen, Stadt","type":"Große_Kreisstadt"},"district":{"key":"08337","name":"Waldshut","type":"Landkreis"},"federalState":{"key":"08","name":"Baden-Württemberg"}},{"name":"Parkweg","postalCode":"79787","locality":"Lauchringen","municipality":{"key":"08337065","name":"Lauchringen","type":"Kreisangehörige_Gemeinde"},"district":{"key":"08337","name":"Waldshut","type":"Landkreis"},"federalState":{"key":"08","name":"Baden-Württemberg"}},{"name":"Paul-Körber-Weg","postalCode":"79787","locality":"Lauchringen","municipality":{"key":"08337065","name":"Lauchringen","type":"Kreisangehörige_Gemeinde"},"district":{"key":"08337","name":"Waldshut","type":"Landkreis"},"federalState":{"key":"08","name":"Baden-Württemberg"}},{"name":"Querstr.","postalCode":"79787","locality":"Lauchringen","municipality":{"key":"08337065","name":"Lauchringen","type":"Kreisangehörige_Gemeinde"},"district":{"key":"08337","name":"Waldshut","type":"Landkreis"},"federalState":{"key":"08","name":"Baden-Württemberg"}},{"name":"Rainleäckerstr.","postalCode":"79787","locality":"Lauchringen","municipality":{"key":"08337065","name":"Lauchringen","type":"Kreisangehörige_Gemeinde"},"district":{"key":"08337","name":"Waldshut","type":"Landkreis"},"federalState":{"key":"08","name":"Baden-Württemberg"}},{"name":"Rebweg","postalCode":"79787","locality":"Lauchringen","municipality":{"key":"08337065","name":"Lauchringen","type":"Kreisangehörige_Gemeinde"},"district":{"key":"08337","name":"Waldshut","type":"Landkreis"},"federalState":{"key":"08","name":"Baden-Württemberg"}},{"name":"Reiherwaldstr.","postalCode":"79787","locality":"Lauchringen","municipality":{"key":"08337065","name":"Lauchringen","type":"Kreisangehörige_Gemeinde"},"district":{"key":"08337","name":"Waldshut","type":"Landkreis"},"federalState":{"key":"08","name":"Baden-Württemberg"}},{"name":"Riedpark","postalCode":"79787","locality":"Lauchringen","municipality":{"key":"08337065","name":"Lauchringen","type":"Kreisangehörige_Gemeinde"},"district":{"key":"08337","name":"Waldshut","type":"Landkreis"},"federalState":{"key":"08","name":"Baden-Württemberg"}},{"name":"Riedstr.","postalCode":"79787","locality":"Lauchringen","municipality":{"key":"08337065","name":"Lauchringen","type":"Kreisangehörige_Gemeinde"},"district":{"key":"08337","name":"Waldshut","type":"Landkreis"},"federalState":{"key":"08","name":"Baden-Württemberg"}},{"name":"Rilkeweg","postalCode":"79787","locality":"Lauchringen","municipality":{"key":"08337065","name":"Lauchringen","type":"Kreisangehörige_Gemeinde"},"district":{"key":"08337","name":"Waldshut","type":"Landkreis"},"federalState":{"key":"08","name":"Baden-Württemberg"}},{"name":"Robert-Koch-Str.","postalCode":"79787","locality":"Lauchringen","municipality":{"key":"08337065","name":"Lauchringen","type":"Kreisangehörige_Gemeinde"},"district":{"key":"08337","name":"Waldshut","type":"Landkreis"},"federalState":{"key":"08","name":"Baden-Württemberg"}},{"name":"Schubertweg","postalCode":"79787","locality":"Lauchringen","municipality":{"key":"08337065","name":"Lauchringen","type":"Kreisangehörige_Gemeinde"},"district":{"key":"08337","name":"Waldshut","type":"Landkreis"},"federalState":{"key":"08","name":"Baden-Württemberg"}},{"name":"Schulstr.","postalCode":"79787","locality":"Lauchringen","municipality":{"key":"08337065","name":"Lauchringen","type":"Kreisangehörige_Gemeinde"},"district":{"key":"08337","name":"Waldshut","type":"Landkreis"},"federalState":{"key":"08","name":"Baden-Württemberg"}},{"name":"Schwarzwaldstr.","postalCode":"79787","locality":"Lauchringen","municipality":{"key":"08337065","name":"Lauchringen","type":"Kreisangehörige_Gemeinde"},"district":{"key":"08337","name":"Waldshut","type":"Landkreis"},"federalState":{"key":"08","name":"Baden-Württemberg"}},{"name":"Siechenbachstr.","postalCode":"79787","locality":"Lauchringen","municipality":{"key":"08337065","name":"Lauchringen","type":"Kreisangehörige_Gemeinde"},"district":{"key":"08337","name":"Waldshut","type":"Landkreis"},"federalState":{"key":"08","name":"Baden-Württemberg"}},{"name":"Siedlerweg","postalCode":"79787","locality":"Lauchringen","municipality":{"key":"08337065","name":"Lauchringen","type":"Kreisangehörige_Gemeinde"},"district":{"key":"08337","name":"Waldshut","type":"Landkreis"},"federalState":{"key":"08","name":"Baden-Württemberg"}},{"name":"Siegfriedstr.","postalCode":"79787","locality":"Lauchringen","municipality":{"key":"08337065","name":"Lauchringen","type":"Kreisangehörige_Gemeinde"},"district":{"key":"08337","name":"Waldshut","type":"Landkreis"},"federalState":{"key":"08","name":"Baden-Württemberg"}},{"name":"Siemensstr.","postalCode":"79787","locality":"Lauchringen","municipality":{"key":"08337065","name":"Lauchringen","type":"Kreisangehörige_Gemeinde"},"district":{"key":"08337","name":"Waldshut","type":"Landkreis"},"federalState":{"key":"08","name":"Baden-Württemberg"}},{"name":"Silcherweg","postalCode":"79787","locality":"Lauchringen","municipality":{"key":"08337065","name":"Lauchringen","type":"Kreisangehörige_Gemeinde"},"district":{"key":"08337","name":"Waldshut","type":"Landkreis"},"federalState":{"key":"08","name":"Baden-Württemberg"}},{"name":"Spitzäcker","postalCode":"79787","locality":"Lauchringen","municipality":{"key":"08337065","name":"Lauchringen","type":"Kreisangehörige_Gemeinde"},"district":{"key":"08337","name":"Waldshut","type":"Landkreis"},"federalState":{"key":"08","name":"Baden-Württemberg"}},{"name":"Steinatalstr.","postalCode":"79787","locality":"Lauchringen","municipality":{"key":"08337065","name":"Lauchringen","type":"Kreisangehörige_Gemeinde"},"district":{"key":"08337","name":"Waldshut","type":"Landkreis"},"federalState":{"key":"08","name":"Baden-Württemberg"}},{"name":"Stöckenweg","postalCode":"79787","locality":"Lauchringen","municipality":{"key":"08337065","name":"Lauchringen","type":"Kreisangehörige_Gemeinde"},"district":{"key":"08337","name":"Waldshut","type":"Landkreis"},"federalState":{"key":"08","name":"Baden-Württemberg"}},{"name":"Sudetenstr.","postalCode":"79787","locality":"Lauchringen","municipality":{"key":"08337065","name":"Lauchringen","type":"Kreisangehörige_Gemeinde"},"district":{"key":"08337","name":"Waldshut","type":"Landkreis"},"federalState":{"key":"08","name":"Baden-Württemberg"}},{"name":"Theodor-Heuss-Str.","postalCode":"79787","locality":"Lauchringen","municipality":{"key":"08337065","name":"Lauchringen","type":"Kreisangehörige_Gemeinde"},"district":{"key":"08337","name":"Waldshut","type":"Landkreis"},"federalState":{"key":"08","name":"Baden-Württemberg"}},{"name":"Uhlandstr.","postalCode":"79787","locality":"Lauchringen","municipality":{"key":"08337065","name":"Lauchringen","type":"Kreisangehörige_Gemeinde"},"district":{"key":"08337","name":"Waldshut","type":"Landkreis"},"federalState":{"key":"08","name":"Baden-Württemberg"}},{"name":"Untere Gehrgass","postalCode":"79787","locality":"Lauchringen","municipality":{"key":"08337065","name":"Lauchringen","type":"Kreisangehörige_Gemeinde"},"district":{"key":"08337","name":"Waldshut","type":"Landkreis"},"federalState":{"key":"08","name":"Baden-Württemberg"}},{"name":"Untermarkstr.","postalCode":"79787","locality":"Lauchringen","municipality":{"key":"08337065","name":"Lauchringen","type":"Kreisangehörige_Gemeinde"},"district":{"key":"08337","name":"Waldshut","type":"Landkreis"},"federalState":{"key":"08","name":"Baden-Württemberg"}},{"name":"Unterstöcken","postalCode":"79787","locality":"Lauchringen","municipality":{"key":"08337065","name":"Lauchringen","type":"Kreisangehörige_Gemeinde"},"district":{"key":"08337","name":"Waldshut","type":"Landkreis"},"federalState":{"key":"08","name":"Baden-Württemberg"}},{"name":"Von-Kilian-Str.","postalCode":"79761","locality":"Waldshut-Tiengen","municipality":{"key":"08337126","name":"Waldshut-Tiengen, Stadt","type":"Große_Kreisstadt"},"district":{"key":"08337","name":"Waldshut","type":"Landkreis"},"federalState":{"key":"08","name":"Baden-Württemberg"}},{"name":"Von-Opel-Str.","postalCode":"79761","locality":"Waldshut-Tiengen","municipality":{"key":"08337126","name":"Waldshut-Tiengen, Stadt","type":"Große_Kreisstadt"},"district":{"key":"08337","name":"Waldshut","type":"Landkreis"},"federalState":{"key":"08","name":"Baden-Württemberg"}},{"name":"Waldstr.","postalCode":"79787","locality":"Lauchringen","municipality":{"key":"08337065","name":"Lauchringen","type":"Kreisangehörige_Gemeinde"},"district":{"key":"08337","name":"Waldshut","type":"Landkreis"},"federalState":{"key":"08","name":"Baden-Württemberg"}},{"name":"Weberstr.","postalCode":"79787","locality":"Lauchringen","municipality":{"key":"08337065","name":"Lauchringen","type":"Kreisangehörige_Gemeinde"},"district":{"key":"08337","name":"Waldshut","type":"Landkreis"},"federalState":{"key":"08","name":"Baden-Württemberg"}},{"name":"Weidenstr.","postalCode":"79787","locality":"Lauchringen","municipality":{"key":"08337065","name":"Lauchringen","type":"Kreisangehörige_Gemeinde"},"district":{"key":"08337","name":"Waldshut","type":"Landkreis"},"federalState":{"key":"08","name":"Baden-Württemberg"}},{"name":"Weiherweg","postalCode":"79787","locality":"Lauchringen","municipality":{"key":"08337065","name":"Lauchringen","type":"Kreisangehörige_Gemeinde"},"district":{"key":"08337","name":"Waldshut","type":"Landkreis"},"federalState":{"key":"08","name":"Baden-Württemberg"}},{"name":"Wettengass","postalCode":"79787","locality":"Lauchringen","municipality":{"key":"08337065","name":"Lauchringen","type":"Kreisangehörige_Gemeinde"},"district":{"key":"08337","name":"Waldshut","type":"Landkreis"},"federalState":{"key":"08","name":"Baden-Württemberg"}},{"name":"Wettenstr.","postalCode":"79787","locality":"Lauchringen","municipality":{"key":"08337065","name":"Lauchringen","type":"Kreisangehörige_Gemeinde"},"district":{"key":"08337","name":"Waldshut","type":"Landkreis"},"federalState":{"key":"08","name":"Baden-Württemberg"}},{"name":"Wichernstr.","postalCode":"79787","locality":"Lauchringen","municipality":{"key":"08337065","name":"Lauchringen","type":"Kreisangehörige_Gemeinde"},"district":{"key":"08337","name":"Waldshut","type":"Landkreis"},"federalState":{"key":"08","name":"Baden-Württemberg"}},{"name":"Wiesenweg","postalCode":"79787","locality":"Lauchringen","municipality":{"key":"08337065","name":"Lauchringen","type":"Kreisangehörige_Gemeinde"},"district":{"key":"08337","name":"Waldshut","type":"Landkreis"},"federalState":{"key":"08","name":"Baden-Württemberg"}},{"name":"Wiggenbergstr.","postalCode":"79787","locality":"Lauchringen","municipality":{"key":"08337065","name":"Lauchringen","type":"Kreisangehörige_Gemeinde"},"district":{"key":"08337","name":"Waldshut","type":"Landkreis"},"federalState":{"key":"08","name":"Baden-Württemberg"}},{"name":"Wutachstr.","postalCode":"79787","locality":"Lauchringen","municipality":{"key":"08337065","name":"Lauchringen","type":"Kreisangehörige_Gemeinde"},"district":{"key":"08337","name":"Waldshut","type":"Landkreis"},"federalState":{"key":"08","name":"Baden-Württemberg"}},{"name":"Zum Wettenbach","postalCode":"79787","locality":"Lauchringen","municipality":{"key":"08337065","name":"Lauchringen","type":"Kreisangehörige_Gemeinde"},"district":{"key":"08337","name":"Waldshut","type":"Landkreis"},"federalState":{"key":"08","name":"Baden-Württemberg"}},{"name":"Zum Wetterbach","postalCode":"79787","locality":"Lauchringen","municipality":{"key":"08337065","name":"Lauchringen","type":"Kreisangehörige_Gemeinde"},"district":{"key":"08337","name":"Waldshut","type":"Landkreis"},"federalState":{"key":"08","name":"Baden-Württemberg"}},{"name":"Äuleboden","postalCode":"79787","locality":"Lauchringen","municipality":{"key":"08337065","name":"Lauchringen","type":"Kreisangehörige_Gemeinde"},"district":{"key":"08337","name":"Waldshut","type":"Landkreis"},"federalState":{"key":"08","name":"Baden-Württemberg"}},{"name":"Äulebodenstr.","postalCode":"79787","locality":"Lauchringen","municipality":{"key":"08337065","name":"Lauchringen","type":"Kreisangehörige_Gemeinde"},"district":{"key":"08337","name":"Waldshut","type":"Landkreis"},"federalState":{"key":"08","name":"Baden-Württemberg"}},{"name":"Übertal","postalCode":"79761","locality":"Waldshut-Tiengen","municipality":{"key":"08337126","name":"Waldshut-Tiengen, Stadt","type":"Große_Kreisstadt"},"district":{"key":"08337","name":"Waldshut","type":"Landkreis"},"federalState":{"key":"08","name":"Baden-Württemberg"}},]