[{"name":"Am Bach","postalCode":"78664","locality":"Eschbronn","municipality":{"key":"08325071","name":"Eschbronn","type":"Kreisangehörige_Gemeinde"},"district":{"key":"08325","name":"Rottweil","type":"Landkreis"},"federalState":{"key":"08","name":"Baden-Württemberg"}},{"name":"Am Berg","postalCode":"78664","locality":"Eschbronn","municipality":{"key":"08325071","name":"Eschbronn","type":"Kreisangehörige_Gemeinde"},"district":{"key":"08325","name":"Rottweil","type":"Landkreis"},"federalState":{"key":"08","name":"Baden-Württemberg"}},{"name":"Am Harzwald","postalCode":"78664","locality":"Eschbronn","municipality":{"key":"08325071","name":"Eschbronn","type":"Kreisangehörige_Gemeinde"},"district":{"key":"08325","name":"Rottweil","type":"Landkreis"},"federalState":{"key":"08","name":"Baden-Württemberg"}},{"name":"August-Schuhmacher-Str.","postalCode":"78664","locality":"Eschbronn","municipality":{"key":"08325071","name":"Eschbronn","type":"Kreisangehörige_Gemeinde"},"district":{"key":"08325","name":"Rottweil","type":"Landkreis"},"federalState":{"key":"08","name":"Baden-Württemberg"}},{"name":"Bäckerwegle","postalCode":"78664","locality":"Eschbronn","municipality":{"key":"08325071","name":"Eschbronn","type":"Kreisangehörige_Gemeinde"},"district":{"key":"08325","name":"Rottweil","type":"Landkreis"},"federalState":{"key":"08","name":"Baden-Württemberg"}},{"name":"Bergstr.","postalCode":"78664","locality":"Eschbronn","municipality":{"key":"08325071","name":"Eschbronn","type":"Kreisangehörige_Gemeinde"},"district":{"key":"08325","name":"Rottweil","type":"Landkreis"},"federalState":{"key":"08","name":"Baden-Württemberg"}},{"name":"Birkengasse","postalCode":"78664","locality":"Eschbronn","municipality":{"key":"08325071","name":"Eschbronn","type":"Kreisangehörige_Gemeinde"},"district":{"key":"08325","name":"Rottweil","type":"Landkreis"},"federalState":{"key":"08","name":"Baden-Württemberg"}},{"name":"Brenntenwaldweg","postalCode":"78664","locality":"Eschbronn","municipality":{"key":"08325071","name":"Eschbronn","type":"Kreisangehörige_Gemeinde"},"district":{"key":"08325","name":"Rottweil","type":"Landkreis"},"federalState":{"key":"08","name":"Baden-Württemberg"}},{"name":"Buchenweg","postalCode":"78664","locality":"Eschbronn","municipality":{"key":"08325071","name":"Eschbronn","type":"Kreisangehörige_Gemeinde"},"district":{"key":"08325","name":"Rottweil","type":"Landkreis"},"federalState":{"key":"08","name":"Baden-Württemberg"}},{"name":"Bühläcker","postalCode":"78664","locality":"Eschbronn","municipality":{"key":"08325071","name":"Eschbronn","type":"Kreisangehörige_Gemeinde"},"district":{"key":"08325","name":"Rottweil","type":"Landkreis"},"federalState":{"key":"08","name":"Baden-Württemberg"}},{"name":"Bühlweg","postalCode":"78664","locality":"Eschbronn","municipality":{"key":"08325071","name":"Eschbronn","type":"Kreisangehörige_Gemeinde"},"district":{"key":"08325","name":"Rottweil","type":"Landkreis"},"federalState":{"key":"08","name":"Baden-Württemberg"}},{"name":"Burschachen","postalCode":"78664","locality":"Eschbronn","municipality":{"key":"08325071","name":"Eschbronn","type":"Kreisangehörige_Gemeinde"},"district":{"key":"08325","name":"Rottweil","type":"Landkreis"},"federalState":{"key":"08","name":"Baden-Württemberg"}},{"name":"Carl-Härdtner-Str.","postalCode":"78664","locality":"Eschbronn","municipality":{"key":"08325071","name":"Eschbronn","type":"Kreisangehörige_Gemeinde"},"district":{"key":"08325","name":"Rottweil","type":"Landkreis"},"federalState":{"key":"08","name":"Baden-Württemberg"}},{"name":"Dachsbühlweg","postalCode":"78664","locality":"Eschbronn","municipality":{"key":"08325071","name":"Eschbronn","type":"Kreisangehörige_Gemeinde"},"district":{"key":"08325","name":"Rottweil","type":"Landkreis"},"federalState":{"key":"08","name":"Baden-Württemberg"}},{"name":"Erlenweg","postalCode":"78664","locality":"Eschbronn","municipality":{"key":"08325071","name":"Eschbronn","type":"Kreisangehörige_Gemeinde"},"district":{"key":"08325","name":"Rottweil","type":"Landkreis"},"federalState":{"key":"08","name":"Baden-Württemberg"}},{"name":"Eschbachstr.","postalCode":"78664","locality":"Eschbronn","municipality":{"key":"08325071","name":"Eschbronn","type":"Kreisangehörige_Gemeinde"},"district":{"key":"08325","name":"Rottweil","type":"Landkreis"},"federalState":{"key":"08","name":"Baden-Württemberg"}},{"name":"Fichtenweg","postalCode":"78664","locality":"Eschbronn","municipality":{"key":"08325071","name":"Eschbronn","type":"Kreisangehörige_Gemeinde"},"district":{"key":"08325","name":"Rottweil","type":"Landkreis"},"federalState":{"key":"08","name":"Baden-Württemberg"}},{"name":"Friedhofstr.","postalCode":"78664","locality":"Eschbronn","municipality":{"key":"08325071","name":"Eschbronn","type":"Kreisangehörige_Gemeinde"},"district":{"key":"08325","name":"Rottweil","type":"Landkreis"},"federalState":{"key":"08","name":"Baden-Württemberg"}},{"name":"Geigenrain","postalCode":"78664","locality":"Eschbronn","municipality":{"key":"08325071","name":"Eschbronn","type":"Kreisangehörige_Gemeinde"},"district":{"key":"08325","name":"Rottweil","type":"Landkreis"},"federalState":{"key":"08","name":"Baden-Württemberg"}},{"name":"Geißfurt","postalCode":"78664","locality":"Eschbronn","municipality":{"key":"08325071","name":"Eschbronn","type":"Kreisangehörige_Gemeinde"},"district":{"key":"08325","name":"Rottweil","type":"Landkreis"},"federalState":{"key":"08","name":"Baden-Württemberg"}},{"name":"Günthersstr.","postalCode":"78664","locality":"Eschbronn","municipality":{"key":"08325071","name":"Eschbronn","type":"Kreisangehörige_Gemeinde"},"district":{"key":"08325","name":"Rottweil","type":"Landkreis"},"federalState":{"key":"08","name":"Baden-Württemberg"}},{"name":"Hardter Str.","postalCode":"78664","locality":"Eschbronn","municipality":{"key":"08325071","name":"Eschbronn","type":"Kreisangehörige_Gemeinde"},"district":{"key":"08325","name":"Rottweil","type":"Landkreis"},"federalState":{"key":"08","name":"Baden-Württemberg"}},{"name":"Haspel","postalCode":"78664","locality":"Eschbronn","municipality":{"key":"08325071","name":"Eschbronn","type":"Kreisangehörige_Gemeinde"},"district":{"key":"08325","name":"Rottweil","type":"Landkreis"},"federalState":{"key":"08","name":"Baden-Württemberg"}},{"name":"Hauptstr.","postalCode":"78664","locality":"Eschbronn","municipality":{"key":"08325071","name":"Eschbronn","type":"Kreisangehörige_Gemeinde"},"district":{"key":"08325","name":"Rottweil","type":"Landkreis"},"federalState":{"key":"08","name":"Baden-Württemberg"}},{"name":"Hoberten","postalCode":"78664","locality":"Eschbronn","municipality":{"key":"08325071","name":"Eschbronn","type":"Kreisangehörige_Gemeinde"},"district":{"key":"08325","name":"Rottweil","type":"Landkreis"},"federalState":{"key":"08","name":"Baden-Württemberg"}},{"name":"Hochberg","postalCode":"78664","locality":"Eschbronn","municipality":{"key":"08325071","name":"Eschbronn","type":"Kreisangehörige_Gemeinde"},"district":{"key":"08325","name":"Rottweil","type":"Landkreis"},"federalState":{"key":"08","name":"Baden-Württemberg"}},{"name":"Holzwald","postalCode":"78664","locality":"Eschbronn","municipality":{"key":"08325071","name":"Eschbronn","type":"Kreisangehörige_Gemeinde"},"district":{"key":"08325","name":"Rottweil","type":"Landkreis"},"federalState":{"key":"08","name":"Baden-Württemberg"}},{"name":"Im Angel","postalCode":"78664","locality":"Eschbronn","municipality":{"key":"08325071","name":"Eschbronn","type":"Kreisangehörige_Gemeinde"},"district":{"key":"08325","name":"Rottweil","type":"Landkreis"},"federalState":{"key":"08","name":"Baden-Württemberg"}},{"name":"Im Weiher","postalCode":"78664","locality":"Eschbronn","municipality":{"key":"08325071","name":"Eschbronn","type":"Kreisangehörige_Gemeinde"},"district":{"key":"08325","name":"Rottweil","type":"Landkreis"},"federalState":{"key":"08","name":"Baden-Württemberg"}},{"name":"Jägerhäusle","postalCode":"78664","locality":"Eschbronn","municipality":{"key":"08325071","name":"Eschbronn","type":"Kreisangehörige_Gemeinde"},"district":{"key":"08325","name":"Rottweil","type":"Landkreis"},"federalState":{"key":"08","name":"Baden-Württemberg"}},{"name":"Kirchweg","postalCode":"78664","locality":"Eschbronn","municipality":{"key":"08325071","name":"Eschbronn","type":"Kreisangehörige_Gemeinde"},"district":{"key":"08325","name":"Rottweil","type":"Landkreis"},"federalState":{"key":"08","name":"Baden-Württemberg"}},{"name":"Küferweg","postalCode":"78664","locality":"Eschbronn","municipality":{"key":"08325071","name":"Eschbronn","type":"Kreisangehörige_Gemeinde"},"district":{"key":"08325","name":"Rottweil","type":"Landkreis"},"federalState":{"key":"08","name":"Baden-Württemberg"}},{"name":"Lachenäcker","postalCode":"78664","locality":"Eschbronn","municipality":{"key":"08325071","name":"Eschbronn","type":"Kreisangehörige_Gemeinde"},"district":{"key":"08325","name":"Rottweil","type":"Landkreis"},"federalState":{"key":"08","name":"Baden-Württemberg"}},{"name":"Lackendorfer Weg","postalCode":"78664","locality":"Eschbronn","municipality":{"key":"08325071","name":"Eschbronn","type":"Kreisangehörige_Gemeinde"},"district":{"key":"08325","name":"Rottweil","type":"Landkreis"},"federalState":{"key":"08","name":"Baden-Württemberg"}},{"name":"Lange Gasse","postalCode":"78664","locality":"Eschbronn","municipality":{"key":"08325071","name":"Eschbronn","type":"Kreisangehörige_Gemeinde"},"district":{"key":"08325","name":"Rottweil","type":"Landkreis"},"federalState":{"key":"08","name":"Baden-Württemberg"}},{"name":"Lärchenweg","postalCode":"78664","locality":"Eschbronn","municipality":{"key":"08325071","name":"Eschbronn","type":"Kreisangehörige_Gemeinde"},"district":{"key":"08325","name":"Rottweil","type":"Landkreis"},"federalState":{"key":"08","name":"Baden-Württemberg"}},{"name":"Locherhofer Str.","postalCode":"78664","locality":"Eschbronn","municipality":{"key":"08325071","name":"Eschbronn","type":"Kreisangehörige_Gemeinde"},"district":{"key":"08325","name":"Rottweil","type":"Landkreis"},"federalState":{"key":"08","name":"Baden-Württemberg"}},{"name":"Mariazeller Str.","postalCode":"78664","locality":"Eschbronn","municipality":{"key":"08325071","name":"Eschbronn","type":"Kreisangehörige_Gemeinde"},"district":{"key":"08325","name":"Rottweil","type":"Landkreis"},"federalState":{"key":"08","name":"Baden-Württemberg"}},{"name":"Moosgasse","postalCode":"78664","locality":"Eschbronn","municipality":{"key":"08325071","name":"Eschbronn","type":"Kreisangehörige_Gemeinde"},"district":{"key":"08325","name":"Rottweil","type":"Landkreis"},"federalState":{"key":"08","name":"Baden-Württemberg"}},{"name":"Mühlweg","postalCode":"78664","locality":"Eschbronn","municipality":{"key":"08325071","name":"Eschbronn","type":"Kreisangehörige_Gemeinde"},"district":{"key":"08325","name":"Rottweil","type":"Landkreis"},"federalState":{"key":"08","name":"Baden-Württemberg"}},{"name":"Nachtweide","postalCode":"78628","locality":"Rottweil","municipality":{"key":"08325049","name":"Rottweil, Stadt","type":"Große_Kreisstadt"},"district":{"key":"08325","name":"Rottweil","type":"Landkreis"},"federalState":{"key":"08","name":"Baden-Württemberg"}},{"name":"Nägelesgrabenstr.","postalCode":"78628","locality":"Rottweil","municipality":{"key":"08325049","name":"Rottweil, Stadt","type":"Große_Kreisstadt"},"district":{"key":"08325","name":"Rottweil","type":"Landkreis"},"federalState":{"key":"08","name":"Baden-Württemberg"}},{"name":"Nagelschmiede","postalCode":"78628","locality":"Rottweil","municipality":{"key":"08325049","name":"Rottweil, Stadt","type":"Große_Kreisstadt"},"district":{"key":"08325","name":"Rottweil","type":"Landkreis"},"federalState":{"key":"08","name":"Baden-Württemberg"}},{"name":"Neckarbrücke","postalCode":"78628","locality":"Rottweil","municipality":{"key":"08325049","name":"Rottweil, Stadt","type":"Große_Kreisstadt"},"district":{"key":"08325","name":"Rottweil","type":"Landkreis"},"federalState":{"key":"08","name":"Baden-Württemberg"}},{"name":"Neckarstr.","postalCode":"78628","locality":"Rottweil","municipality":{"key":"08325049","name":"Rottweil, Stadt","type":"Große_Kreisstadt"},"district":{"key":"08325","name":"Rottweil","type":"Landkreis"},"federalState":{"key":"08","name":"Baden-Württemberg"}},{"name":"Neckartal","postalCode":"78628","locality":"Rottweil","municipality":{"key":"08325049","name":"Rottweil, Stadt","type":"Große_Kreisstadt"},"district":{"key":"08325","name":"Rottweil","type":"Landkreis"},"federalState":{"key":"08","name":"Baden-Württemberg"}},{"name":"Neue Str.","postalCode":"78658","locality":"Zimmern ob Rottweil","municipality":{"key":"08325069","name":"Zimmern ob Rottweil","type":"Kreisangehörige_Gemeinde"},"district":{"key":"08325","name":"Rottweil","type":"Landkreis"},"federalState":{"key":"08","name":"Baden-Württemberg"}},{"name":"Neufraer Str.","postalCode":"78628","locality":"Rottweil","municipality":{"key":"08325049","name":"Rottweil, Stadt","type":"Große_Kreisstadt"},"district":{"key":"08325","name":"Rottweil","type":"Landkreis"},"federalState":{"key":"08","name":"Baden-Württemberg"}},{"name":"Neukircher Str.","postalCode":"78628","locality":"Rottweil","municipality":{"key":"08325049","name":"Rottweil, Stadt","type":"Große_Kreisstadt"},"district":{"key":"08325","name":"Rottweil","type":"Landkreis"},"federalState":{"key":"08","name":"Baden-Württemberg"}},{"name":"Neutalweg","postalCode":"78658","locality":"Zimmern ob Rottweil","municipality":{"key":"08325069","name":"Zimmern ob Rottweil","type":"Kreisangehörige_Gemeinde"},"district":{"key":"08325","name":"Rottweil","type":"Landkreis"},"federalState":{"key":"08","name":"Baden-Württemberg"}},{"name":"Neutorstr.","postalCode":"78628","locality":"Rottweil","municipality":{"key":"08325049","name":"Rottweil, Stadt","type":"Große_Kreisstadt"},"district":{"key":"08325","name":"Rottweil","type":"Landkreis"},"federalState":{"key":"08","name":"Baden-Württemberg"}},{"name":"Niedereschacher Str.","postalCode":"78658","locality":"Zimmern ob Rottweil","municipality":{"key":"08325069","name":"Zimmern ob Rottweil","type":"Kreisangehörige_Gemeinde"},"district":{"key":"08325","name":"Rottweil","type":"Landkreis"},"federalState":{"key":"08","name":"Baden-Württemberg"}},{"name":"Nikolausstr.","postalCode":"78628","locality":"Rottweil","municipality":{"key":"08325049","name":"Rottweil, Stadt","type":"Große_Kreisstadt"},"district":{"key":"08325","name":"Rottweil","type":"Landkreis"},"federalState":{"key":"08","name":"Baden-Württemberg"}},{"name":"Nikolaus-Winzenried-Platz","postalCode":"78628","locality":"Rottweil","municipality":{"key":"08325049","name":"Rottweil, Stadt","type":"Große_Kreisstadt"},"district":{"key":"08325","name":"Rottweil","type":"Landkreis"},"federalState":{"key":"08","name":"Baden-Württemberg"}},{"name":"Nonnenweg","postalCode":"78628","locality":"Rottweil","municipality":{"key":"08325049","name":"Rottweil, Stadt","type":"Große_Kreisstadt"},"district":{"key":"08325","name":"Rottweil","type":"Landkreis"},"federalState":{"key":"08","name":"Baden-Württemberg"}},{"name":"Nussallee","postalCode":"78628","locality":"Rottweil","municipality":{"key":"08325049","name":"Rottweil, Stadt","type":"Große_Kreisstadt"},"district":{"key":"08325","name":"Rottweil","type":"Landkreis"},"federalState":{"key":"08","name":"Baden-Württemberg"}},{"name":"Oberlocherhof","postalCode":"78664","locality":"Eschbronn","municipality":{"key":"08325071","name":"Eschbronn","type":"Kreisangehörige_Gemeinde"},"district":{"key":"08325","name":"Rottweil","type":"Landkreis"},"federalState":{"key":"08","name":"Baden-Württemberg"}},{"name":"Pfarrgasse","postalCode":"78664","locality":"Eschbronn","municipality":{"key":"08325071","name":"Eschbronn","type":"Kreisangehörige_Gemeinde"},"district":{"key":"08325","name":"Rottweil","type":"Landkreis"},"federalState":{"key":"08","name":"Baden-Württemberg"}},{"name":"Raichbergweg","postalCode":"78628","locality":"Rottweil","municipality":{"key":"08325049","name":"Rottweil, Stadt","type":"Große_Kreisstadt"},"district":{"key":"08325","name":"Rottweil","type":"Landkreis"},"federalState":{"key":"08","name":"Baden-Württemberg"}},{"name":"Raiffeisenstr.","postalCode":"78658","locality":"Zimmern ob Rottweil","municipality":{"key":"08325069","name":"Zimmern ob Rottweil","type":"Kreisangehörige_Gemeinde"},"district":{"key":"08325","name":"Rottweil","type":"Landkreis"},"federalState":{"key":"08","name":"Baden-Württemberg"}},{"name":"Rainstr.","postalCode":"78628","locality":"Rottweil","municipality":{"key":"08325049","name":"Rottweil, Stadt","type":"Große_Kreisstadt"},"district":{"key":"08325","name":"Rottweil","type":"Landkreis"},"federalState":{"key":"08","name":"Baden-Württemberg"}},{"name":"Rathausgasse","postalCode":"78628","locality":"Rottweil","municipality":{"key":"08325049","name":"Rottweil, Stadt","type":"Große_Kreisstadt"},"district":{"key":"08325","name":"Rottweil","type":"Landkreis"},"federalState":{"key":"08","name":"Baden-Württemberg"}},{"name":"Rathausgasse","postalCode":"78658","locality":"Zimmern ob Rottweil","municipality":{"key":"08325069","name":"Zimmern ob Rottweil","type":"Kreisangehörige_Gemeinde"},"district":{"key":"08325","name":"Rottweil","type":"Landkreis"},"federalState":{"key":"08","name":"Baden-Württemberg"}},{"name":"Rathausstr.","postalCode":"78658","locality":"Zimmern ob Rottweil","municipality":{"key":"08325069","name":"Zimmern ob Rottweil","type":"Kreisangehörige_Gemeinde"},"district":{"key":"08325","name":"Rottweil","type":"Landkreis"},"federalState":{"key":"08","name":"Baden-Württemberg"}},{"name":"Rautalweg","postalCode":"78658","locality":"Zimmern ob Rottweil","municipality":{"key":"08325069","name":"Zimmern ob Rottweil","type":"Kreisangehörige_Gemeinde"},"district":{"key":"08325","name":"Rottweil","type":"Landkreis"},"federalState":{"key":"08","name":"Baden-Württemberg"}},{"name":"Rehbühlweg","postalCode":"78628","locality":"Rottweil","municipality":{"key":"08325049","name":"Rottweil, Stadt","type":"Große_Kreisstadt"},"district":{"key":"08325","name":"Rottweil","type":"Landkreis"},"federalState":{"key":"08","name":"Baden-Württemberg"}},{"name":"Reuteleweg","postalCode":"78628","locality":"Rottweil","municipality":{"key":"08325049","name":"Rottweil, Stadt","type":"Große_Kreisstadt"},"district":{"key":"08325","name":"Rottweil","type":"Landkreis"},"federalState":{"key":"08","name":"Baden-Württemberg"}},{"name":"Rheinwaldstr.","postalCode":"78628","locality":"Rottweil","municipality":{"key":"08325049","name":"Rottweil, Stadt","type":"Große_Kreisstadt"},"district":{"key":"08325","name":"Rottweil","type":"Landkreis"},"federalState":{"key":"08","name":"Baden-Württemberg"}},{"name":"Riederteil","postalCode":"78658","locality":"Zimmern ob Rottweil","municipality":{"key":"08325069","name":"Zimmern ob Rottweil","type":"Kreisangehörige_Gemeinde"},"district":{"key":"08325","name":"Rottweil","type":"Landkreis"},"federalState":{"key":"08","name":"Baden-Württemberg"}},{"name":"Ritterstr.","postalCode":"78628","locality":"Rottweil","municipality":{"key":"08325049","name":"Rottweil, Stadt","type":"Große_Kreisstadt"},"district":{"key":"08325","name":"Rottweil","type":"Landkreis"},"federalState":{"key":"08","name":"Baden-Württemberg"}},{"name":"Robert-Bosch-Str.","postalCode":"78658","locality":"Zimmern ob Rottweil","municipality":{"key":"08325069","name":"Zimmern ob Rottweil","type":"Kreisangehörige_Gemeinde"},"district":{"key":"08325","name":"Rottweil","type":"Landkreis"},"federalState":{"key":"08","name":"Baden-Württemberg"}},{"name":"Römerallee","postalCode":"78658","locality":"Zimmern ob Rottweil","municipality":{"key":"08325069","name":"Zimmern ob Rottweil","type":"Kreisangehörige_Gemeinde"},"district":{"key":"08325","name":"Rottweil","type":"Landkreis"},"federalState":{"key":"08","name":"Baden-Württemberg"}},{"name":"Römerhof","postalCode":"78628","locality":"Rottweil","municipality":{"key":"08325049","name":"Rottweil, Stadt","type":"Große_Kreisstadt"},"district":{"key":"08325","name":"Rottweil","type":"Landkreis"},"federalState":{"key":"08","name":"Baden-Württemberg"}},{"name":"Römerstr.","postalCode":"78628","locality":"Rottweil","municipality":{"key":"08325049","name":"Rottweil, Stadt","type":"Große_Kreisstadt"},"district":{"key":"08325","name":"Rottweil","type":"Landkreis"},"federalState":{"key":"08","name":"Baden-Württemberg"}},{"name":"Römerweg","postalCode":"78658","locality":"Zimmern ob Rottweil","municipality":{"key":"08325069","name":"Zimmern ob Rottweil","type":"Kreisangehörige_Gemeinde"},"district":{"key":"08325","name":"Rottweil","type":"Landkreis"},"federalState":{"key":"08","name":"Baden-Württemberg"}},{"name":"Rosenfelder Str.","postalCode":"78658","locality":"Zimmern ob Rottweil","municipality":{"key":"08325069","name":"Zimmern ob Rottweil","type":"Kreisangehörige_Gemeinde"},"district":{"key":"08325","name":"Rottweil","type":"Landkreis"},"federalState":{"key":"08","name":"Baden-Württemberg"}},{"name":"Rosenstr.","postalCode":"78628","locality":"Rottweil","municipality":{"key":"08325049","name":"Rottweil, Stadt","type":"Große_Kreisstadt"},"district":{"key":"08325","name":"Rottweil","type":"Landkreis"},"federalState":{"key":"08","name":"Baden-Württemberg"}},{"name":"Rosenstr.","postalCode":"78658","locality":"Zimmern ob Rottweil","municipality":{"key":"08325069","name":"Zimmern ob Rottweil","type":"Kreisangehörige_Gemeinde"},"district":{"key":"08325","name":"Rottweil","type":"Landkreis"},"federalState":{"key":"08","name":"Baden-Württemberg"}},{"name":"Rotensteiner Str.","postalCode":"78628","locality":"Rottweil","municipality":{"key":"08325049","name":"Rottweil, Stadt","type":"Große_Kreisstadt"},"district":{"key":"08325","name":"Rottweil","type":"Landkreis"},"federalState":{"key":"08","name":"Baden-Württemberg"}},{"name":"Rotensteinerwaldweg","postalCode":"78628","locality":"Rottweil","municipality":{"key":"08325049","name":"Rottweil, Stadt","type":"Große_Kreisstadt"},"district":{"key":"08325","name":"Rottweil","type":"Landkreis"},"federalState":{"key":"08","name":"Baden-Württemberg"}},{"name":"Rötenweg","postalCode":"78628","locality":"Rottweil","municipality":{"key":"08325049","name":"Rottweil, Stadt","type":"Große_Kreisstadt"},"district":{"key":"08325","name":"Rottweil","type":"Landkreis"},"federalState":{"key":"08","name":"Baden-Württemberg"}},{"name":"Rötlinstr.","postalCode":"78628","locality":"Rottweil","municipality":{"key":"08325049","name":"Rottweil, Stadt","type":"Große_Kreisstadt"},"district":{"key":"08325","name":"Rottweil","type":"Landkreis"},"federalState":{"key":"08","name":"Baden-Württemberg"}},{"name":"Rottenmünsterweg","postalCode":"78628","locality":"Rottweil","municipality":{"key":"08325049","name":"Rottweil, Stadt","type":"Große_Kreisstadt"},"district":{"key":"08325","name":"Rottweil","type":"Landkreis"},"federalState":{"key":"08","name":"Baden-Württemberg"}},{"name":"Rottweiler Str.","postalCode":"78628","locality":"Rottweil","municipality":{"key":"08325049","name":"Rottweil, Stadt","type":"Große_Kreisstadt"},"district":{"key":"08325","name":"Rottweil","type":"Landkreis"},"federalState":{"key":"08","name":"Baden-Württemberg"}},{"name":"Rottweiler Str.","postalCode":"78658","locality":"Zimmern ob Rottweil","municipality":{"key":"08325069","name":"Zimmern ob Rottweil","type":"Kreisangehörige_Gemeinde"},"district":{"key":"08325","name":"Rottweil","type":"Landkreis"},"federalState":{"key":"08","name":"Baden-Württemberg"}},{"name":"Ruckgaberstr.","postalCode":"78628","locality":"Rottweil","municipality":{"key":"08325049","name":"Rottweil, Stadt","type":"Große_Kreisstadt"},"district":{"key":"08325","name":"Rottweil","type":"Landkreis"},"federalState":{"key":"08","name":"Baden-Württemberg"}},{"name":"Ruhe-Christi-Str.","postalCode":"78628","locality":"Rottweil","municipality":{"key":"08325049","name":"Rottweil, Stadt","type":"Große_Kreisstadt"},"district":{"key":"08325","name":"Rottweil","type":"Landkreis"},"federalState":{"key":"08","name":"Baden-Württemberg"}},{"name":"Schachen","postalCode":"78664","locality":"Eschbronn","municipality":{"key":"08325071","name":"Eschbronn","type":"Kreisangehörige_Gemeinde"},"district":{"key":"08325","name":"Rottweil","type":"Landkreis"},"federalState":{"key":"08","name":"Baden-Württemberg"}},{"name":"Schillerstr.","postalCode":"78664","locality":"Eschbronn","municipality":{"key":"08325071","name":"Eschbronn","type":"Kreisangehörige_Gemeinde"},"district":{"key":"08325","name":"Rottweil","type":"Landkreis"},"federalState":{"key":"08","name":"Baden-Württemberg"}},{"name":"Schönbronner Str.","postalCode":"78664","locality":"Eschbronn","municipality":{"key":"08325071","name":"Eschbronn","type":"Kreisangehörige_Gemeinde"},"district":{"key":"08325","name":"Rottweil","type":"Landkreis"},"federalState":{"key":"08","name":"Baden-Württemberg"}},{"name":"Schramberger Str.","postalCode":"78664","locality":"Eschbronn","municipality":{"key":"08325071","name":"Eschbronn","type":"Kreisangehörige_Gemeinde"},"district":{"key":"08325","name":"Rottweil","type":"Landkreis"},"federalState":{"key":"08","name":"Baden-Württemberg"}},{"name":"Schulweg","postalCode":"78664","locality":"Eschbronn","municipality":{"key":"08325071","name":"Eschbronn","type":"Kreisangehörige_Gemeinde"},"district":{"key":"08325","name":"Rottweil","type":"Landkreis"},"federalState":{"key":"08","name":"Baden-Württemberg"}},{"name":"Schwarze Gasse","postalCode":"78664","locality":"Eschbronn","municipality":{"key":"08325071","name":"Eschbronn","type":"Kreisangehörige_Gemeinde"},"district":{"key":"08325","name":"Rottweil","type":"Landkreis"},"federalState":{"key":"08","name":"Baden-Württemberg"}},{"name":"Staigenwiesen","postalCode":"78664","locality":"Eschbronn","municipality":{"key":"08325071","name":"Eschbronn","type":"Kreisangehörige_Gemeinde"},"district":{"key":"08325","name":"Rottweil","type":"Landkreis"},"federalState":{"key":"08","name":"Baden-Württemberg"}},{"name":"Sternendachsbühl","postalCode":"78664","locality":"Eschbronn","municipality":{"key":"08325071","name":"Eschbronn","type":"Kreisangehörige_Gemeinde"},"district":{"key":"08325","name":"Rottweil","type":"Landkreis"},"federalState":{"key":"08","name":"Baden-Württemberg"}},{"name":"Tannweg","postalCode":"78664","locality":"Eschbronn","municipality":{"key":"08325071","name":"Eschbronn","type":"Kreisangehörige_Gemeinde"},"district":{"key":"08325","name":"Rottweil","type":"Landkreis"},"federalState":{"key":"08","name":"Baden-Württemberg"}},{"name":"Teufenstr.","postalCode":"78664","locality":"Eschbronn","municipality":{"key":"08325071","name":"Eschbronn","type":"Kreisangehörige_Gemeinde"},"district":{"key":"08325","name":"Rottweil","type":"Landkreis"},"federalState":{"key":"08","name":"Baden-Württemberg"}},{"name":"Uhlandstr.","postalCode":"78664","locality":"Eschbronn","municipality":{"key":"08325071","name":"Eschbronn","type":"Kreisangehörige_Gemeinde"},"district":{"key":"08325","name":"Rottweil","type":"Landkreis"},"federalState":{"key":"08","name":"Baden-Württemberg"}},{"name":"Unterer Teufen","postalCode":"78664","locality":"Eschbronn","municipality":{"key":"08325071","name":"Eschbronn","type":"Kreisangehörige_Gemeinde"},"district":{"key":"08325","name":"Rottweil","type":"Landkreis"},"federalState":{"key":"08","name":"Baden-Württemberg"}},{"name":"Vaihingerhof","postalCode":"78628","locality":"Rottweil","municipality":{"key":"08325049","name":"Rottweil, Stadt","type":"Große_Kreisstadt"},"district":{"key":"08325","name":"Rottweil","type":"Landkreis"},"federalState":{"key":"08","name":"Baden-Württemberg"}},{"name":"Viadukt","postalCode":"78628","locality":"Rottweil","municipality":{"key":"08325049","name":"Rottweil, Stadt","type":"Große_Kreisstadt"},"district":{"key":"08325","name":"Rottweil","type":"Landkreis"},"federalState":{"key":"08","name":"Baden-Württemberg"}},{"name":"Via L'Aquila","postalCode":"78628","locality":"Rottweil","municipality":{"key":"08325049","name":"Rottweil, Stadt","type":"Große_Kreisstadt"},"district":{"key":"08325","name":"Rottweil","type":"Landkreis"},"federalState":{"key":"08","name":"Baden-Württemberg"}},{"name":"Vogelsangstr.","postalCode":"78628","locality":"Rottweil","municipality":{"key":"08325049","name":"Rottweil, Stadt","type":"Große_Kreisstadt"},"district":{"key":"08325","name":"Rottweil","type":"Landkreis"},"federalState":{"key":"08","name":"Baden-Württemberg"}},{"name":"Vogtstr.","postalCode":"78628","locality":"Rottweil","municipality":{"key":"08325049","name":"Rottweil, Stadt","type":"Große_Kreisstadt"},"district":{"key":"08325","name":"Rottweil","type":"Landkreis"},"federalState":{"key":"08","name":"Baden-Württemberg"}},{"name":"Vollochweg","postalCode":"78628","locality":"Rottweil","municipality":{"key":"08325049","name":"Rottweil, Stadt","type":"Große_Kreisstadt"},"district":{"key":"08325","name":"Rottweil","type":"Landkreis"},"federalState":{"key":"08","name":"Baden-Württemberg"}},{"name":"Vorderes Teich","postalCode":"78658","locality":"Zimmern ob Rottweil","municipality":{"key":"08325069","name":"Zimmern ob Rottweil","type":"Kreisangehörige_Gemeinde"},"district":{"key":"08325","name":"Rottweil","type":"Landkreis"},"federalState":{"key":"08","name":"Baden-Württemberg"}},{"name":"Vorstadt","postalCode":"78658","locality":"Zimmern ob Rottweil","municipality":{"key":"08325069","name":"Zimmern ob Rottweil","type":"Kreisangehörige_Gemeinde"},"district":{"key":"08325","name":"Rottweil","type":"Landkreis"},"federalState":{"key":"08","name":"Baden-Württemberg"}},{"name":"Weilerner Str.","postalCode":"78664","locality":"Eschbronn","municipality":{"key":"08325071","name":"Eschbronn","type":"Kreisangehörige_Gemeinde"},"district":{"key":"08325","name":"Rottweil","type":"Landkreis"},"federalState":{"key":"08","name":"Baden-Württemberg"}},{"name":"Wiesen","postalCode":"78664","locality":"Eschbronn","municipality":{"key":"08325071","name":"Eschbronn","type":"Kreisangehörige_Gemeinde"},"district":{"key":"08325","name":"Rottweil","type":"Landkreis"},"federalState":{"key":"08","name":"Baden-Württemberg"}},{"name":"Ziegelhüttenweg","postalCode":"78664","locality":"Eschbronn","municipality":{"key":"08325071","name":"Eschbronn","type":"Kreisangehörige_Gemeinde"},"district":{"key":"08325","name":"Rottweil","type":"Landkreis"},"federalState":{"key":"08","name":"Baden-Württemberg"}},{"name":"Äußere Alleenstr.","postalCode":"78628","locality":"Rottweil","municipality":{"key":"08325049","name":"Rottweil, Stadt","type":"Große_Kreisstadt"},"district":{"key":"08325","name":"Rottweil","type":"Landkreis"},"federalState":{"key":"08","name":"Baden-Württemberg"}},{"name":"Öschlestr.","postalCode":"78628","locality":"Rottweil","municipality":{"key":"08325049","name":"Rottweil, Stadt","type":"Große_Kreisstadt"},"district":{"key":"08325","name":"Rottweil","type":"Landkreis"},"federalState":{"key":"08","name":"Baden-Württemberg"}},{"name":"Überlinger Str.","postalCode":"78628","locality":"Rottweil","municipality":{"key":"08325049","name":"Rottweil, Stadt","type":"Große_Kreisstadt"},"district":{"key":"08325","name":"Rottweil","type":"Landkreis"},"federalState":{"key":"08","name":"Baden-Württemberg"}},]