[{"name":"Ab-Hardt-Weg","postalCode":"57368","locality":"Lennestadt","municipality":{"key":"05966020","name":"Lennestadt, Stadt","type":"Stadt"},"district":{"key":"05966","name":"Olpe","type":"Kreis"},"federalState":{"key":"05","name":"Nordrhein-Westfalen"}},{"name":"Adam-Brill-Weg","postalCode":"57368","locality":"Lennestadt","municipality":{"key":"05966020","name":"Lennestadt, Stadt","type":"Stadt"},"district":{"key":"05966","name":"Olpe","type":"Kreis"},"federalState":{"key":"05","name":"Nordrhein-Westfalen"}},{"name":"Adlerstr.","postalCode":"57368","locality":"Lennestadt","municipality":{"key":"05966020","name":"Lennestadt, Stadt","type":"Stadt"},"district":{"key":"05966","name":"Olpe","type":"Kreis"},"federalState":{"key":"05","name":"Nordrhein-Westfalen"}},{"name":"Agathastr.","postalCode":"57368","locality":"Lennestadt","municipality":{"key":"05966020","name":"Lennestadt, Stadt","type":"Stadt"},"district":{"key":"05966","name":"Olpe","type":"Kreis"},"federalState":{"key":"05","name":"Nordrhein-Westfalen"}},{"name":"Ahornweg","postalCode":"57368","locality":"Lennestadt","municipality":{"key":"05966020","name":"Lennestadt, Stadt","type":"Stadt"},"district":{"key":"05966","name":"Olpe","type":"Kreis"},"federalState":{"key":"05","name":"Nordrhein-Westfalen"}},{"name":"Albrecht-Dürer-Str.","postalCode":"57368","locality":"Lennestadt","municipality":{"key":"05966020","name":"Lennestadt, Stadt","type":"Stadt"},"district":{"key":"05966","name":"Olpe","type":"Kreis"},"federalState":{"key":"05","name":"Nordrhein-Westfalen"}},{"name":"Altenvalberter Str.","postalCode":"57368","locality":"Lennestadt","municipality":{"key":"05966020","name":"Lennestadt, Stadt","type":"Stadt"},"district":{"key":"05966","name":"Olpe","type":"Kreis"},"federalState":{"key":"05","name":"Nordrhein-Westfalen"}},{"name":"Alter Amtsweg","postalCode":"57368","locality":"Lennestadt","municipality":{"key":"05966020","name":"Lennestadt, Stadt","type":"Stadt"},"district":{"key":"05966","name":"Olpe","type":"Kreis"},"federalState":{"key":"05","name":"Nordrhein-Westfalen"}},{"name":"Alter Weg","postalCode":"57368","locality":"Lennestadt","municipality":{"key":"05966020","name":"Lennestadt, Stadt","type":"Stadt"},"district":{"key":"05966","name":"Olpe","type":"Kreis"},"federalState":{"key":"05","name":"Nordrhein-Westfalen"}},{"name":"Alte Schule","postalCode":"57368","locality":"Lennestadt","municipality":{"key":"05966020","name":"Lennestadt, Stadt","type":"Stadt"},"district":{"key":"05966","name":"Olpe","type":"Kreis"},"federalState":{"key":"05","name":"Nordrhein-Westfalen"}},{"name":"Alte Str.","postalCode":"57368","locality":"Lennestadt","municipality":{"key":"05966020","name":"Lennestadt, Stadt","type":"Stadt"},"district":{"key":"05966","name":"Olpe","type":"Kreis"},"federalState":{"key":"05","name":"Nordrhein-Westfalen"}},{"name":"Am Bahndamm","postalCode":"57368","locality":"Lennestadt","municipality":{"key":"05966020","name":"Lennestadt, Stadt","type":"Stadt"},"district":{"key":"05966","name":"Olpe","type":"Kreis"},"federalState":{"key":"05","name":"Nordrhein-Westfalen"}},{"name":"Am Bauken","postalCode":"57368","locality":"Lennestadt","municipality":{"key":"05966020","name":"Lennestadt, Stadt","type":"Stadt"},"district":{"key":"05966","name":"Olpe","type":"Kreis"},"federalState":{"key":"05","name":"Nordrhein-Westfalen"}},{"name":"Am Beul","postalCode":"57368","locality":"Lennestadt","municipality":{"key":"05966020","name":"Lennestadt, Stadt","type":"Stadt"},"district":{"key":"05966","name":"Olpe","type":"Kreis"},"federalState":{"key":"05","name":"Nordrhein-Westfalen"}},{"name":"Am Biertappen","postalCode":"57368","locality":"Lennestadt","municipality":{"key":"05966020","name":"Lennestadt, Stadt","type":"Stadt"},"district":{"key":"05966","name":"Olpe","type":"Kreis"},"federalState":{"key":"05","name":"Nordrhein-Westfalen"}},{"name":"Am Buchhagen","postalCode":"57368","locality":"Lennestadt","municipality":{"key":"05966020","name":"Lennestadt, Stadt","type":"Stadt"},"district":{"key":"05966","name":"Olpe","type":"Kreis"},"federalState":{"key":"05","name":"Nordrhein-Westfalen"}},{"name":"Am Ellenberg","postalCode":"57368","locality":"Lennestadt","municipality":{"key":"05966020","name":"Lennestadt, Stadt","type":"Stadt"},"district":{"key":"05966","name":"Olpe","type":"Kreis"},"federalState":{"key":"05","name":"Nordrhein-Westfalen"}},{"name":"Am Erbstollen","postalCode":"57368","locality":"Lennestadt","municipality":{"key":"05966020","name":"Lennestadt, Stadt","type":"Stadt"},"district":{"key":"05966","name":"Olpe","type":"Kreis"},"federalState":{"key":"05","name":"Nordrhein-Westfalen"}},{"name":"Am Freibad","postalCode":"57368","locality":"Lennestadt","municipality":{"key":"05966020","name":"Lennestadt, Stadt","type":"Stadt"},"district":{"key":"05966","name":"Olpe","type":"Kreis"},"federalState":{"key":"05","name":"Nordrhein-Westfalen"}},{"name":"Am Garten","postalCode":"57368","locality":"Lennestadt","municipality":{"key":"05966020","name":"Lennestadt, Stadt","type":"Stadt"},"district":{"key":"05966","name":"Olpe","type":"Kreis"},"federalState":{"key":"05","name":"Nordrhein-Westfalen"}},{"name":"Am Gradeberg","postalCode":"57368","locality":"Lennestadt","municipality":{"key":"05966020","name":"Lennestadt, Stadt","type":"Stadt"},"district":{"key":"05966","name":"Olpe","type":"Kreis"},"federalState":{"key":"05","name":"Nordrhein-Westfalen"}},{"name":"Am Griengraben","postalCode":"57368","locality":"Lennestadt","municipality":{"key":"05966020","name":"Lennestadt, Stadt","type":"Stadt"},"district":{"key":"05966","name":"Olpe","type":"Kreis"},"federalState":{"key":"05","name":"Nordrhein-Westfalen"}},{"name":"Am Harkort","postalCode":"57368","locality":"Lennestadt","municipality":{"key":"05966020","name":"Lennestadt, Stadt","type":"Stadt"},"district":{"key":"05966","name":"Olpe","type":"Kreis"},"federalState":{"key":"05","name":"Nordrhein-Westfalen"}},{"name":"Am Hengstenberg","postalCode":"57368","locality":"Lennestadt","municipality":{"key":"05966020","name":"Lennestadt, Stadt","type":"Stadt"},"district":{"key":"05966","name":"Olpe","type":"Kreis"},"federalState":{"key":"05","name":"Nordrhein-Westfalen"}},{"name":"Am Hirtenberg","postalCode":"57368","locality":"Lennestadt","municipality":{"key":"05966020","name":"Lennestadt, Stadt","type":"Stadt"},"district":{"key":"05966","name":"Olpe","type":"Kreis"},"federalState":{"key":"05","name":"Nordrhein-Westfalen"}},{"name":"Am Hofe","postalCode":"57368","locality":"Lennestadt","municipality":{"key":"05966020","name":"Lennestadt, Stadt","type":"Stadt"},"district":{"key":"05966","name":"Olpe","type":"Kreis"},"federalState":{"key":"05","name":"Nordrhein-Westfalen"}},{"name":"Am Johanniskopf","postalCode":"37627","locality":"Lenne","municipality":{"key":"03255027","name":"Lenne","type":"Kreisangehörige_Gemeinde"},"district":{"key":"03255","name":"Holzminden","type":"Landkreis"},"federalState":{"key":"03","name":"Niedersachsen"}},{"name":"Am Kattengericht","postalCode":"57368","locality":"Lennestadt","municipality":{"key":"05966020","name":"Lennestadt, Stadt","type":"Stadt"},"district":{"key":"05966","name":"Olpe","type":"Kreis"},"federalState":{"key":"05","name":"Nordrhein-Westfalen"}},{"name":"Am Kickenberg","postalCode":"57368","locality":"Lennestadt","municipality":{"key":"05966020","name":"Lennestadt, Stadt","type":"Stadt"},"district":{"key":"05966","name":"Olpe","type":"Kreis"},"federalState":{"key":"05","name":"Nordrhein-Westfalen"}},{"name":"Am Kieswasser","postalCode":"57368","locality":"Lennestadt","municipality":{"key":"05966020","name":"Lennestadt, Stadt","type":"Stadt"},"district":{"key":"05966","name":"Olpe","type":"Kreis"},"federalState":{"key":"05","name":"Nordrhein-Westfalen"}},{"name":"Am Kindergarten","postalCode":"57368","locality":"Lennestadt","municipality":{"key":"05966020","name":"Lennestadt, Stadt","type":"Stadt"},"district":{"key":"05966","name":"Olpe","type":"Kreis"},"federalState":{"key":"05","name":"Nordrhein-Westfalen"}},{"name":"Am Kippel","postalCode":"57368","locality":"Lennestadt","municipality":{"key":"05966020","name":"Lennestadt, Stadt","type":"Stadt"},"district":{"key":"05966","name":"Olpe","type":"Kreis"},"federalState":{"key":"05","name":"Nordrhein-Westfalen"}},{"name":"Am Klatenberg","postalCode":"57368","locality":"Lennestadt","municipality":{"key":"05966020","name":"Lennestadt, Stadt","type":"Stadt"},"district":{"key":"05966","name":"Olpe","type":"Kreis"},"federalState":{"key":"05","name":"Nordrhein-Westfalen"}},{"name":"Am Knapp","postalCode":"57368","locality":"Lennestadt","municipality":{"key":"05966020","name":"Lennestadt, Stadt","type":"Stadt"},"district":{"key":"05966","name":"Olpe","type":"Kreis"},"federalState":{"key":"05","name":"Nordrhein-Westfalen"}},{"name":"Am Krähenberg","postalCode":"57368","locality":"Lennestadt","municipality":{"key":"05966020","name":"Lennestadt, Stadt","type":"Stadt"},"district":{"key":"05966","name":"Olpe","type":"Kreis"},"federalState":{"key":"05","name":"Nordrhein-Westfalen"}},{"name":"Am Krankenhaus","postalCode":"57368","locality":"Lennestadt","municipality":{"key":"05966020","name":"Lennestadt, Stadt","type":"Stadt"},"district":{"key":"05966","name":"Olpe","type":"Kreis"},"federalState":{"key":"05","name":"Nordrhein-Westfalen"}},{"name":"Am Kurpark","postalCode":"57368","locality":"Lennestadt","municipality":{"key":"05966020","name":"Lennestadt, Stadt","type":"Stadt"},"district":{"key":"05966","name":"Olpe","type":"Kreis"},"federalState":{"key":"05","name":"Nordrhein-Westfalen"}},{"name":"Am Laiwen","postalCode":"57368","locality":"Lennestadt","municipality":{"key":"05966020","name":"Lennestadt, Stadt","type":"Stadt"},"district":{"key":"05966","name":"Olpe","type":"Kreis"},"federalState":{"key":"05","name":"Nordrhein-Westfalen"}},{"name":"Am Langscheid","postalCode":"57368","locality":"Lennestadt","municipality":{"key":"05966020","name":"Lennestadt, Stadt","type":"Stadt"},"district":{"key":"05966","name":"Olpe","type":"Kreis"},"federalState":{"key":"05","name":"Nordrhein-Westfalen"}},{"name":"Am Lüttenberg","postalCode":"57368","locality":"Lennestadt","municipality":{"key":"05966020","name":"Lennestadt, Stadt","type":"Stadt"},"district":{"key":"05966","name":"Olpe","type":"Kreis"},"federalState":{"key":"05","name":"Nordrhein-Westfalen"}},{"name":"Am Potterloh","postalCode":"57368","locality":"Lennestadt","municipality":{"key":"05966020","name":"Lennestadt, Stadt","type":"Stadt"},"district":{"key":"05966","name":"Olpe","type":"Kreis"},"federalState":{"key":"05","name":"Nordrhein-Westfalen"}},{"name":"Am Radenberg","postalCode":"57368","locality":"Lennestadt","municipality":{"key":"05966020","name":"Lennestadt, Stadt","type":"Stadt"},"district":{"key":"05966","name":"Olpe","type":"Kreis"},"federalState":{"key":"05","name":"Nordrhein-Westfalen"}},{"name":"Am Rathaus","postalCode":"57368","locality":"Lennestadt","municipality":{"key":"05966020","name":"Lennestadt, Stadt","type":"Stadt"},"district":{"key":"05966","name":"Olpe","type":"Kreis"},"federalState":{"key":"05","name":"Nordrhein-Westfalen"}},{"name":"Am Remmel","postalCode":"57368","locality":"Lennestadt","municipality":{"key":"05966020","name":"Lennestadt, Stadt","type":"Stadt"},"district":{"key":"05966","name":"Olpe","type":"Kreis"},"federalState":{"key":"05","name":"Nordrhein-Westfalen"}},{"name":"Am Rosenberg","postalCode":"57368","locality":"Lennestadt","municipality":{"key":"05966020","name":"Lennestadt, Stadt","type":"Stadt"},"district":{"key":"05966","name":"Olpe","type":"Kreis"},"federalState":{"key":"05","name":"Nordrhein-Westfalen"}},{"name":"Am Rott","postalCode":"57368","locality":"Lennestadt","municipality":{"key":"05966020","name":"Lennestadt, Stadt","type":"Stadt"},"district":{"key":"05966","name":"Olpe","type":"Kreis"},"federalState":{"key":"05","name":"Nordrhein-Westfalen"}},{"name":"Am Rübenkamp","postalCode":"57368","locality":"Lennestadt","municipality":{"key":"05966020","name":"Lennestadt, Stadt","type":"Stadt"},"district":{"key":"05966","name":"Olpe","type":"Kreis"},"federalState":{"key":"05","name":"Nordrhein-Westfalen"}},{"name":"Am Rüberg","postalCode":"57368","locality":"Lennestadt","municipality":{"key":"05966020","name":"Lennestadt, Stadt","type":"Stadt"},"district":{"key":"05966","name":"Olpe","type":"Kreis"},"federalState":{"key":"05","name":"Nordrhein-Westfalen"}},{"name":"Am Schacht","postalCode":"57368","locality":"Lennestadt","municipality":{"key":"05966020","name":"Lennestadt, Stadt","type":"Stadt"},"district":{"key":"05966","name":"Olpe","type":"Kreis"},"federalState":{"key":"05","name":"Nordrhein-Westfalen"}},{"name":"Am Schüerken","postalCode":"57368","locality":"Lennestadt","municipality":{"key":"05966020","name":"Lennestadt, Stadt","type":"Stadt"},"district":{"key":"05966","name":"Olpe","type":"Kreis"},"federalState":{"key":"05","name":"Nordrhein-Westfalen"}},{"name":"Bachstr.","postalCode":"57368","locality":"Lennestadt","municipality":{"key":"05966020","name":"Lennestadt, Stadt","type":"Stadt"},"district":{"key":"05966","name":"Olpe","type":"Kreis"},"federalState":{"key":"05","name":"Nordrhein-Westfalen"}},{"name":"Bahnhofsplatz","postalCode":"57368","locality":"Lennestadt","municipality":{"key":"05966020","name":"Lennestadt, Stadt","type":"Stadt"},"district":{"key":"05966","name":"Olpe","type":"Kreis"},"federalState":{"key":"05","name":"Nordrhein-Westfalen"}},{"name":"Bahnweg","postalCode":"57368","locality":"Lennestadt","municipality":{"key":"05966020","name":"Lennestadt, Stadt","type":"Stadt"},"district":{"key":"05966","name":"Olpe","type":"Kreis"},"federalState":{"key":"05","name":"Nordrhein-Westfalen"}},{"name":"Bamenohler Str.","postalCode":"57368","locality":"Lennestadt","municipality":{"key":"05966020","name":"Lennestadt, Stadt","type":"Stadt"},"district":{"key":"05966","name":"Olpe","type":"Kreis"},"federalState":{"key":"05","name":"Nordrhein-Westfalen"}},{"name":"Barbarastr.","postalCode":"57368","locality":"Lennestadt","municipality":{"key":"05966020","name":"Lennestadt, Stadt","type":"Stadt"},"district":{"key":"05966","name":"Olpe","type":"Kreis"},"federalState":{"key":"05","name":"Nordrhein-Westfalen"}},{"name":"Baro","postalCode":"57368","locality":"Lennestadt","municipality":{"key":"05966020","name":"Lennestadt, Stadt","type":"Stadt"},"district":{"key":"05966","name":"Olpe","type":"Kreis"},"federalState":{"key":"05","name":"Nordrhein-Westfalen"}},{"name":"Baumschule","postalCode":"57368","locality":"Lennestadt","municipality":{"key":"05966020","name":"Lennestadt, Stadt","type":"Stadt"},"district":{"key":"05966","name":"Olpe","type":"Kreis"},"federalState":{"key":"05","name":"Nordrhein-Westfalen"}},{"name":"Beeselstr.","postalCode":"57368","locality":"Lennestadt","municipality":{"key":"05966020","name":"Lennestadt, Stadt","type":"Stadt"},"district":{"key":"05966","name":"Olpe","type":"Kreis"},"federalState":{"key":"05","name":"Nordrhein-Westfalen"}},{"name":"Beethovenstr.","postalCode":"57368","locality":"Lennestadt","municipality":{"key":"05966020","name":"Lennestadt, Stadt","type":"Stadt"},"district":{"key":"05966","name":"Olpe","type":"Kreis"},"federalState":{"key":"05","name":"Nordrhein-Westfalen"}},{"name":"Bennerweg","postalCode":"57368","locality":"Lennestadt","municipality":{"key":"05966020","name":"Lennestadt, Stadt","type":"Stadt"},"district":{"key":"05966","name":"Olpe","type":"Kreis"},"federalState":{"key":"05","name":"Nordrhein-Westfalen"}},{"name":"Bergstr.","postalCode":"57368","locality":"Lennestadt","municipality":{"key":"05966020","name":"Lennestadt, Stadt","type":"Stadt"},"district":{"key":"05966","name":"Olpe","type":"Kreis"},"federalState":{"key":"05","name":"Nordrhein-Westfalen"}},{"name":"Bermkestr.","postalCode":"57368","locality":"Lennestadt","municipality":{"key":"05966020","name":"Lennestadt, Stadt","type":"Stadt"},"district":{"key":"05966","name":"Olpe","type":"Kreis"},"federalState":{"key":"05","name":"Nordrhein-Westfalen"}},{"name":"Bermkeweg","postalCode":"57368","locality":"Lennestadt","municipality":{"key":"05966020","name":"Lennestadt, Stadt","type":"Stadt"},"district":{"key":"05966","name":"Olpe","type":"Kreis"},"federalState":{"key":"05","name":"Nordrhein-Westfalen"}},{"name":"Biberweg","postalCode":"57368","locality":"Lennestadt","municipality":{"key":"05966020","name":"Lennestadt, Stadt","type":"Stadt"},"district":{"key":"05966","name":"Olpe","type":"Kreis"},"federalState":{"key":"05","name":"Nordrhein-Westfalen"}},{"name":"Bielefelder Str.","postalCode":"57368","locality":"Lennestadt","municipality":{"key":"05966020","name":"Lennestadt, Stadt","type":"Stadt"},"district":{"key":"05966","name":"Olpe","type":"Kreis"},"federalState":{"key":"05","name":"Nordrhein-Westfalen"}},{"name":"Bilsteiner Markt","postalCode":"57368","locality":"Lennestadt","municipality":{"key":"05966020","name":"Lennestadt, Stadt","type":"Stadt"},"district":{"key":"05966","name":"Olpe","type":"Kreis"},"federalState":{"key":"05","name":"Nordrhein-Westfalen"}},{"name":"Bilsteiner Weg","postalCode":"57368","locality":"Lennestadt","municipality":{"key":"05966020","name":"Lennestadt, Stadt","type":"Stadt"},"district":{"key":"05966","name":"Olpe","type":"Kreis"},"federalState":{"key":"05","name":"Nordrhein-Westfalen"}},{"name":"Birkenweg","postalCode":"57368","locality":"Lennestadt","municipality":{"key":"05966020","name":"Lennestadt, Stadt","type":"Stadt"},"district":{"key":"05966","name":"Olpe","type":"Kreis"},"federalState":{"key":"05","name":"Nordrhein-Westfalen"}},{"name":"Birkeystr.","postalCode":"57368","locality":"Lennestadt","municipality":{"key":"05966020","name":"Lennestadt, Stadt","type":"Stadt"},"district":{"key":"05966","name":"Olpe","type":"Kreis"},"federalState":{"key":"05","name":"Nordrhein-Westfalen"}},{"name":"Bischof-Ferdinand-Weg","postalCode":"57368","locality":"Lennestadt","municipality":{"key":"05966020","name":"Lennestadt, Stadt","type":"Stadt"},"district":{"key":"05966","name":"Olpe","type":"Kreis"},"federalState":{"key":"05","name":"Nordrhein-Westfalen"}},{"name":"Böddes","postalCode":"57368","locality":"Lennestadt","municipality":{"key":"05966020","name":"Lennestadt, Stadt","type":"Stadt"},"district":{"key":"05966","name":"Olpe","type":"Kreis"},"federalState":{"key":"05","name":"Nordrhein-Westfalen"}},{"name":"Bonzelerhammer","postalCode":"57368","locality":"Lennestadt","municipality":{"key":"05966020","name":"Lennestadt, Stadt","type":"Stadt"},"district":{"key":"05966","name":"Olpe","type":"Kreis"},"federalState":{"key":"05","name":"Nordrhein-Westfalen"}},{"name":"Bonzeler Str.","postalCode":"57368","locality":"Lennestadt","municipality":{"key":"05966020","name":"Lennestadt, Stadt","type":"Stadt"},"district":{"key":"05966","name":"Olpe","type":"Kreis"},"federalState":{"key":"05","name":"Nordrhein-Westfalen"}},{"name":"Borgerholz","postalCode":"57368","locality":"Lennestadt","municipality":{"key":"05966020","name":"Lennestadt, Stadt","type":"Stadt"},"district":{"key":"05966","name":"Olpe","type":"Kreis"},"federalState":{"key":"05","name":"Nordrhein-Westfalen"}},{"name":"Brabeckweg","postalCode":"57368","locality":"Lennestadt","municipality":{"key":"05966020","name":"Lennestadt, Stadt","type":"Stadt"},"district":{"key":"05966","name":"Olpe","type":"Kreis"},"federalState":{"key":"05","name":"Nordrhein-Westfalen"}},{"name":"Brachter Str.","postalCode":"57368","locality":"Lennestadt","municipality":{"key":"05966020","name":"Lennestadt, Stadt","type":"Stadt"},"district":{"key":"05966","name":"Olpe","type":"Kreis"},"federalState":{"key":"05","name":"Nordrhein-Westfalen"}},{"name":"Bredde","postalCode":"57368","locality":"Lennestadt","municipality":{"key":"05966020","name":"Lennestadt, Stadt","type":"Stadt"},"district":{"key":"05966","name":"Olpe","type":"Kreis"},"federalState":{"key":"05","name":"Nordrhein-Westfalen"}},{"name":"Breitestr.","postalCode":"37627","locality":"Lenne","municipality":{"key":"03255027","name":"Lenne","type":"Kreisangehörige_Gemeinde"},"district":{"key":"03255","name":"Holzminden","type":"Landkreis"},"federalState":{"key":"03","name":"Niedersachsen"}},{"name":"Bremerichstr.","postalCode":"57368","locality":"Lennestadt","municipality":{"key":"05966020","name":"Lennestadt, Stadt","type":"Stadt"},"district":{"key":"05966","name":"Olpe","type":"Kreis"},"federalState":{"key":"05","name":"Nordrhein-Westfalen"}},{"name":"Bremke","postalCode":"57368","locality":"Lennestadt","municipality":{"key":"05966020","name":"Lennestadt, Stadt","type":"Stadt"},"district":{"key":"05966","name":"Olpe","type":"Kreis"},"federalState":{"key":"05","name":"Nordrhein-Westfalen"}},{"name":"Brenschede","postalCode":"57368","locality":"Lennestadt","municipality":{"key":"05966020","name":"Lennestadt, Stadt","type":"Stadt"},"district":{"key":"05966","name":"Olpe","type":"Kreis"},"federalState":{"key":"05","name":"Nordrhein-Westfalen"}},{"name":"Breslauer Str.","postalCode":"57368","locality":"Lennestadt","municipality":{"key":"05966020","name":"Lennestadt, Stadt","type":"Stadt"},"district":{"key":"05966","name":"Olpe","type":"Kreis"},"federalState":{"key":"05","name":"Nordrhein-Westfalen"}},{"name":"Brucherstr.","postalCode":"57368","locality":"Lennestadt","municipality":{"key":"05966020","name":"Lennestadt, Stadt","type":"Stadt"},"district":{"key":"05966","name":"Olpe","type":"Kreis"},"federalState":{"key":"05","name":"Nordrhein-Westfalen"}},{"name":"Bruchhausen","postalCode":"57368","locality":"Lennestadt","municipality":{"key":"05966020","name":"Lennestadt, Stadt","type":"Stadt"},"district":{"key":"05966","name":"Olpe","type":"Kreis"},"federalState":{"key":"05","name":"Nordrhein-Westfalen"}},{"name":"Brückenweg","postalCode":"57368","locality":"Lennestadt","municipality":{"key":"05966020","name":"Lennestadt, Stadt","type":"Stadt"},"district":{"key":"05966","name":"Olpe","type":"Kreis"},"federalState":{"key":"05","name":"Nordrhein-Westfalen"}},{"name":"Buchenkamp","postalCode":"57368","locality":"Lennestadt","municipality":{"key":"05966020","name":"Lennestadt, Stadt","type":"Stadt"},"district":{"key":"05966","name":"Olpe","type":"Kreis"},"federalState":{"key":"05","name":"Nordrhein-Westfalen"}},{"name":"Buchenseifen","postalCode":"57368","locality":"Lennestadt","municipality":{"key":"05966020","name":"Lennestadt, Stadt","type":"Stadt"},"district":{"key":"05966","name":"Olpe","type":"Kreis"},"federalState":{"key":"05","name":"Nordrhein-Westfalen"}},{"name":"Buchenweg","postalCode":"57368","locality":"Lennestadt","municipality":{"key":"05966020","name":"Lennestadt, Stadt","type":"Stadt"},"district":{"key":"05966","name":"Olpe","type":"Kreis"},"federalState":{"key":"05","name":"Nordrhein-Westfalen"}},{"name":"Bundesstr.","postalCode":"37627","locality":"Lenne","municipality":{"key":"03255027","name":"Lenne","type":"Kreisangehörige_Gemeinde"},"district":{"key":"03255","name":"Holzminden","type":"Landkreis"},"federalState":{"key":"03","name":"Niedersachsen"}},{"name":"Bünte Rundweg","postalCode":"57368","locality":"Lennestadt","municipality":{"key":"05966020","name":"Lennestadt, Stadt","type":"Stadt"},"district":{"key":"05966","name":"Olpe","type":"Kreis"},"federalState":{"key":"05","name":"Nordrhein-Westfalen"}},{"name":"Burbecker Str.","postalCode":"57368","locality":"Lennestadt","municipality":{"key":"05966020","name":"Lennestadt, Stadt","type":"Stadt"},"district":{"key":"05966","name":"Olpe","type":"Kreis"},"federalState":{"key":"05","name":"Nordrhein-Westfalen"}},{"name":"Burchardus-Platz","postalCode":"57368","locality":"Lennestadt","municipality":{"key":"05966020","name":"Lennestadt, Stadt","type":"Stadt"},"district":{"key":"05966","name":"Olpe","type":"Kreis"},"federalState":{"key":"05","name":"Nordrhein-Westfalen"}},{"name":"Burghelle","postalCode":"57368","locality":"Lennestadt","municipality":{"key":"05966020","name":"Lennestadt, Stadt","type":"Stadt"},"district":{"key":"05966","name":"Olpe","type":"Kreis"},"federalState":{"key":"05","name":"Nordrhein-Westfalen"}},{"name":"Burgherrenweg","postalCode":"57368","locality":"Lennestadt","municipality":{"key":"05966020","name":"Lennestadt, Stadt","type":"Stadt"},"district":{"key":"05966","name":"Olpe","type":"Kreis"},"federalState":{"key":"05","name":"Nordrhein-Westfalen"}},{"name":"Burgweg","postalCode":"57368","locality":"Lennestadt","municipality":{"key":"05966020","name":"Lennestadt, Stadt","type":"Stadt"},"district":{"key":"05966","name":"Olpe","type":"Kreis"},"federalState":{"key":"05","name":"Nordrhein-Westfalen"}},{"name":"Bussardstr.","postalCode":"57368","locality":"Lennestadt","municipality":{"key":"05966020","name":"Lennestadt, Stadt","type":"Stadt"},"district":{"key":"05966","name":"Olpe","type":"Kreis"},"federalState":{"key":"05","name":"Nordrhein-Westfalen"}},{"name":"Christine-Koch-Str.","postalCode":"57368","locality":"Lennestadt","municipality":{"key":"05966020","name":"Lennestadt, Stadt","type":"Stadt"},"district":{"key":"05966","name":"Olpe","type":"Kreis"},"federalState":{"key":"05","name":"Nordrhein-Westfalen"}},{"name":"Dachsweg","postalCode":"57368","locality":"Lennestadt","municipality":{"key":"05966020","name":"Lennestadt, Stadt","type":"Stadt"},"district":{"key":"05966","name":"Olpe","type":"Kreis"},"federalState":{"key":"05","name":"Nordrhein-Westfalen"}},{"name":"Dahlienweg","postalCode":"57368","locality":"Lennestadt","municipality":{"key":"05966020","name":"Lennestadt, Stadt","type":"Stadt"},"district":{"key":"05966","name":"Olpe","type":"Kreis"},"federalState":{"key":"05","name":"Nordrhein-Westfalen"}},{"name":"Danziger Str.","postalCode":"57368","locality":"Lennestadt","municipality":{"key":"05966020","name":"Lennestadt, Stadt","type":"Stadt"},"district":{"key":"05966","name":"Olpe","type":"Kreis"},"federalState":{"key":"05","name":"Nordrhein-Westfalen"}},{"name":"Dierkesplatz","postalCode":"57368","locality":"Lennestadt","municipality":{"key":"05966020","name":"Lennestadt, Stadt","type":"Stadt"},"district":{"key":"05966","name":"Olpe","type":"Kreis"},"federalState":{"key":"05","name":"Nordrhein-Westfalen"}},{"name":"Dierkesstr.","postalCode":"57368","locality":"Lennestadt","municipality":{"key":"05966020","name":"Lennestadt, Stadt","type":"Stadt"},"district":{"key":"05966","name":"Olpe","type":"Kreis"},"federalState":{"key":"05","name":"Nordrhein-Westfalen"}},{"name":"Dietrich-Bonhoeffer-Weg","postalCode":"57368","locality":"Lennestadt","municipality":{"key":"05966020","name":"Lennestadt, Stadt","type":"Stadt"},"district":{"key":"05966","name":"Olpe","type":"Kreis"},"federalState":{"key":"05","name":"Nordrhein-Westfalen"}},{"name":"Dinselstr.","postalCode":"57368","locality":"Lennestadt","municipality":{"key":"05966020","name":"Lennestadt, Stadt","type":"Stadt"},"district":{"key":"05966","name":"Olpe","type":"Kreis"},"federalState":{"key":"05","name":"Nordrhein-Westfalen"}},{"name":"Dorfstr.","postalCode":"57368","locality":"Lennestadt","municipality":{"key":"05966020","name":"Lennestadt, Stadt","type":"Stadt"},"district":{"key":"05966","name":"Olpe","type":"Kreis"},"federalState":{"key":"05","name":"Nordrhein-Westfalen"}},{"name":"Dörmecke","postalCode":"57368","locality":"Lennestadt","municipality":{"key":"05966020","name":"Lennestadt, Stadt","type":"Stadt"},"district":{"key":"05966","name":"Olpe","type":"Kreis"},"federalState":{"key":"05","name":"Nordrhein-Westfalen"}},{"name":"Dr.-Arnoldi-Str.","postalCode":"57368","locality":"Lennestadt","municipality":{"key":"05966020","name":"Lennestadt, Stadt","type":"Stadt"},"district":{"key":"05966","name":"Olpe","type":"Kreis"},"federalState":{"key":"05","name":"Nordrhein-Westfalen"}},{"name":"Drosselstr.","postalCode":"57368","locality":"Lennestadt","municipality":{"key":"05966020","name":"Lennestadt, Stadt","type":"Stadt"},"district":{"key":"05966","name":"Olpe","type":"Kreis"},"federalState":{"key":"05","name":"Nordrhein-Westfalen"}},{"name":"Drostenweg","postalCode":"57368","locality":"Lennestadt","municipality":{"key":"05966020","name":"Lennestadt, Stadt","type":"Stadt"},"district":{"key":"05966","name":"Olpe","type":"Kreis"},"federalState":{"key":"05","name":"Nordrhein-Westfalen"}},{"name":"Dr.-Paul-Müller-Str.","postalCode":"57368","locality":"Lennestadt","municipality":{"key":"05966020","name":"Lennestadt, Stadt","type":"Stadt"},"district":{"key":"05966","name":"Olpe","type":"Kreis"},"federalState":{"key":"05","name":"Nordrhein-Westfalen"}},{"name":"Eckenweg","postalCode":"57368","locality":"Lennestadt","municipality":{"key":"05966020","name":"Lennestadt, Stadt","type":"Stadt"},"district":{"key":"05966","name":"Olpe","type":"Kreis"},"federalState":{"key":"05","name":"Nordrhein-Westfalen"}},{"name":"Edelweißweg","postalCode":"57368","locality":"Lennestadt","municipality":{"key":"05966020","name":"Lennestadt, Stadt","type":"Stadt"},"district":{"key":"05966","name":"Olpe","type":"Kreis"},"federalState":{"key":"05","name":"Nordrhein-Westfalen"}},{"name":"Eichenstr.","postalCode":"57368","locality":"Lennestadt","municipality":{"key":"05966020","name":"Lennestadt, Stadt","type":"Stadt"},"district":{"key":"05966","name":"Olpe","type":"Kreis"},"federalState":{"key":"05","name":"Nordrhein-Westfalen"}},{"name":"Eichhornstr.","postalCode":"57368","locality":"Lennestadt","municipality":{"key":"05966020","name":"Lennestadt, Stadt","type":"Stadt"},"district":{"key":"05966","name":"Olpe","type":"Kreis"},"federalState":{"key":"05","name":"Nordrhein-Westfalen"}},{"name":"Eiling","postalCode":"57368","locality":"Lennestadt","municipality":{"key":"05966020","name":"Lennestadt, Stadt","type":"Stadt"},"district":{"key":"05966","name":"Olpe","type":"Kreis"},"federalState":{"key":"05","name":"Nordrhein-Westfalen"}},{"name":"Eisvogelstr.","postalCode":"57368","locality":"Lennestadt","municipality":{"key":"05966020","name":"Lennestadt, Stadt","type":"Stadt"},"district":{"key":"05966","name":"Olpe","type":"Kreis"},"federalState":{"key":"05","name":"Nordrhein-Westfalen"}},{"name":"Elsperhusen","postalCode":"57368","locality":"Lennestadt","municipality":{"key":"05966020","name":"Lennestadt, Stadt","type":"Stadt"},"district":{"key":"05966","name":"Olpe","type":"Kreis"},"federalState":{"key":"05","name":"Nordrhein-Westfalen"}},{"name":"Elsper Str.","postalCode":"57368","locality":"Lennestadt","municipality":{"key":"05966020","name":"Lennestadt, Stadt","type":"Stadt"},"district":{"key":"05966","name":"Olpe","type":"Kreis"},"federalState":{"key":"05","name":"Nordrhein-Westfalen"}},{"name":"Entenweg","postalCode":"57368","locality":"Lennestadt","municipality":{"key":"05966020","name":"Lennestadt, Stadt","type":"Stadt"},"district":{"key":"05966","name":"Olpe","type":"Kreis"},"federalState":{"key":"05","name":"Nordrhein-Westfalen"}},{"name":"Erlenweg","postalCode":"57368","locality":"Lennestadt","municipality":{"key":"05966020","name":"Lennestadt, Stadt","type":"Stadt"},"district":{"key":"05966","name":"Olpe","type":"Kreis"},"federalState":{"key":"05","name":"Nordrhein-Westfalen"}},{"name":"Ermkerweg","postalCode":"57368","locality":"Lennestadt","municipality":{"key":"05966020","name":"Lennestadt, Stadt","type":"Stadt"},"district":{"key":"05966","name":"Olpe","type":"Kreis"},"federalState":{"key":"05","name":"Nordrhein-Westfalen"}},{"name":"Erzweg","postalCode":"57368","locality":"Lennestadt","municipality":{"key":"05966020","name":"Lennestadt, Stadt","type":"Stadt"},"district":{"key":"05966","name":"Olpe","type":"Kreis"},"federalState":{"key":"05","name":"Nordrhein-Westfalen"}},{"name":"Falkenstr.","postalCode":"57368","locality":"Lennestadt","municipality":{"key":"05966020","name":"Lennestadt, Stadt","type":"Stadt"},"district":{"key":"05966","name":"Olpe","type":"Kreis"},"federalState":{"key":"05","name":"Nordrhein-Westfalen"}},{"name":"Farnweg","postalCode":"57368","locality":"Lennestadt","municipality":{"key":"05966020","name":"Lennestadt, Stadt","type":"Stadt"},"district":{"key":"05966","name":"Olpe","type":"Kreis"},"federalState":{"key":"05","name":"Nordrhein-Westfalen"}},{"name":"Fasanenweg","postalCode":"57368","locality":"Lennestadt","municipality":{"key":"05966020","name":"Lennestadt, Stadt","type":"Stadt"},"district":{"key":"05966","name":"Olpe","type":"Kreis"},"federalState":{"key":"05","name":"Nordrhein-Westfalen"}},{"name":"Faulebutter","postalCode":"57368","locality":"Lennestadt","municipality":{"key":"05966020","name":"Lennestadt, Stadt","type":"Stadt"},"district":{"key":"05966","name":"Olpe","type":"Kreis"},"federalState":{"key":"05","name":"Nordrhein-Westfalen"}},{"name":"Feldweg","postalCode":"57368","locality":"Lennestadt","municipality":{"key":"05966020","name":"Lennestadt, Stadt","type":"Stadt"},"district":{"key":"05966","name":"Olpe","type":"Kreis"},"federalState":{"key":"05","name":"Nordrhein-Westfalen"}},{"name":"Felsenweg","postalCode":"57368","locality":"Lennestadt","municipality":{"key":"05966020","name":"Lennestadt, Stadt","type":"Stadt"},"district":{"key":"05966","name":"Olpe","type":"Kreis"},"federalState":{"key":"05","name":"Nordrhein-Westfalen"}},{"name":"Ferdinand-Alzer-Str.","postalCode":"57368","locality":"Lennestadt","municipality":{"key":"05966020","name":"Lennestadt, Stadt","type":"Stadt"},"district":{"key":"05966","name":"Olpe","type":"Kreis"},"federalState":{"key":"05","name":"Nordrhein-Westfalen"}},{"name":"Fichtenstr.","postalCode":"57368","locality":"Lennestadt","municipality":{"key":"05966020","name":"Lennestadt, Stadt","type":"Stadt"},"district":{"key":"05966","name":"Olpe","type":"Kreis"},"federalState":{"key":"05","name":"Nordrhein-Westfalen"}},{"name":"Fichtenzweig","postalCode":"57368","locality":"Lennestadt","municipality":{"key":"05966020","name":"Lennestadt, Stadt","type":"Stadt"},"district":{"key":"05966","name":"Olpe","type":"Kreis"},"federalState":{"key":"05","name":"Nordrhein-Westfalen"}},{"name":"Finkenstr.","postalCode":"57368","locality":"Lennestadt","municipality":{"key":"05966020","name":"Lennestadt, Stadt","type":"Stadt"},"district":{"key":"05966","name":"Olpe","type":"Kreis"},"federalState":{"key":"05","name":"Nordrhein-Westfalen"}},{"name":"Fliederstr.","postalCode":"57368","locality":"Lennestadt","municipality":{"key":"05966020","name":"Lennestadt, Stadt","type":"Stadt"},"district":{"key":"05966","name":"Olpe","type":"Kreis"},"federalState":{"key":"05","name":"Nordrhein-Westfalen"}},{"name":"Förder Platz","postalCode":"57368","locality":"Lennestadt","municipality":{"key":"05966020","name":"Lennestadt, Stadt","type":"Stadt"},"district":{"key":"05966","name":"Olpe","type":"Kreis"},"federalState":{"key":"05","name":"Nordrhein-Westfalen"}},{"name":"Forellenweg","postalCode":"57368","locality":"Lennestadt","municipality":{"key":"05966020","name":"Lennestadt, Stadt","type":"Stadt"},"district":{"key":"05966","name":"Olpe","type":"Kreis"},"federalState":{"key":"05","name":"Nordrhein-Westfalen"}},{"name":"Fredeburger Str.","postalCode":"57368","locality":"Lennestadt","municipality":{"key":"05966020","name":"Lennestadt, Stadt","type":"Stadt"},"district":{"key":"05966","name":"Olpe","type":"Kreis"},"federalState":{"key":"05","name":"Nordrhein-Westfalen"}},{"name":"Freiheit","postalCode":"57368","locality":"Lennestadt","municipality":{"key":"05966020","name":"Lennestadt, Stadt","type":"Stadt"},"district":{"key":"05966","name":"Olpe","type":"Kreis"},"federalState":{"key":"05","name":"Nordrhein-Westfalen"}},{"name":"Freusbergstr.","postalCode":"57368","locality":"Lennestadt","municipality":{"key":"05966020","name":"Lennestadt, Stadt","type":"Stadt"},"district":{"key":"05966","name":"Olpe","type":"Kreis"},"federalState":{"key":"05","name":"Nordrhein-Westfalen"}},{"name":"Friedhofsweg","postalCode":"57368","locality":"Lennestadt","municipality":{"key":"05966020","name":"Lennestadt, Stadt","type":"Stadt"},"district":{"key":"05966","name":"Olpe","type":"Kreis"},"federalState":{"key":"05","name":"Nordrhein-Westfalen"}},{"name":"Fuchsweg","postalCode":"57368","locality":"Lennestadt","municipality":{"key":"05966020","name":"Lennestadt, Stadt","type":"Stadt"},"district":{"key":"05966","name":"Olpe","type":"Kreis"},"federalState":{"key":"05","name":"Nordrhein-Westfalen"}},{"name":"Fürstenbergstr.","postalCode":"57368","locality":"Lennestadt","municipality":{"key":"05966020","name":"Lennestadt, Stadt","type":"Stadt"},"district":{"key":"05966","name":"Olpe","type":"Kreis"},"federalState":{"key":"05","name":"Nordrhein-Westfalen"}},{"name":"Gartenstr.","postalCode":"57368","locality":"Lennestadt","municipality":{"key":"05966020","name":"Lennestadt, Stadt","type":"Stadt"},"district":{"key":"05966","name":"Olpe","type":"Kreis"},"federalState":{"key":"05","name":"Nordrhein-Westfalen"}},{"name":"Gasse","postalCode":"57368","locality":"Lennestadt","municipality":{"key":"05966020","name":"Lennestadt, Stadt","type":"Stadt"},"district":{"key":"05966","name":"Olpe","type":"Kreis"},"federalState":{"key":"05","name":"Nordrhein-Westfalen"}},{"name":"Gellestatt","postalCode":"57368","locality":"Lennestadt","municipality":{"key":"05966020","name":"Lennestadt, Stadt","type":"Stadt"},"district":{"key":"05966","name":"Olpe","type":"Kreis"},"federalState":{"key":"05","name":"Nordrhein-Westfalen"}},{"name":"Gerberweg","postalCode":"57368","locality":"Lennestadt","municipality":{"key":"05966020","name":"Lennestadt, Stadt","type":"Stadt"},"district":{"key":"05966","name":"Olpe","type":"Kreis"},"federalState":{"key":"05","name":"Nordrhein-Westfalen"}},{"name":"Gerichtsweg","postalCode":"57368","locality":"Lennestadt","municipality":{"key":"05966020","name":"Lennestadt, Stadt","type":"Stadt"},"district":{"key":"05966","name":"Olpe","type":"Kreis"},"federalState":{"key":"05","name":"Nordrhein-Westfalen"}},{"name":"Gersthagen","postalCode":"57368","locality":"Lennestadt","municipality":{"key":"05966020","name":"Lennestadt, Stadt","type":"Stadt"},"district":{"key":"05966","name":"Olpe","type":"Kreis"},"federalState":{"key":"05","name":"Nordrhein-Westfalen"}},{"name":"Gertrudis Weg","postalCode":"57368","locality":"Lennestadt","municipality":{"key":"05966020","name":"Lennestadt, Stadt","type":"Stadt"},"district":{"key":"05966","name":"Olpe","type":"Kreis"},"federalState":{"key":"05","name":"Nordrhein-Westfalen"}},{"name":"Gladiolenweg","postalCode":"57368","locality":"Lennestadt","municipality":{"key":"05966020","name":"Lennestadt, Stadt","type":"Stadt"},"district":{"key":"05966","name":"Olpe","type":"Kreis"},"federalState":{"key":"05","name":"Nordrhein-Westfalen"}},{"name":"Gleierstr.","postalCode":"57368","locality":"Lennestadt","municipality":{"key":"05966020","name":"Lennestadt, Stadt","type":"Stadt"},"district":{"key":"05966","name":"Olpe","type":"Kreis"},"federalState":{"key":"05","name":"Nordrhein-Westfalen"}},{"name":"Glockenstr.","postalCode":"57368","locality":"Lennestadt","municipality":{"key":"05966020","name":"Lennestadt, Stadt","type":"Stadt"},"district":{"key":"05966","name":"Olpe","type":"Kreis"},"federalState":{"key":"05","name":"Nordrhein-Westfalen"}},{"name":"Glück-Auf-Str.","postalCode":"57368","locality":"Lennestadt","municipality":{"key":"05966020","name":"Lennestadt, Stadt","type":"Stadt"},"district":{"key":"05966","name":"Olpe","type":"Kreis"},"federalState":{"key":"05","name":"Nordrhein-Westfalen"}},{"name":"Goldammerstr.","postalCode":"57368","locality":"Lennestadt","municipality":{"key":"05966020","name":"Lennestadt, Stadt","type":"Stadt"},"district":{"key":"05966","name":"Olpe","type":"Kreis"},"federalState":{"key":"05","name":"Nordrhein-Westfalen"}},{"name":"Grabenstr.","postalCode":"57368","locality":"Lennestadt","municipality":{"key":"05966020","name":"Lennestadt, Stadt","type":"Stadt"},"district":{"key":"05966","name":"Olpe","type":"Kreis"},"federalState":{"key":"05","name":"Nordrhein-Westfalen"}},{"name":"Graefenstein-Weg","postalCode":"57368","locality":"Lennestadt","municipality":{"key":"05966020","name":"Lennestadt, Stadt","type":"Stadt"},"district":{"key":"05966","name":"Olpe","type":"Kreis"},"federalState":{"key":"05","name":"Nordrhein-Westfalen"}},{"name":"Grafweg","postalCode":"57368","locality":"Lennestadt","municipality":{"key":"05966020","name":"Lennestadt, Stadt","type":"Stadt"},"district":{"key":"05966","name":"Olpe","type":"Kreis"},"federalState":{"key":"05","name":"Nordrhein-Westfalen"}},{"name":"Grevenbrücker Str.","postalCode":"57368","locality":"Lennestadt","municipality":{"key":"05966020","name":"Lennestadt, Stadt","type":"Stadt"},"district":{"key":"05966","name":"Olpe","type":"Kreis"},"federalState":{"key":"05","name":"Nordrhein-Westfalen"}},{"name":"Grubenstr.","postalCode":"57368","locality":"Lennestadt","municipality":{"key":"05966020","name":"Lennestadt, Stadt","type":"Stadt"},"district":{"key":"05966","name":"Olpe","type":"Kreis"},"federalState":{"key":"05","name":"Nordrhein-Westfalen"}},{"name":"Grundschulweg","postalCode":"57368","locality":"Lennestadt","municipality":{"key":"05966020","name":"Lennestadt, Stadt","type":"Stadt"},"district":{"key":"05966","name":"Olpe","type":"Kreis"},"federalState":{"key":"05","name":"Nordrhein-Westfalen"}},{"name":"Grüne","postalCode":"57368","locality":"Lennestadt","municipality":{"key":"05966020","name":"Lennestadt, Stadt","type":"Stadt"},"district":{"key":"05966","name":"Olpe","type":"Kreis"},"federalState":{"key":"05","name":"Nordrhein-Westfalen"}},{"name":"Grüne Allee","postalCode":"37627","locality":"Lenne","municipality":{"key":"03255027","name":"Lenne","type":"Kreisangehörige_Gemeinde"},"district":{"key":"03255","name":"Holzminden","type":"Landkreis"},"federalState":{"key":"03","name":"Niedersachsen"}},{"name":"Habichtstr.","postalCode":"57368","locality":"Lennestadt","municipality":{"key":"05966020","name":"Lennestadt, Stadt","type":"Stadt"},"district":{"key":"05966","name":"Olpe","type":"Kreis"},"federalState":{"key":"05","name":"Nordrhein-Westfalen"}},{"name":"Hachen","postalCode":"57368","locality":"Lennestadt","municipality":{"key":"05966020","name":"Lennestadt, Stadt","type":"Stadt"},"district":{"key":"05966","name":"Olpe","type":"Kreis"},"federalState":{"key":"05","name":"Nordrhein-Westfalen"}},{"name":"Hachener Str.","postalCode":"57368","locality":"Lennestadt","municipality":{"key":"05966020","name":"Lennestadt, Stadt","type":"Stadt"},"district":{"key":"05966","name":"Olpe","type":"Kreis"},"federalState":{"key":"05","name":"Nordrhein-Westfalen"}},{"name":"Hagener Str.","postalCode":"57368","locality":"Lennestadt","municipality":{"key":"05966020","name":"Lennestadt, Stadt","type":"Stadt"},"district":{"key":"05966","name":"Olpe","type":"Kreis"},"federalState":{"key":"05","name":"Nordrhein-Westfalen"}},{"name":"Halberbrachter Str.","postalCode":"57368","locality":"Lennestadt","municipality":{"key":"05966020","name":"Lennestadt, Stadt","type":"Stadt"},"district":{"key":"05966","name":"Olpe","type":"Kreis"},"federalState":{"key":"05","name":"Nordrhein-Westfalen"}},{"name":"Hallenweg","postalCode":"57368","locality":"Lennestadt","municipality":{"key":"05966020","name":"Lennestadt, Stadt","type":"Stadt"},"district":{"key":"05966","name":"Olpe","type":"Kreis"},"federalState":{"key":"05","name":"Nordrhein-Westfalen"}},{"name":"Hammecketal","postalCode":"57368","locality":"Lennestadt","municipality":{"key":"05966020","name":"Lennestadt, Stadt","type":"Stadt"},"district":{"key":"05966","name":"Olpe","type":"Kreis"},"federalState":{"key":"05","name":"Nordrhein-Westfalen"}},{"name":"Hanfgarten","postalCode":"57368","locality":"Lennestadt","municipality":{"key":"05966020","name":"Lennestadt, Stadt","type":"Stadt"},"district":{"key":"05966","name":"Olpe","type":"Kreis"},"federalState":{"key":"05","name":"Nordrhein-Westfalen"}},{"name":"Hangpfad","postalCode":"57368","locality":"Lennestadt","municipality":{"key":"05966020","name":"Lennestadt, Stadt","type":"Stadt"},"district":{"key":"05966","name":"Olpe","type":"Kreis"},"federalState":{"key":"05","name":"Nordrhein-Westfalen"}},{"name":"Hangstr.","postalCode":"57368","locality":"Lennestadt","municipality":{"key":"05966020","name":"Lennestadt, Stadt","type":"Stadt"},"district":{"key":"05966","name":"Olpe","type":"Kreis"},"federalState":{"key":"05","name":"Nordrhein-Westfalen"}},{"name":"Hans-Mieles-Weg","postalCode":"57368","locality":"Lennestadt","municipality":{"key":"05966020","name":"Lennestadt, Stadt","type":"Stadt"},"district":{"key":"05966","name":"Olpe","type":"Kreis"},"federalState":{"key":"05","name":"Nordrhein-Westfalen"}},{"name":"Härdlerstr.","postalCode":"57368","locality":"Lennestadt","municipality":{"key":"05966020","name":"Lennestadt, Stadt","type":"Stadt"},"district":{"key":"05966","name":"Olpe","type":"Kreis"},"federalState":{"key":"05","name":"Nordrhein-Westfalen"}},{"name":"Hasenpfad","postalCode":"57368","locality":"Lennestadt","municipality":{"key":"05966020","name":"Lennestadt, Stadt","type":"Stadt"},"district":{"key":"05966","name":"Olpe","type":"Kreis"},"federalState":{"key":"05","name":"Nordrhein-Westfalen"}},{"name":"Hasterbergstr.","postalCode":"57368","locality":"Lennestadt","municipality":{"key":"05966020","name":"Lennestadt, Stadt","type":"Stadt"},"district":{"key":"05966","name":"Olpe","type":"Kreis"},"federalState":{"key":"05","name":"Nordrhein-Westfalen"}},{"name":"Haus Hilmecke","postalCode":"57368","locality":"Lennestadt","municipality":{"key":"05966020","name":"Lennestadt, Stadt","type":"Stadt"},"district":{"key":"05966","name":"Olpe","type":"Kreis"},"federalState":{"key":"05","name":"Nordrhein-Westfalen"}},{"name":"Heckenweg","postalCode":"57368","locality":"Lennestadt","municipality":{"key":"05966020","name":"Lennestadt, Stadt","type":"Stadt"},"district":{"key":"05966","name":"Olpe","type":"Kreis"},"federalState":{"key":"05","name":"Nordrhein-Westfalen"}},{"name":"Heerweg","postalCode":"57368","locality":"Lennestadt","municipality":{"key":"05966020","name":"Lennestadt, Stadt","type":"Stadt"},"district":{"key":"05966","name":"Olpe","type":"Kreis"},"federalState":{"key":"05","name":"Nordrhein-Westfalen"}},{"name":"Heidfeldstr.","postalCode":"57368","locality":"Lennestadt","municipality":{"key":"05966020","name":"Lennestadt, Stadt","type":"Stadt"},"district":{"key":"05966","name":"Olpe","type":"Kreis"},"federalState":{"key":"05","name":"Nordrhein-Westfalen"}},{"name":"Heimweg","postalCode":"57368","locality":"Lennestadt","municipality":{"key":"05966020","name":"Lennestadt, Stadt","type":"Stadt"},"district":{"key":"05966","name":"Olpe","type":"Kreis"},"federalState":{"key":"05","name":"Nordrhein-Westfalen"}},{"name":"Heinrich-Cordes-Platz","postalCode":"57368","locality":"Lennestadt","municipality":{"key":"05966020","name":"Lennestadt, Stadt","type":"Stadt"},"district":{"key":"05966","name":"Olpe","type":"Kreis"},"federalState":{"key":"05","name":"Nordrhein-Westfalen"}},{"name":"Heinrich-Heine-Str.","postalCode":"57368","locality":"Lennestadt","municipality":{"key":"05966020","name":"Lennestadt, Stadt","type":"Stadt"},"district":{"key":"05966","name":"Olpe","type":"Kreis"},"federalState":{"key":"05","name":"Nordrhein-Westfalen"}},{"name":"Helmut-Kumpf-Str.","postalCode":"57368","locality":"Lennestadt","municipality":{"key":"05966020","name":"Lennestadt, Stadt","type":"Stadt"},"district":{"key":"05966","name":"Olpe","type":"Kreis"},"federalState":{"key":"05","name":"Nordrhein-Westfalen"}},{"name":"Helsmecke","postalCode":"57368","locality":"Lennestadt","municipality":{"key":"05966020","name":"Lennestadt, Stadt","type":"Stadt"},"district":{"key":"05966","name":"Olpe","type":"Kreis"},"federalState":{"key":"05","name":"Nordrhein-Westfalen"}},{"name":"Hembergstr.","postalCode":"57368","locality":"Lennestadt","municipality":{"key":"05966020","name":"Lennestadt, Stadt","type":"Stadt"},"district":{"key":"05966","name":"Olpe","type":"Kreis"},"federalState":{"key":"05","name":"Nordrhein-Westfalen"}},{"name":"Hermann-Löns-Str.","postalCode":"57368","locality":"Lennestadt","municipality":{"key":"05966020","name":"Lennestadt, Stadt","type":"Stadt"},"district":{"key":"05966","name":"Olpe","type":"Kreis"},"federalState":{"key":"05","name":"Nordrhein-Westfalen"}},{"name":"Hermesfeld","postalCode":"57368","locality":"Lennestadt","municipality":{"key":"05966020","name":"Lennestadt, Stadt","type":"Stadt"},"district":{"key":"05966","name":"Olpe","type":"Kreis"},"federalState":{"key":"05","name":"Nordrhein-Westfalen"}},{"name":"Hesbergweg","postalCode":"57368","locality":"Lennestadt","municipality":{"key":"05966020","name":"Lennestadt, Stadt","type":"Stadt"},"district":{"key":"05966","name":"Olpe","type":"Kreis"},"federalState":{"key":"05","name":"Nordrhein-Westfalen"}},{"name":"Hespecke","postalCode":"57368","locality":"Lennestadt","municipality":{"key":"05966020","name":"Lennestadt, Stadt","type":"Stadt"},"district":{"key":"05966","name":"Olpe","type":"Kreis"},"federalState":{"key":"05","name":"Nordrhein-Westfalen"}},{"name":"Heumke","postalCode":"57368","locality":"Lennestadt","municipality":{"key":"05966020","name":"Lennestadt, Stadt","type":"Stadt"},"district":{"key":"05966","name":"Olpe","type":"Kreis"},"federalState":{"key":"05","name":"Nordrhein-Westfalen"}},{"name":"Hilsblick","postalCode":"37627","locality":"Lenne","municipality":{"key":"03255027","name":"Lenne","type":"Kreisangehörige_Gemeinde"},"district":{"key":"03255","name":"Holzminden","type":"Landkreis"},"federalState":{"key":"03","name":"Niedersachsen"}},{"name":"Hinter der Kirche","postalCode":"57368","locality":"Lennestadt","municipality":{"key":"05966020","name":"Lennestadt, Stadt","type":"Stadt"},"district":{"key":"05966","name":"Olpe","type":"Kreis"},"federalState":{"key":"05","name":"Nordrhein-Westfalen"}},{"name":"Hochstr.","postalCode":"57368","locality":"Lennestadt","municipality":{"key":"05966020","name":"Lennestadt, Stadt","type":"Stadt"},"district":{"key":"05966","name":"Olpe","type":"Kreis"},"federalState":{"key":"05","name":"Nordrhein-Westfalen"}},{"name":"Hofacker","postalCode":"57368","locality":"Lennestadt","municipality":{"key":"05966020","name":"Lennestadt, Stadt","type":"Stadt"},"district":{"key":"05966","name":"Olpe","type":"Kreis"},"federalState":{"key":"05","name":"Nordrhein-Westfalen"}},{"name":"Hofaue","postalCode":"57368","locality":"Lennestadt","municipality":{"key":"05966020","name":"Lennestadt, Stadt","type":"Stadt"},"district":{"key":"05966","name":"Olpe","type":"Kreis"},"federalState":{"key":"05","name":"Nordrhein-Westfalen"}},{"name":"Hofstr.","postalCode":"57368","locality":"Lennestadt","municipality":{"key":"05966020","name":"Lennestadt, Stadt","type":"Stadt"},"district":{"key":"05966","name":"Olpe","type":"Kreis"},"federalState":{"key":"05","name":"Nordrhein-Westfalen"}},{"name":"Hohe-Bracht-Str.","postalCode":"57368","locality":"Lennestadt","municipality":{"key":"05966020","name":"Lennestadt, Stadt","type":"Stadt"},"district":{"key":"05966","name":"Olpe","type":"Kreis"},"federalState":{"key":"05","name":"Nordrhein-Westfalen"}},{"name":"Höhenstr.","postalCode":"57368","locality":"Lennestadt","municipality":{"key":"05966020","name":"Lennestadt, Stadt","type":"Stadt"},"district":{"key":"05966","name":"Olpe","type":"Kreis"},"federalState":{"key":"05","name":"Nordrhein-Westfalen"}},{"name":"Hoher Hagen","postalCode":"57368","locality":"Lennestadt","municipality":{"key":"05966020","name":"Lennestadt, Stadt","type":"Stadt"},"district":{"key":"05966","name":"Olpe","type":"Kreis"},"federalState":{"key":"05","name":"Nordrhein-Westfalen"}},{"name":"Hohle Eiche","postalCode":"57368","locality":"Lennestadt","municipality":{"key":"05966020","name":"Lennestadt, Stadt","type":"Stadt"},"district":{"key":"05966","name":"Olpe","type":"Kreis"},"federalState":{"key":"05","name":"Nordrhein-Westfalen"}},{"name":"Hohler Weg","postalCode":"57368","locality":"Lennestadt","municipality":{"key":"05966020","name":"Lennestadt, Stadt","type":"Stadt"},"district":{"key":"05966","name":"Olpe","type":"Kreis"},"federalState":{"key":"05","name":"Nordrhein-Westfalen"}},{"name":"Holunderweg","postalCode":"57368","locality":"Lennestadt","municipality":{"key":"05966020","name":"Lennestadt, Stadt","type":"Stadt"},"district":{"key":"05966","name":"Olpe","type":"Kreis"},"federalState":{"key":"05","name":"Nordrhein-Westfalen"}},{"name":"Hormeckestr.","postalCode":"57368","locality":"Lennestadt","municipality":{"key":"05966020","name":"Lennestadt, Stadt","type":"Stadt"},"district":{"key":"05966","name":"Olpe","type":"Kreis"},"federalState":{"key":"05","name":"Nordrhein-Westfalen"}},{"name":"Hubertusweg","postalCode":"57368","locality":"Lennestadt","municipality":{"key":"05966020","name":"Lennestadt, Stadt","type":"Stadt"},"district":{"key":"05966","name":"Olpe","type":"Kreis"},"federalState":{"key":"05","name":"Nordrhein-Westfalen"}},{"name":"Hügelstr.","postalCode":"57368","locality":"Lennestadt","municipality":{"key":"05966020","name":"Lennestadt, Stadt","type":"Stadt"},"district":{"key":"05966","name":"Olpe","type":"Kreis"},"federalState":{"key":"05","name":"Nordrhein-Westfalen"}},{"name":"Hundemstr.","postalCode":"57368","locality":"Lennestadt","municipality":{"key":"05966020","name":"Lennestadt, Stadt","type":"Stadt"},"district":{"key":"05966","name":"Olpe","type":"Kreis"},"federalState":{"key":"05","name":"Nordrhein-Westfalen"}},{"name":"Hunold-Rump-Str.","postalCode":"57368","locality":"Lennestadt","municipality":{"key":"05966020","name":"Lennestadt, Stadt","type":"Stadt"},"district":{"key":"05966","name":"Olpe","type":"Kreis"},"federalState":{"key":"05","name":"Nordrhein-Westfalen"}},{"name":"Hüttenstr.","postalCode":"57368","locality":"Lennestadt","municipality":{"key":"05966020","name":"Lennestadt, Stadt","type":"Stadt"},"district":{"key":"05966","name":"Olpe","type":"Kreis"},"federalState":{"key":"05","name":"Nordrhein-Westfalen"}},{"name":"Igelweg","postalCode":"57368","locality":"Lennestadt","municipality":{"key":"05966020","name":"Lennestadt, Stadt","type":"Stadt"},"district":{"key":"05966","name":"Olpe","type":"Kreis"},"federalState":{"key":"05","name":"Nordrhein-Westfalen"}},{"name":"Im alten Hof","postalCode":"57368","locality":"Lennestadt","municipality":{"key":"05966020","name":"Lennestadt, Stadt","type":"Stadt"},"district":{"key":"05966","name":"Olpe","type":"Kreis"},"federalState":{"key":"05","name":"Nordrhein-Westfalen"}},{"name":"Im Brauck","postalCode":"57368","locality":"Lennestadt","municipality":{"key":"05966020","name":"Lennestadt, Stadt","type":"Stadt"},"district":{"key":"05966","name":"Olpe","type":"Kreis"},"federalState":{"key":"05","name":"Nordrhein-Westfalen"}},{"name":"Im Einegge","postalCode":"57368","locality":"Lennestadt","municipality":{"key":"05966020","name":"Lennestadt, Stadt","type":"Stadt"},"district":{"key":"05966","name":"Olpe","type":"Kreis"},"federalState":{"key":"05","name":"Nordrhein-Westfalen"}},{"name":"Im Gewerbegebiet","postalCode":"57368","locality":"Lennestadt","municipality":{"key":"05966020","name":"Lennestadt, Stadt","type":"Stadt"},"district":{"key":"05966","name":"Olpe","type":"Kreis"},"federalState":{"key":"05","name":"Nordrhein-Westfalen"}},{"name":"Im Hof","postalCode":"57368","locality":"Lennestadt","municipality":{"key":"05966020","name":"Lennestadt, Stadt","type":"Stadt"},"district":{"key":"05966","name":"Olpe","type":"Kreis"},"federalState":{"key":"05","name":"Nordrhein-Westfalen"}},{"name":"Im Hölzchen","postalCode":"57368","locality":"Lennestadt","municipality":{"key":"05966020","name":"Lennestadt, Stadt","type":"Stadt"},"district":{"key":"05966","name":"Olpe","type":"Kreis"},"federalState":{"key":"05","name":"Nordrhein-Westfalen"}},{"name":"Im Jerusalem","postalCode":"57368","locality":"Lennestadt","municipality":{"key":"05966020","name":"Lennestadt, Stadt","type":"Stadt"},"district":{"key":"05966","name":"Olpe","type":"Kreis"},"federalState":{"key":"05","name":"Nordrhein-Westfalen"}},{"name":"Im Kohlhof","postalCode":"57368","locality":"Lennestadt","municipality":{"key":"05966020","name":"Lennestadt, Stadt","type":"Stadt"},"district":{"key":"05966","name":"Olpe","type":"Kreis"},"federalState":{"key":"05","name":"Nordrhein-Westfalen"}},{"name":"Im Lohan","postalCode":"57368","locality":"Lennestadt","municipality":{"key":"05966020","name":"Lennestadt, Stadt","type":"Stadt"},"district":{"key":"05966","name":"Olpe","type":"Kreis"},"federalState":{"key":"05","name":"Nordrhein-Westfalen"}},{"name":"Im Planken","postalCode":"57368","locality":"Lennestadt","municipality":{"key":"05966020","name":"Lennestadt, Stadt","type":"Stadt"},"district":{"key":"05966","name":"Olpe","type":"Kreis"},"federalState":{"key":"05","name":"Nordrhein-Westfalen"}},{"name":"Im Saal","postalCode":"57368","locality":"Lennestadt","municipality":{"key":"05966020","name":"Lennestadt, Stadt","type":"Stadt"},"district":{"key":"05966","name":"Olpe","type":"Kreis"},"federalState":{"key":"05","name":"Nordrhein-Westfalen"}},{"name":"Im Stillen Winkel","postalCode":"57368","locality":"Lennestadt","municipality":{"key":"05966020","name":"Lennestadt, Stadt","type":"Stadt"},"district":{"key":"05966","name":"Olpe","type":"Kreis"},"federalState":{"key":"05","name":"Nordrhein-Westfalen"}},{"name":"Im Tiefensiepen","postalCode":"57368","locality":"Lennestadt","municipality":{"key":"05966020","name":"Lennestadt, Stadt","type":"Stadt"},"district":{"key":"05966","name":"Olpe","type":"Kreis"},"federalState":{"key":"05","name":"Nordrhein-Westfalen"}},{"name":"Im Weingarten","postalCode":"57368","locality":"Lennestadt","municipality":{"key":"05966020","name":"Lennestadt, Stadt","type":"Stadt"},"district":{"key":"05966","name":"Olpe","type":"Kreis"},"federalState":{"key":"05","name":"Nordrhein-Westfalen"}},{"name":"In den Höfen","postalCode":"57368","locality":"Lennestadt","municipality":{"key":"05966020","name":"Lennestadt, Stadt","type":"Stadt"},"district":{"key":"05966","name":"Olpe","type":"Kreis"},"federalState":{"key":"05","name":"Nordrhein-Westfalen"}},{"name":"In den Peilen","postalCode":"57368","locality":"Lennestadt","municipality":{"key":"05966020","name":"Lennestadt, Stadt","type":"Stadt"},"district":{"key":"05966","name":"Olpe","type":"Kreis"},"federalState":{"key":"05","name":"Nordrhein-Westfalen"}},{"name":"In der Ohlscheid","postalCode":"57368","locality":"Lennestadt","municipality":{"key":"05966020","name":"Lennestadt, Stadt","type":"Stadt"},"district":{"key":"05966","name":"Olpe","type":"Kreis"},"federalState":{"key":"05","name":"Nordrhein-Westfalen"}},{"name":"In der Petmecke","postalCode":"57368","locality":"Lennestadt","municipality":{"key":"05966020","name":"Lennestadt, Stadt","type":"Stadt"},"district":{"key":"05966","name":"Olpe","type":"Kreis"},"federalState":{"key":"05","name":"Nordrhein-Westfalen"}},{"name":"In der Rübecke","postalCode":"57368","locality":"Lennestadt","municipality":{"key":"05966020","name":"Lennestadt, Stadt","type":"Stadt"},"district":{"key":"05966","name":"Olpe","type":"Kreis"},"federalState":{"key":"05","name":"Nordrhein-Westfalen"}},{"name":"In der Schlade","postalCode":"57368","locality":"Lennestadt","municipality":{"key":"05966020","name":"Lennestadt, Stadt","type":"Stadt"},"district":{"key":"05966","name":"Olpe","type":"Kreis"},"federalState":{"key":"05","name":"Nordrhein-Westfalen"}},{"name":"In der Schwartmecke","postalCode":"57368","locality":"Lennestadt","municipality":{"key":"05966020","name":"Lennestadt, Stadt","type":"Stadt"},"district":{"key":"05966","name":"Olpe","type":"Kreis"},"federalState":{"key":"05","name":"Nordrhein-Westfalen"}},{"name":"In der Sillwecke","postalCode":"57368","locality":"Lennestadt","municipality":{"key":"05966020","name":"Lennestadt, Stadt","type":"Stadt"},"district":{"key":"05966","name":"Olpe","type":"Kreis"},"federalState":{"key":"05","name":"Nordrhein-Westfalen"}},{"name":"Industriestr.","postalCode":"57368","locality":"Lennestadt","municipality":{"key":"05966020","name":"Lennestadt, Stadt","type":"Stadt"},"district":{"key":"05966","name":"Olpe","type":"Kreis"},"federalState":{"key":"05","name":"Nordrhein-Westfalen"}},{"name":"Inkenweg","postalCode":"57368","locality":"Lennestadt","municipality":{"key":"05966020","name":"Lennestadt, Stadt","type":"Stadt"},"district":{"key":"05966","name":"Olpe","type":"Kreis"},"federalState":{"key":"05","name":"Nordrhein-Westfalen"}},{"name":"Jahnstr.","postalCode":"57368","locality":"Lennestadt","municipality":{"key":"05966020","name":"Lennestadt, Stadt","type":"Stadt"},"district":{"key":"05966","name":"Olpe","type":"Kreis"},"federalState":{"key":"05","name":"Nordrhein-Westfalen"}},{"name":"Johannes-Becker-Str.","postalCode":"57368","locality":"Lennestadt","municipality":{"key":"05966020","name":"Lennestadt, Stadt","type":"Stadt"},"district":{"key":"05966","name":"Olpe","type":"Kreis"},"federalState":{"key":"05","name":"Nordrhein-Westfalen"}},{"name":"Johannes-Dosch-Str.","postalCode":"57368","locality":"Lennestadt","municipality":{"key":"05966020","name":"Lennestadt, Stadt","type":"Stadt"},"district":{"key":"05966","name":"Olpe","type":"Kreis"},"federalState":{"key":"05","name":"Nordrhein-Westfalen"}},{"name":"Johannesstr.","postalCode":"57368","locality":"Lennestadt","municipality":{"key":"05966020","name":"Lennestadt, Stadt","type":"Stadt"},"district":{"key":"05966","name":"Olpe","type":"Kreis"},"federalState":{"key":"05","name":"Nordrhein-Westfalen"}},{"name":"Kählingstr.","postalCode":"57368","locality":"Lennestadt","municipality":{"key":"05966020","name":"Lennestadt, Stadt","type":"Stadt"},"district":{"key":"05966","name":"Olpe","type":"Kreis"},"federalState":{"key":"05","name":"Nordrhein-Westfalen"}},{"name":"Kaiser-Otto-Str.","postalCode":"57368","locality":"Lennestadt","municipality":{"key":"05966020","name":"Lennestadt, Stadt","type":"Stadt"},"district":{"key":"05966","name":"Olpe","type":"Kreis"},"federalState":{"key":"05","name":"Nordrhein-Westfalen"}},{"name":"Kalistr.","postalCode":"57368","locality":"Lennestadt","municipality":{"key":"05966020","name":"Lennestadt, Stadt","type":"Stadt"},"district":{"key":"05966","name":"Olpe","type":"Kreis"},"federalState":{"key":"05","name":"Nordrhein-Westfalen"}},{"name":"Kalkwerkstr.","postalCode":"57368","locality":"Lennestadt","municipality":{"key":"05966020","name":"Lennestadt, Stadt","type":"Stadt"},"district":{"key":"05966","name":"Olpe","type":"Kreis"},"federalState":{"key":"05","name":"Nordrhein-Westfalen"}},{"name":"Kampstr.","postalCode":"57368","locality":"Lennestadt","municipality":{"key":"05966020","name":"Lennestadt, Stadt","type":"Stadt"},"district":{"key":"05966","name":"Olpe","type":"Kreis"},"federalState":{"key":"05","name":"Nordrhein-Westfalen"}},{"name":"Kapellenstr.","postalCode":"57368","locality":"Lennestadt","municipality":{"key":"05966020","name":"Lennestadt, Stadt","type":"Stadt"},"district":{"key":"05966","name":"Olpe","type":"Kreis"},"federalState":{"key":"05","name":"Nordrhein-Westfalen"}},{"name":"Kardinal-Schulte-Str.","postalCode":"57368","locality":"Lennestadt","municipality":{"key":"05966020","name":"Lennestadt, Stadt","type":"Stadt"},"district":{"key":"05966","name":"Olpe","type":"Kreis"},"federalState":{"key":"05","name":"Nordrhein-Westfalen"}},{"name":"Karl-May-Str.","postalCode":"57368","locality":"Lennestadt","municipality":{"key":"05966020","name":"Lennestadt, Stadt","type":"Stadt"},"district":{"key":"05966","name":"Olpe","type":"Kreis"},"federalState":{"key":"05","name":"Nordrhein-Westfalen"}},{"name":"Kastanienweg","postalCode":"57368","locality":"Lennestadt","municipality":{"key":"05966020","name":"Lennestadt, Stadt","type":"Stadt"},"district":{"key":"05966","name":"Olpe","type":"Kreis"},"federalState":{"key":"05","name":"Nordrhein-Westfalen"}},{"name":"Kellenberg","postalCode":"57368","locality":"Lennestadt","municipality":{"key":"05966020","name":"Lennestadt, Stadt","type":"Stadt"},"district":{"key":"05966","name":"Olpe","type":"Kreis"},"federalState":{"key":"05","name":"Nordrhein-Westfalen"}},{"name":"Kickenbacher Hammer","postalCode":"57368","locality":"Lennestadt","municipality":{"key":"05966020","name":"Lennestadt, Stadt","type":"Stadt"},"district":{"key":"05966","name":"Olpe","type":"Kreis"},"federalState":{"key":"05","name":"Nordrhein-Westfalen"}},{"name":"Kickenbachstr.","postalCode":"57368","locality":"Lennestadt","municipality":{"key":"05966020","name":"Lennestadt, Stadt","type":"Stadt"},"district":{"key":"05966","name":"Olpe","type":"Kreis"},"federalState":{"key":"05","name":"Nordrhein-Westfalen"}},{"name":"Kirchanger","postalCode":"57368","locality":"Lennestadt","municipality":{"key":"05966020","name":"Lennestadt, Stadt","type":"Stadt"},"district":{"key":"05966","name":"Olpe","type":"Kreis"},"federalState":{"key":"05","name":"Nordrhein-Westfalen"}},{"name":"Kirchweg","postalCode":"57368","locality":"Lennestadt","municipality":{"key":"05966020","name":"Lennestadt, Stadt","type":"Stadt"},"district":{"key":"05966","name":"Olpe","type":"Kreis"},"federalState":{"key":"05","name":"Nordrhein-Westfalen"}},{"name":"Kirchwiese","postalCode":"57368","locality":"Lennestadt","municipality":{"key":"05966020","name":"Lennestadt, Stadt","type":"Stadt"},"district":{"key":"05966","name":"Olpe","type":"Kreis"},"federalState":{"key":"05","name":"Nordrhein-Westfalen"}},{"name":"Kleiner Weg","postalCode":"57368","locality":"Lennestadt","municipality":{"key":"05966020","name":"Lennestadt, Stadt","type":"Stadt"},"district":{"key":"05966","name":"Olpe","type":"Kreis"},"federalState":{"key":"05","name":"Nordrhein-Westfalen"}},{"name":"Klosterweg","postalCode":"57368","locality":"Lennestadt","municipality":{"key":"05966020","name":"Lennestadt, Stadt","type":"Stadt"},"district":{"key":"05966","name":"Olpe","type":"Kreis"},"federalState":{"key":"05","name":"Nordrhein-Westfalen"}},{"name":"Knappenstr.","postalCode":"57368","locality":"Lennestadt","municipality":{"key":"05966020","name":"Lennestadt, Stadt","type":"Stadt"},"district":{"key":"05966","name":"Olpe","type":"Kreis"},"federalState":{"key":"05","name":"Nordrhein-Westfalen"}},{"name":"Kolberger Weg","postalCode":"57368","locality":"Lennestadt","municipality":{"key":"05966020","name":"Lennestadt, Stadt","type":"Stadt"},"district":{"key":"05966","name":"Olpe","type":"Kreis"},"federalState":{"key":"05","name":"Nordrhein-Westfalen"}},{"name":"Kölner Str.","postalCode":"57368","locality":"Lennestadt","municipality":{"key":"05966020","name":"Lennestadt, Stadt","type":"Stadt"},"district":{"key":"05966","name":"Olpe","type":"Kreis"},"federalState":{"key":"05","name":"Nordrhein-Westfalen"}},{"name":"Kolpingstr.","postalCode":"57368","locality":"Lennestadt","municipality":{"key":"05966020","name":"Lennestadt, Stadt","type":"Stadt"},"district":{"key":"05966","name":"Olpe","type":"Kreis"},"federalState":{"key":"05","name":"Nordrhein-Westfalen"}},{"name":"Königsberger Str.","postalCode":"57368","locality":"Lennestadt","municipality":{"key":"05966020","name":"Lennestadt, Stadt","type":"Stadt"},"district":{"key":"05966","name":"Olpe","type":"Kreis"},"federalState":{"key":"05","name":"Nordrhein-Westfalen"}},{"name":"Kösliner Weg","postalCode":"57368","locality":"Lennestadt","municipality":{"key":"05966020","name":"Lennestadt, Stadt","type":"Stadt"},"district":{"key":"05966","name":"Olpe","type":"Kreis"},"federalState":{"key":"05","name":"Nordrhein-Westfalen"}},{"name":"Kranichstr.","postalCode":"57368","locality":"Lennestadt","municipality":{"key":"05966020","name":"Lennestadt, Stadt","type":"Stadt"},"district":{"key":"05966","name":"Olpe","type":"Kreis"},"federalState":{"key":"05","name":"Nordrhein-Westfalen"}},{"name":"Kreuzbergstr.","postalCode":"57368","locality":"Lennestadt","municipality":{"key":"05966020","name":"Lennestadt, Stadt","type":"Stadt"},"district":{"key":"05966","name":"Olpe","type":"Kreis"},"federalState":{"key":"05","name":"Nordrhein-Westfalen"}},{"name":"Küstriner Weg","postalCode":"57368","locality":"Lennestadt","municipality":{"key":"05966020","name":"Lennestadt, Stadt","type":"Stadt"},"district":{"key":"05966","name":"Olpe","type":"Kreis"},"federalState":{"key":"05","name":"Nordrhein-Westfalen"}},{"name":"Ladestr.","postalCode":"57368","locality":"Lennestadt","municipality":{"key":"05966020","name":"Lennestadt, Stadt","type":"Stadt"},"district":{"key":"05966","name":"Olpe","type":"Kreis"},"federalState":{"key":"05","name":"Nordrhein-Westfalen"}},{"name":"Langeneier Str.","postalCode":"57368","locality":"Lennestadt","municipality":{"key":"05966020","name":"Lennestadt, Stadt","type":"Stadt"},"district":{"key":"05966","name":"Olpe","type":"Kreis"},"federalState":{"key":"05","name":"Nordrhein-Westfalen"}},{"name":"Lannermecke","postalCode":"57368","locality":"Lennestadt","municipality":{"key":"05966020","name":"Lennestadt, Stadt","type":"Stadt"},"district":{"key":"05966","name":"Olpe","type":"Kreis"},"federalState":{"key":"05","name":"Nordrhein-Westfalen"}},{"name":"Lärchenstr.","postalCode":"57368","locality":"Lennestadt","municipality":{"key":"05966020","name":"Lennestadt, Stadt","type":"Stadt"},"district":{"key":"05966","name":"Olpe","type":"Kreis"},"federalState":{"key":"05","name":"Nordrhein-Westfalen"}},{"name":"Laubenweg","postalCode":"57368","locality":"Lennestadt","municipality":{"key":"05966020","name":"Lennestadt, Stadt","type":"Stadt"},"district":{"key":"05966","name":"Olpe","type":"Kreis"},"federalState":{"key":"05","name":"Nordrhein-Westfalen"}},{"name":"Lehmbergstr.","postalCode":"57368","locality":"Lennestadt","municipality":{"key":"05966020","name":"Lennestadt, Stadt","type":"Stadt"},"district":{"key":"05966","name":"Olpe","type":"Kreis"},"federalState":{"key":"05","name":"Nordrhein-Westfalen"}},{"name":"Leinewebers Kamp","postalCode":"57368","locality":"Lennestadt","municipality":{"key":"05966020","name":"Lennestadt, Stadt","type":"Stadt"},"district":{"key":"05966","name":"Olpe","type":"Kreis"},"federalState":{"key":"05","name":"Nordrhein-Westfalen"}},{"name":"Lendel","postalCode":"57368","locality":"Lennestadt","municipality":{"key":"05966020","name":"Lennestadt, Stadt","type":"Stadt"},"district":{"key":"05966","name":"Olpe","type":"Kreis"},"federalState":{"key":"05","name":"Nordrhein-Westfalen"}},{"name":"Lennestr.","postalCode":"57368","locality":"Lennestadt","municipality":{"key":"05966020","name":"Lennestadt, Stadt","type":"Stadt"},"district":{"key":"05966","name":"Olpe","type":"Kreis"},"federalState":{"key":"05","name":"Nordrhein-Westfalen"}},{"name":"Lennetalstr.","postalCode":"37627","locality":"Lenne","municipality":{"key":"03255027","name":"Lenne","type":"Kreisangehörige_Gemeinde"},"district":{"key":"03255","name":"Holzminden","type":"Landkreis"},"federalState":{"key":"03","name":"Niedersachsen"}},{"name":"Lenneweg","postalCode":"57368","locality":"Lennestadt","municipality":{"key":"05966020","name":"Lennestadt, Stadt","type":"Stadt"},"district":{"key":"05966","name":"Olpe","type":"Kreis"},"federalState":{"key":"05","name":"Nordrhein-Westfalen"}},{"name":"Lennewiesen","postalCode":"57368","locality":"Lennestadt","municipality":{"key":"05966020","name":"Lennestadt, Stadt","type":"Stadt"},"district":{"key":"05966","name":"Olpe","type":"Kreis"},"federalState":{"key":"05","name":"Nordrhein-Westfalen"}},{"name":"Liekedeweg","postalCode":"57368","locality":"Lennestadt","municipality":{"key":"05966020","name":"Lennestadt, Stadt","type":"Stadt"},"district":{"key":"05966","name":"Olpe","type":"Kreis"},"federalState":{"key":"05","name":"Nordrhein-Westfalen"}},{"name":"Lilienweg","postalCode":"57368","locality":"Lennestadt","municipality":{"key":"05966020","name":"Lennestadt, Stadt","type":"Stadt"},"district":{"key":"05966","name":"Olpe","type":"Kreis"},"federalState":{"key":"05","name":"Nordrhein-Westfalen"}},{"name":"Lindenstr.","postalCode":"57368","locality":"Lennestadt","municipality":{"key":"05966020","name":"Lennestadt, Stadt","type":"Stadt"},"district":{"key":"05966","name":"Olpe","type":"Kreis"},"federalState":{"key":"05","name":"Nordrhein-Westfalen"}},{"name":"Lindenzweig","postalCode":"57368","locality":"Lennestadt","municipality":{"key":"05966020","name":"Lennestadt, Stadt","type":"Stadt"},"district":{"key":"05966","name":"Olpe","type":"Kreis"},"federalState":{"key":"05","name":"Nordrhein-Westfalen"}},{"name":"Linnenplan","postalCode":"37627","locality":"Lenne","municipality":{"key":"03255027","name":"Lenne","type":"Kreisangehörige_Gemeinde"},"district":{"key":"03255","name":"Holzminden","type":"Landkreis"},"federalState":{"key":"03","name":"Niedersachsen"}},{"name":"Lomke","postalCode":"57368","locality":"Lennestadt","municipality":{"key":"05966020","name":"Lennestadt, Stadt","type":"Stadt"},"district":{"key":"05966","name":"Olpe","type":"Kreis"},"federalState":{"key":"05","name":"Nordrhein-Westfalen"}},{"name":"Lupinenweg","postalCode":"57368","locality":"Lennestadt","municipality":{"key":"05966020","name":"Lennestadt, Stadt","type":"Stadt"},"district":{"key":"05966","name":"Olpe","type":"Kreis"},"federalState":{"key":"05","name":"Nordrhein-Westfalen"}},{"name":"Lutrop","postalCode":"57368","locality":"Lennestadt","municipality":{"key":"05966020","name":"Lennestadt, Stadt","type":"Stadt"},"district":{"key":"05966","name":"Olpe","type":"Kreis"},"federalState":{"key":"05","name":"Nordrhein-Westfalen"}},{"name":"Maarweg","postalCode":"57368","locality":"Lennestadt","municipality":{"key":"05966020","name":"Lennestadt, Stadt","type":"Stadt"},"district":{"key":"05966","name":"Olpe","type":"Kreis"},"federalState":{"key":"05","name":"Nordrhein-Westfalen"}},{"name":"Mälo","postalCode":"57368","locality":"Lennestadt","municipality":{"key":"05966020","name":"Lennestadt, Stadt","type":"Stadt"},"district":{"key":"05966","name":"Olpe","type":"Kreis"},"federalState":{"key":"05","name":"Nordrhein-Westfalen"}},{"name":"Marderstr.","postalCode":"57368","locality":"Lennestadt","municipality":{"key":"05966020","name":"Lennestadt, Stadt","type":"Stadt"},"district":{"key":"05966","name":"Olpe","type":"Kreis"},"federalState":{"key":"05","name":"Nordrhein-Westfalen"}},{"name":"Maria-Theresia-Str.","postalCode":"57368","locality":"Lennestadt","municipality":{"key":"05966020","name":"Lennestadt, Stadt","type":"Stadt"},"district":{"key":"05966","name":"Olpe","type":"Kreis"},"federalState":{"key":"05","name":"Nordrhein-Westfalen"}},{"name":"Markhahnweg","postalCode":"57368","locality":"Lennestadt","municipality":{"key":"05966020","name":"Lennestadt, Stadt","type":"Stadt"},"district":{"key":"05966","name":"Olpe","type":"Kreis"},"federalState":{"key":"05","name":"Nordrhein-Westfalen"}},{"name":"Maumker Str.","postalCode":"57368","locality":"Lennestadt","municipality":{"key":"05966020","name":"Lennestadt, Stadt","type":"Stadt"},"district":{"key":"05966","name":"Olpe","type":"Kreis"},"federalState":{"key":"05","name":"Nordrhein-Westfalen"}},{"name":"Max-Lange-Weg","postalCode":"57368","locality":"Lennestadt","municipality":{"key":"05966020","name":"Lennestadt, Stadt","type":"Stadt"},"district":{"key":"05966","name":"Olpe","type":"Kreis"},"federalState":{"key":"05","name":"Nordrhein-Westfalen"}},{"name":"Meggener Str.","postalCode":"57368","locality":"Lennestadt","municipality":{"key":"05966020","name":"Lennestadt, Stadt","type":"Stadt"},"district":{"key":"05966","name":"Olpe","type":"Kreis"},"federalState":{"key":"05","name":"Nordrhein-Westfalen"}},{"name":"Meintestr.","postalCode":"37627","locality":"Lenne","municipality":{"key":"03255027","name":"Lenne","type":"Kreisangehörige_Gemeinde"},"district":{"key":"03255","name":"Holzminden","type":"Landkreis"},"federalState":{"key":"03","name":"Niedersachsen"}},{"name":"Meisenstr.","postalCode":"57368","locality":"Lennestadt","municipality":{"key":"05966020","name":"Lennestadt, Stadt","type":"Stadt"},"district":{"key":"05966","name":"Olpe","type":"Kreis"},"federalState":{"key":"05","name":"Nordrhein-Westfalen"}},{"name":"Melbecke","postalCode":"57368","locality":"Lennestadt","municipality":{"key":"05966020","name":"Lennestadt, Stadt","type":"Stadt"},"district":{"key":"05966","name":"Olpe","type":"Kreis"},"federalState":{"key":"05","name":"Nordrhein-Westfalen"}},{"name":"Melbecker Berg","postalCode":"57368","locality":"Lennestadt","municipality":{"key":"05966020","name":"Lennestadt, Stadt","type":"Stadt"},"district":{"key":"05966","name":"Olpe","type":"Kreis"},"federalState":{"key":"05","name":"Nordrhein-Westfalen"}},{"name":"Melbecker Str.","postalCode":"57368","locality":"Lennestadt","municipality":{"key":"05966020","name":"Lennestadt, Stadt","type":"Stadt"},"district":{"key":"05966","name":"Olpe","type":"Kreis"},"federalState":{"key":"05","name":"Nordrhein-Westfalen"}},{"name":"Mescheder Str.","postalCode":"57368","locality":"Lennestadt","municipality":{"key":"05966020","name":"Lennestadt, Stadt","type":"Stadt"},"district":{"key":"05966","name":"Olpe","type":"Kreis"},"federalState":{"key":"05","name":"Nordrhein-Westfalen"}},{"name":"Michaelstr.","postalCode":"57368","locality":"Lennestadt","municipality":{"key":"05966020","name":"Lennestadt, Stadt","type":"Stadt"},"district":{"key":"05966","name":"Olpe","type":"Kreis"},"federalState":{"key":"05","name":"Nordrhein-Westfalen"}},{"name":"Mindener Str.","postalCode":"57368","locality":"Lennestadt","municipality":{"key":"05966020","name":"Lennestadt, Stadt","type":"Stadt"},"district":{"key":"05966","name":"Olpe","type":"Kreis"},"federalState":{"key":"05","name":"Nordrhein-Westfalen"}},{"name":"Minkenkuhle","postalCode":"57368","locality":"Lennestadt","municipality":{"key":"05966020","name":"Lennestadt, Stadt","type":"Stadt"},"district":{"key":"05966","name":"Olpe","type":"Kreis"},"federalState":{"key":"05","name":"Nordrhein-Westfalen"}},{"name":"Mondscheinstr.","postalCode":"57368","locality":"Lennestadt","municipality":{"key":"05966020","name":"Lennestadt, Stadt","type":"Stadt"},"district":{"key":"05966","name":"Olpe","type":"Kreis"},"federalState":{"key":"05","name":"Nordrhein-Westfalen"}},{"name":"Mühlenplatz","postalCode":"57368","locality":"Lennestadt","municipality":{"key":"05966020","name":"Lennestadt, Stadt","type":"Stadt"},"district":{"key":"05966","name":"Olpe","type":"Kreis"},"federalState":{"key":"05","name":"Nordrhein-Westfalen"}},{"name":"Mühlenteich","postalCode":"57368","locality":"Lennestadt","municipality":{"key":"05966020","name":"Lennestadt, Stadt","type":"Stadt"},"district":{"key":"05966","name":"Olpe","type":"Kreis"},"federalState":{"key":"05","name":"Nordrhein-Westfalen"}},{"name":"Naturparkstr.","postalCode":"57368","locality":"Lennestadt","municipality":{"key":"05966020","name":"Lennestadt, Stadt","type":"Stadt"},"district":{"key":"05966","name":"Olpe","type":"Kreis"},"federalState":{"key":"05","name":"Nordrhein-Westfalen"}},{"name":"Nesshagen","postalCode":"57368","locality":"Lennestadt","municipality":{"key":"05966020","name":"Lennestadt, Stadt","type":"Stadt"},"district":{"key":"05966","name":"Olpe","type":"Kreis"},"federalState":{"key":"05","name":"Nordrhein-Westfalen"}},{"name":"Neuer Waldweg","postalCode":"57368","locality":"Lennestadt","municipality":{"key":"05966020","name":"Lennestadt, Stadt","type":"Stadt"},"district":{"key":"05966","name":"Olpe","type":"Kreis"},"federalState":{"key":"05","name":"Nordrhein-Westfalen"}},{"name":"Neukamp","postalCode":"57368","locality":"Lennestadt","municipality":{"key":"05966020","name":"Lennestadt, Stadt","type":"Stadt"},"district":{"key":"05966","name":"Olpe","type":"Kreis"},"federalState":{"key":"05","name":"Nordrhein-Westfalen"}},{"name":"Nochen","postalCode":"57368","locality":"Lennestadt","municipality":{"key":"05966020","name":"Lennestadt, Stadt","type":"Stadt"},"district":{"key":"05966","name":"Olpe","type":"Kreis"},"federalState":{"key":"05","name":"Nordrhein-Westfalen"}},{"name":"Nordstr.","postalCode":"57368","locality":"Lennestadt","municipality":{"key":"05966020","name":"Lennestadt, Stadt","type":"Stadt"},"district":{"key":"05966","name":"Olpe","type":"Kreis"},"federalState":{"key":"05","name":"Nordrhein-Westfalen"}},{"name":"Oberelsper Str.","postalCode":"57368","locality":"Lennestadt","municipality":{"key":"05966020","name":"Lennestadt, Stadt","type":"Stadt"},"district":{"key":"05966","name":"Olpe","type":"Kreis"},"federalState":{"key":"05","name":"Nordrhein-Westfalen"}},{"name":"Obere Str.","postalCode":"57368","locality":"Lennestadt","municipality":{"key":"05966020","name":"Lennestadt, Stadt","type":"Stadt"},"district":{"key":"05966","name":"Olpe","type":"Kreis"},"federalState":{"key":"05","name":"Nordrhein-Westfalen"}},{"name":"Obervalbert","postalCode":"57368","locality":"Lennestadt","municipality":{"key":"05966020","name":"Lennestadt, Stadt","type":"Stadt"},"district":{"key":"05966","name":"Olpe","type":"Kreis"},"federalState":{"key":"05","name":"Nordrhein-Westfalen"}},{"name":"Oedingerberg","postalCode":"57368","locality":"Lennestadt","municipality":{"key":"05966020","name":"Lennestadt, Stadt","type":"Stadt"},"district":{"key":"05966","name":"Olpe","type":"Kreis"},"federalState":{"key":"05","name":"Nordrhein-Westfalen"}},{"name":"Oedingermühle","postalCode":"57368","locality":"Lennestadt","municipality":{"key":"05966020","name":"Lennestadt, Stadt","type":"Stadt"},"district":{"key":"05966","name":"Olpe","type":"Kreis"},"federalState":{"key":"05","name":"Nordrhein-Westfalen"}},{"name":"Oenestr.","postalCode":"57368","locality":"Lennestadt","municipality":{"key":"05966020","name":"Lennestadt, Stadt","type":"Stadt"},"district":{"key":"05966","name":"Olpe","type":"Kreis"},"federalState":{"key":"05","name":"Nordrhein-Westfalen"}},{"name":"Ohlstr.","postalCode":"57368","locality":"Lennestadt","municipality":{"key":"05966020","name":"Lennestadt, Stadt","type":"Stadt"},"district":{"key":"05966","name":"Olpe","type":"Kreis"},"federalState":{"key":"05","name":"Nordrhein-Westfalen"}},{"name":"Olper Str.","postalCode":"57368","locality":"Lennestadt","municipality":{"key":"05966020","name":"Lennestadt, Stadt","type":"Stadt"},"district":{"key":"05966","name":"Olpe","type":"Kreis"},"federalState":{"key":"05","name":"Nordrhein-Westfalen"}},{"name":"Osterfeldstr.","postalCode":"57368","locality":"Lennestadt","municipality":{"key":"05966020","name":"Lennestadt, Stadt","type":"Stadt"},"district":{"key":"05966","name":"Olpe","type":"Kreis"},"federalState":{"key":"05","name":"Nordrhein-Westfalen"}},{"name":"Oststr.","postalCode":"57368","locality":"Lennestadt","municipality":{"key":"05966020","name":"Lennestadt, Stadt","type":"Stadt"},"district":{"key":"05966","name":"Olpe","type":"Kreis"},"federalState":{"key":"05","name":"Nordrhein-Westfalen"}},{"name":"Padenbergstr.","postalCode":"57368","locality":"Lennestadt","municipality":{"key":"05966020","name":"Lennestadt, Stadt","type":"Stadt"},"district":{"key":"05966","name":"Olpe","type":"Kreis"},"federalState":{"key":"05","name":"Nordrhein-Westfalen"}},{"name":"Peter-Soemer-Str.","postalCode":"57368","locality":"Lennestadt","municipality":{"key":"05966020","name":"Lennestadt, Stadt","type":"Stadt"},"district":{"key":"05966","name":"Olpe","type":"Kreis"},"federalState":{"key":"05","name":"Nordrhein-Westfalen"}},{"name":"Peter-Soemer-Weg","postalCode":"57368","locality":"Lennestadt","municipality":{"key":"05966020","name":"Lennestadt, Stadt","type":"Stadt"},"district":{"key":"05966","name":"Olpe","type":"Kreis"},"federalState":{"key":"05","name":"Nordrhein-Westfalen"}},{"name":"Pfarrer-Brill-Weg","postalCode":"57368","locality":"Lennestadt","municipality":{"key":"05966020","name":"Lennestadt, Stadt","type":"Stadt"},"district":{"key":"05966","name":"Olpe","type":"Kreis"},"federalState":{"key":"05","name":"Nordrhein-Westfalen"}},{"name":"Pfarrer-Plenker-Weg","postalCode":"57368","locality":"Lennestadt","municipality":{"key":"05966020","name":"Lennestadt, Stadt","type":"Stadt"},"district":{"key":"05966","name":"Olpe","type":"Kreis"},"federalState":{"key":"05","name":"Nordrhein-Westfalen"}},{"name":"Pfarrgasse","postalCode":"57368","locality":"Lennestadt","municipality":{"key":"05966020","name":"Lennestadt, Stadt","type":"Stadt"},"district":{"key":"05966","name":"Olpe","type":"Kreis"},"federalState":{"key":"05","name":"Nordrhein-Westfalen"}},{"name":"Pfefferinsel","postalCode":"57368","locality":"Lennestadt","municipality":{"key":"05966020","name":"Lennestadt, Stadt","type":"Stadt"},"district":{"key":"05966","name":"Olpe","type":"Kreis"},"federalState":{"key":"05","name":"Nordrhein-Westfalen"}},{"name":"Pfingstanger","postalCode":"37627","locality":"Lenne","municipality":{"key":"03255027","name":"Lenne","type":"Kreisangehörige_Gemeinde"},"district":{"key":"03255","name":"Holzminden","type":"Landkreis"},"federalState":{"key":"03","name":"Niedersachsen"}},{"name":"Piepers Weg","postalCode":"57368","locality":"Lennestadt","municipality":{"key":"05966020","name":"Lennestadt, Stadt","type":"Stadt"},"district":{"key":"05966","name":"Olpe","type":"Kreis"},"federalState":{"key":"05","name":"Nordrhein-Westfalen"}},{"name":"Poorte","postalCode":"57368","locality":"Lennestadt","municipality":{"key":"05966020","name":"Lennestadt, Stadt","type":"Stadt"},"district":{"key":"05966","name":"Olpe","type":"Kreis"},"federalState":{"key":"05","name":"Nordrhein-Westfalen"}},{"name":"Postweg","postalCode":"57368","locality":"Lennestadt","municipality":{"key":"05966020","name":"Lennestadt, Stadt","type":"Stadt"},"district":{"key":"05966","name":"Olpe","type":"Kreis"},"federalState":{"key":"05","name":"Nordrhein-Westfalen"}},{"name":"Prof.-Albert-Boerger-Str.","postalCode":"57368","locality":"Lennestadt","municipality":{"key":"05966020","name":"Lennestadt, Stadt","type":"Stadt"},"district":{"key":"05966","name":"Olpe","type":"Kreis"},"federalState":{"key":"05","name":"Nordrhein-Westfalen"}},{"name":"Prozessionsweg","postalCode":"57368","locality":"Lennestadt","municipality":{"key":"05966020","name":"Lennestadt, Stadt","type":"Stadt"},"district":{"key":"05966","name":"Olpe","type":"Kreis"},"federalState":{"key":"05","name":"Nordrhein-Westfalen"}},{"name":"Quellengrund","postalCode":"57368","locality":"Lennestadt","municipality":{"key":"05966020","name":"Lennestadt, Stadt","type":"Stadt"},"district":{"key":"05966","name":"Olpe","type":"Kreis"},"federalState":{"key":"05","name":"Nordrhein-Westfalen"}},{"name":"Rechtfeld","postalCode":"57368","locality":"Lennestadt","municipality":{"key":"05966020","name":"Lennestadt, Stadt","type":"Stadt"},"district":{"key":"05966","name":"Olpe","type":"Kreis"},"federalState":{"key":"05","name":"Nordrhein-Westfalen"}},{"name":"Rehnert","postalCode":"57368","locality":"Lennestadt","municipality":{"key":"05966020","name":"Lennestadt, Stadt","type":"Stadt"},"district":{"key":"05966","name":"Olpe","type":"Kreis"},"federalState":{"key":"05","name":"Nordrhein-Westfalen"}},{"name":"Rehwiese","postalCode":"57368","locality":"Lennestadt","municipality":{"key":"05966020","name":"Lennestadt, Stadt","type":"Stadt"},"district":{"key":"05966","name":"Olpe","type":"Kreis"},"federalState":{"key":"05","name":"Nordrhein-Westfalen"}},{"name":"Remmelweg","postalCode":"57368","locality":"Lennestadt","municipality":{"key":"05966020","name":"Lennestadt, Stadt","type":"Stadt"},"district":{"key":"05966","name":"Olpe","type":"Kreis"},"federalState":{"key":"05","name":"Nordrhein-Westfalen"}},{"name":"Rennefeld","postalCode":"57368","locality":"Lennestadt","municipality":{"key":"05966020","name":"Lennestadt, Stadt","type":"Stadt"},"district":{"key":"05966","name":"Olpe","type":"Kreis"},"federalState":{"key":"05","name":"Nordrhein-Westfalen"}},{"name":"Repetalstr.","postalCode":"57368","locality":"Lennestadt","municipality":{"key":"05966020","name":"Lennestadt, Stadt","type":"Stadt"},"district":{"key":"05966","name":"Olpe","type":"Kreis"},"federalState":{"key":"05","name":"Nordrhein-Westfalen"}},{"name":"Ringstr.","postalCode":"37627","locality":"Lenne","municipality":{"key":"03255027","name":"Lenne","type":"Kreisangehörige_Gemeinde"},"district":{"key":"03255","name":"Holzminden","type":"Landkreis"},"federalState":{"key":"03","name":"Niedersachsen"}},{"name":"Ringstr.","postalCode":"57368","locality":"Lennestadt","municipality":{"key":"05966020","name":"Lennestadt, Stadt","type":"Stadt"},"district":{"key":"05966","name":"Olpe","type":"Kreis"},"federalState":{"key":"05","name":"Nordrhein-Westfalen"}},{"name":"Rinschlade","postalCode":"57368","locality":"Lennestadt","municipality":{"key":"05966020","name":"Lennestadt, Stadt","type":"Stadt"},"district":{"key":"05966","name":"Olpe","type":"Kreis"},"federalState":{"key":"05","name":"Nordrhein-Westfalen"}},{"name":"Rinsenbergstr.","postalCode":"57368","locality":"Lennestadt","municipality":{"key":"05966020","name":"Lennestadt, Stadt","type":"Stadt"},"district":{"key":"05966","name":"Olpe","type":"Kreis"},"federalState":{"key":"05","name":"Nordrhein-Westfalen"}},{"name":"Roggenkamp","postalCode":"57368","locality":"Lennestadt","municipality":{"key":"05966020","name":"Lennestadt, Stadt","type":"Stadt"},"district":{"key":"05966","name":"Olpe","type":"Kreis"},"federalState":{"key":"05","name":"Nordrhein-Westfalen"}},{"name":"Rosbecke","postalCode":"57368","locality":"Lennestadt","municipality":{"key":"05966020","name":"Lennestadt, Stadt","type":"Stadt"},"district":{"key":"05966","name":"Olpe","type":"Kreis"},"federalState":{"key":"05","name":"Nordrhein-Westfalen"}},{"name":"Rosenweg","postalCode":"57368","locality":"Lennestadt","municipality":{"key":"05966020","name":"Lennestadt, Stadt","type":"Stadt"},"district":{"key":"05966","name":"Olpe","type":"Kreis"},"federalState":{"key":"05","name":"Nordrhein-Westfalen"}},{"name":"Rotdornweg","postalCode":"57368","locality":"Lennestadt","municipality":{"key":"05966020","name":"Lennestadt, Stadt","type":"Stadt"},"district":{"key":"05966","name":"Olpe","type":"Kreis"},"federalState":{"key":"05","name":"Nordrhein-Westfalen"}},{"name":"Röthe","postalCode":"57368","locality":"Lennestadt","municipality":{"key":"05966020","name":"Lennestadt, Stadt","type":"Stadt"},"district":{"key":"05966","name":"Olpe","type":"Kreis"},"federalState":{"key":"05","name":"Nordrhein-Westfalen"}},{"name":"Rotkehlchenstr.","postalCode":"57368","locality":"Lennestadt","municipality":{"key":"05966020","name":"Lennestadt, Stadt","type":"Stadt"},"district":{"key":"05966","name":"Olpe","type":"Kreis"},"federalState":{"key":"05","name":"Nordrhein-Westfalen"}},{"name":"Rübergerbrücke","postalCode":"57368","locality":"Lennestadt","municipality":{"key":"05966020","name":"Lennestadt, Stadt","type":"Stadt"},"district":{"key":"05966","name":"Olpe","type":"Kreis"},"federalState":{"key":"05","name":"Nordrhein-Westfalen"}},{"name":"Rundweg","postalCode":"57368","locality":"Lennestadt","municipality":{"key":"05966020","name":"Lennestadt, Stadt","type":"Stadt"},"district":{"key":"05966","name":"Olpe","type":"Kreis"},"federalState":{"key":"05","name":"Nordrhein-Westfalen"}},{"name":"Saalhauser Str.","postalCode":"57368","locality":"Lennestadt","municipality":{"key":"05966020","name":"Lennestadt, Stadt","type":"Stadt"},"district":{"key":"05966","name":"Olpe","type":"Kreis"},"federalState":{"key":"05","name":"Nordrhein-Westfalen"}},{"name":"Sachtleben Str.","postalCode":"57368","locality":"Lennestadt","municipality":{"key":"05966020","name":"Lennestadt, Stadt","type":"Stadt"},"district":{"key":"05966","name":"Olpe","type":"Kreis"},"federalState":{"key":"05","name":"Nordrhein-Westfalen"}},{"name":"Sandstr.","postalCode":"57368","locality":"Lennestadt","municipality":{"key":"05966020","name":"Lennestadt, Stadt","type":"Stadt"},"district":{"key":"05966","name":"Olpe","type":"Kreis"},"federalState":{"key":"05","name":"Nordrhein-Westfalen"}},{"name":"Sauborn","postalCode":"57368","locality":"Lennestadt","municipality":{"key":"05966020","name":"Lennestadt, Stadt","type":"Stadt"},"district":{"key":"05966","name":"Olpe","type":"Kreis"},"federalState":{"key":"05","name":"Nordrhein-Westfalen"}},{"name":"Sauerland-Pyramiden","postalCode":"57368","locality":"Lennestadt","municipality":{"key":"05966020","name":"Lennestadt, Stadt","type":"Stadt"},"district":{"key":"05966","name":"Olpe","type":"Kreis"},"federalState":{"key":"05","name":"Nordrhein-Westfalen"}},{"name":"Sauerlandstr.","postalCode":"57368","locality":"Lennestadt","municipality":{"key":"05966020","name":"Lennestadt, Stadt","type":"Stadt"},"district":{"key":"05966","name":"Olpe","type":"Kreis"},"federalState":{"key":"05","name":"Nordrhein-Westfalen"}},{"name":"Schladetreppe","postalCode":"57368","locality":"Lennestadt","municipality":{"key":"05966020","name":"Lennestadt, Stadt","type":"Stadt"},"district":{"key":"05966","name":"Olpe","type":"Kreis"},"federalState":{"key":"05","name":"Nordrhein-Westfalen"}},{"name":"Schmallenberger Str.","postalCode":"57368","locality":"Lennestadt","municipality":{"key":"05966020","name":"Lennestadt, Stadt","type":"Stadt"},"district":{"key":"05966","name":"Olpe","type":"Kreis"},"federalState":{"key":"05","name":"Nordrhein-Westfalen"}},{"name":"Schmellenberg","postalCode":"57368","locality":"Lennestadt","municipality":{"key":"05966020","name":"Lennestadt, Stadt","type":"Stadt"},"district":{"key":"05966","name":"Olpe","type":"Kreis"},"federalState":{"key":"05","name":"Nordrhein-Westfalen"}},{"name":"Schnettmecke","postalCode":"57368","locality":"Lennestadt","municipality":{"key":"05966020","name":"Lennestadt, Stadt","type":"Stadt"},"district":{"key":"05966","name":"Olpe","type":"Kreis"},"federalState":{"key":"05","name":"Nordrhein-Westfalen"}},{"name":"Schniers Wiese","postalCode":"57368","locality":"Lennestadt","municipality":{"key":"05966020","name":"Lennestadt, Stadt","type":"Stadt"},"district":{"key":"05966","name":"Olpe","type":"Kreis"},"federalState":{"key":"05","name":"Nordrhein-Westfalen"}},{"name":"Schöndelter Str.","postalCode":"57368","locality":"Lennestadt","municipality":{"key":"05966020","name":"Lennestadt, Stadt","type":"Stadt"},"district":{"key":"05966","name":"Olpe","type":"Kreis"},"federalState":{"key":"05","name":"Nordrhein-Westfalen"}},{"name":"Schönefeldstr.","postalCode":"57368","locality":"Lennestadt","municipality":{"key":"05966020","name":"Lennestadt, Stadt","type":"Stadt"},"district":{"key":"05966","name":"Olpe","type":"Kreis"},"federalState":{"key":"05","name":"Nordrhein-Westfalen"}},{"name":"Schönscheid","postalCode":"57368","locality":"Lennestadt","municipality":{"key":"05966020","name":"Lennestadt, Stadt","type":"Stadt"},"district":{"key":"05966","name":"Olpe","type":"Kreis"},"federalState":{"key":"05","name":"Nordrhein-Westfalen"}},{"name":"Schulstr.","postalCode":"57368","locality":"Lennestadt","municipality":{"key":"05966020","name":"Lennestadt, Stadt","type":"Stadt"},"district":{"key":"05966","name":"Olpe","type":"Kreis"},"federalState":{"key":"05","name":"Nordrhein-Westfalen"}},{"name":"Schützenstr.","postalCode":"57368","locality":"Lennestadt","municipality":{"key":"05966020","name":"Lennestadt, Stadt","type":"Stadt"},"district":{"key":"05966","name":"Olpe","type":"Kreis"},"federalState":{"key":"05","name":"Nordrhein-Westfalen"}},{"name":"Schwalbenstr.","postalCode":"57368","locality":"Lennestadt","municipality":{"key":"05966020","name":"Lennestadt, Stadt","type":"Stadt"},"district":{"key":"05966","name":"Olpe","type":"Kreis"},"federalState":{"key":"05","name":"Nordrhein-Westfalen"}},{"name":"Schwanenweg","postalCode":"57368","locality":"Lennestadt","municipality":{"key":"05966020","name":"Lennestadt, Stadt","type":"Stadt"},"district":{"key":"05966","name":"Olpe","type":"Kreis"},"federalState":{"key":"05","name":"Nordrhein-Westfalen"}},{"name":"Schwesternhausweg","postalCode":"57368","locality":"Lennestadt","municipality":{"key":"05966020","name":"Lennestadt, Stadt","type":"Stadt"},"district":{"key":"05966","name":"Olpe","type":"Kreis"},"federalState":{"key":"05","name":"Nordrhein-Westfalen"}},{"name":"Seilmecke","postalCode":"57368","locality":"Lennestadt","municipality":{"key":"05966020","name":"Lennestadt, Stadt","type":"Stadt"},"district":{"key":"05966","name":"Olpe","type":"Kreis"},"federalState":{"key":"05","name":"Nordrhein-Westfalen"}},{"name":"Siciliastr.","postalCode":"57368","locality":"Lennestadt","municipality":{"key":"05966020","name":"Lennestadt, Stadt","type":"Stadt"},"district":{"key":"05966","name":"Olpe","type":"Kreis"},"federalState":{"key":"05","name":"Nordrhein-Westfalen"}},{"name":"Siegener Str.","postalCode":"57368","locality":"Lennestadt","municipality":{"key":"05966020","name":"Lennestadt, Stadt","type":"Stadt"},"district":{"key":"05966","name":"Olpe","type":"Kreis"},"federalState":{"key":"05","name":"Nordrhein-Westfalen"}},{"name":"Silberbergstr.","postalCode":"57368","locality":"Lennestadt","municipality":{"key":"05966020","name":"Lennestadt, Stadt","type":"Stadt"},"district":{"key":"05966","name":"Olpe","type":"Kreis"},"federalState":{"key":"05","name":"Nordrhein-Westfalen"}},{"name":"Sommerstr.","postalCode":"57368","locality":"Lennestadt","municipality":{"key":"05966020","name":"Lennestadt, Stadt","type":"Stadt"},"district":{"key":"05966","name":"Olpe","type":"Kreis"},"federalState":{"key":"05","name":"Nordrhein-Westfalen"}},{"name":"Sonnenstr.","postalCode":"57368","locality":"Lennestadt","municipality":{"key":"05966020","name":"Lennestadt, Stadt","type":"Stadt"},"district":{"key":"05966","name":"Olpe","type":"Kreis"},"federalState":{"key":"05","name":"Nordrhein-Westfalen"}},{"name":"Sonnenweg","postalCode":"57368","locality":"Lennestadt","municipality":{"key":"05966020","name":"Lennestadt, Stadt","type":"Stadt"},"district":{"key":"05966","name":"Olpe","type":"Kreis"},"federalState":{"key":"05","name":"Nordrhein-Westfalen"}},{"name":"Sonnenwinkel","postalCode":"57368","locality":"Lennestadt","municipality":{"key":"05966020","name":"Lennestadt, Stadt","type":"Stadt"},"district":{"key":"05966","name":"Olpe","type":"Kreis"},"federalState":{"key":"05","name":"Nordrhein-Westfalen"}},{"name":"Speckschlade","postalCode":"57368","locality":"Lennestadt","municipality":{"key":"05966020","name":"Lennestadt, Stadt","type":"Stadt"},"district":{"key":"05966","name":"Olpe","type":"Kreis"},"federalState":{"key":"05","name":"Nordrhein-Westfalen"}},{"name":"Sperberstr.","postalCode":"57368","locality":"Lennestadt","municipality":{"key":"05966020","name":"Lennestadt, Stadt","type":"Stadt"},"district":{"key":"05966","name":"Olpe","type":"Kreis"},"federalState":{"key":"05","name":"Nordrhein-Westfalen"}},{"name":"Springacker","postalCode":"57368","locality":"Lennestadt","municipality":{"key":"05966020","name":"Lennestadt, Stadt","type":"Stadt"},"district":{"key":"05966","name":"Olpe","type":"Kreis"},"federalState":{"key":"05","name":"Nordrhein-Westfalen"}},{"name":"Stadtoldendorfer Str.","postalCode":"37627","locality":"Lenne","municipality":{"key":"03255027","name":"Lenne","type":"Kreisangehörige_Gemeinde"},"district":{"key":"03255","name":"Holzminden","type":"Landkreis"},"federalState":{"key":"03","name":"Niedersachsen"}},{"name":"Stähling","postalCode":"57368","locality":"Lennestadt","municipality":{"key":"05966020","name":"Lennestadt, Stadt","type":"Stadt"},"district":{"key":"05966","name":"Olpe","type":"Kreis"},"federalState":{"key":"05","name":"Nordrhein-Westfalen"}},{"name":"Starenstr.","postalCode":"57368","locality":"Lennestadt","municipality":{"key":"05966020","name":"Lennestadt, Stadt","type":"Stadt"},"district":{"key":"05966","name":"Olpe","type":"Kreis"},"federalState":{"key":"05","name":"Nordrhein-Westfalen"}},{"name":"Steiler Weg","postalCode":"57368","locality":"Lennestadt","municipality":{"key":"05966020","name":"Lennestadt, Stadt","type":"Stadt"},"district":{"key":"05966","name":"Olpe","type":"Kreis"},"federalState":{"key":"05","name":"Nordrhein-Westfalen"}},{"name":"Steinstr.","postalCode":"57368","locality":"Lennestadt","municipality":{"key":"05966020","name":"Lennestadt, Stadt","type":"Stadt"},"district":{"key":"05966","name":"Olpe","type":"Kreis"},"federalState":{"key":"05","name":"Nordrhein-Westfalen"}},{"name":"Stettiner Str.","postalCode":"57368","locality":"Lennestadt","municipality":{"key":"05966020","name":"Lennestadt, Stadt","type":"Stadt"},"district":{"key":"05966","name":"Olpe","type":"Kreis"},"federalState":{"key":"05","name":"Nordrhein-Westfalen"}},{"name":"St.-Franziskus-Str.","postalCode":"57368","locality":"Lennestadt","municipality":{"key":"05966020","name":"Lennestadt, Stadt","type":"Stadt"},"district":{"key":"05966","name":"Olpe","type":"Kreis"},"federalState":{"key":"05","name":"Nordrhein-Westfalen"}},{"name":"St.-Jakobus-Str.","postalCode":"57368","locality":"Lennestadt","municipality":{"key":"05966020","name":"Lennestadt, Stadt","type":"Stadt"},"district":{"key":"05966","name":"Olpe","type":"Kreis"},"federalState":{"key":"05","name":"Nordrhein-Westfalen"}},{"name":"Stöppelweg","postalCode":"57368","locality":"Lennestadt","municipality":{"key":"05966020","name":"Lennestadt, Stadt","type":"Stadt"},"district":{"key":"05966","name":"Olpe","type":"Kreis"},"federalState":{"key":"05","name":"Nordrhein-Westfalen"}},{"name":"Storchenstr.","postalCode":"57368","locality":"Lennestadt","municipality":{"key":"05966020","name":"Lennestadt, Stadt","type":"Stadt"},"district":{"key":"05966","name":"Olpe","type":"Kreis"},"federalState":{"key":"05","name":"Nordrhein-Westfalen"}},{"name":"Strübecke","postalCode":"57368","locality":"Lennestadt","municipality":{"key":"05966020","name":"Lennestadt, Stadt","type":"Stadt"},"district":{"key":"05966","name":"Olpe","type":"Kreis"},"federalState":{"key":"05","name":"Nordrhein-Westfalen"}},{"name":"Talweg","postalCode":"57368","locality":"Lennestadt","municipality":{"key":"05966020","name":"Lennestadt, Stadt","type":"Stadt"},"district":{"key":"05966","name":"Olpe","type":"Kreis"},"federalState":{"key":"05","name":"Nordrhein-Westfalen"}},{"name":"Tannenhof","postalCode":"57368","locality":"Lennestadt","municipality":{"key":"05966020","name":"Lennestadt, Stadt","type":"Stadt"},"district":{"key":"05966","name":"Olpe","type":"Kreis"},"federalState":{"key":"05","name":"Nordrhein-Westfalen"}},{"name":"Taubenstr.","postalCode":"57368","locality":"Lennestadt","municipality":{"key":"05966020","name":"Lennestadt, Stadt","type":"Stadt"},"district":{"key":"05966","name":"Olpe","type":"Kreis"},"federalState":{"key":"05","name":"Nordrhein-Westfalen"}},{"name":"Teckholzstr.","postalCode":"57368","locality":"Lennestadt","municipality":{"key":"05966020","name":"Lennestadt, Stadt","type":"Stadt"},"district":{"key":"05966","name":"Olpe","type":"Kreis"},"federalState":{"key":"05","name":"Nordrhein-Westfalen"}},{"name":"Teichweg","postalCode":"57368","locality":"Lennestadt","municipality":{"key":"05966020","name":"Lennestadt, Stadt","type":"Stadt"},"district":{"key":"05966","name":"Olpe","type":"Kreis"},"federalState":{"key":"05","name":"Nordrhein-Westfalen"}},{"name":"Theo-Schneider-Str.","postalCode":"57368","locality":"Lennestadt","municipality":{"key":"05966020","name":"Lennestadt, Stadt","type":"Stadt"},"district":{"key":"05966","name":"Olpe","type":"Kreis"},"federalState":{"key":"05","name":"Nordrhein-Westfalen"}},{"name":"Thetener Str.","postalCode":"57368","locality":"Lennestadt","municipality":{"key":"05966020","name":"Lennestadt, Stadt","type":"Stadt"},"district":{"key":"05966","name":"Olpe","type":"Kreis"},"federalState":{"key":"05","name":"Nordrhein-Westfalen"}},{"name":"Tiefenhagen","postalCode":"57368","locality":"Lennestadt","municipality":{"key":"05966020","name":"Lennestadt, Stadt","type":"Stadt"},"district":{"key":"05966","name":"Olpe","type":"Kreis"},"federalState":{"key":"05","name":"Nordrhein-Westfalen"}},{"name":"Tiergarten","postalCode":"57368","locality":"Lennestadt","municipality":{"key":"05966020","name":"Lennestadt, Stadt","type":"Stadt"},"district":{"key":"05966","name":"Olpe","type":"Kreis"},"federalState":{"key":"05","name":"Nordrhein-Westfalen"}},{"name":"Tillweg","postalCode":"37627","locality":"Lenne","municipality":{"key":"03255027","name":"Lenne","type":"Kreisangehörige_Gemeinde"},"district":{"key":"03255","name":"Holzminden","type":"Landkreis"},"federalState":{"key":"03","name":"Niedersachsen"}},{"name":"Timmerbruch","postalCode":"57368","locality":"Lennestadt","municipality":{"key":"05966020","name":"Lennestadt, Stadt","type":"Stadt"},"district":{"key":"05966","name":"Olpe","type":"Kreis"},"federalState":{"key":"05","name":"Nordrhein-Westfalen"}},{"name":"Timmerschlade","postalCode":"57368","locality":"Lennestadt","municipality":{"key":"05966020","name":"Lennestadt, Stadt","type":"Stadt"},"district":{"key":"05966","name":"Olpe","type":"Kreis"},"federalState":{"key":"05","name":"Nordrhein-Westfalen"}},{"name":"Turmstr.","postalCode":"57368","locality":"Lennestadt","municipality":{"key":"05966020","name":"Lennestadt, Stadt","type":"Stadt"},"district":{"key":"05966","name":"Olpe","type":"Kreis"},"federalState":{"key":"05","name":"Nordrhein-Westfalen"}},{"name":"Twiene","postalCode":"57368","locality":"Lennestadt","municipality":{"key":"05966020","name":"Lennestadt, Stadt","type":"Stadt"},"district":{"key":"05966","name":"Olpe","type":"Kreis"},"federalState":{"key":"05","name":"Nordrhein-Westfalen"}},{"name":"Uferstr.","postalCode":"57368","locality":"Lennestadt","municipality":{"key":"05966020","name":"Lennestadt, Stadt","type":"Stadt"},"district":{"key":"05966","name":"Olpe","type":"Kreis"},"federalState":{"key":"05","name":"Nordrhein-Westfalen"}},{"name":"Unterm Beul","postalCode":"57368","locality":"Lennestadt","municipality":{"key":"05966020","name":"Lennestadt, Stadt","type":"Stadt"},"district":{"key":"05966","name":"Olpe","type":"Kreis"},"federalState":{"key":"05","name":"Nordrhein-Westfalen"}},{"name":"Unterm Halfterteich","postalCode":"57368","locality":"Lennestadt","municipality":{"key":"05966020","name":"Lennestadt, Stadt","type":"Stadt"},"district":{"key":"05966","name":"Olpe","type":"Kreis"},"federalState":{"key":"05","name":"Nordrhein-Westfalen"}},{"name":"Unterm Kükelscheid","postalCode":"57368","locality":"Lennestadt","municipality":{"key":"05966020","name":"Lennestadt, Stadt","type":"Stadt"},"district":{"key":"05966","name":"Olpe","type":"Kreis"},"federalState":{"key":"05","name":"Nordrhein-Westfalen"}},{"name":"Unterm Vestenberg","postalCode":"57368","locality":"Lennestadt","municipality":{"key":"05966020","name":"Lennestadt, Stadt","type":"Stadt"},"district":{"key":"05966","name":"Olpe","type":"Kreis"},"federalState":{"key":"05","name":"Nordrhein-Westfalen"}},{"name":"Unterm Wimpel","postalCode":"57368","locality":"Lennestadt","municipality":{"key":"05966020","name":"Lennestadt, Stadt","type":"Stadt"},"district":{"key":"05966","name":"Olpe","type":"Kreis"},"federalState":{"key":"05","name":"Nordrhein-Westfalen"}},{"name":"Veischedestr.","postalCode":"57368","locality":"Lennestadt","municipality":{"key":"05966020","name":"Lennestadt, Stadt","type":"Stadt"},"district":{"key":"05966","name":"Olpe","type":"Kreis"},"federalState":{"key":"05","name":"Nordrhein-Westfalen"}},{"name":"Vestenberg","postalCode":"57368","locality":"Lennestadt","municipality":{"key":"05966020","name":"Lennestadt, Stadt","type":"Stadt"},"district":{"key":"05966","name":"Olpe","type":"Kreis"},"federalState":{"key":"05","name":"Nordrhein-Westfalen"}},{"name":"Viehbahn","postalCode":"57368","locality":"Lennestadt","municipality":{"key":"05966020","name":"Lennestadt, Stadt","type":"Stadt"},"district":{"key":"05966","name":"Olpe","type":"Kreis"},"federalState":{"key":"05","name":"Nordrhein-Westfalen"}},{"name":"Vitusstr.","postalCode":"57368","locality":"Lennestadt","municipality":{"key":"05966020","name":"Lennestadt, Stadt","type":"Stadt"},"district":{"key":"05966","name":"Olpe","type":"Kreis"},"federalState":{"key":"05","name":"Nordrhein-Westfalen"}},{"name":"Vogelsang","postalCode":"57368","locality":"Lennestadt","municipality":{"key":"05966020","name":"Lennestadt, Stadt","type":"Stadt"},"district":{"key":"05966","name":"Olpe","type":"Kreis"},"federalState":{"key":"05","name":"Nordrhein-Westfalen"}},{"name":"Von-Gevore-Weg","postalCode":"57368","locality":"Lennestadt","municipality":{"key":"05966020","name":"Lennestadt, Stadt","type":"Stadt"},"district":{"key":"05966","name":"Olpe","type":"Kreis"},"federalState":{"key":"05","name":"Nordrhein-Westfalen"}},{"name":"Von-Stephan-Str.","postalCode":"57368","locality":"Lennestadt","municipality":{"key":"05966020","name":"Lennestadt, Stadt","type":"Stadt"},"district":{"key":"05966","name":"Olpe","type":"Kreis"},"federalState":{"key":"05","name":"Nordrhein-Westfalen"}},{"name":"Vor dem Elfas","postalCode":"37627","locality":"Lenne","municipality":{"key":"03255027","name":"Lenne","type":"Kreisangehörige_Gemeinde"},"district":{"key":"03255","name":"Holzminden","type":"Landkreis"},"federalState":{"key":"03","name":"Niedersachsen"}},{"name":"Vor der Hermecke","postalCode":"57368","locality":"Lennestadt","municipality":{"key":"05966020","name":"Lennestadt, Stadt","type":"Stadt"},"district":{"key":"05966","name":"Olpe","type":"Kreis"},"federalState":{"key":"05","name":"Nordrhein-Westfalen"}},{"name":"Vorm Klebe","postalCode":"57368","locality":"Lennestadt","municipality":{"key":"05966020","name":"Lennestadt, Stadt","type":"Stadt"},"district":{"key":"05966","name":"Olpe","type":"Kreis"},"federalState":{"key":"05","name":"Nordrhein-Westfalen"}},{"name":"Waldstr.","postalCode":"57368","locality":"Lennestadt","municipality":{"key":"05966020","name":"Lennestadt, Stadt","type":"Stadt"},"district":{"key":"05966","name":"Olpe","type":"Kreis"},"federalState":{"key":"05","name":"Nordrhein-Westfalen"}},{"name":"Wanderstr.","postalCode":"57368","locality":"Lennestadt","municipality":{"key":"05966020","name":"Lennestadt, Stadt","type":"Stadt"},"district":{"key":"05966","name":"Olpe","type":"Kreis"},"federalState":{"key":"05","name":"Nordrhein-Westfalen"}},{"name":"Weidenweg","postalCode":"57368","locality":"Lennestadt","municipality":{"key":"05966020","name":"Lennestadt, Stadt","type":"Stadt"},"district":{"key":"05966","name":"Olpe","type":"Kreis"},"federalState":{"key":"05","name":"Nordrhein-Westfalen"}},{"name":"Weiherstr.","postalCode":"57368","locality":"Lennestadt","municipality":{"key":"05966020","name":"Lennestadt, Stadt","type":"Stadt"},"district":{"key":"05966","name":"Olpe","type":"Kreis"},"federalState":{"key":"05","name":"Nordrhein-Westfalen"}},{"name":"Weissenstein","postalCode":"57368","locality":"Lennestadt","municipality":{"key":"05966020","name":"Lennestadt, Stadt","type":"Stadt"},"district":{"key":"05966","name":"Olpe","type":"Kreis"},"federalState":{"key":"05","name":"Nordrhein-Westfalen"}},{"name":"Weisteweg","postalCode":"57368","locality":"Lennestadt","municipality":{"key":"05966020","name":"Lennestadt, Stadt","type":"Stadt"},"district":{"key":"05966","name":"Olpe","type":"Kreis"},"federalState":{"key":"05","name":"Nordrhein-Westfalen"}},{"name":"Werth","postalCode":"57368","locality":"Lennestadt","municipality":{"key":"05966020","name":"Lennestadt, Stadt","type":"Stadt"},"district":{"key":"05966","name":"Olpe","type":"Kreis"},"federalState":{"key":"05","name":"Nordrhein-Westfalen"}},{"name":"Wesmeckestr.","postalCode":"57368","locality":"Lennestadt","municipality":{"key":"05966020","name":"Lennestadt, Stadt","type":"Stadt"},"district":{"key":"05966","name":"Olpe","type":"Kreis"},"federalState":{"key":"05","name":"Nordrhein-Westfalen"}},{"name":"Westfälische Str.","postalCode":"57368","locality":"Lennestadt","municipality":{"key":"05966020","name":"Lennestadt, Stadt","type":"Stadt"},"district":{"key":"05966","name":"Olpe","type":"Kreis"},"federalState":{"key":"05","name":"Nordrhein-Westfalen"}},{"name":"Weststr.","postalCode":"57368","locality":"Lennestadt","municipality":{"key":"05966020","name":"Lennestadt, Stadt","type":"Stadt"},"district":{"key":"05966","name":"Olpe","type":"Kreis"},"federalState":{"key":"05","name":"Nordrhein-Westfalen"}},{"name":"Wieselweg","postalCode":"57368","locality":"Lennestadt","municipality":{"key":"05966020","name":"Lennestadt, Stadt","type":"Stadt"},"district":{"key":"05966","name":"Olpe","type":"Kreis"},"federalState":{"key":"05","name":"Nordrhein-Westfalen"}},{"name":"Wiesengrund","postalCode":"57368","locality":"Lennestadt","municipality":{"key":"05966020","name":"Lennestadt, Stadt","type":"Stadt"},"district":{"key":"05966","name":"Olpe","type":"Kreis"},"federalState":{"key":"05","name":"Nordrhein-Westfalen"}},{"name":"Wiesenkamp","postalCode":"57368","locality":"Lennestadt","municipality":{"key":"05966020","name":"Lennestadt, Stadt","type":"Stadt"},"district":{"key":"05966","name":"Olpe","type":"Kreis"},"federalState":{"key":"05","name":"Nordrhein-Westfalen"}},{"name":"Wiesenstr.","postalCode":"57368","locality":"Lennestadt","municipality":{"key":"05966020","name":"Lennestadt, Stadt","type":"Stadt"},"district":{"key":"05966","name":"Olpe","type":"Kreis"},"federalState":{"key":"05","name":"Nordrhein-Westfalen"}},{"name":"Wigeystr.","postalCode":"57368","locality":"Lennestadt","municipality":{"key":"05966020","name":"Lennestadt, Stadt","type":"Stadt"},"district":{"key":"05966","name":"Olpe","type":"Kreis"},"federalState":{"key":"05","name":"Nordrhein-Westfalen"}},{"name":"Wildhang","postalCode":"57368","locality":"Lennestadt","municipality":{"key":"05966020","name":"Lennestadt, Stadt","type":"Stadt"},"district":{"key":"05966","name":"Olpe","type":"Kreis"},"federalState":{"key":"05","name":"Nordrhein-Westfalen"}},{"name":"Wimberg","postalCode":"57368","locality":"Lennestadt","municipality":{"key":"05966020","name":"Lennestadt, Stadt","type":"Stadt"},"district":{"key":"05966","name":"Olpe","type":"Kreis"},"federalState":{"key":"05","name":"Nordrhein-Westfalen"}},{"name":"Windthorststr.","postalCode":"57368","locality":"Lennestadt","municipality":{"key":"05966020","name":"Lennestadt, Stadt","type":"Stadt"},"district":{"key":"05966","name":"Olpe","type":"Kreis"},"federalState":{"key":"05","name":"Nordrhein-Westfalen"}},{"name":"Winterberger Str.","postalCode":"57368","locality":"Lennestadt","municipality":{"key":"05966020","name":"Lennestadt, Stadt","type":"Stadt"},"district":{"key":"05966","name":"Olpe","type":"Kreis"},"federalState":{"key":"05","name":"Nordrhein-Westfalen"}},{"name":"Winterstr.","postalCode":"57368","locality":"Lennestadt","municipality":{"key":"05966020","name":"Lennestadt, Stadt","type":"Stadt"},"district":{"key":"05966","name":"Olpe","type":"Kreis"},"federalState":{"key":"05","name":"Nordrhein-Westfalen"}},{"name":"Wißbergstr.","postalCode":"57368","locality":"Lennestadt","municipality":{"key":"05966020","name":"Lennestadt, Stadt","type":"Stadt"},"district":{"key":"05966","name":"Olpe","type":"Kreis"},"federalState":{"key":"05","name":"Nordrhein-Westfalen"}},{"name":"Wolbecke","postalCode":"57368","locality":"Lennestadt","municipality":{"key":"05966020","name":"Lennestadt, Stadt","type":"Stadt"},"district":{"key":"05966","name":"Olpe","type":"Kreis"},"federalState":{"key":"05","name":"Nordrhein-Westfalen"}},{"name":"Ziegenberg","postalCode":"57368","locality":"Lennestadt","municipality":{"key":"05966020","name":"Lennestadt, Stadt","type":"Stadt"},"district":{"key":"05966","name":"Olpe","type":"Kreis"},"federalState":{"key":"05","name":"Nordrhein-Westfalen"}},{"name":"Ziegenweide","postalCode":"57368","locality":"Lennestadt","municipality":{"key":"05966020","name":"Lennestadt, Stadt","type":"Stadt"},"district":{"key":"05966","name":"Olpe","type":"Kreis"},"federalState":{"key":"05","name":"Nordrhein-Westfalen"}},{"name":"Zu den Eichen","postalCode":"57368","locality":"Lennestadt","municipality":{"key":"05966020","name":"Lennestadt, Stadt","type":"Stadt"},"district":{"key":"05966","name":"Olpe","type":"Kreis"},"federalState":{"key":"05","name":"Nordrhein-Westfalen"}},{"name":"Zum Bauerhagen","postalCode":"57368","locality":"Lennestadt","municipality":{"key":"05966020","name":"Lennestadt, Stadt","type":"Stadt"},"district":{"key":"05966","name":"Olpe","type":"Kreis"},"federalState":{"key":"05","name":"Nordrhein-Westfalen"}},{"name":"Zum Elspebach","postalCode":"57368","locality":"Lennestadt","municipality":{"key":"05966020","name":"Lennestadt, Stadt","type":"Stadt"},"district":{"key":"05966","name":"Olpe","type":"Kreis"},"federalState":{"key":"05","name":"Nordrhein-Westfalen"}},{"name":"Zum Eulensiepen","postalCode":"57368","locality":"Lennestadt","municipality":{"key":"05966020","name":"Lennestadt, Stadt","type":"Stadt"},"district":{"key":"05966","name":"Olpe","type":"Kreis"},"federalState":{"key":"05","name":"Nordrhein-Westfalen"}},{"name":"Zum Feuerwehrturm","postalCode":"57368","locality":"Lennestadt","municipality":{"key":"05966020","name":"Lennestadt, Stadt","type":"Stadt"},"district":{"key":"05966","name":"Olpe","type":"Kreis"},"federalState":{"key":"05","name":"Nordrhein-Westfalen"}},{"name":"Zum Grund","postalCode":"57368","locality":"Lennestadt","municipality":{"key":"05966020","name":"Lennestadt, Stadt","type":"Stadt"},"district":{"key":"05966","name":"Olpe","type":"Kreis"},"federalState":{"key":"05","name":"Nordrhein-Westfalen"}},{"name":"Zum Hackelberg","postalCode":"37627","locality":"Lenne","municipality":{"key":"03255027","name":"Lenne","type":"Kreisangehörige_Gemeinde"},"district":{"key":"03255","name":"Holzminden","type":"Landkreis"},"federalState":{"key":"03","name":"Niedersachsen"}},{"name":"Zum Kellenberg","postalCode":"57368","locality":"Lennestadt","municipality":{"key":"05966020","name":"Lennestadt, Stadt","type":"Stadt"},"district":{"key":"05966","name":"Olpe","type":"Kreis"},"federalState":{"key":"05","name":"Nordrhein-Westfalen"}},{"name":"Zum Kirchplatz","postalCode":"57368","locality":"Lennestadt","municipality":{"key":"05966020","name":"Lennestadt, Stadt","type":"Stadt"},"district":{"key":"05966","name":"Olpe","type":"Kreis"},"federalState":{"key":"05","name":"Nordrhein-Westfalen"}},{"name":"Zum Kneppen","postalCode":"57368","locality":"Lennestadt","municipality":{"key":"05966020","name":"Lennestadt, Stadt","type":"Stadt"},"district":{"key":"05966","name":"Olpe","type":"Kreis"},"federalState":{"key":"05","name":"Nordrhein-Westfalen"}},{"name":"Zum Limberg","postalCode":"57368","locality":"Lennestadt","municipality":{"key":"05966020","name":"Lennestadt, Stadt","type":"Stadt"},"district":{"key":"05966","name":"Olpe","type":"Kreis"},"federalState":{"key":"05","name":"Nordrhein-Westfalen"}},{"name":"Zum Maar","postalCode":"57368","locality":"Lennestadt","municipality":{"key":"05966020","name":"Lennestadt, Stadt","type":"Stadt"},"district":{"key":"05966","name":"Olpe","type":"Kreis"},"federalState":{"key":"05","name":"Nordrhein-Westfalen"}},{"name":"Zum Obsthof","postalCode":"57368","locality":"Lennestadt","municipality":{"key":"05966020","name":"Lennestadt, Stadt","type":"Stadt"},"district":{"key":"05966","name":"Olpe","type":"Kreis"},"federalState":{"key":"05","name":"Nordrhein-Westfalen"}},{"name":"Zum Saal","postalCode":"57368","locality":"Lennestadt","municipality":{"key":"05966020","name":"Lennestadt, Stadt","type":"Stadt"},"district":{"key":"05966","name":"Olpe","type":"Kreis"},"federalState":{"key":"05","name":"Nordrhein-Westfalen"}},{"name":"Zum Salzhaus","postalCode":"57368","locality":"Lennestadt","municipality":{"key":"05966020","name":"Lennestadt, Stadt","type":"Stadt"},"district":{"key":"05966","name":"Olpe","type":"Kreis"},"federalState":{"key":"05","name":"Nordrhein-Westfalen"}},{"name":"Zum Sandberg","postalCode":"57368","locality":"Lennestadt","municipality":{"key":"05966020","name":"Lennestadt, Stadt","type":"Stadt"},"district":{"key":"05966","name":"Olpe","type":"Kreis"},"federalState":{"key":"05","name":"Nordrhein-Westfalen"}},{"name":"Zum Schloßberg","postalCode":"57368","locality":"Lennestadt","municipality":{"key":"05966020","name":"Lennestadt, Stadt","type":"Stadt"},"district":{"key":"05966","name":"Olpe","type":"Kreis"},"federalState":{"key":"05","name":"Nordrhein-Westfalen"}},{"name":"Zum Stadtwald","postalCode":"57368","locality":"Lennestadt","municipality":{"key":"05966020","name":"Lennestadt, Stadt","type":"Stadt"},"district":{"key":"05966","name":"Olpe","type":"Kreis"},"federalState":{"key":"05","name":"Nordrhein-Westfalen"}},{"name":"Zur Berufsschule","postalCode":"57368","locality":"Lennestadt","municipality":{"key":"05966020","name":"Lennestadt, Stadt","type":"Stadt"},"district":{"key":"05966","name":"Olpe","type":"Kreis"},"federalState":{"key":"05","name":"Nordrhein-Westfalen"}},{"name":"Zur Brücke","postalCode":"57368","locality":"Lennestadt","municipality":{"key":"05966020","name":"Lennestadt, Stadt","type":"Stadt"},"district":{"key":"05966","name":"Olpe","type":"Kreis"},"federalState":{"key":"05","name":"Nordrhein-Westfalen"}},{"name":"Zur Christinenhütte","postalCode":"57368","locality":"Lennestadt","municipality":{"key":"05966020","name":"Lennestadt, Stadt","type":"Stadt"},"district":{"key":"05966","name":"Olpe","type":"Kreis"},"federalState":{"key":"05","name":"Nordrhein-Westfalen"}},{"name":"Zur Heilquelle","postalCode":"57368","locality":"Lennestadt","municipality":{"key":"05966020","name":"Lennestadt, Stadt","type":"Stadt"},"district":{"key":"05966","name":"Olpe","type":"Kreis"},"federalState":{"key":"05","name":"Nordrhein-Westfalen"}},{"name":"Zur Lehmkuhle","postalCode":"57368","locality":"Lennestadt","municipality":{"key":"05966020","name":"Lennestadt, Stadt","type":"Stadt"},"district":{"key":"05966","name":"Olpe","type":"Kreis"},"federalState":{"key":"05","name":"Nordrhein-Westfalen"}},{"name":"Zur Lennhelle","postalCode":"57368","locality":"Lennestadt","municipality":{"key":"05966020","name":"Lennestadt, Stadt","type":"Stadt"},"district":{"key":"05966","name":"Olpe","type":"Kreis"},"federalState":{"key":"05","name":"Nordrhein-Westfalen"}},{"name":"Zur Megmecke","postalCode":"57368","locality":"Lennestadt","municipality":{"key":"05966020","name":"Lennestadt, Stadt","type":"Stadt"},"district":{"key":"05966","name":"Olpe","type":"Kreis"},"federalState":{"key":"05","name":"Nordrhein-Westfalen"}},{"name":"Zur Töte","postalCode":"57368","locality":"Lennestadt","municipality":{"key":"05966020","name":"Lennestadt, Stadt","type":"Stadt"},"district":{"key":"05966","name":"Olpe","type":"Kreis"},"federalState":{"key":"05","name":"Nordrhein-Westfalen"}},{"name":"Zur Vogelstange","postalCode":"57368","locality":"Lennestadt","municipality":{"key":"05966020","name":"Lennestadt, Stadt","type":"Stadt"},"district":{"key":"05966","name":"Olpe","type":"Kreis"},"federalState":{"key":"05","name":"Nordrhein-Westfalen"}},{"name":"Zur Wilhelmshöhe","postalCode":"57368","locality":"Lennestadt","municipality":{"key":"05966020","name":"Lennestadt, Stadt","type":"Stadt"},"district":{"key":"05966","name":"Olpe","type":"Kreis"},"federalState":{"key":"05","name":"Nordrhein-Westfalen"}},{"name":"Zweigstr.","postalCode":"57368","locality":"Lennestadt","municipality":{"key":"05966020","name":"Lennestadt, Stadt","type":"Stadt"},"district":{"key":"05966","name":"Olpe","type":"Kreis"},"federalState":{"key":"05","name":"Nordrhein-Westfalen"}},{"name":"Über dem Gerichte","postalCode":"37603","locality":"Holzminden","municipality":{"key":"03255023","name":"Holzminden, Stadt","type":"Stadt"},"district":{"key":"03255","name":"Holzminden","type":"Landkreis"},"federalState":{"key":"03","name":"Niedersachsen"}},]