[{"name":"Adlergasse","postalCode":"78727","locality":"Oberndorf am Neckar","municipality":{"key":"08325045","name":"Oberndorf am Neckar, Stadt","type":"Stadt"},"district":{"key":"08325","name":"Rottweil","type":"Landkreis"},"federalState":{"key":"08","name":"Baden-Württemberg"}},{"name":"Agathe-Heim-Str.","postalCode":"78727","locality":"Oberndorf am Neckar","municipality":{"key":"08325045","name":"Oberndorf am Neckar, Stadt","type":"Stadt"},"district":{"key":"08325","name":"Rottweil","type":"Landkreis"},"federalState":{"key":"08","name":"Baden-Württemberg"}},{"name":"Ahornweg","postalCode":"78727","locality":"Oberndorf am Neckar","municipality":{"key":"08325045","name":"Oberndorf am Neckar, Stadt","type":"Stadt"},"district":{"key":"08325","name":"Rottweil","type":"Landkreis"},"federalState":{"key":"08","name":"Baden-Württemberg"}},{"name":"Aistaiger Str.","postalCode":"78727","locality":"Oberndorf am Neckar","municipality":{"key":"08325045","name":"Oberndorf am Neckar, Stadt","type":"Stadt"},"district":{"key":"08325","name":"Rottweil","type":"Landkreis"},"federalState":{"key":"08","name":"Baden-Württemberg"}},{"name":"Albeckstr.","postalCode":"78727","locality":"Oberndorf am Neckar","municipality":{"key":"08325045","name":"Oberndorf am Neckar, Stadt","type":"Stadt"},"district":{"key":"08325","name":"Rottweil","type":"Landkreis"},"federalState":{"key":"08","name":"Baden-Württemberg"}},{"name":"Albstr.","postalCode":"78727","locality":"Oberndorf am Neckar","municipality":{"key":"08325045","name":"Oberndorf am Neckar, Stadt","type":"Stadt"},"district":{"key":"08325","name":"Rottweil","type":"Landkreis"},"federalState":{"key":"08","name":"Baden-Württemberg"}},{"name":"Allmandgasse","postalCode":"78727","locality":"Oberndorf am Neckar","municipality":{"key":"08325045","name":"Oberndorf am Neckar, Stadt","type":"Stadt"},"district":{"key":"08325","name":"Rottweil","type":"Landkreis"},"federalState":{"key":"08","name":"Baden-Württemberg"}},{"name":"Allmandstr.","postalCode":"78727","locality":"Oberndorf am Neckar","municipality":{"key":"08325045","name":"Oberndorf am Neckar, Stadt","type":"Stadt"},"district":{"key":"08325","name":"Rottweil","type":"Landkreis"},"federalState":{"key":"08","name":"Baden-Württemberg"}},{"name":"Allmendweg","postalCode":"78727","locality":"Oberndorf am Neckar","municipality":{"key":"08325045","name":"Oberndorf am Neckar, Stadt","type":"Stadt"},"district":{"key":"08325","name":"Rottweil","type":"Landkreis"},"federalState":{"key":"08","name":"Baden-Württemberg"}},{"name":"Alt-Dorfstr.","postalCode":"78727","locality":"Oberndorf am Neckar","municipality":{"key":"08325045","name":"Oberndorf am Neckar, Stadt","type":"Stadt"},"district":{"key":"08325","name":"Rottweil","type":"Landkreis"},"federalState":{"key":"08","name":"Baden-Württemberg"}},{"name":"Alte Gärtnerei","postalCode":"78727","locality":"Oberndorf am Neckar","municipality":{"key":"08325045","name":"Oberndorf am Neckar, Stadt","type":"Stadt"},"district":{"key":"08325","name":"Rottweil","type":"Landkreis"},"federalState":{"key":"08","name":"Baden-Württemberg"}},{"name":"Alte Steige","postalCode":"78727","locality":"Oberndorf am Neckar","municipality":{"key":"08325045","name":"Oberndorf am Neckar, Stadt","type":"Stadt"},"district":{"key":"08325","name":"Rottweil","type":"Landkreis"},"federalState":{"key":"08","name":"Baden-Württemberg"}},{"name":"Am Bolzplatz","postalCode":"78727","locality":"Oberndorf am Neckar","municipality":{"key":"08325045","name":"Oberndorf am Neckar, Stadt","type":"Stadt"},"district":{"key":"08325","name":"Rottweil","type":"Landkreis"},"federalState":{"key":"08","name":"Baden-Württemberg"}},{"name":"Am Brühlbach","postalCode":"78727","locality":"Oberndorf am Neckar","municipality":{"key":"08325045","name":"Oberndorf am Neckar, Stadt","type":"Stadt"},"district":{"key":"08325","name":"Rottweil","type":"Landkreis"},"federalState":{"key":"08","name":"Baden-Württemberg"}},{"name":"Am grünen Berg","postalCode":"78727","locality":"Oberndorf am Neckar","municipality":{"key":"08325045","name":"Oberndorf am Neckar, Stadt","type":"Stadt"},"district":{"key":"08325","name":"Rottweil","type":"Landkreis"},"federalState":{"key":"08","name":"Baden-Württemberg"}},{"name":"Am Römerhof","postalCode":"78727","locality":"Oberndorf am Neckar","municipality":{"key":"08325045","name":"Oberndorf am Neckar, Stadt","type":"Stadt"},"district":{"key":"08325","name":"Rottweil","type":"Landkreis"},"federalState":{"key":"08","name":"Baden-Württemberg"}},{"name":"Amselstr.","postalCode":"78727","locality":"Oberndorf am Neckar","municipality":{"key":"08325045","name":"Oberndorf am Neckar, Stadt","type":"Stadt"},"district":{"key":"08325","name":"Rottweil","type":"Landkreis"},"federalState":{"key":"08","name":"Baden-Württemberg"}},{"name":"Am Stadion","postalCode":"78727","locality":"Oberndorf am Neckar","municipality":{"key":"08325045","name":"Oberndorf am Neckar, Stadt","type":"Stadt"},"district":{"key":"08325","name":"Rottweil","type":"Landkreis"},"federalState":{"key":"08","name":"Baden-Württemberg"}},{"name":"Am Steinbrünnle","postalCode":"78727","locality":"Oberndorf am Neckar","municipality":{"key":"08325045","name":"Oberndorf am Neckar, Stadt","type":"Stadt"},"district":{"key":"08325","name":"Rottweil","type":"Landkreis"},"federalState":{"key":"08","name":"Baden-Württemberg"}},{"name":"Am Wald","postalCode":"78727","locality":"Oberndorf am Neckar","municipality":{"key":"08325045","name":"Oberndorf am Neckar, Stadt","type":"Stadt"},"district":{"key":"08325","name":"Rottweil","type":"Landkreis"},"federalState":{"key":"08","name":"Baden-Württemberg"}},{"name":"Am Wasserwerk","postalCode":"78727","locality":"Oberndorf am Neckar","municipality":{"key":"08325045","name":"Oberndorf am Neckar, Stadt","type":"Stadt"},"district":{"key":"08325","name":"Rottweil","type":"Landkreis"},"federalState":{"key":"08","name":"Baden-Württemberg"}},{"name":"An der Aistaiger Str.","postalCode":"78727","locality":"Oberndorf am Neckar","municipality":{"key":"08325045","name":"Oberndorf am Neckar, Stadt","type":"Stadt"},"district":{"key":"08325","name":"Rottweil","type":"Landkreis"},"federalState":{"key":"08","name":"Baden-Württemberg"}},{"name":"An der Werpa","postalCode":"78727","locality":"Oberndorf am Neckar","municipality":{"key":"08325045","name":"Oberndorf am Neckar, Stadt","type":"Stadt"},"district":{"key":"08325","name":"Rottweil","type":"Landkreis"},"federalState":{"key":"08","name":"Baden-Württemberg"}},{"name":"Angelweg","postalCode":"78727","locality":"Oberndorf am Neckar","municipality":{"key":"08325045","name":"Oberndorf am Neckar, Stadt","type":"Stadt"},"district":{"key":"08325","name":"Rottweil","type":"Landkreis"},"federalState":{"key":"08","name":"Baden-Württemberg"}},{"name":"Appelaustr.","postalCode":"78727","locality":"Oberndorf am Neckar","municipality":{"key":"08325045","name":"Oberndorf am Neckar, Stadt","type":"Stadt"},"district":{"key":"08325","name":"Rottweil","type":"Landkreis"},"federalState":{"key":"08","name":"Baden-Württemberg"}},{"name":"Aspenweg","postalCode":"78727","locality":"Oberndorf am Neckar","municipality":{"key":"08325045","name":"Oberndorf am Neckar, Stadt","type":"Stadt"},"district":{"key":"08325","name":"Rottweil","type":"Landkreis"},"federalState":{"key":"08","name":"Baden-Württemberg"}},{"name":"Auchterttalstr.","postalCode":"78727","locality":"Oberndorf am Neckar","municipality":{"key":"08325045","name":"Oberndorf am Neckar, Stadt","type":"Stadt"},"district":{"key":"08325","name":"Rottweil","type":"Landkreis"},"federalState":{"key":"08","name":"Baden-Württemberg"}},{"name":"Auf dem Stein","postalCode":"78727","locality":"Oberndorf am Neckar","municipality":{"key":"08325045","name":"Oberndorf am Neckar, Stadt","type":"Stadt"},"district":{"key":"08325","name":"Rottweil","type":"Landkreis"},"federalState":{"key":"08","name":"Baden-Württemberg"}},{"name":"Auf der Breite","postalCode":"78727","locality":"Oberndorf am Neckar","municipality":{"key":"08325045","name":"Oberndorf am Neckar, Stadt","type":"Stadt"},"district":{"key":"08325","name":"Rottweil","type":"Landkreis"},"federalState":{"key":"08","name":"Baden-Württemberg"}},{"name":"Auf der Reute","postalCode":"78727","locality":"Oberndorf am Neckar","municipality":{"key":"08325045","name":"Oberndorf am Neckar, Stadt","type":"Stadt"},"district":{"key":"08325","name":"Rottweil","type":"Landkreis"},"federalState":{"key":"08","name":"Baden-Württemberg"}},{"name":"August-Barack-Str.","postalCode":"78727","locality":"Oberndorf am Neckar","municipality":{"key":"08325045","name":"Oberndorf am Neckar, Stadt","type":"Stadt"},"district":{"key":"08325","name":"Rottweil","type":"Landkreis"},"federalState":{"key":"08","name":"Baden-Württemberg"}},{"name":"August-Gaiser-Str.","postalCode":"78727","locality":"Oberndorf am Neckar","municipality":{"key":"08325045","name":"Oberndorf am Neckar, Stadt","type":"Stadt"},"district":{"key":"08325","name":"Rottweil","type":"Landkreis"},"federalState":{"key":"08","name":"Baden-Württemberg"}},{"name":"Austr.","postalCode":"78727","locality":"Oberndorf am Neckar","municipality":{"key":"08325045","name":"Oberndorf am Neckar, Stadt","type":"Stadt"},"district":{"key":"08325","name":"Rottweil","type":"Landkreis"},"federalState":{"key":"08","name":"Baden-Württemberg"}},{"name":"Bachstr.","postalCode":"78727","locality":"Oberndorf am Neckar","municipality":{"key":"08325045","name":"Oberndorf am Neckar, Stadt","type":"Stadt"},"district":{"key":"08325","name":"Rottweil","type":"Landkreis"},"federalState":{"key":"08","name":"Baden-Württemberg"}},{"name":"Backhausgasse","postalCode":"78727","locality":"Oberndorf am Neckar","municipality":{"key":"08325045","name":"Oberndorf am Neckar, Stadt","type":"Stadt"},"district":{"key":"08325","name":"Rottweil","type":"Landkreis"},"federalState":{"key":"08","name":"Baden-Württemberg"}},{"name":"Bahnhofstr.","postalCode":"78727","locality":"Oberndorf am Neckar","municipality":{"key":"08325045","name":"Oberndorf am Neckar, Stadt","type":"Stadt"},"district":{"key":"08325","name":"Rottweil","type":"Landkreis"},"federalState":{"key":"08","name":"Baden-Württemberg"}},{"name":"Balinger Str.","postalCode":"78727","locality":"Oberndorf am Neckar","municipality":{"key":"08325045","name":"Oberndorf am Neckar, Stadt","type":"Stadt"},"district":{"key":"08325","name":"Rottweil","type":"Landkreis"},"federalState":{"key":"08","name":"Baden-Württemberg"}},{"name":"Barbarahaldenstr.","postalCode":"78727","locality":"Oberndorf am Neckar","municipality":{"key":"08325045","name":"Oberndorf am Neckar, Stadt","type":"Stadt"},"district":{"key":"08325","name":"Rottweil","type":"Landkreis"},"federalState":{"key":"08","name":"Baden-Württemberg"}},{"name":"Bauernwaldweg","postalCode":"78727","locality":"Oberndorf am Neckar","municipality":{"key":"08325045","name":"Oberndorf am Neckar, Stadt","type":"Stadt"},"district":{"key":"08325","name":"Rottweil","type":"Landkreis"},"federalState":{"key":"08","name":"Baden-Württemberg"}},{"name":"Beffendorfer Str.","postalCode":"78727","locality":"Oberndorf am Neckar","municipality":{"key":"08325045","name":"Oberndorf am Neckar, Stadt","type":"Stadt"},"district":{"key":"08325","name":"Rottweil","type":"Landkreis"},"federalState":{"key":"08","name":"Baden-Württemberg"}},{"name":"Beffendorfer Weg","postalCode":"78727","locality":"Oberndorf am Neckar","municipality":{"key":"08325045","name":"Oberndorf am Neckar, Stadt","type":"Stadt"},"district":{"key":"08325","name":"Rottweil","type":"Landkreis"},"federalState":{"key":"08","name":"Baden-Württemberg"}},{"name":"Bergstr.","postalCode":"78727","locality":"Oberndorf am Neckar","municipality":{"key":"08325045","name":"Oberndorf am Neckar, Stadt","type":"Stadt"},"district":{"key":"08325","name":"Rottweil","type":"Landkreis"},"federalState":{"key":"08","name":"Baden-Württemberg"}},{"name":"Bergweg","postalCode":"78727","locality":"Oberndorf am Neckar","municipality":{"key":"08325045","name":"Oberndorf am Neckar, Stadt","type":"Stadt"},"district":{"key":"08325","name":"Rottweil","type":"Landkreis"},"federalState":{"key":"08","name":"Baden-Württemberg"}},{"name":"Bindäckerstr.","postalCode":"78727","locality":"Oberndorf am Neckar","municipality":{"key":"08325045","name":"Oberndorf am Neckar, Stadt","type":"Stadt"},"district":{"key":"08325","name":"Rottweil","type":"Landkreis"},"federalState":{"key":"08","name":"Baden-Württemberg"}},{"name":"Birkenhof","postalCode":"78727","locality":"Oberndorf am Neckar","municipality":{"key":"08325045","name":"Oberndorf am Neckar, Stadt","type":"Stadt"},"district":{"key":"08325","name":"Rottweil","type":"Landkreis"},"federalState":{"key":"08","name":"Baden-Württemberg"}},{"name":"Birkenwaldstr.","postalCode":"78727","locality":"Oberndorf am Neckar","municipality":{"key":"08325045","name":"Oberndorf am Neckar, Stadt","type":"Stadt"},"district":{"key":"08325","name":"Rottweil","type":"Landkreis"},"federalState":{"key":"08","name":"Baden-Württemberg"}},{"name":"Bismarckstr.","postalCode":"78727","locality":"Oberndorf am Neckar","municipality":{"key":"08325045","name":"Oberndorf am Neckar, Stadt","type":"Stadt"},"district":{"key":"08325","name":"Rottweil","type":"Landkreis"},"federalState":{"key":"08","name":"Baden-Württemberg"}},{"name":"Bitzenwiesen","postalCode":"78727","locality":"Oberndorf am Neckar","municipality":{"key":"08325045","name":"Oberndorf am Neckar, Stadt","type":"Stadt"},"district":{"key":"08325","name":"Rottweil","type":"Landkreis"},"federalState":{"key":"08","name":"Baden-Württemberg"}},{"name":"Bochinger Str.","postalCode":"78727","locality":"Oberndorf am Neckar","municipality":{"key":"08325045","name":"Oberndorf am Neckar, Stadt","type":"Stadt"},"district":{"key":"08325","name":"Rottweil","type":"Landkreis"},"federalState":{"key":"08","name":"Baden-Württemberg"}},{"name":"Bogeneckstr.","postalCode":"78727","locality":"Oberndorf am Neckar","municipality":{"key":"08325045","name":"Oberndorf am Neckar, Stadt","type":"Stadt"},"district":{"key":"08325","name":"Rottweil","type":"Landkreis"},"federalState":{"key":"08","name":"Baden-Württemberg"}},{"name":"Boller Steige","postalCode":"78727","locality":"Oberndorf am Neckar","municipality":{"key":"08325045","name":"Oberndorf am Neckar, Stadt","type":"Stadt"},"district":{"key":"08325","name":"Rottweil","type":"Landkreis"},"federalState":{"key":"08","name":"Baden-Württemberg"}},{"name":"Bösinger Steige","postalCode":"78727","locality":"Oberndorf am Neckar","municipality":{"key":"08325045","name":"Oberndorf am Neckar, Stadt","type":"Stadt"},"district":{"key":"08325","name":"Rottweil","type":"Landkreis"},"federalState":{"key":"08","name":"Baden-Württemberg"}},{"name":"Bösinger Str.","postalCode":"78727","locality":"Oberndorf am Neckar","municipality":{"key":"08325045","name":"Oberndorf am Neckar, Stadt","type":"Stadt"},"district":{"key":"08325","name":"Rottweil","type":"Landkreis"},"federalState":{"key":"08","name":"Baden-Württemberg"}},{"name":"Bozenhardstr.","postalCode":"78727","locality":"Oberndorf am Neckar","municipality":{"key":"08325045","name":"Oberndorf am Neckar, Stadt","type":"Stadt"},"district":{"key":"08325","name":"Rottweil","type":"Landkreis"},"federalState":{"key":"08","name":"Baden-Württemberg"}},{"name":"Brandäcker","postalCode":"78727","locality":"Oberndorf am Neckar","municipality":{"key":"08325045","name":"Oberndorf am Neckar, Stadt","type":"Stadt"},"district":{"key":"08325","name":"Rottweil","type":"Landkreis"},"federalState":{"key":"08","name":"Baden-Württemberg"}},{"name":"Brandeckerstr.","postalCode":"78727","locality":"Oberndorf am Neckar","municipality":{"key":"08325045","name":"Oberndorf am Neckar, Stadt","type":"Stadt"},"district":{"key":"08325","name":"Rottweil","type":"Landkreis"},"federalState":{"key":"08","name":"Baden-Württemberg"}},{"name":"Breitegärten","postalCode":"78727","locality":"Oberndorf am Neckar","municipality":{"key":"08325045","name":"Oberndorf am Neckar, Stadt","type":"Stadt"},"district":{"key":"08325","name":"Rottweil","type":"Landkreis"},"federalState":{"key":"08","name":"Baden-Württemberg"}},{"name":"Breitestr.","postalCode":"78727","locality":"Oberndorf am Neckar","municipality":{"key":"08325045","name":"Oberndorf am Neckar, Stadt","type":"Stadt"},"district":{"key":"08325","name":"Rottweil","type":"Landkreis"},"federalState":{"key":"08","name":"Baden-Württemberg"}},{"name":"Bruckgasse","postalCode":"78727","locality":"Oberndorf am Neckar","municipality":{"key":"08325045","name":"Oberndorf am Neckar, Stadt","type":"Stadt"},"district":{"key":"08325","name":"Rottweil","type":"Landkreis"},"federalState":{"key":"08","name":"Baden-Württemberg"}},{"name":"Brühlgrabenstr.","postalCode":"78727","locality":"Oberndorf am Neckar","municipality":{"key":"08325045","name":"Oberndorf am Neckar, Stadt","type":"Stadt"},"district":{"key":"08325","name":"Rottweil","type":"Landkreis"},"federalState":{"key":"08","name":"Baden-Württemberg"}},{"name":"Brühlstr.","postalCode":"78727","locality":"Oberndorf am Neckar","municipality":{"key":"08325045","name":"Oberndorf am Neckar, Stadt","type":"Stadt"},"district":{"key":"08325","name":"Rottweil","type":"Landkreis"},"federalState":{"key":"08","name":"Baden-Württemberg"}},{"name":"Brühlwiesen","postalCode":"78727","locality":"Oberndorf am Neckar","municipality":{"key":"08325045","name":"Oberndorf am Neckar, Stadt","type":"Stadt"},"district":{"key":"08325","name":"Rottweil","type":"Landkreis"},"federalState":{"key":"08","name":"Baden-Württemberg"}},{"name":"Brunnenstr.","postalCode":"78727","locality":"Oberndorf am Neckar","municipality":{"key":"08325045","name":"Oberndorf am Neckar, Stadt","type":"Stadt"},"district":{"key":"08325","name":"Rottweil","type":"Landkreis"},"federalState":{"key":"08","name":"Baden-Württemberg"}},{"name":"Bubwiesenstr.","postalCode":"78727","locality":"Oberndorf am Neckar","municipality":{"key":"08325045","name":"Oberndorf am Neckar, Stadt","type":"Stadt"},"district":{"key":"08325","name":"Rottweil","type":"Landkreis"},"federalState":{"key":"08","name":"Baden-Württemberg"}},{"name":"Buchenweg","postalCode":"78727","locality":"Oberndorf am Neckar","municipality":{"key":"08325045","name":"Oberndorf am Neckar, Stadt","type":"Stadt"},"district":{"key":"08325","name":"Rottweil","type":"Landkreis"},"federalState":{"key":"08","name":"Baden-Württemberg"}},{"name":"Charlottenstr.","postalCode":"78727","locality":"Oberndorf am Neckar","municipality":{"key":"08325045","name":"Oberndorf am Neckar, Stadt","type":"Stadt"},"district":{"key":"08325","name":"Rottweil","type":"Landkreis"},"federalState":{"key":"08","name":"Baden-Württemberg"}},{"name":"Dammstr.","postalCode":"78727","locality":"Oberndorf am Neckar","municipality":{"key":"08325045","name":"Oberndorf am Neckar, Stadt","type":"Stadt"},"district":{"key":"08325","name":"Rottweil","type":"Landkreis"},"federalState":{"key":"08","name":"Baden-Württemberg"}},{"name":"Dieselbachhäuser","postalCode":"78727","locality":"Oberndorf am Neckar","municipality":{"key":"08325045","name":"Oberndorf am Neckar, Stadt","type":"Stadt"},"district":{"key":"08325","name":"Rottweil","type":"Landkreis"},"federalState":{"key":"08","name":"Baden-Württemberg"}},{"name":"Dolinenweg","postalCode":"78727","locality":"Oberndorf am Neckar","municipality":{"key":"08325045","name":"Oberndorf am Neckar, Stadt","type":"Stadt"},"district":{"key":"08325","name":"Rottweil","type":"Landkreis"},"federalState":{"key":"08","name":"Baden-Württemberg"}},{"name":"Dollauweg","postalCode":"78727","locality":"Oberndorf am Neckar","municipality":{"key":"08325045","name":"Oberndorf am Neckar, Stadt","type":"Stadt"},"district":{"key":"08325","name":"Rottweil","type":"Landkreis"},"federalState":{"key":"08","name":"Baden-Württemberg"}},{"name":"Dornhaner Str.","postalCode":"78727","locality":"Oberndorf am Neckar","municipality":{"key":"08325045","name":"Oberndorf am Neckar, Stadt","type":"Stadt"},"district":{"key":"08325","name":"Rottweil","type":"Landkreis"},"federalState":{"key":"08","name":"Baden-Württemberg"}},{"name":"Dr.-Karl-Walz-Weg","postalCode":"78727","locality":"Oberndorf am Neckar","municipality":{"key":"08325045","name":"Oberndorf am Neckar, Stadt","type":"Stadt"},"district":{"key":"08325","name":"Rottweil","type":"Landkreis"},"federalState":{"key":"08","name":"Baden-Württemberg"}},{"name":"Eichendorffstr.","postalCode":"78727","locality":"Oberndorf am Neckar","municipality":{"key":"08325045","name":"Oberndorf am Neckar, Stadt","type":"Stadt"},"district":{"key":"08325","name":"Rottweil","type":"Landkreis"},"federalState":{"key":"08","name":"Baden-Württemberg"}},{"name":"Eichwaldweg","postalCode":"78727","locality":"Oberndorf am Neckar","municipality":{"key":"08325045","name":"Oberndorf am Neckar, Stadt","type":"Stadt"},"district":{"key":"08325","name":"Rottweil","type":"Landkreis"},"federalState":{"key":"08","name":"Baden-Württemberg"}},{"name":"Einfelderhof","postalCode":"78727","locality":"Oberndorf am Neckar","municipality":{"key":"08325045","name":"Oberndorf am Neckar, Stadt","type":"Stadt"},"district":{"key":"08325","name":"Rottweil","type":"Landkreis"},"federalState":{"key":"08","name":"Baden-Württemberg"}},{"name":"Eiwäldle","postalCode":"78727","locality":"Oberndorf am Neckar","municipality":{"key":"08325045","name":"Oberndorf am Neckar, Stadt","type":"Stadt"},"district":{"key":"08325","name":"Rottweil","type":"Landkreis"},"federalState":{"key":"08","name":"Baden-Württemberg"}},{"name":"Emil-Guhl-Str.","postalCode":"78727","locality":"Oberndorf am Neckar","municipality":{"key":"08325045","name":"Oberndorf am Neckar, Stadt","type":"Stadt"},"district":{"key":"08325","name":"Rottweil","type":"Landkreis"},"federalState":{"key":"08","name":"Baden-Württemberg"}},{"name":"Engelensgrube","postalCode":"78727","locality":"Oberndorf am Neckar","municipality":{"key":"08325045","name":"Oberndorf am Neckar, Stadt","type":"Stadt"},"district":{"key":"08325","name":"Rottweil","type":"Landkreis"},"federalState":{"key":"08","name":"Baden-Württemberg"}},{"name":"Enger Schlattweg","postalCode":"78727","locality":"Oberndorf am Neckar","municipality":{"key":"08325045","name":"Oberndorf am Neckar, Stadt","type":"Stadt"},"district":{"key":"08325","name":"Rottweil","type":"Landkreis"},"federalState":{"key":"08","name":"Baden-Württemberg"}},{"name":"Erlenstr.","postalCode":"78727","locality":"Oberndorf am Neckar","municipality":{"key":"08325045","name":"Oberndorf am Neckar, Stadt","type":"Stadt"},"district":{"key":"08325","name":"Rottweil","type":"Landkreis"},"federalState":{"key":"08","name":"Baden-Württemberg"}},{"name":"Eschenweg","postalCode":"78727","locality":"Oberndorf am Neckar","municipality":{"key":"08325045","name":"Oberndorf am Neckar, Stadt","type":"Stadt"},"district":{"key":"08325","name":"Rottweil","type":"Landkreis"},"federalState":{"key":"08","name":"Baden-Württemberg"}},{"name":"Eugen-Frueth-Str.","postalCode":"78727","locality":"Oberndorf am Neckar","municipality":{"key":"08325045","name":"Oberndorf am Neckar, Stadt","type":"Stadt"},"district":{"key":"08325","name":"Rottweil","type":"Landkreis"},"federalState":{"key":"08","name":"Baden-Württemberg"}},{"name":"Falkenstr.","postalCode":"78727","locality":"Oberndorf am Neckar","municipality":{"key":"08325045","name":"Oberndorf am Neckar, Stadt","type":"Stadt"},"district":{"key":"08325","name":"Rottweil","type":"Landkreis"},"federalState":{"key":"08","name":"Baden-Württemberg"}},{"name":"Färbergasse","postalCode":"78727","locality":"Oberndorf am Neckar","municipality":{"key":"08325045","name":"Oberndorf am Neckar, Stadt","type":"Stadt"},"district":{"key":"08325","name":"Rottweil","type":"Landkreis"},"federalState":{"key":"08","name":"Baden-Württemberg"}},{"name":"Felbenstr.","postalCode":"78727","locality":"Oberndorf am Neckar","municipality":{"key":"08325045","name":"Oberndorf am Neckar, Stadt","type":"Stadt"},"district":{"key":"08325","name":"Rottweil","type":"Landkreis"},"federalState":{"key":"08","name":"Baden-Württemberg"}},{"name":"Felsenweg","postalCode":"78727","locality":"Oberndorf am Neckar","municipality":{"key":"08325045","name":"Oberndorf am Neckar, Stadt","type":"Stadt"},"district":{"key":"08325","name":"Rottweil","type":"Landkreis"},"federalState":{"key":"08","name":"Baden-Württemberg"}},{"name":"Fidel-Feederle-Str.","postalCode":"78727","locality":"Oberndorf am Neckar","municipality":{"key":"08325045","name":"Oberndorf am Neckar, Stadt","type":"Stadt"},"district":{"key":"08325","name":"Rottweil","type":"Landkreis"},"federalState":{"key":"08","name":"Baden-Württemberg"}},{"name":"Finkenweg","postalCode":"78727","locality":"Oberndorf am Neckar","municipality":{"key":"08325045","name":"Oberndorf am Neckar, Stadt","type":"Stadt"},"district":{"key":"08325","name":"Rottweil","type":"Landkreis"},"federalState":{"key":"08","name":"Baden-Württemberg"}},{"name":"Flößerweg","postalCode":"78727","locality":"Oberndorf am Neckar","municipality":{"key":"08325045","name":"Oberndorf am Neckar, Stadt","type":"Stadt"},"district":{"key":"08325","name":"Rottweil","type":"Landkreis"},"federalState":{"key":"08","name":"Baden-Württemberg"}},{"name":"Fluorner Str.","postalCode":"78727","locality":"Oberndorf am Neckar","municipality":{"key":"08325045","name":"Oberndorf am Neckar, Stadt","type":"Stadt"},"district":{"key":"08325","name":"Rottweil","type":"Landkreis"},"federalState":{"key":"08","name":"Baden-Württemberg"}},{"name":"Franz Xaver-Singer-Str.","postalCode":"78727","locality":"Oberndorf am Neckar","municipality":{"key":"08325045","name":"Oberndorf am Neckar, Stadt","type":"Stadt"},"district":{"key":"08325","name":"Rottweil","type":"Landkreis"},"federalState":{"key":"08","name":"Baden-Württemberg"}},{"name":"Friedrich-List-Str.","postalCode":"78727","locality":"Oberndorf am Neckar","municipality":{"key":"08325045","name":"Oberndorf am Neckar, Stadt","type":"Stadt"},"district":{"key":"08325","name":"Rottweil","type":"Landkreis"},"federalState":{"key":"08","name":"Baden-Württemberg"}},{"name":"Fuchsgrubenweg","postalCode":"78727","locality":"Oberndorf am Neckar","municipality":{"key":"08325045","name":"Oberndorf am Neckar, Stadt","type":"Stadt"},"district":{"key":"08325","name":"Rottweil","type":"Landkreis"},"federalState":{"key":"08","name":"Baden-Württemberg"}},{"name":"Gartenstr.","postalCode":"78727","locality":"Oberndorf am Neckar","municipality":{"key":"08325045","name":"Oberndorf am Neckar, Stadt","type":"Stadt"},"district":{"key":"08325","name":"Rottweil","type":"Landkreis"},"federalState":{"key":"08","name":"Baden-Württemberg"}},{"name":"Gartenwiesen","postalCode":"78727","locality":"Oberndorf am Neckar","municipality":{"key":"08325045","name":"Oberndorf am Neckar, Stadt","type":"Stadt"},"district":{"key":"08325","name":"Rottweil","type":"Landkreis"},"federalState":{"key":"08","name":"Baden-Württemberg"}},{"name":"Geigenbergweg","postalCode":"78727","locality":"Oberndorf am Neckar","municipality":{"key":"08325045","name":"Oberndorf am Neckar, Stadt","type":"Stadt"},"district":{"key":"08325","name":"Rottweil","type":"Landkreis"},"federalState":{"key":"08","name":"Baden-Württemberg"}},{"name":"Gießenstr.","postalCode":"78727","locality":"Oberndorf am Neckar","municipality":{"key":"08325045","name":"Oberndorf am Neckar, Stadt","type":"Stadt"},"district":{"key":"08325","name":"Rottweil","type":"Landkreis"},"federalState":{"key":"08","name":"Baden-Württemberg"}},{"name":"Grabenäcker","postalCode":"78727","locality":"Oberndorf am Neckar","municipality":{"key":"08325045","name":"Oberndorf am Neckar, Stadt","type":"Stadt"},"district":{"key":"08325","name":"Rottweil","type":"Landkreis"},"federalState":{"key":"08","name":"Baden-Württemberg"}},{"name":"Grasiger Weg","postalCode":"78727","locality":"Oberndorf am Neckar","municipality":{"key":"08325045","name":"Oberndorf am Neckar, Stadt","type":"Stadt"},"district":{"key":"08325","name":"Rottweil","type":"Landkreis"},"federalState":{"key":"08","name":"Baden-Württemberg"}},{"name":"Graubenstr.","postalCode":"78727","locality":"Oberndorf am Neckar","municipality":{"key":"08325045","name":"Oberndorf am Neckar, Stadt","type":"Stadt"},"district":{"key":"08325","name":"Rottweil","type":"Landkreis"},"federalState":{"key":"08","name":"Baden-Württemberg"}},{"name":"Grenzweg","postalCode":"78727","locality":"Oberndorf am Neckar","municipality":{"key":"08325045","name":"Oberndorf am Neckar, Stadt","type":"Stadt"},"district":{"key":"08325","name":"Rottweil","type":"Landkreis"},"federalState":{"key":"08","name":"Baden-Württemberg"}},{"name":"Grundhäuser","postalCode":"78727","locality":"Oberndorf am Neckar","municipality":{"key":"08325045","name":"Oberndorf am Neckar, Stadt","type":"Stadt"},"district":{"key":"08325","name":"Rottweil","type":"Landkreis"},"federalState":{"key":"08","name":"Baden-Württemberg"}},{"name":"Grundhofweg","postalCode":"78727","locality":"Oberndorf am Neckar","municipality":{"key":"08325045","name":"Oberndorf am Neckar, Stadt","type":"Stadt"},"district":{"key":"08325","name":"Rottweil","type":"Landkreis"},"federalState":{"key":"08","name":"Baden-Württemberg"}},{"name":"Gutenbergstr.","postalCode":"78727","locality":"Oberndorf am Neckar","municipality":{"key":"08325045","name":"Oberndorf am Neckar, Stadt","type":"Stadt"},"district":{"key":"08325","name":"Rottweil","type":"Landkreis"},"federalState":{"key":"08","name":"Baden-Württemberg"}},{"name":"Hafenmarkt","postalCode":"78727","locality":"Oberndorf am Neckar","municipality":{"key":"08325045","name":"Oberndorf am Neckar, Stadt","type":"Stadt"},"district":{"key":"08325","name":"Rottweil","type":"Landkreis"},"federalState":{"key":"08","name":"Baden-Württemberg"}},{"name":"Hagholz","postalCode":"78727","locality":"Oberndorf am Neckar","municipality":{"key":"08325045","name":"Oberndorf am Neckar, Stadt","type":"Stadt"},"district":{"key":"08325","name":"Rottweil","type":"Landkreis"},"federalState":{"key":"08","name":"Baden-Württemberg"}},{"name":"Haldenäckerstr.","postalCode":"78727","locality":"Oberndorf am Neckar","municipality":{"key":"08325045","name":"Oberndorf am Neckar, Stadt","type":"Stadt"},"district":{"key":"08325","name":"Rottweil","type":"Landkreis"},"federalState":{"key":"08","name":"Baden-Württemberg"}},{"name":"Härlestr.","postalCode":"78727","locality":"Oberndorf am Neckar","municipality":{"key":"08325045","name":"Oberndorf am Neckar, Stadt","type":"Stadt"},"district":{"key":"08325","name":"Rottweil","type":"Landkreis"},"federalState":{"key":"08","name":"Baden-Württemberg"}},{"name":"Hauptstr.","postalCode":"78727","locality":"Oberndorf am Neckar","municipality":{"key":"08325045","name":"Oberndorf am Neckar, Stadt","type":"Stadt"},"district":{"key":"08325","name":"Rottweil","type":"Landkreis"},"federalState":{"key":"08","name":"Baden-Württemberg"}},{"name":"Hebsack","postalCode":"78727","locality":"Oberndorf am Neckar","municipality":{"key":"08325045","name":"Oberndorf am Neckar, Stadt","type":"Stadt"},"district":{"key":"08325","name":"Rottweil","type":"Landkreis"},"federalState":{"key":"08","name":"Baden-Württemberg"}},{"name":"Hermann-Kimmich-Str.","postalCode":"78727","locality":"Oberndorf am Neckar","municipality":{"key":"08325045","name":"Oberndorf am Neckar, Stadt","type":"Stadt"},"district":{"key":"08325","name":"Rottweil","type":"Landkreis"},"federalState":{"key":"08","name":"Baden-Württemberg"}},{"name":"Hermann-Österle-Str.","postalCode":"78727","locality":"Oberndorf am Neckar","municipality":{"key":"08325045","name":"Oberndorf am Neckar, Stadt","type":"Stadt"},"district":{"key":"08325","name":"Rottweil","type":"Landkreis"},"federalState":{"key":"08","name":"Baden-Württemberg"}},{"name":"Herrenhof","postalCode":"78727","locality":"Oberndorf am Neckar","municipality":{"key":"08325045","name":"Oberndorf am Neckar, Stadt","type":"Stadt"},"district":{"key":"08325","name":"Rottweil","type":"Landkreis"},"federalState":{"key":"08","name":"Baden-Württemberg"}},{"name":"Hessestr.","postalCode":"78727","locality":"Oberndorf am Neckar","municipality":{"key":"08325045","name":"Oberndorf am Neckar, Stadt","type":"Stadt"},"district":{"key":"08325","name":"Rottweil","type":"Landkreis"},"federalState":{"key":"08","name":"Baden-Württemberg"}},{"name":"Heusteig","postalCode":"78727","locality":"Oberndorf am Neckar","municipality":{"key":"08325045","name":"Oberndorf am Neckar, Stadt","type":"Stadt"},"district":{"key":"08325","name":"Rottweil","type":"Landkreis"},"federalState":{"key":"08","name":"Baden-Württemberg"}},{"name":"Hintere Kirchgasse","postalCode":"78727","locality":"Oberndorf am Neckar","municipality":{"key":"08325045","name":"Oberndorf am Neckar, Stadt","type":"Stadt"},"district":{"key":"08325","name":"Rottweil","type":"Landkreis"},"federalState":{"key":"08","name":"Baden-Württemberg"}},{"name":"Hirschgasse","postalCode":"78727","locality":"Oberndorf am Neckar","municipality":{"key":"08325045","name":"Oberndorf am Neckar, Stadt","type":"Stadt"},"district":{"key":"08325","name":"Rottweil","type":"Landkreis"},"federalState":{"key":"08","name":"Baden-Württemberg"}},{"name":"Hochmössinger Str.","postalCode":"78727","locality":"Oberndorf am Neckar","municipality":{"key":"08325045","name":"Oberndorf am Neckar, Stadt","type":"Stadt"},"district":{"key":"08325","name":"Rottweil","type":"Landkreis"},"federalState":{"key":"08","name":"Baden-Württemberg"}},{"name":"Hochsträß","postalCode":"78727","locality":"Oberndorf am Neckar","municipality":{"key":"08325045","name":"Oberndorf am Neckar, Stadt","type":"Stadt"},"district":{"key":"08325","name":"Rottweil","type":"Landkreis"},"federalState":{"key":"08","name":"Baden-Württemberg"}},{"name":"Hochwaldweg","postalCode":"78727","locality":"Oberndorf am Neckar","municipality":{"key":"08325045","name":"Oberndorf am Neckar, Stadt","type":"Stadt"},"district":{"key":"08325","name":"Rottweil","type":"Landkreis"},"federalState":{"key":"08","name":"Baden-Württemberg"}},{"name":"Hochwiesenstr.","postalCode":"78727","locality":"Oberndorf am Neckar","municipality":{"key":"08325045","name":"Oberndorf am Neckar, Stadt","type":"Stadt"},"district":{"key":"08325","name":"Rottweil","type":"Landkreis"},"federalState":{"key":"08","name":"Baden-Württemberg"}},{"name":"Hofackerstr.","postalCode":"78727","locality":"Oberndorf am Neckar","municipality":{"key":"08325045","name":"Oberndorf am Neckar, Stadt","type":"Stadt"},"district":{"key":"08325","name":"Rottweil","type":"Landkreis"},"federalState":{"key":"08","name":"Baden-Württemberg"}},{"name":"Hohenbergstr.","postalCode":"78727","locality":"Oberndorf am Neckar","municipality":{"key":"08325045","name":"Oberndorf am Neckar, Stadt","type":"Stadt"},"district":{"key":"08325","name":"Rottweil","type":"Landkreis"},"federalState":{"key":"08","name":"Baden-Württemberg"}},{"name":"Hohlgasse","postalCode":"78727","locality":"Oberndorf am Neckar","municipality":{"key":"08325045","name":"Oberndorf am Neckar, Stadt","type":"Stadt"},"district":{"key":"08325","name":"Rottweil","type":"Landkreis"},"federalState":{"key":"08","name":"Baden-Württemberg"}},{"name":"Hohlwegstr.","postalCode":"78727","locality":"Oberndorf am Neckar","municipality":{"key":"08325045","name":"Oberndorf am Neckar, Stadt","type":"Stadt"},"district":{"key":"08325","name":"Rottweil","type":"Landkreis"},"federalState":{"key":"08","name":"Baden-Württemberg"}},{"name":"Hölderlinstr.","postalCode":"78727","locality":"Oberndorf am Neckar","municipality":{"key":"08325045","name":"Oberndorf am Neckar, Stadt","type":"Stadt"},"district":{"key":"08325","name":"Rottweil","type":"Landkreis"},"federalState":{"key":"08","name":"Baden-Württemberg"}},{"name":"Holunderweg","postalCode":"78727","locality":"Oberndorf am Neckar","municipality":{"key":"08325045","name":"Oberndorf am Neckar, Stadt","type":"Stadt"},"district":{"key":"08325","name":"Rottweil","type":"Landkreis"},"federalState":{"key":"08","name":"Baden-Württemberg"}},{"name":"Honegger Steige","postalCode":"78727","locality":"Oberndorf am Neckar","municipality":{"key":"08325045","name":"Oberndorf am Neckar, Stadt","type":"Stadt"},"district":{"key":"08325","name":"Rottweil","type":"Landkreis"},"federalState":{"key":"08","name":"Baden-Württemberg"}},{"name":"Hopfengartenweg","postalCode":"78727","locality":"Oberndorf am Neckar","municipality":{"key":"08325045","name":"Oberndorf am Neckar, Stadt","type":"Stadt"},"district":{"key":"08325","name":"Rottweil","type":"Landkreis"},"federalState":{"key":"08","name":"Baden-Württemberg"}},{"name":"Hörnleweg","postalCode":"78727","locality":"Oberndorf am Neckar","municipality":{"key":"08325045","name":"Oberndorf am Neckar, Stadt","type":"Stadt"},"district":{"key":"08325","name":"Rottweil","type":"Landkreis"},"federalState":{"key":"08","name":"Baden-Württemberg"}},{"name":"Hummelberg","postalCode":"78727","locality":"Oberndorf am Neckar","municipality":{"key":"08325045","name":"Oberndorf am Neckar, Stadt","type":"Stadt"},"district":{"key":"08325","name":"Rottweil","type":"Landkreis"},"federalState":{"key":"08","name":"Baden-Württemberg"}},{"name":"Hummelberghof","postalCode":"78727","locality":"Oberndorf am Neckar","municipality":{"key":"08325045","name":"Oberndorf am Neckar, Stadt","type":"Stadt"},"district":{"key":"08325","name":"Rottweil","type":"Landkreis"},"federalState":{"key":"08","name":"Baden-Württemberg"}},{"name":"Hutschengässle","postalCode":"78727","locality":"Oberndorf am Neckar","municipality":{"key":"08325045","name":"Oberndorf am Neckar, Stadt","type":"Stadt"},"district":{"key":"08325","name":"Rottweil","type":"Landkreis"},"federalState":{"key":"08","name":"Baden-Württemberg"}},{"name":"Ignaz-Rohr-Str.","postalCode":"78727","locality":"Oberndorf am Neckar","municipality":{"key":"08325045","name":"Oberndorf am Neckar, Stadt","type":"Stadt"},"district":{"key":"08325","name":"Rottweil","type":"Landkreis"},"federalState":{"key":"08","name":"Baden-Württemberg"}},{"name":"Im Bletzenfeld","postalCode":"78727","locality":"Oberndorf am Neckar","municipality":{"key":"08325045","name":"Oberndorf am Neckar, Stadt","type":"Stadt"},"district":{"key":"08325","name":"Rottweil","type":"Landkreis"},"federalState":{"key":"08","name":"Baden-Württemberg"}},{"name":"Im Bühlgarten","postalCode":"78727","locality":"Oberndorf am Neckar","municipality":{"key":"08325045","name":"Oberndorf am Neckar, Stadt","type":"Stadt"},"district":{"key":"08325","name":"Rottweil","type":"Landkreis"},"federalState":{"key":"08","name":"Baden-Württemberg"}},{"name":"Im Felsblick","postalCode":"78727","locality":"Oberndorf am Neckar","municipality":{"key":"08325045","name":"Oberndorf am Neckar, Stadt","type":"Stadt"},"district":{"key":"08325","name":"Rottweil","type":"Landkreis"},"federalState":{"key":"08","name":"Baden-Württemberg"}},{"name":"Im Gassenacker","postalCode":"78727","locality":"Oberndorf am Neckar","municipality":{"key":"08325045","name":"Oberndorf am Neckar, Stadt","type":"Stadt"},"district":{"key":"08325","name":"Rottweil","type":"Landkreis"},"federalState":{"key":"08","name":"Baden-Württemberg"}},{"name":"Im Gehrn","postalCode":"78727","locality":"Oberndorf am Neckar","municipality":{"key":"08325045","name":"Oberndorf am Neckar, Stadt","type":"Stadt"},"district":{"key":"08325","name":"Rottweil","type":"Landkreis"},"federalState":{"key":"08","name":"Baden-Württemberg"}},{"name":"Im Hegholz","postalCode":"78727","locality":"Oberndorf am Neckar","municipality":{"key":"08325045","name":"Oberndorf am Neckar, Stadt","type":"Stadt"},"district":{"key":"08325","name":"Rottweil","type":"Landkreis"},"federalState":{"key":"08","name":"Baden-Württemberg"}},{"name":"Im Heimgarten","postalCode":"78727","locality":"Oberndorf am Neckar","municipality":{"key":"08325045","name":"Oberndorf am Neckar, Stadt","type":"Stadt"},"district":{"key":"08325","name":"Rottweil","type":"Landkreis"},"federalState":{"key":"08","name":"Baden-Württemberg"}},{"name":"Im Öschle","postalCode":"78727","locality":"Oberndorf am Neckar","municipality":{"key":"08325045","name":"Oberndorf am Neckar, Stadt","type":"Stadt"},"district":{"key":"08325","name":"Rottweil","type":"Landkreis"},"federalState":{"key":"08","name":"Baden-Württemberg"}},{"name":"Im Rankäcker","postalCode":"78727","locality":"Oberndorf am Neckar","municipality":{"key":"08325045","name":"Oberndorf am Neckar, Stadt","type":"Stadt"},"district":{"key":"08325","name":"Rottweil","type":"Landkreis"},"federalState":{"key":"08","name":"Baden-Württemberg"}},{"name":"Im Strüten","postalCode":"78727","locality":"Oberndorf am Neckar","municipality":{"key":"08325045","name":"Oberndorf am Neckar, Stadt","type":"Stadt"},"district":{"key":"08325","name":"Rottweil","type":"Landkreis"},"federalState":{"key":"08","name":"Baden-Württemberg"}},{"name":"Im Teich","postalCode":"78727","locality":"Oberndorf am Neckar","municipality":{"key":"08325045","name":"Oberndorf am Neckar, Stadt","type":"Stadt"},"district":{"key":"08325","name":"Rottweil","type":"Landkreis"},"federalState":{"key":"08","name":"Baden-Württemberg"}},{"name":"Im Vogelloch","postalCode":"78727","locality":"Oberndorf am Neckar","municipality":{"key":"08325045","name":"Oberndorf am Neckar, Stadt","type":"Stadt"},"district":{"key":"08325","name":"Rottweil","type":"Landkreis"},"federalState":{"key":"08","name":"Baden-Württemberg"}},{"name":"In der Hölld","postalCode":"78727","locality":"Oberndorf am Neckar","municipality":{"key":"08325045","name":"Oberndorf am Neckar, Stadt","type":"Stadt"},"district":{"key":"08325","name":"Rottweil","type":"Landkreis"},"federalState":{"key":"08","name":"Baden-Württemberg"}},{"name":"Irslenbach","postalCode":"78727","locality":"Oberndorf am Neckar","municipality":{"key":"08325045","name":"Oberndorf am Neckar, Stadt","type":"Stadt"},"district":{"key":"08325","name":"Rottweil","type":"Landkreis"},"federalState":{"key":"08","name":"Baden-Württemberg"}},{"name":"Irslenbachweg","postalCode":"78727","locality":"Oberndorf am Neckar","municipality":{"key":"08325045","name":"Oberndorf am Neckar, Stadt","type":"Stadt"},"district":{"key":"08325","name":"Rottweil","type":"Landkreis"},"federalState":{"key":"08","name":"Baden-Württemberg"}},{"name":"Julienweg","postalCode":"78727","locality":"Oberndorf am Neckar","municipality":{"key":"08325045","name":"Oberndorf am Neckar, Stadt","type":"Stadt"},"district":{"key":"08325","name":"Rottweil","type":"Landkreis"},"federalState":{"key":"08","name":"Baden-Württemberg"}},{"name":"Kälbergässle","postalCode":"78727","locality":"Oberndorf am Neckar","municipality":{"key":"08325045","name":"Oberndorf am Neckar, Stadt","type":"Stadt"},"district":{"key":"08325","name":"Rottweil","type":"Landkreis"},"federalState":{"key":"08","name":"Baden-Württemberg"}},{"name":"Kaltenbergstr.","postalCode":"78727","locality":"Oberndorf am Neckar","municipality":{"key":"08325045","name":"Oberndorf am Neckar, Stadt","type":"Stadt"},"district":{"key":"08325","name":"Rottweil","type":"Landkreis"},"federalState":{"key":"08","name":"Baden-Württemberg"}},{"name":"Kameralstr.","postalCode":"78727","locality":"Oberndorf am Neckar","municipality":{"key":"08325045","name":"Oberndorf am Neckar, Stadt","type":"Stadt"},"district":{"key":"08325","name":"Rottweil","type":"Landkreis"},"federalState":{"key":"08","name":"Baden-Württemberg"}},{"name":"Kapellenäcker","postalCode":"78727","locality":"Oberndorf am Neckar","municipality":{"key":"08325045","name":"Oberndorf am Neckar, Stadt","type":"Stadt"},"district":{"key":"08325","name":"Rottweil","type":"Landkreis"},"federalState":{"key":"08","name":"Baden-Württemberg"}},{"name":"Kapellenblickstr.","postalCode":"78727","locality":"Oberndorf am Neckar","municipality":{"key":"08325045","name":"Oberndorf am Neckar, Stadt","type":"Stadt"},"district":{"key":"08325","name":"Rottweil","type":"Landkreis"},"federalState":{"key":"08","name":"Baden-Württemberg"}},{"name":"Kapellenstr.","postalCode":"78727","locality":"Oberndorf am Neckar","municipality":{"key":"08325045","name":"Oberndorf am Neckar, Stadt","type":"Stadt"},"district":{"key":"08325","name":"Rottweil","type":"Landkreis"},"federalState":{"key":"08","name":"Baden-Württemberg"}},{"name":"Kapellenweg","postalCode":"78727","locality":"Oberndorf am Neckar","municipality":{"key":"08325045","name":"Oberndorf am Neckar, Stadt","type":"Stadt"},"district":{"key":"08325","name":"Rottweil","type":"Landkreis"},"federalState":{"key":"08","name":"Baden-Württemberg"}},{"name":"Keplerstr.","postalCode":"78727","locality":"Oberndorf am Neckar","municipality":{"key":"08325045","name":"Oberndorf am Neckar, Stadt","type":"Stadt"},"district":{"key":"08325","name":"Rottweil","type":"Landkreis"},"federalState":{"key":"08","name":"Baden-Württemberg"}},{"name":"Kienzlestr.","postalCode":"78727","locality":"Oberndorf am Neckar","municipality":{"key":"08325045","name":"Oberndorf am Neckar, Stadt","type":"Stadt"},"district":{"key":"08325","name":"Rottweil","type":"Landkreis"},"federalState":{"key":"08","name":"Baden-Württemberg"}},{"name":"Kirchstr.","postalCode":"78727","locality":"Oberndorf am Neckar","municipality":{"key":"08325045","name":"Oberndorf am Neckar, Stadt","type":"Stadt"},"district":{"key":"08325","name":"Rottweil","type":"Landkreis"},"federalState":{"key":"08","name":"Baden-Württemberg"}},{"name":"Kirchtorstr.","postalCode":"78727","locality":"Oberndorf am Neckar","municipality":{"key":"08325045","name":"Oberndorf am Neckar, Stadt","type":"Stadt"},"district":{"key":"08325","name":"Rottweil","type":"Landkreis"},"federalState":{"key":"08","name":"Baden-Württemberg"}},{"name":"Klosterstr.","postalCode":"78727","locality":"Oberndorf am Neckar","municipality":{"key":"08325045","name":"Oberndorf am Neckar, Stadt","type":"Stadt"},"district":{"key":"08325","name":"Rottweil","type":"Landkreis"},"federalState":{"key":"08","name":"Baden-Württemberg"}},{"name":"Kolpingstr.","postalCode":"78727","locality":"Oberndorf am Neckar","municipality":{"key":"08325045","name":"Oberndorf am Neckar, Stadt","type":"Stadt"},"district":{"key":"08325","name":"Rottweil","type":"Landkreis"},"federalState":{"key":"08","name":"Baden-Württemberg"}},{"name":"König-Wilhelm-Str.","postalCode":"78727","locality":"Oberndorf am Neckar","municipality":{"key":"08325045","name":"Oberndorf am Neckar, Stadt","type":"Stadt"},"district":{"key":"08325","name":"Rottweil","type":"Landkreis"},"federalState":{"key":"08","name":"Baden-Württemberg"}},{"name":"Kredererstr.","postalCode":"78727","locality":"Oberndorf am Neckar","municipality":{"key":"08325045","name":"Oberndorf am Neckar, Stadt","type":"Stadt"},"district":{"key":"08325","name":"Rottweil","type":"Landkreis"},"federalState":{"key":"08","name":"Baden-Württemberg"}},{"name":"Kreuzberg","postalCode":"78727","locality":"Oberndorf am Neckar","municipality":{"key":"08325045","name":"Oberndorf am Neckar, Stadt","type":"Stadt"},"district":{"key":"08325","name":"Rottweil","type":"Landkreis"},"federalState":{"key":"08","name":"Baden-Württemberg"}},{"name":"Kronenstr.","postalCode":"78727","locality":"Oberndorf am Neckar","municipality":{"key":"08325045","name":"Oberndorf am Neckar, Stadt","type":"Stadt"},"district":{"key":"08325","name":"Rottweil","type":"Landkreis"},"federalState":{"key":"08","name":"Baden-Württemberg"}},{"name":"Laibäcker","postalCode":"78727","locality":"Oberndorf am Neckar","municipality":{"key":"08325045","name":"Oberndorf am Neckar, Stadt","type":"Stadt"},"district":{"key":"08325","name":"Rottweil","type":"Landkreis"},"federalState":{"key":"08","name":"Baden-Württemberg"}},{"name":"Laibgärten","postalCode":"78727","locality":"Oberndorf am Neckar","municipality":{"key":"08325045","name":"Oberndorf am Neckar, Stadt","type":"Stadt"},"district":{"key":"08325","name":"Rottweil","type":"Landkreis"},"federalState":{"key":"08","name":"Baden-Württemberg"}},{"name":"Laibgasse","postalCode":"78727","locality":"Oberndorf am Neckar","municipality":{"key":"08325045","name":"Oberndorf am Neckar, Stadt","type":"Stadt"},"district":{"key":"08325","name":"Rottweil","type":"Landkreis"},"federalState":{"key":"08","name":"Baden-Württemberg"}},{"name":"Langensteige","postalCode":"78727","locality":"Oberndorf am Neckar","municipality":{"key":"08325045","name":"Oberndorf am Neckar, Stadt","type":"Stadt"},"district":{"key":"08325","name":"Rottweil","type":"Landkreis"},"federalState":{"key":"08","name":"Baden-Württemberg"}},{"name":"Langer Sumpfweg","postalCode":"78727","locality":"Oberndorf am Neckar","municipality":{"key":"08325045","name":"Oberndorf am Neckar, Stadt","type":"Stadt"},"district":{"key":"08325","name":"Rottweil","type":"Landkreis"},"federalState":{"key":"08","name":"Baden-Württemberg"}},{"name":"Langer Weg","postalCode":"78727","locality":"Oberndorf am Neckar","municipality":{"key":"08325045","name":"Oberndorf am Neckar, Stadt","type":"Stadt"},"district":{"key":"08325","name":"Rottweil","type":"Landkreis"},"federalState":{"key":"08","name":"Baden-Württemberg"}},{"name":"Lautenbach","postalCode":"78727","locality":"Oberndorf am Neckar","municipality":{"key":"08325045","name":"Oberndorf am Neckar, Stadt","type":"Stadt"},"district":{"key":"08325","name":"Rottweil","type":"Landkreis"},"federalState":{"key":"08","name":"Baden-Württemberg"}},{"name":"Lauterbachstr.","postalCode":"78727","locality":"Oberndorf am Neckar","municipality":{"key":"08325045","name":"Oberndorf am Neckar, Stadt","type":"Stadt"},"district":{"key":"08325","name":"Rottweil","type":"Landkreis"},"federalState":{"key":"08","name":"Baden-Württemberg"}},{"name":"Lehenhof","postalCode":"78727","locality":"Oberndorf am Neckar","municipality":{"key":"08325045","name":"Oberndorf am Neckar, Stadt","type":"Stadt"},"district":{"key":"08325","name":"Rottweil","type":"Landkreis"},"federalState":{"key":"08","name":"Baden-Württemberg"}},{"name":"Lehenhofweg","postalCode":"78727","locality":"Oberndorf am Neckar","municipality":{"key":"08325045","name":"Oberndorf am Neckar, Stadt","type":"Stadt"},"district":{"key":"08325","name":"Rottweil","type":"Landkreis"},"federalState":{"key":"08","name":"Baden-Württemberg"}},{"name":"Lehmgrubenweg","postalCode":"78727","locality":"Oberndorf am Neckar","municipality":{"key":"08325045","name":"Oberndorf am Neckar, Stadt","type":"Stadt"},"district":{"key":"08325","name":"Rottweil","type":"Landkreis"},"federalState":{"key":"08","name":"Baden-Württemberg"}},{"name":"Lembergstr.","postalCode":"78727","locality":"Oberndorf am Neckar","municipality":{"key":"08325045","name":"Oberndorf am Neckar, Stadt","type":"Stadt"},"district":{"key":"08325","name":"Rottweil","type":"Landkreis"},"federalState":{"key":"08","name":"Baden-Württemberg"}},{"name":"Lerchenweg","postalCode":"78727","locality":"Oberndorf am Neckar","municipality":{"key":"08325045","name":"Oberndorf am Neckar, Stadt","type":"Stadt"},"district":{"key":"08325","name":"Rottweil","type":"Landkreis"},"federalState":{"key":"08","name":"Baden-Württemberg"}},{"name":"Lettenäcker","postalCode":"78727","locality":"Oberndorf am Neckar","municipality":{"key":"08325045","name":"Oberndorf am Neckar, Stadt","type":"Stadt"},"district":{"key":"08325","name":"Rottweil","type":"Landkreis"},"federalState":{"key":"08","name":"Baden-Württemberg"}},{"name":"Lindenbühlstr.","postalCode":"78727","locality":"Oberndorf am Neckar","municipality":{"key":"08325045","name":"Oberndorf am Neckar, Stadt","type":"Stadt"},"district":{"key":"08325","name":"Rottweil","type":"Landkreis"},"federalState":{"key":"08","name":"Baden-Württemberg"}},{"name":"Lindenhofplatz","postalCode":"78727","locality":"Oberndorf am Neckar","municipality":{"key":"08325045","name":"Oberndorf am Neckar, Stadt","type":"Stadt"},"district":{"key":"08325","name":"Rottweil","type":"Landkreis"},"federalState":{"key":"08","name":"Baden-Württemberg"}},{"name":"Lindenhofweg","postalCode":"78727","locality":"Oberndorf am Neckar","municipality":{"key":"08325045","name":"Oberndorf am Neckar, Stadt","type":"Stadt"},"district":{"key":"08325","name":"Rottweil","type":"Landkreis"},"federalState":{"key":"08","name":"Baden-Württemberg"}},{"name":"Lindenstr.","postalCode":"78727","locality":"Oberndorf am Neckar","municipality":{"key":"08325045","name":"Oberndorf am Neckar, Stadt","type":"Stadt"},"district":{"key":"08325","name":"Rottweil","type":"Landkreis"},"federalState":{"key":"08","name":"Baden-Württemberg"}},{"name":"Lochenweg","postalCode":"78727","locality":"Oberndorf am Neckar","municipality":{"key":"08325045","name":"Oberndorf am Neckar, Stadt","type":"Stadt"},"district":{"key":"08325","name":"Rottweil","type":"Landkreis"},"federalState":{"key":"08","name":"Baden-Württemberg"}},{"name":"Lohwiesenstr.","postalCode":"78727","locality":"Oberndorf am Neckar","municipality":{"key":"08325045","name":"Oberndorf am Neckar, Stadt","type":"Stadt"},"district":{"key":"08325","name":"Rottweil","type":"Landkreis"},"federalState":{"key":"08","name":"Baden-Württemberg"}},{"name":"Mafellstr.","postalCode":"78727","locality":"Oberndorf am Neckar","municipality":{"key":"08325045","name":"Oberndorf am Neckar, Stadt","type":"Stadt"},"district":{"key":"08325","name":"Rottweil","type":"Landkreis"},"federalState":{"key":"08","name":"Baden-Württemberg"}},{"name":"Marta-Hummler-Weg","postalCode":"78727","locality":"Oberndorf am Neckar","municipality":{"key":"08325045","name":"Oberndorf am Neckar, Stadt","type":"Stadt"},"district":{"key":"08325","name":"Rottweil","type":"Landkreis"},"federalState":{"key":"08","name":"Baden-Württemberg"}},{"name":"Mauserstr.","postalCode":"78727","locality":"Oberndorf am Neckar","municipality":{"key":"08325045","name":"Oberndorf am Neckar, Stadt","type":"Stadt"},"district":{"key":"08325","name":"Rottweil","type":"Landkreis"},"federalState":{"key":"08","name":"Baden-Württemberg"}},{"name":"Mittlere Gasse","postalCode":"78727","locality":"Oberndorf am Neckar","municipality":{"key":"08325045","name":"Oberndorf am Neckar, Stadt","type":"Stadt"},"district":{"key":"08325","name":"Rottweil","type":"Landkreis"},"federalState":{"key":"08","name":"Baden-Württemberg"}},{"name":"Mörikeweg","postalCode":"78727","locality":"Oberndorf am Neckar","municipality":{"key":"08325045","name":"Oberndorf am Neckar, Stadt","type":"Stadt"},"district":{"key":"08325","name":"Rottweil","type":"Landkreis"},"federalState":{"key":"08","name":"Baden-Württemberg"}},{"name":"Mühlenberg","postalCode":"78727","locality":"Oberndorf am Neckar","municipality":{"key":"08325045","name":"Oberndorf am Neckar, Stadt","type":"Stadt"},"district":{"key":"08325","name":"Rottweil","type":"Landkreis"},"federalState":{"key":"08","name":"Baden-Württemberg"}},{"name":"Neckarstr.","postalCode":"78727","locality":"Oberndorf am Neckar","municipality":{"key":"08325045","name":"Oberndorf am Neckar, Stadt","type":"Stadt"},"district":{"key":"08325","name":"Rottweil","type":"Landkreis"},"federalState":{"key":"08","name":"Baden-Württemberg"}},{"name":"Nestelwasen","postalCode":"78727","locality":"Oberndorf am Neckar","municipality":{"key":"08325045","name":"Oberndorf am Neckar, Stadt","type":"Stadt"},"district":{"key":"08325","name":"Rottweil","type":"Landkreis"},"federalState":{"key":"08","name":"Baden-Württemberg"}},{"name":"Neue Steige","postalCode":"78727","locality":"Oberndorf am Neckar","municipality":{"key":"08325045","name":"Oberndorf am Neckar, Stadt","type":"Stadt"},"district":{"key":"08325","name":"Rottweil","type":"Landkreis"},"federalState":{"key":"08","name":"Baden-Württemberg"}},{"name":"Neuwies","postalCode":"78727","locality":"Oberndorf am Neckar","municipality":{"key":"08325045","name":"Oberndorf am Neckar, Stadt","type":"Stadt"},"district":{"key":"08325","name":"Rottweil","type":"Landkreis"},"federalState":{"key":"08","name":"Baden-Württemberg"}},{"name":"Ob der Steinhalde","postalCode":"78727","locality":"Oberndorf am Neckar","municipality":{"key":"08325045","name":"Oberndorf am Neckar, Stadt","type":"Stadt"},"district":{"key":"08325","name":"Rottweil","type":"Landkreis"},"federalState":{"key":"08","name":"Baden-Württemberg"}},{"name":"Ob der Sulzhalde","postalCode":"78727","locality":"Oberndorf am Neckar","municipality":{"key":"08325045","name":"Oberndorf am Neckar, Stadt","type":"Stadt"},"district":{"key":"08325","name":"Rottweil","type":"Landkreis"},"federalState":{"key":"08","name":"Baden-Württemberg"}},{"name":"Oberaichhofweg","postalCode":"78727","locality":"Oberndorf am Neckar","municipality":{"key":"08325045","name":"Oberndorf am Neckar, Stadt","type":"Stadt"},"district":{"key":"08325","name":"Rottweil","type":"Landkreis"},"federalState":{"key":"08","name":"Baden-Württemberg"}},{"name":"Obere Gasse","postalCode":"78727","locality":"Oberndorf am Neckar","municipality":{"key":"08325045","name":"Oberndorf am Neckar, Stadt","type":"Stadt"},"district":{"key":"08325","name":"Rottweil","type":"Landkreis"},"federalState":{"key":"08","name":"Baden-Württemberg"}},{"name":"oberer Baubergweg","postalCode":"78727","locality":"Oberndorf am Neckar","municipality":{"key":"08325045","name":"Oberndorf am Neckar, Stadt","type":"Stadt"},"district":{"key":"08325","name":"Rottweil","type":"Landkreis"},"federalState":{"key":"08","name":"Baden-Württemberg"}},{"name":"Oberer Brühl","postalCode":"78727","locality":"Oberndorf am Neckar","municipality":{"key":"08325045","name":"Oberndorf am Neckar, Stadt","type":"Stadt"},"district":{"key":"08325","name":"Rottweil","type":"Landkreis"},"federalState":{"key":"08","name":"Baden-Württemberg"}},{"name":"Oberes Breitenhag","postalCode":"78727","locality":"Oberndorf am Neckar","municipality":{"key":"08325045","name":"Oberndorf am Neckar, Stadt","type":"Stadt"},"district":{"key":"08325","name":"Rottweil","type":"Landkreis"},"federalState":{"key":"08","name":"Baden-Württemberg"}},{"name":"Obertorplatz","postalCode":"78727","locality":"Oberndorf am Neckar","municipality":{"key":"08325045","name":"Oberndorf am Neckar, Stadt","type":"Stadt"},"district":{"key":"08325","name":"Rottweil","type":"Landkreis"},"federalState":{"key":"08","name":"Baden-Württemberg"}},{"name":"Obstgärten","postalCode":"78727","locality":"Oberndorf am Neckar","municipality":{"key":"08325045","name":"Oberndorf am Neckar, Stadt","type":"Stadt"},"district":{"key":"08325","name":"Rottweil","type":"Landkreis"},"federalState":{"key":"08","name":"Baden-Württemberg"}},{"name":"Panoramaweg","postalCode":"78727","locality":"Oberndorf am Neckar","municipality":{"key":"08325045","name":"Oberndorf am Neckar, Stadt","type":"Stadt"},"district":{"key":"08325","name":"Rottweil","type":"Landkreis"},"federalState":{"key":"08","name":"Baden-Württemberg"}},{"name":"Pappelweg","postalCode":"78727","locality":"Oberndorf am Neckar","municipality":{"key":"08325045","name":"Oberndorf am Neckar, Stadt","type":"Stadt"},"district":{"key":"08325","name":"Rottweil","type":"Landkreis"},"federalState":{"key":"08","name":"Baden-Württemberg"}},{"name":"Pfäfflinstr.","postalCode":"78727","locality":"Oberndorf am Neckar","municipality":{"key":"08325045","name":"Oberndorf am Neckar, Stadt","type":"Stadt"},"district":{"key":"08325","name":"Rottweil","type":"Landkreis"},"federalState":{"key":"08","name":"Baden-Württemberg"}},{"name":"Pfalzstr.","postalCode":"78727","locality":"Oberndorf am Neckar","municipality":{"key":"08325045","name":"Oberndorf am Neckar, Stadt","type":"Stadt"},"district":{"key":"08325","name":"Rottweil","type":"Landkreis"},"federalState":{"key":"08","name":"Baden-Württemberg"}},{"name":"Pfarrer-Köhler-Str.","postalCode":"78727","locality":"Oberndorf am Neckar","municipality":{"key":"08325045","name":"Oberndorf am Neckar, Stadt","type":"Stadt"},"district":{"key":"08325","name":"Rottweil","type":"Landkreis"},"federalState":{"key":"08","name":"Baden-Württemberg"}},{"name":"Pfarrgasse","postalCode":"78727","locality":"Oberndorf am Neckar","municipality":{"key":"08325045","name":"Oberndorf am Neckar, Stadt","type":"Stadt"},"district":{"key":"08325","name":"Rottweil","type":"Landkreis"},"federalState":{"key":"08","name":"Baden-Württemberg"}},{"name":"Pfarrwaldstr.","postalCode":"78727","locality":"Oberndorf am Neckar","municipality":{"key":"08325045","name":"Oberndorf am Neckar, Stadt","type":"Stadt"},"district":{"key":"08325","name":"Rottweil","type":"Landkreis"},"federalState":{"key":"08","name":"Baden-Württemberg"}},{"name":"Pferlenstr.","postalCode":"78727","locality":"Oberndorf am Neckar","municipality":{"key":"08325045","name":"Oberndorf am Neckar, Stadt","type":"Stadt"},"district":{"key":"08325","name":"Rottweil","type":"Landkreis"},"federalState":{"key":"08","name":"Baden-Württemberg"}},{"name":"Präsenzgäßle","postalCode":"78727","locality":"Oberndorf am Neckar","municipality":{"key":"08325045","name":"Oberndorf am Neckar, Stadt","type":"Stadt"},"district":{"key":"08325","name":"Rottweil","type":"Landkreis"},"federalState":{"key":"08","name":"Baden-Württemberg"}},{"name":"Quellenstr.","postalCode":"78727","locality":"Oberndorf am Neckar","municipality":{"key":"08325045","name":"Oberndorf am Neckar, Stadt","type":"Stadt"},"district":{"key":"08325","name":"Rottweil","type":"Landkreis"},"federalState":{"key":"08","name":"Baden-Württemberg"}},{"name":"Rathausplatz","postalCode":"78727","locality":"Oberndorf am Neckar","municipality":{"key":"08325045","name":"Oberndorf am Neckar, Stadt","type":"Stadt"},"district":{"key":"08325","name":"Rottweil","type":"Landkreis"},"federalState":{"key":"08","name":"Baden-Württemberg"}},{"name":"Ried","postalCode":"78727","locality":"Oberndorf am Neckar","municipality":{"key":"08325045","name":"Oberndorf am Neckar, Stadt","type":"Stadt"},"district":{"key":"08325","name":"Rottweil","type":"Landkreis"},"federalState":{"key":"08","name":"Baden-Württemberg"}},{"name":"Riedgassenäcker","postalCode":"78727","locality":"Oberndorf am Neckar","municipality":{"key":"08325045","name":"Oberndorf am Neckar, Stadt","type":"Stadt"},"district":{"key":"08325","name":"Rottweil","type":"Landkreis"},"federalState":{"key":"08","name":"Baden-Württemberg"}},{"name":"Riedwiesen","postalCode":"78727","locality":"Oberndorf am Neckar","municipality":{"key":"08325045","name":"Oberndorf am Neckar, Stadt","type":"Stadt"},"district":{"key":"08325","name":"Rottweil","type":"Landkreis"},"federalState":{"key":"08","name":"Baden-Württemberg"}},{"name":"Rindergasse","postalCode":"78727","locality":"Oberndorf am Neckar","municipality":{"key":"08325045","name":"Oberndorf am Neckar, Stadt","type":"Stadt"},"district":{"key":"08325","name":"Rottweil","type":"Landkreis"},"federalState":{"key":"08","name":"Baden-Württemberg"}},{"name":"Ringstr.","postalCode":"78727","locality":"Oberndorf am Neckar","municipality":{"key":"08325045","name":"Oberndorf am Neckar, Stadt","type":"Stadt"},"district":{"key":"08325","name":"Rottweil","type":"Landkreis"},"federalState":{"key":"08","name":"Baden-Württemberg"}},{"name":"Robert-Gleichauf-Platz","postalCode":"78727","locality":"Oberndorf am Neckar","municipality":{"key":"08325045","name":"Oberndorf am Neckar, Stadt","type":"Stadt"},"district":{"key":"08325","name":"Rottweil","type":"Landkreis"},"federalState":{"key":"08","name":"Baden-Württemberg"}},{"name":"Römerweg","postalCode":"78727","locality":"Oberndorf am Neckar","municipality":{"key":"08325045","name":"Oberndorf am Neckar, Stadt","type":"Stadt"},"district":{"key":"08325","name":"Rottweil","type":"Landkreis"},"federalState":{"key":"08","name":"Baden-Württemberg"}},{"name":"Römlinsdorfer Str.","postalCode":"78727","locality":"Oberndorf am Neckar","municipality":{"key":"08325045","name":"Oberndorf am Neckar, Stadt","type":"Stadt"},"district":{"key":"08325","name":"Rottweil","type":"Landkreis"},"federalState":{"key":"08","name":"Baden-Württemberg"}},{"name":"Rosäckerstr.","postalCode":"78727","locality":"Oberndorf am Neckar","municipality":{"key":"08325045","name":"Oberndorf am Neckar, Stadt","type":"Stadt"},"district":{"key":"08325","name":"Rottweil","type":"Landkreis"},"federalState":{"key":"08","name":"Baden-Württemberg"}},{"name":"Rosenbergstr.","postalCode":"78727","locality":"Oberndorf am Neckar","municipality":{"key":"08325045","name":"Oberndorf am Neckar, Stadt","type":"Stadt"},"district":{"key":"08325","name":"Rottweil","type":"Landkreis"},"federalState":{"key":"08","name":"Baden-Württemberg"}},{"name":"Rosenfelder Str.","postalCode":"78727","locality":"Oberndorf am Neckar","municipality":{"key":"08325045","name":"Oberndorf am Neckar, Stadt","type":"Stadt"},"district":{"key":"08325","name":"Rottweil","type":"Landkreis"},"federalState":{"key":"08","name":"Baden-Württemberg"}},{"name":"Röthengasse","postalCode":"78727","locality":"Oberndorf am Neckar","municipality":{"key":"08325045","name":"Oberndorf am Neckar, Stadt","type":"Stadt"},"district":{"key":"08325","name":"Rottweil","type":"Landkreis"},"federalState":{"key":"08","name":"Baden-Württemberg"}},{"name":"Sägewerkstr.","postalCode":"78727","locality":"Oberndorf am Neckar","municipality":{"key":"08325045","name":"Oberndorf am Neckar, Stadt","type":"Stadt"},"district":{"key":"08325","name":"Rottweil","type":"Landkreis"},"federalState":{"key":"08","name":"Baden-Württemberg"}},{"name":"Schafhalde","postalCode":"78727","locality":"Oberndorf am Neckar","municipality":{"key":"08325045","name":"Oberndorf am Neckar, Stadt","type":"Stadt"},"district":{"key":"08325","name":"Rottweil","type":"Landkreis"},"federalState":{"key":"08","name":"Baden-Württemberg"}},{"name":"Schaf- und Ziegelhof","postalCode":"78727","locality":"Oberndorf am Neckar","municipality":{"key":"08325045","name":"Oberndorf am Neckar, Stadt","type":"Stadt"},"district":{"key":"08325","name":"Rottweil","type":"Landkreis"},"federalState":{"key":"08","name":"Baden-Württemberg"}},{"name":"Scheffelstr.","postalCode":"78727","locality":"Oberndorf am Neckar","municipality":{"key":"08325045","name":"Oberndorf am Neckar, Stadt","type":"Stadt"},"district":{"key":"08325","name":"Rottweil","type":"Landkreis"},"federalState":{"key":"08","name":"Baden-Württemberg"}},{"name":"Scheibenbühl","postalCode":"78727","locality":"Oberndorf am Neckar","municipality":{"key":"08325045","name":"Oberndorf am Neckar, Stadt","type":"Stadt"},"district":{"key":"08325","name":"Rottweil","type":"Landkreis"},"federalState":{"key":"08","name":"Baden-Württemberg"}},{"name":"Scheiblesgasse","postalCode":"78727","locality":"Oberndorf am Neckar","municipality":{"key":"08325045","name":"Oberndorf am Neckar, Stadt","type":"Stadt"},"district":{"key":"08325","name":"Rottweil","type":"Landkreis"},"federalState":{"key":"08","name":"Baden-Württemberg"}},{"name":"Scheuergasse","postalCode":"78727","locality":"Oberndorf am Neckar","municipality":{"key":"08325045","name":"Oberndorf am Neckar, Stadt","type":"Stadt"},"district":{"key":"08325","name":"Rottweil","type":"Landkreis"},"federalState":{"key":"08","name":"Baden-Württemberg"}},{"name":"Schießmauerstr.","postalCode":"78727","locality":"Oberndorf am Neckar","municipality":{"key":"08325045","name":"Oberndorf am Neckar, Stadt","type":"Stadt"},"district":{"key":"08325","name":"Rottweil","type":"Landkreis"},"federalState":{"key":"08","name":"Baden-Württemberg"}},{"name":"Schlattstr.","postalCode":"78727","locality":"Oberndorf am Neckar","municipality":{"key":"08325045","name":"Oberndorf am Neckar, Stadt","type":"Stadt"},"district":{"key":"08325","name":"Rottweil","type":"Landkreis"},"federalState":{"key":"08","name":"Baden-Württemberg"}},{"name":"Schlehenweg","postalCode":"78727","locality":"Oberndorf am Neckar","municipality":{"key":"08325045","name":"Oberndorf am Neckar, Stadt","type":"Stadt"},"district":{"key":"08325","name":"Rottweil","type":"Landkreis"},"federalState":{"key":"08","name":"Baden-Württemberg"}},{"name":"Schmiedgasse","postalCode":"78727","locality":"Oberndorf am Neckar","municipality":{"key":"08325045","name":"Oberndorf am Neckar, Stadt","type":"Stadt"},"district":{"key":"08325","name":"Rottweil","type":"Landkreis"},"federalState":{"key":"08","name":"Baden-Württemberg"}},{"name":"Schramberger Str.","postalCode":"78727","locality":"Oberndorf am Neckar","municipality":{"key":"08325045","name":"Oberndorf am Neckar, Stadt","type":"Stadt"},"district":{"key":"08325","name":"Rottweil","type":"Landkreis"},"federalState":{"key":"08","name":"Baden-Württemberg"}},{"name":"Schubertstr.","postalCode":"78727","locality":"Oberndorf am Neckar","municipality":{"key":"08325045","name":"Oberndorf am Neckar, Stadt","type":"Stadt"},"district":{"key":"08325","name":"Rottweil","type":"Landkreis"},"federalState":{"key":"08","name":"Baden-Württemberg"}},{"name":"Schuhmarktplatz","postalCode":"78727","locality":"Oberndorf am Neckar","municipality":{"key":"08325045","name":"Oberndorf am Neckar, Stadt","type":"Stadt"},"district":{"key":"08325","name":"Rottweil","type":"Landkreis"},"federalState":{"key":"08","name":"Baden-Württemberg"}},{"name":"Schulstr.","postalCode":"78727","locality":"Oberndorf am Neckar","municipality":{"key":"08325045","name":"Oberndorf am Neckar, Stadt","type":"Stadt"},"district":{"key":"08325","name":"Rottweil","type":"Landkreis"},"federalState":{"key":"08","name":"Baden-Württemberg"}},{"name":"Schützenhausweg","postalCode":"78727","locality":"Oberndorf am Neckar","municipality":{"key":"08325045","name":"Oberndorf am Neckar, Stadt","type":"Stadt"},"district":{"key":"08325","name":"Rottweil","type":"Landkreis"},"federalState":{"key":"08","name":"Baden-Württemberg"}},{"name":"Schützensteige","postalCode":"78727","locality":"Oberndorf am Neckar","municipality":{"key":"08325045","name":"Oberndorf am Neckar, Stadt","type":"Stadt"},"district":{"key":"08325","name":"Rottweil","type":"Landkreis"},"federalState":{"key":"08","name":"Baden-Württemberg"}},{"name":"Schwalbenweg","postalCode":"78727","locality":"Oberndorf am Neckar","municipality":{"key":"08325045","name":"Oberndorf am Neckar, Stadt","type":"Stadt"},"district":{"key":"08325","name":"Rottweil","type":"Landkreis"},"federalState":{"key":"08","name":"Baden-Württemberg"}},{"name":"Schweizermühlengasse","postalCode":"78727","locality":"Oberndorf am Neckar","municipality":{"key":"08325045","name":"Oberndorf am Neckar, Stadt","type":"Stadt"},"district":{"key":"08325","name":"Rottweil","type":"Landkreis"},"federalState":{"key":"08","name":"Baden-Württemberg"}},{"name":"Seedorfer Weg","postalCode":"78727","locality":"Oberndorf am Neckar","municipality":{"key":"08325045","name":"Oberndorf am Neckar, Stadt","type":"Stadt"},"district":{"key":"08325","name":"Rottweil","type":"Landkreis"},"federalState":{"key":"08","name":"Baden-Württemberg"}},{"name":"Seufzer Allee","postalCode":"78727","locality":"Oberndorf am Neckar","municipality":{"key":"08325045","name":"Oberndorf am Neckar, Stadt","type":"Stadt"},"district":{"key":"08325","name":"Rottweil","type":"Landkreis"},"federalState":{"key":"08","name":"Baden-Württemberg"}},{"name":"Sigmarswanger Str.","postalCode":"78727","locality":"Oberndorf am Neckar","municipality":{"key":"08325045","name":"Oberndorf am Neckar, Stadt","type":"Stadt"},"district":{"key":"08325","name":"Rottweil","type":"Landkreis"},"federalState":{"key":"08","name":"Baden-Württemberg"}},{"name":"Silcherstr.","postalCode":"78727","locality":"Oberndorf am Neckar","municipality":{"key":"08325045","name":"Oberndorf am Neckar, Stadt","type":"Stadt"},"district":{"key":"08325","name":"Rottweil","type":"Landkreis"},"federalState":{"key":"08","name":"Baden-Württemberg"}},{"name":"Sommerberg","postalCode":"78727","locality":"Oberndorf am Neckar","municipality":{"key":"08325045","name":"Oberndorf am Neckar, Stadt","type":"Stadt"},"district":{"key":"08325","name":"Rottweil","type":"Landkreis"},"federalState":{"key":"08","name":"Baden-Württemberg"}},{"name":"Sommerhalde","postalCode":"78727","locality":"Oberndorf am Neckar","municipality":{"key":"08325045","name":"Oberndorf am Neckar, Stadt","type":"Stadt"},"district":{"key":"08325","name":"Rottweil","type":"Landkreis"},"federalState":{"key":"08","name":"Baden-Württemberg"}},{"name":"Sommerhaldenweg","postalCode":"78727","locality":"Oberndorf am Neckar","municipality":{"key":"08325045","name":"Oberndorf am Neckar, Stadt","type":"Stadt"},"district":{"key":"08325","name":"Rottweil","type":"Landkreis"},"federalState":{"key":"08","name":"Baden-Württemberg"}},{"name":"Sonnenhalde","postalCode":"78727","locality":"Oberndorf am Neckar","municipality":{"key":"08325045","name":"Oberndorf am Neckar, Stadt","type":"Stadt"},"district":{"key":"08325","name":"Rottweil","type":"Landkreis"},"federalState":{"key":"08","name":"Baden-Württemberg"}},{"name":"Spaltbrunnengasse","postalCode":"78727","locality":"Oberndorf am Neckar","municipality":{"key":"08325045","name":"Oberndorf am Neckar, Stadt","type":"Stadt"},"district":{"key":"08325","name":"Rottweil","type":"Landkreis"},"federalState":{"key":"08","name":"Baden-Württemberg"}},{"name":"Spiegelhalterstr.","postalCode":"78727","locality":"Oberndorf am Neckar","municipality":{"key":"08325045","name":"Oberndorf am Neckar, Stadt","type":"Stadt"},"district":{"key":"08325","name":"Rottweil","type":"Landkreis"},"federalState":{"key":"08","name":"Baden-Württemberg"}},{"name":"Spitalstr.","postalCode":"78727","locality":"Oberndorf am Neckar","municipality":{"key":"08325045","name":"Oberndorf am Neckar, Stadt","type":"Stadt"},"district":{"key":"08325","name":"Rottweil","type":"Landkreis"},"federalState":{"key":"08","name":"Baden-Württemberg"}},{"name":"Stadtpark Oberndorf am Neckar","postalCode":"78727","locality":"Oberndorf am Neckar","municipality":{"key":"08325045","name":"Oberndorf am Neckar, Stadt","type":"Stadt"},"district":{"key":"08325","name":"Rottweil","type":"Landkreis"},"federalState":{"key":"08","name":"Baden-Württemberg"}},{"name":"Steigstr.","postalCode":"78727","locality":"Oberndorf am Neckar","municipality":{"key":"08325045","name":"Oberndorf am Neckar, Stadt","type":"Stadt"},"district":{"key":"08325","name":"Rottweil","type":"Landkreis"},"federalState":{"key":"08","name":"Baden-Württemberg"}},{"name":"Steigweg","postalCode":"78727","locality":"Oberndorf am Neckar","municipality":{"key":"08325045","name":"Oberndorf am Neckar, Stadt","type":"Stadt"},"district":{"key":"08325","name":"Rottweil","type":"Landkreis"},"federalState":{"key":"08","name":"Baden-Württemberg"}},{"name":"Steinbeisstr.","postalCode":"78727","locality":"Oberndorf am Neckar","municipality":{"key":"08325045","name":"Oberndorf am Neckar, Stadt","type":"Stadt"},"district":{"key":"08325","name":"Rottweil","type":"Landkreis"},"federalState":{"key":"08","name":"Baden-Württemberg"}},{"name":"Steinbruchstr.","postalCode":"78727","locality":"Oberndorf am Neckar","municipality":{"key":"08325045","name":"Oberndorf am Neckar, Stadt","type":"Stadt"},"district":{"key":"08325","name":"Rottweil","type":"Landkreis"},"federalState":{"key":"08","name":"Baden-Württemberg"}},{"name":"Stellenrain","postalCode":"78727","locality":"Oberndorf am Neckar","municipality":{"key":"08325045","name":"Oberndorf am Neckar, Stadt","type":"Stadt"},"district":{"key":"08325","name":"Rottweil","type":"Landkreis"},"federalState":{"key":"08","name":"Baden-Württemberg"}},{"name":"Stellenrainweg","postalCode":"78727","locality":"Oberndorf am Neckar","municipality":{"key":"08325045","name":"Oberndorf am Neckar, Stadt","type":"Stadt"},"district":{"key":"08325","name":"Rottweil","type":"Landkreis"},"federalState":{"key":"08","name":"Baden-Württemberg"}},{"name":"Stellenwiesen","postalCode":"78727","locality":"Oberndorf am Neckar","municipality":{"key":"08325045","name":"Oberndorf am Neckar, Stadt","type":"Stadt"},"district":{"key":"08325","name":"Rottweil","type":"Landkreis"},"federalState":{"key":"08","name":"Baden-Württemberg"}},{"name":"Stellenwiesenweg","postalCode":"78727","locality":"Oberndorf am Neckar","municipality":{"key":"08325045","name":"Oberndorf am Neckar, Stadt","type":"Stadt"},"district":{"key":"08325","name":"Rottweil","type":"Landkreis"},"federalState":{"key":"08","name":"Baden-Württemberg"}},{"name":"Stiegeläckerstr.","postalCode":"78727","locality":"Oberndorf am Neckar","municipality":{"key":"08325045","name":"Oberndorf am Neckar, Stadt","type":"Stadt"},"district":{"key":"08325","name":"Rottweil","type":"Landkreis"},"federalState":{"key":"08","name":"Baden-Württemberg"}},{"name":"Stockäckerstr.","postalCode":"78727","locality":"Oberndorf am Neckar","municipality":{"key":"08325045","name":"Oberndorf am Neckar, Stadt","type":"Stadt"},"district":{"key":"08325","name":"Rottweil","type":"Landkreis"},"federalState":{"key":"08","name":"Baden-Württemberg"}},{"name":"Stollengrundweg","postalCode":"78727","locality":"Oberndorf am Neckar","municipality":{"key":"08325045","name":"Oberndorf am Neckar, Stadt","type":"Stadt"},"district":{"key":"08325","name":"Rottweil","type":"Landkreis"},"federalState":{"key":"08","name":"Baden-Württemberg"}},{"name":"Stuttgarter Str.","postalCode":"78727","locality":"Oberndorf am Neckar","municipality":{"key":"08325045","name":"Oberndorf am Neckar, Stadt","type":"Stadt"},"district":{"key":"08325","name":"Rottweil","type":"Landkreis"},"federalState":{"key":"08","name":"Baden-Württemberg"}},{"name":"Sulzbachstr.","postalCode":"78727","locality":"Oberndorf am Neckar","municipality":{"key":"08325045","name":"Oberndorf am Neckar, Stadt","type":"Stadt"},"district":{"key":"08325","name":"Rottweil","type":"Landkreis"},"federalState":{"key":"08","name":"Baden-Württemberg"}},{"name":"Sulzer Str.","postalCode":"78727","locality":"Oberndorf am Neckar","municipality":{"key":"08325045","name":"Oberndorf am Neckar, Stadt","type":"Stadt"},"district":{"key":"08325","name":"Rottweil","type":"Landkreis"},"federalState":{"key":"08","name":"Baden-Württemberg"}},{"name":"Suppengasse","postalCode":"78727","locality":"Oberndorf am Neckar","municipality":{"key":"08325045","name":"Oberndorf am Neckar, Stadt","type":"Stadt"},"district":{"key":"08325","name":"Rottweil","type":"Landkreis"},"federalState":{"key":"08","name":"Baden-Württemberg"}},{"name":"Taläckerstr.","postalCode":"78727","locality":"Oberndorf am Neckar","municipality":{"key":"08325045","name":"Oberndorf am Neckar, Stadt","type":"Stadt"},"district":{"key":"08325","name":"Rottweil","type":"Landkreis"},"federalState":{"key":"08","name":"Baden-Württemberg"}},{"name":"Talplatz","postalCode":"78727","locality":"Oberndorf am Neckar","municipality":{"key":"08325045","name":"Oberndorf am Neckar, Stadt","type":"Stadt"},"district":{"key":"08325","name":"Rottweil","type":"Landkreis"},"federalState":{"key":"08","name":"Baden-Württemberg"}},{"name":"Talstr.","postalCode":"78727","locality":"Oberndorf am Neckar","municipality":{"key":"08325045","name":"Oberndorf am Neckar, Stadt","type":"Stadt"},"district":{"key":"08325","name":"Rottweil","type":"Landkreis"},"federalState":{"key":"08","name":"Baden-Württemberg"}},{"name":"Teckstr.","postalCode":"78727","locality":"Oberndorf am Neckar","municipality":{"key":"08325045","name":"Oberndorf am Neckar, Stadt","type":"Stadt"},"district":{"key":"08325","name":"Rottweil","type":"Landkreis"},"federalState":{"key":"08","name":"Baden-Württemberg"}},{"name":"Teichlandschaft Oberndorf","postalCode":"78727","locality":"Oberndorf am Neckar","municipality":{"key":"08325045","name":"Oberndorf am Neckar, Stadt","type":"Stadt"},"district":{"key":"08325","name":"Rottweil","type":"Landkreis"},"federalState":{"key":"08","name":"Baden-Württemberg"}},{"name":"Theodor-Quehl-Str.","postalCode":"78727","locality":"Oberndorf am Neckar","municipality":{"key":"08325045","name":"Oberndorf am Neckar, Stadt","type":"Stadt"},"district":{"key":"08325","name":"Rottweil","type":"Landkreis"},"federalState":{"key":"08","name":"Baden-Württemberg"}},{"name":"Thierviller Str.","postalCode":"78727","locality":"Oberndorf am Neckar","municipality":{"key":"08325045","name":"Oberndorf am Neckar, Stadt","type":"Stadt"},"district":{"key":"08325","name":"Rottweil","type":"Landkreis"},"federalState":{"key":"08","name":"Baden-Württemberg"}},{"name":"Thomasbühl","postalCode":"78727","locality":"Oberndorf am Neckar","municipality":{"key":"08325045","name":"Oberndorf am Neckar, Stadt","type":"Stadt"},"district":{"key":"08325","name":"Rottweil","type":"Landkreis"},"federalState":{"key":"08","name":"Baden-Württemberg"}},{"name":"Tuchbergstr.","postalCode":"78727","locality":"Oberndorf am Neckar","municipality":{"key":"08325045","name":"Oberndorf am Neckar, Stadt","type":"Stadt"},"district":{"key":"08325","name":"Rottweil","type":"Landkreis"},"federalState":{"key":"08","name":"Baden-Württemberg"}},{"name":"Tuchrahmstr.","postalCode":"78727","locality":"Oberndorf am Neckar","municipality":{"key":"08325045","name":"Oberndorf am Neckar, Stadt","type":"Stadt"},"district":{"key":"08325","name":"Rottweil","type":"Landkreis"},"federalState":{"key":"08","name":"Baden-Württemberg"}},{"name":"Uferstr.","postalCode":"78727","locality":"Oberndorf am Neckar","municipality":{"key":"08325045","name":"Oberndorf am Neckar, Stadt","type":"Stadt"},"district":{"key":"08325","name":"Rottweil","type":"Landkreis"},"federalState":{"key":"08","name":"Baden-Württemberg"}},{"name":"Uhlandstr.","postalCode":"78727","locality":"Oberndorf am Neckar","municipality":{"key":"08325045","name":"Oberndorf am Neckar, Stadt","type":"Stadt"},"district":{"key":"08325","name":"Rottweil","type":"Landkreis"},"federalState":{"key":"08","name":"Baden-Württemberg"}},{"name":"Unter der Kirche","postalCode":"78727","locality":"Oberndorf am Neckar","municipality":{"key":"08325045","name":"Oberndorf am Neckar, Stadt","type":"Stadt"},"district":{"key":"08325","name":"Rottweil","type":"Landkreis"},"federalState":{"key":"08","name":"Baden-Württemberg"}},{"name":"Untere Boller Halde","postalCode":"78727","locality":"Oberndorf am Neckar","municipality":{"key":"08325045","name":"Oberndorf am Neckar, Stadt","type":"Stadt"},"district":{"key":"08325","name":"Rottweil","type":"Landkreis"},"federalState":{"key":"08","name":"Baden-Württemberg"}},{"name":"Unterer Baubergweg","postalCode":"78727","locality":"Oberndorf am Neckar","municipality":{"key":"08325045","name":"Oberndorf am Neckar, Stadt","type":"Stadt"},"district":{"key":"08325","name":"Rottweil","type":"Landkreis"},"federalState":{"key":"08","name":"Baden-Württemberg"}},{"name":"Unterer Ziegelweg","postalCode":"78727","locality":"Oberndorf am Neckar","municipality":{"key":"08325045","name":"Oberndorf am Neckar, Stadt","type":"Stadt"},"district":{"key":"08325","name":"Rottweil","type":"Landkreis"},"federalState":{"key":"08","name":"Baden-Württemberg"}},{"name":"Untere Str.","postalCode":"78727","locality":"Oberndorf am Neckar","municipality":{"key":"08325045","name":"Oberndorf am Neckar, Stadt","type":"Stadt"},"district":{"key":"08325","name":"Rottweil","type":"Landkreis"},"federalState":{"key":"08","name":"Baden-Württemberg"}},{"name":"Vöhringer Str.","postalCode":"78727","locality":"Oberndorf am Neckar","municipality":{"key":"08325045","name":"Oberndorf am Neckar, Stadt","type":"Stadt"},"district":{"key":"08325","name":"Rottweil","type":"Landkreis"},"federalState":{"key":"08","name":"Baden-Württemberg"}},{"name":"Von-Gunzert-Str.","postalCode":"78727","locality":"Oberndorf am Neckar","municipality":{"key":"08325045","name":"Oberndorf am Neckar, Stadt","type":"Stadt"},"district":{"key":"08325","name":"Rottweil","type":"Landkreis"},"federalState":{"key":"08","name":"Baden-Württemberg"}},{"name":"Wagenweg","postalCode":"78727","locality":"Oberndorf am Neckar","municipality":{"key":"08325045","name":"Oberndorf am Neckar, Stadt","type":"Stadt"},"district":{"key":"08325","name":"Rottweil","type":"Landkreis"},"federalState":{"key":"08","name":"Baden-Württemberg"}},{"name":"Wasenäcker","postalCode":"78727","locality":"Oberndorf am Neckar","municipality":{"key":"08325045","name":"Oberndorf am Neckar, Stadt","type":"Stadt"},"district":{"key":"08325","name":"Rottweil","type":"Landkreis"},"federalState":{"key":"08","name":"Baden-Württemberg"}},{"name":"Waseneckstr.","postalCode":"78727","locality":"Oberndorf am Neckar","municipality":{"key":"08325045","name":"Oberndorf am Neckar, Stadt","type":"Stadt"},"district":{"key":"08325","name":"Rottweil","type":"Landkreis"},"federalState":{"key":"08","name":"Baden-Württemberg"}},{"name":"Waseneckweg","postalCode":"78727","locality":"Oberndorf am Neckar","municipality":{"key":"08325045","name":"Oberndorf am Neckar, Stadt","type":"Stadt"},"district":{"key":"08325","name":"Rottweil","type":"Landkreis"},"federalState":{"key":"08","name":"Baden-Württemberg"}},{"name":"Wasserfallstr.","postalCode":"78727","locality":"Oberndorf am Neckar","municipality":{"key":"08325045","name":"Oberndorf am Neckar, Stadt","type":"Stadt"},"district":{"key":"08325","name":"Rottweil","type":"Landkreis"},"federalState":{"key":"08","name":"Baden-Württemberg"}},{"name":"Webertalstr.","postalCode":"78727","locality":"Oberndorf am Neckar","municipality":{"key":"08325045","name":"Oberndorf am Neckar, Stadt","type":"Stadt"},"district":{"key":"08325","name":"Rottweil","type":"Landkreis"},"federalState":{"key":"08","name":"Baden-Württemberg"}},{"name":"Wehrstr.","postalCode":"78727","locality":"Oberndorf am Neckar","municipality":{"key":"08325045","name":"Oberndorf am Neckar, Stadt","type":"Stadt"},"district":{"key":"08325","name":"Rottweil","type":"Landkreis"},"federalState":{"key":"08","name":"Baden-Württemberg"}},{"name":"Weidener Str.","postalCode":"78727","locality":"Oberndorf am Neckar","municipality":{"key":"08325045","name":"Oberndorf am Neckar, Stadt","type":"Stadt"},"district":{"key":"08325","name":"Rottweil","type":"Landkreis"},"federalState":{"key":"08","name":"Baden-Württemberg"}},{"name":"Weiherbühl","postalCode":"78727","locality":"Oberndorf am Neckar","municipality":{"key":"08325045","name":"Oberndorf am Neckar, Stadt","type":"Stadt"},"district":{"key":"08325","name":"Rottweil","type":"Landkreis"},"federalState":{"key":"08","name":"Baden-Württemberg"}},{"name":"Wengelen","postalCode":"78727","locality":"Oberndorf am Neckar","municipality":{"key":"08325045","name":"Oberndorf am Neckar, Stadt","type":"Stadt"},"district":{"key":"08325","name":"Rottweil","type":"Landkreis"},"federalState":{"key":"08","name":"Baden-Württemberg"}},{"name":"Werkstr.","postalCode":"78727","locality":"Oberndorf am Neckar","municipality":{"key":"08325045","name":"Oberndorf am Neckar, Stadt","type":"Stadt"},"district":{"key":"08325","name":"Rottweil","type":"Landkreis"},"federalState":{"key":"08","name":"Baden-Württemberg"}},{"name":"Wertwiesen","postalCode":"78727","locality":"Oberndorf am Neckar","municipality":{"key":"08325045","name":"Oberndorf am Neckar, Stadt","type":"Stadt"},"district":{"key":"08325","name":"Rottweil","type":"Landkreis"},"federalState":{"key":"08","name":"Baden-Württemberg"}},{"name":"Wettestr.","postalCode":"78727","locality":"Oberndorf am Neckar","municipality":{"key":"08325045","name":"Oberndorf am Neckar, Stadt","type":"Stadt"},"district":{"key":"08325","name":"Rottweil","type":"Landkreis"},"federalState":{"key":"08","name":"Baden-Württemberg"}},{"name":"Wiesenstr.","postalCode":"78727","locality":"Oberndorf am Neckar","municipality":{"key":"08325045","name":"Oberndorf am Neckar, Stadt","type":"Stadt"},"district":{"key":"08325","name":"Rottweil","type":"Landkreis"},"federalState":{"key":"08","name":"Baden-Württemberg"}},{"name":"Wiesentalstr.","postalCode":"78727","locality":"Oberndorf am Neckar","municipality":{"key":"08325045","name":"Oberndorf am Neckar, Stadt","type":"Stadt"},"district":{"key":"08325","name":"Rottweil","type":"Landkreis"},"federalState":{"key":"08","name":"Baden-Württemberg"}},{"name":"Wieset","postalCode":"78727","locality":"Oberndorf am Neckar","municipality":{"key":"08325045","name":"Oberndorf am Neckar, Stadt","type":"Stadt"},"district":{"key":"08325","name":"Rottweil","type":"Landkreis"},"federalState":{"key":"08","name":"Baden-Württemberg"}},{"name":"Wilhelm-Wolf-Weg","postalCode":"78727","locality":"Oberndorf am Neckar","municipality":{"key":"08325045","name":"Oberndorf am Neckar, Stadt","type":"Stadt"},"district":{"key":"08325","name":"Rottweil","type":"Landkreis"},"federalState":{"key":"08","name":"Baden-Württemberg"}},{"name":"Winkelgasse","postalCode":"78727","locality":"Oberndorf am Neckar","municipality":{"key":"08325045","name":"Oberndorf am Neckar, Stadt","type":"Stadt"},"district":{"key":"08325","name":"Rottweil","type":"Landkreis"},"federalState":{"key":"08","name":"Baden-Württemberg"}},{"name":"Winterhalde","postalCode":"78727","locality":"Oberndorf am Neckar","municipality":{"key":"08325045","name":"Oberndorf am Neckar, Stadt","type":"Stadt"},"district":{"key":"08325","name":"Rottweil","type":"Landkreis"},"federalState":{"key":"08","name":"Baden-Württemberg"}},{"name":"Winzler Bühl","postalCode":"78727","locality":"Oberndorf am Neckar","municipality":{"key":"08325045","name":"Oberndorf am Neckar, Stadt","type":"Stadt"},"district":{"key":"08325","name":"Rottweil","type":"Landkreis"},"federalState":{"key":"08","name":"Baden-Württemberg"}},{"name":"Wöhrtwiesengasse","postalCode":"78727","locality":"Oberndorf am Neckar","municipality":{"key":"08325045","name":"Oberndorf am Neckar, Stadt","type":"Stadt"},"district":{"key":"08325","name":"Rottweil","type":"Landkreis"},"federalState":{"key":"08","name":"Baden-Württemberg"}},{"name":"Zähringerstr.","postalCode":"78727","locality":"Oberndorf am Neckar","municipality":{"key":"08325045","name":"Oberndorf am Neckar, Stadt","type":"Stadt"},"district":{"key":"08325","name":"Rottweil","type":"Landkreis"},"federalState":{"key":"08","name":"Baden-Württemberg"}},{"name":"Zollernweg","postalCode":"78727","locality":"Oberndorf am Neckar","municipality":{"key":"08325045","name":"Oberndorf am Neckar, Stadt","type":"Stadt"},"district":{"key":"08325","name":"Rottweil","type":"Landkreis"},"federalState":{"key":"08","name":"Baden-Württemberg"}},{"name":"Zum Mühlweg","postalCode":"78727","locality":"Oberndorf am Neckar","municipality":{"key":"08325045","name":"Oberndorf am Neckar, Stadt","type":"Stadt"},"district":{"key":"08325","name":"Rottweil","type":"Landkreis"},"federalState":{"key":"08","name":"Baden-Württemberg"}},{"name":"Äußere Alleenstr.","postalCode":"78628","locality":"Rottweil","municipality":{"key":"08325049","name":"Rottweil, Stadt","type":"Große_Kreisstadt"},"district":{"key":"08325","name":"Rottweil","type":"Landkreis"},"federalState":{"key":"08","name":"Baden-Württemberg"}},{"name":"Öschlestr.","postalCode":"78628","locality":"Rottweil","municipality":{"key":"08325049","name":"Rottweil, Stadt","type":"Große_Kreisstadt"},"district":{"key":"08325","name":"Rottweil","type":"Landkreis"},"federalState":{"key":"08","name":"Baden-Württemberg"}},{"name":"Überlinger Str.","postalCode":"78628","locality":"Rottweil","municipality":{"key":"08325049","name":"Rottweil, Stadt","type":"Große_Kreisstadt"},"district":{"key":"08325","name":"Rottweil","type":"Landkreis"},"federalState":{"key":"08","name":"Baden-Württemberg"}},]