[{"name":"Albrechtshof","postalCode":"23996","locality":"Hohen Viecheln","municipality":{"key":"13074031","name":"Hohen Viecheln","type":"Kreisangehörige_Gemeinde"},"district":{"key":"13074","name":"Nordwestmecklenburg","type":"Landkreis"},"federalState":{"key":"13","name":"Mecklenburg-Vorpommern"}},{"name":"Am Brink","postalCode":"23996","locality":"Hohen Viecheln","municipality":{"key":"13074031","name":"Hohen Viecheln","type":"Kreisangehörige_Gemeinde"},"district":{"key":"13074","name":"Nordwestmecklenburg","type":"Landkreis"},"federalState":{"key":"13","name":"Mecklenburg-Vorpommern"}},{"name":"Döpeweg","postalCode":"23996","locality":"Hohen Viecheln","municipality":{"key":"13074031","name":"Hohen Viecheln","type":"Kreisangehörige_Gemeinde"},"district":{"key":"13074","name":"Nordwestmecklenburg","type":"Landkreis"},"federalState":{"key":"13","name":"Mecklenburg-Vorpommern"}},{"name":"Dorfstr.","postalCode":"23996","locality":"Hohen Viecheln","municipality":{"key":"13074031","name":"Hohen Viecheln","type":"Kreisangehörige_Gemeinde"},"district":{"key":"13074","name":"Nordwestmecklenburg","type":"Landkreis"},"federalState":{"key":"13","name":"Mecklenburg-Vorpommern"}},{"name":"Dorfstr. Moltow","postalCode":"23996","locality":"Hohen Viecheln","municipality":{"key":"13074031","name":"Hohen Viecheln","type":"Kreisangehörige_Gemeinde"},"district":{"key":"13074","name":"Nordwestmecklenburg","type":"Landkreis"},"federalState":{"key":"13","name":"Mecklenburg-Vorpommern"}},{"name":"Fischerweg","postalCode":"23996","locality":"Hohen Viecheln","municipality":{"key":"13074031","name":"Hohen Viecheln","type":"Kreisangehörige_Gemeinde"},"district":{"key":"13074","name":"Nordwestmecklenburg","type":"Landkreis"},"federalState":{"key":"13","name":"Mecklenburg-Vorpommern"}},{"name":"Fritz-Reuter-Str.","postalCode":"23996","locality":"Hohen Viecheln","municipality":{"key":"13074031","name":"Hohen Viecheln","type":"Kreisangehörige_Gemeinde"},"district":{"key":"13074","name":"Nordwestmecklenburg","type":"Landkreis"},"federalState":{"key":"13","name":"Mecklenburg-Vorpommern"}},{"name":"Gartenweg","postalCode":"23996","locality":"Hohen Viecheln","municipality":{"key":"13074031","name":"Hohen Viecheln","type":"Kreisangehörige_Gemeinde"},"district":{"key":"13074","name":"Nordwestmecklenburg","type":"Landkreis"},"federalState":{"key":"13","name":"Mecklenburg-Vorpommern"}},{"name":"Grubes Flach","postalCode":"23996","locality":"Hohen Viecheln","municipality":{"key":"13074031","name":"Hohen Viecheln","type":"Kreisangehörige_Gemeinde"},"district":{"key":"13074","name":"Nordwestmecklenburg","type":"Landkreis"},"federalState":{"key":"13","name":"Mecklenburg-Vorpommern"}},{"name":"Grüner Winkel","postalCode":"23996","locality":"Hohen Viecheln","municipality":{"key":"13074031","name":"Hohen Viecheln","type":"Kreisangehörige_Gemeinde"},"district":{"key":"13074","name":"Nordwestmecklenburg","type":"Landkreis"},"federalState":{"key":"13","name":"Mecklenburg-Vorpommern"}},{"name":"Hädchenshof","postalCode":"23996","locality":"Hohen Viecheln","municipality":{"key":"13074031","name":"Hohen Viecheln","type":"Kreisangehörige_Gemeinde"},"district":{"key":"13074","name":"Nordwestmecklenburg","type":"Landkreis"},"federalState":{"key":"13","name":"Mecklenburg-Vorpommern"}},{"name":"Kastanienallee","postalCode":"23996","locality":"Hohen Viecheln","municipality":{"key":"13074031","name":"Hohen Viecheln","type":"Kreisangehörige_Gemeinde"},"district":{"key":"13074","name":"Nordwestmecklenburg","type":"Landkreis"},"federalState":{"key":"13","name":"Mecklenburg-Vorpommern"}},{"name":"Koppelweg","postalCode":"23996","locality":"Hohen Viecheln","municipality":{"key":"13074031","name":"Hohen Viecheln","type":"Kreisangehörige_Gemeinde"},"district":{"key":"13074","name":"Nordwestmecklenburg","type":"Landkreis"},"federalState":{"key":"13","name":"Mecklenburg-Vorpommern"}},{"name":"Lindenweg","postalCode":"23996","locality":"Hohen Viecheln","municipality":{"key":"13074031","name":"Hohen Viecheln","type":"Kreisangehörige_Gemeinde"},"district":{"key":"13074","name":"Nordwestmecklenburg","type":"Landkreis"},"federalState":{"key":"13","name":"Mecklenburg-Vorpommern"}},{"name":"Mecklenburger Str.","postalCode":"23996","locality":"Hohen Viecheln","municipality":{"key":"13074031","name":"Hohen Viecheln","type":"Kreisangehörige_Gemeinde"},"district":{"key":"13074","name":"Nordwestmecklenburg","type":"Landkreis"},"federalState":{"key":"13","name":"Mecklenburg-Vorpommern"}},{"name":"Mecklenburger Str. Moltow","postalCode":"23996","locality":"Hohen Viecheln","municipality":{"key":"13074031","name":"Hohen Viecheln","type":"Kreisangehörige_Gemeinde"},"district":{"key":"13074","name":"Nordwestmecklenburg","type":"Landkreis"},"federalState":{"key":"13","name":"Mecklenburg-Vorpommern"}},{"name":"Moidentiner Weg","postalCode":"23996","locality":"Hohen Viecheln","municipality":{"key":"13074031","name":"Hohen Viecheln","type":"Kreisangehörige_Gemeinde"},"district":{"key":"13074","name":"Nordwestmecklenburg","type":"Landkreis"},"federalState":{"key":"13","name":"Mecklenburg-Vorpommern"}},{"name":"Pappelweg","postalCode":"23996","locality":"Hohen Viecheln","municipality":{"key":"13074031","name":"Hohen Viecheln","type":"Kreisangehörige_Gemeinde"},"district":{"key":"13074","name":"Nordwestmecklenburg","type":"Landkreis"},"federalState":{"key":"13","name":"Mecklenburg-Vorpommern"}},{"name":"Pfarrweg","postalCode":"23996","locality":"Hohen Viecheln","municipality":{"key":"13074031","name":"Hohen Viecheln","type":"Kreisangehörige_Gemeinde"},"district":{"key":"13074","name":"Nordwestmecklenburg","type":"Landkreis"},"federalState":{"key":"13","name":"Mecklenburg-Vorpommern"}},{"name":"Rosenweg","postalCode":"23996","locality":"Hohen Viecheln","municipality":{"key":"13074031","name":"Hohen Viecheln","type":"Kreisangehörige_Gemeinde"},"district":{"key":"13074","name":"Nordwestmecklenburg","type":"Landkreis"},"federalState":{"key":"13","name":"Mecklenburg-Vorpommern"}},{"name":"Seeadlerweg","postalCode":"23996","locality":"Hohen Viecheln","municipality":{"key":"13074031","name":"Hohen Viecheln","type":"Kreisangehörige_Gemeinde"},"district":{"key":"13074","name":"Nordwestmecklenburg","type":"Landkreis"},"federalState":{"key":"13","name":"Mecklenburg-Vorpommern"}},{"name":"Seeweg","postalCode":"23996","locality":"Hohen Viecheln","municipality":{"key":"13074031","name":"Hohen Viecheln","type":"Kreisangehörige_Gemeinde"},"district":{"key":"13074","name":"Nordwestmecklenburg","type":"Landkreis"},"federalState":{"key":"13","name":"Mecklenburg-Vorpommern"}},{"name":"Uferweg","postalCode":"23996","locality":"Hohen Viecheln","municipality":{"key":"13074031","name":"Hohen Viecheln","type":"Kreisangehörige_Gemeinde"},"district":{"key":"13074","name":"Nordwestmecklenburg","type":"Landkreis"},"federalState":{"key":"13","name":"Mecklenburg-Vorpommern"}},{"name":"Ventschower Chaussee","postalCode":"23996","locality":"Hohen Viecheln","municipality":{"key":"13074031","name":"Hohen Viecheln","type":"Kreisangehörige_Gemeinde"},"district":{"key":"13074","name":"Nordwestmecklenburg","type":"Landkreis"},"federalState":{"key":"13","name":"Mecklenburg-Vorpommern"}},{"name":"Waldweg","postalCode":"23996","locality":"Hohen Viecheln","municipality":{"key":"13074031","name":"Hohen Viecheln","type":"Kreisangehörige_Gemeinde"},"district":{"key":"13074","name":"Nordwestmecklenburg","type":"Landkreis"},"federalState":{"key":"13","name":"Mecklenburg-Vorpommern"}},]