[{"name":"Adalbert-Stifter-Str.","postalCode":"79585","locality":"Steinen","municipality":{"key":"08336084","name":"Steinen","type":"Kreisangehörige_Gemeinde"},"district":{"key":"08336","name":"Lörrach","type":"Landkreis"},"federalState":{"key":"08","name":"Baden-Württemberg"}},{"name":"Adelhauser Str.","postalCode":"79585","locality":"Steinen","municipality":{"key":"08336084","name":"Steinen","type":"Kreisangehörige_Gemeinde"},"district":{"key":"08336","name":"Lörrach","type":"Landkreis"},"federalState":{"key":"08","name":"Baden-Württemberg"}},{"name":"Albert-Schweitzer-Str.","postalCode":"79585","locality":"Steinen","municipality":{"key":"08336084","name":"Steinen","type":"Kreisangehörige_Gemeinde"},"district":{"key":"08336","name":"Lörrach","type":"Landkreis"},"federalState":{"key":"08","name":"Baden-Württemberg"}},{"name":"Alemannenring","postalCode":"79585","locality":"Steinen","municipality":{"key":"08336084","name":"Steinen","type":"Kreisangehörige_Gemeinde"},"district":{"key":"08336","name":"Lörrach","type":"Landkreis"},"federalState":{"key":"08","name":"Baden-Württemberg"}},{"name":"Alpenblick","postalCode":"79585","locality":"Steinen","municipality":{"key":"08336084","name":"Steinen","type":"Kreisangehörige_Gemeinde"},"district":{"key":"08336","name":"Lörrach","type":"Landkreis"},"federalState":{"key":"08","name":"Baden-Württemberg"}},{"name":"Alterschlagweg","postalCode":"79585","locality":"Steinen","municipality":{"key":"08336084","name":"Steinen","type":"Kreisangehörige_Gemeinde"},"district":{"key":"08336","name":"Lörrach","type":"Landkreis"},"federalState":{"key":"08","name":"Baden-Württemberg"}},{"name":"Alte Weberei","postalCode":"79585","locality":"Steinen","municipality":{"key":"08336084","name":"Steinen","type":"Kreisangehörige_Gemeinde"},"district":{"key":"08336","name":"Lörrach","type":"Landkreis"},"federalState":{"key":"08","name":"Baden-Württemberg"}},{"name":"Ameisenweg","postalCode":"79585","locality":"Steinen","municipality":{"key":"08336084","name":"Steinen","type":"Kreisangehörige_Gemeinde"},"district":{"key":"08336","name":"Lörrach","type":"Landkreis"},"federalState":{"key":"08","name":"Baden-Württemberg"}},{"name":"Am Friedhof","postalCode":"71144","locality":"Steinenbronn","municipality":{"key":"08115046","name":"Steinenbronn","type":"Kreisangehörige_Gemeinde"},"district":{"key":"08115","name":"Böblingen","type":"Landkreis"},"federalState":{"key":"08","name":"Baden-Württemberg"}},{"name":"Am Neugraben","postalCode":"79585","locality":"Steinen","municipality":{"key":"08336084","name":"Steinen","type":"Kreisangehörige_Gemeinde"},"district":{"key":"08336","name":"Lörrach","type":"Landkreis"},"federalState":{"key":"08","name":"Baden-Württemberg"}},{"name":"Am Roßberg","postalCode":"79585","locality":"Steinen","municipality":{"key":"08336084","name":"Steinen","type":"Kreisangehörige_Gemeinde"},"district":{"key":"08336","name":"Lörrach","type":"Landkreis"},"federalState":{"key":"08","name":"Baden-Württemberg"}},{"name":"Am Schneiderhof","postalCode":"79585","locality":"Steinen","municipality":{"key":"08336084","name":"Steinen","type":"Kreisangehörige_Gemeinde"},"district":{"key":"08336","name":"Lörrach","type":"Landkreis"},"federalState":{"key":"08","name":"Baden-Württemberg"}},{"name":"Amselweg","postalCode":"71144","locality":"Steinenbronn","municipality":{"key":"08115046","name":"Steinenbronn","type":"Kreisangehörige_Gemeinde"},"district":{"key":"08115","name":"Böblingen","type":"Landkreis"},"federalState":{"key":"08","name":"Baden-Württemberg"}},{"name":"Am Steinenbach","postalCode":"79585","locality":"Steinen","municipality":{"key":"08336084","name":"Steinen","type":"Kreisangehörige_Gemeinde"},"district":{"key":"08336","name":"Lörrach","type":"Landkreis"},"federalState":{"key":"08","name":"Baden-Württemberg"}},{"name":"Am Steinenberg","postalCode":"71144","locality":"Steinenbronn","municipality":{"key":"08115046","name":"Steinenbronn","type":"Kreisangehörige_Gemeinde"},"district":{"key":"08115","name":"Böblingen","type":"Landkreis"},"federalState":{"key":"08","name":"Baden-Württemberg"}},{"name":"Am Weiher","postalCode":"79585","locality":"Steinen","municipality":{"key":"08336084","name":"Steinen","type":"Kreisangehörige_Gemeinde"},"district":{"key":"08336","name":"Lörrach","type":"Landkreis"},"federalState":{"key":"08","name":"Baden-Württemberg"}},{"name":"Am Weiheracker","postalCode":"79585","locality":"Steinen","municipality":{"key":"08336084","name":"Steinen","type":"Kreisangehörige_Gemeinde"},"district":{"key":"08336","name":"Lörrach","type":"Landkreis"},"federalState":{"key":"08","name":"Baden-Württemberg"}},{"name":"Auf dem Berg","postalCode":"79585","locality":"Steinen","municipality":{"key":"08336084","name":"Steinen","type":"Kreisangehörige_Gemeinde"},"district":{"key":"08336","name":"Lörrach","type":"Landkreis"},"federalState":{"key":"08","name":"Baden-Württemberg"}},{"name":"Auf der Höhe","postalCode":"71144","locality":"Steinenbronn","municipality":{"key":"08115046","name":"Steinenbronn","type":"Kreisangehörige_Gemeinde"},"district":{"key":"08115","name":"Böblingen","type":"Landkreis"},"federalState":{"key":"08","name":"Baden-Württemberg"}},{"name":"Auf der Stelle","postalCode":"79585","locality":"Steinen","municipality":{"key":"08336084","name":"Steinen","type":"Kreisangehörige_Gemeinde"},"district":{"key":"08336","name":"Lörrach","type":"Landkreis"},"federalState":{"key":"08","name":"Baden-Württemberg"}},{"name":"Auhaldenweg","postalCode":"79585","locality":"Steinen","municipality":{"key":"08336084","name":"Steinen","type":"Kreisangehörige_Gemeinde"},"district":{"key":"08336","name":"Lörrach","type":"Landkreis"},"federalState":{"key":"08","name":"Baden-Württemberg"}},{"name":"Austr.","postalCode":"79585","locality":"Steinen","municipality":{"key":"08336084","name":"Steinen","type":"Kreisangehörige_Gemeinde"},"district":{"key":"08336","name":"Lörrach","type":"Landkreis"},"federalState":{"key":"08","name":"Baden-Württemberg"}},{"name":"Bahnhofstr.","postalCode":"79585","locality":"Steinen","municipality":{"key":"08336084","name":"Steinen","type":"Kreisangehörige_Gemeinde"},"district":{"key":"08336","name":"Lörrach","type":"Landkreis"},"federalState":{"key":"08","name":"Baden-Württemberg"}},{"name":"Bannweg","postalCode":"79585","locality":"Steinen","municipality":{"key":"08336084","name":"Steinen","type":"Kreisangehörige_Gemeinde"},"district":{"key":"08336","name":"Lörrach","type":"Landkreis"},"federalState":{"key":"08","name":"Baden-Württemberg"}},{"name":"Belchenblick","postalCode":"79585","locality":"Steinen","municipality":{"key":"08336084","name":"Steinen","type":"Kreisangehörige_Gemeinde"},"district":{"key":"08336","name":"Lörrach","type":"Landkreis"},"federalState":{"key":"08","name":"Baden-Württemberg"}},{"name":"Belchenstr.","postalCode":"79585","locality":"Steinen","municipality":{"key":"08336084","name":"Steinen","type":"Kreisangehörige_Gemeinde"},"district":{"key":"08336","name":"Lörrach","type":"Landkreis"},"federalState":{"key":"08","name":"Baden-Württemberg"}},{"name":"Belziweg","postalCode":"79585","locality":"Steinen","municipality":{"key":"08336084","name":"Steinen","type":"Kreisangehörige_Gemeinde"},"district":{"key":"08336","name":"Lörrach","type":"Landkreis"},"federalState":{"key":"08","name":"Baden-Württemberg"}},{"name":"Bergstr.","postalCode":"79585","locality":"Steinen","municipality":{"key":"08336084","name":"Steinen","type":"Kreisangehörige_Gemeinde"},"district":{"key":"08336","name":"Lörrach","type":"Landkreis"},"federalState":{"key":"08","name":"Baden-Württemberg"}},{"name":"Bernhardstr.","postalCode":"79585","locality":"Steinen","municipality":{"key":"08336084","name":"Steinen","type":"Kreisangehörige_Gemeinde"},"district":{"key":"08336","name":"Lörrach","type":"Landkreis"},"federalState":{"key":"08","name":"Baden-Württemberg"}},{"name":"Bettelweg","postalCode":"71144","locality":"Steinenbronn","municipality":{"key":"08115046","name":"Steinenbronn","type":"Kreisangehörige_Gemeinde"},"district":{"key":"08115","name":"Böblingen","type":"Landkreis"},"federalState":{"key":"08","name":"Baden-Württemberg"}},{"name":"Bildweg","postalCode":"71144","locality":"Steinenbronn","municipality":{"key":"08115046","name":"Steinenbronn","type":"Kreisangehörige_Gemeinde"},"district":{"key":"08115","name":"Böblingen","type":"Landkreis"},"federalState":{"key":"08","name":"Baden-Württemberg"}},{"name":"Birkacher Str.","postalCode":"71144","locality":"Steinenbronn","municipality":{"key":"08115046","name":"Steinenbronn","type":"Kreisangehörige_Gemeinde"},"district":{"key":"08115","name":"Böblingen","type":"Landkreis"},"federalState":{"key":"08","name":"Baden-Württemberg"}},{"name":"Birkenweg","postalCode":"79585","locality":"Steinen","municipality":{"key":"08336084","name":"Steinen","type":"Kreisangehörige_Gemeinde"},"district":{"key":"08336","name":"Lörrach","type":"Landkreis"},"federalState":{"key":"08","name":"Baden-Württemberg"}},{"name":"Blumenweg","postalCode":"71144","locality":"Steinenbronn","municipality":{"key":"08115046","name":"Steinenbronn","type":"Kreisangehörige_Gemeinde"},"district":{"key":"08115","name":"Böblingen","type":"Landkreis"},"federalState":{"key":"08","name":"Baden-Württemberg"}},{"name":"Böblinger Str.","postalCode":"71144","locality":"Steinenbronn","municipality":{"key":"08115046","name":"Steinenbronn","type":"Kreisangehörige_Gemeinde"},"district":{"key":"08115","name":"Böblingen","type":"Landkreis"},"federalState":{"key":"08","name":"Baden-Württemberg"}},{"name":"Brühlstr.","postalCode":"79585","locality":"Steinen","municipality":{"key":"08336084","name":"Steinen","type":"Kreisangehörige_Gemeinde"},"district":{"key":"08336","name":"Lörrach","type":"Landkreis"},"federalState":{"key":"08","name":"Baden-Württemberg"}},{"name":"Brunnenstr.","postalCode":"79585","locality":"Steinen","municipality":{"key":"08336084","name":"Steinen","type":"Kreisangehörige_Gemeinde"},"district":{"key":"08336","name":"Lörrach","type":"Landkreis"},"federalState":{"key":"08","name":"Baden-Württemberg"}},{"name":"Bühlweg","postalCode":"79585","locality":"Steinen","municipality":{"key":"08336084","name":"Steinen","type":"Kreisangehörige_Gemeinde"},"district":{"key":"08336","name":"Lörrach","type":"Landkreis"},"federalState":{"key":"08","name":"Baden-Württemberg"}},{"name":"Bündtenäcker","postalCode":"79585","locality":"Steinen","municipality":{"key":"08336084","name":"Steinen","type":"Kreisangehörige_Gemeinde"},"district":{"key":"08336","name":"Lörrach","type":"Landkreis"},"federalState":{"key":"08","name":"Baden-Württemberg"}},{"name":"Burgweg","postalCode":"79585","locality":"Steinen","municipality":{"key":"08336084","name":"Steinen","type":"Kreisangehörige_Gemeinde"},"district":{"key":"08336","name":"Lörrach","type":"Landkreis"},"federalState":{"key":"08","name":"Baden-Württemberg"}},{"name":"Büttentalweg","postalCode":"79585","locality":"Steinen","municipality":{"key":"08336084","name":"Steinen","type":"Kreisangehörige_Gemeinde"},"district":{"key":"08336","name":"Lörrach","type":"Landkreis"},"federalState":{"key":"08","name":"Baden-Württemberg"}},{"name":"Charlottenweg","postalCode":"71144","locality":"Steinenbronn","municipality":{"key":"08115046","name":"Steinenbronn","type":"Kreisangehörige_Gemeinde"},"district":{"key":"08115","name":"Böblingen","type":"Landkreis"},"federalState":{"key":"08","name":"Baden-Württemberg"}},{"name":"Dachsbauallee","postalCode":"71144","locality":"Steinenbronn","municipality":{"key":"08115046","name":"Steinenbronn","type":"Kreisangehörige_Gemeinde"},"district":{"key":"08115","name":"Böblingen","type":"Landkreis"},"federalState":{"key":"08","name":"Baden-Württemberg"}},{"name":"Dachsbergweg","postalCode":"79585","locality":"Steinen","municipality":{"key":"08336084","name":"Steinen","type":"Kreisangehörige_Gemeinde"},"district":{"key":"08336","name":"Lörrach","type":"Landkreis"},"federalState":{"key":"08","name":"Baden-Württemberg"}},{"name":"Daimlerstr.","postalCode":"79585","locality":"Steinen","municipality":{"key":"08336084","name":"Steinen","type":"Kreisangehörige_Gemeinde"},"district":{"key":"08336","name":"Lörrach","type":"Landkreis"},"federalState":{"key":"08","name":"Baden-Württemberg"}},{"name":"Dorfmatt","postalCode":"79585","locality":"Steinen","municipality":{"key":"08336084","name":"Steinen","type":"Kreisangehörige_Gemeinde"},"district":{"key":"08336","name":"Lörrach","type":"Landkreis"},"federalState":{"key":"08","name":"Baden-Württemberg"}},{"name":"Dornegertenweg","postalCode":"79585","locality":"Steinen","municipality":{"key":"08336084","name":"Steinen","type":"Kreisangehörige_Gemeinde"},"district":{"key":"08336","name":"Lörrach","type":"Landkreis"},"federalState":{"key":"08","name":"Baden-Württemberg"}},{"name":"Dornröschenweg","postalCode":"71144","locality":"Steinenbronn","municipality":{"key":"08115046","name":"Steinenbronn","type":"Kreisangehörige_Gemeinde"},"district":{"key":"08115","name":"Böblingen","type":"Landkreis"},"federalState":{"key":"08","name":"Baden-Württemberg"}},{"name":"Drosselweg","postalCode":"71144","locality":"Steinenbronn","municipality":{"key":"08115046","name":"Steinenbronn","type":"Kreisangehörige_Gemeinde"},"district":{"key":"08115","name":"Böblingen","type":"Landkreis"},"federalState":{"key":"08","name":"Baden-Württemberg"}},{"name":"Egertenweg","postalCode":"79585","locality":"Steinen","municipality":{"key":"08336084","name":"Steinen","type":"Kreisangehörige_Gemeinde"},"district":{"key":"08336","name":"Lörrach","type":"Landkreis"},"federalState":{"key":"08","name":"Baden-Württemberg"}},{"name":"Eichenweg","postalCode":"79585","locality":"Steinen","municipality":{"key":"08336084","name":"Steinen","type":"Kreisangehörige_Gemeinde"},"district":{"key":"08336","name":"Lörrach","type":"Landkreis"},"federalState":{"key":"08","name":"Baden-Württemberg"}},{"name":"Eichmattweg","postalCode":"79585","locality":"Steinen","municipality":{"key":"08336084","name":"Steinen","type":"Kreisangehörige_Gemeinde"},"district":{"key":"08336","name":"Lörrach","type":"Landkreis"},"federalState":{"key":"08","name":"Baden-Württemberg"}},{"name":"Eimerlochweg","postalCode":"79585","locality":"Steinen","municipality":{"key":"08336084","name":"Steinen","type":"Kreisangehörige_Gemeinde"},"district":{"key":"08336","name":"Lörrach","type":"Landkreis"},"federalState":{"key":"08","name":"Baden-Württemberg"}},{"name":"Eisenbahnstr.","postalCode":"79585","locality":"Steinen","municipality":{"key":"08336084","name":"Steinen","type":"Kreisangehörige_Gemeinde"},"district":{"key":"08336","name":"Lörrach","type":"Landkreis"},"federalState":{"key":"08","name":"Baden-Württemberg"}},{"name":"Erlenweg","postalCode":"79585","locality":"Steinen","municipality":{"key":"08336084","name":"Steinen","type":"Kreisangehörige_Gemeinde"},"district":{"key":"08336","name":"Lörrach","type":"Landkreis"},"federalState":{"key":"08","name":"Baden-Württemberg"}},{"name":"Ernst-Hänßler-Str.","postalCode":"79585","locality":"Steinen","municipality":{"key":"08336084","name":"Steinen","type":"Kreisangehörige_Gemeinde"},"district":{"key":"08336","name":"Lörrach","type":"Landkreis"},"federalState":{"key":"08","name":"Baden-Württemberg"}},{"name":"Fahrnbuck","postalCode":"79585","locality":"Steinen","municipality":{"key":"08336084","name":"Steinen","type":"Kreisangehörige_Gemeinde"},"district":{"key":"08336","name":"Lörrach","type":"Landkreis"},"federalState":{"key":"08","name":"Baden-Württemberg"}},{"name":"Ferdinand-Steinbeis-Str.","postalCode":"71144","locality":"Steinenbronn","municipality":{"key":"08115046","name":"Steinenbronn","type":"Kreisangehörige_Gemeinde"},"district":{"key":"08115","name":"Böblingen","type":"Landkreis"},"federalState":{"key":"08","name":"Baden-Württemberg"}},{"name":"Feuerwehrgasse","postalCode":"79585","locality":"Steinen","municipality":{"key":"08336084","name":"Steinen","type":"Kreisangehörige_Gemeinde"},"district":{"key":"08336","name":"Lörrach","type":"Landkreis"},"federalState":{"key":"08","name":"Baden-Württemberg"}},{"name":"Filderstr.","postalCode":"71144","locality":"Steinenbronn","municipality":{"key":"08115046","name":"Steinenbronn","type":"Kreisangehörige_Gemeinde"},"district":{"key":"08115","name":"Böblingen","type":"Landkreis"},"federalState":{"key":"08","name":"Baden-Württemberg"}},{"name":"Finkenweg","postalCode":"71144","locality":"Steinenbronn","municipality":{"key":"08115046","name":"Steinenbronn","type":"Kreisangehörige_Gemeinde"},"district":{"key":"08115","name":"Böblingen","type":"Landkreis"},"federalState":{"key":"08","name":"Baden-Württemberg"}},{"name":"Föhribuckweg","postalCode":"79585","locality":"Steinen","municipality":{"key":"08336084","name":"Steinen","type":"Kreisangehörige_Gemeinde"},"district":{"key":"08336","name":"Lörrach","type":"Landkreis"},"federalState":{"key":"08","name":"Baden-Württemberg"}},{"name":"Franziskaweg","postalCode":"71144","locality":"Steinenbronn","municipality":{"key":"08115046","name":"Steinenbronn","type":"Kreisangehörige_Gemeinde"},"district":{"key":"08115","name":"Böblingen","type":"Landkreis"},"federalState":{"key":"08","name":"Baden-Württemberg"}},{"name":"Fribergweg","postalCode":"79585","locality":"Steinen","municipality":{"key":"08336084","name":"Steinen","type":"Kreisangehörige_Gemeinde"},"district":{"key":"08336","name":"Lörrach","type":"Landkreis"},"federalState":{"key":"08","name":"Baden-Württemberg"}},{"name":"Friedenstr.","postalCode":"79585","locality":"Steinen","municipality":{"key":"08336084","name":"Steinen","type":"Kreisangehörige_Gemeinde"},"district":{"key":"08336","name":"Lörrach","type":"Landkreis"},"federalState":{"key":"08","name":"Baden-Württemberg"}},{"name":"Friedrichstr.","postalCode":"71144","locality":"Steinenbronn","municipality":{"key":"08115046","name":"Steinenbronn","type":"Kreisangehörige_Gemeinde"},"district":{"key":"08115","name":"Böblingen","type":"Landkreis"},"federalState":{"key":"08","name":"Baden-Württemberg"}},{"name":"Friedrichstr.","postalCode":"79585","locality":"Steinen","municipality":{"key":"08336084","name":"Steinen","type":"Kreisangehörige_Gemeinde"},"district":{"key":"08336","name":"Lörrach","type":"Landkreis"},"federalState":{"key":"08","name":"Baden-Württemberg"}},{"name":"Fröbelweg","postalCode":"79585","locality":"Steinen","municipality":{"key":"08336084","name":"Steinen","type":"Kreisangehörige_Gemeinde"},"district":{"key":"08336","name":"Lörrach","type":"Landkreis"},"federalState":{"key":"08","name":"Baden-Württemberg"}},{"name":"Fuchsarmweg","postalCode":"79585","locality":"Steinen","municipality":{"key":"08336084","name":"Steinen","type":"Kreisangehörige_Gemeinde"},"district":{"key":"08336","name":"Lörrach","type":"Landkreis"},"federalState":{"key":"08","name":"Baden-Württemberg"}},{"name":"Gartenstr.","postalCode":"56244","locality":"Steinen","municipality":{"key":"07143075","name":"Steinen","type":"Kreisangehörige_Gemeinde"},"district":{"key":"07143","name":"Westerwaldkreis","type":"Landkreis"},"federalState":{"key":"07","name":"Rheinland-Pfalz"}},{"name":"Gartenstr.","postalCode":"71144","locality":"Steinenbronn","municipality":{"key":"08115046","name":"Steinenbronn","type":"Kreisangehörige_Gemeinde"},"district":{"key":"08115","name":"Böblingen","type":"Landkreis"},"federalState":{"key":"08","name":"Baden-Württemberg"}},{"name":"Gartenstr.","postalCode":"79585","locality":"Steinen","municipality":{"key":"08336084","name":"Steinen","type":"Kreisangehörige_Gemeinde"},"district":{"key":"08336","name":"Lörrach","type":"Landkreis"},"federalState":{"key":"08","name":"Baden-Württemberg"}},{"name":"Geisbühl","postalCode":"79585","locality":"Steinen","municipality":{"key":"08336084","name":"Steinen","type":"Kreisangehörige_Gemeinde"},"district":{"key":"08336","name":"Lörrach","type":"Landkreis"},"federalState":{"key":"08","name":"Baden-Württemberg"}},{"name":"Gerhart-Hauptmann-Str.","postalCode":"79585","locality":"Steinen","municipality":{"key":"08336084","name":"Steinen","type":"Kreisangehörige_Gemeinde"},"district":{"key":"08336","name":"Lörrach","type":"Landkreis"},"federalState":{"key":"08","name":"Baden-Württemberg"}},{"name":"Gewerbestr.","postalCode":"71144","locality":"Steinenbronn","municipality":{"key":"08115046","name":"Steinenbronn","type":"Kreisangehörige_Gemeinde"},"district":{"key":"08115","name":"Böblingen","type":"Landkreis"},"federalState":{"key":"08","name":"Baden-Württemberg"}},{"name":"Gewerbestr.","postalCode":"79585","locality":"Steinen","municipality":{"key":"08336084","name":"Steinen","type":"Kreisangehörige_Gemeinde"},"district":{"key":"08336","name":"Lörrach","type":"Landkreis"},"federalState":{"key":"08","name":"Baden-Württemberg"}},{"name":"Glaserbergweg","postalCode":"79585","locality":"Steinen","municipality":{"key":"08336084","name":"Steinen","type":"Kreisangehörige_Gemeinde"},"district":{"key":"08336","name":"Lörrach","type":"Landkreis"},"federalState":{"key":"08","name":"Baden-Württemberg"}},{"name":"Goethestr.","postalCode":"71144","locality":"Steinenbronn","municipality":{"key":"08115046","name":"Steinenbronn","type":"Kreisangehörige_Gemeinde"},"district":{"key":"08115","name":"Böblingen","type":"Landkreis"},"federalState":{"key":"08","name":"Baden-Württemberg"}},{"name":"Goldäckerstr.","postalCode":"71144","locality":"Steinenbronn","municipality":{"key":"08115046","name":"Steinenbronn","type":"Kreisangehörige_Gemeinde"},"district":{"key":"08115","name":"Böblingen","type":"Landkreis"},"federalState":{"key":"08","name":"Baden-Württemberg"}},{"name":"Gottfried-Keller-Str.","postalCode":"79585","locality":"Steinen","municipality":{"key":"08336084","name":"Steinen","type":"Kreisangehörige_Gemeinde"},"district":{"key":"08336","name":"Lörrach","type":"Landkreis"},"federalState":{"key":"08","name":"Baden-Württemberg"}},{"name":"Gottlieb-Daimler-Str.","postalCode":"71144","locality":"Steinenbronn","municipality":{"key":"08115046","name":"Steinenbronn","type":"Kreisangehörige_Gemeinde"},"district":{"key":"08115","name":"Böblingen","type":"Landkreis"},"federalState":{"key":"08","name":"Baden-Württemberg"}},{"name":"Gräbleswiesenweg","postalCode":"71144","locality":"Steinenbronn","municipality":{"key":"08115046","name":"Steinenbronn","type":"Kreisangehörige_Gemeinde"},"district":{"key":"08115","name":"Böblingen","type":"Landkreis"},"federalState":{"key":"08","name":"Baden-Württemberg"}},{"name":"Grasweg","postalCode":"79585","locality":"Steinen","municipality":{"key":"08336084","name":"Steinen","type":"Kreisangehörige_Gemeinde"},"district":{"key":"08336","name":"Lörrach","type":"Landkreis"},"federalState":{"key":"08","name":"Baden-Württemberg"}},{"name":"Grenzweg","postalCode":"79585","locality":"Steinen","municipality":{"key":"08336084","name":"Steinen","type":"Kreisangehörige_Gemeinde"},"district":{"key":"08336","name":"Lörrach","type":"Landkreis"},"federalState":{"key":"08","name":"Baden-Württemberg"}},{"name":"Grubenweg","postalCode":"79585","locality":"Steinen","municipality":{"key":"08336084","name":"Steinen","type":"Kreisangehörige_Gemeinde"},"district":{"key":"08336","name":"Lörrach","type":"Landkreis"},"federalState":{"key":"08","name":"Baden-Württemberg"}},{"name":"Gute Hoffnung","postalCode":"79585","locality":"Steinen","municipality":{"key":"08336084","name":"Steinen","type":"Kreisangehörige_Gemeinde"},"district":{"key":"08336","name":"Lörrach","type":"Landkreis"},"federalState":{"key":"08","name":"Baden-Württemberg"}},{"name":"Haarschwärzeweg","postalCode":"79585","locality":"Steinen","municipality":{"key":"08336084","name":"Steinen","type":"Kreisangehörige_Gemeinde"},"district":{"key":"08336","name":"Lörrach","type":"Landkreis"},"federalState":{"key":"08","name":"Baden-Württemberg"}},{"name":"Häfnetkopfweg","postalCode":"79585","locality":"Steinen","municipality":{"key":"08336084","name":"Steinen","type":"Kreisangehörige_Gemeinde"},"district":{"key":"08336","name":"Lörrach","type":"Landkreis"},"federalState":{"key":"08","name":"Baden-Württemberg"}},{"name":"Häfnetstr.","postalCode":"79585","locality":"Steinen","municipality":{"key":"08336084","name":"Steinen","type":"Kreisangehörige_Gemeinde"},"district":{"key":"08336","name":"Lörrach","type":"Landkreis"},"federalState":{"key":"08","name":"Baden-Württemberg"}},{"name":"Häfnetweg","postalCode":"79585","locality":"Steinen","municipality":{"key":"08336084","name":"Steinen","type":"Kreisangehörige_Gemeinde"},"district":{"key":"08336","name":"Lörrach","type":"Landkreis"},"federalState":{"key":"08","name":"Baden-Württemberg"}},{"name":"Hagäckerweg","postalCode":"71144","locality":"Steinenbronn","municipality":{"key":"08115046","name":"Steinenbronn","type":"Kreisangehörige_Gemeinde"},"district":{"key":"08115","name":"Böblingen","type":"Landkreis"},"federalState":{"key":"08","name":"Baden-Württemberg"}},{"name":"Hägelbergweg","postalCode":"79585","locality":"Steinen","municipality":{"key":"08336084","name":"Steinen","type":"Kreisangehörige_Gemeinde"},"district":{"key":"08336","name":"Lörrach","type":"Landkreis"},"federalState":{"key":"08","name":"Baden-Württemberg"}},{"name":"Hagenmattweg","postalCode":"79585","locality":"Steinen","municipality":{"key":"08336084","name":"Steinen","type":"Kreisangehörige_Gemeinde"},"district":{"key":"08336","name":"Lörrach","type":"Landkreis"},"federalState":{"key":"08","name":"Baden-Württemberg"}},{"name":"Hägstellweg","postalCode":"79585","locality":"Steinen","municipality":{"key":"08336084","name":"Steinen","type":"Kreisangehörige_Gemeinde"},"district":{"key":"08336","name":"Lörrach","type":"Landkreis"},"federalState":{"key":"08","name":"Baden-Württemberg"}},{"name":"Hägstelweg","postalCode":"79585","locality":"Steinen","municipality":{"key":"08336084","name":"Steinen","type":"Kreisangehörige_Gemeinde"},"district":{"key":"08336","name":"Lörrach","type":"Landkreis"},"federalState":{"key":"08","name":"Baden-Württemberg"}},{"name":"Hagwiesenweg","postalCode":"71144","locality":"Steinenbronn","municipality":{"key":"08115046","name":"Steinenbronn","type":"Kreisangehörige_Gemeinde"},"district":{"key":"08115","name":"Böblingen","type":"Landkreis"},"federalState":{"key":"08","name":"Baden-Württemberg"}},{"name":"Hans-Adolf-Bühler-Str.","postalCode":"79585","locality":"Steinen","municipality":{"key":"08336084","name":"Steinen","type":"Kreisangehörige_Gemeinde"},"district":{"key":"08336","name":"Lörrach","type":"Landkreis"},"federalState":{"key":"08","name":"Baden-Württemberg"}},{"name":"Hans-Dreher-Weg","postalCode":"79585","locality":"Steinen","municipality":{"key":"08336084","name":"Steinen","type":"Kreisangehörige_Gemeinde"},"district":{"key":"08336","name":"Lörrach","type":"Landkreis"},"federalState":{"key":"08","name":"Baden-Württemberg"}},{"name":"Hans-Thoma-Str.","postalCode":"79585","locality":"Steinen","municipality":{"key":"08336084","name":"Steinen","type":"Kreisangehörige_Gemeinde"},"district":{"key":"08336","name":"Lörrach","type":"Landkreis"},"federalState":{"key":"08","name":"Baden-Württemberg"}},{"name":"Hasluckenweg","postalCode":"79585","locality":"Steinen","municipality":{"key":"08336084","name":"Steinen","type":"Kreisangehörige_Gemeinde"},"district":{"key":"08336","name":"Lörrach","type":"Landkreis"},"federalState":{"key":"08","name":"Baden-Württemberg"}},{"name":"Hauffstr.","postalCode":"71144","locality":"Steinenbronn","municipality":{"key":"08115046","name":"Steinenbronn","type":"Kreisangehörige_Gemeinde"},"district":{"key":"08115","name":"Böblingen","type":"Landkreis"},"federalState":{"key":"08","name":"Baden-Württemberg"}},{"name":"Hauptweg","postalCode":"79585","locality":"Steinen","municipality":{"key":"08336084","name":"Steinen","type":"Kreisangehörige_Gemeinde"},"district":{"key":"08336","name":"Lörrach","type":"Landkreis"},"federalState":{"key":"08","name":"Baden-Württemberg"}},{"name":"Hebelstr.","postalCode":"79585","locality":"Steinen","municipality":{"key":"08336084","name":"Steinen","type":"Kreisangehörige_Gemeinde"},"district":{"key":"08336","name":"Lörrach","type":"Landkreis"},"federalState":{"key":"08","name":"Baden-Württemberg"}},{"name":"Heidelweg","postalCode":"79585","locality":"Steinen","municipality":{"key":"08336084","name":"Steinen","type":"Kreisangehörige_Gemeinde"},"district":{"key":"08336","name":"Lörrach","type":"Landkreis"},"federalState":{"key":"08","name":"Baden-Württemberg"}},{"name":"Heidenweg","postalCode":"79585","locality":"Steinen","municipality":{"key":"08336084","name":"Steinen","type":"Kreisangehörige_Gemeinde"},"district":{"key":"08336","name":"Lörrach","type":"Landkreis"},"federalState":{"key":"08","name":"Baden-Württemberg"}},{"name":"Herligenweg","postalCode":"79585","locality":"Steinen","municipality":{"key":"08336084","name":"Steinen","type":"Kreisangehörige_Gemeinde"},"district":{"key":"08336","name":"Lörrach","type":"Landkreis"},"federalState":{"key":"08","name":"Baden-Württemberg"}},{"name":"Hermann-Burte-Str.","postalCode":"79585","locality":"Steinen","municipality":{"key":"08336084","name":"Steinen","type":"Kreisangehörige_Gemeinde"},"district":{"key":"08336","name":"Lörrach","type":"Landkreis"},"federalState":{"key":"08","name":"Baden-Württemberg"}},{"name":"Hermann-Schöpflin-Str.","postalCode":"79585","locality":"Steinen","municipality":{"key":"08336084","name":"Steinen","type":"Kreisangehörige_Gemeinde"},"district":{"key":"08336","name":"Lörrach","type":"Landkreis"},"federalState":{"key":"08","name":"Baden-Württemberg"}},{"name":"Heubächleweg","postalCode":"79585","locality":"Steinen","municipality":{"key":"08336084","name":"Steinen","type":"Kreisangehörige_Gemeinde"},"district":{"key":"08336","name":"Lörrach","type":"Landkreis"},"federalState":{"key":"08","name":"Baden-Württemberg"}},{"name":"Heubergweg","postalCode":"79585","locality":"Steinen","municipality":{"key":"08336084","name":"Steinen","type":"Kreisangehörige_Gemeinde"},"district":{"key":"08336","name":"Lörrach","type":"Landkreis"},"federalState":{"key":"08","name":"Baden-Württemberg"}},{"name":"Heuleweg","postalCode":"79585","locality":"Steinen","municipality":{"key":"08336084","name":"Steinen","type":"Kreisangehörige_Gemeinde"},"district":{"key":"08336","name":"Lörrach","type":"Landkreis"},"federalState":{"key":"08","name":"Baden-Württemberg"}},{"name":"Hinterer Steinenbergweg","postalCode":"79585","locality":"Steinen","municipality":{"key":"08336084","name":"Steinen","type":"Kreisangehörige_Gemeinde"},"district":{"key":"08336","name":"Lörrach","type":"Landkreis"},"federalState":{"key":"08","name":"Baden-Württemberg"}},{"name":"Hochstr.","postalCode":"79585","locality":"Steinen","municipality":{"key":"08336084","name":"Steinen","type":"Kreisangehörige_Gemeinde"},"district":{"key":"08336","name":"Lörrach","type":"Landkreis"},"federalState":{"key":"08","name":"Baden-Württemberg"}},{"name":"Hofener Str.","postalCode":"79585","locality":"Steinen","municipality":{"key":"08336084","name":"Steinen","type":"Kreisangehörige_Gemeinde"},"district":{"key":"08336","name":"Lörrach","type":"Landkreis"},"federalState":{"key":"08","name":"Baden-Württemberg"}},{"name":"Hohegertenweg","postalCode":"79585","locality":"Steinen","municipality":{"key":"08336084","name":"Steinen","type":"Kreisangehörige_Gemeinde"},"district":{"key":"08336","name":"Lörrach","type":"Landkreis"},"federalState":{"key":"08","name":"Baden-Württemberg"}},{"name":"Hohenheimer Str.","postalCode":"71144","locality":"Steinenbronn","municipality":{"key":"08115046","name":"Steinenbronn","type":"Kreisangehörige_Gemeinde"},"district":{"key":"08115","name":"Böblingen","type":"Landkreis"},"federalState":{"key":"08","name":"Baden-Württemberg"}},{"name":"Hohe Str.","postalCode":"56244","locality":"Steinen","municipality":{"key":"07143075","name":"Steinen","type":"Kreisangehörige_Gemeinde"},"district":{"key":"07143","name":"Westerwaldkreis","type":"Landkreis"},"federalState":{"key":"07","name":"Rheinland-Pfalz"}},{"name":"Hohewartstr.","postalCode":"71144","locality":"Steinenbronn","municipality":{"key":"08115046","name":"Steinenbronn","type":"Kreisangehörige_Gemeinde"},"district":{"key":"08115","name":"Böblingen","type":"Landkreis"},"federalState":{"key":"08","name":"Baden-Württemberg"}},{"name":"Höhliweg","postalCode":"79585","locality":"Steinen","municipality":{"key":"08336084","name":"Steinen","type":"Kreisangehörige_Gemeinde"},"district":{"key":"08336","name":"Lörrach","type":"Landkreis"},"federalState":{"key":"08","name":"Baden-Württemberg"}},{"name":"Hohrüttenweg","postalCode":"79585","locality":"Steinen","municipality":{"key":"08336084","name":"Steinen","type":"Kreisangehörige_Gemeinde"},"district":{"key":"08336","name":"Lörrach","type":"Landkreis"},"federalState":{"key":"08","name":"Baden-Württemberg"}},{"name":"Hölzleweg","postalCode":"79585","locality":"Steinen","municipality":{"key":"08336084","name":"Steinen","type":"Kreisangehörige_Gemeinde"},"district":{"key":"08336","name":"Lörrach","type":"Landkreis"},"federalState":{"key":"08","name":"Baden-Württemberg"}},{"name":"Holzweg","postalCode":"79585","locality":"Steinen","municipality":{"key":"08336084","name":"Steinen","type":"Kreisangehörige_Gemeinde"},"district":{"key":"08336","name":"Lörrach","type":"Landkreis"},"federalState":{"key":"08","name":"Baden-Württemberg"}},{"name":"Hummelrütteweg","postalCode":"79585","locality":"Steinen","municipality":{"key":"08336084","name":"Steinen","type":"Kreisangehörige_Gemeinde"},"district":{"key":"08336","name":"Lörrach","type":"Landkreis"},"federalState":{"key":"08","name":"Baden-Württemberg"}},{"name":"Hüsinger Str.","postalCode":"79585","locality":"Steinen","municipality":{"key":"08336084","name":"Steinen","type":"Kreisangehörige_Gemeinde"},"district":{"key":"08336","name":"Lörrach","type":"Landkreis"},"federalState":{"key":"08","name":"Baden-Württemberg"}},{"name":"Im Alten See","postalCode":"71144","locality":"Steinenbronn","municipality":{"key":"08115046","name":"Steinenbronn","type":"Kreisangehörige_Gemeinde"},"district":{"key":"08115","name":"Böblingen","type":"Landkreis"},"federalState":{"key":"08","name":"Baden-Württemberg"}},{"name":"Im Brunnacker","postalCode":"79585","locality":"Steinen","municipality":{"key":"08336084","name":"Steinen","type":"Kreisangehörige_Gemeinde"},"district":{"key":"08336","name":"Lörrach","type":"Landkreis"},"federalState":{"key":"08","name":"Baden-Württemberg"}},{"name":"Im Burain","postalCode":"71144","locality":"Steinenbronn","municipality":{"key":"08115046","name":"Steinenbronn","type":"Kreisangehörige_Gemeinde"},"district":{"key":"08115","name":"Böblingen","type":"Landkreis"},"federalState":{"key":"08","name":"Baden-Württemberg"}},{"name":"Im Hinterdorf","postalCode":"79585","locality":"Steinen","municipality":{"key":"08336084","name":"Steinen","type":"Kreisangehörige_Gemeinde"},"district":{"key":"08336","name":"Lörrach","type":"Landkreis"},"federalState":{"key":"08","name":"Baden-Württemberg"}},{"name":"Im Hofacker","postalCode":"79585","locality":"Steinen","municipality":{"key":"08336084","name":"Steinen","type":"Kreisangehörige_Gemeinde"},"district":{"key":"08336","name":"Lörrach","type":"Landkreis"},"federalState":{"key":"08","name":"Baden-Württemberg"}},{"name":"Im Kirschgarten","postalCode":"79585","locality":"Steinen","municipality":{"key":"08336084","name":"Steinen","type":"Kreisangehörige_Gemeinde"},"district":{"key":"08336","name":"Lörrach","type":"Landkreis"},"federalState":{"key":"08","name":"Baden-Württemberg"}},{"name":"Im Lührle","postalCode":"71144","locality":"Steinenbronn","municipality":{"key":"08115046","name":"Steinenbronn","type":"Kreisangehörige_Gemeinde"},"district":{"key":"08115","name":"Böblingen","type":"Landkreis"},"federalState":{"key":"08","name":"Baden-Württemberg"}},{"name":"Im Maurer","postalCode":"71144","locality":"Steinenbronn","municipality":{"key":"08115046","name":"Steinenbronn","type":"Kreisangehörige_Gemeinde"},"district":{"key":"08115","name":"Böblingen","type":"Landkreis"},"federalState":{"key":"08","name":"Baden-Württemberg"}},{"name":"Im Rebgarten","postalCode":"79585","locality":"Steinen","municipality":{"key":"08336084","name":"Steinen","type":"Kreisangehörige_Gemeinde"},"district":{"key":"08336","name":"Lörrach","type":"Landkreis"},"federalState":{"key":"08","name":"Baden-Württemberg"}},{"name":"Im Rumpel","postalCode":"79585","locality":"Steinen","municipality":{"key":"08336084","name":"Steinen","type":"Kreisangehörige_Gemeinde"},"district":{"key":"08336","name":"Lörrach","type":"Landkreis"},"federalState":{"key":"08","name":"Baden-Württemberg"}},{"name":"Im Sängelen","postalCode":"79585","locality":"Steinen","municipality":{"key":"08336084","name":"Steinen","type":"Kreisangehörige_Gemeinde"},"district":{"key":"08336","name":"Lörrach","type":"Landkreis"},"federalState":{"key":"08","name":"Baden-Württemberg"}},{"name":"Im Steinbrunnen","postalCode":"79585","locality":"Steinen","municipality":{"key":"08336084","name":"Steinen","type":"Kreisangehörige_Gemeinde"},"district":{"key":"08336","name":"Lörrach","type":"Landkreis"},"federalState":{"key":"08","name":"Baden-Württemberg"}},{"name":"Im Steinenberg","postalCode":"79585","locality":"Steinen","municipality":{"key":"08336084","name":"Steinen","type":"Kreisangehörige_Gemeinde"},"district":{"key":"08336","name":"Lörrach","type":"Landkreis"},"federalState":{"key":"08","name":"Baden-Württemberg"}},{"name":"Im Stutz","postalCode":"79585","locality":"Steinen","municipality":{"key":"08336084","name":"Steinen","type":"Kreisangehörige_Gemeinde"},"district":{"key":"08336","name":"Lörrach","type":"Landkreis"},"federalState":{"key":"08","name":"Baden-Württemberg"}},{"name":"Im Wolfischbühl","postalCode":"79585","locality":"Steinen","municipality":{"key":"08336084","name":"Steinen","type":"Kreisangehörige_Gemeinde"},"district":{"key":"08336","name":"Lörrach","type":"Landkreis"},"federalState":{"key":"08","name":"Baden-Württemberg"}},{"name":"Im Ziegelacker","postalCode":"79585","locality":"Steinen","municipality":{"key":"08336084","name":"Steinen","type":"Kreisangehörige_Gemeinde"},"district":{"key":"08336","name":"Lörrach","type":"Landkreis"},"federalState":{"key":"08","name":"Baden-Württemberg"}},{"name":"Im Zirkel","postalCode":"79585","locality":"Steinen","municipality":{"key":"08336084","name":"Steinen","type":"Kreisangehörige_Gemeinde"},"district":{"key":"08336","name":"Lörrach","type":"Landkreis"},"federalState":{"key":"08","name":"Baden-Württemberg"}},{"name":"In den Bergen","postalCode":"79585","locality":"Steinen","municipality":{"key":"08336084","name":"Steinen","type":"Kreisangehörige_Gemeinde"},"district":{"key":"08336","name":"Lörrach","type":"Landkreis"},"federalState":{"key":"08","name":"Baden-Württemberg"}},{"name":"In den Erlen","postalCode":"79585","locality":"Steinen","municipality":{"key":"08336084","name":"Steinen","type":"Kreisangehörige_Gemeinde"},"district":{"key":"08336","name":"Lörrach","type":"Landkreis"},"federalState":{"key":"08","name":"Baden-Württemberg"}},{"name":"In der Haagmatt","postalCode":"79585","locality":"Steinen","municipality":{"key":"08336084","name":"Steinen","type":"Kreisangehörige_Gemeinde"},"district":{"key":"08336","name":"Lörrach","type":"Landkreis"},"federalState":{"key":"08","name":"Baden-Württemberg"}},{"name":"In der Hutmatt","postalCode":"79585","locality":"Steinen","municipality":{"key":"08336084","name":"Steinen","type":"Kreisangehörige_Gemeinde"},"district":{"key":"08336","name":"Lörrach","type":"Landkreis"},"federalState":{"key":"08","name":"Baden-Württemberg"}},{"name":"In der Teichmatt","postalCode":"79585","locality":"Steinen","municipality":{"key":"08336084","name":"Steinen","type":"Kreisangehörige_Gemeinde"},"district":{"key":"08336","name":"Lörrach","type":"Landkreis"},"federalState":{"key":"08","name":"Baden-Württemberg"}},{"name":"Innerer Heuleweg","postalCode":"79585","locality":"Steinen","municipality":{"key":"08336084","name":"Steinen","type":"Kreisangehörige_Gemeinde"},"district":{"key":"08336","name":"Lörrach","type":"Landkreis"},"federalState":{"key":"08","name":"Baden-Württemberg"}},{"name":"Jahnstr.","postalCode":"79585","locality":"Steinen","municipality":{"key":"08336084","name":"Steinen","type":"Kreisangehörige_Gemeinde"},"district":{"key":"08336","name":"Lörrach","type":"Landkreis"},"federalState":{"key":"08","name":"Baden-Württemberg"}},{"name":"Jakobstr.","postalCode":"71144","locality":"Steinenbronn","municipality":{"key":"08115046","name":"Steinenbronn","type":"Kreisangehörige_Gemeinde"},"district":{"key":"08115","name":"Böblingen","type":"Landkreis"},"federalState":{"key":"08","name":"Baden-Württemberg"}},{"name":"Johannesweg","postalCode":"71144","locality":"Steinenbronn","municipality":{"key":"08115046","name":"Steinenbronn","type":"Kreisangehörige_Gemeinde"},"district":{"key":"08115","name":"Böblingen","type":"Landkreis"},"federalState":{"key":"08","name":"Baden-Württemberg"}},{"name":"Kanderner Str.","postalCode":"79585","locality":"Steinen","municipality":{"key":"08336084","name":"Steinen","type":"Kreisangehörige_Gemeinde"},"district":{"key":"08336","name":"Lörrach","type":"Landkreis"},"federalState":{"key":"08","name":"Baden-Württemberg"}},{"name":"Kappelgaß","postalCode":"79585","locality":"Steinen","municipality":{"key":"08336084","name":"Steinen","type":"Kreisangehörige_Gemeinde"},"district":{"key":"08336","name":"Lörrach","type":"Landkreis"},"federalState":{"key":"08","name":"Baden-Württemberg"}},{"name":"Karl-Groß-Str.","postalCode":"79585","locality":"Steinen","municipality":{"key":"08336084","name":"Steinen","type":"Kreisangehörige_Gemeinde"},"district":{"key":"08336","name":"Lörrach","type":"Landkreis"},"federalState":{"key":"08","name":"Baden-Württemberg"}},{"name":"Karl-Schleith-Str.","postalCode":"79585","locality":"Steinen","municipality":{"key":"08336084","name":"Steinen","type":"Kreisangehörige_Gemeinde"},"district":{"key":"08336","name":"Lörrach","type":"Landkreis"},"federalState":{"key":"08","name":"Baden-Württemberg"}},{"name":"Karlstr.","postalCode":"71144","locality":"Steinenbronn","municipality":{"key":"08115046","name":"Steinenbronn","type":"Kreisangehörige_Gemeinde"},"district":{"key":"08115","name":"Böblingen","type":"Landkreis"},"federalState":{"key":"08","name":"Baden-Württemberg"}},{"name":"Karl-Strübe-Weg","postalCode":"79585","locality":"Steinen","municipality":{"key":"08336084","name":"Steinen","type":"Kreisangehörige_Gemeinde"},"district":{"key":"08336","name":"Lörrach","type":"Landkreis"},"federalState":{"key":"08","name":"Baden-Württemberg"}},{"name":"Karwiedenbühlweg","postalCode":"79585","locality":"Steinen","municipality":{"key":"08336084","name":"Steinen","type":"Kreisangehörige_Gemeinde"},"district":{"key":"08336","name":"Lörrach","type":"Landkreis"},"federalState":{"key":"08","name":"Baden-Württemberg"}},{"name":"Kegelsklinge","postalCode":"71144","locality":"Steinenbronn","municipality":{"key":"08115046","name":"Steinenbronn","type":"Kreisangehörige_Gemeinde"},"district":{"key":"08115","name":"Böblingen","type":"Landkreis"},"federalState":{"key":"08","name":"Baden-Württemberg"}},{"name":"Kegelsklingstr.","postalCode":"71144","locality":"Steinenbronn","municipality":{"key":"08115046","name":"Steinenbronn","type":"Kreisangehörige_Gemeinde"},"district":{"key":"08115","name":"Böblingen","type":"Landkreis"},"federalState":{"key":"08","name":"Baden-Württemberg"}},{"name":"Kesselweg","postalCode":"71144","locality":"Steinenbronn","municipality":{"key":"08115046","name":"Steinenbronn","type":"Kreisangehörige_Gemeinde"},"district":{"key":"08115","name":"Böblingen","type":"Landkreis"},"federalState":{"key":"08","name":"Baden-Württemberg"}},{"name":"Kirchäckerstr.","postalCode":"71144","locality":"Steinenbronn","municipality":{"key":"08115046","name":"Steinenbronn","type":"Kreisangehörige_Gemeinde"},"district":{"key":"08115","name":"Böblingen","type":"Landkreis"},"federalState":{"key":"08","name":"Baden-Württemberg"}},{"name":"Kirchstr.","postalCode":"79585","locality":"Steinen","municipality":{"key":"08336084","name":"Steinen","type":"Kreisangehörige_Gemeinde"},"district":{"key":"08336","name":"Lörrach","type":"Landkreis"},"federalState":{"key":"08","name":"Baden-Württemberg"}},{"name":"Kirchweg","postalCode":"79585","locality":"Steinen","municipality":{"key":"08336084","name":"Steinen","type":"Kreisangehörige_Gemeinde"},"district":{"key":"08336","name":"Lörrach","type":"Landkreis"},"federalState":{"key":"08","name":"Baden-Württemberg"}},{"name":"Klingenbachstr.","postalCode":"71144","locality":"Steinenbronn","municipality":{"key":"08115046","name":"Steinenbronn","type":"Kreisangehörige_Gemeinde"},"district":{"key":"08115","name":"Böblingen","type":"Landkreis"},"federalState":{"key":"08","name":"Baden-Württemberg"}},{"name":"Klinggässle","postalCode":"71144","locality":"Steinenbronn","municipality":{"key":"08115046","name":"Steinenbronn","type":"Kreisangehörige_Gemeinde"},"district":{"key":"08115","name":"Böblingen","type":"Landkreis"},"federalState":{"key":"08","name":"Baden-Württemberg"}},{"name":"Klosterweg","postalCode":"79585","locality":"Steinen","municipality":{"key":"08336084","name":"Steinen","type":"Kreisangehörige_Gemeinde"},"district":{"key":"08336","name":"Lörrach","type":"Landkreis"},"federalState":{"key":"08","name":"Baden-Württemberg"}},{"name":"Köchlinstr.","postalCode":"79585","locality":"Steinen","municipality":{"key":"08336084","name":"Steinen","type":"Kreisangehörige_Gemeinde"},"district":{"key":"08336","name":"Lörrach","type":"Landkreis"},"federalState":{"key":"08","name":"Baden-Württemberg"}},{"name":"Kohlgrube","postalCode":"79585","locality":"Steinen","municipality":{"key":"08336084","name":"Steinen","type":"Kreisangehörige_Gemeinde"},"district":{"key":"08336","name":"Lörrach","type":"Landkreis"},"federalState":{"key":"08","name":"Baden-Württemberg"}},{"name":"Kopfweg","postalCode":"79585","locality":"Steinen","municipality":{"key":"08336084","name":"Steinen","type":"Kreisangehörige_Gemeinde"},"district":{"key":"08336","name":"Lörrach","type":"Landkreis"},"federalState":{"key":"08","name":"Baden-Württemberg"}},{"name":"Krämelweg","postalCode":"79585","locality":"Steinen","municipality":{"key":"08336084","name":"Steinen","type":"Kreisangehörige_Gemeinde"},"district":{"key":"08336","name":"Lörrach","type":"Landkreis"},"federalState":{"key":"08","name":"Baden-Württemberg"}},{"name":"Kreuzweg","postalCode":"56244","locality":"Steinen","municipality":{"key":"07143075","name":"Steinen","type":"Kreisangehörige_Gemeinde"},"district":{"key":"07143","name":"Westerwaldkreis","type":"Landkreis"},"federalState":{"key":"07","name":"Rheinland-Pfalz"}},{"name":"Kringstr.","postalCode":"71144","locality":"Steinenbronn","municipality":{"key":"08115046","name":"Steinenbronn","type":"Kreisangehörige_Gemeinde"},"district":{"key":"08115","name":"Böblingen","type":"Landkreis"},"federalState":{"key":"08","name":"Baden-Württemberg"}},{"name":"Laierstr.","postalCode":"79585","locality":"Steinen","municipality":{"key":"08336084","name":"Steinen","type":"Kreisangehörige_Gemeinde"},"district":{"key":"08336","name":"Lörrach","type":"Landkreis"},"federalState":{"key":"08","name":"Baden-Württemberg"}},{"name":"Landstr.","postalCode":"79585","locality":"Steinen","municipality":{"key":"08336084","name":"Steinen","type":"Kreisangehörige_Gemeinde"},"district":{"key":"08336","name":"Lörrach","type":"Landkreis"},"federalState":{"key":"08","name":"Baden-Württemberg"}},{"name":"Langmattweg","postalCode":"79585","locality":"Steinen","municipality":{"key":"08336084","name":"Steinen","type":"Kreisangehörige_Gemeinde"},"district":{"key":"08336","name":"Lörrach","type":"Landkreis"},"federalState":{"key":"08","name":"Baden-Württemberg"}},{"name":"Lärchenweg","postalCode":"79585","locality":"Steinen","municipality":{"key":"08336084","name":"Steinen","type":"Kreisangehörige_Gemeinde"},"district":{"key":"08336","name":"Lörrach","type":"Landkreis"},"federalState":{"key":"08","name":"Baden-Württemberg"}},{"name":"Lehnackergrabenweg","postalCode":"79585","locality":"Steinen","municipality":{"key":"08336084","name":"Steinen","type":"Kreisangehörige_Gemeinde"},"district":{"key":"08336","name":"Lörrach","type":"Landkreis"},"federalState":{"key":"08","name":"Baden-Württemberg"}},{"name":"Lerchenstr.","postalCode":"71144","locality":"Steinenbronn","municipality":{"key":"08115046","name":"Steinenbronn","type":"Kreisangehörige_Gemeinde"},"district":{"key":"08115","name":"Böblingen","type":"Landkreis"},"federalState":{"key":"08","name":"Baden-Württemberg"}},{"name":"Lettenweg","postalCode":"79585","locality":"Steinen","municipality":{"key":"08336084","name":"Steinen","type":"Kreisangehörige_Gemeinde"},"district":{"key":"08336","name":"Lörrach","type":"Landkreis"},"federalState":{"key":"08","name":"Baden-Württemberg"}},{"name":"Lieberweg","postalCode":"79585","locality":"Steinen","municipality":{"key":"08336084","name":"Steinen","type":"Kreisangehörige_Gemeinde"},"district":{"key":"08336","name":"Lörrach","type":"Landkreis"},"federalState":{"key":"08","name":"Baden-Württemberg"}},{"name":"Lindenstr.","postalCode":"56244","locality":"Steinen","municipality":{"key":"07143075","name":"Steinen","type":"Kreisangehörige_Gemeinde"},"district":{"key":"07143","name":"Westerwaldkreis","type":"Landkreis"},"federalState":{"key":"07","name":"Rheinland-Pfalz"}},{"name":"Lindenstr.","postalCode":"71144","locality":"Steinenbronn","municipality":{"key":"08115046","name":"Steinenbronn","type":"Kreisangehörige_Gemeinde"},"district":{"key":"08115","name":"Böblingen","type":"Landkreis"},"federalState":{"key":"08","name":"Baden-Württemberg"}},{"name":"Lindenstr.","postalCode":"79585","locality":"Steinen","municipality":{"key":"08336084","name":"Steinen","type":"Kreisangehörige_Gemeinde"},"district":{"key":"08336","name":"Lörrach","type":"Landkreis"},"federalState":{"key":"08","name":"Baden-Württemberg"}},{"name":"Löchleweg","postalCode":"79585","locality":"Steinen","municipality":{"key":"08336084","name":"Steinen","type":"Kreisangehörige_Gemeinde"},"district":{"key":"08336","name":"Lörrach","type":"Landkreis"},"federalState":{"key":"08","name":"Baden-Württemberg"}},{"name":"Lörracher Str.","postalCode":"79585","locality":"Steinen","municipality":{"key":"08336084","name":"Steinen","type":"Kreisangehörige_Gemeinde"},"district":{"key":"08336","name":"Lörrach","type":"Landkreis"},"federalState":{"key":"08","name":"Baden-Württemberg"}},{"name":"Luchskammerweg","postalCode":"79585","locality":"Steinen","municipality":{"key":"08336084","name":"Steinen","type":"Kreisangehörige_Gemeinde"},"district":{"key":"08336","name":"Lörrach","type":"Landkreis"},"federalState":{"key":"08","name":"Baden-Württemberg"}},{"name":"Ludwigstr.","postalCode":"71144","locality":"Steinenbronn","municipality":{"key":"08115046","name":"Steinenbronn","type":"Kreisangehörige_Gemeinde"},"district":{"key":"08115","name":"Böblingen","type":"Landkreis"},"federalState":{"key":"08","name":"Baden-Württemberg"}},{"name":"Marktstr.","postalCode":"56244","locality":"Steinen","municipality":{"key":"07143075","name":"Steinen","type":"Kreisangehörige_Gemeinde"},"district":{"key":"07143","name":"Westerwaldkreis","type":"Landkreis"},"federalState":{"key":"07","name":"Rheinland-Pfalz"}},{"name":"Marktstr.","postalCode":"79585","locality":"Steinen","municipality":{"key":"08336084","name":"Steinen","type":"Kreisangehörige_Gemeinde"},"district":{"key":"08336","name":"Lörrach","type":"Landkreis"},"federalState":{"key":"08","name":"Baden-Württemberg"}},{"name":"Mattenweg","postalCode":"79585","locality":"Steinen","municipality":{"key":"08336084","name":"Steinen","type":"Kreisangehörige_Gemeinde"},"district":{"key":"08336","name":"Lörrach","type":"Landkreis"},"federalState":{"key":"08","name":"Baden-Württemberg"}},{"name":"Maulburger Str.","postalCode":"79585","locality":"Steinen","municipality":{"key":"08336084","name":"Steinen","type":"Kreisangehörige_Gemeinde"},"district":{"key":"08336","name":"Lörrach","type":"Landkreis"},"federalState":{"key":"08","name":"Baden-Württemberg"}},{"name":"Max-Eyth-Str.","postalCode":"71144","locality":"Steinenbronn","municipality":{"key":"08115046","name":"Steinenbronn","type":"Kreisangehörige_Gemeinde"},"district":{"key":"08115","name":"Böblingen","type":"Landkreis"},"federalState":{"key":"08","name":"Baden-Württemberg"}},{"name":"Meisenweg","postalCode":"71144","locality":"Steinenbronn","municipality":{"key":"08115046","name":"Steinenbronn","type":"Kreisangehörige_Gemeinde"},"district":{"key":"08115","name":"Böblingen","type":"Landkreis"},"federalState":{"key":"08","name":"Baden-Württemberg"}},{"name":"Merianstr.","postalCode":"79585","locality":"Steinen","municipality":{"key":"08336084","name":"Steinen","type":"Kreisangehörige_Gemeinde"},"district":{"key":"08336","name":"Lörrach","type":"Landkreis"},"federalState":{"key":"08","name":"Baden-Württemberg"}},{"name":"Mittlere Dorfstr.","postalCode":"79585","locality":"Steinen","municipality":{"key":"08336084","name":"Steinen","type":"Kreisangehörige_Gemeinde"},"district":{"key":"08336","name":"Lörrach","type":"Landkreis"},"federalState":{"key":"08","name":"Baden-Württemberg"}},{"name":"Mittlerer Hauptweg","postalCode":"79585","locality":"Steinen","municipality":{"key":"08336084","name":"Steinen","type":"Kreisangehörige_Gemeinde"},"district":{"key":"08336","name":"Lörrach","type":"Landkreis"},"federalState":{"key":"08","name":"Baden-Württemberg"}},{"name":"Möhringer Str.","postalCode":"71144","locality":"Steinenbronn","municipality":{"key":"08115046","name":"Steinenbronn","type":"Kreisangehörige_Gemeinde"},"district":{"key":"08115","name":"Böblingen","type":"Landkreis"},"federalState":{"key":"08","name":"Baden-Württemberg"}},{"name":"Moosmattweg","postalCode":"79585","locality":"Steinen","municipality":{"key":"08336084","name":"Steinen","type":"Kreisangehörige_Gemeinde"},"district":{"key":"08336","name":"Lörrach","type":"Landkreis"},"federalState":{"key":"08","name":"Baden-Württemberg"}},{"name":"Mühlematten","postalCode":"79585","locality":"Steinen","municipality":{"key":"08336084","name":"Steinen","type":"Kreisangehörige_Gemeinde"},"district":{"key":"08336","name":"Lörrach","type":"Landkreis"},"federalState":{"key":"08","name":"Baden-Württemberg"}},{"name":"Mühlenweg","postalCode":"79585","locality":"Steinen","municipality":{"key":"08336084","name":"Steinen","type":"Kreisangehörige_Gemeinde"},"district":{"key":"08336","name":"Lörrach","type":"Landkreis"},"federalState":{"key":"08","name":"Baden-Württemberg"}},{"name":"Musberger Str.","postalCode":"71144","locality":"Steinenbronn","municipality":{"key":"08115046","name":"Steinenbronn","type":"Kreisangehörige_Gemeinde"},"district":{"key":"08115","name":"Böblingen","type":"Landkreis"},"federalState":{"key":"08","name":"Baden-Württemberg"}},{"name":"Nelkenweg","postalCode":"71144","locality":"Steinenbronn","municipality":{"key":"08115046","name":"Steinenbronn","type":"Kreisangehörige_Gemeinde"},"district":{"key":"08115","name":"Böblingen","type":"Landkreis"},"federalState":{"key":"08","name":"Baden-Württemberg"}},{"name":"Neuer Weg","postalCode":"79585","locality":"Steinen","municipality":{"key":"08336084","name":"Steinen","type":"Kreisangehörige_Gemeinde"},"district":{"key":"08336","name":"Lörrach","type":"Landkreis"},"federalState":{"key":"08","name":"Baden-Württemberg"}},{"name":"Neuestr.","postalCode":"79585","locality":"Steinen","municipality":{"key":"08336084","name":"Steinen","type":"Kreisangehörige_Gemeinde"},"district":{"key":"08336","name":"Lörrach","type":"Landkreis"},"federalState":{"key":"08","name":"Baden-Württemberg"}},{"name":"Neuffenstr.","postalCode":"71144","locality":"Steinenbronn","municipality":{"key":"08115046","name":"Steinenbronn","type":"Kreisangehörige_Gemeinde"},"district":{"key":"08115","name":"Böblingen","type":"Landkreis"},"federalState":{"key":"08","name":"Baden-Württemberg"}},{"name":"Neumattstr.","postalCode":"79585","locality":"Steinen","municipality":{"key":"08336084","name":"Steinen","type":"Kreisangehörige_Gemeinde"},"district":{"key":"08336","name":"Lörrach","type":"Landkreis"},"federalState":{"key":"08","name":"Baden-Württemberg"}},{"name":"Neuteichstr.","postalCode":"79585","locality":"Steinen","municipality":{"key":"08336084","name":"Steinen","type":"Kreisangehörige_Gemeinde"},"district":{"key":"08336","name":"Lörrach","type":"Landkreis"},"federalState":{"key":"08","name":"Baden-Württemberg"}},{"name":"Niederhaldenweg","postalCode":"79585","locality":"Steinen","municipality":{"key":"08336084","name":"Steinen","type":"Kreisangehörige_Gemeinde"},"district":{"key":"08336","name":"Lörrach","type":"Landkreis"},"federalState":{"key":"08","name":"Baden-Württemberg"}},{"name":"Nordstr.","postalCode":"56244","locality":"Steinen","municipality":{"key":"07143075","name":"Steinen","type":"Kreisangehörige_Gemeinde"},"district":{"key":"07143","name":"Westerwaldkreis","type":"Landkreis"},"federalState":{"key":"07","name":"Rheinland-Pfalz"}},{"name":"Oberer Bannweg","postalCode":"79585","locality":"Steinen","municipality":{"key":"08336084","name":"Steinen","type":"Kreisangehörige_Gemeinde"},"district":{"key":"08336","name":"Lörrach","type":"Landkreis"},"federalState":{"key":"08","name":"Baden-Württemberg"}},{"name":"Oberer Glaserbergweg","postalCode":"79585","locality":"Steinen","municipality":{"key":"08336084","name":"Steinen","type":"Kreisangehörige_Gemeinde"},"district":{"key":"08336","name":"Lörrach","type":"Landkreis"},"federalState":{"key":"08","name":"Baden-Württemberg"}},{"name":"Oberer Hauptweg","postalCode":"79585","locality":"Steinen","municipality":{"key":"08336084","name":"Steinen","type":"Kreisangehörige_Gemeinde"},"district":{"key":"08336","name":"Lörrach","type":"Landkreis"},"federalState":{"key":"08","name":"Baden-Württemberg"}},{"name":"Oberer Heidenweg","postalCode":"79585","locality":"Steinen","municipality":{"key":"08336084","name":"Steinen","type":"Kreisangehörige_Gemeinde"},"district":{"key":"08336","name":"Lörrach","type":"Landkreis"},"federalState":{"key":"08","name":"Baden-Württemberg"}},{"name":"Oberer Scheinbergweg","postalCode":"79585","locality":"Steinen","municipality":{"key":"08336084","name":"Steinen","type":"Kreisangehörige_Gemeinde"},"district":{"key":"08336","name":"Lörrach","type":"Landkreis"},"federalState":{"key":"08","name":"Baden-Württemberg"}},{"name":"Oberer Stühleweg","postalCode":"79585","locality":"Steinen","municipality":{"key":"08336084","name":"Steinen","type":"Kreisangehörige_Gemeinde"},"district":{"key":"08336","name":"Lörrach","type":"Landkreis"},"federalState":{"key":"08","name":"Baden-Württemberg"}},{"name":"Oskar-Sänger-Str.","postalCode":"79585","locality":"Steinen","municipality":{"key":"08336084","name":"Steinen","type":"Kreisangehörige_Gemeinde"},"district":{"key":"08336","name":"Lörrach","type":"Landkreis"},"federalState":{"key":"08","name":"Baden-Württemberg"}},{"name":"Ottermoosweg","postalCode":"79585","locality":"Steinen","municipality":{"key":"08336084","name":"Steinen","type":"Kreisangehörige_Gemeinde"},"district":{"key":"08336","name":"Lörrach","type":"Landkreis"},"federalState":{"key":"08","name":"Baden-Württemberg"}},{"name":"Petersäcker","postalCode":"71144","locality":"Steinenbronn","municipality":{"key":"08115046","name":"Steinenbronn","type":"Kreisangehörige_Gemeinde"},"district":{"key":"08115","name":"Böblingen","type":"Landkreis"},"federalState":{"key":"08","name":"Baden-Württemberg"}},{"name":"Peterswaldweg","postalCode":"79585","locality":"Steinen","municipality":{"key":"08336084","name":"Steinen","type":"Kreisangehörige_Gemeinde"},"district":{"key":"08336","name":"Lörrach","type":"Landkreis"},"federalState":{"key":"08","name":"Baden-Württemberg"}},{"name":"Pfaffenkopfhaldenweg","postalCode":"79585","locality":"Steinen","municipality":{"key":"08336084","name":"Steinen","type":"Kreisangehörige_Gemeinde"},"district":{"key":"08336","name":"Lörrach","type":"Landkreis"},"federalState":{"key":"08","name":"Baden-Württemberg"}},{"name":"Pfarrgärtenweg","postalCode":"71144","locality":"Steinenbronn","municipality":{"key":"08115046","name":"Steinenbronn","type":"Kreisangehörige_Gemeinde"},"district":{"key":"08115","name":"Böblingen","type":"Landkreis"},"federalState":{"key":"08","name":"Baden-Württemberg"}},{"name":"Platzrütteweg","postalCode":"79585","locality":"Steinen","municipality":{"key":"08336084","name":"Steinen","type":"Kreisangehörige_Gemeinde"},"district":{"key":"08336","name":"Lörrach","type":"Landkreis"},"federalState":{"key":"08","name":"Baden-Württemberg"}},{"name":"Plieninger Str.","postalCode":"71144","locality":"Steinenbronn","municipality":{"key":"08115046","name":"Steinenbronn","type":"Kreisangehörige_Gemeinde"},"district":{"key":"08115","name":"Böblingen","type":"Landkreis"},"federalState":{"key":"08","name":"Baden-Württemberg"}},{"name":"Preiserweg","postalCode":"79585","locality":"Steinen","municipality":{"key":"08336084","name":"Steinen","type":"Kreisangehörige_Gemeinde"},"district":{"key":"08336","name":"Lörrach","type":"Landkreis"},"federalState":{"key":"08","name":"Baden-Württemberg"}},{"name":"Rapunzelweg","postalCode":"71144","locality":"Steinenbronn","municipality":{"key":"08115046","name":"Steinenbronn","type":"Kreisangehörige_Gemeinde"},"district":{"key":"08115","name":"Böblingen","type":"Landkreis"},"federalState":{"key":"08","name":"Baden-Württemberg"}},{"name":"Rathausstr.","postalCode":"79585","locality":"Steinen","municipality":{"key":"08336084","name":"Steinen","type":"Kreisangehörige_Gemeinde"},"district":{"key":"08336","name":"Lörrach","type":"Landkreis"},"federalState":{"key":"08","name":"Baden-Württemberg"}},{"name":"Rebweg","postalCode":"79585","locality":"Steinen","municipality":{"key":"08336084","name":"Steinen","type":"Kreisangehörige_Gemeinde"},"district":{"key":"08336","name":"Lörrach","type":"Landkreis"},"federalState":{"key":"08","name":"Baden-Württemberg"}},{"name":"Rechbergstr.","postalCode":"79585","locality":"Steinen","municipality":{"key":"08336084","name":"Steinen","type":"Kreisangehörige_Gemeinde"},"district":{"key":"08336","name":"Lörrach","type":"Landkreis"},"federalState":{"key":"08","name":"Baden-Württemberg"}},{"name":"Reifhalde","postalCode":"79585","locality":"Steinen","municipality":{"key":"08336084","name":"Steinen","type":"Kreisangehörige_Gemeinde"},"district":{"key":"08336","name":"Lörrach","type":"Landkreis"},"federalState":{"key":"08","name":"Baden-Württemberg"}},{"name":"Riegelmattweg","postalCode":"79585","locality":"Steinen","municipality":{"key":"08336084","name":"Steinen","type":"Kreisangehörige_Gemeinde"},"district":{"key":"08336","name":"Lörrach","type":"Landkreis"},"federalState":{"key":"08","name":"Baden-Württemberg"}},{"name":"Rinnbergweg","postalCode":"79585","locality":"Steinen","municipality":{"key":"08336084","name":"Steinen","type":"Kreisangehörige_Gemeinde"},"district":{"key":"08336","name":"Lörrach","type":"Landkreis"},"federalState":{"key":"08","name":"Baden-Württemberg"}},{"name":"Robert-Bosch-Str.","postalCode":"71144","locality":"Steinenbronn","municipality":{"key":"08115046","name":"Steinenbronn","type":"Kreisangehörige_Gemeinde"},"district":{"key":"08115","name":"Böblingen","type":"Landkreis"},"federalState":{"key":"08","name":"Baden-Württemberg"}},{"name":"Robert-Bosch-Str.","postalCode":"79585","locality":"Steinen","municipality":{"key":"08336084","name":"Steinen","type":"Kreisangehörige_Gemeinde"},"district":{"key":"08336","name":"Lörrach","type":"Landkreis"},"federalState":{"key":"08","name":"Baden-Württemberg"}},{"name":"Roggenstudweg","postalCode":"79585","locality":"Steinen","municipality":{"key":"08336084","name":"Steinen","type":"Kreisangehörige_Gemeinde"},"district":{"key":"08336","name":"Lörrach","type":"Landkreis"},"federalState":{"key":"08","name":"Baden-Württemberg"}},{"name":"Rohrer Str.","postalCode":"71144","locality":"Steinenbronn","municipality":{"key":"08115046","name":"Steinenbronn","type":"Kreisangehörige_Gemeinde"},"district":{"key":"08115","name":"Böblingen","type":"Landkreis"},"federalState":{"key":"08","name":"Baden-Württemberg"}},{"name":"Römerstr.","postalCode":"71144","locality":"Steinenbronn","municipality":{"key":"08115046","name":"Steinenbronn","type":"Kreisangehörige_Gemeinde"},"district":{"key":"08115","name":"Böblingen","type":"Landkreis"},"federalState":{"key":"08","name":"Baden-Württemberg"}},{"name":"Rosenstr.","postalCode":"71144","locality":"Steinenbronn","municipality":{"key":"08115046","name":"Steinenbronn","type":"Kreisangehörige_Gemeinde"},"district":{"key":"08115","name":"Böblingen","type":"Landkreis"},"federalState":{"key":"08","name":"Baden-Württemberg"}},{"name":"Rotkäppchenweg","postalCode":"71144","locality":"Steinenbronn","municipality":{"key":"08115046","name":"Steinenbronn","type":"Kreisangehörige_Gemeinde"},"district":{"key":"08115","name":"Böblingen","type":"Landkreis"},"federalState":{"key":"08","name":"Baden-Württemberg"}},{"name":"Rotstauden","postalCode":"79585","locality":"Steinen","municipality":{"key":"08336084","name":"Steinen","type":"Kreisangehörige_Gemeinde"},"district":{"key":"08336","name":"Lörrach","type":"Landkreis"},"federalState":{"key":"08","name":"Baden-Württemberg"}},{"name":"Röttelnblick","postalCode":"79585","locality":"Steinen","municipality":{"key":"08336084","name":"Steinen","type":"Kreisangehörige_Gemeinde"},"district":{"key":"08336","name":"Lörrach","type":"Landkreis"},"federalState":{"key":"08","name":"Baden-Württemberg"}},{"name":"Rotzlerstr.","postalCode":"79585","locality":"Steinen","municipality":{"key":"08336084","name":"Steinen","type":"Kreisangehörige_Gemeinde"},"district":{"key":"08336","name":"Lörrach","type":"Landkreis"},"federalState":{"key":"08","name":"Baden-Württemberg"}},{"name":"Rundweg","postalCode":"79585","locality":"Steinen","municipality":{"key":"08336084","name":"Steinen","type":"Kreisangehörige_Gemeinde"},"district":{"key":"08336","name":"Lörrach","type":"Landkreis"},"federalState":{"key":"08","name":"Baden-Württemberg"}},{"name":"Rütteleweg","postalCode":"79585","locality":"Steinen","municipality":{"key":"08336084","name":"Steinen","type":"Kreisangehörige_Gemeinde"},"district":{"key":"08336","name":"Lörrach","type":"Landkreis"},"federalState":{"key":"08","name":"Baden-Württemberg"}},{"name":"Saalenweg","postalCode":"79585","locality":"Steinen","municipality":{"key":"08336084","name":"Steinen","type":"Kreisangehörige_Gemeinde"},"district":{"key":"08336","name":"Lörrach","type":"Landkreis"},"federalState":{"key":"08","name":"Baden-Württemberg"}},{"name":"Sackweg","postalCode":"79585","locality":"Steinen","municipality":{"key":"08336084","name":"Steinen","type":"Kreisangehörige_Gemeinde"},"district":{"key":"08336","name":"Lörrach","type":"Landkreis"},"federalState":{"key":"08","name":"Baden-Württemberg"}},{"name":"Sägemattstr.","postalCode":"79585","locality":"Steinen","municipality":{"key":"08336084","name":"Steinen","type":"Kreisangehörige_Gemeinde"},"district":{"key":"08336","name":"Lörrach","type":"Landkreis"},"federalState":{"key":"08","name":"Baden-Württemberg"}},{"name":"Sandelweg","postalCode":"79585","locality":"Steinen","municipality":{"key":"08336084","name":"Steinen","type":"Kreisangehörige_Gemeinde"},"district":{"key":"08336","name":"Lörrach","type":"Landkreis"},"federalState":{"key":"08","name":"Baden-Württemberg"}},{"name":"Sandweg","postalCode":"79585","locality":"Steinen","municipality":{"key":"08336084","name":"Steinen","type":"Kreisangehörige_Gemeinde"},"district":{"key":"08336","name":"Lörrach","type":"Landkreis"},"federalState":{"key":"08","name":"Baden-Württemberg"}},{"name":"Schafgartenplatz","postalCode":"71144","locality":"Steinenbronn","municipality":{"key":"08115046","name":"Steinenbronn","type":"Kreisangehörige_Gemeinde"},"district":{"key":"08115","name":"Böblingen","type":"Landkreis"},"federalState":{"key":"08","name":"Baden-Württemberg"}},{"name":"Schafgartenstr.","postalCode":"71144","locality":"Steinenbronn","municipality":{"key":"08115046","name":"Steinenbronn","type":"Kreisangehörige_Gemeinde"},"district":{"key":"08115","name":"Böblingen","type":"Landkreis"},"federalState":{"key":"08","name":"Baden-Württemberg"}},{"name":"Scheffelstr.","postalCode":"79585","locality":"Steinen","municipality":{"key":"08336084","name":"Steinen","type":"Kreisangehörige_Gemeinde"},"district":{"key":"08336","name":"Lörrach","type":"Landkreis"},"federalState":{"key":"08","name":"Baden-Württemberg"}},{"name":"Scheideckstr.","postalCode":"79585","locality":"Steinen","municipality":{"key":"08336084","name":"Steinen","type":"Kreisangehörige_Gemeinde"},"district":{"key":"08336","name":"Lörrach","type":"Landkreis"},"federalState":{"key":"08","name":"Baden-Württemberg"}},{"name":"Scheinbergweg","postalCode":"79585","locality":"Steinen","municipality":{"key":"08336084","name":"Steinen","type":"Kreisangehörige_Gemeinde"},"district":{"key":"08336","name":"Lörrach","type":"Landkreis"},"federalState":{"key":"08","name":"Baden-Württemberg"}},{"name":"Schelmenwasenweg","postalCode":"71144","locality":"Steinenbronn","municipality":{"key":"08115046","name":"Steinenbronn","type":"Kreisangehörige_Gemeinde"},"district":{"key":"08115","name":"Böblingen","type":"Landkreis"},"federalState":{"key":"08","name":"Baden-Württemberg"}},{"name":"Schillerstr.","postalCode":"79585","locality":"Steinen","municipality":{"key":"08336084","name":"Steinen","type":"Kreisangehörige_Gemeinde"},"district":{"key":"08336","name":"Lörrach","type":"Landkreis"},"federalState":{"key":"08","name":"Baden-Württemberg"}},{"name":"Schillighof","postalCode":"79585","locality":"Steinen","municipality":{"key":"08336084","name":"Steinen","type":"Kreisangehörige_Gemeinde"},"district":{"key":"08336","name":"Lörrach","type":"Landkreis"},"federalState":{"key":"08","name":"Baden-Württemberg"}},{"name":"Schleifrainsträßchen","postalCode":"71144","locality":"Steinenbronn","municipality":{"key":"08115046","name":"Steinenbronn","type":"Kreisangehörige_Gemeinde"},"district":{"key":"08115","name":"Böblingen","type":"Landkreis"},"federalState":{"key":"08","name":"Baden-Württemberg"}},{"name":"Schloßstr.","postalCode":"79585","locality":"Steinen","municipality":{"key":"08336084","name":"Steinen","type":"Kreisangehörige_Gemeinde"},"district":{"key":"08336","name":"Lörrach","type":"Landkreis"},"federalState":{"key":"08","name":"Baden-Württemberg"}},{"name":"Schlötlebergweg","postalCode":"79585","locality":"Steinen","municipality":{"key":"08336084","name":"Steinen","type":"Kreisangehörige_Gemeinde"},"district":{"key":"08336","name":"Lörrach","type":"Landkreis"},"federalState":{"key":"08","name":"Baden-Württemberg"}},{"name":"Schlöttleweg","postalCode":"79585","locality":"Steinen","municipality":{"key":"08336084","name":"Steinen","type":"Kreisangehörige_Gemeinde"},"district":{"key":"08336","name":"Lörrach","type":"Landkreis"},"federalState":{"key":"08","name":"Baden-Württemberg"}},{"name":"Schneewittchenweg","postalCode":"71144","locality":"Steinenbronn","municipality":{"key":"08115046","name":"Steinenbronn","type":"Kreisangehörige_Gemeinde"},"district":{"key":"08115","name":"Böblingen","type":"Landkreis"},"federalState":{"key":"08","name":"Baden-Württemberg"}},{"name":"Schönaicher Str.","postalCode":"71144","locality":"Steinenbronn","municipality":{"key":"08115046","name":"Steinenbronn","type":"Kreisangehörige_Gemeinde"},"district":{"key":"08115","name":"Böblingen","type":"Landkreis"},"federalState":{"key":"08","name":"Baden-Württemberg"}},{"name":"Schönbuchweg","postalCode":"71144","locality":"Steinenbronn","municipality":{"key":"08115046","name":"Steinenbronn","type":"Kreisangehörige_Gemeinde"},"district":{"key":"08115","name":"Böblingen","type":"Landkreis"},"federalState":{"key":"08","name":"Baden-Württemberg"}},{"name":"Schornenweg","postalCode":"79585","locality":"Steinen","municipality":{"key":"08336084","name":"Steinen","type":"Kreisangehörige_Gemeinde"},"district":{"key":"08336","name":"Lörrach","type":"Landkreis"},"federalState":{"key":"08","name":"Baden-Württemberg"}},{"name":"Schrohmühleweg","postalCode":"79585","locality":"Steinen","municipality":{"key":"08336084","name":"Steinen","type":"Kreisangehörige_Gemeinde"},"district":{"key":"08336","name":"Lörrach","type":"Landkreis"},"federalState":{"key":"08","name":"Baden-Württemberg"}},{"name":"Schulgasse","postalCode":"79585","locality":"Steinen","municipality":{"key":"08336084","name":"Steinen","type":"Kreisangehörige_Gemeinde"},"district":{"key":"08336","name":"Lörrach","type":"Landkreis"},"federalState":{"key":"08","name":"Baden-Württemberg"}},{"name":"Schulstr.","postalCode":"71144","locality":"Steinenbronn","municipality":{"key":"08115046","name":"Steinenbronn","type":"Kreisangehörige_Gemeinde"},"district":{"key":"08115","name":"Böblingen","type":"Landkreis"},"federalState":{"key":"08","name":"Baden-Württemberg"}},{"name":"Schulstr.","postalCode":"79585","locality":"Steinen","municipality":{"key":"08336084","name":"Steinen","type":"Kreisangehörige_Gemeinde"},"district":{"key":"08336","name":"Lörrach","type":"Landkreis"},"federalState":{"key":"08","name":"Baden-Württemberg"}},{"name":"Schützenweg","postalCode":"79585","locality":"Steinen","municipality":{"key":"08336084","name":"Steinen","type":"Kreisangehörige_Gemeinde"},"district":{"key":"08336","name":"Lörrach","type":"Landkreis"},"federalState":{"key":"08","name":"Baden-Württemberg"}},{"name":"Schwandgrabenweg","postalCode":"79585","locality":"Steinen","municipality":{"key":"08336084","name":"Steinen","type":"Kreisangehörige_Gemeinde"},"district":{"key":"08336","name":"Lörrach","type":"Landkreis"},"federalState":{"key":"08","name":"Baden-Württemberg"}},{"name":"Schwemmerichweg","postalCode":"79585","locality":"Steinen","municipality":{"key":"08336084","name":"Steinen","type":"Kreisangehörige_Gemeinde"},"district":{"key":"08336","name":"Lörrach","type":"Landkreis"},"federalState":{"key":"08","name":"Baden-Württemberg"}},{"name":"Seestr.","postalCode":"71144","locality":"Steinenbronn","municipality":{"key":"08115046","name":"Steinenbronn","type":"Kreisangehörige_Gemeinde"},"district":{"key":"08115","name":"Böblingen","type":"Landkreis"},"federalState":{"key":"08","name":"Baden-Württemberg"}},{"name":"Seilerstr.","postalCode":"71144","locality":"Steinenbronn","municipality":{"key":"08115046","name":"Steinenbronn","type":"Kreisangehörige_Gemeinde"},"district":{"key":"08115","name":"Böblingen","type":"Landkreis"},"federalState":{"key":"08","name":"Baden-Württemberg"}},{"name":"Siemensstr.","postalCode":"79585","locality":"Steinen","municipality":{"key":"08336084","name":"Steinen","type":"Kreisangehörige_Gemeinde"},"district":{"key":"08336","name":"Lörrach","type":"Landkreis"},"federalState":{"key":"08","name":"Baden-Württemberg"}},{"name":"Silcherstr.","postalCode":"71144","locality":"Steinenbronn","municipality":{"key":"08115046","name":"Steinenbronn","type":"Kreisangehörige_Gemeinde"},"district":{"key":"08115","name":"Böblingen","type":"Landkreis"},"federalState":{"key":"08","name":"Baden-Württemberg"}},{"name":"Sindelfinger Str.","postalCode":"71144","locality":"Steinenbronn","municipality":{"key":"08115046","name":"Steinenbronn","type":"Kreisangehörige_Gemeinde"},"district":{"key":"08115","name":"Böblingen","type":"Landkreis"},"federalState":{"key":"08","name":"Baden-Württemberg"}},{"name":"Sohlweg","postalCode":"79585","locality":"Steinen","municipality":{"key":"08336084","name":"Steinen","type":"Kreisangehörige_Gemeinde"},"district":{"key":"08336","name":"Lörrach","type":"Landkreis"},"federalState":{"key":"08","name":"Baden-Württemberg"}},{"name":"Solwiesenweg","postalCode":"71144","locality":"Steinenbronn","municipality":{"key":"08115046","name":"Steinenbronn","type":"Kreisangehörige_Gemeinde"},"district":{"key":"08115","name":"Böblingen","type":"Landkreis"},"federalState":{"key":"08","name":"Baden-Württemberg"}},{"name":"Sonnenhalde","postalCode":"71144","locality":"Steinenbronn","municipality":{"key":"08115046","name":"Steinenbronn","type":"Kreisangehörige_Gemeinde"},"district":{"key":"08115","name":"Böblingen","type":"Landkreis"},"federalState":{"key":"08","name":"Baden-Württemberg"}},{"name":"Sonnenrain","postalCode":"79585","locality":"Steinen","municipality":{"key":"08336084","name":"Steinen","type":"Kreisangehörige_Gemeinde"},"district":{"key":"08336","name":"Lörrach","type":"Landkreis"},"federalState":{"key":"08","name":"Baden-Württemberg"}},{"name":"Sophienweg","postalCode":"71144","locality":"Steinenbronn","municipality":{"key":"08115046","name":"Steinenbronn","type":"Kreisangehörige_Gemeinde"},"district":{"key":"08115","name":"Böblingen","type":"Landkreis"},"federalState":{"key":"08","name":"Baden-Württemberg"}},{"name":"Spitzäckerweg","postalCode":"71144","locality":"Steinenbronn","municipality":{"key":"08115046","name":"Steinenbronn","type":"Kreisangehörige_Gemeinde"},"district":{"key":"08115","name":"Böblingen","type":"Landkreis"},"federalState":{"key":"08","name":"Baden-Württemberg"}},{"name":"Spitzweg","postalCode":"79585","locality":"Steinen","municipality":{"key":"08336084","name":"Steinen","type":"Kreisangehörige_Gemeinde"},"district":{"key":"08336","name":"Lörrach","type":"Landkreis"},"federalState":{"key":"08","name":"Baden-Württemberg"}},{"name":"Staltenweg","postalCode":"79585","locality":"Steinen","municipality":{"key":"08336084","name":"Steinen","type":"Kreisangehörige_Gemeinde"},"district":{"key":"08336","name":"Lörrach","type":"Landkreis"},"federalState":{"key":"08","name":"Baden-Württemberg"}},{"name":"Starenweg","postalCode":"71144","locality":"Steinenbronn","municipality":{"key":"08115046","name":"Steinenbronn","type":"Kreisangehörige_Gemeinde"},"district":{"key":"08115","name":"Böblingen","type":"Landkreis"},"federalState":{"key":"08","name":"Baden-Württemberg"}},{"name":"Steinackerweg","postalCode":"79585","locality":"Steinen","municipality":{"key":"08336084","name":"Steinen","type":"Kreisangehörige_Gemeinde"},"district":{"key":"08336","name":"Lörrach","type":"Landkreis"},"federalState":{"key":"08","name":"Baden-Württemberg"}},{"name":"Steinemer Alsbachweg","postalCode":"79585","locality":"Steinen","municipality":{"key":"08336084","name":"Steinen","type":"Kreisangehörige_Gemeinde"},"district":{"key":"08336","name":"Lörrach","type":"Landkreis"},"federalState":{"key":"08","name":"Baden-Württemberg"}},{"name":"Steinenbergweg","postalCode":"71144","locality":"Steinenbronn","municipality":{"key":"08115046","name":"Steinenbronn","type":"Kreisangehörige_Gemeinde"},"district":{"key":"08115","name":"Böblingen","type":"Landkreis"},"federalState":{"key":"08","name":"Baden-Württemberg"}},{"name":"Steinenbergweg","postalCode":"79585","locality":"Steinen","municipality":{"key":"08336084","name":"Steinen","type":"Kreisangehörige_Gemeinde"},"district":{"key":"08336","name":"Lörrach","type":"Landkreis"},"federalState":{"key":"08","name":"Baden-Württemberg"}},{"name":"Sterntalerweg","postalCode":"71144","locality":"Steinenbronn","municipality":{"key":"08115046","name":"Steinenbronn","type":"Kreisangehörige_Gemeinde"},"district":{"key":"08115","name":"Böblingen","type":"Landkreis"},"federalState":{"key":"08","name":"Baden-Württemberg"}},{"name":"Stoffelbergweg","postalCode":"79585","locality":"Steinen","municipality":{"key":"08336084","name":"Steinen","type":"Kreisangehörige_Gemeinde"},"district":{"key":"08336","name":"Lörrach","type":"Landkreis"},"federalState":{"key":"08","name":"Baden-Württemberg"}},{"name":"Strohmühleweg","postalCode":"79585","locality":"Steinen","municipality":{"key":"08336084","name":"Steinen","type":"Kreisangehörige_Gemeinde"},"district":{"key":"08336","name":"Lörrach","type":"Landkreis"},"federalState":{"key":"08","name":"Baden-Württemberg"}},{"name":"Stuttgarter Str.","postalCode":"71144","locality":"Steinenbronn","municipality":{"key":"08115046","name":"Steinenbronn","type":"Kreisangehörige_Gemeinde"},"district":{"key":"08115","name":"Böblingen","type":"Landkreis"},"federalState":{"key":"08","name":"Baden-Württemberg"}},{"name":"Talstr.","postalCode":"71144","locality":"Steinenbronn","municipality":{"key":"08115046","name":"Steinenbronn","type":"Kreisangehörige_Gemeinde"},"district":{"key":"08115","name":"Böblingen","type":"Landkreis"},"federalState":{"key":"08","name":"Baden-Württemberg"}},{"name":"Talstr.","postalCode":"79585","locality":"Steinen","municipality":{"key":"08336084","name":"Steinen","type":"Kreisangehörige_Gemeinde"},"district":{"key":"08336","name":"Lörrach","type":"Landkreis"},"federalState":{"key":"08","name":"Baden-Württemberg"}},{"name":"Tannenwaldhangsträßchen","postalCode":"71144","locality":"Steinenbronn","municipality":{"key":"08115046","name":"Steinenbronn","type":"Kreisangehörige_Gemeinde"},"district":{"key":"08115","name":"Böblingen","type":"Landkreis"},"federalState":{"key":"08","name":"Baden-Württemberg"}},{"name":"Tannrütteweg","postalCode":"79585","locality":"Steinen","municipality":{"key":"08336084","name":"Steinen","type":"Kreisangehörige_Gemeinde"},"district":{"key":"08336","name":"Lörrach","type":"Landkreis"},"federalState":{"key":"08","name":"Baden-Württemberg"}},{"name":"Teckstr.","postalCode":"71144","locality":"Steinenbronn","municipality":{"key":"08115046","name":"Steinenbronn","type":"Kreisangehörige_Gemeinde"},"district":{"key":"08115","name":"Böblingen","type":"Landkreis"},"federalState":{"key":"08","name":"Baden-Württemberg"}},{"name":"Teichweg","postalCode":"79585","locality":"Steinen","municipality":{"key":"08336084","name":"Steinen","type":"Kreisangehörige_Gemeinde"},"district":{"key":"08336","name":"Lörrach","type":"Landkreis"},"federalState":{"key":"08","name":"Baden-Württemberg"}},{"name":"Tübinger Str.","postalCode":"71144","locality":"Steinenbronn","municipality":{"key":"08115046","name":"Steinenbronn","type":"Kreisangehörige_Gemeinde"},"district":{"key":"08115","name":"Böblingen","type":"Landkreis"},"federalState":{"key":"08","name":"Baden-Württemberg"}},{"name":"Tulpenweg","postalCode":"71144","locality":"Steinenbronn","municipality":{"key":"08115046","name":"Steinenbronn","type":"Kreisangehörige_Gemeinde"},"district":{"key":"08115","name":"Böblingen","type":"Landkreis"},"federalState":{"key":"08","name":"Baden-Württemberg"}},{"name":"Uhlandstr.","postalCode":"71144","locality":"Steinenbronn","municipality":{"key":"08115046","name":"Steinenbronn","type":"Kreisangehörige_Gemeinde"},"district":{"key":"08115","name":"Böblingen","type":"Landkreis"},"federalState":{"key":"08","name":"Baden-Württemberg"}},{"name":"Umgehungsstr.","postalCode":"71144","locality":"Steinenbronn","municipality":{"key":"08115046","name":"Steinenbronn","type":"Kreisangehörige_Gemeinde"},"district":{"key":"08115","name":"Böblingen","type":"Landkreis"},"federalState":{"key":"08","name":"Baden-Württemberg"}},{"name":"Untere Dorfstr.","postalCode":"79585","locality":"Steinen","municipality":{"key":"08336084","name":"Steinen","type":"Kreisangehörige_Gemeinde"},"district":{"key":"08336","name":"Lörrach","type":"Landkreis"},"federalState":{"key":"08","name":"Baden-Württemberg"}},{"name":"Untere Rauhmühle","postalCode":"71144","locality":"Steinenbronn","municipality":{"key":"08115046","name":"Steinenbronn","type":"Kreisangehörige_Gemeinde"},"district":{"key":"08115","name":"Böblingen","type":"Landkreis"},"federalState":{"key":"08","name":"Baden-Württemberg"}},{"name":"Unterer Glaserbergweg","postalCode":"79585","locality":"Steinen","municipality":{"key":"08336084","name":"Steinen","type":"Kreisangehörige_Gemeinde"},"district":{"key":"08336","name":"Lörrach","type":"Landkreis"},"federalState":{"key":"08","name":"Baden-Württemberg"}},{"name":"Unterer Hauptweg","postalCode":"79585","locality":"Steinen","municipality":{"key":"08336084","name":"Steinen","type":"Kreisangehörige_Gemeinde"},"district":{"key":"08336","name":"Lörrach","type":"Landkreis"},"federalState":{"key":"08","name":"Baden-Württemberg"}},{"name":"Unterer Heidenweg","postalCode":"79585","locality":"Steinen","municipality":{"key":"08336084","name":"Steinen","type":"Kreisangehörige_Gemeinde"},"district":{"key":"08336","name":"Lörrach","type":"Landkreis"},"federalState":{"key":"08","name":"Baden-Württemberg"}},{"name":"Unterer Stühleweg","postalCode":"79585","locality":"Steinen","municipality":{"key":"08336084","name":"Steinen","type":"Kreisangehörige_Gemeinde"},"district":{"key":"08336","name":"Lörrach","type":"Landkreis"},"federalState":{"key":"08","name":"Baden-Württemberg"}},{"name":"Vaihinger Str.","postalCode":"71144","locality":"Steinenbronn","municipality":{"key":"08115046","name":"Steinenbronn","type":"Kreisangehörige_Gemeinde"},"district":{"key":"08115","name":"Böblingen","type":"Landkreis"},"federalState":{"key":"08","name":"Baden-Württemberg"}},{"name":"Waldenbucher Weg","postalCode":"71144","locality":"Steinenbronn","municipality":{"key":"08115046","name":"Steinenbronn","type":"Kreisangehörige_Gemeinde"},"district":{"key":"08115","name":"Böblingen","type":"Landkreis"},"federalState":{"key":"08","name":"Baden-Württemberg"}},{"name":"Waldstr.","postalCode":"79585","locality":"Steinen","municipality":{"key":"08336084","name":"Steinen","type":"Kreisangehörige_Gemeinde"},"district":{"key":"08336","name":"Lörrach","type":"Landkreis"},"federalState":{"key":"08","name":"Baden-Württemberg"}},{"name":"Walligrabenweg","postalCode":"79585","locality":"Steinen","municipality":{"key":"08336084","name":"Steinen","type":"Kreisangehörige_Gemeinde"},"district":{"key":"08336","name":"Lörrach","type":"Landkreis"},"federalState":{"key":"08","name":"Baden-Württemberg"}},{"name":"Wasenweg","postalCode":"79585","locality":"Steinen","municipality":{"key":"08336084","name":"Steinen","type":"Kreisangehörige_Gemeinde"},"district":{"key":"08336","name":"Lörrach","type":"Landkreis"},"federalState":{"key":"08","name":"Baden-Württemberg"}},{"name":"Weiler Weg","postalCode":"71144","locality":"Steinenbronn","municipality":{"key":"08115046","name":"Steinenbronn","type":"Kreisangehörige_Gemeinde"},"district":{"key":"08115","name":"Böblingen","type":"Landkreis"},"federalState":{"key":"08","name":"Baden-Württemberg"}},{"name":"Wiedacker","postalCode":"79585","locality":"Steinen","municipality":{"key":"08336084","name":"Steinen","type":"Kreisangehörige_Gemeinde"},"district":{"key":"08336","name":"Lörrach","type":"Landkreis"},"federalState":{"key":"08","name":"Baden-Württemberg"}},{"name":"Wiederspanweg","postalCode":"79585","locality":"Steinen","municipality":{"key":"08336084","name":"Steinen","type":"Kreisangehörige_Gemeinde"},"district":{"key":"08336","name":"Lörrach","type":"Landkreis"},"federalState":{"key":"08","name":"Baden-Württemberg"}},{"name":"Wiesenstr.","postalCode":"56244","locality":"Steinen","municipality":{"key":"07143075","name":"Steinen","type":"Kreisangehörige_Gemeinde"},"district":{"key":"07143","name":"Westerwaldkreis","type":"Landkreis"},"federalState":{"key":"07","name":"Rheinland-Pfalz"}},{"name":"Wiesenstr.","postalCode":"71144","locality":"Steinenbronn","municipality":{"key":"08115046","name":"Steinenbronn","type":"Kreisangehörige_Gemeinde"},"district":{"key":"08115","name":"Böblingen","type":"Landkreis"},"federalState":{"key":"08","name":"Baden-Württemberg"}},{"name":"Wiesenstr.","postalCode":"79585","locality":"Steinen","municipality":{"key":"08336084","name":"Steinen","type":"Kreisangehörige_Gemeinde"},"district":{"key":"08336","name":"Lörrach","type":"Landkreis"},"federalState":{"key":"08","name":"Baden-Württemberg"}},{"name":"Wiesentalweg","postalCode":"79585","locality":"Steinen","municipality":{"key":"08336084","name":"Steinen","type":"Kreisangehörige_Gemeinde"},"district":{"key":"08336","name":"Lörrach","type":"Landkreis"},"federalState":{"key":"08","name":"Baden-Württemberg"}},{"name":"Wolfischbühlweg","postalCode":"79585","locality":"Steinen","municipality":{"key":"08336084","name":"Steinen","type":"Kreisangehörige_Gemeinde"},"district":{"key":"08336","name":"Lörrach","type":"Landkreis"},"federalState":{"key":"08","name":"Baden-Württemberg"}},{"name":"Zeppelinstr.","postalCode":"71144","locality":"Steinenbronn","municipality":{"key":"08115046","name":"Steinenbronn","type":"Kreisangehörige_Gemeinde"},"district":{"key":"08115","name":"Böblingen","type":"Landkreis"},"federalState":{"key":"08","name":"Baden-Württemberg"}},{"name":"Zeppelinstr.","postalCode":"79585","locality":"Steinen","municipality":{"key":"08336084","name":"Steinen","type":"Kreisangehörige_Gemeinde"},"district":{"key":"08336","name":"Lörrach","type":"Landkreis"},"federalState":{"key":"08","name":"Baden-Württemberg"}},{"name":"Zieglerstr.","postalCode":"71144","locality":"Steinenbronn","municipality":{"key":"08115046","name":"Steinenbronn","type":"Kreisangehörige_Gemeinde"},"district":{"key":"08115","name":"Böblingen","type":"Landkreis"},"federalState":{"key":"08","name":"Baden-Württemberg"}},{"name":"Zinsackerweg","postalCode":"79585","locality":"Steinen","municipality":{"key":"08336084","name":"Steinen","type":"Kreisangehörige_Gemeinde"},"district":{"key":"08336","name":"Lörrach","type":"Landkreis"},"federalState":{"key":"08","name":"Baden-Württemberg"}},{"name":"Zollernweg","postalCode":"71144","locality":"Steinenbronn","municipality":{"key":"08115046","name":"Steinenbronn","type":"Kreisangehörige_Gemeinde"},"district":{"key":"08115","name":"Böblingen","type":"Landkreis"},"federalState":{"key":"08","name":"Baden-Württemberg"}},{"name":"Zur Schönen Aussicht","postalCode":"79585","locality":"Steinen","municipality":{"key":"08336084","name":"Steinen","type":"Kreisangehörige_Gemeinde"},"district":{"key":"08336","name":"Lörrach","type":"Landkreis"},"federalState":{"key":"08","name":"Baden-Württemberg"}},{"name":"Zwerweg","postalCode":"79585","locality":"Steinen","municipality":{"key":"08336084","name":"Steinen","type":"Kreisangehörige_Gemeinde"},"district":{"key":"08336","name":"Lörrach","type":"Landkreis"},"federalState":{"key":"08","name":"Baden-Württemberg"}},{"name":"Zwischen den Wegen","postalCode":"79585","locality":"Steinen","municipality":{"key":"08336084","name":"Steinen","type":"Kreisangehörige_Gemeinde"},"district":{"key":"08336","name":"Lörrach","type":"Landkreis"},"federalState":{"key":"08","name":"Baden-Württemberg"}},{"name":"Ötlinger Str.","postalCode":"79539","locality":"Lörrach","municipality":{"key":"08336050","name":"Lörrach, Stadt","type":"Große_Kreisstadt"},"district":{"key":"08336","name":"Lörrach","type":"Landkreis"},"federalState":{"key":"08","name":"Baden-Württemberg"}},{"name":"Über der Wiese","postalCode":"79540","locality":"Lörrach","municipality":{"key":"08336050","name":"Lörrach, Stadt","type":"Große_Kreisstadt"},"district":{"key":"08336","name":"Lörrach","type":"Landkreis"},"federalState":{"key":"08","name":"Baden-Württemberg"}},]