[{"name":"Ahornweg","postalCode":"95517","locality":"Seybothenreuth","municipality":{"key":"09472188","name":"Seybothenreuth","type":"Kreisangehörige_Gemeinde"},"district":{"key":"09472","name":"Bayreuth","type":"Landkreis"},"federalState":{"key":"09","name":"Bayern"}},{"name":"Am Gänsbühl","postalCode":"95517","locality":"Seybothenreuth","municipality":{"key":"09472188","name":"Seybothenreuth","type":"Kreisangehörige_Gemeinde"},"district":{"key":"09472","name":"Bayreuth","type":"Landkreis"},"federalState":{"key":"09","name":"Bayern"}},{"name":"Am Goldhügel","postalCode":"95517","locality":"Seybothenreuth","municipality":{"key":"09472188","name":"Seybothenreuth","type":"Kreisangehörige_Gemeinde"},"district":{"key":"09472","name":"Bayreuth","type":"Landkreis"},"federalState":{"key":"09","name":"Bayern"}},{"name":"Am Lerchenbühl","postalCode":"95517","locality":"Seybothenreuth","municipality":{"key":"09472188","name":"Seybothenreuth","type":"Kreisangehörige_Gemeinde"},"district":{"key":"09472","name":"Bayreuth","type":"Landkreis"},"federalState":{"key":"09","name":"Bayern"}},{"name":"Birkenstr.","postalCode":"95517","locality":"Seybothenreuth","municipality":{"key":"09472188","name":"Seybothenreuth","type":"Kreisangehörige_Gemeinde"},"district":{"key":"09472","name":"Bayreuth","type":"Landkreis"},"federalState":{"key":"09","name":"Bayern"}},{"name":"Buchenweg","postalCode":"95517","locality":"Seybothenreuth","municipality":{"key":"09472188","name":"Seybothenreuth","type":"Kreisangehörige_Gemeinde"},"district":{"key":"09472","name":"Bayreuth","type":"Landkreis"},"federalState":{"key":"09","name":"Bayern"}},{"name":"Burgstallring","postalCode":"95517","locality":"Seybothenreuth","municipality":{"key":"09472188","name":"Seybothenreuth","type":"Kreisangehörige_Gemeinde"},"district":{"key":"09472","name":"Bayreuth","type":"Landkreis"},"federalState":{"key":"09","name":"Bayern"}},{"name":"Calvinstr.","postalCode":"95445","locality":"Bayreuth","municipality":{"key":"09462000","name":"Bayreuth","type":"Kreisfreie_Stadt"},"district":{"key":"09462","name":"Bayreuth","type":"Kreisfreie_Stadt"},"federalState":{"key":"09","name":"Bayern"}},{"name":"Carl-Burger-Str.","postalCode":"95445","locality":"Bayreuth","municipality":{"key":"09462000","name":"Bayreuth","type":"Kreisfreie_Stadt"},"district":{"key":"09462","name":"Bayreuth","type":"Kreisfreie_Stadt"},"federalState":{"key":"09","name":"Bayern"}},{"name":"Carl-Kolb-Str.","postalCode":"95448","locality":"Bayreuth","municipality":{"key":"09462000","name":"Bayreuth","type":"Kreisfreie_Stadt"},"district":{"key":"09462","name":"Bayreuth","type":"Kreisfreie_Stadt"},"federalState":{"key":"09","name":"Bayern"}},{"name":"Carl-Maria-von-Weber-Str.","postalCode":"95448","locality":"Bayreuth","municipality":{"key":"09462000","name":"Bayreuth","type":"Kreisfreie_Stadt"},"district":{"key":"09462","name":"Bayreuth","type":"Kreisfreie_Stadt"},"federalState":{"key":"09","name":"Bayern"}},{"name":"Carl-Schüller-Str.","postalCode":"95444","locality":"Bayreuth","municipality":{"key":"09462000","name":"Bayreuth","type":"Kreisfreie_Stadt"},"district":{"key":"09462","name":"Bayreuth","type":"Kreisfreie_Stadt"},"federalState":{"key":"09","name":"Bayern"}},{"name":"Casselmannstr.","postalCode":"95444","locality":"Bayreuth","municipality":{"key":"09462000","name":"Bayreuth","type":"Kreisfreie_Stadt"},"district":{"key":"09462","name":"Bayreuth","type":"Kreisfreie_Stadt"},"federalState":{"key":"09","name":"Bayern"}},{"name":"Casselmannstr.","postalCode":"95445","locality":"Bayreuth","municipality":{"key":"09462000","name":"Bayreuth","type":"Kreisfreie_Stadt"},"district":{"key":"09462","name":"Bayreuth","type":"Kreisfreie_Stadt"},"federalState":{"key":"09","name":"Bayern"}},{"name":"Chiemseestr.","postalCode":"95445","locality":"Bayreuth","municipality":{"key":"09462000","name":"Bayreuth","type":"Kreisfreie_Stadt"},"district":{"key":"09462","name":"Bayreuth","type":"Kreisfreie_Stadt"},"federalState":{"key":"09","name":"Bayern"}},{"name":"Christian-Ritter-von-Langheinrich-Str.","postalCode":"95448","locality":"Bayreuth","municipality":{"key":"09462000","name":"Bayreuth","type":"Kreisfreie_Stadt"},"district":{"key":"09462","name":"Bayreuth","type":"Kreisfreie_Stadt"},"federalState":{"key":"09","name":"Bayern"}},{"name":"Christian-Ritter-von-Popp-Str.","postalCode":"95448","locality":"Bayreuth","municipality":{"key":"09462000","name":"Bayreuth","type":"Kreisfreie_Stadt"},"district":{"key":"09462","name":"Bayreuth","type":"Kreisfreie_Stadt"},"federalState":{"key":"09","name":"Bayern"}},{"name":"Colmdorf","postalCode":"95448","locality":"Bayreuth","municipality":{"key":"09462000","name":"Bayreuth","type":"Kreisfreie_Stadt"},"district":{"key":"09462","name":"Bayreuth","type":"Kreisfreie_Stadt"},"federalState":{"key":"09","name":"Bayern"}},{"name":"Cosimapark","postalCode":"95445","locality":"Bayreuth","municipality":{"key":"09462000","name":"Bayreuth","type":"Kreisfreie_Stadt"},"district":{"key":"09462","name":"Bayreuth","type":"Kreisfreie_Stadt"},"federalState":{"key":"09","name":"Bayern"}},{"name":"Cosima-Wagner-Str.","postalCode":"95444","locality":"Bayreuth","municipality":{"key":"09462000","name":"Bayreuth","type":"Kreisfreie_Stadt"},"district":{"key":"09462","name":"Bayreuth","type":"Kreisfreie_Stadt"},"federalState":{"key":"09","name":"Bayern"}},{"name":"Cottenbacher Str.","postalCode":"95444","locality":"Bayreuth","municipality":{"key":"09462000","name":"Bayreuth","type":"Kreisfreie_Stadt"},"district":{"key":"09462","name":"Bayreuth","type":"Kreisfreie_Stadt"},"federalState":{"key":"09","name":"Bayern"}},{"name":"Cottenbacher Str.","postalCode":"95445","locality":"Bayreuth","municipality":{"key":"09462000","name":"Bayreuth","type":"Kreisfreie_Stadt"},"district":{"key":"09462","name":"Bayreuth","type":"Kreisfreie_Stadt"},"federalState":{"key":"09","name":"Bayern"}},{"name":"Cranachstr.","postalCode":"95447","locality":"Bayreuth","municipality":{"key":"09462000","name":"Bayreuth","type":"Kreisfreie_Stadt"},"district":{"key":"09462","name":"Bayreuth","type":"Kreisfreie_Stadt"},"federalState":{"key":"09","name":"Bayern"}},{"name":"Denkmalweg","postalCode":"95517","locality":"Seybothenreuth","municipality":{"key":"09472188","name":"Seybothenreuth","type":"Kreisangehörige_Gemeinde"},"district":{"key":"09472","name":"Bayreuth","type":"Landkreis"},"federalState":{"key":"09","name":"Bayern"}},{"name":"Eckenerstr.","postalCode":"95444","locality":"Bayreuth","municipality":{"key":"09462000","name":"Bayreuth","type":"Kreisfreie_Stadt"},"district":{"key":"09462","name":"Bayreuth","type":"Kreisfreie_Stadt"},"federalState":{"key":"09","name":"Bayern"}},{"name":"Edelweißweg","postalCode":"95447","locality":"Bayreuth","municipality":{"key":"09462000","name":"Bayreuth","type":"Kreisfreie_Stadt"},"district":{"key":"09462","name":"Bayreuth","type":"Kreisfreie_Stadt"},"federalState":{"key":"09","name":"Bayern"}},{"name":"Egerländer Str.","postalCode":"95448","locality":"Bayreuth","municipality":{"key":"09462000","name":"Bayreuth","type":"Kreisfreie_Stadt"},"district":{"key":"09462","name":"Bayreuth","type":"Kreisfreie_Stadt"},"federalState":{"key":"09","name":"Bayern"}},{"name":"Egerstr.","postalCode":"95445","locality":"Bayreuth","municipality":{"key":"09462000","name":"Bayreuth","type":"Kreisfreie_Stadt"},"district":{"key":"09462","name":"Bayreuth","type":"Kreisfreie_Stadt"},"federalState":{"key":"09","name":"Bayern"}},{"name":"Eibseestr.","postalCode":"95445","locality":"Bayreuth","municipality":{"key":"09462000","name":"Bayreuth","type":"Kreisfreie_Stadt"},"district":{"key":"09462","name":"Bayreuth","type":"Kreisfreie_Stadt"},"federalState":{"key":"09","name":"Bayern"}},{"name":"Eichelweg","postalCode":"95445","locality":"Bayreuth","municipality":{"key":"09462000","name":"Bayreuth","type":"Kreisfreie_Stadt"},"district":{"key":"09462","name":"Bayreuth","type":"Kreisfreie_Stadt"},"federalState":{"key":"09","name":"Bayern"}},{"name":"Eichendorffring","postalCode":"95447","locality":"Bayreuth","municipality":{"key":"09462000","name":"Bayreuth","type":"Kreisfreie_Stadt"},"district":{"key":"09462","name":"Bayreuth","type":"Kreisfreie_Stadt"},"federalState":{"key":"09","name":"Bayern"}},{"name":"Eichenring","postalCode":"95445","locality":"Bayreuth","municipality":{"key":"09462000","name":"Bayreuth","type":"Kreisfreie_Stadt"},"district":{"key":"09462","name":"Bayreuth","type":"Kreisfreie_Stadt"},"federalState":{"key":"09","name":"Bayern"}},{"name":"Eifelstr.","postalCode":"95448","locality":"Bayreuth","municipality":{"key":"09462000","name":"Bayreuth","type":"Kreisfreie_Stadt"},"district":{"key":"09462","name":"Bayreuth","type":"Kreisfreie_Stadt"},"federalState":{"key":"09","name":"Bayern"}},{"name":"Eisenbahnüberführung Königsallee","postalCode":"95448","locality":"Bayreuth","municipality":{"key":"09462000","name":"Bayreuth","type":"Kreisfreie_Stadt"},"district":{"key":"09462","name":"Bayreuth","type":"Kreisfreie_Stadt"},"federalState":{"key":"09","name":"Bayern"}},{"name":"Elbering","postalCode":"95445","locality":"Bayreuth","municipality":{"key":"09462000","name":"Bayreuth","type":"Kreisfreie_Stadt"},"district":{"key":"09462","name":"Bayreuth","type":"Kreisfreie_Stadt"},"federalState":{"key":"09","name":"Bayern"}},{"name":"Elfenweg","postalCode":"95447","locality":"Bayreuth","municipality":{"key":"09462000","name":"Bayreuth","type":"Kreisfreie_Stadt"},"district":{"key":"09462","name":"Bayreuth","type":"Kreisfreie_Stadt"},"federalState":{"key":"09","name":"Bayern"}},{"name":"Elias-Räntz-Str.","postalCode":"95445","locality":"Bayreuth","municipality":{"key":"09462000","name":"Bayreuth","type":"Kreisfreie_Stadt"},"district":{"key":"09462","name":"Bayreuth","type":"Kreisfreie_Stadt"},"federalState":{"key":"09","name":"Bayern"}},{"name":"Elsastr.","postalCode":"95445","locality":"Bayreuth","municipality":{"key":"09462000","name":"Bayreuth","type":"Kreisfreie_Stadt"},"district":{"key":"09462","name":"Bayreuth","type":"Kreisfreie_Stadt"},"federalState":{"key":"09","name":"Bayern"}},{"name":"Enzianweg","postalCode":"95447","locality":"Bayreuth","municipality":{"key":"09462000","name":"Bayreuth","type":"Kreisfreie_Stadt"},"district":{"key":"09462","name":"Bayreuth","type":"Kreisfreie_Stadt"},"federalState":{"key":"09","name":"Bayern"}},{"name":"Erdastr.","postalCode":"95445","locality":"Bayreuth","municipality":{"key":"09462000","name":"Bayreuth","type":"Kreisfreie_Stadt"},"district":{"key":"09462","name":"Bayreuth","type":"Kreisfreie_Stadt"},"federalState":{"key":"09","name":"Bayern"}},{"name":"Eremitage","postalCode":"95448","locality":"Bayreuth","municipality":{"key":"09462000","name":"Bayreuth","type":"Kreisfreie_Stadt"},"district":{"key":"09462","name":"Bayreuth","type":"Kreisfreie_Stadt"},"federalState":{"key":"09","name":"Bayern"}},{"name":"Eremitagestr.","postalCode":"95448","locality":"Bayreuth","municipality":{"key":"09462000","name":"Bayreuth","type":"Kreisfreie_Stadt"},"district":{"key":"09462","name":"Bayreuth","type":"Kreisfreie_Stadt"},"federalState":{"key":"09","name":"Bayern"}},{"name":"Eremitenhofstr.","postalCode":"95448","locality":"Bayreuth","municipality":{"key":"09462000","name":"Bayreuth","type":"Kreisfreie_Stadt"},"district":{"key":"09462","name":"Bayreuth","type":"Kreisfreie_Stadt"},"federalState":{"key":"09","name":"Bayern"}},{"name":"Erikaweg","postalCode":"95447","locality":"Bayreuth","municipality":{"key":"09462000","name":"Bayreuth","type":"Kreisfreie_Stadt"},"district":{"key":"09462","name":"Bayreuth","type":"Kreisfreie_Stadt"},"federalState":{"key":"09","name":"Bayern"}},{"name":"Erlanger Str.","postalCode":"95444","locality":"Bayreuth","municipality":{"key":"09462000","name":"Bayreuth","type":"Kreisfreie_Stadt"},"district":{"key":"09462","name":"Bayreuth","type":"Kreisfreie_Stadt"},"federalState":{"key":"09","name":"Bayern"}},{"name":"Erlanger Str.","postalCode":"95445","locality":"Bayreuth","municipality":{"key":"09462000","name":"Bayreuth","type":"Kreisfreie_Stadt"},"district":{"key":"09462","name":"Bayreuth","type":"Kreisfreie_Stadt"},"federalState":{"key":"09","name":"Bayern"}},{"name":"Erlenweg","postalCode":"95445","locality":"Bayreuth","municipality":{"key":"09462000","name":"Bayreuth","type":"Kreisfreie_Stadt"},"district":{"key":"09462","name":"Bayreuth","type":"Kreisfreie_Stadt"},"federalState":{"key":"09","name":"Bayern"}},{"name":"Erlkönigstr.","postalCode":"95447","locality":"Bayreuth","municipality":{"key":"09462000","name":"Bayreuth","type":"Kreisfreie_Stadt"},"district":{"key":"09462","name":"Bayreuth","type":"Kreisfreie_Stadt"},"federalState":{"key":"09","name":"Bayern"}},{"name":"Eschenweg","postalCode":"95445","locality":"Bayreuth","municipality":{"key":"09462000","name":"Bayreuth","type":"Kreisfreie_Stadt"},"district":{"key":"09462","name":"Bayreuth","type":"Kreisfreie_Stadt"},"federalState":{"key":"09","name":"Bayern"}},{"name":"Eubener Str.","postalCode":"95445","locality":"Bayreuth","municipality":{"key":"09462000","name":"Bayreuth","type":"Kreisfreie_Stadt"},"district":{"key":"09462","name":"Bayreuth","type":"Kreisfreie_Stadt"},"federalState":{"key":"09","name":"Bayern"}},{"name":"Eysserhaus-Passage","postalCode":"95444","locality":"Bayreuth","municipality":{"key":"09462000","name":"Bayreuth","type":"Kreisfreie_Stadt"},"district":{"key":"09462","name":"Bayreuth","type":"Kreisfreie_Stadt"},"federalState":{"key":"09","name":"Bayern"}},{"name":"Falkenweg","postalCode":"95445","locality":"Bayreuth","municipality":{"key":"09462000","name":"Bayreuth","type":"Kreisfreie_Stadt"},"district":{"key":"09462","name":"Bayreuth","type":"Kreisfreie_Stadt"},"federalState":{"key":"09","name":"Bayern"}},{"name":"Fanggasse","postalCode":"95448","locality":"Bayreuth","municipality":{"key":"09462000","name":"Bayreuth","type":"Kreisfreie_Stadt"},"district":{"key":"09462","name":"Bayreuth","type":"Kreisfreie_Stadt"},"federalState":{"key":"09","name":"Bayern"}},{"name":"Fantaisiestr.","postalCode":"95445","locality":"Bayreuth","municipality":{"key":"09462000","name":"Bayreuth","type":"Kreisfreie_Stadt"},"district":{"key":"09462","name":"Bayreuth","type":"Kreisfreie_Stadt"},"federalState":{"key":"09","name":"Bayern"}},{"name":"Fasanenring","postalCode":"95445","locality":"Bayreuth","municipality":{"key":"09462000","name":"Bayreuth","type":"Kreisfreie_Stadt"},"district":{"key":"09462","name":"Bayreuth","type":"Kreisfreie_Stadt"},"federalState":{"key":"09","name":"Bayern"}},{"name":"Felix-Mottl-Str.","postalCode":"95445","locality":"Bayreuth","municipality":{"key":"09462000","name":"Bayreuth","type":"Kreisfreie_Stadt"},"district":{"key":"09462","name":"Bayreuth","type":"Kreisfreie_Stadt"},"federalState":{"key":"09","name":"Bayern"}},{"name":"Felsenweg","postalCode":"95445","locality":"Bayreuth","municipality":{"key":"09462000","name":"Bayreuth","type":"Kreisfreie_Stadt"},"district":{"key":"09462","name":"Bayreuth","type":"Kreisfreie_Stadt"},"federalState":{"key":"09","name":"Bayern"}},{"name":"Festspielhügel","postalCode":"95445","locality":"Bayreuth","municipality":{"key":"09462000","name":"Bayreuth","type":"Kreisfreie_Stadt"},"district":{"key":"09462","name":"Bayreuth","type":"Kreisfreie_Stadt"},"federalState":{"key":"09","name":"Bayern"}},{"name":"Feustelstr.","postalCode":"95444","locality":"Bayreuth","municipality":{"key":"09462000","name":"Bayreuth","type":"Kreisfreie_Stadt"},"district":{"key":"09462","name":"Bayreuth","type":"Kreisfreie_Stadt"},"federalState":{"key":"09","name":"Bayern"}},{"name":"Fichtelgebirgsstr.","postalCode":"95448","locality":"Bayreuth","municipality":{"key":"09462000","name":"Bayreuth","type":"Kreisfreie_Stadt"},"district":{"key":"09462","name":"Bayreuth","type":"Kreisfreie_Stadt"},"federalState":{"key":"09","name":"Bayern"}},{"name":"Fichtestr.","postalCode":"95445","locality":"Bayreuth","municipality":{"key":"09462000","name":"Bayreuth","type":"Kreisfreie_Stadt"},"district":{"key":"09462","name":"Bayreuth","type":"Kreisfreie_Stadt"},"federalState":{"key":"09","name":"Bayern"}},{"name":"Filchnerstr.","postalCode":"95448","locality":"Bayreuth","municipality":{"key":"09462000","name":"Bayreuth","type":"Kreisfreie_Stadt"},"district":{"key":"09462","name":"Bayreuth","type":"Kreisfreie_Stadt"},"federalState":{"key":"09","name":"Bayern"}},{"name":"Finkenweg","postalCode":"95445","locality":"Bayreuth","municipality":{"key":"09462000","name":"Bayreuth","type":"Kreisfreie_Stadt"},"district":{"key":"09462","name":"Bayreuth","type":"Kreisfreie_Stadt"},"federalState":{"key":"09","name":"Bayern"}},{"name":"Fliederweg","postalCode":"95445","locality":"Bayreuth","municipality":{"key":"09462000","name":"Bayreuth","type":"Kreisfreie_Stadt"},"district":{"key":"09462","name":"Bayreuth","type":"Kreisfreie_Stadt"},"federalState":{"key":"09","name":"Bayern"}},{"name":"Fontanestr.","postalCode":"95447","locality":"Bayreuth","municipality":{"key":"09462000","name":"Bayreuth","type":"Kreisfreie_Stadt"},"district":{"key":"09462","name":"Bayreuth","type":"Kreisfreie_Stadt"},"federalState":{"key":"09","name":"Bayern"}},{"name":"Forellenweg","postalCode":"95448","locality":"Bayreuth","municipality":{"key":"09462000","name":"Bayreuth","type":"Kreisfreie_Stadt"},"district":{"key":"09462","name":"Bayreuth","type":"Kreisfreie_Stadt"},"federalState":{"key":"09","name":"Bayern"}},{"name":"Forststr.","postalCode":"95445","locality":"Bayreuth","municipality":{"key":"09462000","name":"Bayreuth","type":"Kreisfreie_Stadt"},"district":{"key":"09462","name":"Bayreuth","type":"Kreisfreie_Stadt"},"federalState":{"key":"09","name":"Bayern"}},{"name":"Fränkelstr.","postalCode":"95448","locality":"Bayreuth","municipality":{"key":"09462000","name":"Bayreuth","type":"Kreisfreie_Stadt"},"district":{"key":"09462","name":"Bayreuth","type":"Kreisfreie_Stadt"},"federalState":{"key":"09","name":"Bayern"}},{"name":"Frankengutstr.","postalCode":"95447","locality":"Bayreuth","municipality":{"key":"09462000","name":"Bayreuth","type":"Kreisfreie_Stadt"},"district":{"key":"09462","name":"Bayreuth","type":"Kreisfreie_Stadt"},"federalState":{"key":"09","name":"Bayern"}},{"name":"Frankenstr.","postalCode":"95448","locality":"Bayreuth","municipality":{"key":"09462000","name":"Bayreuth","type":"Kreisfreie_Stadt"},"district":{"key":"09462","name":"Bayreuth","type":"Kreisfreie_Stadt"},"federalState":{"key":"09","name":"Bayern"}},{"name":"Frankenwaldstr.","postalCode":"95448","locality":"Bayreuth","municipality":{"key":"09462000","name":"Bayreuth","type":"Kreisfreie_Stadt"},"district":{"key":"09462","name":"Bayreuth","type":"Kreisfreie_Stadt"},"federalState":{"key":"09","name":"Bayern"}},{"name":"Franzensbadweg","postalCode":"95448","locality":"Bayreuth","municipality":{"key":"09462000","name":"Bayreuth","type":"Kreisfreie_Stadt"},"district":{"key":"09462","name":"Bayreuth","type":"Kreisfreie_Stadt"},"federalState":{"key":"09","name":"Bayern"}},{"name":"Franz-Schubert-Str.","postalCode":"95448","locality":"Bayreuth","municipality":{"key":"09462000","name":"Bayreuth","type":"Kreisfreie_Stadt"},"district":{"key":"09462","name":"Bayreuth","type":"Kreisfreie_Stadt"},"federalState":{"key":"09","name":"Bayern"}},{"name":"Fraunhoferstr.","postalCode":"95448","locality":"Bayreuth","municipality":{"key":"09462000","name":"Bayreuth","type":"Kreisfreie_Stadt"},"district":{"key":"09462","name":"Bayreuth","type":"Kreisfreie_Stadt"},"federalState":{"key":"09","name":"Bayern"}},{"name":"Freiheitsplatz","postalCode":"95444","locality":"Bayreuth","municipality":{"key":"09462000","name":"Bayreuth","type":"Kreisfreie_Stadt"},"district":{"key":"09462","name":"Bayreuth","type":"Kreisfreie_Stadt"},"federalState":{"key":"09","name":"Bayern"}},{"name":"Freiheitsplatz","postalCode":"95445","locality":"Bayreuth","municipality":{"key":"09462000","name":"Bayreuth","type":"Kreisfreie_Stadt"},"district":{"key":"09462","name":"Bayreuth","type":"Kreisfreie_Stadt"},"federalState":{"key":"09","name":"Bayern"}},{"name":"Freiheitsplatz","postalCode":"95447","locality":"Bayreuth","municipality":{"key":"09462000","name":"Bayreuth","type":"Kreisfreie_Stadt"},"district":{"key":"09462","name":"Bayreuth","type":"Kreisfreie_Stadt"},"federalState":{"key":"09","name":"Bayern"}},{"name":"Frickastr.","postalCode":"95445","locality":"Bayreuth","municipality":{"key":"09462000","name":"Bayreuth","type":"Kreisfreie_Stadt"},"district":{"key":"09462","name":"Bayreuth","type":"Kreisfreie_Stadt"},"federalState":{"key":"09","name":"Bayern"}},{"name":"Friedelind-Wagner-Str.","postalCode":"95445","locality":"Bayreuth","municipality":{"key":"09462000","name":"Bayreuth","type":"Kreisfreie_Stadt"},"district":{"key":"09462","name":"Bayreuth","type":"Kreisfreie_Stadt"},"federalState":{"key":"09","name":"Bayern"}},{"name":"Friedenstr.","postalCode":"95447","locality":"Bayreuth","municipality":{"key":"09462000","name":"Bayreuth","type":"Kreisfreie_Stadt"},"district":{"key":"09462","name":"Bayreuth","type":"Kreisfreie_Stadt"},"federalState":{"key":"09","name":"Bayern"}},{"name":"Friedrich-Ebert-Str.","postalCode":"95448","locality":"Bayreuth","municipality":{"key":"09462000","name":"Bayreuth","type":"Kreisfreie_Stadt"},"district":{"key":"09462","name":"Bayreuth","type":"Kreisfreie_Stadt"},"federalState":{"key":"09","name":"Bayern"}},{"name":"Friedrich-Puchta-Str.","postalCode":"95444","locality":"Bayreuth","municipality":{"key":"09462000","name":"Bayreuth","type":"Kreisfreie_Stadt"},"district":{"key":"09462","name":"Bayreuth","type":"Kreisfreie_Stadt"},"federalState":{"key":"09","name":"Bayern"}},{"name":"Friedrichsthal","postalCode":"95448","locality":"Bayreuth","municipality":{"key":"09462000","name":"Bayreuth","type":"Kreisfreie_Stadt"},"district":{"key":"09462","name":"Bayreuth","type":"Kreisfreie_Stadt"},"federalState":{"key":"09","name":"Bayern"}},{"name":"Friedrichstr.","postalCode":"95444","locality":"Bayreuth","municipality":{"key":"09462000","name":"Bayreuth","type":"Kreisfreie_Stadt"},"district":{"key":"09462","name":"Bayreuth","type":"Kreisfreie_Stadt"},"federalState":{"key":"09","name":"Bayern"}},{"name":"Friedrich-von-Schiller-Str.","postalCode":"95444","locality":"Bayreuth","municipality":{"key":"09462000","name":"Bayreuth","type":"Kreisfreie_Stadt"},"district":{"key":"09462","name":"Bayreuth","type":"Kreisfreie_Stadt"},"federalState":{"key":"09","name":"Bayern"}},{"name":"Fröbelstr.","postalCode":"95445","locality":"Bayreuth","municipality":{"key":"09462000","name":"Bayreuth","type":"Kreisfreie_Stadt"},"district":{"key":"09462","name":"Bayreuth","type":"Kreisfreie_Stadt"},"federalState":{"key":"09","name":"Bayern"}},{"name":"Funckstr.","postalCode":"95447","locality":"Bayreuth","municipality":{"key":"09462000","name":"Bayreuth","type":"Kreisfreie_Stadt"},"district":{"key":"09462","name":"Bayreuth","type":"Kreisfreie_Stadt"},"federalState":{"key":"09","name":"Bayern"}},{"name":"Funkhaus-Passage","postalCode":"95444","locality":"Bayreuth","municipality":{"key":"09462000","name":"Bayreuth","type":"Kreisfreie_Stadt"},"district":{"key":"09462","name":"Bayreuth","type":"Kreisfreie_Stadt"},"federalState":{"key":"09","name":"Bayern"}},{"name":"Fürsetzer Str.","postalCode":"95448","locality":"Bayreuth","municipality":{"key":"09462000","name":"Bayreuth","type":"Kreisfreie_Stadt"},"district":{"key":"09462","name":"Bayreuth","type":"Kreisfreie_Stadt"},"federalState":{"key":"09","name":"Bayern"}},{"name":"Furtwänglerstr.","postalCode":"95445","locality":"Bayreuth","municipality":{"key":"09462000","name":"Bayreuth","type":"Kreisfreie_Stadt"},"district":{"key":"09462","name":"Bayreuth","type":"Kreisfreie_Stadt"},"federalState":{"key":"09","name":"Bayern"}},{"name":"Gabelsbergerstr.","postalCode":"95444","locality":"Bayreuth","municipality":{"key":"09462000","name":"Bayreuth","type":"Kreisfreie_Stadt"},"district":{"key":"09462","name":"Bayreuth","type":"Kreisfreie_Stadt"},"federalState":{"key":"09","name":"Bayern"}},{"name":"Gablonzer Weg","postalCode":"95448","locality":"Bayreuth","municipality":{"key":"09462000","name":"Bayreuth","type":"Kreisfreie_Stadt"},"district":{"key":"09462","name":"Bayreuth","type":"Kreisfreie_Stadt"},"federalState":{"key":"09","name":"Bayern"}},{"name":"Gagernstr.","postalCode":"95447","locality":"Bayreuth","municipality":{"key":"09462000","name":"Bayreuth","type":"Kreisfreie_Stadt"},"district":{"key":"09462","name":"Bayreuth","type":"Kreisfreie_Stadt"},"federalState":{"key":"09","name":"Bayern"}},{"name":"Gartenweg","postalCode":"95445","locality":"Bayreuth","municipality":{"key":"09462000","name":"Bayreuth","type":"Kreisfreie_Stadt"},"district":{"key":"09462","name":"Bayreuth","type":"Kreisfreie_Stadt"},"federalState":{"key":"09","name":"Bayern"}},{"name":"Gärtigweg","postalCode":"95448","locality":"Bayreuth","municipality":{"key":"09462000","name":"Bayreuth","type":"Kreisfreie_Stadt"},"district":{"key":"09462","name":"Bayreuth","type":"Kreisfreie_Stadt"},"federalState":{"key":"09","name":"Bayern"}},{"name":"Georg-Friedrich-Händel-Str.","postalCode":"95448","locality":"Bayreuth","municipality":{"key":"09462000","name":"Bayreuth","type":"Kreisfreie_Stadt"},"district":{"key":"09462","name":"Bayreuth","type":"Kreisfreie_Stadt"},"federalState":{"key":"09","name":"Bayern"}},{"name":"Geranienweg","postalCode":"95447","locality":"Bayreuth","municipality":{"key":"09462000","name":"Bayreuth","type":"Kreisfreie_Stadt"},"district":{"key":"09462","name":"Bayreuth","type":"Kreisfreie_Stadt"},"federalState":{"key":"09","name":"Bayern"}},{"name":"Gerhart-Hauptmann-Str.","postalCode":"95447","locality":"Bayreuth","municipality":{"key":"09462000","name":"Bayreuth","type":"Kreisfreie_Stadt"},"district":{"key":"09462","name":"Bayreuth","type":"Kreisfreie_Stadt"},"federalState":{"key":"09","name":"Bayern"}},{"name":"Gersteweg","postalCode":"95448","locality":"Bayreuth","municipality":{"key":"09462000","name":"Bayreuth","type":"Kreisfreie_Stadt"},"district":{"key":"09462","name":"Bayreuth","type":"Kreisfreie_Stadt"},"federalState":{"key":"09","name":"Bayern"}},{"name":"Geschwister-Scholl-Platz","postalCode":"95445","locality":"Bayreuth","municipality":{"key":"09462000","name":"Bayreuth","type":"Kreisfreie_Stadt"},"district":{"key":"09462","name":"Bayreuth","type":"Kreisfreie_Stadt"},"federalState":{"key":"09","name":"Bayern"}},{"name":"Geseeser Weg","postalCode":"95447","locality":"Bayreuth","municipality":{"key":"09462000","name":"Bayreuth","type":"Kreisfreie_Stadt"},"district":{"key":"09462","name":"Bayreuth","type":"Kreisfreie_Stadt"},"federalState":{"key":"09","name":"Bayern"}},{"name":"Ginsterweg","postalCode":"95447","locality":"Bayreuth","municipality":{"key":"09462000","name":"Bayreuth","type":"Kreisfreie_Stadt"},"district":{"key":"09462","name":"Bayreuth","type":"Kreisfreie_Stadt"},"federalState":{"key":"09","name":"Bayern"}},{"name":"Glasenappweg","postalCode":"95444","locality":"Bayreuth","municipality":{"key":"09462000","name":"Bayreuth","type":"Kreisfreie_Stadt"},"district":{"key":"09462","name":"Bayreuth","type":"Kreisfreie_Stadt"},"federalState":{"key":"09","name":"Bayern"}},{"name":"Glockenstr.","postalCode":"95447","locality":"Bayreuth","municipality":{"key":"09462000","name":"Bayreuth","type":"Kreisfreie_Stadt"},"district":{"key":"09462","name":"Bayreuth","type":"Kreisfreie_Stadt"},"federalState":{"key":"09","name":"Bayern"}},{"name":"Gluckstr.","postalCode":"95448","locality":"Bayreuth","municipality":{"key":"09462000","name":"Bayreuth","type":"Kreisfreie_Stadt"},"district":{"key":"09462","name":"Bayreuth","type":"Kreisfreie_Stadt"},"federalState":{"key":"09","name":"Bayern"}},{"name":"Goethestr.","postalCode":"95444","locality":"Bayreuth","municipality":{"key":"09462000","name":"Bayreuth","type":"Kreisfreie_Stadt"},"district":{"key":"09462","name":"Bayreuth","type":"Kreisfreie_Stadt"},"federalState":{"key":"09","name":"Bayern"}},{"name":"Goldkronacher Str.","postalCode":"95448","locality":"Bayreuth","municipality":{"key":"09462000","name":"Bayreuth","type":"Kreisfreie_Stadt"},"district":{"key":"09462","name":"Bayreuth","type":"Kreisfreie_Stadt"},"federalState":{"key":"09","name":"Bayern"}},{"name":"Gontardstr.","postalCode":"95444","locality":"Bayreuth","municipality":{"key":"09462000","name":"Bayreuth","type":"Kreisfreie_Stadt"},"district":{"key":"09462","name":"Bayreuth","type":"Kreisfreie_Stadt"},"federalState":{"key":"09","name":"Bayern"}},{"name":"Gontardstr.","postalCode":"95445","locality":"Bayreuth","municipality":{"key":"09462000","name":"Bayreuth","type":"Kreisfreie_Stadt"},"district":{"key":"09462","name":"Bayreuth","type":"Kreisfreie_Stadt"},"federalState":{"key":"09","name":"Bayern"}},{"name":"Gotenstr.","postalCode":"95448","locality":"Bayreuth","municipality":{"key":"09462000","name":"Bayreuth","type":"Kreisfreie_Stadt"},"district":{"key":"09462","name":"Bayreuth","type":"Kreisfreie_Stadt"},"federalState":{"key":"09","name":"Bayern"}},{"name":"Gottfried-Semper-Weg","postalCode":"95444","locality":"Bayreuth","municipality":{"key":"09462000","name":"Bayreuth","type":"Kreisfreie_Stadt"},"district":{"key":"09462","name":"Bayreuth","type":"Kreisfreie_Stadt"},"federalState":{"key":"09","name":"Bayern"}},{"name":"Gotthelfstr.","postalCode":"95447","locality":"Bayreuth","municipality":{"key":"09462000","name":"Bayreuth","type":"Kreisfreie_Stadt"},"district":{"key":"09462","name":"Bayreuth","type":"Kreisfreie_Stadt"},"federalState":{"key":"09","name":"Bayern"}},{"name":"Grabenrangen","postalCode":"95445","locality":"Bayreuth","municipality":{"key":"09462000","name":"Bayreuth","type":"Kreisfreie_Stadt"},"district":{"key":"09462","name":"Bayreuth","type":"Kreisfreie_Stadt"},"federalState":{"key":"09","name":"Bayern"}},{"name":"Graf-Berthold-Str.","postalCode":"95445","locality":"Bayreuth","municipality":{"key":"09462000","name":"Bayreuth","type":"Kreisfreie_Stadt"},"district":{"key":"09462","name":"Bayreuth","type":"Kreisfreie_Stadt"},"federalState":{"key":"09","name":"Bayern"}},{"name":"Graf-Münster-Str.","postalCode":"95444","locality":"Bayreuth","municipality":{"key":"09462000","name":"Bayreuth","type":"Kreisfreie_Stadt"},"district":{"key":"09462","name":"Bayreuth","type":"Kreisfreie_Stadt"},"federalState":{"key":"09","name":"Bayern"}},{"name":"Graserstr.","postalCode":"95448","locality":"Bayreuth","municipality":{"key":"09462000","name":"Bayreuth","type":"Kreisfreie_Stadt"},"district":{"key":"09462","name":"Bayreuth","type":"Kreisfreie_Stadt"},"federalState":{"key":"09","name":"Bayern"}},{"name":"Gravenreutherstr.","postalCode":"95445","locality":"Bayreuth","municipality":{"key":"09462000","name":"Bayreuth","type":"Kreisfreie_Stadt"},"district":{"key":"09462","name":"Bayreuth","type":"Kreisfreie_Stadt"},"federalState":{"key":"09","name":"Bayern"}},{"name":"Griesweg","postalCode":"95448","locality":"Bayreuth","municipality":{"key":"09462000","name":"Bayreuth","type":"Kreisfreie_Stadt"},"district":{"key":"09462","name":"Bayreuth","type":"Kreisfreie_Stadt"},"federalState":{"key":"09","name":"Bayern"}},{"name":"Grillparzerstr.","postalCode":"95447","locality":"Bayreuth","municipality":{"key":"09462000","name":"Bayreuth","type":"Kreisfreie_Stadt"},"district":{"key":"09462","name":"Bayreuth","type":"Kreisfreie_Stadt"},"federalState":{"key":"09","name":"Bayern"}},{"name":"Grillplatz","postalCode":"95445","locality":"Bayreuth","municipality":{"key":"09462000","name":"Bayreuth","type":"Kreisfreie_Stadt"},"district":{"key":"09462","name":"Bayreuth","type":"Kreisfreie_Stadt"},"federalState":{"key":"09","name":"Bayern"}},{"name":"Grubstr.","postalCode":"95445","locality":"Bayreuth","municipality":{"key":"09462000","name":"Bayreuth","type":"Kreisfreie_Stadt"},"district":{"key":"09462","name":"Bayreuth","type":"Kreisfreie_Stadt"},"federalState":{"key":"09","name":"Bayern"}},{"name":"Grüner Baum","postalCode":"95448","locality":"Bayreuth","municipality":{"key":"09462000","name":"Bayreuth","type":"Kreisfreie_Stadt"},"district":{"key":"09462","name":"Bayreuth","type":"Kreisfreie_Stadt"},"federalState":{"key":"09","name":"Bayern"}},{"name":"Grünewaldstr.","postalCode":"95448","locality":"Bayreuth","municipality":{"key":"09462000","name":"Bayreuth","type":"Kreisfreie_Stadt"},"district":{"key":"09462","name":"Bayreuth","type":"Kreisfreie_Stadt"},"federalState":{"key":"09","name":"Bayern"}},{"name":"Guntherstr.","postalCode":"95445","locality":"Bayreuth","municipality":{"key":"09462000","name":"Bayreuth","type":"Kreisfreie_Stadt"},"district":{"key":"09462","name":"Bayreuth","type":"Kreisfreie_Stadt"},"federalState":{"key":"09","name":"Bayern"}},{"name":"Gurnemanzstr.","postalCode":"95445","locality":"Bayreuth","municipality":{"key":"09462000","name":"Bayreuth","type":"Kreisfreie_Stadt"},"district":{"key":"09462","name":"Bayreuth","type":"Kreisfreie_Stadt"},"federalState":{"key":"09","name":"Bayern"}},{"name":"Gustav-Adolf-Str.","postalCode":"95444","locality":"Bayreuth","municipality":{"key":"09462000","name":"Bayreuth","type":"Kreisfreie_Stadt"},"district":{"key":"09462","name":"Bayreuth","type":"Kreisfreie_Stadt"},"federalState":{"key":"09","name":"Bayern"}},{"name":"Gutenbergstr.","postalCode":"95444","locality":"Bayreuth","municipality":{"key":"09462000","name":"Bayreuth","type":"Kreisfreie_Stadt"},"district":{"key":"09462","name":"Bayreuth","type":"Kreisfreie_Stadt"},"federalState":{"key":"09","name":"Bayern"}},{"name":"Gutenbergstr.","postalCode":"95445","locality":"Bayreuth","municipality":{"key":"09462000","name":"Bayreuth","type":"Kreisfreie_Stadt"},"district":{"key":"09462","name":"Bayreuth","type":"Kreisfreie_Stadt"},"federalState":{"key":"09","name":"Bayern"}},{"name":"Gutrunestr.","postalCode":"95445","locality":"Bayreuth","municipality":{"key":"09462000","name":"Bayreuth","type":"Kreisfreie_Stadt"},"district":{"key":"09462","name":"Bayreuth","type":"Kreisfreie_Stadt"},"federalState":{"key":"09","name":"Bayern"}},{"name":"Hohe Eiche","postalCode":"95517","locality":"Seybothenreuth","municipality":{"key":"09472188","name":"Seybothenreuth","type":"Kreisangehörige_Gemeinde"},"district":{"key":"09472","name":"Bayreuth","type":"Landkreis"},"federalState":{"key":"09","name":"Bayern"}},{"name":"Imhofstr.","postalCode":"95448","locality":"Bayreuth","municipality":{"key":"09462000","name":"Bayreuth","type":"Kreisfreie_Stadt"},"district":{"key":"09462","name":"Bayreuth","type":"Kreisfreie_Stadt"},"federalState":{"key":"09","name":"Bayern"}},{"name":"Innstr.","postalCode":"95445","locality":"Bayreuth","municipality":{"key":"09462000","name":"Bayreuth","type":"Kreisfreie_Stadt"},"district":{"key":"09462","name":"Bayreuth","type":"Kreisfreie_Stadt"},"federalState":{"key":"09","name":"Bayern"}},{"name":"Inselstr.","postalCode":"95448","locality":"Bayreuth","municipality":{"key":"09462000","name":"Bayreuth","type":"Kreisfreie_Stadt"},"district":{"key":"09462","name":"Bayreuth","type":"Kreisfreie_Stadt"},"federalState":{"key":"09","name":"Bayern"}},{"name":"Isoldenstr.","postalCode":"95445","locality":"Bayreuth","municipality":{"key":"09462000","name":"Bayreuth","type":"Kreisfreie_Stadt"},"district":{"key":"09462","name":"Bayreuth","type":"Kreisfreie_Stadt"},"federalState":{"key":"09","name":"Bayern"}},{"name":"Jägerstr.","postalCode":"95444","locality":"Bayreuth","municipality":{"key":"09462000","name":"Bayreuth","type":"Kreisfreie_Stadt"},"district":{"key":"09462","name":"Bayreuth","type":"Kreisfreie_Stadt"},"federalState":{"key":"09","name":"Bayern"}},{"name":"Jahnstr.","postalCode":"95444","locality":"Bayreuth","municipality":{"key":"09462000","name":"Bayreuth","type":"Kreisfreie_Stadt"},"district":{"key":"09462","name":"Bayreuth","type":"Kreisfreie_Stadt"},"federalState":{"key":"09","name":"Bayern"}},{"name":"Jakob-Fuchs-Str.","postalCode":"95445","locality":"Bayreuth","municipality":{"key":"09462000","name":"Bayreuth","type":"Kreisfreie_Stadt"},"district":{"key":"09462","name":"Bayreuth","type":"Kreisfreie_Stadt"},"federalState":{"key":"09","name":"Bayern"}},{"name":"Jakob-Grimm-Str.","postalCode":"95447","locality":"Bayreuth","municipality":{"key":"09462000","name":"Bayreuth","type":"Kreisfreie_Stadt"},"district":{"key":"09462","name":"Bayreuth","type":"Kreisfreie_Stadt"},"federalState":{"key":"09","name":"Bayern"}},{"name":"Jakobstr.","postalCode":"95447","locality":"Bayreuth","municipality":{"key":"09462000","name":"Bayreuth","type":"Kreisfreie_Stadt"},"district":{"key":"09462","name":"Bayreuth","type":"Kreisfreie_Stadt"},"federalState":{"key":"09","name":"Bayern"}},{"name":"Jasminweg","postalCode":"95445","locality":"Bayreuth","municipality":{"key":"09462000","name":"Bayreuth","type":"Kreisfreie_Stadt"},"district":{"key":"09462","name":"Bayreuth","type":"Kreisfreie_Stadt"},"federalState":{"key":"09","name":"Bayern"}},{"name":"Jean-Paul-Str.","postalCode":"95444","locality":"Bayreuth","municipality":{"key":"09462000","name":"Bayreuth","type":"Kreisfreie_Stadt"},"district":{"key":"09462","name":"Bayreuth","type":"Kreisfreie_Stadt"},"federalState":{"key":"09","name":"Bayern"}},{"name":"Joachimsthaler Str.","postalCode":"95448","locality":"Bayreuth","municipality":{"key":"09462000","name":"Bayreuth","type":"Kreisfreie_Stadt"},"district":{"key":"09462","name":"Bayreuth","type":"Kreisfreie_Stadt"},"federalState":{"key":"09","name":"Bayern"}},{"name":"Johannes-Lupi-Ring","postalCode":"95448","locality":"Bayreuth","municipality":{"key":"09462000","name":"Bayreuth","type":"Kreisfreie_Stadt"},"district":{"key":"09462","name":"Bayreuth","type":"Kreisfreie_Stadt"},"federalState":{"key":"09","name":"Bayern"}},{"name":"Johann-Sebastian-Bach-Str.","postalCode":"95448","locality":"Bayreuth","municipality":{"key":"09462000","name":"Bayreuth","type":"Kreisfreie_Stadt"},"district":{"key":"09462","name":"Bayreuth","type":"Kreisfreie_Stadt"},"federalState":{"key":"09","name":"Bayern"}},{"name":"Johann-Stumpf-Weg","postalCode":"95445","locality":"Bayreuth","municipality":{"key":"09462000","name":"Bayreuth","type":"Kreisfreie_Stadt"},"district":{"key":"09462","name":"Bayreuth","type":"Kreisfreie_Stadt"},"federalState":{"key":"09","name":"Bayern"}},{"name":"Josephsplatz","postalCode":"95444","locality":"Bayreuth","municipality":{"key":"09462000","name":"Bayreuth","type":"Kreisfreie_Stadt"},"district":{"key":"09462","name":"Bayreuth","type":"Kreisfreie_Stadt"},"federalState":{"key":"09","name":"Bayern"}},{"name":"Julius-Kniese-Str.","postalCode":"95445","locality":"Bayreuth","municipality":{"key":"09462000","name":"Bayreuth","type":"Kreisfreie_Stadt"},"district":{"key":"09462","name":"Bayreuth","type":"Kreisfreie_Stadt"},"federalState":{"key":"09","name":"Bayern"}},{"name":"Jupiterstr.","postalCode":"95448","locality":"Bayreuth","municipality":{"key":"09462000","name":"Bayreuth","type":"Kreisfreie_Stadt"},"district":{"key":"09462","name":"Bayreuth","type":"Kreisfreie_Stadt"},"federalState":{"key":"09","name":"Bayern"}},{"name":"Justus-Liebig-Str.","postalCode":"95447","locality":"Bayreuth","municipality":{"key":"09462000","name":"Bayreuth","type":"Kreisfreie_Stadt"},"district":{"key":"09462","name":"Bayreuth","type":"Kreisfreie_Stadt"},"federalState":{"key":"09","name":"Bayern"}},{"name":"Kalte Reuth","postalCode":"95517","locality":"Seybothenreuth","municipality":{"key":"09472188","name":"Seybothenreuth","type":"Kreisangehörige_Gemeinde"},"district":{"key":"09472","name":"Bayreuth","type":"Landkreis"},"federalState":{"key":"09","name":"Bayern"}},{"name":"Lindenstr.","postalCode":"95517","locality":"Seybothenreuth","municipality":{"key":"09472188","name":"Seybothenreuth","type":"Kreisangehörige_Gemeinde"},"district":{"key":"09472","name":"Bayreuth","type":"Landkreis"},"federalState":{"key":"09","name":"Bayern"}},{"name":"Mainstr.","postalCode":"95444","locality":"Bayreuth","municipality":{"key":"09462000","name":"Bayreuth","type":"Kreisfreie_Stadt"},"district":{"key":"09462","name":"Bayreuth","type":"Kreisfreie_Stadt"},"federalState":{"key":"09","name":"Bayern"}},{"name":"Mainwiesenpfad","postalCode":"95448","locality":"Bayreuth","municipality":{"key":"09462000","name":"Bayreuth","type":"Kreisfreie_Stadt"},"district":{"key":"09462","name":"Bayreuth","type":"Kreisfreie_Stadt"},"federalState":{"key":"09","name":"Bayern"}},{"name":"Maisweg","postalCode":"95448","locality":"Bayreuth","municipality":{"key":"09462000","name":"Bayreuth","type":"Kreisfreie_Stadt"},"district":{"key":"09462","name":"Bayreuth","type":"Kreisfreie_Stadt"},"federalState":{"key":"09","name":"Bayern"}},{"name":"Margaretenweg","postalCode":"95447","locality":"Bayreuth","municipality":{"key":"09462000","name":"Bayreuth","type":"Kreisfreie_Stadt"},"district":{"key":"09462","name":"Bayreuth","type":"Kreisfreie_Stadt"},"federalState":{"key":"09","name":"Bayern"}},{"name":"Marienbadweg","postalCode":"95448","locality":"Bayreuth","municipality":{"key":"09462000","name":"Bayreuth","type":"Kreisfreie_Stadt"},"district":{"key":"09462","name":"Bayreuth","type":"Kreisfreie_Stadt"},"federalState":{"key":"09","name":"Bayern"}},{"name":"Markgrafenallee","postalCode":"95448","locality":"Bayreuth","municipality":{"key":"09462000","name":"Bayreuth","type":"Kreisfreie_Stadt"},"district":{"key":"09462","name":"Bayreuth","type":"Kreisfreie_Stadt"},"federalState":{"key":"09","name":"Bayern"}},{"name":"Marsstr.","postalCode":"95448","locality":"Bayreuth","municipality":{"key":"09462000","name":"Bayreuth","type":"Kreisfreie_Stadt"},"district":{"key":"09462","name":"Bayreuth","type":"Kreisfreie_Stadt"},"federalState":{"key":"09","name":"Bayern"}},{"name":"Matrosengasse","postalCode":"95448","locality":"Bayreuth","municipality":{"key":"09462000","name":"Bayreuth","type":"Kreisfreie_Stadt"},"district":{"key":"09462","name":"Bayreuth","type":"Kreisfreie_Stadt"},"federalState":{"key":"09","name":"Bayern"}},{"name":"Matzenbergweg","postalCode":"95447","locality":"Bayreuth","municipality":{"key":"09462000","name":"Bayreuth","type":"Kreisfreie_Stadt"},"district":{"key":"09462","name":"Bayreuth","type":"Kreisfreie_Stadt"},"federalState":{"key":"09","name":"Bayern"}},{"name":"Maulbeer-Allee","postalCode":"95447","locality":"Bayreuth","municipality":{"key":"09462000","name":"Bayreuth","type":"Kreisfreie_Stadt"},"district":{"key":"09462","name":"Bayreuth","type":"Kreisfreie_Stadt"},"federalState":{"key":"09","name":"Bayern"}},{"name":"Maulbeer-Allee","postalCode":"95448","locality":"Bayreuth","municipality":{"key":"09462000","name":"Bayreuth","type":"Kreisfreie_Stadt"},"district":{"key":"09462","name":"Bayreuth","type":"Kreisfreie_Stadt"},"federalState":{"key":"09","name":"Bayern"}},{"name":"Max-Planck-Str.","postalCode":"95448","locality":"Bayreuth","municipality":{"key":"09462000","name":"Bayreuth","type":"Kreisfreie_Stadt"},"district":{"key":"09462","name":"Bayreuth","type":"Kreisfreie_Stadt"},"federalState":{"key":"09","name":"Bayern"}},{"name":"Max-Reger-Str.","postalCode":"95448","locality":"Bayreuth","municipality":{"key":"09462000","name":"Bayreuth","type":"Kreisfreie_Stadt"},"district":{"key":"09462","name":"Bayreuth","type":"Kreisfreie_Stadt"},"federalState":{"key":"09","name":"Bayern"}},{"name":"Max-Stirner-Str.","postalCode":"95447","locality":"Bayreuth","municipality":{"key":"09462000","name":"Bayreuth","type":"Kreisfreie_Stadt"},"district":{"key":"09462","name":"Bayreuth","type":"Kreisfreie_Stadt"},"federalState":{"key":"09","name":"Bayern"}},{"name":"Max-von-der-Grün-Str.","postalCode":"95448","locality":"Bayreuth","municipality":{"key":"09462000","name":"Bayreuth","type":"Kreisfreie_Stadt"},"district":{"key":"09462","name":"Bayreuth","type":"Kreisfreie_Stadt"},"federalState":{"key":"09","name":"Bayern"}},{"name":"Mebartweg","postalCode":"95445","locality":"Bayreuth","municipality":{"key":"09462000","name":"Bayreuth","type":"Kreisfreie_Stadt"},"district":{"key":"09462","name":"Bayreuth","type":"Kreisfreie_Stadt"},"federalState":{"key":"09","name":"Bayern"}},{"name":"Meistersingerstr.","postalCode":"95444","locality":"Bayreuth","municipality":{"key":"09462000","name":"Bayreuth","type":"Kreisfreie_Stadt"},"district":{"key":"09462","name":"Bayreuth","type":"Kreisfreie_Stadt"},"federalState":{"key":"09","name":"Bayern"}},{"name":"Meistersingerstr.","postalCode":"95448","locality":"Bayreuth","municipality":{"key":"09462000","name":"Bayreuth","type":"Kreisfreie_Stadt"},"district":{"key":"09462","name":"Bayreuth","type":"Kreisfreie_Stadt"},"federalState":{"key":"09","name":"Bayern"}},{"name":"Melanchthonstr.","postalCode":"95445","locality":"Bayreuth","municipality":{"key":"09462000","name":"Bayreuth","type":"Kreisfreie_Stadt"},"district":{"key":"09462","name":"Bayreuth","type":"Kreisfreie_Stadt"},"federalState":{"key":"09","name":"Bayern"}},{"name":"Melissenweg","postalCode":"95447","locality":"Bayreuth","municipality":{"key":"09462000","name":"Bayreuth","type":"Kreisfreie_Stadt"},"district":{"key":"09462","name":"Bayreuth","type":"Kreisfreie_Stadt"},"federalState":{"key":"09","name":"Bayern"}},{"name":"Menzelplatz","postalCode":"95447","locality":"Bayreuth","municipality":{"key":"09462000","name":"Bayreuth","type":"Kreisfreie_Stadt"},"district":{"key":"09462","name":"Bayreuth","type":"Kreisfreie_Stadt"},"federalState":{"key":"09","name":"Bayern"}},{"name":"Meranierring","postalCode":"95445","locality":"Bayreuth","municipality":{"key":"09462000","name":"Bayreuth","type":"Kreisfreie_Stadt"},"district":{"key":"09462","name":"Bayreuth","type":"Kreisfreie_Stadt"},"federalState":{"key":"09","name":"Bayern"}},{"name":"Merkurstr.","postalCode":"95448","locality":"Bayreuth","municipality":{"key":"09462000","name":"Bayreuth","type":"Kreisfreie_Stadt"},"district":{"key":"09462","name":"Bayreuth","type":"Kreisfreie_Stadt"},"federalState":{"key":"09","name":"Bayern"}},{"name":"Meyernberger Park","postalCode":"95447","locality":"Bayreuth","municipality":{"key":"09462000","name":"Bayreuth","type":"Kreisfreie_Stadt"},"district":{"key":"09462","name":"Bayreuth","type":"Kreisfreie_Stadt"},"federalState":{"key":"09","name":"Bayern"}},{"name":"Meyernberger Str.","postalCode":"95447","locality":"Bayreuth","municipality":{"key":"09462000","name":"Bayreuth","type":"Kreisfreie_Stadt"},"district":{"key":"09462","name":"Bayreuth","type":"Kreisfreie_Stadt"},"federalState":{"key":"09","name":"Bayern"}},{"name":"Meyernreuth","postalCode":"95448","locality":"Bayreuth","municipality":{"key":"09462000","name":"Bayreuth","type":"Kreisfreie_Stadt"},"district":{"key":"09462","name":"Bayreuth","type":"Kreisfreie_Stadt"},"federalState":{"key":"09","name":"Bayern"}},{"name":"Meysenbugweg","postalCode":"95448","locality":"Bayreuth","municipality":{"key":"09462000","name":"Bayreuth","type":"Kreisfreie_Stadt"},"district":{"key":"09462","name":"Bayreuth","type":"Kreisfreie_Stadt"},"federalState":{"key":"09","name":"Bayern"}},{"name":"Miedelpark","postalCode":"95448","locality":"Bayreuth","municipality":{"key":"09462000","name":"Bayreuth","type":"Kreisfreie_Stadt"},"district":{"key":"09462","name":"Bayreuth","type":"Kreisfreie_Stadt"},"federalState":{"key":"09","name":"Bayern"}},{"name":"Miedelstr.","postalCode":"95448","locality":"Bayreuth","municipality":{"key":"09462000","name":"Bayreuth","type":"Kreisfreie_Stadt"},"district":{"key":"09462","name":"Bayreuth","type":"Kreisfreie_Stadt"},"federalState":{"key":"09","name":"Bayern"}},{"name":"Mittelstr.","postalCode":"95444","locality":"Bayreuth","municipality":{"key":"09462000","name":"Bayreuth","type":"Kreisfreie_Stadt"},"district":{"key":"09462","name":"Bayreuth","type":"Kreisfreie_Stadt"},"federalState":{"key":"09","name":"Bayern"}},{"name":"Mondweg","postalCode":"95448","locality":"Bayreuth","municipality":{"key":"09462000","name":"Bayreuth","type":"Kreisfreie_Stadt"},"district":{"key":"09462","name":"Bayreuth","type":"Kreisfreie_Stadt"},"federalState":{"key":"09","name":"Bayern"}},{"name":"Monplaisirstr.","postalCode":"95448","locality":"Bayreuth","municipality":{"key":"09462000","name":"Bayreuth","type":"Kreisfreie_Stadt"},"district":{"key":"09462","name":"Bayreuth","type":"Kreisfreie_Stadt"},"federalState":{"key":"09","name":"Bayern"}},{"name":"Morethsgut","postalCode":"95445","locality":"Bayreuth","municipality":{"key":"09462000","name":"Bayreuth","type":"Kreisfreie_Stadt"},"district":{"key":"09462","name":"Bayreuth","type":"Kreisfreie_Stadt"},"federalState":{"key":"09","name":"Bayern"}},{"name":"Mörikeweg","postalCode":"95447","locality":"Bayreuth","municipality":{"key":"09462000","name":"Bayreuth","type":"Kreisfreie_Stadt"},"district":{"key":"09462","name":"Bayreuth","type":"Kreisfreie_Stadt"},"federalState":{"key":"09","name":"Bayern"}},{"name":"Moritzhöfen","postalCode":"95447","locality":"Bayreuth","municipality":{"key":"09462000","name":"Bayreuth","type":"Kreisfreie_Stadt"},"district":{"key":"09462","name":"Bayreuth","type":"Kreisfreie_Stadt"},"federalState":{"key":"09","name":"Bayern"}},{"name":"Moselstr.","postalCode":"95445","locality":"Bayreuth","municipality":{"key":"09462000","name":"Bayreuth","type":"Kreisfreie_Stadt"},"district":{"key":"09462","name":"Bayreuth","type":"Kreisfreie_Stadt"},"federalState":{"key":"09","name":"Bayern"}},{"name":"Mosinger Str.","postalCode":"95445","locality":"Bayreuth","municipality":{"key":"09462000","name":"Bayreuth","type":"Kreisfreie_Stadt"},"district":{"key":"09462","name":"Bayreuth","type":"Kreisfreie_Stadt"},"federalState":{"key":"09","name":"Bayern"}},{"name":"Mostholzstr.","postalCode":"95448","locality":"Bayreuth","municipality":{"key":"09462000","name":"Bayreuth","type":"Kreisfreie_Stadt"},"district":{"key":"09462","name":"Bayreuth","type":"Kreisfreie_Stadt"},"federalState":{"key":"09","name":"Bayern"}},{"name":"Mozartstr.","postalCode":"95448","locality":"Bayreuth","municipality":{"key":"09462000","name":"Bayreuth","type":"Kreisfreie_Stadt"},"district":{"key":"09462","name":"Bayreuth","type":"Kreisfreie_Stadt"},"federalState":{"key":"09","name":"Bayern"}},{"name":"Munckerstr.","postalCode":"95444","locality":"Bayreuth","municipality":{"key":"09462000","name":"Bayreuth","type":"Kreisfreie_Stadt"},"district":{"key":"09462","name":"Bayreuth","type":"Kreisfreie_Stadt"},"federalState":{"key":"09","name":"Bayern"}},{"name":"Münzgasse","postalCode":"95444","locality":"Bayreuth","municipality":{"key":"09462000","name":"Bayreuth","type":"Kreisfreie_Stadt"},"district":{"key":"09462","name":"Bayreuth","type":"Kreisfreie_Stadt"},"federalState":{"key":"09","name":"Bayern"}},{"name":"Naabstr.","postalCode":"95445","locality":"Bayreuth","municipality":{"key":"09462000","name":"Bayreuth","type":"Kreisfreie_Stadt"},"district":{"key":"09462","name":"Bayreuth","type":"Kreisfreie_Stadt"},"federalState":{"key":"09","name":"Bayern"}},{"name":"Narzissenweg","postalCode":"95447","locality":"Bayreuth","municipality":{"key":"09462000","name":"Bayreuth","type":"Kreisfreie_Stadt"},"district":{"key":"09462","name":"Bayreuth","type":"Kreisfreie_Stadt"},"federalState":{"key":"09","name":"Bayern"}},{"name":"Neckarstr.","postalCode":"95445","locality":"Bayreuth","municipality":{"key":"09462000","name":"Bayreuth","type":"Kreisfreie_Stadt"},"district":{"key":"09462","name":"Bayreuth","type":"Kreisfreie_Stadt"},"federalState":{"key":"09","name":"Bayern"}},{"name":"Neckarstr.","postalCode":"95447","locality":"Bayreuth","municipality":{"key":"09462000","name":"Bayreuth","type":"Kreisfreie_Stadt"},"district":{"key":"09462","name":"Bayreuth","type":"Kreisfreie_Stadt"},"federalState":{"key":"09","name":"Bayern"}},{"name":"Neißeweg","postalCode":"95445","locality":"Bayreuth","municipality":{"key":"09462000","name":"Bayreuth","type":"Kreisfreie_Stadt"},"district":{"key":"09462","name":"Bayreuth","type":"Kreisfreie_Stadt"},"federalState":{"key":"09","name":"Bayern"}},{"name":"Nelkenweg","postalCode":"95447","locality":"Bayreuth","municipality":{"key":"09462000","name":"Bayreuth","type":"Kreisfreie_Stadt"},"district":{"key":"09462","name":"Bayreuth","type":"Kreisfreie_Stadt"},"federalState":{"key":"09","name":"Bayern"}},{"name":"Neptunstr.","postalCode":"95448","locality":"Bayreuth","municipality":{"key":"09462000","name":"Bayreuth","type":"Kreisfreie_Stadt"},"district":{"key":"09462","name":"Bayreuth","type":"Kreisfreie_Stadt"},"federalState":{"key":"09","name":"Bayern"}},{"name":"Neunundneunzig Gärten","postalCode":"95445","locality":"Bayreuth","municipality":{"key":"09462000","name":"Bayreuth","type":"Kreisfreie_Stadt"},"district":{"key":"09462","name":"Bayreuth","type":"Kreisfreie_Stadt"},"federalState":{"key":"09","name":"Bayern"}},{"name":"Nibelungenhof","postalCode":"95444","locality":"Bayreuth","municipality":{"key":"09462000","name":"Bayreuth","type":"Kreisfreie_Stadt"},"district":{"key":"09462","name":"Bayreuth","type":"Kreisfreie_Stadt"},"federalState":{"key":"09","name":"Bayern"}},{"name":"Nibelungenstr.","postalCode":"95444","locality":"Bayreuth","municipality":{"key":"09462000","name":"Bayreuth","type":"Kreisfreie_Stadt"},"district":{"key":"09462","name":"Bayreuth","type":"Kreisfreie_Stadt"},"federalState":{"key":"09","name":"Bayern"}},{"name":"Nobelstr.","postalCode":"95444","locality":"Bayreuth","municipality":{"key":"09462000","name":"Bayreuth","type":"Kreisfreie_Stadt"},"district":{"key":"09462","name":"Bayreuth","type":"Kreisfreie_Stadt"},"federalState":{"key":"09","name":"Bayern"}},{"name":"Nördlicher Ringweg","postalCode":"95447","locality":"Bayreuth","municipality":{"key":"09462000","name":"Bayreuth","type":"Kreisfreie_Stadt"},"district":{"key":"09462","name":"Bayreuth","type":"Kreisfreie_Stadt"},"federalState":{"key":"09","name":"Bayern"}},{"name":"Nordring","postalCode":"95444","locality":"Bayreuth","municipality":{"key":"09462000","name":"Bayreuth","type":"Kreisfreie_Stadt"},"district":{"key":"09462","name":"Bayreuth","type":"Kreisfreie_Stadt"},"federalState":{"key":"09","name":"Bayern"}},{"name":"Nordring","postalCode":"95445","locality":"Bayreuth","municipality":{"key":"09462000","name":"Bayreuth","type":"Kreisfreie_Stadt"},"district":{"key":"09462","name":"Bayreuth","type":"Kreisfreie_Stadt"},"federalState":{"key":"09","name":"Bayern"}},{"name":"Nürnberger Str.","postalCode":"95448","locality":"Bayreuth","municipality":{"key":"09462000","name":"Bayreuth","type":"Kreisfreie_Stadt"},"district":{"key":"09462","name":"Bayreuth","type":"Kreisfreie_Stadt"},"federalState":{"key":"09","name":"Bayern"}},{"name":"Oberer Bergweg","postalCode":"95448","locality":"Bayreuth","municipality":{"key":"09462000","name":"Bayreuth","type":"Kreisfreie_Stadt"},"district":{"key":"09462","name":"Bayreuth","type":"Kreisfreie_Stadt"},"federalState":{"key":"09","name":"Bayern"}},{"name":"Obere Röth","postalCode":"95448","locality":"Bayreuth","municipality":{"key":"09462000","name":"Bayreuth","type":"Kreisfreie_Stadt"},"district":{"key":"09462","name":"Bayreuth","type":"Kreisfreie_Stadt"},"federalState":{"key":"09","name":"Bayern"}},{"name":"Oberkonnersreuther Str.","postalCode":"95448","locality":"Bayreuth","municipality":{"key":"09462000","name":"Bayreuth","type":"Kreisfreie_Stadt"},"district":{"key":"09462","name":"Bayreuth","type":"Kreisfreie_Stadt"},"federalState":{"key":"09","name":"Bayern"}},{"name":"Oberobsang","postalCode":"95445","locality":"Bayreuth","municipality":{"key":"09462000","name":"Bayreuth","type":"Kreisfreie_Stadt"},"district":{"key":"09462","name":"Bayreuth","type":"Kreisfreie_Stadt"},"federalState":{"key":"09","name":"Bayern"}},{"name":"Oberthiergärtner Str.","postalCode":"95448","locality":"Bayreuth","municipality":{"key":"09462000","name":"Bayreuth","type":"Kreisfreie_Stadt"},"district":{"key":"09462","name":"Bayreuth","type":"Kreisfreie_Stadt"},"federalState":{"key":"09","name":"Bayern"}},{"name":"Ochsenhut","postalCode":"95448","locality":"Bayreuth","municipality":{"key":"09462000","name":"Bayreuth","type":"Kreisfreie_Stadt"},"district":{"key":"09462","name":"Bayreuth","type":"Kreisfreie_Stadt"},"federalState":{"key":"09","name":"Bayern"}},{"name":"Odenwaldstr.","postalCode":"95448","locality":"Bayreuth","municipality":{"key":"09462000","name":"Bayreuth","type":"Kreisfreie_Stadt"},"district":{"key":"09462","name":"Bayreuth","type":"Kreisfreie_Stadt"},"federalState":{"key":"09","name":"Bayern"}},{"name":"Odinweg","postalCode":"95448","locality":"Bayreuth","municipality":{"key":"09462000","name":"Bayreuth","type":"Kreisfreie_Stadt"},"district":{"key":"09462","name":"Bayreuth","type":"Kreisfreie_Stadt"},"federalState":{"key":"09","name":"Bayern"}},{"name":"Opernstr.","postalCode":"95444","locality":"Bayreuth","municipality":{"key":"09462000","name":"Bayreuth","type":"Kreisfreie_Stadt"},"district":{"key":"09462","name":"Bayreuth","type":"Kreisfreie_Stadt"},"federalState":{"key":"09","name":"Bayern"}},{"name":"Orlamündeweg","postalCode":"95445","locality":"Bayreuth","municipality":{"key":"09462000","name":"Bayreuth","type":"Kreisfreie_Stadt"},"district":{"key":"09462","name":"Bayreuth","type":"Kreisfreie_Stadt"},"federalState":{"key":"09","name":"Bayern"}},{"name":"Ortrudweg","postalCode":"95445","locality":"Bayreuth","municipality":{"key":"09462000","name":"Bayreuth","type":"Kreisfreie_Stadt"},"district":{"key":"09462","name":"Bayreuth","type":"Kreisfreie_Stadt"},"federalState":{"key":"09","name":"Bayern"}},{"name":"Oschenberg","postalCode":"95448","locality":"Bayreuth","municipality":{"key":"09462000","name":"Bayreuth","type":"Kreisfreie_Stadt"},"district":{"key":"09462","name":"Bayreuth","type":"Kreisfreie_Stadt"},"federalState":{"key":"09","name":"Bayern"}},{"name":"Oskar-Jünger-Str.","postalCode":"95447","locality":"Bayreuth","municipality":{"key":"09462000","name":"Bayreuth","type":"Kreisfreie_Stadt"},"district":{"key":"09462","name":"Bayreuth","type":"Kreisfreie_Stadt"},"federalState":{"key":"09","name":"Bayern"}},{"name":"Oswald-Merz-Str.","postalCode":"95444","locality":"Bayreuth","municipality":{"key":"09462000","name":"Bayreuth","type":"Kreisfreie_Stadt"},"district":{"key":"09462","name":"Bayreuth","type":"Kreisfreie_Stadt"},"federalState":{"key":"09","name":"Bayern"}},{"name":"Panoramaweg","postalCode":"95448","locality":"Bayreuth","municipality":{"key":"09462000","name":"Bayreuth","type":"Kreisfreie_Stadt"},"district":{"key":"09462","name":"Bayreuth","type":"Kreisfreie_Stadt"},"federalState":{"key":"09","name":"Bayern"}},{"name":"Panzerteichweg","postalCode":"95448","locality":"Bayreuth","municipality":{"key":"09462000","name":"Bayreuth","type":"Kreisfreie_Stadt"},"district":{"key":"09462","name":"Bayreuth","type":"Kreisfreie_Stadt"},"federalState":{"key":"09","name":"Bayern"}},{"name":"Paracelsusring","postalCode":"95447","locality":"Bayreuth","municipality":{"key":"09462000","name":"Bayreuth","type":"Kreisfreie_Stadt"},"district":{"key":"09462","name":"Bayreuth","type":"Kreisfreie_Stadt"},"federalState":{"key":"09","name":"Bayern"}},{"name":"Parkhaus-Passage","postalCode":"95444","locality":"Bayreuth","municipality":{"key":"09462000","name":"Bayreuth","type":"Kreisfreie_Stadt"},"district":{"key":"09462","name":"Bayreuth","type":"Kreisfreie_Stadt"},"federalState":{"key":"09","name":"Bayern"}},{"name":"Parkstr.","postalCode":"95444","locality":"Bayreuth","municipality":{"key":"09462000","name":"Bayreuth","type":"Kreisfreie_Stadt"},"district":{"key":"09462","name":"Bayreuth","type":"Kreisfreie_Stadt"},"federalState":{"key":"09","name":"Bayern"}},{"name":"Parsifalstr.","postalCode":"95445","locality":"Bayreuth","municipality":{"key":"09462000","name":"Bayreuth","type":"Kreisfreie_Stadt"},"district":{"key":"09462","name":"Bayreuth","type":"Kreisfreie_Stadt"},"federalState":{"key":"09","name":"Bayern"}},{"name":"Passage Max 48","postalCode":"95444","locality":"Bayreuth","municipality":{"key":"09462000","name":"Bayreuth","type":"Kreisfreie_Stadt"},"district":{"key":"09462","name":"Bayreuth","type":"Kreisfreie_Stadt"},"federalState":{"key":"09","name":"Bayern"}},{"name":"Pestalozzistr.","postalCode":"95445","locality":"Bayreuth","municipality":{"key":"09462000","name":"Bayreuth","type":"Kreisfreie_Stadt"},"district":{"key":"09462","name":"Bayreuth","type":"Kreisfreie_Stadt"},"federalState":{"key":"09","name":"Bayern"}},{"name":"Peter-Rosegger-Str.","postalCode":"95447","locality":"Bayreuth","municipality":{"key":"09462000","name":"Bayreuth","type":"Kreisfreie_Stadt"},"district":{"key":"09462","name":"Bayreuth","type":"Kreisfreie_Stadt"},"federalState":{"key":"09","name":"Bayern"}},{"name":"Pettenkoferstr.","postalCode":"95447","locality":"Bayreuth","municipality":{"key":"09462000","name":"Bayreuth","type":"Kreisfreie_Stadt"},"district":{"key":"09462","name":"Bayreuth","type":"Kreisfreie_Stadt"},"federalState":{"key":"09","name":"Bayern"}},{"name":"Peuntgasse","postalCode":"95444","locality":"Bayreuth","municipality":{"key":"09462000","name":"Bayreuth","type":"Kreisfreie_Stadt"},"district":{"key":"09462","name":"Bayreuth","type":"Kreisfreie_Stadt"},"federalState":{"key":"09","name":"Bayern"}},{"name":"Peuntlein","postalCode":"95445","locality":"Bayreuth","municipality":{"key":"09462000","name":"Bayreuth","type":"Kreisfreie_Stadt"},"district":{"key":"09462","name":"Bayreuth","type":"Kreisfreie_Stadt"},"federalState":{"key":"09","name":"Bayern"}},{"name":"Pfaffenfleck","postalCode":"95448","locality":"Bayreuth","municipality":{"key":"09462000","name":"Bayreuth","type":"Kreisfreie_Stadt"},"district":{"key":"09462","name":"Bayreuth","type":"Kreisfreie_Stadt"},"federalState":{"key":"09","name":"Bayern"}},{"name":"Pfälzerstr.","postalCode":"95448","locality":"Bayreuth","municipality":{"key":"09462000","name":"Bayreuth","type":"Kreisfreie_Stadt"},"district":{"key":"09462","name":"Bayreuth","type":"Kreisfreie_Stadt"},"federalState":{"key":"09","name":"Bayern"}},{"name":"Plantage","postalCode":"95448","locality":"Bayreuth","municipality":{"key":"09462000","name":"Bayreuth","type":"Kreisfreie_Stadt"},"district":{"key":"09462","name":"Bayreuth","type":"Kreisfreie_Stadt"},"federalState":{"key":"09","name":"Bayern"}},{"name":"Plutostr.","postalCode":"95448","locality":"Bayreuth","municipality":{"key":"09462000","name":"Bayreuth","type":"Kreisfreie_Stadt"},"district":{"key":"09462","name":"Bayreuth","type":"Kreisfreie_Stadt"},"federalState":{"key":"09","name":"Bayern"}},{"name":"Polarstr.","postalCode":"95448","locality":"Bayreuth","municipality":{"key":"09462000","name":"Bayreuth","type":"Kreisfreie_Stadt"},"district":{"key":"09462","name":"Bayreuth","type":"Kreisfreie_Stadt"},"federalState":{"key":"09","name":"Bayern"}},{"name":"Pommernstr.","postalCode":"95447","locality":"Bayreuth","municipality":{"key":"09462000","name":"Bayreuth","type":"Kreisfreie_Stadt"},"district":{"key":"09462","name":"Bayreuth","type":"Kreisfreie_Stadt"},"federalState":{"key":"09","name":"Bayern"}},{"name":"Pottaschhütte","postalCode":"95447","locality":"Bayreuth","municipality":{"key":"09462000","name":"Bayreuth","type":"Kreisfreie_Stadt"},"district":{"key":"09462","name":"Bayreuth","type":"Kreisfreie_Stadt"},"federalState":{"key":"09","name":"Bayern"}},{"name":"Pottensteiner Str.","postalCode":"95447","locality":"Bayreuth","municipality":{"key":"09462000","name":"Bayreuth","type":"Kreisfreie_Stadt"},"district":{"key":"09462","name":"Bayreuth","type":"Kreisfreie_Stadt"},"federalState":{"key":"09","name":"Bayern"}},{"name":"Prellweg","postalCode":"95448","locality":"Bayreuth","municipality":{"key":"09462000","name":"Bayreuth","type":"Kreisfreie_Stadt"},"district":{"key":"09462","name":"Bayreuth","type":"Kreisfreie_Stadt"},"federalState":{"key":"09","name":"Bayern"}},{"name":"Preuschwitzer Str.","postalCode":"95445","locality":"Bayreuth","municipality":{"key":"09462000","name":"Bayreuth","type":"Kreisfreie_Stadt"},"district":{"key":"09462","name":"Bayreuth","type":"Kreisfreie_Stadt"},"federalState":{"key":"09","name":"Bayern"}},{"name":"Prieserstr.","postalCode":"95444","locality":"Bayreuth","municipality":{"key":"09462000","name":"Bayreuth","type":"Kreisfreie_Stadt"},"district":{"key":"09462","name":"Bayreuth","type":"Kreisfreie_Stadt"},"federalState":{"key":"09","name":"Bayern"}},{"name":"Prof.-Rüdiger-Bormann-Str.","postalCode":"95447","locality":"Bayreuth","municipality":{"key":"09462000","name":"Bayreuth","type":"Kreisfreie_Stadt"},"district":{"key":"09462","name":"Bayreuth","type":"Kreisfreie_Stadt"},"federalState":{"key":"09","name":"Bayern"}},{"name":"Quellengrund","postalCode":"95448","locality":"Bayreuth","municipality":{"key":"09462000","name":"Bayreuth","type":"Kreisfreie_Stadt"},"district":{"key":"09462","name":"Bayreuth","type":"Kreisfreie_Stadt"},"federalState":{"key":"09","name":"Bayern"}},{"name":"Quellhöfe","postalCode":"95447","locality":"Bayreuth","municipality":{"key":"09462000","name":"Bayreuth","type":"Kreisfreie_Stadt"},"district":{"key":"09462","name":"Bayreuth","type":"Kreisfreie_Stadt"},"federalState":{"key":"09","name":"Bayern"}},{"name":"Rathausplatz","postalCode":"95517","locality":"Seybothenreuth","municipality":{"key":"09472188","name":"Seybothenreuth","type":"Kreisangehörige_Gemeinde"},"district":{"key":"09472","name":"Bayreuth","type":"Landkreis"},"federalState":{"key":"09","name":"Bayern"}},{"name":"Saaleweg","postalCode":"95445","locality":"Bayreuth","municipality":{"key":"09462000","name":"Bayreuth","type":"Kreisfreie_Stadt"},"district":{"key":"09462","name":"Bayreuth","type":"Kreisfreie_Stadt"},"federalState":{"key":"09","name":"Bayern"}},{"name":"Saas","postalCode":"95447","locality":"Bayreuth","municipality":{"key":"09462000","name":"Bayreuth","type":"Kreisfreie_Stadt"},"district":{"key":"09462","name":"Bayreuth","type":"Kreisfreie_Stadt"},"federalState":{"key":"09","name":"Bayern"}},{"name":"Saaser Berg","postalCode":"95447","locality":"Bayreuth","municipality":{"key":"09462000","name":"Bayreuth","type":"Kreisfreie_Stadt"},"district":{"key":"09462","name":"Bayreuth","type":"Kreisfreie_Stadt"},"federalState":{"key":"09","name":"Bayern"}},{"name":"Sanddornring","postalCode":"95447","locality":"Bayreuth","municipality":{"key":"09462000","name":"Bayreuth","type":"Kreisfreie_Stadt"},"district":{"key":"09462","name":"Bayreuth","type":"Kreisfreie_Stadt"},"federalState":{"key":"09","name":"Bayern"}},{"name":"Sandhügel","postalCode":"95448","locality":"Bayreuth","municipality":{"key":"09462000","name":"Bayreuth","type":"Kreisfreie_Stadt"},"district":{"key":"09462","name":"Bayreuth","type":"Kreisfreie_Stadt"},"federalState":{"key":"09","name":"Bayern"}},{"name":"Sandleite","postalCode":"95448","locality":"Bayreuth","municipality":{"key":"09462000","name":"Bayreuth","type":"Kreisfreie_Stadt"},"district":{"key":"09462","name":"Bayreuth","type":"Kreisfreie_Stadt"},"federalState":{"key":"09","name":"Bayern"}},{"name":"Sandnerweg","postalCode":"95448","locality":"Bayreuth","municipality":{"key":"09462000","name":"Bayreuth","type":"Kreisfreie_Stadt"},"district":{"key":"09462","name":"Bayreuth","type":"Kreisfreie_Stadt"},"federalState":{"key":"09","name":"Bayern"}},{"name":"Sandweg","postalCode":"95445","locality":"Bayreuth","municipality":{"key":"09462000","name":"Bayreuth","type":"Kreisfreie_Stadt"},"district":{"key":"09462","name":"Bayreuth","type":"Kreisfreie_Stadt"},"federalState":{"key":"09","name":"Bayern"}},{"name":"Saturnstr.","postalCode":"95448","locality":"Bayreuth","municipality":{"key":"09462000","name":"Bayreuth","type":"Kreisfreie_Stadt"},"district":{"key":"09462","name":"Bayreuth","type":"Kreisfreie_Stadt"},"federalState":{"key":"09","name":"Bayern"}},{"name":"Sauerbruchstr.","postalCode":"95447","locality":"Bayreuth","municipality":{"key":"09462000","name":"Bayreuth","type":"Kreisfreie_Stadt"},"district":{"key":"09462","name":"Bayreuth","type":"Kreisfreie_Stadt"},"federalState":{"key":"09","name":"Bayern"}},{"name":"Scheffelstr.","postalCode":"95445","locality":"Bayreuth","municipality":{"key":"09462000","name":"Bayreuth","type":"Kreisfreie_Stadt"},"district":{"key":"09462","name":"Bayreuth","type":"Kreisfreie_Stadt"},"federalState":{"key":"09","name":"Bayern"}},{"name":"Schellingstr.","postalCode":"95447","locality":"Bayreuth","municipality":{"key":"09462000","name":"Bayreuth","type":"Kreisfreie_Stadt"},"district":{"key":"09462","name":"Bayreuth","type":"Kreisfreie_Stadt"},"federalState":{"key":"09","name":"Bayern"}},{"name":"Schieferweg","postalCode":"95448","locality":"Bayreuth","municipality":{"key":"09462000","name":"Bayreuth","type":"Kreisfreie_Stadt"},"district":{"key":"09462","name":"Bayreuth","type":"Kreisfreie_Stadt"},"federalState":{"key":"09","name":"Bayern"}},{"name":"Schlegelstr.","postalCode":"95447","locality":"Bayreuth","municipality":{"key":"09462000","name":"Bayreuth","type":"Kreisfreie_Stadt"},"district":{"key":"09462","name":"Bayreuth","type":"Kreisfreie_Stadt"},"federalState":{"key":"09","name":"Bayern"}},{"name":"Schlehenbergstr.","postalCode":"95448","locality":"Bayreuth","municipality":{"key":"09462000","name":"Bayreuth","type":"Kreisfreie_Stadt"},"district":{"key":"09462","name":"Bayreuth","type":"Kreisfreie_Stadt"},"federalState":{"key":"09","name":"Bayern"}},{"name":"Schleienweg","postalCode":"95448","locality":"Bayreuth","municipality":{"key":"09462000","name":"Bayreuth","type":"Kreisfreie_Stadt"},"district":{"key":"09462","name":"Bayreuth","type":"Kreisfreie_Stadt"},"federalState":{"key":"09","name":"Bayern"}},{"name":"Schleiermacherstr.","postalCode":"95447","locality":"Bayreuth","municipality":{"key":"09462000","name":"Bayreuth","type":"Kreisfreie_Stadt"},"district":{"key":"09462","name":"Bayreuth","type":"Kreisfreie_Stadt"},"federalState":{"key":"09","name":"Bayern"}},{"name":"Schlesienstr.","postalCode":"95447","locality":"Bayreuth","municipality":{"key":"09462000","name":"Bayreuth","type":"Kreisfreie_Stadt"},"district":{"key":"09462","name":"Bayreuth","type":"Kreisfreie_Stadt"},"federalState":{"key":"09","name":"Bayern"}},{"name":"Schliemannstr.","postalCode":"95447","locality":"Bayreuth","municipality":{"key":"09462000","name":"Bayreuth","type":"Kreisfreie_Stadt"},"district":{"key":"09462","name":"Bayreuth","type":"Kreisfreie_Stadt"},"federalState":{"key":"09","name":"Bayern"}},{"name":"Schlierseestr.","postalCode":"95445","locality":"Bayreuth","municipality":{"key":"09462000","name":"Bayreuth","type":"Kreisfreie_Stadt"},"district":{"key":"09462","name":"Bayreuth","type":"Kreisfreie_Stadt"},"federalState":{"key":"09","name":"Bayern"}},{"name":"Schlossberglein","postalCode":"95444","locality":"Bayreuth","municipality":{"key":"09462000","name":"Bayreuth","type":"Kreisfreie_Stadt"},"district":{"key":"09462","name":"Bayreuth","type":"Kreisfreie_Stadt"},"federalState":{"key":"09","name":"Bayern"}},{"name":"Schlosshof Birken","postalCode":"95447","locality":"Bayreuth","municipality":{"key":"09462000","name":"Bayreuth","type":"Kreisfreie_Stadt"},"district":{"key":"09462","name":"Bayreuth","type":"Kreisfreie_Stadt"},"federalState":{"key":"09","name":"Bayern"}},{"name":"Schloßstr.","postalCode":"95448","locality":"Bayreuth","municipality":{"key":"09462000","name":"Bayreuth","type":"Kreisfreie_Stadt"},"district":{"key":"09462","name":"Bayreuth","type":"Kreisfreie_Stadt"},"federalState":{"key":"09","name":"Bayern"}},{"name":"Schmatzenhöhe","postalCode":"95447","locality":"Bayreuth","municipality":{"key":"09462000","name":"Bayreuth","type":"Kreisfreie_Stadt"},"district":{"key":"09462","name":"Bayreuth","type":"Kreisfreie_Stadt"},"federalState":{"key":"09","name":"Bayern"}},{"name":"Schneewittchenstr.","postalCode":"95447","locality":"Bayreuth","municipality":{"key":"09462000","name":"Bayreuth","type":"Kreisfreie_Stadt"},"district":{"key":"09462","name":"Bayreuth","type":"Kreisfreie_Stadt"},"federalState":{"key":"09","name":"Bayern"}},{"name":"Schöne Aussicht","postalCode":"95448","locality":"Bayreuth","municipality":{"key":"09462000","name":"Bayreuth","type":"Kreisfreie_Stadt"},"district":{"key":"09462","name":"Bayreuth","type":"Kreisfreie_Stadt"},"federalState":{"key":"09","name":"Bayern"}},{"name":"Schopenhauerstr.","postalCode":"95447","locality":"Bayreuth","municipality":{"key":"09462000","name":"Bayreuth","type":"Kreisfreie_Stadt"},"district":{"key":"09462","name":"Bayreuth","type":"Kreisfreie_Stadt"},"federalState":{"key":"09","name":"Bayern"}},{"name":"Schulstr.","postalCode":"95444","locality":"Bayreuth","municipality":{"key":"09462000","name":"Bayreuth","type":"Kreisfreie_Stadt"},"district":{"key":"09462","name":"Bayreuth","type":"Kreisfreie_Stadt"},"federalState":{"key":"09","name":"Bayern"}},{"name":"Schumannstr.","postalCode":"95448","locality":"Bayreuth","municipality":{"key":"09462000","name":"Bayreuth","type":"Kreisfreie_Stadt"},"district":{"key":"09462","name":"Bayreuth","type":"Kreisfreie_Stadt"},"federalState":{"key":"09","name":"Bayern"}},{"name":"Schupfenschlag","postalCode":"95445","locality":"Bayreuth","municipality":{"key":"09462000","name":"Bayreuth","type":"Kreisfreie_Stadt"},"district":{"key":"09462","name":"Bayreuth","type":"Kreisfreie_Stadt"},"federalState":{"key":"09","name":"Bayern"}},{"name":"Schützenplatz","postalCode":"95444","locality":"Bayreuth","municipality":{"key":"09462000","name":"Bayreuth","type":"Kreisfreie_Stadt"},"district":{"key":"09462","name":"Bayreuth","type":"Kreisfreie_Stadt"},"federalState":{"key":"09","name":"Bayern"}},{"name":"Schützenstr.","postalCode":"95448","locality":"Bayreuth","municipality":{"key":"09462000","name":"Bayreuth","type":"Kreisfreie_Stadt"},"district":{"key":"09462","name":"Bayreuth","type":"Kreisfreie_Stadt"},"federalState":{"key":"09","name":"Bayern"}},{"name":"Schwabenstr.","postalCode":"95448","locality":"Bayreuth","municipality":{"key":"09462000","name":"Bayreuth","type":"Kreisfreie_Stadt"},"district":{"key":"09462","name":"Bayreuth","type":"Kreisfreie_Stadt"},"federalState":{"key":"09","name":"Bayern"}},{"name":"Schwalbenweg","postalCode":"95445","locality":"Bayreuth","municipality":{"key":"09462000","name":"Bayreuth","type":"Kreisfreie_Stadt"},"district":{"key":"09462","name":"Bayreuth","type":"Kreisfreie_Stadt"},"federalState":{"key":"09","name":"Bayern"}},{"name":"Schwarzwaldstr.","postalCode":"95448","locality":"Bayreuth","municipality":{"key":"09462000","name":"Bayreuth","type":"Kreisfreie_Stadt"},"district":{"key":"09462","name":"Bayreuth","type":"Kreisfreie_Stadt"},"federalState":{"key":"09","name":"Bayern"}},{"name":"Schwedenbrücke","postalCode":"95447","locality":"Bayreuth","municipality":{"key":"09462000","name":"Bayreuth","type":"Kreisfreie_Stadt"},"district":{"key":"09462","name":"Bayreuth","type":"Kreisfreie_Stadt"},"federalState":{"key":"09","name":"Bayern"}},{"name":"Schwindstr.","postalCode":"95447","locality":"Bayreuth","municipality":{"key":"09462000","name":"Bayreuth","type":"Kreisfreie_Stadt"},"district":{"key":"09462","name":"Bayreuth","type":"Kreisfreie_Stadt"},"federalState":{"key":"09","name":"Bayern"}},{"name":"Seestr.","postalCode":"95448","locality":"Bayreuth","municipality":{"key":"09462000","name":"Bayreuth","type":"Kreisfreie_Stadt"},"district":{"key":"09462","name":"Bayreuth","type":"Kreisfreie_Stadt"},"federalState":{"key":"09","name":"Bayern"}},{"name":"Sentaweg","postalCode":"95445","locality":"Bayreuth","municipality":{"key":"09462000","name":"Bayreuth","type":"Kreisfreie_Stadt"},"district":{"key":"09462","name":"Bayreuth","type":"Kreisfreie_Stadt"},"federalState":{"key":"09","name":"Bayern"}},{"name":"Seulbitzer Str.","postalCode":"95448","locality":"Bayreuth","municipality":{"key":"09462000","name":"Bayreuth","type":"Kreisfreie_Stadt"},"district":{"key":"09462","name":"Bayreuth","type":"Kreisfreie_Stadt"},"federalState":{"key":"09","name":"Bayern"}},{"name":"Seulbitzer Weg","postalCode":"95448","locality":"Bayreuth","municipality":{"key":"09462000","name":"Bayreuth","type":"Kreisfreie_Stadt"},"district":{"key":"09462","name":"Bayreuth","type":"Kreisfreie_Stadt"},"federalState":{"key":"09","name":"Bayern"}},{"name":"Siebener Platz","postalCode":"95444","locality":"Bayreuth","municipality":{"key":"09462000","name":"Bayreuth","type":"Kreisfreie_Stadt"},"district":{"key":"09462","name":"Bayreuth","type":"Kreisfreie_Stadt"},"federalState":{"key":"09","name":"Bayern"}},{"name":"Siegfriedstr.","postalCode":"95444","locality":"Bayreuth","municipality":{"key":"09462000","name":"Bayreuth","type":"Kreisfreie_Stadt"},"district":{"key":"09462","name":"Bayreuth","type":"Kreisfreie_Stadt"},"federalState":{"key":"09","name":"Bayern"}},{"name":"Siegfried-Wagner-Allee","postalCode":"95445","locality":"Bayreuth","municipality":{"key":"09462000","name":"Bayreuth","type":"Kreisfreie_Stadt"},"district":{"key":"09462","name":"Bayreuth","type":"Kreisfreie_Stadt"},"federalState":{"key":"09","name":"Bayern"}},{"name":"Sieglindestr.","postalCode":"95445","locality":"Bayreuth","municipality":{"key":"09462000","name":"Bayreuth","type":"Kreisfreie_Stadt"},"district":{"key":"09462","name":"Bayreuth","type":"Kreisfreie_Stadt"},"federalState":{"key":"09","name":"Bayern"}},{"name":"Siegmundstr.","postalCode":"95445","locality":"Bayreuth","municipality":{"key":"09462000","name":"Bayreuth","type":"Kreisfreie_Stadt"},"district":{"key":"09462","name":"Bayreuth","type":"Kreisfreie_Stadt"},"federalState":{"key":"09","name":"Bayern"}},{"name":"Singgäßchen","postalCode":"95448","locality":"Bayreuth","municipality":{"key":"09462000","name":"Bayreuth","type":"Kreisfreie_Stadt"},"district":{"key":"09462","name":"Bayreuth","type":"Kreisfreie_Stadt"},"federalState":{"key":"09","name":"Bayern"}},{"name":"Sonnenleite","postalCode":"95448","locality":"Bayreuth","municipality":{"key":"09462000","name":"Bayreuth","type":"Kreisfreie_Stadt"},"district":{"key":"09462","name":"Bayreuth","type":"Kreisfreie_Stadt"},"federalState":{"key":"09","name":"Bayern"}},{"name":"Sonnenstr.","postalCode":"95448","locality":"Bayreuth","municipality":{"key":"09462000","name":"Bayreuth","type":"Kreisfreie_Stadt"},"district":{"key":"09462","name":"Bayreuth","type":"Kreisfreie_Stadt"},"federalState":{"key":"09","name":"Bayern"}},{"name":"Sonntagstr.","postalCode":"95448","locality":"Bayreuth","municipality":{"key":"09462000","name":"Bayreuth","type":"Kreisfreie_Stadt"},"district":{"key":"09462","name":"Bayreuth","type":"Kreisfreie_Stadt"},"federalState":{"key":"09","name":"Bayern"}},{"name":"Talblick","postalCode":"95448","locality":"Bayreuth","municipality":{"key":"09462000","name":"Bayreuth","type":"Kreisfreie_Stadt"},"district":{"key":"09462","name":"Bayreuth","type":"Kreisfreie_Stadt"},"federalState":{"key":"09","name":"Bayern"}},{"name":"Talweg","postalCode":"95445","locality":"Bayreuth","municipality":{"key":"09462000","name":"Bayreuth","type":"Kreisfreie_Stadt"},"district":{"key":"09462","name":"Bayreuth","type":"Kreisfreie_Stadt"},"federalState":{"key":"09","name":"Bayern"}},{"name":"Tannenbergstr.","postalCode":"95447","locality":"Bayreuth","municipality":{"key":"09462000","name":"Bayreuth","type":"Kreisfreie_Stadt"},"district":{"key":"09462","name":"Bayreuth","type":"Kreisfreie_Stadt"},"federalState":{"key":"09","name":"Bayern"}},{"name":"Tannenweg","postalCode":"95445","locality":"Bayreuth","municipality":{"key":"09462000","name":"Bayreuth","type":"Kreisfreie_Stadt"},"district":{"key":"09462","name":"Bayreuth","type":"Kreisfreie_Stadt"},"federalState":{"key":"09","name":"Bayern"}},{"name":"Tannhäuserstr.","postalCode":"95445","locality":"Bayreuth","municipality":{"key":"09462000","name":"Bayreuth","type":"Kreisfreie_Stadt"},"district":{"key":"09462","name":"Bayreuth","type":"Kreisfreie_Stadt"},"federalState":{"key":"09","name":"Bayern"}},{"name":"Tannhäuserstr.","postalCode":"95448","locality":"Bayreuth","municipality":{"key":"09462000","name":"Bayreuth","type":"Kreisfreie_Stadt"},"district":{"key":"09462","name":"Bayreuth","type":"Kreisfreie_Stadt"},"federalState":{"key":"09","name":"Bayern"}},{"name":"Tauererweg","postalCode":"95447","locality":"Bayreuth","municipality":{"key":"09462000","name":"Bayreuth","type":"Kreisfreie_Stadt"},"district":{"key":"09462","name":"Bayreuth","type":"Kreisfreie_Stadt"},"federalState":{"key":"09","name":"Bayern"}},{"name":"Taunusstr.","postalCode":"95448","locality":"Bayreuth","municipality":{"key":"09462000","name":"Bayreuth","type":"Kreisfreie_Stadt"},"district":{"key":"09462","name":"Bayreuth","type":"Kreisfreie_Stadt"},"federalState":{"key":"09","name":"Bayern"}},{"name":"Tegernseeweg","postalCode":"95445","locality":"Bayreuth","municipality":{"key":"09462000","name":"Bayreuth","type":"Kreisfreie_Stadt"},"district":{"key":"09462","name":"Bayreuth","type":"Kreisfreie_Stadt"},"federalState":{"key":"09","name":"Bayern"}},{"name":"Teichweg","postalCode":"95448","locality":"Bayreuth","municipality":{"key":"09462000","name":"Bayreuth","type":"Kreisfreie_Stadt"},"district":{"key":"09462","name":"Bayreuth","type":"Kreisfreie_Stadt"},"federalState":{"key":"09","name":"Bayern"}},{"name":"Telemannstr.","postalCode":"95444","locality":"Bayreuth","municipality":{"key":"09462000","name":"Bayreuth","type":"Kreisfreie_Stadt"},"district":{"key":"09462","name":"Bayreuth","type":"Kreisfreie_Stadt"},"federalState":{"key":"09","name":"Bayern"}},{"name":"Telramundweg","postalCode":"95445","locality":"Bayreuth","municipality":{"key":"09462000","name":"Bayreuth","type":"Kreisfreie_Stadt"},"district":{"key":"09462","name":"Bayreuth","type":"Kreisfreie_Stadt"},"federalState":{"key":"09","name":"Bayern"}},{"name":"Teufelsgraben","postalCode":"95445","locality":"Bayreuth","municipality":{"key":"09462000","name":"Bayreuth","type":"Kreisfreie_Stadt"},"district":{"key":"09462","name":"Bayreuth","type":"Kreisfreie_Stadt"},"federalState":{"key":"09","name":"Bayern"}},{"name":"Theodor-Schmidt-Str.","postalCode":"95448","locality":"Bayreuth","municipality":{"key":"09462000","name":"Bayreuth","type":"Kreisfreie_Stadt"},"district":{"key":"09462","name":"Bayreuth","type":"Kreisfreie_Stadt"},"federalState":{"key":"09","name":"Bayern"}},{"name":"Theodor-Storm-Str.","postalCode":"95447","locality":"Bayreuth","municipality":{"key":"09462000","name":"Bayreuth","type":"Kreisfreie_Stadt"},"district":{"key":"09462","name":"Bayreuth","type":"Kreisfreie_Stadt"},"federalState":{"key":"09","name":"Bayern"}},{"name":"Thiergärtner Str.","postalCode":"95447","locality":"Bayreuth","municipality":{"key":"09462000","name":"Bayreuth","type":"Kreisfreie_Stadt"},"district":{"key":"09462","name":"Bayreuth","type":"Kreisfreie_Stadt"},"federalState":{"key":"09","name":"Bayern"}},{"name":"Thiergärtner Str.","postalCode":"95448","locality":"Bayreuth","municipality":{"key":"09462000","name":"Bayreuth","type":"Kreisfreie_Stadt"},"district":{"key":"09462","name":"Bayreuth","type":"Kreisfreie_Stadt"},"federalState":{"key":"09","name":"Bayern"}},{"name":"Tierpark Röhrensee","postalCode":"95447","locality":"Bayreuth","municipality":{"key":"09462000","name":"Bayreuth","type":"Kreisfreie_Stadt"},"district":{"key":"09462","name":"Bayreuth","type":"Kreisfreie_Stadt"},"federalState":{"key":"09","name":"Bayern"}},{"name":"Tilsiter Str.","postalCode":"95448","locality":"Bayreuth","municipality":{"key":"09462000","name":"Bayreuth","type":"Kreisfreie_Stadt"},"district":{"key":"09462","name":"Bayreuth","type":"Kreisfreie_Stadt"},"federalState":{"key":"09","name":"Bayern"}},{"name":"Tirolerstr.","postalCode":"95448","locality":"Bayreuth","municipality":{"key":"09462000","name":"Bayreuth","type":"Kreisfreie_Stadt"},"district":{"key":"09462","name":"Bayreuth","type":"Kreisfreie_Stadt"},"federalState":{"key":"09","name":"Bayern"}},{"name":"Tizianweg","postalCode":"95447","locality":"Bayreuth","municipality":{"key":"09462000","name":"Bayreuth","type":"Kreisfreie_Stadt"},"district":{"key":"09462","name":"Bayreuth","type":"Kreisfreie_Stadt"},"federalState":{"key":"09","name":"Bayern"}},{"name":"Tristanstr.","postalCode":"95445","locality":"Bayreuth","municipality":{"key":"09462000","name":"Bayreuth","type":"Kreisfreie_Stadt"},"district":{"key":"09462","name":"Bayreuth","type":"Kreisfreie_Stadt"},"federalState":{"key":"09","name":"Bayern"}},{"name":"Tulpenweg","postalCode":"95447","locality":"Bayreuth","municipality":{"key":"09462000","name":"Bayreuth","type":"Kreisfreie_Stadt"},"district":{"key":"09462","name":"Bayreuth","type":"Kreisfreie_Stadt"},"federalState":{"key":"09","name":"Bayern"}},{"name":"Tunnelstr.","postalCode":"95444","locality":"Bayreuth","municipality":{"key":"09462000","name":"Bayreuth","type":"Kreisfreie_Stadt"},"district":{"key":"09462","name":"Bayreuth","type":"Kreisfreie_Stadt"},"federalState":{"key":"09","name":"Bayern"}},{"name":"Tunnelstr.","postalCode":"95448","locality":"Bayreuth","municipality":{"key":"09462000","name":"Bayreuth","type":"Kreisfreie_Stadt"},"district":{"key":"09462","name":"Bayreuth","type":"Kreisfreie_Stadt"},"federalState":{"key":"09","name":"Bayern"}},{"name":"Uhlandweg","postalCode":"95447","locality":"Bayreuth","municipality":{"key":"09462000","name":"Bayreuth","type":"Kreisfreie_Stadt"},"district":{"key":"09462","name":"Bayreuth","type":"Kreisfreie_Stadt"},"federalState":{"key":"09","name":"Bayern"}},{"name":"Universitätsstr.","postalCode":"95444","locality":"Bayreuth","municipality":{"key":"09462000","name":"Bayreuth","type":"Kreisfreie_Stadt"},"district":{"key":"09462","name":"Bayreuth","type":"Kreisfreie_Stadt"},"federalState":{"key":"09","name":"Bayern"}},{"name":"Universitätsstr.","postalCode":"95447","locality":"Bayreuth","municipality":{"key":"09462000","name":"Bayreuth","type":"Kreisfreie_Stadt"},"district":{"key":"09462","name":"Bayreuth","type":"Kreisfreie_Stadt"},"federalState":{"key":"09","name":"Bayern"}},{"name":"Universitätsstr.","postalCode":"95448","locality":"Bayreuth","municipality":{"key":"09462000","name":"Bayreuth","type":"Kreisfreie_Stadt"},"district":{"key":"09462","name":"Bayreuth","type":"Kreisfreie_Stadt"},"federalState":{"key":"09","name":"Bayern"}},{"name":"Untere Rotmainaue","postalCode":"95445","locality":"Bayreuth","municipality":{"key":"09462000","name":"Bayreuth","type":"Kreisfreie_Stadt"},"district":{"key":"09462","name":"Bayreuth","type":"Kreisfreie_Stadt"},"federalState":{"key":"09","name":"Bayern"}},{"name":"Unteres Tor","postalCode":"95445","locality":"Bayreuth","municipality":{"key":"09462000","name":"Bayreuth","type":"Kreisfreie_Stadt"},"district":{"key":"09462","name":"Bayreuth","type":"Kreisfreie_Stadt"},"federalState":{"key":"09","name":"Bayern"}},{"name":"Unternschreezer Str.","postalCode":"95448","locality":"Bayreuth","municipality":{"key":"09462000","name":"Bayreuth","type":"Kreisfreie_Stadt"},"district":{"key":"09462","name":"Bayreuth","type":"Kreisfreie_Stadt"},"federalState":{"key":"09","name":"Bayern"}},{"name":"Unterpreuschwitz","postalCode":"95445","locality":"Bayreuth","municipality":{"key":"09462000","name":"Bayreuth","type":"Kreisfreie_Stadt"},"district":{"key":"09462","name":"Bayreuth","type":"Kreisfreie_Stadt"},"federalState":{"key":"09","name":"Bayern"}},{"name":"Uranusstr.","postalCode":"95448","locality":"Bayreuth","municipality":{"key":"09462000","name":"Bayreuth","type":"Kreisfreie_Stadt"},"district":{"key":"09462","name":"Bayreuth","type":"Kreisfreie_Stadt"},"federalState":{"key":"09","name":"Bayern"}},{"name":"Von-Benckendorf-Ring","postalCode":"95517","locality":"Seybothenreuth","municipality":{"key":"09472188","name":"Seybothenreuth","type":"Kreisangehörige_Gemeinde"},"district":{"key":"09472","name":"Bayreuth","type":"Landkreis"},"federalState":{"key":"09","name":"Bayern"}},{"name":"Von-Giech-Weg","postalCode":"95517","locality":"Seybothenreuth","municipality":{"key":"09472188","name":"Seybothenreuth","type":"Kreisangehörige_Gemeinde"},"district":{"key":"09472","name":"Bayreuth","type":"Landkreis"},"federalState":{"key":"09","name":"Bayern"}},{"name":"Von-Heidenab-Weg","postalCode":"95517","locality":"Seybothenreuth","municipality":{"key":"09472188","name":"Seybothenreuth","type":"Kreisangehörige_Gemeinde"},"district":{"key":"09472","name":"Bayreuth","type":"Landkreis"},"federalState":{"key":"09","name":"Bayern"}},{"name":"Von-Lindenfels-Weg","postalCode":"95517","locality":"Seybothenreuth","municipality":{"key":"09472188","name":"Seybothenreuth","type":"Kreisangehörige_Gemeinde"},"district":{"key":"09472","name":"Bayreuth","type":"Landkreis"},"federalState":{"key":"09","name":"Bayern"}},{"name":"Von-Poseck-Weg","postalCode":"95517","locality":"Seybothenreuth","municipality":{"key":"09472188","name":"Seybothenreuth","type":"Kreisangehörige_Gemeinde"},"district":{"key":"09472","name":"Bayreuth","type":"Landkreis"},"federalState":{"key":"09","name":"Bayern"}},{"name":"Weidenberger Str.","postalCode":"95517","locality":"Seybothenreuth","municipality":{"key":"09472188","name":"Seybothenreuth","type":"Kreisangehörige_Gemeinde"},"district":{"key":"09472","name":"Bayreuth","type":"Landkreis"},"federalState":{"key":"09","name":"Bayern"}},{"name":"Zeppelinstr.","postalCode":"95444","locality":"Bayreuth","municipality":{"key":"09462000","name":"Bayreuth","type":"Kreisfreie_Stadt"},"district":{"key":"09462","name":"Bayreuth","type":"Kreisfreie_Stadt"},"federalState":{"key":"09","name":"Bayern"}},{"name":"Ziegelleite","postalCode":"95448","locality":"Bayreuth","municipality":{"key":"09462000","name":"Bayreuth","type":"Kreisfreie_Stadt"},"district":{"key":"09462","name":"Bayreuth","type":"Kreisfreie_Stadt"},"federalState":{"key":"09","name":"Bayern"}},{"name":"Zweigstr.","postalCode":"95444","locality":"Bayreuth","municipality":{"key":"09462000","name":"Bayreuth","type":"Kreisfreie_Stadt"},"district":{"key":"09462","name":"Bayreuth","type":"Kreisfreie_Stadt"},"federalState":{"key":"09","name":"Bayern"}},{"name":"Zwergenweg","postalCode":"95445","locality":"Bayreuth","municipality":{"key":"09462000","name":"Bayreuth","type":"Kreisfreie_Stadt"},"district":{"key":"09462","name":"Bayreuth","type":"Kreisfreie_Stadt"},"federalState":{"key":"09","name":"Bayern"}},{"name":"Ährenweg","postalCode":"95448","locality":"Bayreuth","municipality":{"key":"09462000","name":"Bayreuth","type":"Kreisfreie_Stadt"},"district":{"key":"09462","name":"Bayreuth","type":"Kreisfreie_Stadt"},"federalState":{"key":"09","name":"Bayern"}},{"name":"Äußere Badstr.","postalCode":"95444","locality":"Bayreuth","municipality":{"key":"09462000","name":"Bayreuth","type":"Kreisfreie_Stadt"},"district":{"key":"09462","name":"Bayreuth","type":"Kreisfreie_Stadt"},"federalState":{"key":"09","name":"Bayern"}},{"name":"Äußere Badstr.","postalCode":"95448","locality":"Bayreuth","municipality":{"key":"09462000","name":"Bayreuth","type":"Kreisfreie_Stadt"},"district":{"key":"09462","name":"Bayreuth","type":"Kreisfreie_Stadt"},"federalState":{"key":"09","name":"Bayern"}},{"name":"Äußere Nürnberger Str.","postalCode":"95448","locality":"Bayreuth","municipality":{"key":"09462000","name":"Bayreuth","type":"Kreisfreie_Stadt"},"district":{"key":"09462","name":"Bayreuth","type":"Kreisfreie_Stadt"},"federalState":{"key":"09","name":"Bayern"}},]