[{"name":"Almbergstr.","postalCode":"94158","locality":"Philippsreut","municipality":{"key":"09272139","name":"Philippsreut","type":"Kreisangehörige_Gemeinde"},"district":{"key":"09272","name":"Freyung-Grafenau","type":"Landkreis"},"federalState":{"key":"09","name":"Bayern"}},{"name":"Am Dorfplatz","postalCode":"94158","locality":"Philippsreut","municipality":{"key":"09272139","name":"Philippsreut","type":"Kreisangehörige_Gemeinde"},"district":{"key":"09272","name":"Freyung-Grafenau","type":"Landkreis"},"federalState":{"key":"09","name":"Bayern"}},{"name":"Am Ferienpark","postalCode":"94158","locality":"Philippsreut","municipality":{"key":"09272139","name":"Philippsreut","type":"Kreisangehörige_Gemeinde"},"district":{"key":"09272","name":"Freyung-Grafenau","type":"Landkreis"},"federalState":{"key":"09","name":"Bayern"}},{"name":"Am Goldenen Steig","postalCode":"94158","locality":"Philippsreut","municipality":{"key":"09272139","name":"Philippsreut","type":"Kreisangehörige_Gemeinde"},"district":{"key":"09272","name":"Freyung-Grafenau","type":"Landkreis"},"federalState":{"key":"09","name":"Bayern"}},{"name":"Am Steinberg","postalCode":"94158","locality":"Philippsreut","municipality":{"key":"09272139","name":"Philippsreut","type":"Kreisangehörige_Gemeinde"},"district":{"key":"09272","name":"Freyung-Grafenau","type":"Landkreis"},"federalState":{"key":"09","name":"Bayern"}},{"name":"Bischof-Firmian-Str.","postalCode":"94158","locality":"Philippsreut","municipality":{"key":"09272139","name":"Philippsreut","type":"Kreisangehörige_Gemeinde"},"district":{"key":"09272","name":"Freyung-Grafenau","type":"Landkreis"},"federalState":{"key":"09","name":"Bayern"}},{"name":"Dorfstr.","postalCode":"94158","locality":"Philippsreut","municipality":{"key":"09272139","name":"Philippsreut","type":"Kreisangehörige_Gemeinde"},"district":{"key":"09272","name":"Freyung-Grafenau","type":"Landkreis"},"federalState":{"key":"09","name":"Bayern"}},{"name":"Fischersteigerweg","postalCode":"94158","locality":"Philippsreut","municipality":{"key":"09272139","name":"Philippsreut","type":"Kreisangehörige_Gemeinde"},"district":{"key":"09272","name":"Freyung-Grafenau","type":"Landkreis"},"federalState":{"key":"09","name":"Bayern"}},{"name":"Goldsteig","postalCode":"94158","locality":"Philippsreut","municipality":{"key":"09272139","name":"Philippsreut","type":"Kreisangehörige_Gemeinde"},"district":{"key":"09272","name":"Freyung-Grafenau","type":"Landkreis"},"federalState":{"key":"09","name":"Bayern"}},{"name":"Goldsteig","postalCode":"94158","locality":"Philippsreuter Wald","municipality":{"key":"09272457","name":"Philippsreuter Wald","type":"Gemeindefreies_Gebiet_Unbewohnt"},"district":{"key":"09272","name":"Freyung-Grafenau","type":"Landkreis"},"federalState":{"key":"09","name":"Bayern"}},{"name":"Haidlhängstr.","postalCode":"94158","locality":"Philippsreut","municipality":{"key":"09272139","name":"Philippsreut","type":"Kreisangehörige_Gemeinde"},"district":{"key":"09272","name":"Freyung-Grafenau","type":"Landkreis"},"federalState":{"key":"09","name":"Bayern"}},{"name":"Hauptstr.","postalCode":"94158","locality":"Philippsreut","municipality":{"key":"09272139","name":"Philippsreut","type":"Kreisangehörige_Gemeinde"},"district":{"key":"09272","name":"Freyung-Grafenau","type":"Landkreis"},"federalState":{"key":"09","name":"Bayern"}},{"name":"Hausörterweg","postalCode":"94158","locality":"Philippsreut","municipality":{"key":"09272139","name":"Philippsreut","type":"Kreisangehörige_Gemeinde"},"district":{"key":"09272","name":"Freyung-Grafenau","type":"Landkreis"},"federalState":{"key":"09","name":"Bayern"}},{"name":"Kamerweg","postalCode":"94158","locality":"Philippsreut","municipality":{"key":"09272139","name":"Philippsreut","type":"Kreisangehörige_Gemeinde"},"district":{"key":"09272","name":"Freyung-Grafenau","type":"Landkreis"},"federalState":{"key":"09","name":"Bayern"}},{"name":"Kranitzweg","postalCode":"94158","locality":"Philippsreut","municipality":{"key":"09272139","name":"Philippsreut","type":"Kreisangehörige_Gemeinde"},"district":{"key":"09272","name":"Freyung-Grafenau","type":"Landkreis"},"federalState":{"key":"09","name":"Bayern"}},{"name":"Lindenstr.","postalCode":"94158","locality":"Philippsreut","municipality":{"key":"09272139","name":"Philippsreut","type":"Kreisangehörige_Gemeinde"},"district":{"key":"09272","name":"Freyung-Grafenau","type":"Landkreis"},"federalState":{"key":"09","name":"Bayern"}},{"name":"Mauther Str.","postalCode":"94158","locality":"Philippsreut","municipality":{"key":"09272139","name":"Philippsreut","type":"Kreisangehörige_Gemeinde"},"district":{"key":"09272","name":"Freyung-Grafenau","type":"Landkreis"},"federalState":{"key":"09","name":"Bayern"}},{"name":"Mitterdorfer Str.","postalCode":"94158","locality":"Philippsreut","municipality":{"key":"09272139","name":"Philippsreut","type":"Kreisangehörige_Gemeinde"},"district":{"key":"09272","name":"Freyung-Grafenau","type":"Landkreis"},"federalState":{"key":"09","name":"Bayern"}},{"name":"Obermoldauer Str.","postalCode":"94158","locality":"Philippsreut","municipality":{"key":"09272139","name":"Philippsreut","type":"Kreisangehörige_Gemeinde"},"district":{"key":"09272","name":"Freyung-Grafenau","type":"Landkreis"},"federalState":{"key":"09","name":"Bayern"}},{"name":"Obermoldauer Str.","postalCode":"94158","locality":"Philippsreuter Wald","municipality":{"key":"09272457","name":"Philippsreuter Wald","type":"Gemeindefreies_Gebiet_Unbewohnt"},"district":{"key":"09272","name":"Freyung-Grafenau","type":"Landkreis"},"federalState":{"key":"09","name":"Bayern"}},{"name":"Schmelzler Str.","postalCode":"94158","locality":"Philippsreut","municipality":{"key":"09272139","name":"Philippsreut","type":"Kreisangehörige_Gemeinde"},"district":{"key":"09272","name":"Freyung-Grafenau","type":"Landkreis"},"federalState":{"key":"09","name":"Bayern"}},{"name":"Schwarzkopfstr.","postalCode":"94158","locality":"Philippsreut","municipality":{"key":"09272139","name":"Philippsreut","type":"Kreisangehörige_Gemeinde"},"district":{"key":"09272","name":"Freyung-Grafenau","type":"Landkreis"},"federalState":{"key":"09","name":"Bayern"}},{"name":"Sportplatzstr.","postalCode":"94158","locality":"Philippsreut","municipality":{"key":"09272139","name":"Philippsreut","type":"Kreisangehörige_Gemeinde"},"district":{"key":"09272","name":"Freyung-Grafenau","type":"Landkreis"},"federalState":{"key":"09","name":"Bayern"}},{"name":"Tannenweg","postalCode":"94158","locality":"Philippsreut","municipality":{"key":"09272139","name":"Philippsreut","type":"Kreisangehörige_Gemeinde"},"district":{"key":"09272","name":"Freyung-Grafenau","type":"Landkreis"},"federalState":{"key":"09","name":"Bayern"}},{"name":"Unterlichtbuchetstr.","postalCode":"94158","locality":"Philippsreut","municipality":{"key":"09272139","name":"Philippsreut","type":"Kreisangehörige_Gemeinde"},"district":{"key":"09272","name":"Freyung-Grafenau","type":"Landkreis"},"federalState":{"key":"09","name":"Bayern"}},{"name":"Ursprungau","postalCode":"94158","locality":"Philippsreut","municipality":{"key":"09272139","name":"Philippsreut","type":"Kreisangehörige_Gemeinde"},"district":{"key":"09272","name":"Freyung-Grafenau","type":"Landkreis"},"federalState":{"key":"09","name":"Bayern"}},{"name":"Von-Lamberg-Str.","postalCode":"94158","locality":"Philippsreut","municipality":{"key":"09272139","name":"Philippsreut","type":"Kreisangehörige_Gemeinde"},"district":{"key":"09272","name":"Freyung-Grafenau","type":"Landkreis"},"federalState":{"key":"09","name":"Bayern"}},]