[{"name":"Adolf-Kolping-Str.","postalCode":"85104","locality":"Pförring","municipality":{"key":"09176153","name":"Pförring, M","type":"Markt"},"district":{"key":"09176","name":"Eichstätt","type":"Landkreis"},"federalState":{"key":"09","name":"Bayern"}},{"name":"Albrecht-Dürer-Str.","postalCode":"85104","locality":"Pförring","municipality":{"key":"09176153","name":"Pförring, M","type":"Markt"},"district":{"key":"09176","name":"Eichstätt","type":"Landkreis"},"federalState":{"key":"09","name":"Bayern"}},{"name":"Altwasserstr.","postalCode":"85104","locality":"Pförring","municipality":{"key":"09176153","name":"Pförring, M","type":"Markt"},"district":{"key":"09176","name":"Eichstätt","type":"Landkreis"},"federalState":{"key":"09","name":"Bayern"}},{"name":"Am Gewerbepark","postalCode":"85104","locality":"Pförring","municipality":{"key":"09176153","name":"Pförring, M","type":"Markt"},"district":{"key":"09176","name":"Eichstätt","type":"Landkreis"},"federalState":{"key":"09","name":"Bayern"}},{"name":"Am Gries","postalCode":"85104","locality":"Pförring","municipality":{"key":"09176153","name":"Pförring, M","type":"Markt"},"district":{"key":"09176","name":"Eichstätt","type":"Landkreis"},"federalState":{"key":"09","name":"Bayern"}},{"name":"Am Hang","postalCode":"85104","locality":"Pförring","municipality":{"key":"09176153","name":"Pförring, M","type":"Markt"},"district":{"key":"09176","name":"Eichstätt","type":"Landkreis"},"federalState":{"key":"09","name":"Bayern"}},{"name":"Am Haslberg","postalCode":"85104","locality":"Pförring","municipality":{"key":"09176153","name":"Pförring, M","type":"Markt"},"district":{"key":"09176","name":"Eichstätt","type":"Landkreis"},"federalState":{"key":"09","name":"Bayern"}},{"name":"Am Hellerberg","postalCode":"85104","locality":"Pförring","municipality":{"key":"09176153","name":"Pförring, M","type":"Markt"},"district":{"key":"09176","name":"Eichstätt","type":"Landkreis"},"federalState":{"key":"09","name":"Bayern"}},{"name":"Am Hopfengarten","postalCode":"85104","locality":"Pförring","municipality":{"key":"09176153","name":"Pförring, M","type":"Markt"},"district":{"key":"09176","name":"Eichstätt","type":"Landkreis"},"federalState":{"key":"09","name":"Bayern"}},{"name":"Am Kammergrab","postalCode":"85104","locality":"Pförring","municipality":{"key":"09176153","name":"Pförring, M","type":"Markt"},"district":{"key":"09176","name":"Eichstätt","type":"Landkreis"},"federalState":{"key":"09","name":"Bayern"}},{"name":"Am Kronenbuckl","postalCode":"85104","locality":"Pförring","municipality":{"key":"09176153","name":"Pförring, M","type":"Markt"},"district":{"key":"09176","name":"Eichstätt","type":"Landkreis"},"federalState":{"key":"09","name":"Bayern"}},{"name":"Am Marktgraben","postalCode":"85104","locality":"Pförring","municipality":{"key":"09176153","name":"Pförring, M","type":"Markt"},"district":{"key":"09176","name":"Eichstätt","type":"Landkreis"},"federalState":{"key":"09","name":"Bayern"}},{"name":"Ammergasse","postalCode":"85104","locality":"Pförring","municipality":{"key":"09176153","name":"Pförring, M","type":"Markt"},"district":{"key":"09176","name":"Eichstätt","type":"Landkreis"},"federalState":{"key":"09","name":"Bayern"}},{"name":"Am Schloß","postalCode":"85104","locality":"Pförring","municipality":{"key":"09176153","name":"Pförring, M","type":"Markt"},"district":{"key":"09176","name":"Eichstätt","type":"Landkreis"},"federalState":{"key":"09","name":"Bayern"}},{"name":"Am Schloßberg","postalCode":"85104","locality":"Pförring","municipality":{"key":"09176153","name":"Pförring, M","type":"Markt"},"district":{"key":"09176","name":"Eichstätt","type":"Landkreis"},"federalState":{"key":"09","name":"Bayern"}},{"name":"Am Spitzelberg","postalCode":"85104","locality":"Pförring","municipality":{"key":"09176153","name":"Pförring, M","type":"Markt"},"district":{"key":"09176","name":"Eichstätt","type":"Landkreis"},"federalState":{"key":"09","name":"Bayern"}},{"name":"Am Tettenbach","postalCode":"85104","locality":"Pförring","municipality":{"key":"09176153","name":"Pförring, M","type":"Markt"},"district":{"key":"09176","name":"Eichstätt","type":"Landkreis"},"federalState":{"key":"09","name":"Bayern"}},{"name":"Am Weiher","postalCode":"85104","locality":"Pförring","municipality":{"key":"09176153","name":"Pförring, M","type":"Markt"},"district":{"key":"09176","name":"Eichstätt","type":"Landkreis"},"federalState":{"key":"09","name":"Bayern"}},{"name":"Am Weinberg","postalCode":"85104","locality":"Pförring","municipality":{"key":"09176153","name":"Pförring, M","type":"Markt"},"district":{"key":"09176","name":"Eichstätt","type":"Landkreis"},"federalState":{"key":"09","name":"Bayern"}},{"name":"Am Westring","postalCode":"85104","locality":"Pförring","municipality":{"key":"09176153","name":"Pförring, M","type":"Markt"},"district":{"key":"09176","name":"Eichstätt","type":"Landkreis"},"federalState":{"key":"09","name":"Bayern"}},{"name":"Am Wiesental","postalCode":"85104","locality":"Pförring","municipality":{"key":"09176153","name":"Pförring, M","type":"Markt"},"district":{"key":"09176","name":"Eichstätt","type":"Landkreis"},"federalState":{"key":"09","name":"Bayern"}},{"name":"Anton-Mödl-Str.","postalCode":"85104","locality":"Pförring","municipality":{"key":"09176153","name":"Pförring, M","type":"Markt"},"district":{"key":"09176","name":"Eichstätt","type":"Landkreis"},"federalState":{"key":"09","name":"Bayern"}},{"name":"Asamstr.","postalCode":"85104","locality":"Pförring","municipality":{"key":"09176153","name":"Pförring, M","type":"Markt"},"district":{"key":"09176","name":"Eichstätt","type":"Landkreis"},"federalState":{"key":"09","name":"Bayern"}},{"name":"Aufelder Weg","postalCode":"85104","locality":"Pförring","municipality":{"key":"09176153","name":"Pförring, M","type":"Markt"},"district":{"key":"09176","name":"Eichstätt","type":"Landkreis"},"federalState":{"key":"09","name":"Bayern"}},{"name":"Bachstr.","postalCode":"85104","locality":"Pförring","municipality":{"key":"09176153","name":"Pförring, M","type":"Markt"},"district":{"key":"09176","name":"Eichstätt","type":"Landkreis"},"federalState":{"key":"09","name":"Bayern"}},{"name":"Beethovenstr.","postalCode":"85104","locality":"Pförring","municipality":{"key":"09176153","name":"Pförring, M","type":"Markt"},"district":{"key":"09176","name":"Eichstätt","type":"Landkreis"},"federalState":{"key":"09","name":"Bayern"}},{"name":"Bernsteinstr.","postalCode":"85104","locality":"Pförring","municipality":{"key":"09176153","name":"Pförring, M","type":"Markt"},"district":{"key":"09176","name":"Eichstätt","type":"Landkreis"},"federalState":{"key":"09","name":"Bayern"}},{"name":"Biburgweg","postalCode":"85104","locality":"Pförring","municipality":{"key":"09176153","name":"Pförring, M","type":"Markt"},"district":{"key":"09176","name":"Eichstätt","type":"Landkreis"},"federalState":{"key":"09","name":"Bayern"}},{"name":"Birkenweg","postalCode":"85104","locality":"Pförring","municipality":{"key":"09176153","name":"Pförring, M","type":"Markt"},"district":{"key":"09176","name":"Eichstätt","type":"Landkreis"},"federalState":{"key":"09","name":"Bayern"}},{"name":"Blumenstr.","postalCode":"85104","locality":"Pförring","municipality":{"key":"09176153","name":"Pförring, M","type":"Markt"},"district":{"key":"09176","name":"Eichstätt","type":"Landkreis"},"federalState":{"key":"09","name":"Bayern"}},{"name":"Burgstr.","postalCode":"85104","locality":"Pförring","municipality":{"key":"09176153","name":"Pförring, M","type":"Markt"},"district":{"key":"09176","name":"Eichstätt","type":"Landkreis"},"federalState":{"key":"09","name":"Bayern"}},{"name":"Castellweg","postalCode":"85104","locality":"Pförring","municipality":{"key":"09176153","name":"Pförring, M","type":"Markt"},"district":{"key":"09176","name":"Eichstätt","type":"Landkreis"},"federalState":{"key":"09","name":"Bayern"}},{"name":"Dekan-Holzgartner-Str.","postalCode":"85104","locality":"Pförring","municipality":{"key":"09176153","name":"Pförring, M","type":"Markt"},"district":{"key":"09176","name":"Eichstätt","type":"Landkreis"},"federalState":{"key":"09","name":"Bayern"}},{"name":"Dekan-Rösl-Str.","postalCode":"85104","locality":"Pförring","municipality":{"key":"09176153","name":"Pförring, M","type":"Markt"},"district":{"key":"09176","name":"Eichstätt","type":"Landkreis"},"federalState":{"key":"09","name":"Bayern"}},{"name":"Doktor-Karl-Baumann-Str.","postalCode":"85104","locality":"Pförring","municipality":{"key":"09176153","name":"Pförring, M","type":"Markt"},"district":{"key":"09176","name":"Eichstätt","type":"Landkreis"},"federalState":{"key":"09","name":"Bayern"}},{"name":"Donaustr.","postalCode":"85104","locality":"Pförring","municipality":{"key":"09176153","name":"Pförring, M","type":"Markt"},"district":{"key":"09176","name":"Eichstätt","type":"Landkreis"},"federalState":{"key":"09","name":"Bayern"}},{"name":"Dorfstr.","postalCode":"85104","locality":"Pförring","municipality":{"key":"09176153","name":"Pförring, M","type":"Markt"},"district":{"key":"09176","name":"Eichstätt","type":"Landkreis"},"federalState":{"key":"09","name":"Bayern"}},{"name":"Dünziger Str.","postalCode":"85104","locality":"Pförring","municipality":{"key":"09176153","name":"Pförring, M","type":"Markt"},"district":{"key":"09176","name":"Eichstätt","type":"Landkreis"},"federalState":{"key":"09","name":"Bayern"}},{"name":"Erlenweg","postalCode":"85104","locality":"Pförring","municipality":{"key":"09176153","name":"Pförring, M","type":"Markt"},"district":{"key":"09176","name":"Eichstätt","type":"Landkreis"},"federalState":{"key":"09","name":"Bayern"}},{"name":"Ettlinger Str.","postalCode":"85104","locality":"Pförring","municipality":{"key":"09176153","name":"Pförring, M","type":"Markt"},"district":{"key":"09176","name":"Eichstätt","type":"Landkreis"},"federalState":{"key":"09","name":"Bayern"}},{"name":"Fichtenweg","postalCode":"85104","locality":"Pförring","municipality":{"key":"09176153","name":"Pförring, M","type":"Markt"},"district":{"key":"09176","name":"Eichstätt","type":"Landkreis"},"federalState":{"key":"09","name":"Bayern"}},{"name":"Fischerweg","postalCode":"85104","locality":"Pförring","municipality":{"key":"09176153","name":"Pförring, M","type":"Markt"},"district":{"key":"09176","name":"Eichstätt","type":"Landkreis"},"federalState":{"key":"09","name":"Bayern"}},{"name":"Friedhofstr.","postalCode":"85104","locality":"Pförring","municipality":{"key":"09176153","name":"Pförring, M","type":"Markt"},"district":{"key":"09176","name":"Eichstätt","type":"Landkreis"},"federalState":{"key":"09","name":"Bayern"}},{"name":"Gadener Weg","postalCode":"85104","locality":"Pförring","municipality":{"key":"09176153","name":"Pförring, M","type":"Markt"},"district":{"key":"09176","name":"Eichstätt","type":"Landkreis"},"federalState":{"key":"09","name":"Bayern"}},{"name":"Ganghoferstr.","postalCode":"85104","locality":"Pförring","municipality":{"key":"09176153","name":"Pförring, M","type":"Markt"},"district":{"key":"09176","name":"Eichstätt","type":"Landkreis"},"federalState":{"key":"09","name":"Bayern"}},{"name":"Gartenstr.","postalCode":"85104","locality":"Pförring","municipality":{"key":"09176153","name":"Pförring, M","type":"Markt"},"district":{"key":"09176","name":"Eichstätt","type":"Landkreis"},"federalState":{"key":"09","name":"Bayern"}},{"name":"Geisgries","postalCode":"85104","locality":"Pförring","municipality":{"key":"09176153","name":"Pförring, M","type":"Markt"},"district":{"key":"09176","name":"Eichstätt","type":"Landkreis"},"federalState":{"key":"09","name":"Bayern"}},{"name":"Giesenau","postalCode":"85104","locality":"Pförring","municipality":{"key":"09176153","name":"Pförring, M","type":"Markt"},"district":{"key":"09176","name":"Eichstätt","type":"Landkreis"},"federalState":{"key":"09","name":"Bayern"}},{"name":"Gottfried-Dichtl-Str.","postalCode":"85104","locality":"Pförring","municipality":{"key":"09176153","name":"Pförring, M","type":"Markt"},"district":{"key":"09176","name":"Eichstätt","type":"Landkreis"},"federalState":{"key":"09","name":"Bayern"}},{"name":"Hadrianstr.","postalCode":"85104","locality":"Pförring","municipality":{"key":"09176153","name":"Pförring, M","type":"Markt"},"district":{"key":"09176","name":"Eichstätt","type":"Landkreis"},"federalState":{"key":"09","name":"Bayern"}},{"name":"Hartheimer Weg","postalCode":"85104","locality":"Pförring","municipality":{"key":"09176153","name":"Pförring, M","type":"Markt"},"district":{"key":"09176","name":"Eichstätt","type":"Landkreis"},"federalState":{"key":"09","name":"Bayern"}},{"name":"Häuflteilweg","postalCode":"85104","locality":"Pförring","municipality":{"key":"09176153","name":"Pförring, M","type":"Markt"},"district":{"key":"09176","name":"Eichstätt","type":"Landkreis"},"federalState":{"key":"09","name":"Bayern"}},{"name":"Hauptstr.","postalCode":"85104","locality":"Pförring","municipality":{"key":"09176153","name":"Pförring, M","type":"Markt"},"district":{"key":"09176","name":"Eichstätt","type":"Landkreis"},"federalState":{"key":"09","name":"Bayern"}},{"name":"Haydnstr.","postalCode":"85104","locality":"Pförring","municipality":{"key":"09176153","name":"Pförring, M","type":"Markt"},"district":{"key":"09176","name":"Eichstätt","type":"Landkreis"},"federalState":{"key":"09","name":"Bayern"}},{"name":"Herzog-Albrecht-Str.","postalCode":"85104","locality":"Pförring","municipality":{"key":"09176153","name":"Pförring, M","type":"Markt"},"district":{"key":"09176","name":"Eichstätt","type":"Landkreis"},"federalState":{"key":"09","name":"Bayern"}},{"name":"Herzogstr.","postalCode":"85104","locality":"Pförring","municipality":{"key":"09176153","name":"Pförring, M","type":"Markt"},"district":{"key":"09176","name":"Eichstätt","type":"Landkreis"},"federalState":{"key":"09","name":"Bayern"}},{"name":"Ilmweg","postalCode":"85104","locality":"Pförring","municipality":{"key":"09176153","name":"Pförring, M","type":"Markt"},"district":{"key":"09176","name":"Eichstätt","type":"Landkreis"},"federalState":{"key":"09","name":"Bayern"}},{"name":"Imbather Weg","postalCode":"85104","locality":"Pförring","municipality":{"key":"09176153","name":"Pförring, M","type":"Markt"},"district":{"key":"09176","name":"Eichstätt","type":"Landkreis"},"federalState":{"key":"09","name":"Bayern"}},{"name":"In der Au","postalCode":"85104","locality":"Pförring","municipality":{"key":"09176153","name":"Pförring, M","type":"Markt"},"district":{"key":"09176","name":"Eichstätt","type":"Landkreis"},"federalState":{"key":"09","name":"Bayern"}},{"name":"Ingolstädter Ring","postalCode":"85104","locality":"Pförring","municipality":{"key":"09176153","name":"Pförring, M","type":"Markt"},"district":{"key":"09176","name":"Eichstätt","type":"Landkreis"},"federalState":{"key":"09","name":"Bayern"}},{"name":"Ingolstädter Str.","postalCode":"85104","locality":"Pförring","municipality":{"key":"09176153","name":"Pförring, M","type":"Markt"},"district":{"key":"09176","name":"Eichstätt","type":"Landkreis"},"federalState":{"key":"09","name":"Bayern"}},{"name":"Johann-Strauß-Str.","postalCode":"85104","locality":"Pförring","municipality":{"key":"09176153","name":"Pförring, M","type":"Markt"},"district":{"key":"09176","name":"Eichstätt","type":"Landkreis"},"federalState":{"key":"09","name":"Bayern"}},{"name":"Jordanstr.","postalCode":"85104","locality":"Pförring","municipality":{"key":"09176153","name":"Pförring, M","type":"Markt"},"district":{"key":"09176","name":"Eichstätt","type":"Landkreis"},"federalState":{"key":"09","name":"Bayern"}},{"name":"Josef-Karg-Str.","postalCode":"85104","locality":"Pförring","municipality":{"key":"09176153","name":"Pförring, M","type":"Markt"},"district":{"key":"09176","name":"Eichstätt","type":"Landkreis"},"federalState":{"key":"09","name":"Bayern"}},{"name":"Josef-Ott-Str.","postalCode":"85104","locality":"Pförring","municipality":{"key":"09176153","name":"Pförring, M","type":"Markt"},"district":{"key":"09176","name":"Eichstätt","type":"Landkreis"},"federalState":{"key":"09","name":"Bayern"}},{"name":"Jurastr.","postalCode":"85104","locality":"Pförring","municipality":{"key":"09176153","name":"Pförring, M","type":"Markt"},"district":{"key":"09176","name":"Eichstätt","type":"Landkreis"},"federalState":{"key":"09","name":"Bayern"}},{"name":"Karl-Spitzweg-Str.","postalCode":"85104","locality":"Pförring","municipality":{"key":"09176153","name":"Pförring, M","type":"Markt"},"district":{"key":"09176","name":"Eichstätt","type":"Landkreis"},"federalState":{"key":"09","name":"Bayern"}},{"name":"Kelsstr.","postalCode":"85104","locality":"Pförring","municipality":{"key":"09176153","name":"Pförring, M","type":"Markt"},"district":{"key":"09176","name":"Eichstätt","type":"Landkreis"},"federalState":{"key":"09","name":"Bayern"}},{"name":"Keltenstr.","postalCode":"85104","locality":"Pförring","municipality":{"key":"09176153","name":"Pförring, M","type":"Markt"},"district":{"key":"09176","name":"Eichstätt","type":"Landkreis"},"federalState":{"key":"09","name":"Bayern"}},{"name":"Kirchberg","postalCode":"85104","locality":"Pförring","municipality":{"key":"09176153","name":"Pförring, M","type":"Markt"},"district":{"key":"09176","name":"Eichstätt","type":"Landkreis"},"federalState":{"key":"09","name":"Bayern"}},{"name":"Kirchbergweg","postalCode":"85104","locality":"Pförring","municipality":{"key":"09176153","name":"Pförring, M","type":"Markt"},"district":{"key":"09176","name":"Eichstätt","type":"Landkreis"},"federalState":{"key":"09","name":"Bayern"}},{"name":"Kirchstr.","postalCode":"85104","locality":"Pförring","municipality":{"key":"09176153","name":"Pförring, M","type":"Markt"},"district":{"key":"09176","name":"Eichstätt","type":"Landkreis"},"federalState":{"key":"09","name":"Bayern"}},{"name":"Klaus-Saalfeld-Str.","postalCode":"85104","locality":"Pförring","municipality":{"key":"09176153","name":"Pförring, M","type":"Markt"},"district":{"key":"09176","name":"Eichstätt","type":"Landkreis"},"federalState":{"key":"09","name":"Bayern"}},{"name":"Kurfürst-Maximilian-Str.","postalCode":"85104","locality":"Pförring","municipality":{"key":"09176153","name":"Pförring, M","type":"Markt"},"district":{"key":"09176","name":"Eichstätt","type":"Landkreis"},"federalState":{"key":"09","name":"Bayern"}},{"name":"Leonhardistr.","postalCode":"85104","locality":"Pförring","municipality":{"key":"09176153","name":"Pförring, M","type":"Markt"},"district":{"key":"09176","name":"Eichstätt","type":"Landkreis"},"federalState":{"key":"09","name":"Bayern"}},{"name":"Limesring","postalCode":"85104","locality":"Pförring","municipality":{"key":"09176153","name":"Pförring, M","type":"Markt"},"district":{"key":"09176","name":"Eichstätt","type":"Landkreis"},"federalState":{"key":"09","name":"Bayern"}},{"name":"Limesweg","postalCode":"85104","locality":"Pförring","municipality":{"key":"09176153","name":"Pförring, M","type":"Markt"},"district":{"key":"09176","name":"Eichstätt","type":"Landkreis"},"federalState":{"key":"09","name":"Bayern"}},{"name":"Lisztstr.","postalCode":"85104","locality":"Pförring","municipality":{"key":"09176153","name":"Pförring, M","type":"Markt"},"district":{"key":"09176","name":"Eichstätt","type":"Landkreis"},"federalState":{"key":"09","name":"Bayern"}},{"name":"Lobsinger Str.","postalCode":"85104","locality":"Pförring","municipality":{"key":"09176153","name":"Pförring, M","type":"Markt"},"district":{"key":"09176","name":"Eichstätt","type":"Landkreis"},"federalState":{"key":"09","name":"Bayern"}},{"name":"Ludwig-Thoma-Str.","postalCode":"85104","locality":"Pförring","municipality":{"key":"09176153","name":"Pförring, M","type":"Markt"},"district":{"key":"09176","name":"Eichstätt","type":"Landkreis"},"federalState":{"key":"09","name":"Bayern"}},{"name":"Marc-Aurel-Str.","postalCode":"85104","locality":"Pförring","municipality":{"key":"09176153","name":"Pförring, M","type":"Markt"},"district":{"key":"09176","name":"Eichstätt","type":"Landkreis"},"federalState":{"key":"09","name":"Bayern"}},{"name":"Marktplatz","postalCode":"85104","locality":"Pförring","municipality":{"key":"09176153","name":"Pförring, M","type":"Markt"},"district":{"key":"09176","name":"Eichstätt","type":"Landkreis"},"federalState":{"key":"09","name":"Bayern"}},{"name":"Marktstr.","postalCode":"85104","locality":"Pförring","municipality":{"key":"09176153","name":"Pförring, M","type":"Markt"},"district":{"key":"09176","name":"Eichstätt","type":"Landkreis"},"federalState":{"key":"09","name":"Bayern"}},{"name":"Mauerner Str.","postalCode":"85104","locality":"Pförring","municipality":{"key":"09176153","name":"Pförring, M","type":"Markt"},"district":{"key":"09176","name":"Eichstätt","type":"Landkreis"},"federalState":{"key":"09","name":"Bayern"}},{"name":"Max-Pollin-Str.","postalCode":"85104","locality":"Pförring","municipality":{"key":"09176153","name":"Pförring, M","type":"Markt"},"district":{"key":"09176","name":"Eichstätt","type":"Landkreis"},"federalState":{"key":"09","name":"Bayern"}},{"name":"Mittersteigweg","postalCode":"85104","locality":"Pförring","municipality":{"key":"09176153","name":"Pförring, M","type":"Markt"},"district":{"key":"09176","name":"Eichstätt","type":"Landkreis"},"federalState":{"key":"09","name":"Bayern"}},{"name":"Mozartstr.","postalCode":"85104","locality":"Pförring","municipality":{"key":"09176153","name":"Pförring, M","type":"Markt"},"district":{"key":"09176","name":"Eichstätt","type":"Landkreis"},"federalState":{"key":"09","name":"Bayern"}},{"name":"Neustädter Str.","postalCode":"85104","locality":"Pförring","municipality":{"key":"09176153","name":"Pförring, M","type":"Markt"},"district":{"key":"09176","name":"Eichstätt","type":"Landkreis"},"federalState":{"key":"09","name":"Bayern"}},{"name":"Nibelungenstr.","postalCode":"85104","locality":"Pförring","municipality":{"key":"09176153","name":"Pförring, M","type":"Markt"},"district":{"key":"09176","name":"Eichstätt","type":"Landkreis"},"federalState":{"key":"09","name":"Bayern"}},{"name":"Nördliche Ringstr.","postalCode":"85104","locality":"Pförring","municipality":{"key":"09176153","name":"Pförring, M","type":"Markt"},"district":{"key":"09176","name":"Eichstätt","type":"Landkreis"},"federalState":{"key":"09","name":"Bayern"}},{"name":"Ochsenfelder Str.","postalCode":"85072","locality":"Eichstätt","municipality":{"key":"09176123","name":"Eichstätt, GKSt","type":"Große_Kreisstadt"},"district":{"key":"09176","name":"Eichstätt","type":"Landkreis"},"federalState":{"key":"09","name":"Bayern"}},{"name":"Oettingenstr.","postalCode":"85072","locality":"Eichstätt","municipality":{"key":"09176123","name":"Eichstätt, GKSt","type":"Große_Kreisstadt"},"district":{"key":"09176","name":"Eichstätt","type":"Landkreis"},"federalState":{"key":"09","name":"Bayern"}},{"name":"Osramweg","postalCode":"85072","locality":"Eichstätt","municipality":{"key":"09176123","name":"Eichstätt, GKSt","type":"Große_Kreisstadt"},"district":{"key":"09176","name":"Eichstätt","type":"Landkreis"},"federalState":{"key":"09","name":"Bayern"}},{"name":"Paul-Nillert-Str.","postalCode":"85104","locality":"Pförring","municipality":{"key":"09176153","name":"Pförring, M","type":"Markt"},"district":{"key":"09176","name":"Eichstätt","type":"Landkreis"},"federalState":{"key":"09","name":"Bayern"}},{"name":"Peter-Rosegger-Str.","postalCode":"85104","locality":"Pförring","municipality":{"key":"09176153","name":"Pförring, M","type":"Markt"},"district":{"key":"09176","name":"Eichstätt","type":"Landkreis"},"federalState":{"key":"09","name":"Bayern"}},{"name":"Pettenweg","postalCode":"85104","locality":"Pförring","municipality":{"key":"09176153","name":"Pförring, M","type":"Markt"},"district":{"key":"09176","name":"Eichstätt","type":"Landkreis"},"federalState":{"key":"09","name":"Bayern"}},{"name":"Pfarrgasse","postalCode":"85104","locality":"Pförring","municipality":{"key":"09176153","name":"Pförring, M","type":"Markt"},"district":{"key":"09176","name":"Eichstätt","type":"Landkreis"},"federalState":{"key":"09","name":"Bayern"}},{"name":"Pflanzbeetweg","postalCode":"85104","locality":"Pförring","municipality":{"key":"09176153","name":"Pförring, M","type":"Markt"},"district":{"key":"09176","name":"Eichstätt","type":"Landkreis"},"federalState":{"key":"09","name":"Bayern"}},{"name":"Pförringer Str.","postalCode":"85104","locality":"Pförring","municipality":{"key":"09176153","name":"Pförring, M","type":"Markt"},"district":{"key":"09176","name":"Eichstätt","type":"Landkreis"},"federalState":{"key":"09","name":"Bayern"}},{"name":"Pirkenbrunner Str.","postalCode":"85104","locality":"Pförring","municipality":{"key":"09176153","name":"Pförring, M","type":"Markt"},"district":{"key":"09176","name":"Eichstätt","type":"Landkreis"},"federalState":{"key":"09","name":"Bayern"}},{"name":"Riedenburger Str.","postalCode":"85104","locality":"Pförring","municipality":{"key":"09176153","name":"Pförring, M","type":"Markt"},"district":{"key":"09176","name":"Eichstätt","type":"Landkreis"},"federalState":{"key":"09","name":"Bayern"}},{"name":"Ringstr.","postalCode":"85104","locality":"Pförring","municipality":{"key":"09176153","name":"Pförring, M","type":"Markt"},"district":{"key":"09176","name":"Eichstätt","type":"Landkreis"},"federalState":{"key":"09","name":"Bayern"}},{"name":"Römergasse","postalCode":"85104","locality":"Pförring","municipality":{"key":"09176153","name":"Pförring, M","type":"Markt"},"district":{"key":"09176","name":"Eichstätt","type":"Landkreis"},"federalState":{"key":"09","name":"Bayern"}},{"name":"Sattlerbrücke","postalCode":"85104","locality":"Pförring","municipality":{"key":"09176153","name":"Pförring, M","type":"Markt"},"district":{"key":"09176","name":"Eichstätt","type":"Landkreis"},"federalState":{"key":"09","name":"Bayern"}},{"name":"Schloßgarten","postalCode":"85104","locality":"Pförring","municipality":{"key":"09176153","name":"Pförring, M","type":"Markt"},"district":{"key":"09176","name":"Eichstätt","type":"Landkreis"},"federalState":{"key":"09","name":"Bayern"}},{"name":"Schreinerstr.","postalCode":"85104","locality":"Pförring","municipality":{"key":"09176153","name":"Pförring, M","type":"Markt"},"district":{"key":"09176","name":"Eichstätt","type":"Landkreis"},"federalState":{"key":"09","name":"Bayern"}},{"name":"Schubertstr.","postalCode":"85104","locality":"Pförring","municipality":{"key":"09176153","name":"Pförring, M","type":"Markt"},"district":{"key":"09176","name":"Eichstätt","type":"Landkreis"},"federalState":{"key":"09","name":"Bayern"}},{"name":"Schulstr.","postalCode":"85104","locality":"Pförring","municipality":{"key":"09176153","name":"Pförring, M","type":"Markt"},"district":{"key":"09176","name":"Eichstätt","type":"Landkreis"},"federalState":{"key":"09","name":"Bayern"}},{"name":"Schwabstetter Str.","postalCode":"85104","locality":"Pförring","municipality":{"key":"09176153","name":"Pförring, M","type":"Markt"},"district":{"key":"09176","name":"Eichstätt","type":"Landkreis"},"federalState":{"key":"09","name":"Bayern"}},{"name":"Schwarzhäuflweg","postalCode":"85104","locality":"Pförring","municipality":{"key":"09176153","name":"Pförring, M","type":"Markt"},"district":{"key":"09176","name":"Eichstätt","type":"Landkreis"},"federalState":{"key":"09","name":"Bayern"}},{"name":"Sebastianistr.","postalCode":"85104","locality":"Pförring","municipality":{"key":"09176153","name":"Pförring, M","type":"Markt"},"district":{"key":"09176","name":"Eichstätt","type":"Landkreis"},"federalState":{"key":"09","name":"Bayern"}},{"name":"Siedlungsring","postalCode":"85104","locality":"Pförring","municipality":{"key":"09176153","name":"Pförring, M","type":"Markt"},"district":{"key":"09176","name":"Eichstätt","type":"Landkreis"},"federalState":{"key":"09","name":"Bayern"}},{"name":"Stefanistr.","postalCode":"85104","locality":"Pförring","municipality":{"key":"09176153","name":"Pförring, M","type":"Markt"},"district":{"key":"09176","name":"Eichstätt","type":"Landkreis"},"federalState":{"key":"09","name":"Bayern"}},{"name":"Steinmetzstr.","postalCode":"85104","locality":"Pförring","municipality":{"key":"09176153","name":"Pförring, M","type":"Markt"},"district":{"key":"09176","name":"Eichstätt","type":"Landkreis"},"federalState":{"key":"09","name":"Bayern"}},{"name":"Südliche Ringstr.","postalCode":"85104","locality":"Pförring","municipality":{"key":"09176153","name":"Pförring, M","type":"Markt"},"district":{"key":"09176","name":"Eichstätt","type":"Landkreis"},"federalState":{"key":"09","name":"Bayern"}},{"name":"Taubental","postalCode":"85104","locality":"Pförring","municipality":{"key":"09176153","name":"Pförring, M","type":"Markt"},"district":{"key":"09176","name":"Eichstätt","type":"Landkreis"},"federalState":{"key":"09","name":"Bayern"}},{"name":"Trajanstr.","postalCode":"85104","locality":"Pförring","municipality":{"key":"09176153","name":"Pförring, M","type":"Markt"},"district":{"key":"09176","name":"Eichstätt","type":"Landkreis"},"federalState":{"key":"09","name":"Bayern"}},{"name":"Ungergarten","postalCode":"85104","locality":"Pförring","municipality":{"key":"09176153","name":"Pförring, M","type":"Markt"},"district":{"key":"09176","name":"Eichstätt","type":"Landkreis"},"federalState":{"key":"09","name":"Bayern"}},{"name":"Vohburger Str.","postalCode":"85104","locality":"Pförring","municipality":{"key":"09176153","name":"Pförring, M","type":"Markt"},"district":{"key":"09176","name":"Eichstätt","type":"Landkreis"},"federalState":{"key":"09","name":"Bayern"}},{"name":"Weideweg","postalCode":"85104","locality":"Pförring","municipality":{"key":"09176153","name":"Pförring, M","type":"Markt"},"district":{"key":"09176","name":"Eichstätt","type":"Landkreis"},"federalState":{"key":"09","name":"Bayern"}},{"name":"Wendelinistr.","postalCode":"85104","locality":"Pförring","municipality":{"key":"09176153","name":"Pförring, M","type":"Markt"},"district":{"key":"09176","name":"Eichstätt","type":"Landkreis"},"federalState":{"key":"09","name":"Bayern"}},{"name":"Wöhrgarten","postalCode":"85104","locality":"Pförring","municipality":{"key":"09176153","name":"Pförring, M","type":"Markt"},"district":{"key":"09176","name":"Eichstätt","type":"Landkreis"},"federalState":{"key":"09","name":"Bayern"}},{"name":"Ziegeleistr.","postalCode":"85104","locality":"Pförring","municipality":{"key":"09176153","name":"Pförring, M","type":"Markt"},"district":{"key":"09176","name":"Eichstätt","type":"Landkreis"},"federalState":{"key":"09","name":"Bayern"}},{"name":"Zur Alten Donau","postalCode":"85104","locality":"Pförring","municipality":{"key":"09176153","name":"Pförring, M","type":"Markt"},"district":{"key":"09176","name":"Eichstätt","type":"Landkreis"},"federalState":{"key":"09","name":"Bayern"}},{"name":"Zur Kohlstatt","postalCode":"85104","locality":"Pförring","municipality":{"key":"09176153","name":"Pförring, M","type":"Markt"},"district":{"key":"09176","name":"Eichstätt","type":"Landkreis"},"federalState":{"key":"09","name":"Bayern"}},]