[{"key":"10246887","name":"A1a","postalCode":"1228","locality":"Plan-les-Ouates","commune":{"key":"6633","name":"Plan-les-Ouates","shortName":"Plan-les-Ouates"},"district":{"key":"2500","name":"Canton de Genève"},"canton":{"key":"25","code":"GE","name":"Genève"},"status":"Real"},{"key":"10257589","name":"A dénommer PLO1","postalCode":"1228","locality":"Plan-les-Ouates","commune":{"key":"6633","name":"Plan-les-Ouates","shortName":"Plan-les-Ouates"},"district":{"key":"2500","name":"Canton de Genève"},"canton":{"key":"25","code":"GE","name":"Genève"},"status":"Planned"},{"key":"10257590","name":"A dénommer PLO2","postalCode":"1228","locality":"Plan-les-Ouates","commune":{"key":"6633","name":"Plan-les-Ouates","shortName":"Plan-les-Ouates"},"district":{"key":"2500","name":"Canton de Genève"},"canton":{"key":"25","code":"GE","name":"Genève"},"status":"Planned"},{"key":"10221865","name":"Allée du Vieil-Orme","postalCode":"1228","locality":"Plan-les-Ouates","commune":{"key":"6633","name":"Plan-les-Ouates","shortName":"Plan-les-Ouates"},"district":{"key":"2500","name":"Canton de Genève"},"canton":{"key":"25","code":"GE","name":"Genève"},"status":"Real"},{"key":"10132763","name":"Avenue du Millénaire","postalCode":"1228","locality":"Plan-les-Ouates","commune":{"key":"6633","name":"Plan-les-Ouates","shortName":"Plan-les-Ouates"},"district":{"key":"2500","name":"Canton de Genève"},"canton":{"key":"25","code":"GE","name":"Genève"},"status":"Real"},{"key":"10106837","name":"Chemin Charles-BAUDOUIN","postalCode":"1228","locality":"Plan-les-Ouates","commune":{"key":"6633","name":"Plan-les-Ouates","shortName":"Plan-les-Ouates"},"district":{"key":"2500","name":"Canton de Genève"},"canton":{"key":"25","code":"GE","name":"Genève"},"status":"Real"},{"key":"10048665","name":"Chemin d'Alcire","postalCode":"1228","locality":"Plan-les-Ouates","commune":{"key":"6633","name":"Plan-les-Ouates","shortName":"Plan-les-Ouates"},"district":{"key":"2500","name":"Canton de Genève"},"canton":{"key":"25","code":"GE","name":"Genève"},"status":"Real"},{"key":"10221881","name":"Chemin de Badosse","postalCode":"1228","locality":"Plan-les-Ouates","commune":{"key":"6633","name":"Plan-les-Ouates","shortName":"Plan-les-Ouates"},"district":{"key":"2500","name":"Canton de Genève"},"canton":{"key":"25","code":"GE","name":"Genève"},"status":"Real"},{"key":"10109289","name":"Chemin de Champ-Joly","postalCode":"1228","locality":"Plan-les-Ouates","commune":{"key":"6633","name":"Plan-les-Ouates","shortName":"Plan-les-Ouates"},"district":{"key":"2500","name":"Canton de Genève"},"canton":{"key":"25","code":"GE","name":"Genève"},"status":"Real"},{"key":"10075178","name":"Chemin de la Bergeronnette","postalCode":"1228","locality":"Plan-les-Ouates","commune":{"key":"6633","name":"Plan-les-Ouates","shortName":"Plan-les-Ouates"},"district":{"key":"2500","name":"Canton de Genève"},"canton":{"key":"25","code":"GE","name":"Genève"},"status":"Real"},{"key":"10048669","name":"Chemin de l'Abérieu","postalCode":"1228","locality":"Plan-les-Ouates","commune":{"key":"6633","name":"Plan-les-Ouates","shortName":"Plan-les-Ouates"},"district":{"key":"2500","name":"Canton de Genève"},"canton":{"key":"25","code":"GE","name":"Genève"},"status":"Real"},{"key":"10048670","name":"Chemin de la Bistoquette","postalCode":"1228","locality":"Plan-les-Ouates","commune":{"key":"6633","name":"Plan-les-Ouates","shortName":"Plan-les-Ouates"},"district":{"key":"2500","name":"Canton de Genève"},"canton":{"key":"25","code":"GE","name":"Genève"},"status":"Real"},{"key":"10106841","name":"Chemin de la Butte","postalCode":"1228","locality":"Plan-les-Ouates","commune":{"key":"6633","name":"Plan-les-Ouates","shortName":"Plan-les-Ouates"},"district":{"key":"2500","name":"Canton de Genève"},"canton":{"key":"25","code":"GE","name":"Genève"},"status":"Real"},{"key":"10082193","name":"Chemin de la Cartouchière","postalCode":"1228","locality":"Plan-les-Ouates","commune":{"key":"6633","name":"Plan-les-Ouates","shortName":"Plan-les-Ouates"},"district":{"key":"2500","name":"Canton de Genève"},"canton":{"key":"25","code":"GE","name":"Genève"},"status":"Real"},{"key":"10171013","name":"Chemin de la Châtière","postalCode":"1228","locality":"Plan-les-Ouates","commune":{"key":"6633","name":"Plan-les-Ouates","shortName":"Plan-les-Ouates"},"district":{"key":"2500","name":"Canton de Genève"},"canton":{"key":"25","code":"GE","name":"Genève"},"status":"Real"},{"key":"10163749","name":"Chemin de la Chenallaz","postalCode":"1228","locality":"Plan-les-Ouates","commune":{"key":"6633","name":"Plan-les-Ouates","shortName":"Plan-les-Ouates"},"district":{"key":"2500","name":"Canton de Genève"},"canton":{"key":"25","code":"GE","name":"Genève"},"status":"Real"},{"key":"10048671","name":"Chemin de la Commanderie","postalCode":"1228","locality":"Plan-les-Ouates","commune":{"key":"6633","name":"Plan-les-Ouates","shortName":"Plan-les-Ouates"},"district":{"key":"2500","name":"Canton de Genève"},"canton":{"key":"25","code":"GE","name":"Genève"},"status":"Real"},{"key":"10221892","name":"Chemin de la Dérupe","postalCode":"1228","locality":"Plan-les-Ouates","commune":{"key":"6633","name":"Plan-les-Ouates","shortName":"Plan-les-Ouates"},"district":{"key":"2500","name":"Canton de Genève"},"canton":{"key":"25","code":"GE","name":"Genève"},"status":"Real"},{"key":"10048672","name":"Chemin de la Fauconnerie","postalCode":"1228","locality":"Plan-les-Ouates","commune":{"key":"6633","name":"Plan-les-Ouates","shortName":"Plan-les-Ouates"},"district":{"key":"2500","name":"Canton de Genève"},"canton":{"key":"25","code":"GE","name":"Genève"},"status":"Real"},{"key":"10221896","name":"Chemin de la Fin-des-Vaulx","postalCode":"1228","locality":"Plan-les-Ouates","commune":{"key":"6633","name":"Plan-les-Ouates","shortName":"Plan-les-Ouates"},"district":{"key":"2500","name":"Canton de Genève"},"canton":{"key":"25","code":"GE","name":"Genève"},"status":"Real"},{"key":"10221900","name":"Chemin de Laissu","postalCode":"1228","locality":"Plan-les-Ouates","commune":{"key":"6633","name":"Plan-les-Ouates","shortName":"Plan-les-Ouates"},"district":{"key":"2500","name":"Canton de Genève"},"canton":{"key":"25","code":"GE","name":"Genève"},"status":"Real"},{"key":"10106842","name":"Chemin de la Mère-Voie","postalCode":"1228","locality":"Plan-les-Ouates","commune":{"key":"6633","name":"Plan-les-Ouates","shortName":"Plan-les-Ouates"},"district":{"key":"2500","name":"Canton de Genève"},"canton":{"key":"25","code":"GE","name":"Genève"},"status":"Real"},{"key":"10048673","name":"Chemin de la Milice","postalCode":"1228","locality":"Plan-les-Ouates","commune":{"key":"6633","name":"Plan-les-Ouates","shortName":"Plan-les-Ouates"},"district":{"key":"2500","name":"Canton de Genève"},"canton":{"key":"25","code":"GE","name":"Genève"},"status":"Real"},{"key":"10121349","name":"Chemin de la Plamatte","postalCode":"1228","locality":"Plan-les-Ouates","commune":{"key":"6633","name":"Plan-les-Ouates","shortName":"Plan-les-Ouates"},"district":{"key":"2500","name":"Canton de Genève"},"canton":{"key":"25","code":"GE","name":"Genève"},"status":"Real"},{"key":"10048674","name":"Chemin de la Redoute","postalCode":"1228","locality":"Plan-les-Ouates","commune":{"key":"6633","name":"Plan-les-Ouates","shortName":"Plan-les-Ouates"},"district":{"key":"2500","name":"Canton de Genève"},"canton":{"key":"25","code":"GE","name":"Genève"},"status":"Real"},{"key":"10106843","name":"Chemin de la Vironde","postalCode":"1228","locality":"Plan-les-Ouates","commune":{"key":"6633","name":"Plan-les-Ouates","shortName":"Plan-les-Ouates"},"district":{"key":"2500","name":"Canton de Genève"},"canton":{"key":"25","code":"GE","name":"Genève"},"status":"Real"},{"key":"10114009","name":"Chemin de l'Essartage","postalCode":"1228","locality":"Plan-les-Ouates","commune":{"key":"6633","name":"Plan-les-Ouates","shortName":"Plan-les-Ouates"},"district":{"key":"2500","name":"Canton de Genève"},"canton":{"key":"25","code":"GE","name":"Genève"},"status":"Real"},{"key":"10106840","name":"Chemin de l'Hermine","postalCode":"1228","locality":"Plan-les-Ouates","commune":{"key":"6633","name":"Plan-les-Ouates","shortName":"Plan-les-Ouates"},"district":{"key":"2500","name":"Canton de Genève"},"canton":{"key":"25","code":"GE","name":"Genève"},"status":"Real"},{"key":"10175633","name":"Chemin de Maronsy","postalCode":"1228","locality":"Plan-les-Ouates","commune":{"key":"6633","name":"Plan-les-Ouates","shortName":"Plan-les-Ouates"},"district":{"key":"2500","name":"Canton de Genève"},"canton":{"key":"25","code":"GE","name":"Genève"},"status":"Real"},{"key":"10104935","name":"Chemin de Plein-Vent","postalCode":"1228","locality":"Plan-les-Ouates","commune":{"key":"6633","name":"Plan-les-Ouates","shortName":"Plan-les-Ouates"},"district":{"key":"2500","name":"Canton de Genève"},"canton":{"key":"25","code":"GE","name":"Genève"},"status":"Real"},{"key":"10106839","name":"Chemin de Pomone","postalCode":"1228","locality":"Plan-les-Ouates","commune":{"key":"6633","name":"Plan-les-Ouates","shortName":"Plan-les-Ouates"},"district":{"key":"2500","name":"Canton de Genève"},"canton":{"key":"25","code":"GE","name":"Genève"},"status":"Real"},{"key":"10048666","name":"Chemin de Riant-Mont","postalCode":"1228","locality":"Plan-les-Ouates","commune":{"key":"6633","name":"Plan-les-Ouates","shortName":"Plan-les-Ouates"},"district":{"key":"2500","name":"Canton de Genève"},"canton":{"key":"25","code":"GE","name":"Genève"},"status":"Real"},{"key":"10221974","name":"Chemin des Anciens-Bois","postalCode":"1228","locality":"Plan-les-Ouates","commune":{"key":"6633","name":"Plan-les-Ouates","shortName":"Plan-les-Ouates"},"district":{"key":"2500","name":"Canton de Genève"},"canton":{"key":"25","code":"GE","name":"Genève"},"status":"Real"},{"key":"10082194","name":"Chemin des Aulx","postalCode":"1228","locality":"Plan-les-Ouates","commune":{"key":"6633","name":"Plan-les-Ouates","shortName":"Plan-les-Ouates"},"district":{"key":"2500","name":"Canton de Genève"},"canton":{"key":"25","code":"GE","name":"Genève"},"status":"Real"},{"key":"10059841","name":"Chemin des Bellins","postalCode":"1228","locality":"Plan-les-Ouates","commune":{"key":"6633","name":"Plan-les-Ouates","shortName":"Plan-les-Ouates"},"district":{"key":"2500","name":"Canton de Genève"},"canton":{"key":"25","code":"GE","name":"Genève"},"status":"Real"},{"key":"10179445","name":"Chemin des Bougeries","postalCode":"1228","locality":"Plan-les-Ouates","commune":{"key":"6633","name":"Plan-les-Ouates","shortName":"Plan-les-Ouates"},"district":{"key":"2500","name":"Canton de Genève"},"canton":{"key":"25","code":"GE","name":"Genève"},"status":"Real"},{"key":"10221978","name":"Chemin des Brulaz","postalCode":"1228","locality":"Plan-les-Ouates","commune":{"key":"6633","name":"Plan-les-Ouates","shortName":"Plan-les-Ouates"},"district":{"key":"2500","name":"Canton de Genève"},"canton":{"key":"25","code":"GE","name":"Genève"},"status":"Real"},{"key":"10221985","name":"Chemin des Chapons","postalCode":"1228","locality":"Plan-les-Ouates","commune":{"key":"6633","name":"Plan-les-Ouates","shortName":"Plan-les-Ouates"},"district":{"key":"2500","name":"Canton de Genève"},"canton":{"key":"25","code":"GE","name":"Genève"},"status":"Real"},{"key":"10048675","name":"Chemin des Charrotons","postalCode":"1228","locality":"Plan-les-Ouates","commune":{"key":"6633","name":"Plan-les-Ouates","shortName":"Plan-les-Ouates"},"district":{"key":"2500","name":"Canton de Genève"},"canton":{"key":"25","code":"GE","name":"Genève"},"status":"Real"},{"key":"10106253","name":"Chemin des Charrotons","postalCode":"1228","locality":"Plan-les-Ouates","commune":{"key":"6633","name":"Plan-les-Ouates","shortName":"Plan-les-Ouates"},"district":{"key":"2500","name":"Canton de Genève"},"canton":{"key":"25","code":"GE","name":"Genève"},"status":"Real"},{"key":"10106844","name":"Chemin des Cherpines","postalCode":"1228","locality":"Plan-les-Ouates","commune":{"key":"6633","name":"Plan-les-Ouates","shortName":"Plan-les-Ouates"},"district":{"key":"2500","name":"Canton de Genève"},"canton":{"key":"25","code":"GE","name":"Genève"},"status":"Real"},{"key":"10059842","name":"Chemin des Contamines","postalCode":"1228","locality":"Plan-les-Ouates","commune":{"key":"6633","name":"Plan-les-Ouates","shortName":"Plan-les-Ouates"},"district":{"key":"2500","name":"Canton de Genève"},"canton":{"key":"25","code":"GE","name":"Genève"},"status":"Real"},{"key":"10113413","name":"Chemin des Criblettes","postalCode":"1228","locality":"Plan-les-Ouates","commune":{"key":"6633","name":"Plan-les-Ouates","shortName":"Plan-les-Ouates"},"district":{"key":"2500","name":"Canton de Genève"},"canton":{"key":"25","code":"GE","name":"Genève"},"status":"Real"},{"key":"10221989","name":"Chemin des Etangs-de-la-Bistoquette","postalCode":"1228","locality":"Plan-les-Ouates","commune":{"key":"6633","name":"Plan-les-Ouates","shortName":"Plan-les-Ouates"},"district":{"key":"2500","name":"Canton de Genève"},"canton":{"key":"25","code":"GE","name":"Genève"},"status":"Real"},{"key":"10127605","name":"Chemin des Longues-Rasses","postalCode":"1228","locality":"Plan-les-Ouates","commune":{"key":"6633","name":"Plan-les-Ouates","shortName":"Plan-les-Ouates"},"district":{"key":"2500","name":"Canton de Genève"},"canton":{"key":"25","code":"GE","name":"Genève"},"status":"Real"},{"key":"10222148","name":"Chemin des Longues-Rasses","postalCode":"1228","locality":"Plan-les-Ouates","commune":{"key":"6633","name":"Plan-les-Ouates","shortName":"Plan-les-Ouates"},"district":{"key":"2500","name":"Canton de Genève"},"canton":{"key":"25","code":"GE","name":"Genève"},"status":"Real"},{"key":"10048676","name":"Chemin des Perdrix","postalCode":"1228","locality":"Plan-les-Ouates","commune":{"key":"6633","name":"Plan-les-Ouates","shortName":"Plan-les-Ouates"},"district":{"key":"2500","name":"Canton de Genève"},"canton":{"key":"25","code":"GE","name":"Genève"},"status":"Real"},{"key":"10222011","name":"Chemin des Peterées","postalCode":"1228","locality":"Plan-les-Ouates","commune":{"key":"6633","name":"Plan-les-Ouates","shortName":"Plan-les-Ouates"},"district":{"key":"2500","name":"Canton de Genève"},"canton":{"key":"25","code":"GE","name":"Genève"},"status":"Real"},{"key":"10163381","name":"Chemin des Petites-Fontaines","postalCode":"1228","locality":"Plan-les-Ouates","commune":{"key":"6633","name":"Plan-les-Ouates","shortName":"Plan-les-Ouates"},"district":{"key":"2500","name":"Canton de Genève"},"canton":{"key":"25","code":"GE","name":"Genève"},"status":"Real"},{"key":"10082195","name":"Chemin des Petits-Bois","postalCode":"1228","locality":"Plan-les-Ouates","commune":{"key":"6633","name":"Plan-les-Ouates","shortName":"Plan-les-Ouates"},"district":{"key":"2500","name":"Canton de Genève"},"canton":{"key":"25","code":"GE","name":"Genève"},"status":"Real"},{"key":"10106845","name":"Chemin des Picatalons","postalCode":"1228","locality":"Plan-les-Ouates","commune":{"key":"6633","name":"Plan-les-Ouates","shortName":"Plan-les-Ouates"},"district":{"key":"2500","name":"Canton de Genève"},"canton":{"key":"25","code":"GE","name":"Genève"},"status":"Real"},{"key":"10192114","name":"Chemin des Pluviers","postalCode":"1228","locality":"Plan-les-Ouates","commune":{"key":"6633","name":"Plan-les-Ouates","shortName":"Plan-les-Ouates"},"district":{"key":"2500","name":"Canton de Genève"},"canton":{"key":"25","code":"GE","name":"Genève"},"status":"Real"},{"key":"10048677","name":"Chemin des Ravonnets","postalCode":"1228","locality":"Plan-les-Ouates","commune":{"key":"6633","name":"Plan-les-Ouates","shortName":"Plan-les-Ouates"},"district":{"key":"2500","name":"Canton de Genève"},"canton":{"key":"25","code":"GE","name":"Genève"},"status":"Real"},{"key":"10222015","name":"Chemin des Remparts","postalCode":"1228","locality":"Plan-les-Ouates","commune":{"key":"6633","name":"Plan-les-Ouates","shortName":"Plan-les-Ouates"},"district":{"key":"2500","name":"Canton de Genève"},"canton":{"key":"25","code":"GE","name":"Genève"},"status":"Real"},{"key":"10048678","name":"Chemin des Roulets","postalCode":"1228","locality":"Plan-les-Ouates","commune":{"key":"6633","name":"Plan-les-Ouates","shortName":"Plan-les-Ouates"},"district":{"key":"2500","name":"Canton de Genève"},"canton":{"key":"25","code":"GE","name":"Genève"},"status":"Real"},{"key":"10256941","name":"Esplanade Le-Sapay","postalCode":"1228","locality":"Plan-les-Ouates","commune":{"key":"6633","name":"Plan-les-Ouates","shortName":"Plan-les-Ouates"},"district":{"key":"2500","name":"Canton de Genève"},"canton":{"key":"25","code":"GE","name":"Genève"},"status":"Real"},{"key":"10222057","name":"La Promenade","postalCode":"1228","locality":"Plan-les-Ouates","commune":{"key":"6633","name":"Plan-les-Ouates","shortName":"Plan-les-Ouates"},"district":{"key":"2500","name":"Canton de Genève"},"canton":{"key":"25","code":"GE","name":"Genève"},"status":"Real"},{"key":"10235320","name":"Mail 2000","postalCode":"1228","locality":"Plan-les-Ouates","commune":{"key":"6633","name":"Plan-les-Ouates","shortName":"Plan-les-Ouates"},"district":{"key":"2500","name":"Canton de Genève"},"canton":{"key":"25","code":"GE","name":"Genève"},"status":"Real"},{"key":"10048684","name":"Place des Aviateurs","postalCode":"1228","locality":"Plan-les-Ouates","commune":{"key":"6633","name":"Plan-les-Ouates","shortName":"Plan-les-Ouates"},"district":{"key":"2500","name":"Canton de Genève"},"canton":{"key":"25","code":"GE","name":"Genève"},"status":"Real"},{"key":"10179446","name":"Place des Bourneaux","postalCode":"1228","locality":"Plan-les-Ouates","commune":{"key":"6633","name":"Plan-les-Ouates","shortName":"Plan-les-Ouates"},"district":{"key":"2500","name":"Canton de Genève"},"canton":{"key":"25","code":"GE","name":"Genève"},"status":"Real"},{"key":"10222061","name":"Place du Vieil-Orme","postalCode":"1228","locality":"Plan-les-Ouates","commune":{"key":"6633","name":"Plan-les-Ouates","shortName":"Plan-les-Ouates"},"district":{"key":"2500","name":"Canton de Genève"},"canton":{"key":"25","code":"GE","name":"Genève"},"status":"Real"},{"key":"10222064","name":"Pont de Base","postalCode":"1228","locality":"Plan-les-Ouates","commune":{"key":"6633","name":"Plan-les-Ouates","shortName":"Plan-les-Ouates"},"district":{"key":"2500","name":"Canton de Genève"},"canton":{"key":"25","code":"GE","name":"Genève"},"status":"Real"},{"key":"10222246","name":"Pont de Plan-les-Ouates","postalCode":"1228","locality":"Plan-les-Ouates","commune":{"key":"6633","name":"Plan-les-Ouates","shortName":"Plan-les-Ouates"},"district":{"key":"2500","name":"Canton de Genève"},"canton":{"key":"25","code":"GE","name":"Genève"},"status":"Real"},{"key":"10222062","name":"Pont des Vaulx","postalCode":"1228","locality":"Plan-les-Ouates","commune":{"key":"6633","name":"Plan-les-Ouates","shortName":"Plan-les-Ouates"},"district":{"key":"2500","name":"Canton de Genève"},"canton":{"key":"25","code":"GE","name":"Genève"},"status":"Real"},{"key":"10222065","name":"Pont du Pré-Berghem","postalCode":"1228","locality":"Plan-les-Ouates","commune":{"key":"6633","name":"Plan-les-Ouates","shortName":"Plan-les-Ouates"},"district":{"key":"2500","name":"Canton de Genève"},"canton":{"key":"25","code":"GE","name":"Genève"},"status":"Real"},{"key":"10236022","name":"Promenade Tordue","postalCode":"1228","locality":"Plan-les-Ouates","commune":{"key":"6633","name":"Plan-les-Ouates","shortName":"Plan-les-Ouates"},"district":{"key":"2500","name":"Canton de Genève"},"canton":{"key":"25","code":"GE","name":"Genève"},"status":"Real"},{"key":"10048685","name":"Route de Bardonnex","postalCode":"1228","locality":"Plan-les-Ouates","commune":{"key":"6633","name":"Plan-les-Ouates","shortName":"Plan-les-Ouates"},"district":{"key":"2500","name":"Canton de Genève"},"canton":{"key":"25","code":"GE","name":"Genève"},"status":"Real"},{"key":"10106849","name":"Route de Base","postalCode":"1228","locality":"Plan-les-Ouates","commune":{"key":"6633","name":"Plan-les-Ouates","shortName":"Plan-les-Ouates"},"district":{"key":"2500","name":"Canton de Genève"},"canton":{"key":"25","code":"GE","name":"Genève"},"status":"Real"},{"key":"10106850","name":"Route de la Galaise","postalCode":"1228","locality":"Plan-les-Ouates","commune":{"key":"6633","name":"Plan-les-Ouates","shortName":"Plan-les-Ouates"},"district":{"key":"2500","name":"Canton de Genève"},"canton":{"key":"25","code":"GE","name":"Genève"},"status":"Real"},{"key":"10048686","name":"Route de Saconnex-d'Arve","postalCode":"1228","locality":"Plan-les-Ouates","commune":{"key":"6633","name":"Plan-les-Ouates","shortName":"Plan-les-Ouates"},"district":{"key":"2500","name":"Canton de Genève"},"canton":{"key":"25","code":"GE","name":"Genève"},"status":"Real"},{"key":"10048662","name":"Route de Saint-Julien","postalCode":"1228","locality":"Plan-les-Ouates","commune":{"key":"6633","name":"Plan-les-Ouates","shortName":"Plan-les-Ouates"},"district":{"key":"2500","name":"Canton de Genève"},"canton":{"key":"25","code":"GE","name":"Genève"},"status":"Real"},{"key":"10048687","name":"Route des Chevaliers-de-Malte","postalCode":"1228","locality":"Plan-les-Ouates","commune":{"key":"6633","name":"Plan-les-Ouates","shortName":"Plan-les-Ouates"},"district":{"key":"2500","name":"Canton de Genève"},"canton":{"key":"25","code":"GE","name":"Genève"},"status":"Real"},{"key":"10048688","name":"Route du Camp","postalCode":"1228","locality":"Plan-les-Ouates","commune":{"key":"6633","name":"Plan-les-Ouates","shortName":"Plan-les-Ouates"},"district":{"key":"2500","name":"Canton de Genève"},"canton":{"key":"25","code":"GE","name":"Genève"},"status":"Real"},{"key":"10059845","name":"Route du Vélodrome","postalCode":"1228","locality":"Plan-les-Ouates","commune":{"key":"6633","name":"Plan-les-Ouates","shortName":"Plan-les-Ouates"},"district":{"key":"2500","name":"Canton de Genève"},"canton":{"key":"25","code":"GE","name":"Genève"},"status":"Real"},{"key":"10120687","name":"Rue du Champ-Blanchod","postalCode":"1228","locality":"Plan-les-Ouates","commune":{"key":"6633","name":"Plan-les-Ouates","shortName":"Plan-les-Ouates"},"district":{"key":"2500","name":"Canton de Genève"},"canton":{"key":"25","code":"GE","name":"Genève"},"status":"Real"},{"key":"10222072","name":"Ruelle de l'Ancienne-Poste","postalCode":"1228","locality":"Plan-les-Ouates","commune":{"key":"6633","name":"Plan-les-Ouates","shortName":"Plan-les-Ouates"},"district":{"key":"2500","name":"Canton de Genève"},"canton":{"key":"25","code":"GE","name":"Genève"},"status":"Real"},{"key":"10222076","name":"Ruelle du Contingent","postalCode":"1228","locality":"Plan-les-Ouates","commune":{"key":"6633","name":"Plan-les-Ouates","shortName":"Plan-les-Ouates"},"district":{"key":"2500","name":"Canton de Genève"},"canton":{"key":"25","code":"GE","name":"Genève"},"status":"Real"},{"key":"10222080","name":"Ruelle du Hornuss","postalCode":"1228","locality":"Plan-les-Ouates","commune":{"key":"6633","name":"Plan-les-Ouates","shortName":"Plan-les-Ouates"},"district":{"key":"2500","name":"Canton de Genève"},"canton":{"key":"25","code":"GE","name":"Genève"},"status":"Real"},{"key":"10162125","name":"Ruelle du P'tit-Gris","postalCode":"1228","locality":"Plan-les-Ouates","commune":{"key":"6633","name":"Plan-les-Ouates","shortName":"Plan-les-Ouates"},"district":{"key":"2500","name":"Canton de Genève"},"canton":{"key":"25","code":"GE","name":"Genève"},"status":"Real"},{"key":"10222086","name":"Sentier de la Bataille","postalCode":"1228","locality":"Plan-les-Ouates","commune":{"key":"6633","name":"Plan-les-Ouates","shortName":"Plan-les-Ouates"},"district":{"key":"2500","name":"Canton de Genève"},"canton":{"key":"25","code":"GE","name":"Genève"},"status":"Real"},{"key":"10148494","name":"Sentier de l'Etang-du-Paradis","postalCode":"1228","locality":"Plan-les-Ouates","commune":{"key":"6633","name":"Plan-les-Ouates","shortName":"Plan-les-Ouates"},"district":{"key":"2500","name":"Canton de Genève"},"canton":{"key":"25","code":"GE","name":"Genève"},"status":"Real"},{"key":"10222091","name":"Sentier du Pré-Jardinier","postalCode":"1228","locality":"Plan-les-Ouates","commune":{"key":"6633","name":"Plan-les-Ouates","shortName":"Plan-les-Ouates"},"district":{"key":"2500","name":"Canton de Genève"},"canton":{"key":"25","code":"GE","name":"Genève"},"status":"Real"},{"key":"10222094","name":"Sentier Sous-la-Tour","postalCode":"1228","locality":"Plan-les-Ouates","commune":{"key":"6633","name":"Plan-les-Ouates","shortName":"Plan-les-Ouates"},"district":{"key":"2500","name":"Canton de Genève"},"canton":{"key":"25","code":"GE","name":"Genève"},"status":"Real"},{"key":"10222098","name":"Square des Footballeurs","postalCode":"1228","locality":"Plan-les-Ouates","commune":{"key":"6633","name":"Plan-les-Ouates","shortName":"Plan-les-Ouates"},"district":{"key":"2500","name":"Canton de Genève"},"canton":{"key":"25","code":"GE","name":"Genève"},"status":"Real"},{"key":"10244667","name":"Tranchée couverte d' Arare","postalCode":"1228","locality":"Plan-les-Ouates","commune":{"key":"6633","name":"Plan-les-Ouates","shortName":"Plan-les-Ouates"},"district":{"key":"2500","name":"Canton de Genève"},"canton":{"key":"25","code":"GE","name":"Genève"},"status":"Real"},{"key":"10244668","name":"Tranchée couverte de Saconnex d'Arve","postalCode":"1228","locality":"Plan-les-Ouates","commune":{"key":"6633","name":"Plan-les-Ouates","shortName":"Plan-les-Ouates"},"district":{"key":"2500","name":"Canton de Genève"},"canton":{"key":"25","code":"GE","name":"Genève"},"status":"Real"},{"key":"10256741","name":"Tranchée couverte du Bachet-de-Pesay","postalCode":"1228","locality":"Plan-les-Ouates","commune":{"key":"6633","name":"Plan-les-Ouates","shortName":"Plan-les-Ouates"},"district":{"key":"2500","name":"Canton de Genève"},"canton":{"key":"25","code":"GE","name":"Genève"},"status":"Real"},]