[{"name":"Albertshof","postalCode":"91346","locality":"Wiesenttal","municipality":{"key":"09474176","name":"Wiesenttal, M","type":"Markt"},"district":{"key":"09474","name":"Forchheim","type":"Landkreis"},"federalState":{"key":"09","name":"Bayern"}},{"name":"Am Bahnhof","postalCode":"91346","locality":"Wiesenttal","municipality":{"key":"09474176","name":"Wiesenttal, M","type":"Markt"},"district":{"key":"09474","name":"Forchheim","type":"Landkreis"},"federalState":{"key":"09","name":"Bayern"}},{"name":"Am Bürgerhaus","postalCode":"91346","locality":"Wiesenttal","municipality":{"key":"09474176","name":"Wiesenttal, M","type":"Markt"},"district":{"key":"09474","name":"Forchheim","type":"Landkreis"},"federalState":{"key":"09","name":"Bayern"}},{"name":"Am Freibad","postalCode":"91346","locality":"Wiesenttal","municipality":{"key":"09474176","name":"Wiesenttal, M","type":"Markt"},"district":{"key":"09474","name":"Forchheim","type":"Landkreis"},"federalState":{"key":"09","name":"Bayern"}},{"name":"Am Gailing","postalCode":"91346","locality":"Wiesenttal","municipality":{"key":"09474176","name":"Wiesenttal, M","type":"Markt"},"district":{"key":"09474","name":"Forchheim","type":"Landkreis"},"federalState":{"key":"09","name":"Bayern"}},{"name":"Am Hügel","postalCode":"91346","locality":"Wiesenttal","municipality":{"key":"09474176","name":"Wiesenttal, M","type":"Markt"},"district":{"key":"09474","name":"Forchheim","type":"Landkreis"},"federalState":{"key":"09","name":"Bayern"}},{"name":"Am Tölz","postalCode":"91346","locality":"Wiesenttal","municipality":{"key":"09474176","name":"Wiesenttal, M","type":"Markt"},"district":{"key":"09474","name":"Forchheim","type":"Landkreis"},"federalState":{"key":"09","name":"Bayern"}},{"name":"Am Wolfsgraben","postalCode":"91346","locality":"Wiesenttal","municipality":{"key":"09474176","name":"Wiesenttal, M","type":"Markt"},"district":{"key":"09474","name":"Forchheim","type":"Landkreis"},"federalState":{"key":"09","name":"Bayern"}},{"name":"Anger","postalCode":"91346","locality":"Wiesenttal","municipality":{"key":"09474176","name":"Wiesenttal, M","type":"Markt"},"district":{"key":"09474","name":"Forchheim","type":"Landkreis"},"federalState":{"key":"09","name":"Bayern"}},{"name":"Bahnhofstr.","postalCode":"91346","locality":"Wiesenttal","municipality":{"key":"09474176","name":"Wiesenttal, M","type":"Markt"},"district":{"key":"09474","name":"Forchheim","type":"Landkreis"},"federalState":{"key":"09","name":"Bayern"}},{"name":"Baronsgarten","postalCode":"91346","locality":"Wiesenttal","municipality":{"key":"09474176","name":"Wiesenttal, M","type":"Markt"},"district":{"key":"09474","name":"Forchheim","type":"Landkreis"},"federalState":{"key":"09","name":"Bayern"}},{"name":"Bayreuther Str.","postalCode":"91346","locality":"Wiesenttal","municipality":{"key":"09474176","name":"Wiesenttal, M","type":"Markt"},"district":{"key":"09474","name":"Forchheim","type":"Landkreis"},"federalState":{"key":"09","name":"Bayern"}},{"name":"Birkenreuther Weg","postalCode":"91346","locality":"Wiesenttal","municipality":{"key":"09474176","name":"Wiesenttal, M","type":"Markt"},"district":{"key":"09474","name":"Forchheim","type":"Landkreis"},"federalState":{"key":"09","name":"Bayern"}},{"name":"Brauhausgasse","postalCode":"91346","locality":"Wiesenttal","municipality":{"key":"09474176","name":"Wiesenttal, M","type":"Markt"},"district":{"key":"09474","name":"Forchheim","type":"Landkreis"},"federalState":{"key":"09","name":"Bayern"}},{"name":"Dooser Berg","postalCode":"91346","locality":"Wiesenttal","municipality":{"key":"09474176","name":"Wiesenttal, M","type":"Markt"},"district":{"key":"09474","name":"Forchheim","type":"Landkreis"},"federalState":{"key":"09","name":"Bayern"}},{"name":"Dorfplatz","postalCode":"91346","locality":"Wiesenttal","municipality":{"key":"09474176","name":"Wiesenttal, M","type":"Markt"},"district":{"key":"09474","name":"Forchheim","type":"Landkreis"},"federalState":{"key":"09","name":"Bayern"}},{"name":"Engelhardsberg","postalCode":"91346","locality":"Wiesenttal","municipality":{"key":"09474176","name":"Wiesenttal, M","type":"Markt"},"district":{"key":"09474","name":"Forchheim","type":"Landkreis"},"federalState":{"key":"09","name":"Bayern"}},{"name":"Erfahrungsfeld der Sinne","postalCode":"91346","locality":"Wiesenttal","municipality":{"key":"09474176","name":"Wiesenttal, M","type":"Markt"},"district":{"key":"09474","name":"Forchheim","type":"Landkreis"},"federalState":{"key":"09","name":"Bayern"}},{"name":"Forchheimer Str.","postalCode":"91346","locality":"Wiesenttal","municipality":{"key":"09474176","name":"Wiesenttal, M","type":"Markt"},"district":{"key":"09474","name":"Forchheim","type":"Landkreis"},"federalState":{"key":"09","name":"Bayern"}},{"name":"Frankenweg","postalCode":"91346","locality":"Wiesenttal","municipality":{"key":"09474176","name":"Wiesenttal, M","type":"Markt"},"district":{"key":"09474","name":"Forchheim","type":"Landkreis"},"federalState":{"key":"09","name":"Bayern"}},{"name":"Friedhofsweg","postalCode":"91346","locality":"Wiesenttal","municipality":{"key":"09474176","name":"Wiesenttal, M","type":"Markt"},"district":{"key":"09474","name":"Forchheim","type":"Landkreis"},"federalState":{"key":"09","name":"Bayern"}},{"name":"Görlitzer Weg","postalCode":"91346","locality":"Wiesenttal","municipality":{"key":"09474176","name":"Wiesenttal, M","type":"Markt"},"district":{"key":"09474","name":"Forchheim","type":"Landkreis"},"federalState":{"key":"09","name":"Bayern"}},{"name":"Gößmannsberg","postalCode":"91346","locality":"Wiesenttal","municipality":{"key":"09474176","name":"Wiesenttal, M","type":"Markt"},"district":{"key":"09474","name":"Forchheim","type":"Landkreis"},"federalState":{"key":"09","name":"Bayern"}},{"name":"Hans-Hertlein-Str.","postalCode":"91346","locality":"Wiesenttal","municipality":{"key":"09474176","name":"Wiesenttal, M","type":"Markt"},"district":{"key":"09474","name":"Forchheim","type":"Landkreis"},"federalState":{"key":"09","name":"Bayern"}},{"name":"Hellmut-Kunstmann-Weg","postalCode":"91346","locality":"Wiesenttal","municipality":{"key":"09474176","name":"Wiesenttal, M","type":"Markt"},"district":{"key":"09474","name":"Forchheim","type":"Landkreis"},"federalState":{"key":"09","name":"Bayern"}},{"name":"Höhlenweg","postalCode":"91346","locality":"Wiesenttal","municipality":{"key":"09474176","name":"Wiesenttal, M","type":"Markt"},"district":{"key":"09474","name":"Forchheim","type":"Landkreis"},"federalState":{"key":"09","name":"Bayern"}},{"name":"Im Gewend","postalCode":"91346","locality":"Wiesenttal","municipality":{"key":"09474176","name":"Wiesenttal, M","type":"Markt"},"district":{"key":"09474","name":"Forchheim","type":"Landkreis"},"federalState":{"key":"09","name":"Bayern"}},{"name":"In der Eng","postalCode":"91346","locality":"Wiesenttal","municipality":{"key":"09474176","name":"Wiesenttal, M","type":"Markt"},"district":{"key":"09474","name":"Forchheim","type":"Landkreis"},"federalState":{"key":"09","name":"Bayern"}},{"name":"Jagdstr.","postalCode":"91301","locality":"Forchheim","municipality":{"key":"09474126","name":"Forchheim, GKSt","type":"Große_Kreisstadt"},"district":{"key":"09474","name":"Forchheim","type":"Landkreis"},"federalState":{"key":"09","name":"Bayern"}},{"name":"Jägersteig","postalCode":"91301","locality":"Forchheim","municipality":{"key":"09474126","name":"Forchheim, GKSt","type":"Große_Kreisstadt"},"district":{"key":"09474","name":"Forchheim","type":"Landkreis"},"federalState":{"key":"09","name":"Bayern"}},{"name":"Jakob-Röhrer-Weg","postalCode":"91301","locality":"Forchheim","municipality":{"key":"09474126","name":"Forchheim, GKSt","type":"Große_Kreisstadt"},"district":{"key":"09474","name":"Forchheim","type":"Landkreis"},"federalState":{"key":"09","name":"Bayern"}},{"name":"Jean-Paul-Str.","postalCode":"91301","locality":"Forchheim","municipality":{"key":"09474126","name":"Forchheim, GKSt","type":"Große_Kreisstadt"},"district":{"key":"09474","name":"Forchheim","type":"Landkreis"},"federalState":{"key":"09","name":"Bayern"}},{"name":"Johann-Sebastian-Bach-Str.","postalCode":"91301","locality":"Forchheim","municipality":{"key":"09474126","name":"Forchheim, GKSt","type":"Große_Kreisstadt"},"district":{"key":"09474","name":"Forchheim","type":"Landkreis"},"federalState":{"key":"09","name":"Bayern"}},{"name":"John-F.-Kennedy-Ring","postalCode":"91301","locality":"Forchheim","municipality":{"key":"09474126","name":"Forchheim, GKSt","type":"Große_Kreisstadt"},"district":{"key":"09474","name":"Forchheim","type":"Landkreis"},"federalState":{"key":"09","name":"Bayern"}},{"name":"Josef-Arnold-Str.","postalCode":"91301","locality":"Forchheim","municipality":{"key":"09474126","name":"Forchheim, GKSt","type":"Große_Kreisstadt"},"district":{"key":"09474","name":"Forchheim","type":"Landkreis"},"federalState":{"key":"09","name":"Bayern"}},{"name":"Josef-Schneider-Str.","postalCode":"91301","locality":"Forchheim","municipality":{"key":"09474126","name":"Forchheim, GKSt","type":"Große_Kreisstadt"},"district":{"key":"09474","name":"Forchheim","type":"Landkreis"},"federalState":{"key":"09","name":"Bayern"}},{"name":"Joseph-Otto-Platz","postalCode":"91301","locality":"Forchheim","municipality":{"key":"09474126","name":"Forchheim, GKSt","type":"Große_Kreisstadt"},"district":{"key":"09474","name":"Forchheim","type":"Landkreis"},"federalState":{"key":"09","name":"Bayern"}},{"name":"Kirchgasse","postalCode":"91346","locality":"Wiesenttal","municipality":{"key":"09474176","name":"Wiesenttal, M","type":"Markt"},"district":{"key":"09474","name":"Forchheim","type":"Landkreis"},"federalState":{"key":"09","name":"Bayern"}},{"name":"Klosterberg","postalCode":"91346","locality":"Wiesenttal","municipality":{"key":"09474176","name":"Wiesenttal, M","type":"Markt"},"district":{"key":"09474","name":"Forchheim","type":"Landkreis"},"federalState":{"key":"09","name":"Bayern"}},{"name":"Langes Tal","postalCode":"91346","locality":"Wiesenttal","municipality":{"key":"09474176","name":"Wiesenttal, M","type":"Markt"},"district":{"key":"09474","name":"Forchheim","type":"Landkreis"},"federalState":{"key":"09","name":"Bayern"}},{"name":"Leo-Jobst-Weg","postalCode":"91346","locality":"Wiesenttal","municipality":{"key":"09474176","name":"Wiesenttal, M","type":"Markt"},"district":{"key":"09474","name":"Forchheim","type":"Landkreis"},"federalState":{"key":"09","name":"Bayern"}},{"name":"Lindenberg","postalCode":"91346","locality":"Wiesenttal","municipality":{"key":"09474176","name":"Wiesenttal, M","type":"Markt"},"district":{"key":"09474","name":"Forchheim","type":"Landkreis"},"federalState":{"key":"09","name":"Bayern"}},{"name":"Marktplatz","postalCode":"91346","locality":"Wiesenttal","municipality":{"key":"09474176","name":"Wiesenttal, M","type":"Markt"},"district":{"key":"09474","name":"Forchheim","type":"Landkreis"},"federalState":{"key":"09","name":"Bayern"}},{"name":"Mehlbeerensteig","postalCode":"91346","locality":"Wiesenttal","municipality":{"key":"09474176","name":"Wiesenttal, M","type":"Markt"},"district":{"key":"09474","name":"Forchheim","type":"Landkreis"},"federalState":{"key":"09","name":"Bayern"}},{"name":"Mühlweg","postalCode":"91346","locality":"Wiesenttal","municipality":{"key":"09474176","name":"Wiesenttal, M","type":"Markt"},"district":{"key":"09474","name":"Forchheim","type":"Landkreis"},"federalState":{"key":"09","name":"Bayern"}},{"name":"Muschelquellenweg","postalCode":"91346","locality":"Wiesenttal","municipality":{"key":"09474176","name":"Wiesenttal, M","type":"Markt"},"district":{"key":"09474","name":"Forchheim","type":"Landkreis"},"federalState":{"key":"09","name":"Bayern"}},{"name":"Neuer Weg","postalCode":"91346","locality":"Wiesenttal","municipality":{"key":"09474176","name":"Wiesenttal, M","type":"Markt"},"district":{"key":"09474","name":"Forchheim","type":"Landkreis"},"federalState":{"key":"09","name":"Bayern"}},{"name":"Oberer Bahnhofsweg","postalCode":"91346","locality":"Wiesenttal","municipality":{"key":"09474176","name":"Wiesenttal, M","type":"Markt"},"district":{"key":"09474","name":"Forchheim","type":"Landkreis"},"federalState":{"key":"09","name":"Bayern"}},{"name":"Oberer Markt","postalCode":"91346","locality":"Wiesenttal","municipality":{"key":"09474176","name":"Wiesenttal, M","type":"Markt"},"district":{"key":"09474","name":"Forchheim","type":"Landkreis"},"federalState":{"key":"09","name":"Bayern"}},{"name":"Pfaffenleitenweg","postalCode":"91346","locality":"Wiesenttal","municipality":{"key":"09474176","name":"Wiesenttal, M","type":"Markt"},"district":{"key":"09474","name":"Forchheim","type":"Landkreis"},"federalState":{"key":"09","name":"Bayern"}},{"name":"Rosenauweg","postalCode":"91346","locality":"Wiesenttal","municipality":{"key":"09474176","name":"Wiesenttal, M","type":"Markt"},"district":{"key":"09474","name":"Forchheim","type":"Landkreis"},"federalState":{"key":"09","name":"Bayern"}},{"name":"Rotdornweg","postalCode":"91346","locality":"Wiesenttal","municipality":{"key":"09474176","name":"Wiesenttal, M","type":"Markt"},"district":{"key":"09474","name":"Forchheim","type":"Landkreis"},"federalState":{"key":"09","name":"Bayern"}},{"name":"Schauertal","postalCode":"91346","locality":"Wiesenttal","municipality":{"key":"09474176","name":"Wiesenttal, M","type":"Markt"},"district":{"key":"09474","name":"Forchheim","type":"Landkreis"},"federalState":{"key":"09","name":"Bayern"}},{"name":"Schlehenweg","postalCode":"91346","locality":"Wiesenttal","municipality":{"key":"09474176","name":"Wiesenttal, M","type":"Markt"},"district":{"key":"09474","name":"Forchheim","type":"Landkreis"},"federalState":{"key":"09","name":"Bayern"}},{"name":"Schmiedsberg","postalCode":"91346","locality":"Wiesenttal","municipality":{"key":"09474176","name":"Wiesenttal, M","type":"Markt"},"district":{"key":"09474","name":"Forchheim","type":"Landkreis"},"federalState":{"key":"09","name":"Bayern"}},{"name":"Schulberg","postalCode":"91346","locality":"Wiesenttal","municipality":{"key":"09474176","name":"Wiesenttal, M","type":"Markt"},"district":{"key":"09474","name":"Forchheim","type":"Landkreis"},"federalState":{"key":"09","name":"Bayern"}},{"name":"Streitberger Berg","postalCode":"91346","locality":"Wiesenttal","municipality":{"key":"09474176","name":"Wiesenttal, M","type":"Markt"},"district":{"key":"09474","name":"Forchheim","type":"Landkreis"},"federalState":{"key":"09","name":"Bayern"}},{"name":"Streitburg","postalCode":"91346","locality":"Wiesenttal","municipality":{"key":"09474176","name":"Wiesenttal, M","type":"Markt"},"district":{"key":"09474","name":"Forchheim","type":"Landkreis"},"federalState":{"key":"09","name":"Bayern"}},{"name":"Tölzwiesen","postalCode":"91346","locality":"Wiesenttal","municipality":{"key":"09474176","name":"Wiesenttal, M","type":"Markt"},"district":{"key":"09474","name":"Forchheim","type":"Landkreis"},"federalState":{"key":"09","name":"Bayern"}},{"name":"Uhlandstr.","postalCode":"91301","locality":"Forchheim","municipality":{"key":"09474126","name":"Forchheim, GKSt","type":"Große_Kreisstadt"},"district":{"key":"09474","name":"Forchheim","type":"Landkreis"},"federalState":{"key":"09","name":"Bayern"}},{"name":"Ulmenstr.","postalCode":"91301","locality":"Forchheim","municipality":{"key":"09474126","name":"Forchheim, GKSt","type":"Große_Kreisstadt"},"district":{"key":"09474","name":"Forchheim","type":"Landkreis"},"federalState":{"key":"09","name":"Bayern"}},{"name":"Untere Kellerstr.","postalCode":"91301","locality":"Forchheim","municipality":{"key":"09474126","name":"Forchheim, GKSt","type":"Große_Kreisstadt"},"district":{"key":"09474","name":"Forchheim","type":"Landkreis"},"federalState":{"key":"09","name":"Bayern"}},{"name":"Unterer Schorn","postalCode":"91301","locality":"Forchheim","municipality":{"key":"09474126","name":"Forchheim, GKSt","type":"Große_Kreisstadt"},"district":{"key":"09474","name":"Forchheim","type":"Landkreis"},"federalState":{"key":"09","name":"Bayern"}},{"name":"Unterer Schulweg","postalCode":"91301","locality":"Forchheim","municipality":{"key":"09474126","name":"Forchheim, GKSt","type":"Große_Kreisstadt"},"district":{"key":"09474","name":"Forchheim","type":"Landkreis"},"federalState":{"key":"09","name":"Bayern"}},{"name":"Voigendorf","postalCode":"91346","locality":"Wiesenttal","municipality":{"key":"09474176","name":"Wiesenttal, M","type":"Markt"},"district":{"key":"09474","name":"Forchheim","type":"Landkreis"},"federalState":{"key":"09","name":"Bayern"}},{"name":"Waldweg","postalCode":"91346","locality":"Wiesenttal","municipality":{"key":"09474176","name":"Wiesenttal, M","type":"Markt"},"district":{"key":"09474","name":"Forchheim","type":"Landkreis"},"federalState":{"key":"09","name":"Bayern"}},{"name":"Wartleitenweg","postalCode":"91346","locality":"Wiesenttal","municipality":{"key":"09474176","name":"Wiesenttal, M","type":"Markt"},"district":{"key":"09474","name":"Forchheim","type":"Landkreis"},"federalState":{"key":"09","name":"Bayern"}},{"name":"Weingarten","postalCode":"91346","locality":"Wiesenttal","municipality":{"key":"09474176","name":"Wiesenttal, M","type":"Markt"},"district":{"key":"09474","name":"Forchheim","type":"Landkreis"},"federalState":{"key":"09","name":"Bayern"}},{"name":"Wiesentweg","postalCode":"91346","locality":"Wiesenttal","municipality":{"key":"09474176","name":"Wiesenttal, M","type":"Markt"},"district":{"key":"09474","name":"Forchheim","type":"Landkreis"},"federalState":{"key":"09","name":"Bayern"}},{"name":"Wirtsäcker","postalCode":"91346","locality":"Wiesenttal","municipality":{"key":"09474176","name":"Wiesenttal, M","type":"Markt"},"district":{"key":"09474","name":"Forchheim","type":"Landkreis"},"federalState":{"key":"09","name":"Bayern"}},{"name":"Wohlmannsgesees","postalCode":"91346","locality":"Wiesenttal","municipality":{"key":"09474176","name":"Wiesenttal, M","type":"Markt"},"district":{"key":"09474","name":"Forchheim","type":"Landkreis"},"federalState":{"key":"09","name":"Bayern"}},{"name":"Wolfsgasse","postalCode":"91346","locality":"Wiesenttal","municipality":{"key":"09474176","name":"Wiesenttal, M","type":"Markt"},"district":{"key":"09474","name":"Forchheim","type":"Landkreis"},"federalState":{"key":"09","name":"Bayern"}},{"name":"Zum Schachergraben","postalCode":"91346","locality":"Wiesenttal","municipality":{"key":"09474176","name":"Wiesenttal, M","type":"Markt"},"district":{"key":"09474","name":"Forchheim","type":"Landkreis"},"federalState":{"key":"09","name":"Bayern"}},{"name":"Äußere Nürnberger Str.","postalCode":"91301","locality":"Forchheim","municipality":{"key":"09474126","name":"Forchheim, GKSt","type":"Große_Kreisstadt"},"district":{"key":"09474","name":"Forchheim","type":"Landkreis"},"federalState":{"key":"09","name":"Bayern"}},]