[{"name":"420 Schneise","postalCode":"36110","locality":"Schlitz","municipality":{"key":"06535015","name":"Schlitz, Stadt","type":"Stadt"},"district":{"key":"06535","name":"Vogelsbergkreis","type":"Landkreis"},"federalState":{"key":"06","name":"Hessen"}},{"name":"Adolph-Kolping-Str.","postalCode":"36110","locality":"Schlitz","municipality":{"key":"06535015","name":"Schlitz, Stadt","type":"Stadt"},"district":{"key":"06535","name":"Vogelsbergkreis","type":"Landkreis"},"federalState":{"key":"06","name":"Hessen"}},{"name":"Ahornweg","postalCode":"36110","locality":"Schlitz","municipality":{"key":"06535015","name":"Schlitz, Stadt","type":"Stadt"},"district":{"key":"06535","name":"Vogelsbergkreis","type":"Landkreis"},"federalState":{"key":"06","name":"Hessen"}},{"name":"Albertgasse","postalCode":"08538","locality":"Weischlitz","municipality":{"key":"14523450","name":"Weischlitz","type":"Kreisangehörige_Gemeinde"},"district":{"key":"14523","name":"Vogtlandkreis","type":"Landkreis"},"federalState":{"key":"14","name":"Sachsen"}},{"name":"Alte Furth","postalCode":"08538","locality":"Weischlitz","municipality":{"key":"14523450","name":"Weischlitz","type":"Kreisangehörige_Gemeinde"},"district":{"key":"14523","name":"Vogtlandkreis","type":"Landkreis"},"federalState":{"key":"14","name":"Sachsen"}},{"name":"Alte Heerstr.","postalCode":"36110","locality":"Schlitz","municipality":{"key":"06535015","name":"Schlitz, Stadt","type":"Stadt"},"district":{"key":"06535","name":"Vogelsbergkreis","type":"Landkreis"},"federalState":{"key":"06","name":"Hessen"}},{"name":"Alte Rodersdorfer Str.","postalCode":"08538","locality":"Weischlitz","municipality":{"key":"14523450","name":"Weischlitz","type":"Kreisangehörige_Gemeinde"},"district":{"key":"14523","name":"Vogtlandkreis","type":"Landkreis"},"federalState":{"key":"14","name":"Sachsen"}},{"name":"Alter Weg","postalCode":"36110","locality":"Schlitz","municipality":{"key":"06535015","name":"Schlitz, Stadt","type":"Stadt"},"district":{"key":"06535","name":"Vogelsbergkreis","type":"Landkreis"},"federalState":{"key":"06","name":"Hessen"}},{"name":"Alte Schule","postalCode":"08538","locality":"Weischlitz","municipality":{"key":"14523450","name":"Weischlitz","type":"Kreisangehörige_Gemeinde"},"district":{"key":"14523","name":"Vogtlandkreis","type":"Landkreis"},"federalState":{"key":"14","name":"Sachsen"}},{"name":"Alte Schule","postalCode":"36110","locality":"Schlitz","municipality":{"key":"06535015","name":"Schlitz, Stadt","type":"Stadt"},"district":{"key":"06535","name":"Vogelsbergkreis","type":"Landkreis"},"federalState":{"key":"06","name":"Hessen"}},{"name":"Alte Str.","postalCode":"36110","locality":"Schlitz","municipality":{"key":"06535015","name":"Schlitz, Stadt","type":"Stadt"},"district":{"key":"06535","name":"Vogelsbergkreis","type":"Landkreis"},"federalState":{"key":"06","name":"Hessen"}},{"name":"Alte Weischlitzer Str.","postalCode":"08538","locality":"Weischlitz","municipality":{"key":"14523450","name":"Weischlitz","type":"Kreisangehörige_Gemeinde"},"district":{"key":"14523","name":"Vogtlandkreis","type":"Landkreis"},"federalState":{"key":"14","name":"Sachsen"}},{"name":"Am Alten Gut","postalCode":"08538","locality":"Weischlitz","municipality":{"key":"14523450","name":"Weischlitz","type":"Kreisangehörige_Gemeinde"},"district":{"key":"14523","name":"Vogtlandkreis","type":"Landkreis"},"federalState":{"key":"14","name":"Sachsen"}},{"name":"Am Anger","postalCode":"08538","locality":"Weischlitz","municipality":{"key":"14523450","name":"Weischlitz","type":"Kreisangehörige_Gemeinde"},"district":{"key":"14523","name":"Vogtlandkreis","type":"Landkreis"},"federalState":{"key":"14","name":"Sachsen"}},{"name":"Am Bahndamm","postalCode":"36110","locality":"Schlitz","municipality":{"key":"06535015","name":"Schlitz, Stadt","type":"Stadt"},"district":{"key":"06535","name":"Vogelsbergkreis","type":"Landkreis"},"federalState":{"key":"06","name":"Hessen"}},{"name":"Am Bahnhof","postalCode":"08538","locality":"Weischlitz","municipality":{"key":"14523450","name":"Weischlitz","type":"Kreisangehörige_Gemeinde"},"district":{"key":"14523","name":"Vogtlandkreis","type":"Landkreis"},"federalState":{"key":"14","name":"Sachsen"}},{"name":"Am Baubelsacker","postalCode":"36110","locality":"Schlitz","municipality":{"key":"06535015","name":"Schlitz, Stadt","type":"Stadt"},"district":{"key":"06535","name":"Vogelsbergkreis","type":"Landkreis"},"federalState":{"key":"06","name":"Hessen"}},{"name":"Am Baumgarten","postalCode":"36110","locality":"Schlitz","municipality":{"key":"06535015","name":"Schlitz, Stadt","type":"Stadt"},"district":{"key":"06535","name":"Vogelsbergkreis","type":"Landkreis"},"federalState":{"key":"06","name":"Hessen"}},{"name":"Am Beerrain","postalCode":"36110","locality":"Schlitz","municipality":{"key":"06535015","name":"Schlitz, Stadt","type":"Stadt"},"district":{"key":"06535","name":"Vogelsbergkreis","type":"Landkreis"},"federalState":{"key":"06","name":"Hessen"}},{"name":"Am Berg","postalCode":"08538","locality":"Weischlitz","municipality":{"key":"14523450","name":"Weischlitz","type":"Kreisangehörige_Gemeinde"},"district":{"key":"14523","name":"Vogtlandkreis","type":"Landkreis"},"federalState":{"key":"14","name":"Sachsen"}},{"name":"Am Berg","postalCode":"36110","locality":"Schlitz","municipality":{"key":"06535015","name":"Schlitz, Stadt","type":"Stadt"},"district":{"key":"06535","name":"Vogelsbergkreis","type":"Landkreis"},"federalState":{"key":"06","name":"Hessen"}},{"name":"Am Bodenacker","postalCode":"36110","locality":"Schlitz","municipality":{"key":"06535015","name":"Schlitz, Stadt","type":"Stadt"},"district":{"key":"06535","name":"Vogelsbergkreis","type":"Landkreis"},"federalState":{"key":"06","name":"Hessen"}},{"name":"Am Bornacker","postalCode":"36110","locality":"Schlitz","municipality":{"key":"06535015","name":"Schlitz, Stadt","type":"Stadt"},"district":{"key":"06535","name":"Vogelsbergkreis","type":"Landkreis"},"federalState":{"key":"06","name":"Hessen"}},{"name":"Am Bornrain","postalCode":"36110","locality":"Schlitz","municipality":{"key":"06535015","name":"Schlitz, Stadt","type":"Stadt"},"district":{"key":"06535","name":"Vogelsbergkreis","type":"Landkreis"},"federalState":{"key":"06","name":"Hessen"}},{"name":"Am Bramenrain","postalCode":"36110","locality":"Schlitz","municipality":{"key":"06535015","name":"Schlitz, Stadt","type":"Stadt"},"district":{"key":"06535","name":"Vogelsbergkreis","type":"Landkreis"},"federalState":{"key":"06","name":"Hessen"}},{"name":"Am Bruch","postalCode":"36110","locality":"Schlitz","municipality":{"key":"06535015","name":"Schlitz, Stadt","type":"Stadt"},"district":{"key":"06535","name":"Vogelsbergkreis","type":"Landkreis"},"federalState":{"key":"06","name":"Hessen"}},{"name":"Am Buchberg","postalCode":"36110","locality":"Schlitz","municipality":{"key":"06535015","name":"Schlitz, Stadt","type":"Stadt"},"district":{"key":"06535","name":"Vogelsbergkreis","type":"Landkreis"},"federalState":{"key":"06","name":"Hessen"}},{"name":"Am Buchgraben","postalCode":"36110","locality":"Schlitz","municipality":{"key":"06535015","name":"Schlitz, Stadt","type":"Stadt"},"district":{"key":"06535","name":"Vogelsbergkreis","type":"Landkreis"},"federalState":{"key":"06","name":"Hessen"}},{"name":"Am Buchrain","postalCode":"36110","locality":"Schlitz","municipality":{"key":"06535015","name":"Schlitz, Stadt","type":"Stadt"},"district":{"key":"06535","name":"Vogelsbergkreis","type":"Landkreis"},"federalState":{"key":"06","name":"Hessen"}},{"name":"Am Burgbach","postalCode":"08538","locality":"Weischlitz","municipality":{"key":"14523450","name":"Weischlitz","type":"Kreisangehörige_Gemeinde"},"district":{"key":"14523","name":"Vogtlandkreis","type":"Landkreis"},"federalState":{"key":"14","name":"Sachsen"}},{"name":"Am Burgstein","postalCode":"08538","locality":"Weischlitz","municipality":{"key":"14523450","name":"Weischlitz","type":"Kreisangehörige_Gemeinde"},"district":{"key":"14523","name":"Vogtlandkreis","type":"Landkreis"},"federalState":{"key":"14","name":"Sachsen"}},{"name":"Am Chattenborn","postalCode":"36110","locality":"Schlitz","municipality":{"key":"06535015","name":"Schlitz, Stadt","type":"Stadt"},"district":{"key":"06535","name":"Vogelsbergkreis","type":"Landkreis"},"federalState":{"key":"06","name":"Hessen"}},{"name":"Am Dorfplatz","postalCode":"08538","locality":"Weischlitz","municipality":{"key":"14523450","name":"Weischlitz","type":"Kreisangehörige_Gemeinde"},"district":{"key":"14523","name":"Vogtlandkreis","type":"Landkreis"},"federalState":{"key":"14","name":"Sachsen"}},{"name":"Am Forst","postalCode":"08538","locality":"Weischlitz","municipality":{"key":"14523450","name":"Weischlitz","type":"Kreisangehörige_Gemeinde"},"district":{"key":"14523","name":"Vogtlandkreis","type":"Landkreis"},"federalState":{"key":"14","name":"Sachsen"}},{"name":"Am Gänsrasen","postalCode":"36110","locality":"Schlitz","municipality":{"key":"06535015","name":"Schlitz, Stadt","type":"Stadt"},"district":{"key":"06535","name":"Vogelsbergkreis","type":"Landkreis"},"federalState":{"key":"06","name":"Hessen"}},{"name":"Am Gerstenacker","postalCode":"36110","locality":"Schlitz","municipality":{"key":"06535015","name":"Schlitz, Stadt","type":"Stadt"},"district":{"key":"06535","name":"Vogelsbergkreis","type":"Landkreis"},"federalState":{"key":"06","name":"Hessen"}},{"name":"Am Gewerbering","postalCode":"08538","locality":"Weischlitz","municipality":{"key":"14523450","name":"Weischlitz","type":"Kreisangehörige_Gemeinde"},"district":{"key":"14523","name":"Vogtlandkreis","type":"Landkreis"},"federalState":{"key":"14","name":"Sachsen"}},{"name":"Am Goldbach","postalCode":"08538","locality":"Weischlitz","municipality":{"key":"14523450","name":"Weischlitz","type":"Kreisangehörige_Gemeinde"},"district":{"key":"14523","name":"Vogtlandkreis","type":"Landkreis"},"federalState":{"key":"14","name":"Sachsen"}},{"name":"Am Gutshof","postalCode":"08538","locality":"Weischlitz","municipality":{"key":"14523450","name":"Weischlitz","type":"Kreisangehörige_Gemeinde"},"district":{"key":"14523","name":"Vogtlandkreis","type":"Landkreis"},"federalState":{"key":"14","name":"Sachsen"}},{"name":"Am Haselstein","postalCode":"08538","locality":"Weischlitz","municipality":{"key":"14523450","name":"Weischlitz","type":"Kreisangehörige_Gemeinde"},"district":{"key":"14523","name":"Vogtlandkreis","type":"Landkreis"},"federalState":{"key":"14","name":"Sachsen"}},{"name":"Am Kalk","postalCode":"36110","locality":"Schlitz","municipality":{"key":"06535015","name":"Schlitz, Stadt","type":"Stadt"},"district":{"key":"06535","name":"Vogelsbergkreis","type":"Landkreis"},"federalState":{"key":"06","name":"Hessen"}},{"name":"Am Kappelberg","postalCode":"08538","locality":"Weischlitz","municipality":{"key":"14523450","name":"Weischlitz","type":"Kreisangehörige_Gemeinde"},"district":{"key":"14523","name":"Vogtlandkreis","type":"Landkreis"},"federalState":{"key":"14","name":"Sachsen"}},{"name":"Am Karlshof","postalCode":"36110","locality":"Schlitz","municipality":{"key":"06535015","name":"Schlitz, Stadt","type":"Stadt"},"district":{"key":"06535","name":"Vogelsbergkreis","type":"Landkreis"},"federalState":{"key":"06","name":"Hessen"}},{"name":"Am Kemnitzbach","postalCode":"08538","locality":"Weischlitz","municipality":{"key":"14523450","name":"Weischlitz","type":"Kreisangehörige_Gemeinde"},"district":{"key":"14523","name":"Vogtlandkreis","type":"Landkreis"},"federalState":{"key":"14","name":"Sachsen"}},{"name":"Am Kirchsteig","postalCode":"08538","locality":"Weischlitz","municipality":{"key":"14523450","name":"Weischlitz","type":"Kreisangehörige_Gemeinde"},"district":{"key":"14523","name":"Vogtlandkreis","type":"Landkreis"},"federalState":{"key":"14","name":"Sachsen"}},{"name":"Am Kreuzberg","postalCode":"08538","locality":"Weischlitz","municipality":{"key":"14523450","name":"Weischlitz","type":"Kreisangehörige_Gemeinde"},"district":{"key":"14523","name":"Vogtlandkreis","type":"Landkreis"},"federalState":{"key":"14","name":"Sachsen"}},{"name":"Am Lingelsberg","postalCode":"36110","locality":"Schlitz","municipality":{"key":"06535015","name":"Schlitz, Stadt","type":"Stadt"},"district":{"key":"06535","name":"Vogelsbergkreis","type":"Landkreis"},"federalState":{"key":"06","name":"Hessen"}},{"name":"Am Lutzenrain","postalCode":"36110","locality":"Schlitz","municipality":{"key":"06535015","name":"Schlitz, Stadt","type":"Stadt"},"district":{"key":"06535","name":"Vogelsbergkreis","type":"Landkreis"},"federalState":{"key":"06","name":"Hessen"}},{"name":"Am Mühlberg","postalCode":"36110","locality":"Schlitz","municipality":{"key":"06535015","name":"Schlitz, Stadt","type":"Stadt"},"district":{"key":"06535","name":"Vogelsbergkreis","type":"Landkreis"},"federalState":{"key":"06","name":"Hessen"}},{"name":"Am Pfifferloch","postalCode":"36110","locality":"Schlitz","municipality":{"key":"06535015","name":"Schlitz, Stadt","type":"Stadt"},"district":{"key":"06535","name":"Vogelsbergkreis","type":"Landkreis"},"federalState":{"key":"06","name":"Hessen"}},{"name":"Am Pöhl","postalCode":"08538","locality":"Weischlitz","municipality":{"key":"14523450","name":"Weischlitz","type":"Kreisangehörige_Gemeinde"},"district":{"key":"14523","name":"Vogtlandkreis","type":"Landkreis"},"federalState":{"key":"14","name":"Sachsen"}},{"name":"Bachweg","postalCode":"36110","locality":"Schlitz","municipality":{"key":"06535015","name":"Schlitz, Stadt","type":"Stadt"},"district":{"key":"06535","name":"Vogelsbergkreis","type":"Landkreis"},"federalState":{"key":"06","name":"Hessen"}},{"name":"Bad Salzschlirfer Str.","postalCode":"36110","locality":"Schlitz","municipality":{"key":"06535015","name":"Schlitz, Stadt","type":"Stadt"},"district":{"key":"06535","name":"Vogelsbergkreis","type":"Landkreis"},"federalState":{"key":"06","name":"Hessen"}},{"name":"Bahnhofsberg","postalCode":"08538","locality":"Weischlitz","municipality":{"key":"14523450","name":"Weischlitz","type":"Kreisangehörige_Gemeinde"},"district":{"key":"14523","name":"Vogtlandkreis","type":"Landkreis"},"federalState":{"key":"14","name":"Sachsen"}},{"name":"Bahnhofstr.","postalCode":"08538","locality":"Weischlitz","municipality":{"key":"14523450","name":"Weischlitz","type":"Kreisangehörige_Gemeinde"},"district":{"key":"14523","name":"Vogtlandkreis","type":"Landkreis"},"federalState":{"key":"14","name":"Sachsen"}},{"name":"Bahnhofstr.","postalCode":"36110","locality":"Schlitz","municipality":{"key":"06535015","name":"Schlitz, Stadt","type":"Stadt"},"district":{"key":"06535","name":"Vogelsbergkreis","type":"Landkreis"},"federalState":{"key":"06","name":"Hessen"}},{"name":"Bahnhofsweg","postalCode":"36110","locality":"Schlitz","municipality":{"key":"06535015","name":"Schlitz, Stadt","type":"Stadt"},"district":{"key":"06535","name":"Vogelsbergkreis","type":"Landkreis"},"federalState":{"key":"06","name":"Hessen"}},{"name":"Beethovenstr.","postalCode":"36110","locality":"Schlitz","municipality":{"key":"06535015","name":"Schlitz, Stadt","type":"Stadt"},"district":{"key":"06535","name":"Vogelsbergkreis","type":"Landkreis"},"federalState":{"key":"06","name":"Hessen"}},{"name":"Bergstr.","postalCode":"08538","locality":"Weischlitz","municipality":{"key":"14523450","name":"Weischlitz","type":"Kreisangehörige_Gemeinde"},"district":{"key":"14523","name":"Vogtlandkreis","type":"Landkreis"},"federalState":{"key":"14","name":"Sachsen"}},{"name":"Bergstr.","postalCode":"36110","locality":"Schlitz","municipality":{"key":"06535015","name":"Schlitz, Stadt","type":"Stadt"},"district":{"key":"06535","name":"Vogelsbergkreis","type":"Landkreis"},"federalState":{"key":"06","name":"Hessen"}},{"name":"Bergweg","postalCode":"36110","locality":"Schlitz","municipality":{"key":"06535015","name":"Schlitz, Stadt","type":"Stadt"},"district":{"key":"06535","name":"Vogelsbergkreis","type":"Landkreis"},"federalState":{"key":"06","name":"Hessen"}},{"name":"Berletzeck","postalCode":"36110","locality":"Schlitz","municipality":{"key":"06535015","name":"Schlitz, Stadt","type":"Stadt"},"district":{"key":"06535","name":"Vogelsbergkreis","type":"Landkreis"},"federalState":{"key":"06","name":"Hessen"}},{"name":"Berngeröder Weg","postalCode":"36110","locality":"Schlitz","municipality":{"key":"06535015","name":"Schlitz, Stadt","type":"Stadt"},"district":{"key":"06535","name":"Vogelsbergkreis","type":"Landkreis"},"federalState":{"key":"06","name":"Hessen"}},{"name":"Birkenallee","postalCode":"36110","locality":"Schlitz","municipality":{"key":"06535015","name":"Schlitz, Stadt","type":"Stadt"},"district":{"key":"06535","name":"Vogelsbergkreis","type":"Landkreis"},"federalState":{"key":"06","name":"Hessen"}},{"name":"Birkenstr.","postalCode":"36110","locality":"Schlitz","municipality":{"key":"06535015","name":"Schlitz, Stadt","type":"Stadt"},"district":{"key":"06535","name":"Vogelsbergkreis","type":"Landkreis"},"federalState":{"key":"06","name":"Hessen"}},{"name":"Birkenweg","postalCode":"36110","locality":"Schlitz","municipality":{"key":"06535015","name":"Schlitz, Stadt","type":"Stadt"},"district":{"key":"06535","name":"Vogelsbergkreis","type":"Landkreis"},"federalState":{"key":"06","name":"Hessen"}},{"name":"Birnbaumweg","postalCode":"08538","locality":"Weischlitz","municipality":{"key":"14523450","name":"Weischlitz","type":"Kreisangehörige_Gemeinde"},"district":{"key":"14523","name":"Vogtlandkreis","type":"Landkreis"},"federalState":{"key":"14","name":"Sachsen"}},{"name":"Bleichenstr.","postalCode":"36110","locality":"Schlitz","municipality":{"key":"06535015","name":"Schlitz, Stadt","type":"Stadt"},"district":{"key":"06535","name":"Vogelsbergkreis","type":"Landkreis"},"federalState":{"key":"06","name":"Hessen"}},{"name":"Blumenstr.","postalCode":"36110","locality":"Schlitz","municipality":{"key":"06535015","name":"Schlitz, Stadt","type":"Stadt"},"district":{"key":"06535","name":"Vogelsbergkreis","type":"Landkreis"},"federalState":{"key":"06","name":"Hessen"}},{"name":"Blumenweg","postalCode":"36110","locality":"Schlitz","municipality":{"key":"06535015","name":"Schlitz, Stadt","type":"Stadt"},"district":{"key":"06535","name":"Vogelsbergkreis","type":"Landkreis"},"federalState":{"key":"06","name":"Hessen"}},{"name":"Bobenneukirchener Str.","postalCode":"08538","locality":"Weischlitz","municipality":{"key":"14523450","name":"Weischlitz","type":"Kreisangehörige_Gemeinde"},"district":{"key":"14523","name":"Vogtlandkreis","type":"Landkreis"},"federalState":{"key":"14","name":"Sachsen"}},{"name":"Bodenfeldstr.","postalCode":"08538","locality":"Weischlitz","municipality":{"key":"14523450","name":"Weischlitz","type":"Kreisangehörige_Gemeinde"},"district":{"key":"14523","name":"Vogtlandkreis","type":"Landkreis"},"federalState":{"key":"14","name":"Sachsen"}},{"name":"Borngasse","postalCode":"36110","locality":"Schlitz","municipality":{"key":"06535015","name":"Schlitz, Stadt","type":"Stadt"},"district":{"key":"06535","name":"Vogelsbergkreis","type":"Landkreis"},"federalState":{"key":"06","name":"Hessen"}},{"name":"Bornstr.","postalCode":"36110","locality":"Schlitz","municipality":{"key":"06535015","name":"Schlitz, Stadt","type":"Stadt"},"district":{"key":"06535","name":"Vogelsbergkreis","type":"Landkreis"},"federalState":{"key":"06","name":"Hessen"}},{"name":"Brauhausstr.","postalCode":"36110","locality":"Schlitz","municipality":{"key":"06535015","name":"Schlitz, Stadt","type":"Stadt"},"district":{"key":"06535","name":"Vogelsbergkreis","type":"Landkreis"},"federalState":{"key":"06","name":"Hessen"}},{"name":"Breslauer Str.","postalCode":"36110","locality":"Schlitz","municipality":{"key":"06535015","name":"Schlitz, Stadt","type":"Stadt"},"district":{"key":"06535","name":"Vogelsbergkreis","type":"Landkreis"},"federalState":{"key":"06","name":"Hessen"}},{"name":"Bruchwiesenweg","postalCode":"36110","locality":"Schlitz","municipality":{"key":"06535015","name":"Schlitz, Stadt","type":"Stadt"},"district":{"key":"06535","name":"Vogelsbergkreis","type":"Landkreis"},"federalState":{"key":"06","name":"Hessen"}},{"name":"Brückenstr.","postalCode":"36110","locality":"Schlitz","municipality":{"key":"06535015","name":"Schlitz, Stadt","type":"Stadt"},"district":{"key":"06535","name":"Vogelsbergkreis","type":"Landkreis"},"federalState":{"key":"06","name":"Hessen"}},{"name":"Brückenweg","postalCode":"36110","locality":"Schlitz","municipality":{"key":"06535015","name":"Schlitz, Stadt","type":"Stadt"},"district":{"key":"06535","name":"Vogelsbergkreis","type":"Landkreis"},"federalState":{"key":"06","name":"Hessen"}},{"name":"Brüder-Grimm-Weg","postalCode":"36110","locality":"Schlitz","municipality":{"key":"06535015","name":"Schlitz, Stadt","type":"Stadt"},"district":{"key":"06535","name":"Vogelsbergkreis","type":"Landkreis"},"federalState":{"key":"06","name":"Hessen"}},{"name":"Brunnenstr.","postalCode":"36110","locality":"Schlitz","municipality":{"key":"06535015","name":"Schlitz, Stadt","type":"Stadt"},"district":{"key":"06535","name":"Vogelsbergkreis","type":"Landkreis"},"federalState":{"key":"06","name":"Hessen"}},{"name":"Brunnenweg","postalCode":"08538","locality":"Weischlitz","municipality":{"key":"14523450","name":"Weischlitz","type":"Kreisangehörige_Gemeinde"},"district":{"key":"14523","name":"Vogtlandkreis","type":"Landkreis"},"federalState":{"key":"14","name":"Sachsen"}},{"name":"Buchenweg","postalCode":"08538","locality":"Weischlitz","municipality":{"key":"14523450","name":"Weischlitz","type":"Kreisangehörige_Gemeinde"},"district":{"key":"14523","name":"Vogtlandkreis","type":"Landkreis"},"federalState":{"key":"14","name":"Sachsen"}},{"name":"Burgbrücke","postalCode":"08538","locality":"Weischlitz","municipality":{"key":"14523450","name":"Weischlitz","type":"Kreisangehörige_Gemeinde"},"district":{"key":"14523","name":"Vogtlandkreis","type":"Landkreis"},"federalState":{"key":"14","name":"Sachsen"}},{"name":"Burgenblick","postalCode":"36110","locality":"Schlitz","municipality":{"key":"06535015","name":"Schlitz, Stadt","type":"Stadt"},"district":{"key":"06535","name":"Vogelsbergkreis","type":"Landkreis"},"federalState":{"key":"06","name":"Hessen"}},{"name":"Burgscheitel","postalCode":"36110","locality":"Schlitz","municipality":{"key":"06535015","name":"Schlitz, Stadt","type":"Stadt"},"district":{"key":"06535","name":"Vogelsbergkreis","type":"Landkreis"},"federalState":{"key":"06","name":"Hessen"}},{"name":"Burgsteinstr.","postalCode":"08538","locality":"Weischlitz","municipality":{"key":"14523450","name":"Weischlitz","type":"Kreisangehörige_Gemeinde"},"district":{"key":"14523","name":"Vogtlandkreis","type":"Landkreis"},"federalState":{"key":"14","name":"Sachsen"}},{"name":"Butterweg","postalCode":"08538","locality":"Weischlitz","municipality":{"key":"14523450","name":"Weischlitz","type":"Kreisangehörige_Gemeinde"},"district":{"key":"14523","name":"Vogtlandkreis","type":"Landkreis"},"federalState":{"key":"14","name":"Sachsen"}},{"name":"Damenweg","postalCode":"36110","locality":"Schlitz","municipality":{"key":"06535015","name":"Schlitz, Stadt","type":"Stadt"},"district":{"key":"06535","name":"Vogelsbergkreis","type":"Landkreis"},"federalState":{"key":"06","name":"Hessen"}},{"name":"Danziger Str.","postalCode":"36110","locality":"Schlitz","municipality":{"key":"06535015","name":"Schlitz, Stadt","type":"Stadt"},"district":{"key":"06535","name":"Vogelsbergkreis","type":"Landkreis"},"federalState":{"key":"06","name":"Hessen"}},{"name":"Dehleser Str.","postalCode":"08538","locality":"Weischlitz","municipality":{"key":"14523450","name":"Weischlitz","type":"Kreisangehörige_Gemeinde"},"district":{"key":"14523","name":"Vogtlandkreis","type":"Landkreis"},"federalState":{"key":"14","name":"Sachsen"}},{"name":"Deibelsburg","postalCode":"36110","locality":"Schlitz","municipality":{"key":"06535015","name":"Schlitz, Stadt","type":"Stadt"},"district":{"key":"06535","name":"Vogelsbergkreis","type":"Landkreis"},"federalState":{"key":"06","name":"Hessen"}},{"name":"Deichselbachstr.","postalCode":"08538","locality":"Weischlitz","municipality":{"key":"14523450","name":"Weischlitz","type":"Kreisangehörige_Gemeinde"},"district":{"key":"14523","name":"Vogtlandkreis","type":"Landkreis"},"federalState":{"key":"14","name":"Sachsen"}},{"name":"Deichselberg","postalCode":"08538","locality":"Weischlitz","municipality":{"key":"14523450","name":"Weischlitz","type":"Kreisangehörige_Gemeinde"},"district":{"key":"14523","name":"Vogtlandkreis","type":"Landkreis"},"federalState":{"key":"14","name":"Sachsen"}},{"name":"Die Hohl","postalCode":"36110","locality":"Schlitz","municipality":{"key":"06535015","name":"Schlitz, Stadt","type":"Stadt"},"district":{"key":"06535","name":"Vogelsbergkreis","type":"Landkreis"},"federalState":{"key":"06","name":"Hessen"}},{"name":"Dorfmitte","postalCode":"08538","locality":"Weischlitz","municipality":{"key":"14523450","name":"Weischlitz","type":"Kreisangehörige_Gemeinde"},"district":{"key":"14523","name":"Vogtlandkreis","type":"Landkreis"},"federalState":{"key":"14","name":"Sachsen"}},{"name":"Dorfplatz","postalCode":"08538","locality":"Weischlitz","municipality":{"key":"14523450","name":"Weischlitz","type":"Kreisangehörige_Gemeinde"},"district":{"key":"14523","name":"Vogtlandkreis","type":"Landkreis"},"federalState":{"key":"14","name":"Sachsen"}},{"name":"Dorfplatz","postalCode":"36110","locality":"Schlitz","municipality":{"key":"06535015","name":"Schlitz, Stadt","type":"Stadt"},"district":{"key":"06535","name":"Vogelsbergkreis","type":"Landkreis"},"federalState":{"key":"06","name":"Hessen"}},{"name":"Dorfstr.","postalCode":"08538","locality":"Weischlitz","municipality":{"key":"14523450","name":"Weischlitz","type":"Kreisangehörige_Gemeinde"},"district":{"key":"14523","name":"Vogtlandkreis","type":"Landkreis"},"federalState":{"key":"14","name":"Sachsen"}},{"name":"Dornweg","postalCode":"36110","locality":"Schlitz","municipality":{"key":"06535015","name":"Schlitz, Stadt","type":"Stadt"},"district":{"key":"06535","name":"Vogelsbergkreis","type":"Landkreis"},"federalState":{"key":"06","name":"Hessen"}},{"name":"Dr. Gothe-Weg","postalCode":"36110","locality":"Schlitz","municipality":{"key":"06535015","name":"Schlitz, Stadt","type":"Stadt"},"district":{"key":"06535","name":"Vogelsbergkreis","type":"Landkreis"},"federalState":{"key":"06","name":"Hessen"}},{"name":"Dr. Jestaedt-Str.","postalCode":"36110","locality":"Schlitz","municipality":{"key":"06535015","name":"Schlitz, Stadt","type":"Stadt"},"district":{"key":"06535","name":"Vogelsbergkreis","type":"Landkreis"},"federalState":{"key":"06","name":"Hessen"}},{"name":"Egerländer Str.","postalCode":"36110","locality":"Schlitz","municipality":{"key":"06535015","name":"Schlitz, Stadt","type":"Stadt"},"district":{"key":"06535","name":"Vogelsbergkreis","type":"Landkreis"},"federalState":{"key":"06","name":"Hessen"}},{"name":"Eichenweg","postalCode":"08538","locality":"Weischlitz","municipality":{"key":"14523450","name":"Weischlitz","type":"Kreisangehörige_Gemeinde"},"district":{"key":"14523","name":"Vogtlandkreis","type":"Landkreis"},"federalState":{"key":"14","name":"Sachsen"}},{"name":"Eichenweg","postalCode":"36110","locality":"Schlitz","municipality":{"key":"06535015","name":"Schlitz, Stadt","type":"Stadt"},"district":{"key":"06535","name":"Vogelsbergkreis","type":"Landkreis"},"federalState":{"key":"06","name":"Hessen"}},{"name":"Elfriede-Kreutzer-Weg","postalCode":"36110","locality":"Schlitz","municipality":{"key":"06535015","name":"Schlitz, Stadt","type":"Stadt"},"district":{"key":"06535","name":"Vogelsbergkreis","type":"Landkreis"},"federalState":{"key":"06","name":"Hessen"}},{"name":"Elsterbrücke","postalCode":"08538","locality":"Weischlitz","municipality":{"key":"14523450","name":"Weischlitz","type":"Kreisangehörige_Gemeinde"},"district":{"key":"14523","name":"Vogtlandkreis","type":"Landkreis"},"federalState":{"key":"14","name":"Sachsen"}},{"name":"Enders-Dix-Str.","postalCode":"08538","locality":"Weischlitz","municipality":{"key":"14523450","name":"Weischlitz","type":"Kreisangehörige_Gemeinde"},"district":{"key":"14523","name":"Vogtlandkreis","type":"Landkreis"},"federalState":{"key":"14","name":"Sachsen"}},{"name":"Erlenweg","postalCode":"36110","locality":"Schlitz","municipality":{"key":"06535015","name":"Schlitz, Stadt","type":"Stadt"},"district":{"key":"06535","name":"Vogelsbergkreis","type":"Landkreis"},"federalState":{"key":"06","name":"Hessen"}},{"name":"Feiletalstr.","postalCode":"08538","locality":"Weischlitz","municipality":{"key":"14523450","name":"Weischlitz","type":"Kreisangehörige_Gemeinde"},"district":{"key":"14523","name":"Vogtlandkreis","type":"Landkreis"},"federalState":{"key":"14","name":"Sachsen"}},{"name":"Fichtenweg","postalCode":"36110","locality":"Schlitz","municipality":{"key":"06535015","name":"Schlitz, Stadt","type":"Stadt"},"district":{"key":"06535","name":"Vogelsbergkreis","type":"Landkreis"},"federalState":{"key":"06","name":"Hessen"}},{"name":"Fliederweg","postalCode":"36110","locality":"Schlitz","municipality":{"key":"06535015","name":"Schlitz, Stadt","type":"Stadt"},"district":{"key":"06535","name":"Vogelsbergkreis","type":"Landkreis"},"federalState":{"key":"06","name":"Hessen"}},{"name":"Forsthausstr.","postalCode":"36110","locality":"Schlitz","municipality":{"key":"06535015","name":"Schlitz, Stadt","type":"Stadt"},"district":{"key":"06535","name":"Vogelsbergkreis","type":"Landkreis"},"federalState":{"key":"06","name":"Hessen"}},{"name":"Fraurombacher Str.","postalCode":"36110","locality":"Schlitz","municipality":{"key":"06535015","name":"Schlitz, Stadt","type":"Stadt"},"district":{"key":"06535","name":"Vogelsbergkreis","type":"Landkreis"},"federalState":{"key":"06","name":"Hessen"}},{"name":"Friedensstr.","postalCode":"08538","locality":"Weischlitz","municipality":{"key":"14523450","name":"Weischlitz","type":"Kreisangehörige_Gemeinde"},"district":{"key":"14523","name":"Vogtlandkreis","type":"Landkreis"},"federalState":{"key":"14","name":"Sachsen"}},{"name":"Friedhofsweg","postalCode":"36110","locality":"Schlitz","municipality":{"key":"06535015","name":"Schlitz, Stadt","type":"Stadt"},"district":{"key":"06535","name":"Vogelsbergkreis","type":"Landkreis"},"federalState":{"key":"06","name":"Hessen"}},{"name":"Fuldaer Str.","postalCode":"36110","locality":"Schlitz","municipality":{"key":"06535015","name":"Schlitz, Stadt","type":"Stadt"},"district":{"key":"06535","name":"Vogelsbergkreis","type":"Landkreis"},"federalState":{"key":"06","name":"Hessen"}},{"name":"Gartenstr.","postalCode":"08538","locality":"Weischlitz","municipality":{"key":"14523450","name":"Weischlitz","type":"Kreisangehörige_Gemeinde"},"district":{"key":"14523","name":"Vogtlandkreis","type":"Landkreis"},"federalState":{"key":"14","name":"Sachsen"}},{"name":"Gartenstr.","postalCode":"36110","locality":"Schlitz","municipality":{"key":"06535015","name":"Schlitz, Stadt","type":"Stadt"},"district":{"key":"06535","name":"Vogelsbergkreis","type":"Landkreis"},"federalState":{"key":"06","name":"Hessen"}},{"name":"Gartenweg","postalCode":"08538","locality":"Weischlitz","municipality":{"key":"14523450","name":"Weischlitz","type":"Kreisangehörige_Gemeinde"},"district":{"key":"14523","name":"Vogtlandkreis","type":"Landkreis"},"federalState":{"key":"14","name":"Sachsen"}},{"name":"Gärtnereiweg","postalCode":"08538","locality":"Weischlitz","municipality":{"key":"14523450","name":"Weischlitz","type":"Kreisangehörige_Gemeinde"},"district":{"key":"14523","name":"Vogtlandkreis","type":"Landkreis"},"federalState":{"key":"14","name":"Sachsen"}},{"name":"Gefeller Str.","postalCode":"08538","locality":"Weischlitz","municipality":{"key":"14523450","name":"Weischlitz","type":"Kreisangehörige_Gemeinde"},"district":{"key":"14523","name":"Vogtlandkreis","type":"Landkreis"},"federalState":{"key":"14","name":"Sachsen"}},{"name":"Geilsdorfer Str.","postalCode":"08538","locality":"Weischlitz","municipality":{"key":"14523450","name":"Weischlitz","type":"Kreisangehörige_Gemeinde"},"district":{"key":"14523","name":"Vogtlandkreis","type":"Landkreis"},"federalState":{"key":"14","name":"Sachsen"}},{"name":"Georg-Christian-Dieffenbach-Str.","postalCode":"36110","locality":"Schlitz","municipality":{"key":"06535015","name":"Schlitz, Stadt","type":"Stadt"},"district":{"key":"06535","name":"Vogelsbergkreis","type":"Landkreis"},"federalState":{"key":"06","name":"Hessen"}},{"name":"Georg-Langheinrich-Str.","postalCode":"36110","locality":"Schlitz","municipality":{"key":"06535015","name":"Schlitz, Stadt","type":"Stadt"},"district":{"key":"06535","name":"Vogelsbergkreis","type":"Landkreis"},"federalState":{"key":"06","name":"Hessen"}},{"name":"Goldsteinweg","postalCode":"36110","locality":"Schlitz","municipality":{"key":"06535015","name":"Schlitz, Stadt","type":"Stadt"},"district":{"key":"06535","name":"Vogelsbergkreis","type":"Landkreis"},"federalState":{"key":"06","name":"Hessen"}},{"name":"Grabenberg","postalCode":"36110","locality":"Schlitz","municipality":{"key":"06535015","name":"Schlitz, Stadt","type":"Stadt"},"district":{"key":"06535","name":"Vogelsbergkreis","type":"Landkreis"},"federalState":{"key":"06","name":"Hessen"}},{"name":"Grabenblick","postalCode":"36110","locality":"Schlitz","municipality":{"key":"06535015","name":"Schlitz, Stadt","type":"Stadt"},"district":{"key":"06535","name":"Vogelsbergkreis","type":"Landkreis"},"federalState":{"key":"06","name":"Hessen"}},{"name":"Grabenweg","postalCode":"36110","locality":"Schlitz","municipality":{"key":"06535015","name":"Schlitz, Stadt","type":"Stadt"},"district":{"key":"06535","name":"Vogelsbergkreis","type":"Landkreis"},"federalState":{"key":"06","name":"Hessen"}},{"name":"Gräfin-Anna-Str.","postalCode":"36110","locality":"Schlitz","municipality":{"key":"06535015","name":"Schlitz, Stadt","type":"Stadt"},"district":{"key":"06535","name":"Vogelsbergkreis","type":"Landkreis"},"federalState":{"key":"06","name":"Hessen"}},{"name":"Graf-Karl-Str.","postalCode":"36110","locality":"Schlitz","municipality":{"key":"06535015","name":"Schlitz, Stadt","type":"Stadt"},"district":{"key":"06535","name":"Vogelsbergkreis","type":"Landkreis"},"federalState":{"key":"06","name":"Hessen"}},{"name":"Graf-Otto-Hartmann-Str.","postalCode":"36110","locality":"Schlitz","municipality":{"key":"06535015","name":"Schlitz, Stadt","type":"Stadt"},"district":{"key":"06535","name":"Vogelsbergkreis","type":"Landkreis"},"federalState":{"key":"06","name":"Hessen"}},{"name":"Grebenauer Weg","postalCode":"36110","locality":"Schlitz","municipality":{"key":"06535015","name":"Schlitz, Stadt","type":"Stadt"},"district":{"key":"06535","name":"Vogelsbergkreis","type":"Landkreis"},"federalState":{"key":"06","name":"Hessen"}},{"name":"Großenlüderer Weg","postalCode":"36110","locality":"Schlitz","municipality":{"key":"06535015","name":"Schlitz, Stadt","type":"Stadt"},"district":{"key":"06535","name":"Vogelsbergkreis","type":"Landkreis"},"federalState":{"key":"06","name":"Hessen"}},{"name":"Grotersbachweg","postalCode":"36110","locality":"Schlitz","municipality":{"key":"06535015","name":"Schlitz, Stadt","type":"Stadt"},"district":{"key":"06535","name":"Vogelsbergkreis","type":"Landkreis"},"federalState":{"key":"06","name":"Hessen"}},{"name":"Grundacker","postalCode":"36110","locality":"Schlitz","municipality":{"key":"06535015","name":"Schlitz, Stadt","type":"Stadt"},"district":{"key":"06535","name":"Vogelsbergkreis","type":"Landkreis"},"federalState":{"key":"06","name":"Hessen"}},{"name":"Gudrun-Pausewang-Str.","postalCode":"36110","locality":"Schlitz","municipality":{"key":"06535015","name":"Schlitz, Stadt","type":"Stadt"},"district":{"key":"06535","name":"Vogelsbergkreis","type":"Landkreis"},"federalState":{"key":"06","name":"Hessen"}},{"name":"Günthergasse","postalCode":"36110","locality":"Schlitz","municipality":{"key":"06535015","name":"Schlitz, Stadt","type":"Stadt"},"district":{"key":"06535","name":"Vogelsbergkreis","type":"Landkreis"},"federalState":{"key":"06","name":"Hessen"}},{"name":"Gutenfürster Allee","postalCode":"08538","locality":"Weischlitz","municipality":{"key":"14523450","name":"Weischlitz","type":"Kreisangehörige_Gemeinde"},"district":{"key":"14523","name":"Vogtlandkreis","type":"Landkreis"},"federalState":{"key":"14","name":"Sachsen"}},{"name":"Gutenfürster Str.","postalCode":"08538","locality":"Weischlitz","municipality":{"key":"14523450","name":"Weischlitz","type":"Kreisangehörige_Gemeinde"},"district":{"key":"14523","name":"Vogtlandkreis","type":"Landkreis"},"federalState":{"key":"14","name":"Sachsen"}},{"name":"Hainbuche","postalCode":"36110","locality":"Schlitz","municipality":{"key":"06535015","name":"Schlitz, Stadt","type":"Stadt"},"district":{"key":"06535","name":"Vogelsbergkreis","type":"Landkreis"},"federalState":{"key":"06","name":"Hessen"}},{"name":"Hallengasse","postalCode":"36110","locality":"Schlitz","municipality":{"key":"06535015","name":"Schlitz, Stadt","type":"Stadt"},"district":{"key":"06535","name":"Vogelsbergkreis","type":"Landkreis"},"federalState":{"key":"06","name":"Hessen"}},{"name":"Hammerlaithen","postalCode":"08538","locality":"Weischlitz","municipality":{"key":"14523450","name":"Weischlitz","type":"Kreisangehörige_Gemeinde"},"district":{"key":"14523","name":"Vogtlandkreis","type":"Landkreis"},"federalState":{"key":"14","name":"Sachsen"}},{"name":"Hauptstr.","postalCode":"08538","locality":"Weischlitz","municipality":{"key":"14523450","name":"Weischlitz","type":"Kreisangehörige_Gemeinde"},"district":{"key":"14523","name":"Vogtlandkreis","type":"Landkreis"},"federalState":{"key":"14","name":"Sachsen"}},{"name":"Hauptstr.","postalCode":"36110","locality":"Schlitz","municipality":{"key":"06535015","name":"Schlitz, Stadt","type":"Stadt"},"district":{"key":"06535","name":"Vogelsbergkreis","type":"Landkreis"},"federalState":{"key":"06","name":"Hessen"}},{"name":"Häuschertsweg","postalCode":"36110","locality":"Schlitz","municipality":{"key":"06535015","name":"Schlitz, Stadt","type":"Stadt"},"district":{"key":"06535","name":"Vogelsbergkreis","type":"Landkreis"},"federalState":{"key":"06","name":"Hessen"}},{"name":"Heidbergweg","postalCode":"36110","locality":"Schlitz","municipality":{"key":"06535015","name":"Schlitz, Stadt","type":"Stadt"},"district":{"key":"06535","name":"Vogelsbergkreis","type":"Landkreis"},"federalState":{"key":"06","name":"Hessen"}},{"name":"Heidelberger Weg","postalCode":"36110","locality":"Schlitz","municipality":{"key":"06535015","name":"Schlitz, Stadt","type":"Stadt"},"district":{"key":"06535","name":"Vogelsbergkreis","type":"Landkreis"},"federalState":{"key":"06","name":"Hessen"}},{"name":"Heidgraben","postalCode":"36110","locality":"Schlitz","municipality":{"key":"06535015","name":"Schlitz, Stadt","type":"Stadt"},"district":{"key":"06535","name":"Vogelsbergkreis","type":"Landkreis"},"federalState":{"key":"06","name":"Hessen"}},{"name":"Heimatsgarten","postalCode":"36110","locality":"Schlitz","municipality":{"key":"06535015","name":"Schlitz, Stadt","type":"Stadt"},"district":{"key":"06535","name":"Vogelsbergkreis","type":"Landkreis"},"federalState":{"key":"06","name":"Hessen"}},{"name":"Heimstättenstr.","postalCode":"36110","locality":"Schlitz","municipality":{"key":"06535015","name":"Schlitz, Stadt","type":"Stadt"},"district":{"key":"06535","name":"Vogelsbergkreis","type":"Landkreis"},"federalState":{"key":"06","name":"Hessen"}},{"name":"Herrenhaus-Park","postalCode":"08538","locality":"Weischlitz","municipality":{"key":"14523450","name":"Weischlitz","type":"Kreisangehörige_Gemeinde"},"district":{"key":"14523","name":"Vogtlandkreis","type":"Landkreis"},"federalState":{"key":"14","name":"Sachsen"}},{"name":"Herrngartenstr.","postalCode":"36110","locality":"Schlitz","municipality":{"key":"06535015","name":"Schlitz, Stadt","type":"Stadt"},"district":{"key":"06535","name":"Vogelsbergkreis","type":"Landkreis"},"federalState":{"key":"06","name":"Hessen"}},{"name":"Hersfelder Str.","postalCode":"36110","locality":"Schlitz","municipality":{"key":"06535015","name":"Schlitz, Stadt","type":"Stadt"},"district":{"key":"06535","name":"Vogelsbergkreis","type":"Landkreis"},"federalState":{"key":"06","name":"Hessen"}},{"name":"Hindenburgstr.","postalCode":"36110","locality":"Schlitz","municipality":{"key":"06535015","name":"Schlitz, Stadt","type":"Stadt"},"district":{"key":"06535","name":"Vogelsbergkreis","type":"Landkreis"},"federalState":{"key":"06","name":"Hessen"}},{"name":"Hinter dem Hof","postalCode":"36110","locality":"Schlitz","municipality":{"key":"06535015","name":"Schlitz, Stadt","type":"Stadt"},"district":{"key":"06535","name":"Vogelsbergkreis","type":"Landkreis"},"federalState":{"key":"06","name":"Hessen"}},{"name":"Hinter der Hainbuche","postalCode":"36110","locality":"Schlitz","municipality":{"key":"06535015","name":"Schlitz, Stadt","type":"Stadt"},"district":{"key":"06535","name":"Vogelsbergkreis","type":"Landkreis"},"federalState":{"key":"06","name":"Hessen"}},{"name":"Hinter der Linde","postalCode":"36110","locality":"Schlitz","municipality":{"key":"06535015","name":"Schlitz, Stadt","type":"Stadt"},"district":{"key":"06535","name":"Vogelsbergkreis","type":"Landkreis"},"federalState":{"key":"06","name":"Hessen"}},{"name":"Hinter der Pfarr","postalCode":"36110","locality":"Schlitz","municipality":{"key":"06535015","name":"Schlitz, Stadt","type":"Stadt"},"district":{"key":"06535","name":"Vogelsbergkreis","type":"Landkreis"},"federalState":{"key":"06","name":"Hessen"}},{"name":"Hintergasse","postalCode":"36110","locality":"Schlitz","municipality":{"key":"06535015","name":"Schlitz, Stadt","type":"Stadt"},"district":{"key":"06535","name":"Vogelsbergkreis","type":"Landkreis"},"federalState":{"key":"06","name":"Hessen"}},{"name":"Hofer Landstr.","postalCode":"08538","locality":"Weischlitz","municipality":{"key":"14523450","name":"Weischlitz","type":"Kreisangehörige_Gemeinde"},"district":{"key":"14523","name":"Vogtlandkreis","type":"Landkreis"},"federalState":{"key":"14","name":"Sachsen"}},{"name":"Hofer Str.","postalCode":"08538","locality":"Weischlitz","municipality":{"key":"14523450","name":"Weischlitz","type":"Kreisangehörige_Gemeinde"},"district":{"key":"14523","name":"Vogtlandkreis","type":"Landkreis"},"federalState":{"key":"14","name":"Sachsen"}},{"name":"Höhenweg","postalCode":"36110","locality":"Schlitz","municipality":{"key":"06535015","name":"Schlitz, Stadt","type":"Stadt"},"district":{"key":"06535","name":"Vogelsbergkreis","type":"Landkreis"},"federalState":{"key":"06","name":"Hessen"}},{"name":"Hohmannsgrund","postalCode":"36110","locality":"Schlitz","municipality":{"key":"06535015","name":"Schlitz, Stadt","type":"Stadt"},"district":{"key":"06535","name":"Vogelsbergkreis","type":"Landkreis"},"federalState":{"key":"06","name":"Hessen"}},{"name":"Hubert-Pfeiffer-Weg","postalCode":"36110","locality":"Schlitz","municipality":{"key":"06535015","name":"Schlitz, Stadt","type":"Stadt"},"district":{"key":"06535","name":"Vogelsbergkreis","type":"Landkreis"},"federalState":{"key":"06","name":"Hessen"}},{"name":"Hutzdorfer Str.","postalCode":"36110","locality":"Schlitz","municipality":{"key":"06535015","name":"Schlitz, Stadt","type":"Stadt"},"district":{"key":"06535","name":"Vogelsbergkreis","type":"Landkreis"},"federalState":{"key":"06","name":"Hessen"}},{"name":"Igelsbachweg","postalCode":"36110","locality":"Schlitz","municipality":{"key":"06535015","name":"Schlitz, Stadt","type":"Stadt"},"district":{"key":"06535","name":"Vogelsbergkreis","type":"Landkreis"},"federalState":{"key":"06","name":"Hessen"}},{"name":"Im Bachgrund","postalCode":"36110","locality":"Schlitz","municipality":{"key":"06535015","name":"Schlitz, Stadt","type":"Stadt"},"district":{"key":"06535","name":"Vogelsbergkreis","type":"Landkreis"},"federalState":{"key":"06","name":"Hessen"}},{"name":"Im Borngrund","postalCode":"36110","locality":"Schlitz","municipality":{"key":"06535015","name":"Schlitz, Stadt","type":"Stadt"},"district":{"key":"06535","name":"Vogelsbergkreis","type":"Landkreis"},"federalState":{"key":"06","name":"Hessen"}},{"name":"Im Eck","postalCode":"36110","locality":"Schlitz","municipality":{"key":"06535015","name":"Schlitz, Stadt","type":"Stadt"},"district":{"key":"06535","name":"Vogelsbergkreis","type":"Landkreis"},"federalState":{"key":"06","name":"Hessen"}},{"name":"Im Graben","postalCode":"36110","locality":"Schlitz","municipality":{"key":"06535015","name":"Schlitz, Stadt","type":"Stadt"},"district":{"key":"06535","name":"Vogelsbergkreis","type":"Landkreis"},"federalState":{"key":"06","name":"Hessen"}},{"name":"Im Grund","postalCode":"36110","locality":"Schlitz","municipality":{"key":"06535015","name":"Schlitz, Stadt","type":"Stadt"},"district":{"key":"06535","name":"Vogelsbergkreis","type":"Landkreis"},"federalState":{"key":"06","name":"Hessen"}},{"name":"Im Hirtfeld","postalCode":"36110","locality":"Schlitz","municipality":{"key":"06535015","name":"Schlitz, Stadt","type":"Stadt"},"district":{"key":"06535","name":"Vogelsbergkreis","type":"Landkreis"},"federalState":{"key":"06","name":"Hessen"}},{"name":"Im Märzfeld","postalCode":"36110","locality":"Schlitz","municipality":{"key":"06535015","name":"Schlitz, Stadt","type":"Stadt"},"district":{"key":"06535","name":"Vogelsbergkreis","type":"Landkreis"},"federalState":{"key":"06","name":"Hessen"}},{"name":"Im Ort","postalCode":"36110","locality":"Schlitz","municipality":{"key":"06535015","name":"Schlitz, Stadt","type":"Stadt"},"district":{"key":"06535","name":"Vogelsbergkreis","type":"Landkreis"},"federalState":{"key":"06","name":"Hessen"}},{"name":"Im Schultheißeneck","postalCode":"36110","locality":"Schlitz","municipality":{"key":"06535015","name":"Schlitz, Stadt","type":"Stadt"},"district":{"key":"06535","name":"Vogelsbergkreis","type":"Landkreis"},"federalState":{"key":"06","name":"Hessen"}},{"name":"Im Stückfeld","postalCode":"36110","locality":"Schlitz","municipality":{"key":"06535015","name":"Schlitz, Stadt","type":"Stadt"},"district":{"key":"06535","name":"Vogelsbergkreis","type":"Landkreis"},"federalState":{"key":"06","name":"Hessen"}},{"name":"Im Winkel","postalCode":"36110","locality":"Schlitz","municipality":{"key":"06535015","name":"Schlitz, Stadt","type":"Stadt"},"district":{"key":"06535","name":"Vogelsbergkreis","type":"Landkreis"},"federalState":{"key":"06","name":"Hessen"}},{"name":"In der Au","postalCode":"36110","locality":"Schlitz","municipality":{"key":"06535015","name":"Schlitz, Stadt","type":"Stadt"},"district":{"key":"06535","name":"Vogelsbergkreis","type":"Landkreis"},"federalState":{"key":"06","name":"Hessen"}},{"name":"In der Betz","postalCode":"36110","locality":"Schlitz","municipality":{"key":"06535015","name":"Schlitz, Stadt","type":"Stadt"},"district":{"key":"06535","name":"Vogelsbergkreis","type":"Landkreis"},"federalState":{"key":"06","name":"Hessen"}},{"name":"In der Gasse","postalCode":"36110","locality":"Schlitz","municipality":{"key":"06535015","name":"Schlitz, Stadt","type":"Stadt"},"district":{"key":"06535","name":"Vogelsbergkreis","type":"Landkreis"},"federalState":{"key":"06","name":"Hessen"}},{"name":"In der Winterlied","postalCode":"36110","locality":"Schlitz","municipality":{"key":"06535015","name":"Schlitz, Stadt","type":"Stadt"},"district":{"key":"06535","name":"Vogelsbergkreis","type":"Landkreis"},"federalState":{"key":"06","name":"Hessen"}},{"name":"Itelsgasse","postalCode":"36110","locality":"Schlitz","municipality":{"key":"06535015","name":"Schlitz, Stadt","type":"Stadt"},"district":{"key":"06535","name":"Vogelsbergkreis","type":"Landkreis"},"federalState":{"key":"06","name":"Hessen"}},{"name":"Jagdhaus","postalCode":"08538","locality":"Weischlitz","municipality":{"key":"14523450","name":"Weischlitz","type":"Kreisangehörige_Gemeinde"},"district":{"key":"14523","name":"Vogtlandkreis","type":"Landkreis"},"federalState":{"key":"14","name":"Sachsen"}},{"name":"Jahnstr.","postalCode":"36110","locality":"Schlitz","municipality":{"key":"06535015","name":"Schlitz, Stadt","type":"Stadt"},"district":{"key":"06535","name":"Vogelsbergkreis","type":"Landkreis"},"federalState":{"key":"06","name":"Hessen"}},{"name":"Johann-Ferdinand-Schlez-Str.","postalCode":"36110","locality":"Schlitz","municipality":{"key":"06535015","name":"Schlitz, Stadt","type":"Stadt"},"district":{"key":"06535","name":"Vogelsbergkreis","type":"Landkreis"},"federalState":{"key":"06","name":"Hessen"}},{"name":"Jossaer Weg","postalCode":"36110","locality":"Schlitz","municipality":{"key":"06535015","name":"Schlitz, Stadt","type":"Stadt"},"district":{"key":"06535","name":"Vogelsbergkreis","type":"Landkreis"},"federalState":{"key":"06","name":"Hessen"}},{"name":"Jubiläumslindenweg","postalCode":"36110","locality":"Schlitz","municipality":{"key":"06535015","name":"Schlitz, Stadt","type":"Stadt"},"district":{"key":"06535","name":"Vogelsbergkreis","type":"Landkreis"},"federalState":{"key":"06","name":"Hessen"}},{"name":"Kaiserstr.","postalCode":"36110","locality":"Schlitz","municipality":{"key":"06535015","name":"Schlitz, Stadt","type":"Stadt"},"district":{"key":"06535","name":"Vogelsbergkreis","type":"Landkreis"},"federalState":{"key":"06","name":"Hessen"}},{"name":"Kantor-Nanz-Str.","postalCode":"36110","locality":"Schlitz","municipality":{"key":"06535015","name":"Schlitz, Stadt","type":"Stadt"},"district":{"key":"06535","name":"Vogelsbergkreis","type":"Landkreis"},"federalState":{"key":"06","name":"Hessen"}},{"name":"Karl Hahn-Weg","postalCode":"36110","locality":"Schlitz","municipality":{"key":"06535015","name":"Schlitz, Stadt","type":"Stadt"},"district":{"key":"06535","name":"Vogelsbergkreis","type":"Landkreis"},"federalState":{"key":"06","name":"Hessen"}},{"name":"Karlshof","postalCode":"36110","locality":"Schlitz","municipality":{"key":"06535015","name":"Schlitz, Stadt","type":"Stadt"},"district":{"key":"06535","name":"Vogelsbergkreis","type":"Landkreis"},"federalState":{"key":"06","name":"Hessen"}},{"name":"Karlshofer Weg","postalCode":"36110","locality":"Schlitz","municipality":{"key":"06535015","name":"Schlitz, Stadt","type":"Stadt"},"district":{"key":"06535","name":"Vogelsbergkreis","type":"Landkreis"},"federalState":{"key":"06","name":"Hessen"}},{"name":"Kastanienstr.","postalCode":"36110","locality":"Schlitz","municipality":{"key":"06535015","name":"Schlitz, Stadt","type":"Stadt"},"district":{"key":"06535","name":"Vogelsbergkreis","type":"Landkreis"},"federalState":{"key":"06","name":"Hessen"}},{"name":"Kiefergraben","postalCode":"08538","locality":"Weischlitz","municipality":{"key":"14523450","name":"Weischlitz","type":"Kreisangehörige_Gemeinde"},"district":{"key":"14523","name":"Vogtlandkreis","type":"Landkreis"},"federalState":{"key":"14","name":"Sachsen"}},{"name":"Kiefernweg","postalCode":"36110","locality":"Schlitz","municipality":{"key":"06535015","name":"Schlitz, Stadt","type":"Stadt"},"district":{"key":"06535","name":"Vogelsbergkreis","type":"Landkreis"},"federalState":{"key":"06","name":"Hessen"}},{"name":"Kindergartenweg","postalCode":"08538","locality":"Weischlitz","municipality":{"key":"14523450","name":"Weischlitz","type":"Kreisangehörige_Gemeinde"},"district":{"key":"14523","name":"Vogtlandkreis","type":"Landkreis"},"federalState":{"key":"14","name":"Sachsen"}},{"name":"Kirchberg","postalCode":"08538","locality":"Weischlitz","municipality":{"key":"14523450","name":"Weischlitz","type":"Kreisangehörige_Gemeinde"},"district":{"key":"14523","name":"Vogtlandkreis","type":"Landkreis"},"federalState":{"key":"14","name":"Sachsen"}},{"name":"Kirchbergweg","postalCode":"36110","locality":"Schlitz","municipality":{"key":"06535015","name":"Schlitz, Stadt","type":"Stadt"},"district":{"key":"06535","name":"Vogelsbergkreis","type":"Landkreis"},"federalState":{"key":"06","name":"Hessen"}},{"name":"Kirchgasse","postalCode":"36110","locality":"Schlitz","municipality":{"key":"06535015","name":"Schlitz, Stadt","type":"Stadt"},"district":{"key":"06535","name":"Vogelsbergkreis","type":"Landkreis"},"federalState":{"key":"06","name":"Hessen"}},{"name":"Kirchplatz","postalCode":"08538","locality":"Weischlitz","municipality":{"key":"14523450","name":"Weischlitz","type":"Kreisangehörige_Gemeinde"},"district":{"key":"14523","name":"Vogtlandkreis","type":"Landkreis"},"federalState":{"key":"14","name":"Sachsen"}},{"name":"Kirchstr.","postalCode":"36110","locality":"Schlitz","municipality":{"key":"06535015","name":"Schlitz, Stadt","type":"Stadt"},"district":{"key":"06535","name":"Vogelsbergkreis","type":"Landkreis"},"federalState":{"key":"06","name":"Hessen"}},{"name":"Kirchweg","postalCode":"36110","locality":"Schlitz","municipality":{"key":"06535015","name":"Schlitz, Stadt","type":"Stadt"},"district":{"key":"06535","name":"Vogelsbergkreis","type":"Landkreis"},"federalState":{"key":"06","name":"Hessen"}},{"name":"Kirschenweg","postalCode":"36110","locality":"Schlitz","municipality":{"key":"06535015","name":"Schlitz, Stadt","type":"Stadt"},"district":{"key":"06535","name":"Vogelsbergkreis","type":"Landkreis"},"federalState":{"key":"06","name":"Hessen"}},{"name":"Kirschrain","postalCode":"36110","locality":"Schlitz","municipality":{"key":"06535015","name":"Schlitz, Stadt","type":"Stadt"},"district":{"key":"06535","name":"Vogelsbergkreis","type":"Landkreis"},"federalState":{"key":"06","name":"Hessen"}},{"name":"Kloschwitzer Allee","postalCode":"08538","locality":"Weischlitz","municipality":{"key":"14523450","name":"Weischlitz","type":"Kreisangehörige_Gemeinde"},"district":{"key":"14523","name":"Vogtlandkreis","type":"Landkreis"},"federalState":{"key":"14","name":"Sachsen"}},{"name":"Kloschwitzer Hauptstr.","postalCode":"08538","locality":"Weischlitz","municipality":{"key":"14523450","name":"Weischlitz","type":"Kreisangehörige_Gemeinde"},"district":{"key":"14523","name":"Vogtlandkreis","type":"Landkreis"},"federalState":{"key":"14","name":"Sachsen"}},{"name":"Kloschwitzer Str.","postalCode":"08538","locality":"Weischlitz","municipality":{"key":"14523450","name":"Weischlitz","type":"Kreisangehörige_Gemeinde"},"district":{"key":"14523","name":"Vogtlandkreis","type":"Landkreis"},"federalState":{"key":"14","name":"Sachsen"}},{"name":"Knottenberg","postalCode":"36110","locality":"Schlitz","municipality":{"key":"06535015","name":"Schlitz, Stadt","type":"Stadt"},"district":{"key":"06535","name":"Vogelsbergkreis","type":"Landkreis"},"federalState":{"key":"06","name":"Hessen"}},{"name":"Kobitzschwalder Str.","postalCode":"08538","locality":"Weischlitz","municipality":{"key":"14523450","name":"Weischlitz","type":"Kreisangehörige_Gemeinde"},"district":{"key":"14523","name":"Vogtlandkreis","type":"Landkreis"},"federalState":{"key":"14","name":"Sachsen"}},{"name":"Königsberger Str.","postalCode":"36110","locality":"Schlitz","municipality":{"key":"06535015","name":"Schlitz, Stadt","type":"Stadt"},"district":{"key":"06535","name":"Vogelsbergkreis","type":"Landkreis"},"federalState":{"key":"06","name":"Hessen"}},{"name":"Krebeser Str.","postalCode":"08538","locality":"Weischlitz","municipality":{"key":"14523450","name":"Weischlitz","type":"Kreisangehörige_Gemeinde"},"district":{"key":"14523","name":"Vogtlandkreis","type":"Landkreis"},"federalState":{"key":"14","name":"Sachsen"}},{"name":"Kreutzersgrund","postalCode":"36110","locality":"Schlitz","municipality":{"key":"06535015","name":"Schlitz, Stadt","type":"Stadt"},"district":{"key":"06535","name":"Vogelsbergkreis","type":"Landkreis"},"federalState":{"key":"06","name":"Hessen"}},{"name":"Kreuzstr.","postalCode":"36110","locality":"Schlitz","municipality":{"key":"06535015","name":"Schlitz, Stadt","type":"Stadt"},"district":{"key":"06535","name":"Vogelsbergkreis","type":"Landkreis"},"federalState":{"key":"06","name":"Hessen"}},{"name":"Kreuzweg","postalCode":"36110","locality":"Schlitz","municipality":{"key":"06535015","name":"Schlitz, Stadt","type":"Stadt"},"district":{"key":"06535","name":"Vogelsbergkreis","type":"Landkreis"},"federalState":{"key":"06","name":"Hessen"}},{"name":"Kröstauer Berg","postalCode":"08538","locality":"Weischlitz","municipality":{"key":"14523450","name":"Weischlitz","type":"Kreisangehörige_Gemeinde"},"district":{"key":"14523","name":"Vogtlandkreis","type":"Landkreis"},"federalState":{"key":"14","name":"Sachsen"}},{"name":"Kröstauer Str.","postalCode":"08538","locality":"Weischlitz","municipality":{"key":"14523450","name":"Weischlitz","type":"Kreisangehörige_Gemeinde"},"district":{"key":"14523","name":"Vogtlandkreis","type":"Landkreis"},"federalState":{"key":"14","name":"Sachsen"}},{"name":"Kröstauer Weg","postalCode":"08538","locality":"Weischlitz","municipality":{"key":"14523450","name":"Weischlitz","type":"Kreisangehörige_Gemeinde"},"district":{"key":"14523","name":"Vogtlandkreis","type":"Landkreis"},"federalState":{"key":"14","name":"Sachsen"}},{"name":"Kuhweg","postalCode":"08538","locality":"Weischlitz","municipality":{"key":"14523450","name":"Weischlitz","type":"Kreisangehörige_Gemeinde"},"district":{"key":"14523","name":"Vogtlandkreis","type":"Landkreis"},"federalState":{"key":"14","name":"Sachsen"}},{"name":"Kumpftreppchen","postalCode":"36110","locality":"Schlitz","municipality":{"key":"06535015","name":"Schlitz, Stadt","type":"Stadt"},"district":{"key":"06535","name":"Vogelsbergkreis","type":"Landkreis"},"federalState":{"key":"06","name":"Hessen"}},{"name":"Kürbitzer Landstr.","postalCode":"08538","locality":"Weischlitz","municipality":{"key":"14523450","name":"Weischlitz","type":"Kreisangehörige_Gemeinde"},"district":{"key":"14523","name":"Vogtlandkreis","type":"Landkreis"},"federalState":{"key":"14","name":"Sachsen"}},{"name":"Kürbitzer Str.","postalCode":"08538","locality":"Weischlitz","municipality":{"key":"14523450","name":"Weischlitz","type":"Kreisangehörige_Gemeinde"},"district":{"key":"14523","name":"Vogtlandkreis","type":"Landkreis"},"federalState":{"key":"14","name":"Sachsen"}},{"name":"Kürbitzer Weg","postalCode":"08538","locality":"Weischlitz","municipality":{"key":"14523450","name":"Weischlitz","type":"Kreisangehörige_Gemeinde"},"district":{"key":"14523","name":"Vogtlandkreis","type":"Landkreis"},"federalState":{"key":"14","name":"Sachsen"}},{"name":"Kurze Str.","postalCode":"08538","locality":"Weischlitz","municipality":{"key":"14523450","name":"Weischlitz","type":"Kreisangehörige_Gemeinde"},"district":{"key":"14523","name":"Vogtlandkreis","type":"Landkreis"},"federalState":{"key":"14","name":"Sachsen"}},{"name":"Laneckhaus","postalCode":"08538","locality":"Weischlitz","municipality":{"key":"14523450","name":"Weischlitz","type":"Kreisangehörige_Gemeinde"},"district":{"key":"14523","name":"Vogtlandkreis","type":"Landkreis"},"federalState":{"key":"14","name":"Sachsen"}},{"name":"Langer Weg","postalCode":"08538","locality":"Weischlitz","municipality":{"key":"14523450","name":"Weischlitz","type":"Kreisangehörige_Gemeinde"},"district":{"key":"14523","name":"Vogtlandkreis","type":"Landkreis"},"federalState":{"key":"14","name":"Sachsen"}},{"name":"Lärchengarten","postalCode":"36110","locality":"Schlitz","municipality":{"key":"06535015","name":"Schlitz, Stadt","type":"Stadt"},"district":{"key":"06535","name":"Vogelsbergkreis","type":"Landkreis"},"federalState":{"key":"06","name":"Hessen"}},{"name":"Lauterbacher Str.","postalCode":"36110","locality":"Schlitz","municipality":{"key":"06535015","name":"Schlitz, Stadt","type":"Stadt"},"district":{"key":"06535","name":"Vogelsbergkreis","type":"Landkreis"},"federalState":{"key":"06","name":"Hessen"}},{"name":"Lehmgrubenstr.","postalCode":"08538","locality":"Weischlitz","municipality":{"key":"14523450","name":"Weischlitz","type":"Kreisangehörige_Gemeinde"},"district":{"key":"14523","name":"Vogtlandkreis","type":"Landkreis"},"federalState":{"key":"14","name":"Sachsen"}},{"name":"Lindenallee","postalCode":"36110","locality":"Schlitz","municipality":{"key":"06535015","name":"Schlitz, Stadt","type":"Stadt"},"district":{"key":"06535","name":"Vogelsbergkreis","type":"Landkreis"},"federalState":{"key":"06","name":"Hessen"}},{"name":"Lindenstr.","postalCode":"36110","locality":"Schlitz","municipality":{"key":"06535015","name":"Schlitz, Stadt","type":"Stadt"},"district":{"key":"06535","name":"Vogelsbergkreis","type":"Landkreis"},"federalState":{"key":"06","name":"Hessen"}},{"name":"Lindenweg","postalCode":"08538","locality":"Weischlitz","municipality":{"key":"14523450","name":"Weischlitz","type":"Kreisangehörige_Gemeinde"},"district":{"key":"14523","name":"Vogtlandkreis","type":"Landkreis"},"federalState":{"key":"14","name":"Sachsen"}},{"name":"Lüdersgrundstr.","postalCode":"36110","locality":"Schlitz","municipality":{"key":"06535015","name":"Schlitz, Stadt","type":"Stadt"},"district":{"key":"06535","name":"Vogelsbergkreis","type":"Landkreis"},"federalState":{"key":"06","name":"Hessen"}},{"name":"Marktplatz","postalCode":"36110","locality":"Schlitz","municipality":{"key":"06535015","name":"Schlitz, Stadt","type":"Stadt"},"district":{"key":"06535","name":"Vogelsbergkreis","type":"Landkreis"},"federalState":{"key":"06","name":"Hessen"}},{"name":"Märzweg","postalCode":"36110","locality":"Schlitz","municipality":{"key":"06535015","name":"Schlitz, Stadt","type":"Stadt"},"district":{"key":"06535","name":"Vogelsbergkreis","type":"Landkreis"},"federalState":{"key":"06","name":"Hessen"}},{"name":"Max-Planck-Str.","postalCode":"36110","locality":"Schlitz","municipality":{"key":"06535015","name":"Schlitz, Stadt","type":"Stadt"},"district":{"key":"06535","name":"Vogelsbergkreis","type":"Landkreis"},"federalState":{"key":"06","name":"Hessen"}},{"name":"Meißnergrund","postalCode":"08538","locality":"Weischlitz","municipality":{"key":"14523450","name":"Weischlitz","type":"Kreisangehörige_Gemeinde"},"district":{"key":"14523","name":"Vogtlandkreis","type":"Landkreis"},"federalState":{"key":"14","name":"Sachsen"}},{"name":"Memelstr.","postalCode":"36110","locality":"Schlitz","municipality":{"key":"06535015","name":"Schlitz, Stadt","type":"Stadt"},"district":{"key":"06535","name":"Vogelsbergkreis","type":"Landkreis"},"federalState":{"key":"06","name":"Hessen"}},{"name":"Michelsrombacher Str.","postalCode":"36110","locality":"Schlitz","municipality":{"key":"06535015","name":"Schlitz, Stadt","type":"Stadt"},"district":{"key":"06535","name":"Vogelsbergkreis","type":"Landkreis"},"federalState":{"key":"06","name":"Hessen"}},{"name":"Mißlareuth","postalCode":"08538","locality":"Weischlitz","municipality":{"key":"14523450","name":"Weischlitz","type":"Kreisangehörige_Gemeinde"},"district":{"key":"14523","name":"Vogtlandkreis","type":"Landkreis"},"federalState":{"key":"14","name":"Sachsen"}},{"name":"Mißlareuther Str.","postalCode":"08538","locality":"Weischlitz","municipality":{"key":"14523450","name":"Weischlitz","type":"Kreisangehörige_Gemeinde"},"district":{"key":"14523","name":"Vogtlandkreis","type":"Landkreis"},"federalState":{"key":"14","name":"Sachsen"}},{"name":"Mittelstr.","postalCode":"08538","locality":"Weischlitz","municipality":{"key":"14523450","name":"Weischlitz","type":"Kreisangehörige_Gemeinde"},"district":{"key":"14523","name":"Vogtlandkreis","type":"Landkreis"},"federalState":{"key":"14","name":"Sachsen"}},{"name":"Mittelstr.","postalCode":"36110","locality":"Schlitz","municipality":{"key":"06535015","name":"Schlitz, Stadt","type":"Stadt"},"district":{"key":"06535","name":"Vogelsbergkreis","type":"Landkreis"},"federalState":{"key":"06","name":"Hessen"}},{"name":"Mozartstr.","postalCode":"36110","locality":"Schlitz","municipality":{"key":"06535015","name":"Schlitz, Stadt","type":"Stadt"},"district":{"key":"06535","name":"Vogelsbergkreis","type":"Landkreis"},"federalState":{"key":"06","name":"Hessen"}},{"name":"Mühlberg","postalCode":"08538","locality":"Weischlitz","municipality":{"key":"14523450","name":"Weischlitz","type":"Kreisangehörige_Gemeinde"},"district":{"key":"14523","name":"Vogtlandkreis","type":"Landkreis"},"federalState":{"key":"14","name":"Sachsen"}},{"name":"Mühlenweg","postalCode":"36110","locality":"Schlitz","municipality":{"key":"06535015","name":"Schlitz, Stadt","type":"Stadt"},"district":{"key":"06535","name":"Vogelsbergkreis","type":"Landkreis"},"federalState":{"key":"06","name":"Hessen"}},{"name":"Mühlgasse","postalCode":"08538","locality":"Weischlitz","municipality":{"key":"14523450","name":"Weischlitz","type":"Kreisangehörige_Gemeinde"},"district":{"key":"14523","name":"Vogtlandkreis","type":"Landkreis"},"federalState":{"key":"14","name":"Sachsen"}},{"name":"Mühlgasse","postalCode":"36110","locality":"Schlitz","municipality":{"key":"06535015","name":"Schlitz, Stadt","type":"Stadt"},"district":{"key":"06535","name":"Vogelsbergkreis","type":"Landkreis"},"federalState":{"key":"06","name":"Hessen"}},{"name":"Mühlstr.","postalCode":"36110","locality":"Schlitz","municipality":{"key":"06535015","name":"Schlitz, Stadt","type":"Stadt"},"district":{"key":"06535","name":"Vogelsbergkreis","type":"Landkreis"},"federalState":{"key":"06","name":"Hessen"}},{"name":"Müllerweg","postalCode":"36110","locality":"Schlitz","municipality":{"key":"06535015","name":"Schlitz, Stadt","type":"Stadt"},"district":{"key":"06535","name":"Vogelsbergkreis","type":"Landkreis"},"federalState":{"key":"06","name":"Hessen"}},{"name":"Münchenreuther Str.","postalCode":"08538","locality":"Weischlitz","municipality":{"key":"14523450","name":"Weischlitz","type":"Kreisangehörige_Gemeinde"},"district":{"key":"14523","name":"Vogtlandkreis","type":"Landkreis"},"federalState":{"key":"14","name":"Sachsen"}},{"name":"Neuer Weg","postalCode":"08538","locality":"Weischlitz","municipality":{"key":"14523450","name":"Weischlitz","type":"Kreisangehörige_Gemeinde"},"district":{"key":"14523","name":"Vogtlandkreis","type":"Landkreis"},"federalState":{"key":"14","name":"Sachsen"}},{"name":"Neundorfer Str.","postalCode":"08538","locality":"Weischlitz","municipality":{"key":"14523450","name":"Weischlitz","type":"Kreisangehörige_Gemeinde"},"district":{"key":"14523","name":"Vogtlandkreis","type":"Landkreis"},"federalState":{"key":"14","name":"Sachsen"}},{"name":"Niederaulaer Str.","postalCode":"36110","locality":"Schlitz","municipality":{"key":"06535015","name":"Schlitz, Stadt","type":"Stadt"},"district":{"key":"06535","name":"Vogelsbergkreis","type":"Landkreis"},"federalState":{"key":"06","name":"Hessen"}},{"name":"Niederjossaer Str.","postalCode":"36110","locality":"Schlitz","municipality":{"key":"06535015","name":"Schlitz, Stadt","type":"Stadt"},"district":{"key":"06535","name":"Vogelsbergkreis","type":"Landkreis"},"federalState":{"key":"06","name":"Hessen"}},{"name":"Oberdorf","postalCode":"36110","locality":"Schlitz","municipality":{"key":"06535015","name":"Schlitz, Stadt","type":"Stadt"},"district":{"key":"06535","name":"Vogelsbergkreis","type":"Landkreis"},"federalState":{"key":"06","name":"Hessen"}},{"name":"Obere Dorfstr.","postalCode":"08538","locality":"Weischlitz","municipality":{"key":"14523450","name":"Weischlitz","type":"Kreisangehörige_Gemeinde"},"district":{"key":"14523","name":"Vogtlandkreis","type":"Landkreis"},"federalState":{"key":"14","name":"Sachsen"}},{"name":"Obergasse","postalCode":"36110","locality":"Schlitz","municipality":{"key":"06535015","name":"Schlitz, Stadt","type":"Stadt"},"district":{"key":"06535","name":"Vogelsbergkreis","type":"Landkreis"},"federalState":{"key":"06","name":"Hessen"}},{"name":"Oberweischlitzer Str.","postalCode":"08538","locality":"Weischlitz","municipality":{"key":"14523450","name":"Weischlitz","type":"Kreisangehörige_Gemeinde"},"district":{"key":"14523","name":"Vogtlandkreis","type":"Landkreis"},"federalState":{"key":"14","name":"Sachsen"}},{"name":"Ortsstr.","postalCode":"08538","locality":"Weischlitz","municipality":{"key":"14523450","name":"Weischlitz","type":"Kreisangehörige_Gemeinde"},"district":{"key":"14523","name":"Vogtlandkreis","type":"Landkreis"},"federalState":{"key":"14","name":"Sachsen"}},{"name":"Ostpreußenstr.","postalCode":"36110","locality":"Schlitz","municipality":{"key":"06535015","name":"Schlitz, Stadt","type":"Stadt"},"district":{"key":"06535","name":"Vogelsbergkreis","type":"Landkreis"},"federalState":{"key":"06","name":"Hessen"}},{"name":"Otto-Zinßer-Str.","postalCode":"36110","locality":"Schlitz","municipality":{"key":"06535015","name":"Schlitz, Stadt","type":"Stadt"},"district":{"key":"06535","name":"Vogelsbergkreis","type":"Landkreis"},"federalState":{"key":"06","name":"Hessen"}},{"name":"Pappelweg","postalCode":"36110","locality":"Schlitz","municipality":{"key":"06535015","name":"Schlitz, Stadt","type":"Stadt"},"district":{"key":"06535","name":"Vogelsbergkreis","type":"Landkreis"},"federalState":{"key":"06","name":"Hessen"}},{"name":"Parallelweg","postalCode":"36110","locality":"Schlitz","municipality":{"key":"06535015","name":"Schlitz, Stadt","type":"Stadt"},"district":{"key":"06535","name":"Vogelsbergkreis","type":"Landkreis"},"federalState":{"key":"06","name":"Hessen"}},{"name":"Parkstr.","postalCode":"36110","locality":"Schlitz","municipality":{"key":"06535015","name":"Schlitz, Stadt","type":"Stadt"},"district":{"key":"06535","name":"Vogelsbergkreis","type":"Landkreis"},"federalState":{"key":"06","name":"Hessen"}},{"name":"Pestalozzistr.","postalCode":"36110","locality":"Schlitz","municipality":{"key":"06535015","name":"Schlitz, Stadt","type":"Stadt"},"district":{"key":"06535","name":"Vogelsbergkreis","type":"Landkreis"},"federalState":{"key":"06","name":"Hessen"}},{"name":"Pfarrgasse","postalCode":"36110","locality":"Schlitz","municipality":{"key":"06535015","name":"Schlitz, Stadt","type":"Stadt"},"district":{"key":"06535","name":"Vogelsbergkreis","type":"Landkreis"},"federalState":{"key":"06","name":"Hessen"}},{"name":"Pferdeweg","postalCode":"08538","locality":"Weischlitz","municipality":{"key":"14523450","name":"Weischlitz","type":"Kreisangehörige_Gemeinde"},"district":{"key":"14523","name":"Vogtlandkreis","type":"Landkreis"},"federalState":{"key":"14","name":"Sachsen"}},{"name":"Pfordter Str.","postalCode":"36110","locality":"Schlitz","municipality":{"key":"06535015","name":"Schlitz, Stadt","type":"Stadt"},"district":{"key":"06535","name":"Vogelsbergkreis","type":"Landkreis"},"federalState":{"key":"06","name":"Hessen"}},{"name":"Pirkere","postalCode":"08538","locality":"Weischlitz","municipality":{"key":"14523450","name":"Weischlitz","type":"Kreisangehörige_Gemeinde"},"district":{"key":"14523","name":"Vogtlandkreis","type":"Landkreis"},"federalState":{"key":"14","name":"Sachsen"}},{"name":"Pirker Str.","postalCode":"08538","locality":"Weischlitz","municipality":{"key":"14523450","name":"Weischlitz","type":"Kreisangehörige_Gemeinde"},"district":{"key":"14523","name":"Vogtlandkreis","type":"Landkreis"},"federalState":{"key":"14","name":"Sachsen"}},{"name":"Plattenhaus","postalCode":"08538","locality":"Weischlitz","municipality":{"key":"14523450","name":"Weischlitz","type":"Kreisangehörige_Gemeinde"},"district":{"key":"14523","name":"Vogtlandkreis","type":"Landkreis"},"federalState":{"key":"14","name":"Sachsen"}},{"name":"Plauener Landstr.","postalCode":"08538","locality":"Weischlitz","municipality":{"key":"14523450","name":"Weischlitz","type":"Kreisangehörige_Gemeinde"},"district":{"key":"14523","name":"Vogtlandkreis","type":"Landkreis"},"federalState":{"key":"14","name":"Sachsen"}},{"name":"Plauener Str.","postalCode":"08538","locality":"Weischlitz","municipality":{"key":"14523450","name":"Weischlitz","type":"Kreisangehörige_Gemeinde"},"district":{"key":"14523","name":"Vogtlandkreis","type":"Landkreis"},"federalState":{"key":"14","name":"Sachsen"}},{"name":"Poststr.","postalCode":"36110","locality":"Schlitz","municipality":{"key":"06535015","name":"Schlitz, Stadt","type":"Stadt"},"district":{"key":"06535","name":"Vogelsbergkreis","type":"Landkreis"},"federalState":{"key":"06","name":"Hessen"}},{"name":"Prof.-Schober-Weg","postalCode":"36110","locality":"Schlitz","municipality":{"key":"06535015","name":"Schlitz, Stadt","type":"Stadt"},"district":{"key":"06535","name":"Vogelsbergkreis","type":"Landkreis"},"federalState":{"key":"06","name":"Hessen"}},{"name":"Querstr.","postalCode":"08538","locality":"Weischlitz","municipality":{"key":"14523450","name":"Weischlitz","type":"Kreisangehörige_Gemeinde"},"district":{"key":"14523","name":"Vogtlandkreis","type":"Landkreis"},"federalState":{"key":"14","name":"Sachsen"}},{"name":"Querweg","postalCode":"08538","locality":"Weischlitz","municipality":{"key":"14523450","name":"Weischlitz","type":"Kreisangehörige_Gemeinde"},"district":{"key":"14523","name":"Vogtlandkreis","type":"Landkreis"},"federalState":{"key":"14","name":"Sachsen"}},{"name":"Raiffeisenstr.","postalCode":"36110","locality":"Schlitz","municipality":{"key":"06535015","name":"Schlitz, Stadt","type":"Stadt"},"district":{"key":"06535","name":"Vogelsbergkreis","type":"Landkreis"},"federalState":{"key":"06","name":"Hessen"}},{"name":"Raingarten","postalCode":"36110","locality":"Schlitz","municipality":{"key":"06535015","name":"Schlitz, Stadt","type":"Stadt"},"district":{"key":"06535","name":"Vogelsbergkreis","type":"Landkreis"},"federalState":{"key":"06","name":"Hessen"}},{"name":"Raingäßchen","postalCode":"36110","locality":"Schlitz","municipality":{"key":"06535015","name":"Schlitz, Stadt","type":"Stadt"},"district":{"key":"06535","name":"Vogelsbergkreis","type":"Landkreis"},"federalState":{"key":"06","name":"Hessen"}},{"name":"Reinhardtswalde","postalCode":"08538","locality":"Weischlitz","municipality":{"key":"14523450","name":"Weischlitz","type":"Kreisangehörige_Gemeinde"},"district":{"key":"14523","name":"Vogtlandkreis","type":"Landkreis"},"federalState":{"key":"14","name":"Sachsen"}},{"name":"Rhönstr.","postalCode":"36110","locality":"Schlitz","municipality":{"key":"06535015","name":"Schlitz, Stadt","type":"Stadt"},"district":{"key":"06535","name":"Vogelsbergkreis","type":"Landkreis"},"federalState":{"key":"06","name":"Hessen"}},{"name":"Richard-Wagner-Str.","postalCode":"36110","locality":"Schlitz","municipality":{"key":"06535015","name":"Schlitz, Stadt","type":"Stadt"},"district":{"key":"06535","name":"Vogelsbergkreis","type":"Landkreis"},"federalState":{"key":"06","name":"Hessen"}},{"name":"Richthofer Str.","postalCode":"36110","locality":"Schlitz","municipality":{"key":"06535015","name":"Schlitz, Stadt","type":"Stadt"},"district":{"key":"06535","name":"Vogelsbergkreis","type":"Landkreis"},"federalState":{"key":"06","name":"Hessen"}},{"name":"Rimbacher Str.","postalCode":"36110","locality":"Schlitz","municipality":{"key":"06535015","name":"Schlitz, Stadt","type":"Stadt"},"district":{"key":"06535","name":"Vogelsbergkreis","type":"Landkreis"},"federalState":{"key":"06","name":"Hessen"}},{"name":"Rimbacher Weg","postalCode":"36110","locality":"Schlitz","municipality":{"key":"06535015","name":"Schlitz, Stadt","type":"Stadt"},"district":{"key":"06535","name":"Vogelsbergkreis","type":"Landkreis"},"federalState":{"key":"06","name":"Hessen"}},{"name":"Ringmauer","postalCode":"36110","locality":"Schlitz","municipality":{"key":"06535015","name":"Schlitz, Stadt","type":"Stadt"},"district":{"key":"06535","name":"Vogelsbergkreis","type":"Landkreis"},"federalState":{"key":"06","name":"Hessen"}},{"name":"Ringofen","postalCode":"36110","locality":"Schlitz","municipality":{"key":"06535015","name":"Schlitz, Stadt","type":"Stadt"},"district":{"key":"06535","name":"Vogelsbergkreis","type":"Landkreis"},"federalState":{"key":"06","name":"Hessen"}},{"name":"Ringstr.","postalCode":"08538","locality":"Weischlitz","municipality":{"key":"14523450","name":"Weischlitz","type":"Kreisangehörige_Gemeinde"},"district":{"key":"14523","name":"Vogtlandkreis","type":"Landkreis"},"federalState":{"key":"14","name":"Sachsen"}},{"name":"Ringstr.","postalCode":"36110","locality":"Schlitz","municipality":{"key":"06535015","name":"Schlitz, Stadt","type":"Stadt"},"district":{"key":"06535","name":"Vogelsbergkreis","type":"Landkreis"},"federalState":{"key":"06","name":"Hessen"}},{"name":"Robert-Koch-Str.","postalCode":"36110","locality":"Schlitz","municipality":{"key":"06535015","name":"Schlitz, Stadt","type":"Stadt"},"district":{"key":"06535","name":"Vogelsbergkreis","type":"Landkreis"},"federalState":{"key":"06","name":"Hessen"}},{"name":"Rodauer Str.","postalCode":"08538","locality":"Weischlitz","municipality":{"key":"14523450","name":"Weischlitz","type":"Kreisangehörige_Gemeinde"},"district":{"key":"14523","name":"Vogtlandkreis","type":"Landkreis"},"federalState":{"key":"14","name":"Sachsen"}},{"name":"Rosenberg","postalCode":"08538","locality":"Weischlitz","municipality":{"key":"14523450","name":"Weischlitz","type":"Kreisangehörige_Gemeinde"},"district":{"key":"14523","name":"Vogtlandkreis","type":"Landkreis"},"federalState":{"key":"14","name":"Sachsen"}},{"name":"Rosengarten","postalCode":"36110","locality":"Schlitz","municipality":{"key":"06535015","name":"Schlitz, Stadt","type":"Stadt"},"district":{"key":"06535","name":"Vogelsbergkreis","type":"Landkreis"},"federalState":{"key":"06","name":"Hessen"}},{"name":"Rosengasse","postalCode":"08538","locality":"Weischlitz","municipality":{"key":"14523450","name":"Weischlitz","type":"Kreisangehörige_Gemeinde"},"district":{"key":"14523","name":"Vogtlandkreis","type":"Landkreis"},"federalState":{"key":"14","name":"Sachsen"}},{"name":"Rößnitzer Str.","postalCode":"08538","locality":"Weischlitz","municipality":{"key":"14523450","name":"Weischlitz","type":"Kreisangehörige_Gemeinde"},"district":{"key":"14523","name":"Vogtlandkreis","type":"Landkreis"},"federalState":{"key":"14","name":"Sachsen"}},{"name":"Roter Weg","postalCode":"36110","locality":"Schlitz","municipality":{"key":"06535015","name":"Schlitz, Stadt","type":"Stadt"},"district":{"key":"06535","name":"Vogelsbergkreis","type":"Landkreis"},"federalState":{"key":"06","name":"Hessen"}},{"name":"Rudolf-Breitscheid-Str.","postalCode":"08538","locality":"Weischlitz","municipality":{"key":"14523450","name":"Weischlitz","type":"Kreisangehörige_Gemeinde"},"district":{"key":"14523","name":"Vogtlandkreis","type":"Landkreis"},"federalState":{"key":"14","name":"Sachsen"}},{"name":"Sälzer Weg","postalCode":"36110","locality":"Schlitz","municipality":{"key":"06535015","name":"Schlitz, Stadt","type":"Stadt"},"district":{"key":"06535","name":"Vogelsbergkreis","type":"Landkreis"},"federalState":{"key":"06","name":"Hessen"}},{"name":"Salzschlirfer Str.","postalCode":"36110","locality":"Schlitz","municipality":{"key":"06535015","name":"Schlitz, Stadt","type":"Stadt"},"district":{"key":"06535","name":"Vogelsbergkreis","type":"Landkreis"},"federalState":{"key":"06","name":"Hessen"}},{"name":"Sandlofser Str.","postalCode":"36110","locality":"Schlitz","municipality":{"key":"06535015","name":"Schlitz, Stadt","type":"Stadt"},"district":{"key":"06535","name":"Vogelsbergkreis","type":"Landkreis"},"federalState":{"key":"06","name":"Hessen"}},{"name":"Schafackerweg","postalCode":"08538","locality":"Weischlitz","municipality":{"key":"14523450","name":"Weischlitz","type":"Kreisangehörige_Gemeinde"},"district":{"key":"14523","name":"Vogtlandkreis","type":"Landkreis"},"federalState":{"key":"14","name":"Sachsen"}},{"name":"Schäfereiweg","postalCode":"08538","locality":"Weischlitz","municipality":{"key":"14523450","name":"Weischlitz","type":"Kreisangehörige_Gemeinde"},"district":{"key":"14523","name":"Vogtlandkreis","type":"Landkreis"},"federalState":{"key":"14","name":"Sachsen"}},{"name":"Schildablick","postalCode":"36110","locality":"Schlitz","municipality":{"key":"06535015","name":"Schlitz, Stadt","type":"Stadt"},"district":{"key":"06535","name":"Vogelsbergkreis","type":"Landkreis"},"federalState":{"key":"06","name":"Hessen"}},{"name":"Schillerstr.","postalCode":"36110","locality":"Schlitz","municipality":{"key":"06535015","name":"Schlitz, Stadt","type":"Stadt"},"district":{"key":"06535","name":"Vogelsbergkreis","type":"Landkreis"},"federalState":{"key":"06","name":"Hessen"}},{"name":"Schleizer Str.","postalCode":"08538","locality":"Weischlitz","municipality":{"key":"14523450","name":"Weischlitz","type":"Kreisangehörige_Gemeinde"},"district":{"key":"14523","name":"Vogtlandkreis","type":"Landkreis"},"federalState":{"key":"14","name":"Sachsen"}},{"name":"Schlesische Str.","postalCode":"36110","locality":"Schlitz","municipality":{"key":"06535015","name":"Schlitz, Stadt","type":"Stadt"},"district":{"key":"06535","name":"Vogelsbergkreis","type":"Landkreis"},"federalState":{"key":"06","name":"Hessen"}},{"name":"Schlitzer Str.","postalCode":"36110","locality":"Schlitz","municipality":{"key":"06535015","name":"Schlitz, Stadt","type":"Stadt"},"district":{"key":"06535","name":"Vogelsbergkreis","type":"Landkreis"},"federalState":{"key":"06","name":"Hessen"}},{"name":"Schloßgartenweg","postalCode":"36110","locality":"Schlitz","municipality":{"key":"06535015","name":"Schlitz, Stadt","type":"Stadt"},"district":{"key":"06535","name":"Vogelsbergkreis","type":"Landkreis"},"federalState":{"key":"06","name":"Hessen"}},{"name":"Schloßstr.","postalCode":"08538","locality":"Weischlitz","municipality":{"key":"14523450","name":"Weischlitz","type":"Kreisangehörige_Gemeinde"},"district":{"key":"14523","name":"Vogtlandkreis","type":"Landkreis"},"federalState":{"key":"14","name":"Sachsen"}},{"name":"Schmiedsgasse","postalCode":"36110","locality":"Schlitz","municipality":{"key":"06535015","name":"Schlitz, Stadt","type":"Stadt"},"district":{"key":"06535","name":"Vogelsbergkreis","type":"Landkreis"},"federalState":{"key":"06","name":"Hessen"}},{"name":"Schöne Aussicht","postalCode":"36110","locality":"Schlitz","municipality":{"key":"06535015","name":"Schlitz, Stadt","type":"Stadt"},"district":{"key":"06535","name":"Vogelsbergkreis","type":"Landkreis"},"federalState":{"key":"06","name":"Hessen"}},{"name":"Schulberg","postalCode":"08538","locality":"Weischlitz","municipality":{"key":"14523450","name":"Weischlitz","type":"Kreisangehörige_Gemeinde"},"district":{"key":"14523","name":"Vogtlandkreis","type":"Landkreis"},"federalState":{"key":"14","name":"Sachsen"}},{"name":"Schulhausstr.","postalCode":"36110","locality":"Schlitz","municipality":{"key":"06535015","name":"Schlitz, Stadt","type":"Stadt"},"district":{"key":"06535","name":"Vogelsbergkreis","type":"Landkreis"},"federalState":{"key":"06","name":"Hessen"}},{"name":"Schulstr.","postalCode":"08538","locality":"Weischlitz","municipality":{"key":"14523450","name":"Weischlitz","type":"Kreisangehörige_Gemeinde"},"district":{"key":"14523","name":"Vogtlandkreis","type":"Landkreis"},"federalState":{"key":"14","name":"Sachsen"}},{"name":"Schulstr.","postalCode":"36110","locality":"Schlitz","municipality":{"key":"06535015","name":"Schlitz, Stadt","type":"Stadt"},"district":{"key":"06535","name":"Vogelsbergkreis","type":"Landkreis"},"federalState":{"key":"06","name":"Hessen"}},{"name":"Schulweg","postalCode":"36110","locality":"Schlitz","municipality":{"key":"06535015","name":"Schlitz, Stadt","type":"Stadt"},"district":{"key":"06535","name":"Vogelsbergkreis","type":"Landkreis"},"federalState":{"key":"06","name":"Hessen"}},{"name":"Schwander Str.","postalCode":"08538","locality":"Weischlitz","municipality":{"key":"14523450","name":"Weischlitz","type":"Kreisangehörige_Gemeinde"},"district":{"key":"14523","name":"Vogtlandkreis","type":"Landkreis"},"federalState":{"key":"14","name":"Sachsen"}},{"name":"Schwarzer Stock","postalCode":"36110","locality":"Schlitz","municipality":{"key":"06535015","name":"Schlitz, Stadt","type":"Stadt"},"district":{"key":"06535","name":"Vogelsbergkreis","type":"Landkreis"},"federalState":{"key":"06","name":"Hessen"}},{"name":"Seebergstr.","postalCode":"36110","locality":"Schlitz","municipality":{"key":"06535015","name":"Schlitz, Stadt","type":"Stadt"},"district":{"key":"06535","name":"Vogelsbergkreis","type":"Landkreis"},"federalState":{"key":"06","name":"Hessen"}},{"name":"Seeburgstr.","postalCode":"36110","locality":"Schlitz","municipality":{"key":"06535015","name":"Schlitz, Stadt","type":"Stadt"},"district":{"key":"06535","name":"Vogelsbergkreis","type":"Landkreis"},"federalState":{"key":"06","name":"Hessen"}},{"name":"Seelbüde","postalCode":"36110","locality":"Schlitz","municipality":{"key":"06535015","name":"Schlitz, Stadt","type":"Stadt"},"district":{"key":"06535","name":"Vogelsbergkreis","type":"Landkreis"},"federalState":{"key":"06","name":"Hessen"}},{"name":"Semichweg","postalCode":"36110","locality":"Schlitz","municipality":{"key":"06535015","name":"Schlitz, Stadt","type":"Stadt"},"district":{"key":"06535","name":"Vogelsbergkreis","type":"Landkreis"},"federalState":{"key":"06","name":"Hessen"}},{"name":"Sengelbachweg","postalCode":"36110","locality":"Schlitz","municipality":{"key":"06535015","name":"Schlitz, Stadt","type":"Stadt"},"district":{"key":"06535","name":"Vogelsbergkreis","type":"Landkreis"},"federalState":{"key":"06","name":"Hessen"}},{"name":"Sengersbergblick","postalCode":"36110","locality":"Schlitz","municipality":{"key":"06535015","name":"Schlitz, Stadt","type":"Stadt"},"district":{"key":"06535","name":"Vogelsbergkreis","type":"Landkreis"},"federalState":{"key":"06","name":"Hessen"}},{"name":"Siebertshof","postalCode":"36110","locality":"Schlitz","municipality":{"key":"06535015","name":"Schlitz, Stadt","type":"Stadt"},"district":{"key":"06535","name":"Vogelsbergkreis","type":"Landkreis"},"federalState":{"key":"06","name":"Hessen"}},{"name":"Siedlung","postalCode":"08538","locality":"Weischlitz","municipality":{"key":"14523450","name":"Weischlitz","type":"Kreisangehörige_Gemeinde"},"district":{"key":"14523","name":"Vogtlandkreis","type":"Landkreis"},"federalState":{"key":"14","name":"Sachsen"}},{"name":"Siedlung","postalCode":"36110","locality":"Schlitz","municipality":{"key":"06535015","name":"Schlitz, Stadt","type":"Stadt"},"district":{"key":"06535","name":"Vogelsbergkreis","type":"Landkreis"},"federalState":{"key":"06","name":"Hessen"}},{"name":"Siedlungsstr.","postalCode":"08538","locality":"Weischlitz","municipality":{"key":"14523450","name":"Weischlitz","type":"Kreisangehörige_Gemeinde"},"district":{"key":"14523","name":"Vogtlandkreis","type":"Landkreis"},"federalState":{"key":"14","name":"Sachsen"}},{"name":"Simmelsrück","postalCode":"36110","locality":"Schlitz","municipality":{"key":"06535015","name":"Schlitz, Stadt","type":"Stadt"},"district":{"key":"06535","name":"Vogelsbergkreis","type":"Landkreis"},"federalState":{"key":"06","name":"Hessen"}},{"name":"Sommerberg","postalCode":"36110","locality":"Schlitz","municipality":{"key":"06535015","name":"Schlitz, Stadt","type":"Stadt"},"district":{"key":"06535","name":"Vogelsbergkreis","type":"Landkreis"},"federalState":{"key":"06","name":"Hessen"}},{"name":"Sonnenhang","postalCode":"36110","locality":"Schlitz","municipality":{"key":"06535015","name":"Schlitz, Stadt","type":"Stadt"},"district":{"key":"06535","name":"Vogelsbergkreis","type":"Landkreis"},"federalState":{"key":"06","name":"Hessen"}},{"name":"Stadtberg","postalCode":"36110","locality":"Schlitz","municipality":{"key":"06535015","name":"Schlitz, Stadt","type":"Stadt"},"district":{"key":"06535","name":"Vogelsbergkreis","type":"Landkreis"},"federalState":{"key":"06","name":"Hessen"}},{"name":"Stadtweg","postalCode":"36110","locality":"Schlitz","municipality":{"key":"06535015","name":"Schlitz, Stadt","type":"Stadt"},"district":{"key":"06535","name":"Vogelsbergkreis","type":"Landkreis"},"federalState":{"key":"06","name":"Hessen"}},{"name":"Steinigshohl","postalCode":"36110","locality":"Schlitz","municipality":{"key":"06535015","name":"Schlitz, Stadt","type":"Stadt"},"district":{"key":"06535","name":"Vogelsbergkreis","type":"Landkreis"},"federalState":{"key":"06","name":"Hessen"}},{"name":"Steins","postalCode":"08538","locality":"Weischlitz","municipality":{"key":"14523450","name":"Weischlitz","type":"Kreisangehörige_Gemeinde"},"district":{"key":"14523","name":"Vogtlandkreis","type":"Landkreis"},"federalState":{"key":"14","name":"Sachsen"}},{"name":"Steinser Str.","postalCode":"08538","locality":"Weischlitz","municipality":{"key":"14523450","name":"Weischlitz","type":"Kreisangehörige_Gemeinde"},"district":{"key":"14523","name":"Vogtlandkreis","type":"Landkreis"},"federalState":{"key":"14","name":"Sachsen"}},{"name":"Steinweg","postalCode":"36110","locality":"Schlitz","municipality":{"key":"06535015","name":"Schlitz, Stadt","type":"Stadt"},"district":{"key":"06535","name":"Vogelsbergkreis","type":"Landkreis"},"federalState":{"key":"06","name":"Hessen"}},{"name":"Stelzenweg","postalCode":"08538","locality":"Weischlitz","municipality":{"key":"14523450","name":"Weischlitz","type":"Kreisangehörige_Gemeinde"},"district":{"key":"14523","name":"Vogtlandkreis","type":"Landkreis"},"federalState":{"key":"14","name":"Sachsen"}},{"name":"Stettiner Str.","postalCode":"36110","locality":"Schlitz","municipality":{"key":"06535015","name":"Schlitz, Stadt","type":"Stadt"},"district":{"key":"06535","name":"Vogelsbergkreis","type":"Landkreis"},"federalState":{"key":"06","name":"Hessen"}},{"name":"Strausweg","postalCode":"36110","locality":"Schlitz","municipality":{"key":"06535015","name":"Schlitz, Stadt","type":"Stadt"},"district":{"key":"06535","name":"Vogelsbergkreis","type":"Landkreis"},"federalState":{"key":"06","name":"Hessen"}},{"name":"Str. der Solidarität","postalCode":"08538","locality":"Weischlitz","municipality":{"key":"14523450","name":"Weischlitz","type":"Kreisangehörige_Gemeinde"},"district":{"key":"14523","name":"Vogtlandkreis","type":"Landkreis"},"federalState":{"key":"14","name":"Sachsen"}},{"name":"Strickweg","postalCode":"36110","locality":"Schlitz","municipality":{"key":"06535015","name":"Schlitz, Stadt","type":"Stadt"},"district":{"key":"06535","name":"Vogelsbergkreis","type":"Landkreis"},"federalState":{"key":"06","name":"Hessen"}},{"name":"Sudetenstr.","postalCode":"36110","locality":"Schlitz","municipality":{"key":"06535015","name":"Schlitz, Stadt","type":"Stadt"},"district":{"key":"06535","name":"Vogelsbergkreis","type":"Landkreis"},"federalState":{"key":"06","name":"Hessen"}},{"name":"Talgasse","postalCode":"08538","locality":"Weischlitz","municipality":{"key":"14523450","name":"Weischlitz","type":"Kreisangehörige_Gemeinde"},"district":{"key":"14523","name":"Vogtlandkreis","type":"Landkreis"},"federalState":{"key":"14","name":"Sachsen"}},{"name":"Talsperrenstr.","postalCode":"08538","locality":"Weischlitz","municipality":{"key":"14523450","name":"Weischlitz","type":"Kreisangehörige_Gemeinde"},"district":{"key":"14523","name":"Vogtlandkreis","type":"Landkreis"},"federalState":{"key":"14","name":"Sachsen"}},{"name":"Talstr.","postalCode":"08538","locality":"Weischlitz","municipality":{"key":"14523450","name":"Weischlitz","type":"Kreisangehörige_Gemeinde"},"district":{"key":"14523","name":"Vogtlandkreis","type":"Landkreis"},"federalState":{"key":"14","name":"Sachsen"}},{"name":"Taltitzer Berg","postalCode":"08538","locality":"Weischlitz","municipality":{"key":"14523450","name":"Weischlitz","type":"Kreisangehörige_Gemeinde"},"district":{"key":"14523","name":"Vogtlandkreis","type":"Landkreis"},"federalState":{"key":"14","name":"Sachsen"}},{"name":"Taltitzer Str.","postalCode":"08538","locality":"Weischlitz","municipality":{"key":"14523450","name":"Weischlitz","type":"Kreisangehörige_Gemeinde"},"district":{"key":"14523","name":"Vogtlandkreis","type":"Landkreis"},"federalState":{"key":"14","name":"Sachsen"}},{"name":"Tannenweg","postalCode":"36110","locality":"Schlitz","municipality":{"key":"06535015","name":"Schlitz, Stadt","type":"Stadt"},"district":{"key":"06535","name":"Vogelsbergkreis","type":"Landkreis"},"federalState":{"key":"06","name":"Hessen"}},{"name":"Teichgasse","postalCode":"08538","locality":"Weischlitz","municipality":{"key":"14523450","name":"Weischlitz","type":"Kreisangehörige_Gemeinde"},"district":{"key":"14523","name":"Vogtlandkreis","type":"Landkreis"},"federalState":{"key":"14","name":"Sachsen"}},{"name":"Teichstr.","postalCode":"08538","locality":"Weischlitz","municipality":{"key":"14523450","name":"Weischlitz","type":"Kreisangehörige_Gemeinde"},"district":{"key":"14523","name":"Vogtlandkreis","type":"Landkreis"},"federalState":{"key":"14","name":"Sachsen"}},{"name":"Teichweg","postalCode":"08538","locality":"Weischlitz","municipality":{"key":"14523450","name":"Weischlitz","type":"Kreisangehörige_Gemeinde"},"district":{"key":"14523","name":"Vogtlandkreis","type":"Landkreis"},"federalState":{"key":"14","name":"Sachsen"}},{"name":"Teufelskaute","postalCode":"36110","locality":"Schlitz","municipality":{"key":"06535015","name":"Schlitz, Stadt","type":"Stadt"},"district":{"key":"06535","name":"Vogelsbergkreis","type":"Landkreis"},"federalState":{"key":"06","name":"Hessen"}},{"name":"Thiergartener Str.","postalCode":"08538","locality":"Weischlitz","municipality":{"key":"14523450","name":"Weischlitz","type":"Kreisangehörige_Gemeinde"},"district":{"key":"14523","name":"Vogtlandkreis","type":"Landkreis"},"federalState":{"key":"14","name":"Sachsen"}},{"name":"Thomas-Müntzer-Weg","postalCode":"08538","locality":"Weischlitz","municipality":{"key":"14523450","name":"Weischlitz","type":"Kreisangehörige_Gemeinde"},"district":{"key":"14523","name":"Vogtlandkreis","type":"Landkreis"},"federalState":{"key":"14","name":"Sachsen"}},{"name":"Thossener Str.","postalCode":"08538","locality":"Weischlitz","municipality":{"key":"14523450","name":"Weischlitz","type":"Kreisangehörige_Gemeinde"},"district":{"key":"14523","name":"Vogtlandkreis","type":"Landkreis"},"federalState":{"key":"14","name":"Sachsen"}},{"name":"Trossbachtal","postalCode":"36110","locality":"Schlitz","municipality":{"key":"06535015","name":"Schlitz, Stadt","type":"Stadt"},"district":{"key":"06535","name":"Vogelsbergkreis","type":"Landkreis"},"federalState":{"key":"06","name":"Hessen"}},{"name":"Türbel","postalCode":"08538","locality":"Weischlitz","municipality":{"key":"14523450","name":"Weischlitz","type":"Kreisangehörige_Gemeinde"},"district":{"key":"14523","name":"Vogtlandkreis","type":"Landkreis"},"federalState":{"key":"14","name":"Sachsen"}},{"name":"Uferstr.","postalCode":"08538","locality":"Weischlitz","municipality":{"key":"14523450","name":"Weischlitz","type":"Kreisangehörige_Gemeinde"},"district":{"key":"14523","name":"Vogtlandkreis","type":"Landkreis"},"federalState":{"key":"14","name":"Sachsen"}},{"name":"Uferweg","postalCode":"08538","locality":"Weischlitz","municipality":{"key":"14523450","name":"Weischlitz","type":"Kreisangehörige_Gemeinde"},"district":{"key":"14523","name":"Vogtlandkreis","type":"Landkreis"},"federalState":{"key":"14","name":"Sachsen"}},{"name":"Ulmenweg","postalCode":"36110","locality":"Schlitz","municipality":{"key":"06535015","name":"Schlitz, Stadt","type":"Stadt"},"district":{"key":"06535","name":"Vogelsbergkreis","type":"Landkreis"},"federalState":{"key":"06","name":"Hessen"}},{"name":"Ulrichsmühle","postalCode":"08538","locality":"Weischlitz","municipality":{"key":"14523450","name":"Weischlitz","type":"Kreisangehörige_Gemeinde"},"district":{"key":"14523","name":"Vogtlandkreis","type":"Landkreis"},"federalState":{"key":"14","name":"Sachsen"}},{"name":"Unter dem Dorf","postalCode":"36110","locality":"Schlitz","municipality":{"key":"06535015","name":"Schlitz, Stadt","type":"Stadt"},"district":{"key":"06535","name":"Vogelsbergkreis","type":"Landkreis"},"federalState":{"key":"06","name":"Hessen"}},{"name":"Untere Burg","postalCode":"08538","locality":"Weischlitz","municipality":{"key":"14523450","name":"Weischlitz","type":"Kreisangehörige_Gemeinde"},"district":{"key":"14523","name":"Vogtlandkreis","type":"Landkreis"},"federalState":{"key":"14","name":"Sachsen"}},{"name":"Untergasse","postalCode":"36110","locality":"Schlitz","municipality":{"key":"06535015","name":"Schlitz, Stadt","type":"Stadt"},"district":{"key":"06535","name":"Vogelsbergkreis","type":"Landkreis"},"federalState":{"key":"06","name":"Hessen"}},{"name":"Vorstadt","postalCode":"08538","locality":"Weischlitz","municipality":{"key":"14523450","name":"Weischlitz","type":"Kreisangehörige_Gemeinde"},"district":{"key":"14523","name":"Vogtlandkreis","type":"Landkreis"},"federalState":{"key":"14","name":"Sachsen"}},{"name":"Wachhübel","postalCode":"08538","locality":"Weischlitz","municipality":{"key":"14523450","name":"Weischlitz","type":"Kreisangehörige_Gemeinde"},"district":{"key":"14523","name":"Vogtlandkreis","type":"Landkreis"},"federalState":{"key":"14","name":"Sachsen"}},{"name":"Waldblick","postalCode":"36110","locality":"Schlitz","municipality":{"key":"06535015","name":"Schlitz, Stadt","type":"Stadt"},"district":{"key":"06535","name":"Vogelsbergkreis","type":"Landkreis"},"federalState":{"key":"06","name":"Hessen"}},{"name":"Waldeckstr.","postalCode":"36110","locality":"Schlitz","municipality":{"key":"06535015","name":"Schlitz, Stadt","type":"Stadt"},"district":{"key":"06535","name":"Vogelsbergkreis","type":"Landkreis"},"federalState":{"key":"06","name":"Hessen"}},{"name":"Waldweg","postalCode":"08538","locality":"Weischlitz","municipality":{"key":"14523450","name":"Weischlitz","type":"Kreisangehörige_Gemeinde"},"district":{"key":"14523","name":"Vogtlandkreis","type":"Landkreis"},"federalState":{"key":"14","name":"Sachsen"}},{"name":"Wallstr.","postalCode":"08538","locality":"Weischlitz","municipality":{"key":"14523450","name":"Weischlitz","type":"Kreisangehörige_Gemeinde"},"district":{"key":"14523","name":"Vogtlandkreis","type":"Landkreis"},"federalState":{"key":"14","name":"Sachsen"}},{"name":"Wartbergweg","postalCode":"08538","locality":"Weischlitz","municipality":{"key":"14523450","name":"Weischlitz","type":"Kreisangehörige_Gemeinde"},"district":{"key":"14523","name":"Vogtlandkreis","type":"Landkreis"},"federalState":{"key":"14","name":"Sachsen"}},{"name":"Wasserweg","postalCode":"36110","locality":"Schlitz","municipality":{"key":"06535015","name":"Schlitz, Stadt","type":"Stadt"},"district":{"key":"06535","name":"Vogelsbergkreis","type":"Landkreis"},"federalState":{"key":"06","name":"Hessen"}},{"name":"Weg der Jugend","postalCode":"08538","locality":"Weischlitz","municipality":{"key":"14523450","name":"Weischlitz","type":"Kreisangehörige_Gemeinde"},"district":{"key":"14523","name":"Vogtlandkreis","type":"Landkreis"},"federalState":{"key":"14","name":"Sachsen"}},{"name":"Weischlitzer Str.","postalCode":"08538","locality":"Weischlitz","municipality":{"key":"14523450","name":"Weischlitz","type":"Kreisangehörige_Gemeinde"},"district":{"key":"14523","name":"Vogtlandkreis","type":"Landkreis"},"federalState":{"key":"14","name":"Sachsen"}},{"name":"Wetzloser Weg","postalCode":"36110","locality":"Schlitz","municipality":{"key":"06535015","name":"Schlitz, Stadt","type":"Stadt"},"district":{"key":"06535","name":"Vogelsbergkreis","type":"Landkreis"},"federalState":{"key":"06","name":"Hessen"}},{"name":"Wiesenburg","postalCode":"08538","locality":"Weischlitz","municipality":{"key":"14523450","name":"Weischlitz","type":"Kreisangehörige_Gemeinde"},"district":{"key":"14523","name":"Vogtlandkreis","type":"Landkreis"},"federalState":{"key":"14","name":"Sachsen"}},{"name":"Wiesenstr.","postalCode":"08538","locality":"Weischlitz","municipality":{"key":"14523450","name":"Weischlitz","type":"Kreisangehörige_Gemeinde"},"district":{"key":"14523","name":"Vogtlandkreis","type":"Landkreis"},"federalState":{"key":"14","name":"Sachsen"}},{"name":"Wiesenweg","postalCode":"36110","locality":"Schlitz","municipality":{"key":"06535015","name":"Schlitz, Stadt","type":"Stadt"},"district":{"key":"06535","name":"Vogelsbergkreis","type":"Landkreis"},"federalState":{"key":"06","name":"Hessen"}},{"name":"Willina","postalCode":"36110","locality":"Schlitz","municipality":{"key":"06535015","name":"Schlitz, Stadt","type":"Stadt"},"district":{"key":"06535","name":"Vogelsbergkreis","type":"Landkreis"},"federalState":{"key":"06","name":"Hessen"}},{"name":"Winkel","postalCode":"08538","locality":"Weischlitz","municipality":{"key":"14523450","name":"Weischlitz","type":"Kreisangehörige_Gemeinde"},"district":{"key":"14523","name":"Vogtlandkreis","type":"Landkreis"},"federalState":{"key":"14","name":"Sachsen"}},{"name":"Winkeleck","postalCode":"36110","locality":"Schlitz","municipality":{"key":"06535015","name":"Schlitz, Stadt","type":"Stadt"},"district":{"key":"06535","name":"Vogelsbergkreis","type":"Landkreis"},"federalState":{"key":"06","name":"Hessen"}},{"name":"Winkelweg","postalCode":"08538","locality":"Weischlitz","municipality":{"key":"14523450","name":"Weischlitz","type":"Kreisangehörige_Gemeinde"},"district":{"key":"14523","name":"Vogtlandkreis","type":"Landkreis"},"federalState":{"key":"14","name":"Sachsen"}},{"name":"Zehntacker","postalCode":"36110","locality":"Schlitz","municipality":{"key":"06535015","name":"Schlitz, Stadt","type":"Stadt"},"district":{"key":"06535","name":"Vogelsbergkreis","type":"Landkreis"},"federalState":{"key":"06","name":"Hessen"}},{"name":"Ziegeleiweg","postalCode":"08538","locality":"Weischlitz","municipality":{"key":"14523450","name":"Weischlitz","type":"Kreisangehörige_Gemeinde"},"district":{"key":"14523","name":"Vogtlandkreis","type":"Landkreis"},"federalState":{"key":"14","name":"Sachsen"}},{"name":"Zöberner Str.","postalCode":"08538","locality":"Weischlitz","municipality":{"key":"14523450","name":"Weischlitz","type":"Kreisangehörige_Gemeinde"},"district":{"key":"14523","name":"Vogtlandkreis","type":"Landkreis"},"federalState":{"key":"14","name":"Sachsen"}},{"name":"Zu den Eichen","postalCode":"36110","locality":"Schlitz","municipality":{"key":"06535015","name":"Schlitz, Stadt","type":"Stadt"},"district":{"key":"06535","name":"Vogelsbergkreis","type":"Landkreis"},"federalState":{"key":"06","name":"Hessen"}},{"name":"Zum Bahnhof","postalCode":"08538","locality":"Weischlitz","municipality":{"key":"14523450","name":"Weischlitz","type":"Kreisangehörige_Gemeinde"},"district":{"key":"14523","name":"Vogtlandkreis","type":"Landkreis"},"federalState":{"key":"14","name":"Sachsen"}},{"name":"Zum Fuldablick","postalCode":"36110","locality":"Schlitz","municipality":{"key":"06535015","name":"Schlitz, Stadt","type":"Stadt"},"district":{"key":"06535","name":"Vogelsbergkreis","type":"Landkreis"},"federalState":{"key":"06","name":"Hessen"}},{"name":"Zum Pfingstborn","postalCode":"36110","locality":"Schlitz","municipality":{"key":"06535015","name":"Schlitz, Stadt","type":"Stadt"},"district":{"key":"06535","name":"Vogelsbergkreis","type":"Landkreis"},"federalState":{"key":"06","name":"Hessen"}},{"name":"Zum Ritzenberg","postalCode":"36110","locality":"Schlitz","municipality":{"key":"06535015","name":"Schlitz, Stadt","type":"Stadt"},"district":{"key":"06535","name":"Vogelsbergkreis","type":"Landkreis"},"federalState":{"key":"06","name":"Hessen"}},{"name":"Zum Rotacker","postalCode":"36110","locality":"Schlitz","municipality":{"key":"06535015","name":"Schlitz, Stadt","type":"Stadt"},"district":{"key":"06535","name":"Vogelsbergkreis","type":"Landkreis"},"federalState":{"key":"06","name":"Hessen"}},{"name":"Zum Steg","postalCode":"36110","locality":"Schlitz","municipality":{"key":"06535015","name":"Schlitz, Stadt","type":"Stadt"},"district":{"key":"06535","name":"Vogelsbergkreis","type":"Landkreis"},"federalState":{"key":"06","name":"Hessen"}},{"name":"Zum Teichbach","postalCode":"08538","locality":"Weischlitz","municipality":{"key":"14523450","name":"Weischlitz","type":"Kreisangehörige_Gemeinde"},"district":{"key":"14523","name":"Vogtlandkreis","type":"Landkreis"},"federalState":{"key":"14","name":"Sachsen"}},{"name":"Zum Winkelacker","postalCode":"08538","locality":"Weischlitz","municipality":{"key":"14523450","name":"Weischlitz","type":"Kreisangehörige_Gemeinde"},"district":{"key":"14523","name":"Vogtlandkreis","type":"Landkreis"},"federalState":{"key":"14","name":"Sachsen"}},{"name":"Zur Claraquelle","postalCode":"08538","locality":"Weischlitz","municipality":{"key":"14523450","name":"Weischlitz","type":"Kreisangehörige_Gemeinde"},"district":{"key":"14523","name":"Vogtlandkreis","type":"Landkreis"},"federalState":{"key":"14","name":"Sachsen"}},{"name":"Zur Damnitz","postalCode":"08538","locality":"Weischlitz","municipality":{"key":"14523450","name":"Weischlitz","type":"Kreisangehörige_Gemeinde"},"district":{"key":"14523","name":"Vogtlandkreis","type":"Landkreis"},"federalState":{"key":"14","name":"Sachsen"}},{"name":"Zur Fuldamühle","postalCode":"36110","locality":"Schlitz","municipality":{"key":"06535015","name":"Schlitz, Stadt","type":"Stadt"},"district":{"key":"06535","name":"Vogelsbergkreis","type":"Landkreis"},"federalState":{"key":"06","name":"Hessen"}},{"name":"Zur Hehrmühle","postalCode":"36110","locality":"Schlitz","municipality":{"key":"06535015","name":"Schlitz, Stadt","type":"Stadt"},"district":{"key":"06535","name":"Vogelsbergkreis","type":"Landkreis"},"federalState":{"key":"06","name":"Hessen"}},{"name":"Zur Oberen Mühle","postalCode":"08538","locality":"Weischlitz","municipality":{"key":"14523450","name":"Weischlitz","type":"Kreisangehörige_Gemeinde"},"district":{"key":"14523","name":"Vogtlandkreis","type":"Landkreis"},"federalState":{"key":"14","name":"Sachsen"}},{"name":"Zur Pfaffenmach","postalCode":"36110","locality":"Schlitz","municipality":{"key":"06535015","name":"Schlitz, Stadt","type":"Stadt"},"district":{"key":"06535","name":"Vogelsbergkreis","type":"Landkreis"},"federalState":{"key":"06","name":"Hessen"}},{"name":"Zur Pirkmühle","postalCode":"08538","locality":"Weischlitz","municipality":{"key":"14523450","name":"Weischlitz","type":"Kreisangehörige_Gemeinde"},"district":{"key":"14523","name":"Vogtlandkreis","type":"Landkreis"},"federalState":{"key":"14","name":"Sachsen"}},{"name":"Zur Siedlung","postalCode":"08538","locality":"Weischlitz","municipality":{"key":"14523450","name":"Weischlitz","type":"Kreisangehörige_Gemeinde"},"district":{"key":"14523","name":"Vogtlandkreis","type":"Landkreis"},"federalState":{"key":"14","name":"Sachsen"}},{"name":"Zur Unteren Reuth","postalCode":"08538","locality":"Weischlitz","municipality":{"key":"14523450","name":"Weischlitz","type":"Kreisangehörige_Gemeinde"},"district":{"key":"14523","name":"Vogtlandkreis","type":"Landkreis"},"federalState":{"key":"14","name":"Sachsen"}},{"name":"Zur Weinleite","postalCode":"08538","locality":"Weischlitz","municipality":{"key":"14523450","name":"Weischlitz","type":"Kreisangehörige_Gemeinde"},"district":{"key":"14523","name":"Vogtlandkreis","type":"Landkreis"},"federalState":{"key":"14","name":"Sachsen"}},{"name":"Zur Zweiten Verschönerung","postalCode":"36110","locality":"Schlitz","municipality":{"key":"06535015","name":"Schlitz, Stadt","type":"Stadt"},"district":{"key":"06535","name":"Vogelsbergkreis","type":"Landkreis"},"federalState":{"key":"06","name":"Hessen"}},{"name":"Üllersgraben","postalCode":"36110","locality":"Schlitz","municipality":{"key":"06535015","name":"Schlitz, Stadt","type":"Stadt"},"district":{"key":"06535","name":"Vogelsbergkreis","type":"Landkreis"},"federalState":{"key":"06","name":"Hessen"}},{"name":"Üllershäuserweg","postalCode":"36110","locality":"Schlitz","municipality":{"key":"06535015","name":"Schlitz, Stadt","type":"Stadt"},"district":{"key":"06535","name":"Vogelsbergkreis","type":"Landkreis"},"federalState":{"key":"06","name":"Hessen"}},]