[{"key":"10194401","name":"Aegetsbühlweg","postalCode":"8492","locality":"Wila","commune":{"key":"181","name":"Wila","shortName":"Wila"},"district":{"key":"108","name":"Bezirk Pfäffikon"},"canton":{"key":"1","code":"ZH","name":"Zürich"},"status":"Real"},{"key":"10183751","name":"Aegetswil","postalCode":"8492","locality":"Wila","commune":{"key":"181","name":"Wila","shortName":"Wila"},"district":{"key":"108","name":"Bezirk Pfäffikon"},"canton":{"key":"1","code":"ZH","name":"Zürich"},"status":"Real"},{"key":"10000715","name":"Aegetswilerstrasse","postalCode":"8492","locality":"Wila","commune":{"key":"181","name":"Wila","shortName":"Wila"},"district":{"key":"108","name":"Bezirk Pfäffikon"},"canton":{"key":"1","code":"ZH","name":"Zürich"},"status":"Real"},{"key":"10084753","name":"Ahornweg","postalCode":"8492","locality":"Wila","commune":{"key":"181","name":"Wila","shortName":"Wila"},"district":{"key":"108","name":"Bezirk Pfäffikon"},"canton":{"key":"1","code":"ZH","name":"Zürich"},"status":"Real"},{"key":"10195101","name":"Alte Käferstrasse","postalCode":"8492","locality":"Wila","commune":{"key":"181","name":"Wila","shortName":"Wila"},"district":{"key":"108","name":"Bezirk Pfäffikon"},"canton":{"key":"1","code":"ZH","name":"Zürich"},"status":"Real"},{"key":"10194402","name":"Alte Ottenhuebstrasse","postalCode":"8492","locality":"Wila","commune":{"key":"181","name":"Wila","shortName":"Wila"},"district":{"key":"108","name":"Bezirk Pfäffikon"},"canton":{"key":"1","code":"ZH","name":"Zürich"},"status":"Real"},{"key":"10195102","name":"Alter Hochbuckweg","postalCode":"8492","locality":"Wila","commune":{"key":"181","name":"Wila","shortName":"Wila"},"district":{"key":"108","name":"Bezirk Pfäffikon"},"canton":{"key":"1","code":"ZH","name":"Zürich"},"status":"Real"},{"key":"10194469","name":"Armiholzweg","postalCode":"8492","locality":"Wila","commune":{"key":"181","name":"Wila","shortName":"Wila"},"district":{"key":"108","name":"Bezirk Pfäffikon"},"canton":{"key":"1","code":"ZH","name":"Zürich"},"status":"Real"},{"key":"10195178","name":"Arsbachstrasse","postalCode":"8492","locality":"Wila","commune":{"key":"181","name":"Wila","shortName":"Wila"},"district":{"key":"108","name":"Bezirk Pfäffikon"},"canton":{"key":"1","code":"ZH","name":"Zürich"},"status":"Real"},{"key":"10194470","name":"Arsbachweg","postalCode":"8492","locality":"Wila","commune":{"key":"181","name":"Wila","shortName":"Wila"},"district":{"key":"108","name":"Bezirk Pfäffikon"},"canton":{"key":"1","code":"ZH","name":"Zürich"},"status":"Real"},{"key":"10195103","name":"Auliweg","postalCode":"8492","locality":"Wila","commune":{"key":"181","name":"Wila","shortName":"Wila"},"district":{"key":"108","name":"Bezirk Pfäffikon"},"canton":{"key":"1","code":"ZH","name":"Zürich"},"status":"Real"},{"key":"10065566","name":"Bahndammstrasse","postalCode":"8492","locality":"Wila","commune":{"key":"181","name":"Wila","shortName":"Wila"},"district":{"key":"108","name":"Bezirk Pfäffikon"},"canton":{"key":"1","code":"ZH","name":"Zürich"},"status":"Real"},{"key":"10195179","name":"Bannetzrainweg","postalCode":"8492","locality":"Wila","commune":{"key":"181","name":"Wila","shortName":"Wila"},"district":{"key":"108","name":"Bezirk Pfäffikon"},"canton":{"key":"1","code":"ZH","name":"Zürich"},"status":"Real"},{"key":"10111518","name":"Birkenweg","postalCode":"8492","locality":"Wila","commune":{"key":"181","name":"Wila","shortName":"Wila"},"district":{"key":"108","name":"Bezirk Pfäffikon"},"canton":{"key":"1","code":"ZH","name":"Zürich"},"status":"Real"},{"key":"10052300","name":"Boden","postalCode":"8492","locality":"Wila","commune":{"key":"181","name":"Wila","shortName":"Wila"},"district":{"key":"108","name":"Bezirk Pfäffikon"},"canton":{"key":"1","code":"ZH","name":"Zürich"},"status":"Real"},{"key":"10195180","name":"Bodenweiherstrasse","postalCode":"8492","locality":"Wila","commune":{"key":"181","name":"Wila","shortName":"Wila"},"district":{"key":"108","name":"Bezirk Pfäffikon"},"canton":{"key":"1","code":"ZH","name":"Zürich"},"status":"Real"},{"key":"10194467","name":"Bogenhaus","postalCode":"8492","locality":"Wila","commune":{"key":"181","name":"Wila","shortName":"Wila"},"district":{"key":"108","name":"Bezirk Pfäffikon"},"canton":{"key":"1","code":"ZH","name":"Zürich"},"status":"Real"},{"key":"10195104","name":"Bogenhausstrasse","postalCode":"8492","locality":"Wila","commune":{"key":"181","name":"Wila","shortName":"Wila"},"district":{"key":"108","name":"Bezirk Pfäffikon"},"canton":{"key":"1","code":"ZH","name":"Zürich"},"status":"Real"},{"key":"10195181","name":"Bogenweg","postalCode":"8492","locality":"Wila","commune":{"key":"181","name":"Wila","shortName":"Wila"},"district":{"key":"108","name":"Bezirk Pfäffikon"},"canton":{"key":"1","code":"ZH","name":"Zürich"},"status":"Real"},{"key":"10194403","name":"Bränggenweg","postalCode":"8492","locality":"Wila","commune":{"key":"181","name":"Wila","shortName":"Wila"},"district":{"key":"108","name":"Bezirk Pfäffikon"},"canton":{"key":"1","code":"ZH","name":"Zürich"},"status":"Real"},{"key":"10194472","name":"Breitenmattweg","postalCode":"8492","locality":"Wila","commune":{"key":"181","name":"Wila","shortName":"Wila"},"district":{"key":"108","name":"Bezirk Pfäffikon"},"canton":{"key":"1","code":"ZH","name":"Zürich"},"status":"Real"},{"key":"10195105","name":"Breitiweg","postalCode":"8492","locality":"Wila","commune":{"key":"181","name":"Wila","shortName":"Wila"},"district":{"key":"108","name":"Bezirk Pfäffikon"},"canton":{"key":"1","code":"ZH","name":"Zürich"},"status":"Real"},{"key":"10000716","name":"Brenggau","postalCode":"8492","locality":"Wila","commune":{"key":"181","name":"Wila","shortName":"Wila"},"district":{"key":"108","name":"Bezirk Pfäffikon"},"canton":{"key":"1","code":"ZH","name":"Zürich"},"status":"Real"},{"key":"10195106","name":"Buechholzweg","postalCode":"8492","locality":"Wila","commune":{"key":"181","name":"Wila","shortName":"Wila"},"district":{"key":"108","name":"Bezirk Pfäffikon"},"canton":{"key":"1","code":"ZH","name":"Zürich"},"status":"Real"},{"key":"10000717","name":"Burg","postalCode":"8492","locality":"Wila","commune":{"key":"181","name":"Wila","shortName":"Wila"},"district":{"key":"108","name":"Bezirk Pfäffikon"},"canton":{"key":"1","code":"ZH","name":"Zürich"},"status":"Real"},{"key":"10195107","name":"Burgweg","postalCode":"8492","locality":"Wila","commune":{"key":"181","name":"Wila","shortName":"Wila"},"district":{"key":"108","name":"Bezirk Pfäffikon"},"canton":{"key":"1","code":"ZH","name":"Zürich"},"status":"Real"},{"key":"10194473","name":"Chäsbrunnenweg","postalCode":"8492","locality":"Wila","commune":{"key":"181","name":"Wila","shortName":"Wila"},"district":{"key":"108","name":"Bezirk Pfäffikon"},"canton":{"key":"1","code":"ZH","name":"Zürich"},"status":"Real"},{"key":"10195182","name":"Chilenholzweg","postalCode":"8492","locality":"Wila","commune":{"key":"181","name":"Wila","shortName":"Wila"},"district":{"key":"108","name":"Bezirk Pfäffikon"},"canton":{"key":"1","code":"ZH","name":"Zürich"},"status":"Real"},{"key":"10194396","name":"Chileweg","postalCode":"8492","locality":"Wila","commune":{"key":"181","name":"Wila","shortName":"Wila"},"district":{"key":"108","name":"Bezirk Pfäffikon"},"canton":{"key":"1","code":"ZH","name":"Zürich"},"status":"Real"},{"key":"10084754","name":"Eggelerstrasse","postalCode":"8492","locality":"Wila","commune":{"key":"181","name":"Wila","shortName":"Wila"},"district":{"key":"108","name":"Bezirk Pfäffikon"},"canton":{"key":"1","code":"ZH","name":"Zürich"},"status":"Real"},{"key":"10194397","name":"Eggelerweg","postalCode":"8492","locality":"Wila","commune":{"key":"181","name":"Wila","shortName":"Wila"},"district":{"key":"108","name":"Bezirk Pfäffikon"},"canton":{"key":"1","code":"ZH","name":"Zürich"},"status":"Real"},{"key":"10195183","name":"Eichbölweg","postalCode":"8492","locality":"Wila","commune":{"key":"181","name":"Wila","shortName":"Wila"},"district":{"key":"108","name":"Bezirk Pfäffikon"},"canton":{"key":"1","code":"ZH","name":"Zürich"},"status":"Real"},{"key":"10195184","name":"Eichbühlstrasse","postalCode":"8492","locality":"Wila","commune":{"key":"181","name":"Wila","shortName":"Wila"},"district":{"key":"108","name":"Bezirk Pfäffikon"},"canton":{"key":"1","code":"ZH","name":"Zürich"},"status":"Real"},{"key":"10106480","name":"Eichhaldenstrasse","postalCode":"8492","locality":"Wila","commune":{"key":"181","name":"Wila","shortName":"Wila"},"district":{"key":"108","name":"Bezirk Pfäffikon"},"canton":{"key":"1","code":"ZH","name":"Zürich"},"status":"Real"},{"key":"10195185","name":"Eichstrasse","postalCode":"8492","locality":"Wila","commune":{"key":"181","name":"Wila","shortName":"Wila"},"district":{"key":"108","name":"Bezirk Pfäffikon"},"canton":{"key":"1","code":"ZH","name":"Zürich"},"status":"Real"},{"key":"10000718","name":"Eilibergstrasse","postalCode":"8492","locality":"Wila","commune":{"key":"181","name":"Wila","shortName":"Wila"},"district":{"key":"108","name":"Bezirk Pfäffikon"},"canton":{"key":"1","code":"ZH","name":"Zürich"},"status":"Real"},{"key":"10195186","name":"Entenweg","postalCode":"8492","locality":"Wila","commune":{"key":"181","name":"Wila","shortName":"Wila"},"district":{"key":"108","name":"Bezirk Pfäffikon"},"canton":{"key":"1","code":"ZH","name":"Zürich"},"status":"Real"},{"key":"10000719","name":"Erlenweg","postalCode":"8492","locality":"Wila","commune":{"key":"181","name":"Wila","shortName":"Wila"},"district":{"key":"108","name":"Bezirk Pfäffikon"},"canton":{"key":"1","code":"ZH","name":"Zürich"},"status":"Real"},{"key":"10000720","name":"Espistrasse","postalCode":"8492","locality":"Wila","commune":{"key":"181","name":"Wila","shortName":"Wila"},"district":{"key":"108","name":"Bezirk Pfäffikon"},"canton":{"key":"1","code":"ZH","name":"Zürich"},"status":"Real"},{"key":"10084755","name":"Felseneggstrasse","postalCode":"8492","locality":"Wila","commune":{"key":"181","name":"Wila","shortName":"Wila"},"district":{"key":"108","name":"Bezirk Pfäffikon"},"canton":{"key":"1","code":"ZH","name":"Zürich"},"status":"Real"},{"key":"10194404","name":"Fluhweidweg","postalCode":"8492","locality":"Wila","commune":{"key":"181","name":"Wila","shortName":"Wila"},"district":{"key":"108","name":"Bezirk Pfäffikon"},"canton":{"key":"1","code":"ZH","name":"Zürich"},"status":"Real"},{"key":"10081266","name":"Freckmünd","postalCode":"8492","locality":"Wila","commune":{"key":"181","name":"Wila","shortName":"Wila"},"district":{"key":"108","name":"Bezirk Pfäffikon"},"canton":{"key":"1","code":"ZH","name":"Zürich"},"status":"Real"},{"key":"10000721","name":"Friedhofstrasse","postalCode":"8492","locality":"Wila","commune":{"key":"181","name":"Wila","shortName":"Wila"},"district":{"key":"108","name":"Bezirk Pfäffikon"},"canton":{"key":"1","code":"ZH","name":"Zürich"},"status":"Real"},{"key":"10104018","name":"Furrershaus","postalCode":"8492","locality":"Wila","commune":{"key":"181","name":"Wila","shortName":"Wila"},"district":{"key":"108","name":"Bezirk Pfäffikon"},"canton":{"key":"1","code":"ZH","name":"Zürich"},"status":"Real"},{"key":"10065567","name":"Gassackerstrasse","postalCode":"8492","locality":"Wila","commune":{"key":"181","name":"Wila","shortName":"Wila"},"district":{"key":"108","name":"Bezirk Pfäffikon"},"canton":{"key":"1","code":"ZH","name":"Zürich"},"status":"Real"},{"key":"10194405","name":"Geenstrasse","postalCode":"8492","locality":"Wila","commune":{"key":"181","name":"Wila","shortName":"Wila"},"district":{"key":"108","name":"Bezirk Pfäffikon"},"canton":{"key":"1","code":"ZH","name":"Zürich"},"status":"Real"},{"key":"10008597","name":"Geer","postalCode":"8492","locality":"Wila","commune":{"key":"181","name":"Wila","shortName":"Wila"},"district":{"key":"108","name":"Bezirk Pfäffikon"},"canton":{"key":"1","code":"ZH","name":"Zürich"},"status":"Real"},{"key":"10176626","name":"Geissackerstrasse","postalCode":"8492","locality":"Wila","commune":{"key":"181","name":"Wila","shortName":"Wila"},"district":{"key":"108","name":"Bezirk Pfäffikon"},"canton":{"key":"1","code":"ZH","name":"Zürich"},"status":"Real"},{"key":"10194474","name":"Geisseggstrasse","postalCode":"8492","locality":"Wila","commune":{"key":"181","name":"Wila","shortName":"Wila"},"district":{"key":"108","name":"Bezirk Pfäffikon"},"canton":{"key":"1","code":"ZH","name":"Zürich"},"status":"Real"},{"key":"10221525","name":"Geisseggtobelweg","postalCode":"8492","locality":"Wila","commune":{"key":"181","name":"Wila","shortName":"Wila"},"district":{"key":"108","name":"Bezirk Pfäffikon"},"canton":{"key":"1","code":"ZH","name":"Zürich"},"status":"Real"},{"key":"10182238","name":"Gerbistrasse","postalCode":"8492","locality":"Wila","commune":{"key":"181","name":"Wila","shortName":"Wila"},"district":{"key":"108","name":"Bezirk Pfäffikon"},"canton":{"key":"1","code":"ZH","name":"Zürich"},"status":"Real"},{"key":"10000722","name":"Ghöngg","postalCode":"8492","locality":"Wila","commune":{"key":"181","name":"Wila","shortName":"Wila"},"district":{"key":"108","name":"Bezirk Pfäffikon"},"canton":{"key":"1","code":"ZH","name":"Zürich"},"status":"Real"},{"key":"10194406","name":"Ghönggweg","postalCode":"8492","locality":"Wila","commune":{"key":"181","name":"Wila","shortName":"Wila"},"district":{"key":"108","name":"Bezirk Pfäffikon"},"canton":{"key":"1","code":"ZH","name":"Zürich"},"status":"Real"},{"key":"10007654","name":"Gosswil","postalCode":"8492","locality":"Wila","commune":{"key":"181","name":"Wila","shortName":"Wila"},"district":{"key":"108","name":"Bezirk Pfäffikon"},"canton":{"key":"1","code":"ZH","name":"Zürich"},"status":"Real"},{"key":"10195480","name":"Gosswilstrasse","postalCode":"8492","locality":"Wila","commune":{"key":"181","name":"Wila","shortName":"Wila"},"district":{"key":"108","name":"Bezirk Pfäffikon"},"canton":{"key":"1","code":"ZH","name":"Zürich"},"status":"Real"},{"key":"10195481","name":"Gosswilweg","postalCode":"8492","locality":"Wila","commune":{"key":"181","name":"Wila","shortName":"Wila"},"district":{"key":"108","name":"Bezirk Pfäffikon"},"canton":{"key":"1","code":"ZH","name":"Zürich"},"status":"Real"},{"key":"10195187","name":"Guyer-Zeller-Weg","postalCode":"8492","locality":"Wila","commune":{"key":"181","name":"Wila","shortName":"Wila"},"district":{"key":"108","name":"Bezirk Pfäffikon"},"canton":{"key":"1","code":"ZH","name":"Zürich"},"status":"Real"},{"key":"10195188","name":"Haldenweg","postalCode":"8492","locality":"Wila","commune":{"key":"181","name":"Wila","shortName":"Wila"},"district":{"key":"108","name":"Bezirk Pfäffikon"},"canton":{"key":"1","code":"ZH","name":"Zürich"},"status":"Real"},{"key":"10195189","name":"Haseneggweg","postalCode":"8492","locality":"Wila","commune":{"key":"181","name":"Wila","shortName":"Wila"},"district":{"key":"108","name":"Bezirk Pfäffikon"},"canton":{"key":"1","code":"ZH","name":"Zürich"},"status":"Real"},{"key":"10195483","name":"Hegiweg","postalCode":"8492","locality":"Wila","commune":{"key":"181","name":"Wila","shortName":"Wila"},"district":{"key":"108","name":"Bezirk Pfäffikon"},"canton":{"key":"1","code":"ZH","name":"Zürich"},"status":"Real"},{"key":"10195190","name":"Heissentalweg","postalCode":"8492","locality":"Wila","commune":{"key":"181","name":"Wila","shortName":"Wila"},"district":{"key":"108","name":"Bezirk Pfäffikon"},"canton":{"key":"1","code":"ZH","name":"Zürich"},"status":"Real"},{"key":"10194407","name":"Hensbergweg","postalCode":"8492","locality":"Wila","commune":{"key":"181","name":"Wila","shortName":"Wila"},"district":{"key":"108","name":"Bezirk Pfäffikon"},"canton":{"key":"1","code":"ZH","name":"Zürich"},"status":"Real"},{"key":"10194408","name":"Hertensteinweg","postalCode":"8492","locality":"Wila","commune":{"key":"181","name":"Wila","shortName":"Wila"},"district":{"key":"108","name":"Bezirk Pfäffikon"},"canton":{"key":"1","code":"ZH","name":"Zürich"},"status":"Real"},{"key":"10000723","name":"Hinterauli","postalCode":"8492","locality":"Wila","commune":{"key":"181","name":"Wila","shortName":"Wila"},"district":{"key":"108","name":"Bezirk Pfäffikon"},"canton":{"key":"1","code":"ZH","name":"Zürich"},"status":"Real"},{"key":"10195191","name":"Hinteraulistieg","postalCode":"8492","locality":"Wila","commune":{"key":"181","name":"Wila","shortName":"Wila"},"district":{"key":"108","name":"Bezirk Pfäffikon"},"canton":{"key":"1","code":"ZH","name":"Zürich"},"status":"Real"},{"key":"10125683","name":"Hintereich","postalCode":"8492","locality":"Wila","commune":{"key":"181","name":"Wila","shortName":"Wila"},"district":{"key":"108","name":"Bezirk Pfäffikon"},"canton":{"key":"1","code":"ZH","name":"Zürich"},"status":"Real"},{"key":"10195192","name":"Hinterholzweg","postalCode":"8492","locality":"Wila","commune":{"key":"181","name":"Wila","shortName":"Wila"},"district":{"key":"108","name":"Bezirk Pfäffikon"},"canton":{"key":"1","code":"ZH","name":"Zürich"},"status":"Real"},{"key":"10194468","name":"Hinzberg","postalCode":"8492","locality":"Wila","commune":{"key":"181","name":"Wila","shortName":"Wila"},"district":{"key":"108","name":"Bezirk Pfäffikon"},"canton":{"key":"1","code":"ZH","name":"Zürich"},"status":"Real"},{"key":"10195193","name":"Hinzbergholzweg","postalCode":"8492","locality":"Wila","commune":{"key":"181","name":"Wila","shortName":"Wila"},"district":{"key":"108","name":"Bezirk Pfäffikon"},"canton":{"key":"1","code":"ZH","name":"Zürich"},"status":"Real"},{"key":"10194409","name":"Hinzbergweg","postalCode":"8492","locality":"Wila","commune":{"key":"181","name":"Wila","shortName":"Wila"},"district":{"key":"108","name":"Bezirk Pfäffikon"},"canton":{"key":"1","code":"ZH","name":"Zürich"},"status":"Real"},{"key":"10195194","name":"Hochbuckweg","postalCode":"8492","locality":"Wila","commune":{"key":"181","name":"Wila","shortName":"Wila"},"district":{"key":"108","name":"Bezirk Pfäffikon"},"canton":{"key":"1","code":"ZH","name":"Zürich"},"status":"Real"},{"key":"10195108","name":"Höchweidweg","postalCode":"8492","locality":"Wila","commune":{"key":"181","name":"Wila","shortName":"Wila"},"district":{"key":"108","name":"Bezirk Pfäffikon"},"canton":{"key":"1","code":"ZH","name":"Zürich"},"status":"Real"},{"key":"10065568","name":"Hofstetten","postalCode":"8492","locality":"Wila","commune":{"key":"181","name":"Wila","shortName":"Wila"},"district":{"key":"108","name":"Bezirk Pfäffikon"},"canton":{"key":"1","code":"ZH","name":"Zürich"},"status":"Real"},{"key":"10195109","name":"Hofstettenstrasse","postalCode":"8492","locality":"Wila","commune":{"key":"181","name":"Wila","shortName":"Wila"},"district":{"key":"108","name":"Bezirk Pfäffikon"},"canton":{"key":"1","code":"ZH","name":"Zürich"},"status":"Real"},{"key":"10194410","name":"Hofstettenweg","postalCode":"8492","locality":"Wila","commune":{"key":"181","name":"Wila","shortName":"Wila"},"district":{"key":"108","name":"Bezirk Pfäffikon"},"canton":{"key":"1","code":"ZH","name":"Zürich"},"status":"Real"},{"key":"10194411","name":"Hofwiesenweg","postalCode":"8492","locality":"Wila","commune":{"key":"181","name":"Wila","shortName":"Wila"},"district":{"key":"108","name":"Bezirk Pfäffikon"},"canton":{"key":"1","code":"ZH","name":"Zürich"},"status":"Real"},{"key":"10111519","name":"Höhenstrasse","postalCode":"8492","locality":"Wila","commune":{"key":"181","name":"Wila","shortName":"Wila"},"district":{"key":"108","name":"Bezirk Pfäffikon"},"canton":{"key":"1","code":"ZH","name":"Zürich"},"status":"Real"},{"key":"10195175","name":"Höhenweg","postalCode":"8492","locality":"Wila","commune":{"key":"181","name":"Wila","shortName":"Wila"},"district":{"key":"108","name":"Bezirk Pfäffikon"},"canton":{"key":"1","code":"ZH","name":"Zürich"},"status":"Real"},{"key":"10195195","name":"Höhstrasse","postalCode":"8492","locality":"Wila","commune":{"key":"181","name":"Wila","shortName":"Wila"},"district":{"key":"108","name":"Bezirk Pfäffikon"},"canton":{"key":"1","code":"ZH","name":"Zürich"},"status":"Real"},{"key":"10195196","name":"Höhweg","postalCode":"8492","locality":"Wila","commune":{"key":"181","name":"Wila","shortName":"Wila"},"district":{"key":"108","name":"Bezirk Pfäffikon"},"canton":{"key":"1","code":"ZH","name":"Zürich"},"status":"Real"},{"key":"10084756","name":"Huebwiesstrasse","postalCode":"8492","locality":"Wila","commune":{"key":"181","name":"Wila","shortName":"Wila"},"district":{"key":"108","name":"Bezirk Pfäffikon"},"canton":{"key":"1","code":"ZH","name":"Zürich"},"status":"Real"},{"key":"10195197","name":"Hungersbüelweg","postalCode":"8492","locality":"Wila","commune":{"key":"181","name":"Wila","shortName":"Wila"},"district":{"key":"108","name":"Bezirk Pfäffikon"},"canton":{"key":"1","code":"ZH","name":"Zürich"},"status":"Real"},{"key":"10000724","name":"Huswisstrasse","postalCode":"8492","locality":"Wila","commune":{"key":"181","name":"Wila","shortName":"Wila"},"district":{"key":"108","name":"Bezirk Pfäffikon"},"canton":{"key":"1","code":"ZH","name":"Zürich"},"status":"Real"},{"key":"10195490","name":"Hüttenwegli","postalCode":"8492","locality":"Wila","commune":{"key":"181","name":"Wila","shortName":"Wila"},"district":{"key":"108","name":"Bezirk Pfäffikon"},"canton":{"key":"1","code":"ZH","name":"Zürich"},"status":"Real"},{"key":"10194412","name":"Hüttlibachweg","postalCode":"8492","locality":"Wila","commune":{"key":"181","name":"Wila","shortName":"Wila"},"district":{"key":"108","name":"Bezirk Pfäffikon"},"canton":{"key":"1","code":"ZH","name":"Zürich"},"status":"Real"},{"key":"10000725","name":"Jakobsbrunnenstrasse","postalCode":"8492","locality":"Wila","commune":{"key":"181","name":"Wila","shortName":"Wila"},"district":{"key":"108","name":"Bezirk Pfäffikon"},"canton":{"key":"1","code":"ZH","name":"Zürich"},"status":"Real"},{"key":"10195110","name":"Jakobsbrunnenweg","postalCode":"8492","locality":"Wila","commune":{"key":"181","name":"Wila","shortName":"Wila"},"district":{"key":"108","name":"Bezirk Pfäffikon"},"canton":{"key":"1","code":"ZH","name":"Zürich"},"status":"Real"},{"key":"10110103","name":"Kapell","postalCode":"8492","locality":"Wila","commune":{"key":"181","name":"Wila","shortName":"Wila"},"district":{"key":"108","name":"Bezirk Pfäffikon"},"canton":{"key":"1","code":"ZH","name":"Zürich"},"status":"Real"},{"key":"10116874","name":"Katzenbachstrasse","postalCode":"8492","locality":"Wila","commune":{"key":"181","name":"Wila","shortName":"Wila"},"district":{"key":"108","name":"Bezirk Pfäffikon"},"canton":{"key":"1","code":"ZH","name":"Zürich"},"status":"Real"},{"key":"10184064","name":"Kellersacker","postalCode":"8492","locality":"Wila","commune":{"key":"181","name":"Wila","shortName":"Wila"},"district":{"key":"108","name":"Bezirk Pfäffikon"},"canton":{"key":"1","code":"ZH","name":"Zürich"},"status":"Real"},{"key":"10195492","name":"Kellersackerweg","postalCode":"8492","locality":"Wila","commune":{"key":"181","name":"Wila","shortName":"Wila"},"district":{"key":"108","name":"Bezirk Pfäffikon"},"canton":{"key":"1","code":"ZH","name":"Zürich"},"status":"Real"},{"key":"10195111","name":"Kesselrietstrasse","postalCode":"8492","locality":"Wila","commune":{"key":"181","name":"Wila","shortName":"Wila"},"district":{"key":"108","name":"Bezirk Pfäffikon"},"canton":{"key":"1","code":"ZH","name":"Zürich"},"status":"Real"},{"key":"10195112","name":"Kohlackerweg","postalCode":"8492","locality":"Wila","commune":{"key":"181","name":"Wila","shortName":"Wila"},"district":{"key":"108","name":"Bezirk Pfäffikon"},"canton":{"key":"1","code":"ZH","name":"Zürich"},"status":"Real"},{"key":"10084757","name":"Kugelgasse","postalCode":"8492","locality":"Wila","commune":{"key":"181","name":"Wila","shortName":"Wila"},"district":{"key":"108","name":"Bezirk Pfäffikon"},"canton":{"key":"1","code":"ZH","name":"Zürich"},"status":"Real"},{"key":"10195198","name":"Lauetweg","postalCode":"8492","locality":"Wila","commune":{"key":"181","name":"Wila","shortName":"Wila"},"district":{"key":"108","name":"Bezirk Pfäffikon"},"canton":{"key":"1","code":"ZH","name":"Zürich"},"status":"Real"},{"key":"10194398","name":"Lindenstieg","postalCode":"8492","locality":"Wila","commune":{"key":"181","name":"Wila","shortName":"Wila"},"district":{"key":"108","name":"Bezirk Pfäffikon"},"canton":{"key":"1","code":"ZH","name":"Zürich"},"status":"Real"},{"key":"10000726","name":"Lindenwiese","postalCode":"8492","locality":"Wila","commune":{"key":"181","name":"Wila","shortName":"Wila"},"district":{"key":"108","name":"Bezirk Pfäffikon"},"canton":{"key":"1","code":"ZH","name":"Zürich"},"status":"Real"},{"key":"10121824","name":"Loch","postalCode":"8492","locality":"Wila","commune":{"key":"181","name":"Wila","shortName":"Wila"},"district":{"key":"108","name":"Bezirk Pfäffikon"},"canton":{"key":"1","code":"ZH","name":"Zürich"},"status":"Real"},{"key":"10000727","name":"Lochbachweg","postalCode":"8492","locality":"Wila","commune":{"key":"181","name":"Wila","shortName":"Wila"},"district":{"key":"108","name":"Bezirk Pfäffikon"},"canton":{"key":"1","code":"ZH","name":"Zürich"},"status":"Real"},{"key":"10194413","name":"Lochfussweg","postalCode":"8492","locality":"Wila","commune":{"key":"181","name":"Wila","shortName":"Wila"},"district":{"key":"108","name":"Bezirk Pfäffikon"},"canton":{"key":"1","code":"ZH","name":"Zürich"},"status":"Real"},{"key":"10211924","name":"Lochweg","postalCode":"8492","locality":"Wila","commune":{"key":"181","name":"Wila","shortName":"Wila"},"district":{"key":"108","name":"Bezirk Pfäffikon"},"canton":{"key":"1","code":"ZH","name":"Zürich"},"status":"Real"},{"key":"10151376","name":"Lochweidli","postalCode":"8492","locality":"Wila","commune":{"key":"181","name":"Wila","shortName":"Wila"},"district":{"key":"108","name":"Bezirk Pfäffikon"},"canton":{"key":"1","code":"ZH","name":"Zürich"},"status":"Real"},{"key":"10194414","name":"Lochweidliweg","postalCode":"8492","locality":"Wila","commune":{"key":"181","name":"Wila","shortName":"Wila"},"district":{"key":"108","name":"Bezirk Pfäffikon"},"canton":{"key":"1","code":"ZH","name":"Zürich"},"status":"Real"},{"key":"10194415","name":"Lochweidweg","postalCode":"8492","locality":"Wila","commune":{"key":"181","name":"Wila","shortName":"Wila"},"district":{"key":"108","name":"Bezirk Pfäffikon"},"canton":{"key":"1","code":"ZH","name":"Zürich"},"status":"Real"},{"key":"10195113","name":"Lochwiesweg","postalCode":"8492","locality":"Wila","commune":{"key":"181","name":"Wila","shortName":"Wila"},"district":{"key":"108","name":"Bezirk Pfäffikon"},"canton":{"key":"1","code":"ZH","name":"Zürich"},"status":"Real"},{"key":"10195114","name":"Lohhaldenweg","postalCode":"8492","locality":"Wila","commune":{"key":"181","name":"Wila","shortName":"Wila"},"district":{"key":"108","name":"Bezirk Pfäffikon"},"canton":{"key":"1","code":"ZH","name":"Zürich"},"status":"Real"},{"key":"10187953","name":"Looackerstrasse","postalCode":"8492","locality":"Wila","commune":{"key":"181","name":"Wila","shortName":"Wila"},"district":{"key":"108","name":"Bezirk Pfäffikon"},"canton":{"key":"1","code":"ZH","name":"Zürich"},"status":"Real"},{"key":"10084758","name":"Manzenhub","postalCode":"8492","locality":"Wila","commune":{"key":"181","name":"Wila","shortName":"Wila"},"district":{"key":"108","name":"Bezirk Pfäffikon"},"canton":{"key":"1","code":"ZH","name":"Zürich"},"status":"Real"},{"key":"10195509","name":"Manzenhubstrasse","postalCode":"8492","locality":"Wila","commune":{"key":"181","name":"Wila","shortName":"Wila"},"district":{"key":"108","name":"Bezirk Pfäffikon"},"canton":{"key":"1","code":"ZH","name":"Zürich"},"status":"Real"},{"key":"10195115","name":"Manzenhubstrasse","postalCode":"8492","locality":"Wila","commune":{"key":"181","name":"Wila","shortName":"Wila"},"district":{"key":"108","name":"Bezirk Pfäffikon"},"canton":{"key":"1","code":"ZH","name":"Zürich"},"status":"Real"},{"key":"10195199","name":"Martinsacherweg","postalCode":"8492","locality":"Wila","commune":{"key":"181","name":"Wila","shortName":"Wila"},"district":{"key":"108","name":"Bezirk Pfäffikon"},"canton":{"key":"1","code":"ZH","name":"Zürich"},"status":"Real"},{"key":"10176627","name":"Mühleweiherweg","postalCode":"8492","locality":"Wila","commune":{"key":"181","name":"Wila","shortName":"Wila"},"district":{"key":"108","name":"Bezirk Pfäffikon"},"canton":{"key":"1","code":"ZH","name":"Zürich"},"status":"Real"},{"key":"10194416","name":"Münzweg","postalCode":"8492","locality":"Wila","commune":{"key":"181","name":"Wila","shortName":"Wila"},"district":{"key":"108","name":"Bezirk Pfäffikon"},"canton":{"key":"1","code":"ZH","name":"Zürich"},"status":"Real"},{"key":"10195176","name":"Niderwisweg","postalCode":"8492","locality":"Wila","commune":{"key":"181","name":"Wila","shortName":"Wila"},"district":{"key":"108","name":"Bezirk Pfäffikon"},"canton":{"key":"1","code":"ZH","name":"Zürich"},"status":"Real"},{"key":"10084759","name":"Oberackerstrasse","postalCode":"8492","locality":"Wila","commune":{"key":"181","name":"Wila","shortName":"Wila"},"district":{"key":"108","name":"Bezirk Pfäffikon"},"canton":{"key":"1","code":"ZH","name":"Zürich"},"status":"Real"},{"key":"10000728","name":"Obere Kesselrietstrasse","postalCode":"8492","locality":"Wila","commune":{"key":"181","name":"Wila","shortName":"Wila"},"district":{"key":"108","name":"Bezirk Pfäffikon"},"canton":{"key":"1","code":"ZH","name":"Zürich"},"status":"Real"},{"key":"10000729","name":"Ottenhub","postalCode":"8492","locality":"Wila","commune":{"key":"181","name":"Wila","shortName":"Wila"},"district":{"key":"108","name":"Bezirk Pfäffikon"},"canton":{"key":"1","code":"ZH","name":"Zürich"},"status":"Real"},{"key":"10195116","name":"Ottenhubstrasse","postalCode":"8492","locality":"Wila","commune":{"key":"181","name":"Wila","shortName":"Wila"},"district":{"key":"108","name":"Bezirk Pfäffikon"},"canton":{"key":"1","code":"ZH","name":"Zürich"},"status":"Real"},{"key":"10193846","name":"Paradiesliweg","postalCode":"8492","locality":"Wila","commune":{"key":"181","name":"Wila","shortName":"Wila"},"district":{"key":"108","name":"Bezirk Pfäffikon"},"canton":{"key":"1","code":"ZH","name":"Zürich"},"status":"Real"},{"key":"10123024","name":"Pfaffberg","postalCode":"8492","locality":"Wila","commune":{"key":"181","name":"Wila","shortName":"Wila"},"district":{"key":"108","name":"Bezirk Pfäffikon"},"canton":{"key":"1","code":"ZH","name":"Zürich"},"status":"Real"},{"key":"10195200","name":"Pfaffbergweg","postalCode":"8492","locality":"Wila","commune":{"key":"181","name":"Wila","shortName":"Wila"},"district":{"key":"108","name":"Bezirk Pfäffikon"},"canton":{"key":"1","code":"ZH","name":"Zürich"},"status":"Real"},{"key":"10195117","name":"Pulvermühleweg","postalCode":"8492","locality":"Wila","commune":{"key":"181","name":"Wila","shortName":"Wila"},"district":{"key":"108","name":"Bezirk Pfäffikon"},"canton":{"key":"1","code":"ZH","name":"Zürich"},"status":"Real"},{"key":"10000730","name":"Püntstrasse","postalCode":"8492","locality":"Wila","commune":{"key":"181","name":"Wila","shortName":"Wila"},"district":{"key":"108","name":"Bezirk Pfäffikon"},"canton":{"key":"1","code":"ZH","name":"Zürich"},"status":"Real"},{"key":"10195118","name":"Rainweg","postalCode":"8492","locality":"Wila","commune":{"key":"181","name":"Wila","shortName":"Wila"},"district":{"key":"108","name":"Bezirk Pfäffikon"},"canton":{"key":"1","code":"ZH","name":"Zürich"},"status":"Real"},{"key":"10195119","name":"Ratzweg","postalCode":"8492","locality":"Wila","commune":{"key":"181","name":"Wila","shortName":"Wila"},"district":{"key":"108","name":"Bezirk Pfäffikon"},"canton":{"key":"1","code":"ZH","name":"Zürich"},"status":"Real"},{"key":"10193847","name":"Reinisbachweg","postalCode":"8492","locality":"Wila","commune":{"key":"181","name":"Wila","shortName":"Wila"},"district":{"key":"108","name":"Bezirk Pfäffikon"},"canton":{"key":"1","code":"ZH","name":"Zürich"},"status":"Real"},{"key":"10195201","name":"Rodweidweg","postalCode":"8492","locality":"Wila","commune":{"key":"181","name":"Wila","shortName":"Wila"},"district":{"key":"108","name":"Bezirk Pfäffikon"},"canton":{"key":"1","code":"ZH","name":"Zürich"},"status":"Real"},{"key":"10084760","name":"Rosenbergstrasse","postalCode":"8492","locality":"Wila","commune":{"key":"181","name":"Wila","shortName":"Wila"},"district":{"key":"108","name":"Bezirk Pfäffikon"},"canton":{"key":"1","code":"ZH","name":"Zürich"},"status":"Real"},{"key":"10194466","name":"Rosenbergweg","postalCode":"8492","locality":"Wila","commune":{"key":"181","name":"Wila","shortName":"Wila"},"district":{"key":"108","name":"Bezirk Pfäffikon"},"canton":{"key":"1","code":"ZH","name":"Zürich"},"status":"Real"},{"key":"10052302","name":"Rosengarten","postalCode":"8492","locality":"Wila","commune":{"key":"181","name":"Wila","shortName":"Wila"},"district":{"key":"108","name":"Bezirk Pfäffikon"},"canton":{"key":"1","code":"ZH","name":"Zürich"},"status":"Real"},{"key":"10194475","name":"Rotensteinweg","postalCode":"8492","locality":"Wila","commune":{"key":"181","name":"Wila","shortName":"Wila"},"district":{"key":"108","name":"Bezirk Pfäffikon"},"canton":{"key":"1","code":"ZH","name":"Zürich"},"status":"Real"},{"key":"10065569","name":"Rouss","postalCode":"8492","locality":"Wila","commune":{"key":"181","name":"Wila","shortName":"Wila"},"district":{"key":"108","name":"Bezirk Pfäffikon"},"canton":{"key":"1","code":"ZH","name":"Zürich"},"status":"Real"},{"key":"10194417","name":"Roussstrasse","postalCode":"8492","locality":"Wila","commune":{"key":"181","name":"Wila","shortName":"Wila"},"district":{"key":"108","name":"Bezirk Pfäffikon"},"canton":{"key":"1","code":"ZH","name":"Zürich"},"status":"Real"},{"key":"10194418","name":"Saalstrasse","postalCode":"8492","locality":"Wila","commune":{"key":"181","name":"Wila","shortName":"Wila"},"district":{"key":"108","name":"Bezirk Pfäffikon"},"canton":{"key":"1","code":"ZH","name":"Zürich"},"status":"Real"},{"key":"10194419","name":"Sackbergweg","postalCode":"8492","locality":"Wila","commune":{"key":"181","name":"Wila","shortName":"Wila"},"district":{"key":"108","name":"Bezirk Pfäffikon"},"canton":{"key":"1","code":"ZH","name":"Zürich"},"status":"Real"},{"key":"10193848","name":"Salztobelstrasse","postalCode":"8492","locality":"Wila","commune":{"key":"181","name":"Wila","shortName":"Wila"},"district":{"key":"108","name":"Bezirk Pfäffikon"},"canton":{"key":"1","code":"ZH","name":"Zürich"},"status":"Real"},{"key":"10000731","name":"Schalchenstrasse","postalCode":"8492","locality":"Wila","commune":{"key":"181","name":"Wila","shortName":"Wila"},"district":{"key":"108","name":"Bezirk Pfäffikon"},"canton":{"key":"1","code":"ZH","name":"Zürich"},"status":"Real"},{"key":"10193849","name":"Schärerswisliweg","postalCode":"8492","locality":"Wila","commune":{"key":"181","name":"Wila","shortName":"Wila"},"district":{"key":"108","name":"Bezirk Pfäffikon"},"canton":{"key":"1","code":"ZH","name":"Zürich"},"status":"Real"},{"key":"10193850","name":"Schlossbergweg","postalCode":"8492","locality":"Wila","commune":{"key":"181","name":"Wila","shortName":"Wila"},"district":{"key":"108","name":"Bezirk Pfäffikon"},"canton":{"key":"1","code":"ZH","name":"Zürich"},"status":"Real"},{"key":"10194420","name":"Schlossweg","postalCode":"8492","locality":"Wila","commune":{"key":"181","name":"Wila","shortName":"Wila"},"district":{"key":"108","name":"Bezirk Pfäffikon"},"canton":{"key":"1","code":"ZH","name":"Zürich"},"status":"Real"},{"key":"10194421","name":"Schlossweidweg","postalCode":"8492","locality":"Wila","commune":{"key":"181","name":"Wila","shortName":"Wila"},"district":{"key":"108","name":"Bezirk Pfäffikon"},"canton":{"key":"1","code":"ZH","name":"Zürich"},"status":"Real"},{"key":"10195745","name":"Schmidrütistrasse","postalCode":"8492","locality":"Wila","commune":{"key":"181","name":"Wila","shortName":"Wila"},"district":{"key":"108","name":"Bezirk Pfäffikon"},"canton":{"key":"1","code":"ZH","name":"Zürich"},"status":"Real"},{"key":"10054577","name":"Schochenstrasse","postalCode":"8492","locality":"Wila","commune":{"key":"181","name":"Wila","shortName":"Wila"},"district":{"key":"108","name":"Bezirk Pfäffikon"},"canton":{"key":"1","code":"ZH","name":"Zürich"},"status":"Real"},{"key":"10193851","name":"Schuepisweg","postalCode":"8492","locality":"Wila","commune":{"key":"181","name":"Wila","shortName":"Wila"},"district":{"key":"108","name":"Bezirk Pfäffikon"},"canton":{"key":"1","code":"ZH","name":"Zürich"},"status":"Real"},{"key":"10193852","name":"Schuepiswisweg","postalCode":"8492","locality":"Wila","commune":{"key":"181","name":"Wila","shortName":"Wila"},"district":{"key":"108","name":"Bezirk Pfäffikon"},"canton":{"key":"1","code":"ZH","name":"Zürich"},"status":"Real"},{"key":"10127969","name":"Schuppis","postalCode":"8492","locality":"Wila","commune":{"key":"181","name":"Wila","shortName":"Wila"},"district":{"key":"108","name":"Bezirk Pfäffikon"},"canton":{"key":"1","code":"ZH","name":"Zürich"},"status":"Real"},{"key":"10066230","name":"Schützenhausweg","postalCode":"8492","locality":"Wila","commune":{"key":"181","name":"Wila","shortName":"Wila"},"district":{"key":"108","name":"Bezirk Pfäffikon"},"canton":{"key":"1","code":"ZH","name":"Zürich"},"status":"Real"},{"key":"10084761","name":"Schweissrütistrasse","postalCode":"8492","locality":"Wila","commune":{"key":"181","name":"Wila","shortName":"Wila"},"district":{"key":"108","name":"Bezirk Pfäffikon"},"canton":{"key":"1","code":"ZH","name":"Zürich"},"status":"Real"},{"key":"10125684","name":"Sengi","postalCode":"8492","locality":"Wila","commune":{"key":"181","name":"Wila","shortName":"Wila"},"district":{"key":"108","name":"Bezirk Pfäffikon"},"canton":{"key":"1","code":"ZH","name":"Zürich"},"status":"Real"},{"key":"10195202","name":"Sengistrasse","postalCode":"8492","locality":"Wila","commune":{"key":"181","name":"Wila","shortName":"Wila"},"district":{"key":"108","name":"Bezirk Pfäffikon"},"canton":{"key":"1","code":"ZH","name":"Zürich"},"status":"Real"},{"key":"10195761","name":"Sengistrasse","postalCode":"8492","locality":"Wila","commune":{"key":"181","name":"Wila","shortName":"Wila"},"district":{"key":"108","name":"Bezirk Pfäffikon"},"canton":{"key":"1","code":"ZH","name":"Zürich"},"status":"Real"},{"key":"10195177","name":"Sennenhaus","postalCode":"8492","locality":"Wila","commune":{"key":"181","name":"Wila","shortName":"Wila"},"district":{"key":"108","name":"Bezirk Pfäffikon"},"canton":{"key":"1","code":"ZH","name":"Zürich"},"status":"Real"},{"key":"10193853","name":"Sennenhausstrasse","postalCode":"8492","locality":"Wila","commune":{"key":"181","name":"Wila","shortName":"Wila"},"district":{"key":"108","name":"Bezirk Pfäffikon"},"canton":{"key":"1","code":"ZH","name":"Zürich"},"status":"Real"},{"key":"10193854","name":"Sitzbergstrasse","postalCode":"8492","locality":"Wila","commune":{"key":"181","name":"Wila","shortName":"Wila"},"district":{"key":"108","name":"Bezirk Pfäffikon"},"canton":{"key":"1","code":"ZH","name":"Zürich"},"status":"Real"},{"key":"10000732","name":"Sommerau","postalCode":"8492","locality":"Wila","commune":{"key":"181","name":"Wila","shortName":"Wila"},"district":{"key":"108","name":"Bezirk Pfäffikon"},"canton":{"key":"1","code":"ZH","name":"Zürich"},"status":"Real"},{"key":"10176628","name":"Sommeraustrasse","postalCode":"8492","locality":"Wila","commune":{"key":"181","name":"Wila","shortName":"Wila"},"district":{"key":"108","name":"Bezirk Pfäffikon"},"canton":{"key":"1","code":"ZH","name":"Zürich"},"status":"Real"},{"key":"10054578","name":"Stationsstrasse","postalCode":"8492","locality":"Wila","commune":{"key":"181","name":"Wila","shortName":"Wila"},"district":{"key":"108","name":"Bezirk Pfäffikon"},"canton":{"key":"1","code":"ZH","name":"Zürich"},"status":"Real"},{"key":"10193855","name":"Steigstrasse","postalCode":"8492","locality":"Wila","commune":{"key":"181","name":"Wila","shortName":"Wila"},"district":{"key":"108","name":"Bezirk Pfäffikon"},"canton":{"key":"1","code":"ZH","name":"Zürich"},"status":"Real"},{"key":"10195100","name":"Steinen","postalCode":"8492","locality":"Wila","commune":{"key":"181","name":"Wila","shortName":"Wila"},"district":{"key":"108","name":"Bezirk Pfäffikon"},"canton":{"key":"1","code":"ZH","name":"Zürich"},"status":"Real"},{"key":"10195752","name":"Steinenbachstrasse","postalCode":"8492","locality":"Wila","commune":{"key":"181","name":"Wila","shortName":"Wila"},"district":{"key":"108","name":"Bezirk Pfäffikon"},"canton":{"key":"1","code":"ZH","name":"Zürich"},"status":"Real"},{"key":"10195203","name":"Steinenbachstrasse","postalCode":"8492","locality":"Wila","commune":{"key":"181","name":"Wila","shortName":"Wila"},"district":{"key":"108","name":"Bezirk Pfäffikon"},"canton":{"key":"1","code":"ZH","name":"Zürich"},"status":"Real"},{"key":"10195753","name":"Steinenbergweg","postalCode":"8492","locality":"Wila","commune":{"key":"181","name":"Wila","shortName":"Wila"},"district":{"key":"108","name":"Bezirk Pfäffikon"},"canton":{"key":"1","code":"ZH","name":"Zürich"},"status":"Real"},{"key":"10194399","name":"Stierweid","postalCode":"8492","locality":"Wila","commune":{"key":"181","name":"Wila","shortName":"Wila"},"district":{"key":"108","name":"Bezirk Pfäffikon"},"canton":{"key":"1","code":"ZH","name":"Zürich"},"status":"Real"},{"key":"10111520","name":"Strählgasse","postalCode":"8492","locality":"Wila","commune":{"key":"181","name":"Wila","shortName":"Wila"},"district":{"key":"108","name":"Bezirk Pfäffikon"},"canton":{"key":"1","code":"ZH","name":"Zürich"},"status":"Real"},{"key":"10194422","name":"Stutzenrütistrasse","postalCode":"8492","locality":"Wila","commune":{"key":"181","name":"Wila","shortName":"Wila"},"district":{"key":"108","name":"Bezirk Pfäffikon"},"canton":{"key":"1","code":"ZH","name":"Zürich"},"status":"Real"},{"key":"10081267","name":"Tablat","postalCode":"8492","locality":"Wila","commune":{"key":"181","name":"Wila","shortName":"Wila"},"district":{"key":"108","name":"Bezirk Pfäffikon"},"canton":{"key":"1","code":"ZH","name":"Zürich"},"status":"Real"},{"key":"10195754","name":"Tablaterstrasse","postalCode":"8492","locality":"Wila","commune":{"key":"181","name":"Wila","shortName":"Wila"},"district":{"key":"108","name":"Bezirk Pfäffikon"},"canton":{"key":"1","code":"ZH","name":"Zürich"},"status":"Real"},{"key":"10195762","name":"Tablatstrasse","postalCode":"8492","locality":"Wila","commune":{"key":"181","name":"Wila","shortName":"Wila"},"district":{"key":"108","name":"Bezirk Pfäffikon"},"canton":{"key":"1","code":"ZH","name":"Zürich"},"status":"Real"},{"key":"10084762","name":"Tablatstrasse","postalCode":"8492","locality":"Wila","commune":{"key":"181","name":"Wila","shortName":"Wila"},"district":{"key":"108","name":"Bezirk Pfäffikon"},"canton":{"key":"1","code":"ZH","name":"Zürich"},"status":"Real"},{"key":"10120784","name":"Talau","postalCode":"8492","locality":"Wila","commune":{"key":"181","name":"Wila","shortName":"Wila"},"district":{"key":"108","name":"Bezirk Pfäffikon"},"canton":{"key":"1","code":"ZH","name":"Zürich"},"status":"Real"},{"key":"10194395","name":"Talblickstrasse","postalCode":"8492","locality":"Wila","commune":{"key":"181","name":"Wila","shortName":"Wila"},"district":{"key":"108","name":"Bezirk Pfäffikon"},"canton":{"key":"1","code":"ZH","name":"Zürich"},"status":"Real"},{"key":"10000734","name":"Talgarten","postalCode":"8492","locality":"Wila","commune":{"key":"181","name":"Wila","shortName":"Wila"},"district":{"key":"108","name":"Bezirk Pfäffikon"},"canton":{"key":"1","code":"ZH","name":"Zürich"},"status":"Real"},{"key":"10052304","name":"Tannau","postalCode":"8492","locality":"Wila","commune":{"key":"181","name":"Wila","shortName":"Wila"},"district":{"key":"108","name":"Bezirk Pfäffikon"},"canton":{"key":"1","code":"ZH","name":"Zürich"},"status":"Real"},{"key":"10195205","name":"Toniwiesweg","postalCode":"8492","locality":"Wila","commune":{"key":"181","name":"Wila","shortName":"Wila"},"district":{"key":"108","name":"Bezirk Pfäffikon"},"canton":{"key":"1","code":"ZH","name":"Zürich"},"status":"Real"},{"key":"10195206","name":"Tösseggstrasse","postalCode":"8492","locality":"Wila","commune":{"key":"181","name":"Wila","shortName":"Wila"},"district":{"key":"108","name":"Bezirk Pfäffikon"},"canton":{"key":"1","code":"ZH","name":"Zürich"},"status":"Real"},{"key":"10000735","name":"Tösstalstrasse","postalCode":"8492","locality":"Wila","commune":{"key":"181","name":"Wila","shortName":"Wila"},"district":{"key":"108","name":"Bezirk Pfäffikon"},"canton":{"key":"1","code":"ZH","name":"Zürich"},"status":"Real"},{"key":"10054579","name":"Tösswiesstrasse","postalCode":"8492","locality":"Wila","commune":{"key":"181","name":"Wila","shortName":"Wila"},"district":{"key":"108","name":"Bezirk Pfäffikon"},"canton":{"key":"1","code":"ZH","name":"Zürich"},"status":"Real"},{"key":"10195207","name":"Transbergstrasse","postalCode":"8492","locality":"Wila","commune":{"key":"181","name":"Wila","shortName":"Wila"},"district":{"key":"108","name":"Bezirk Pfäffikon"},"canton":{"key":"1","code":"ZH","name":"Zürich"},"status":"Real"},{"key":"10052347","name":"Trauben","postalCode":"8492","locality":"Wila","commune":{"key":"181","name":"Wila","shortName":"Wila"},"district":{"key":"108","name":"Bezirk Pfäffikon"},"canton":{"key":"1","code":"ZH","name":"Zürich"},"status":"Real"},{"key":"10195757","name":"Trubenstrasse","postalCode":"8492","locality":"Wila","commune":{"key":"181","name":"Wila","shortName":"Wila"},"district":{"key":"108","name":"Bezirk Pfäffikon"},"canton":{"key":"1","code":"ZH","name":"Zürich"},"status":"Real"},{"key":"10195758","name":"Trubenweg","postalCode":"8492","locality":"Wila","commune":{"key":"181","name":"Wila","shortName":"Wila"},"district":{"key":"108","name":"Bezirk Pfäffikon"},"canton":{"key":"1","code":"ZH","name":"Zürich"},"status":"Real"},{"key":"10193857","name":"Tüeleneggstrasse","postalCode":"8492","locality":"Wila","commune":{"key":"181","name":"Wila","shortName":"Wila"},"district":{"key":"108","name":"Bezirk Pfäffikon"},"canton":{"key":"1","code":"ZH","name":"Zürich"},"status":"Real"},{"key":"10084763","name":"Untere Kesselrietstrasse","postalCode":"8492","locality":"Wila","commune":{"key":"181","name":"Wila","shortName":"Wila"},"district":{"key":"108","name":"Bezirk Pfäffikon"},"canton":{"key":"1","code":"ZH","name":"Zürich"},"status":"Real"},{"key":"10193858","name":"Unterer Geisseggweg","postalCode":"8492","locality":"Wila","commune":{"key":"181","name":"Wila","shortName":"Wila"},"district":{"key":"108","name":"Bezirk Pfäffikon"},"canton":{"key":"1","code":"ZH","name":"Zürich"},"status":"Real"},{"key":"10000736","name":"Vorderauli","postalCode":"8492","locality":"Wila","commune":{"key":"181","name":"Wila","shortName":"Wila"},"district":{"key":"108","name":"Bezirk Pfäffikon"},"canton":{"key":"1","code":"ZH","name":"Zürich"},"status":"Real"},{"key":"10000737","name":"Vordereich","postalCode":"8492","locality":"Wila","commune":{"key":"181","name":"Wila","shortName":"Wila"},"district":{"key":"108","name":"Bezirk Pfäffikon"},"canton":{"key":"1","code":"ZH","name":"Zürich"},"status":"Real"},{"key":"10193859","name":"Waldholzweg","postalCode":"8492","locality":"Wila","commune":{"key":"181","name":"Wila","shortName":"Wila"},"district":{"key":"108","name":"Bezirk Pfäffikon"},"canton":{"key":"1","code":"ZH","name":"Zürich"},"status":"Real"},{"key":"10098269","name":"Waldweid","postalCode":"8492","locality":"Wila","commune":{"key":"181","name":"Wila","shortName":"Wila"},"district":{"key":"108","name":"Bezirk Pfäffikon"},"canton":{"key":"1","code":"ZH","name":"Zürich"},"status":"Real"},{"key":"10195208","name":"Waldweidweg","postalCode":"8492","locality":"Wila","commune":{"key":"181","name":"Wila","shortName":"Wila"},"district":{"key":"108","name":"Bezirk Pfäffikon"},"canton":{"key":"1","code":"ZH","name":"Zürich"},"status":"Real"},{"key":"10195209","name":"Wannenweg","postalCode":"8492","locality":"Wila","commune":{"key":"181","name":"Wila","shortName":"Wila"},"district":{"key":"108","name":"Bezirk Pfäffikon"},"canton":{"key":"1","code":"ZH","name":"Zürich"},"status":"Real"},{"key":"10066232","name":"Weidenweg","postalCode":"8492","locality":"Wila","commune":{"key":"181","name":"Wila","shortName":"Wila"},"district":{"key":"108","name":"Bezirk Pfäffikon"},"canton":{"key":"1","code":"ZH","name":"Zürich"},"status":"Real"},{"key":"10195210","name":"Weiherweg","postalCode":"8492","locality":"Wila","commune":{"key":"181","name":"Wila","shortName":"Wila"},"district":{"key":"108","name":"Bezirk Pfäffikon"},"canton":{"key":"1","code":"ZH","name":"Zürich"},"status":"Real"},{"key":"10000738","name":"Wiesental","postalCode":"8492","locality":"Wila","commune":{"key":"181","name":"Wila","shortName":"Wila"},"district":{"key":"108","name":"Bezirk Pfäffikon"},"canton":{"key":"1","code":"ZH","name":"Zürich"},"status":"Real"},{"key":"10201688","name":"Wiesentalstrasse","postalCode":"8492","locality":"Wila","commune":{"key":"181","name":"Wila","shortName":"Wila"},"district":{"key":"108","name":"Bezirk Pfäffikon"},"canton":{"key":"1","code":"ZH","name":"Zürich"},"status":"Real"},{"key":"10192303","name":"Wildbergstrasse","postalCode":"8492","locality":"Wila","commune":{"key":"181","name":"Wila","shortName":"Wila"},"district":{"key":"108","name":"Bezirk Pfäffikon"},"canton":{"key":"1","code":"ZH","name":"Zürich"},"status":"Real"},{"key":"10182171","name":"Wilden","postalCode":"8492","locality":"Wila","commune":{"key":"181","name":"Wila","shortName":"Wila"},"district":{"key":"108","name":"Bezirk Pfäffikon"},"canton":{"key":"1","code":"ZH","name":"Zürich"},"status":"Real"},{"key":"10194400","name":"Wilhelmshaus","postalCode":"8492","locality":"Wila","commune":{"key":"181","name":"Wila","shortName":"Wila"},"district":{"key":"108","name":"Bezirk Pfäffikon"},"canton":{"key":"1","code":"ZH","name":"Zürich"},"status":"Real"},{"key":"10195211","name":"Würbelweg","postalCode":"8492","locality":"Wila","commune":{"key":"181","name":"Wila","shortName":"Wila"},"district":{"key":"108","name":"Bezirk Pfäffikon"},"canton":{"key":"1","code":"ZH","name":"Zürich"},"status":"Real"},{"key":"10169140","name":"Zelgli","postalCode":"8492","locality":"Wila","commune":{"key":"181","name":"Wila","shortName":"Wila"},"district":{"key":"108","name":"Bezirk Pfäffikon"},"canton":{"key":"1","code":"ZH","name":"Zürich"},"status":"Real"},{"key":"10176629","name":"Zinggenweg","postalCode":"8492","locality":"Wila","commune":{"key":"181","name":"Wila","shortName":"Wila"},"district":{"key":"108","name":"Bezirk Pfäffikon"},"canton":{"key":"1","code":"ZH","name":"Zürich"},"status":"Real"},]