[{"name":"Abendweide","postalCode":"79837","locality":"Häusern","municipality":{"key":"08337045","name":"Häusern","type":"Kreisangehörige_Gemeinde"},"district":{"key":"08337","name":"Waldshut","type":"Landkreis"},"federalState":{"key":"08","name":"Baden-Württemberg"}},{"name":"Ahörnlewaldweg","postalCode":"79837","locality":"Häusern","municipality":{"key":"08337045","name":"Häusern","type":"Kreisangehörige_Gemeinde"},"district":{"key":"08337","name":"Waldshut","type":"Landkreis"},"federalState":{"key":"08","name":"Baden-Württemberg"}},{"name":"Albtalweg","postalCode":"79837","locality":"Häusern","municipality":{"key":"08337045","name":"Häusern","type":"Kreisangehörige_Gemeinde"},"district":{"key":"08337","name":"Waldshut","type":"Landkreis"},"federalState":{"key":"08","name":"Baden-Württemberg"}},{"name":"Ambelenbachweg","postalCode":"79837","locality":"Häusern","municipality":{"key":"08337045","name":"Häusern","type":"Kreisangehörige_Gemeinde"},"district":{"key":"08337","name":"Waldshut","type":"Landkreis"},"federalState":{"key":"08","name":"Baden-Württemberg"}},{"name":"Auf dem Buck","postalCode":"79837","locality":"Häusern","municipality":{"key":"08337045","name":"Häusern","type":"Kreisangehörige_Gemeinde"},"district":{"key":"08337","name":"Waldshut","type":"Landkreis"},"federalState":{"key":"08","name":"Baden-Württemberg"}},{"name":"Auf den Feldern","postalCode":"79837","locality":"Häusern","municipality":{"key":"08337045","name":"Häusern","type":"Kreisangehörige_Gemeinde"},"district":{"key":"08337","name":"Waldshut","type":"Landkreis"},"federalState":{"key":"08","name":"Baden-Württemberg"}},{"name":"Auf den Mauren","postalCode":"79837","locality":"Häusern","municipality":{"key":"08337045","name":"Häusern","type":"Kreisangehörige_Gemeinde"},"district":{"key":"08337","name":"Waldshut","type":"Landkreis"},"federalState":{"key":"08","name":"Baden-Württemberg"}},{"name":"Bärenstieg","postalCode":"79837","locality":"Häusern","municipality":{"key":"08337045","name":"Häusern","type":"Kreisangehörige_Gemeinde"},"district":{"key":"08337","name":"Waldshut","type":"Landkreis"},"federalState":{"key":"08","name":"Baden-Württemberg"}},{"name":"Barfußpfad","postalCode":"79837","locality":"Häusern","municipality":{"key":"08337045","name":"Häusern","type":"Kreisangehörige_Gemeinde"},"district":{"key":"08337","name":"Waldshut","type":"Landkreis"},"federalState":{"key":"08","name":"Baden-Württemberg"}},{"name":"Bengelweg","postalCode":"79837","locality":"Häusern","municipality":{"key":"08337045","name":"Häusern","type":"Kreisangehörige_Gemeinde"},"district":{"key":"08337","name":"Waldshut","type":"Landkreis"},"federalState":{"key":"08","name":"Baden-Württemberg"}},{"name":"Bildackerweg","postalCode":"79837","locality":"Häusern","municipality":{"key":"08337045","name":"Häusern","type":"Kreisangehörige_Gemeinde"},"district":{"key":"08337","name":"Waldshut","type":"Landkreis"},"federalState":{"key":"08","name":"Baden-Württemberg"}},{"name":"Blasiwaldweg","postalCode":"79837","locality":"Häusern","municipality":{"key":"08337045","name":"Häusern","type":"Kreisangehörige_Gemeinde"},"district":{"key":"08337","name":"Waldshut","type":"Landkreis"},"federalState":{"key":"08","name":"Baden-Württemberg"}},{"name":"Brotkübelweg","postalCode":"79837","locality":"Häusern","municipality":{"key":"08337045","name":"Häusern","type":"Kreisangehörige_Gemeinde"},"district":{"key":"08337","name":"Waldshut","type":"Landkreis"},"federalState":{"key":"08","name":"Baden-Württemberg"}},{"name":"Bruckhölzleweg","postalCode":"79837","locality":"Häusern","municipality":{"key":"08337045","name":"Häusern","type":"Kreisangehörige_Gemeinde"},"district":{"key":"08337","name":"Waldshut","type":"Landkreis"},"federalState":{"key":"08","name":"Baden-Württemberg"}},{"name":"Carl-Zeiss-Str.","postalCode":"79761","locality":"Waldshut-Tiengen","municipality":{"key":"08337126","name":"Waldshut-Tiengen, Stadt","type":"Große_Kreisstadt"},"district":{"key":"08337","name":"Waldshut","type":"Landkreis"},"federalState":{"key":"08","name":"Baden-Württemberg"}},{"name":"Chäpelleweg","postalCode":"79761","locality":"Waldshut-Tiengen","municipality":{"key":"08337126","name":"Waldshut-Tiengen, Stadt","type":"Große_Kreisstadt"},"district":{"key":"08337","name":"Waldshut","type":"Landkreis"},"federalState":{"key":"08","name":"Baden-Württemberg"}},{"name":"Chilbiweg","postalCode":"79761","locality":"Waldshut-Tiengen","municipality":{"key":"08337126","name":"Waldshut-Tiengen, Stadt","type":"Große_Kreisstadt"},"district":{"key":"08337","name":"Waldshut","type":"Landkreis"},"federalState":{"key":"08","name":"Baden-Württemberg"}},{"name":"Courtenaystr.","postalCode":"79761","locality":"Waldshut-Tiengen","municipality":{"key":"08337126","name":"Waldshut-Tiengen, Stadt","type":"Große_Kreisstadt"},"district":{"key":"08337","name":"Waldshut","type":"Landkreis"},"federalState":{"key":"08","name":"Baden-Württemberg"}},{"name":"Dachsbühlweg","postalCode":"79837","locality":"Häusern","municipality":{"key":"08337045","name":"Häusern","type":"Kreisangehörige_Gemeinde"},"district":{"key":"08337","name":"Waldshut","type":"Landkreis"},"federalState":{"key":"08","name":"Baden-Württemberg"}},{"name":"Edith-Stein-Str.","postalCode":"79761","locality":"Waldshut-Tiengen","municipality":{"key":"08337126","name":"Waldshut-Tiengen, Stadt","type":"Große_Kreisstadt"},"district":{"key":"08337","name":"Waldshut","type":"Landkreis"},"federalState":{"key":"08","name":"Baden-Württemberg"}},{"name":"E. Gampweg","postalCode":"79761","locality":"Waldshut-Tiengen","municipality":{"key":"08337126","name":"Waldshut-Tiengen, Stadt","type":"Große_Kreisstadt"},"district":{"key":"08337","name":"Waldshut","type":"Landkreis"},"federalState":{"key":"08","name":"Baden-Württemberg"}},{"name":"Eglegatterweg","postalCode":"79761","locality":"Waldshut-Tiengen","municipality":{"key":"08337126","name":"Waldshut-Tiengen, Stadt","type":"Große_Kreisstadt"},"district":{"key":"08337","name":"Waldshut","type":"Landkreis"},"federalState":{"key":"08","name":"Baden-Württemberg"}},{"name":"Eibenkopfstr.","postalCode":"79761","locality":"Waldshut-Tiengen","municipality":{"key":"08337126","name":"Waldshut-Tiengen, Stadt","type":"Große_Kreisstadt"},"district":{"key":"08337","name":"Waldshut","type":"Landkreis"},"federalState":{"key":"08","name":"Baden-Württemberg"}},{"name":"Eibenweg","postalCode":"79761","locality":"Waldshut-Tiengen","municipality":{"key":"08337126","name":"Waldshut-Tiengen, Stadt","type":"Große_Kreisstadt"},"district":{"key":"08337","name":"Waldshut","type":"Landkreis"},"federalState":{"key":"08","name":"Baden-Württemberg"}},{"name":"Eichbergweg","postalCode":"79761","locality":"Waldshut-Tiengen","municipality":{"key":"08337126","name":"Waldshut-Tiengen, Stadt","type":"Große_Kreisstadt"},"district":{"key":"08337","name":"Waldshut","type":"Landkreis"},"federalState":{"key":"08","name":"Baden-Württemberg"}},{"name":"Eichholzstr.","postalCode":"79761","locality":"Waldshut-Tiengen","municipality":{"key":"08337126","name":"Waldshut-Tiengen, Stadt","type":"Große_Kreisstadt"},"district":{"key":"08337","name":"Waldshut","type":"Landkreis"},"federalState":{"key":"08","name":"Baden-Württemberg"}},{"name":"Eisenbahnstr.","postalCode":"79761","locality":"Waldshut-Tiengen","municipality":{"key":"08337126","name":"Waldshut-Tiengen, Stadt","type":"Große_Kreisstadt"},"district":{"key":"08337","name":"Waldshut","type":"Landkreis"},"federalState":{"key":"08","name":"Baden-Württemberg"}},{"name":"Ekkehardstr.","postalCode":"79761","locality":"Waldshut-Tiengen","municipality":{"key":"08337126","name":"Waldshut-Tiengen, Stadt","type":"Große_Kreisstadt"},"district":{"key":"08337","name":"Waldshut","type":"Landkreis"},"federalState":{"key":"08","name":"Baden-Württemberg"}},{"name":"Elferweg","postalCode":"79761","locality":"Waldshut-Tiengen","municipality":{"key":"08337126","name":"Waldshut-Tiengen, Stadt","type":"Große_Kreisstadt"},"district":{"key":"08337","name":"Waldshut","type":"Landkreis"},"federalState":{"key":"08","name":"Baden-Württemberg"}},{"name":"Emmelwiesweg","postalCode":"79761","locality":"Waldshut-Tiengen","municipality":{"key":"08337126","name":"Waldshut-Tiengen, Stadt","type":"Große_Kreisstadt"},"district":{"key":"08337","name":"Waldshut","type":"Landkreis"},"federalState":{"key":"08","name":"Baden-Württemberg"}},{"name":"Erlenweg","postalCode":"79761","locality":"Waldshut-Tiengen","municipality":{"key":"08337126","name":"Waldshut-Tiengen, Stadt","type":"Große_Kreisstadt"},"district":{"key":"08337","name":"Waldshut","type":"Landkreis"},"federalState":{"key":"08","name":"Baden-Württemberg"}},{"name":"Eschbacher Str.","postalCode":"79761","locality":"Waldshut-Tiengen","municipality":{"key":"08337126","name":"Waldshut-Tiengen, Stadt","type":"Große_Kreisstadt"},"district":{"key":"08337","name":"Waldshut","type":"Landkreis"},"federalState":{"key":"08","name":"Baden-Württemberg"}},{"name":"Eschenstr.","postalCode":"79761","locality":"Waldshut-Tiengen","municipality":{"key":"08337126","name":"Waldshut-Tiengen, Stadt","type":"Große_Kreisstadt"},"district":{"key":"08337","name":"Waldshut","type":"Landkreis"},"federalState":{"key":"08","name":"Baden-Württemberg"}},{"name":"Felsenweg","postalCode":"79837","locality":"Häusern","municipality":{"key":"08337045","name":"Häusern","type":"Kreisangehörige_Gemeinde"},"district":{"key":"08337","name":"Waldshut","type":"Landkreis"},"federalState":{"key":"08","name":"Baden-Württemberg"}},{"name":"Gartenweg","postalCode":"79837","locality":"Häusern","municipality":{"key":"08337045","name":"Häusern","type":"Kreisangehörige_Gemeinde"},"district":{"key":"08337","name":"Waldshut","type":"Landkreis"},"federalState":{"key":"08","name":"Baden-Württemberg"}},{"name":"Gießbacherkopfweg","postalCode":"79837","locality":"Häusern","municipality":{"key":"08337045","name":"Häusern","type":"Kreisangehörige_Gemeinde"},"district":{"key":"08337","name":"Waldshut","type":"Landkreis"},"federalState":{"key":"08","name":"Baden-Württemberg"}},{"name":"Giessbachweg","postalCode":"79837","locality":"Häusern","municipality":{"key":"08337045","name":"Häusern","type":"Kreisangehörige_Gemeinde"},"district":{"key":"08337","name":"Waldshut","type":"Landkreis"},"federalState":{"key":"08","name":"Baden-Württemberg"}},{"name":"Glaserkopfweg","postalCode":"79837","locality":"Häusern","municipality":{"key":"08337045","name":"Häusern","type":"Kreisangehörige_Gemeinde"},"district":{"key":"08337","name":"Waldshut","type":"Landkreis"},"federalState":{"key":"08","name":"Baden-Württemberg"}},{"name":"Goldebühl","postalCode":"79837","locality":"Häusern","municipality":{"key":"08337045","name":"Häusern","type":"Kreisangehörige_Gemeinde"},"district":{"key":"08337","name":"Waldshut","type":"Landkreis"},"federalState":{"key":"08","name":"Baden-Württemberg"}},{"name":"Grenzweg","postalCode":"79837","locality":"Häusern","municipality":{"key":"08337045","name":"Häusern","type":"Kreisangehörige_Gemeinde"},"district":{"key":"08337","name":"Waldshut","type":"Landkreis"},"federalState":{"key":"08","name":"Baden-Württemberg"}},{"name":"Haselwies","postalCode":"79837","locality":"Häusern","municipality":{"key":"08337045","name":"Häusern","type":"Kreisangehörige_Gemeinde"},"district":{"key":"08337","name":"Waldshut","type":"Landkreis"},"federalState":{"key":"08","name":"Baden-Württemberg"}},{"name":"Höchenschwander Str.","postalCode":"79837","locality":"Häusern","municipality":{"key":"08337045","name":"Häusern","type":"Kreisangehörige_Gemeinde"},"district":{"key":"08337","name":"Waldshut","type":"Landkreis"},"federalState":{"key":"08","name":"Baden-Württemberg"}},{"name":"Im Kehr","postalCode":"79837","locality":"Häusern","municipality":{"key":"08337045","name":"Häusern","type":"Kreisangehörige_Gemeinde"},"district":{"key":"08337","name":"Waldshut","type":"Landkreis"},"federalState":{"key":"08","name":"Baden-Württemberg"}},{"name":"Im Thauen","postalCode":"79837","locality":"Häusern","municipality":{"key":"08337045","name":"Häusern","type":"Kreisangehörige_Gemeinde"},"district":{"key":"08337","name":"Waldshut","type":"Landkreis"},"federalState":{"key":"08","name":"Baden-Württemberg"}},{"name":"In der Klemme","postalCode":"79837","locality":"Häusern","municipality":{"key":"08337045","name":"Häusern","type":"Kreisangehörige_Gemeinde"},"district":{"key":"08337","name":"Waldshut","type":"Landkreis"},"federalState":{"key":"08","name":"Baden-Württemberg"}},{"name":"In der Würze","postalCode":"79837","locality":"Häusern","municipality":{"key":"08337045","name":"Häusern","type":"Kreisangehörige_Gemeinde"},"district":{"key":"08337","name":"Waldshut","type":"Landkreis"},"federalState":{"key":"08","name":"Baden-Württemberg"}},{"name":"Jahnweg","postalCode":"79761","locality":"Waldshut-Tiengen","municipality":{"key":"08337126","name":"Waldshut-Tiengen, Stadt","type":"Große_Kreisstadt"},"district":{"key":"08337","name":"Waldshut","type":"Landkreis"},"federalState":{"key":"08","name":"Baden-Württemberg"}},{"name":"Johannispark","postalCode":"79761","locality":"Waldshut-Tiengen","municipality":{"key":"08337126","name":"Waldshut-Tiengen, Stadt","type":"Große_Kreisstadt"},"district":{"key":"08337","name":"Waldshut","type":"Landkreis"},"federalState":{"key":"08","name":"Baden-Württemberg"}},{"name":"Johannisplatz","postalCode":"79761","locality":"Waldshut-Tiengen","municipality":{"key":"08337126","name":"Waldshut-Tiengen, Stadt","type":"Große_Kreisstadt"},"district":{"key":"08337","name":"Waldshut","type":"Landkreis"},"federalState":{"key":"08","name":"Baden-Württemberg"}},{"name":"Josef-Bader-Str.","postalCode":"79761","locality":"Waldshut-Tiengen","municipality":{"key":"08337126","name":"Waldshut-Tiengen, Stadt","type":"Große_Kreisstadt"},"district":{"key":"08337","name":"Waldshut","type":"Landkreis"},"federalState":{"key":"08","name":"Baden-Württemberg"}},{"name":"J.Rüdeweg","postalCode":"79761","locality":"Waldshut-Tiengen","municipality":{"key":"08337126","name":"Waldshut-Tiengen, Stadt","type":"Große_Kreisstadt"},"district":{"key":"08337","name":"Waldshut","type":"Landkreis"},"federalState":{"key":"08","name":"Baden-Württemberg"}},{"name":"Kesselweg","postalCode":"79837","locality":"Häusern","municipality":{"key":"08337045","name":"Häusern","type":"Kreisangehörige_Gemeinde"},"district":{"key":"08337","name":"Waldshut","type":"Landkreis"},"federalState":{"key":"08","name":"Baden-Württemberg"}},{"name":"Klemme","postalCode":"79837","locality":"Häusern","municipality":{"key":"08337045","name":"Häusern","type":"Kreisangehörige_Gemeinde"},"district":{"key":"08337","name":"Waldshut","type":"Landkreis"},"federalState":{"key":"08","name":"Baden-Württemberg"}},{"name":"Lirenhaldenweg","postalCode":"79837","locality":"Häusern","municipality":{"key":"08337045","name":"Häusern","type":"Kreisangehörige_Gemeinde"},"district":{"key":"08337","name":"Waldshut","type":"Landkreis"},"federalState":{"key":"08","name":"Baden-Württemberg"}},{"name":"LP Gießbacherkopfweg","postalCode":"79837","locality":"Häusern","municipality":{"key":"08337045","name":"Häusern","type":"Kreisangehörige_Gemeinde"},"district":{"key":"08337","name":"Waldshut","type":"Landkreis"},"federalState":{"key":"08","name":"Baden-Württemberg"}},{"name":"Mühlenstieg","postalCode":"79837","locality":"Häusern","municipality":{"key":"08337045","name":"Häusern","type":"Kreisangehörige_Gemeinde"},"district":{"key":"08337","name":"Waldshut","type":"Landkreis"},"federalState":{"key":"08","name":"Baden-Württemberg"}},{"name":"Neubergweg","postalCode":"79761","locality":"Waldshut-Tiengen","municipality":{"key":"08337126","name":"Waldshut-Tiengen, Stadt","type":"Große_Kreisstadt"},"district":{"key":"08337","name":"Waldshut","type":"Landkreis"},"federalState":{"key":"08","name":"Baden-Württemberg"}},{"name":"Neubildweg","postalCode":"79761","locality":"Waldshut-Tiengen","municipality":{"key":"08337126","name":"Waldshut-Tiengen, Stadt","type":"Große_Kreisstadt"},"district":{"key":"08337","name":"Waldshut","type":"Landkreis"},"federalState":{"key":"08","name":"Baden-Württemberg"}},{"name":"Neuer Weg","postalCode":"79761","locality":"Waldshut-Tiengen","municipality":{"key":"08337126","name":"Waldshut-Tiengen, Stadt","type":"Große_Kreisstadt"},"district":{"key":"08337","name":"Waldshut","type":"Landkreis"},"federalState":{"key":"08","name":"Baden-Württemberg"}},{"name":"Neumattstr.","postalCode":"79761","locality":"Waldshut-Tiengen","municipality":{"key":"08337126","name":"Waldshut-Tiengen, Stadt","type":"Große_Kreisstadt"},"district":{"key":"08337","name":"Waldshut","type":"Landkreis"},"federalState":{"key":"08","name":"Baden-Württemberg"}},{"name":"Nikolaus-Otto-Str.","postalCode":"79761","locality":"Waldshut-Tiengen","municipality":{"key":"08337126","name":"Waldshut-Tiengen, Stadt","type":"Große_Kreisstadt"},"district":{"key":"08337","name":"Waldshut","type":"Landkreis"},"federalState":{"key":"08","name":"Baden-Württemberg"}},{"name":"Oberer Lehnernweg","postalCode":"79837","locality":"Häusern","municipality":{"key":"08337045","name":"Häusern","type":"Kreisangehörige_Gemeinde"},"district":{"key":"08337","name":"Waldshut","type":"Landkreis"},"federalState":{"key":"08","name":"Baden-Württemberg"}},{"name":"Oberer Schmalzbergweg","postalCode":"79837","locality":"Häusern","municipality":{"key":"08337045","name":"Häusern","type":"Kreisangehörige_Gemeinde"},"district":{"key":"08337","name":"Waldshut","type":"Landkreis"},"federalState":{"key":"08","name":"Baden-Württemberg"}},{"name":"Pankratiusweg","postalCode":"79761","locality":"Waldshut-Tiengen","municipality":{"key":"08337126","name":"Waldshut-Tiengen, Stadt","type":"Große_Kreisstadt"},"district":{"key":"08337","name":"Waldshut","type":"Landkreis"},"federalState":{"key":"08","name":"Baden-Württemberg"}},{"name":"Panoramaweg","postalCode":"79761","locality":"Waldshut-Tiengen","municipality":{"key":"08337126","name":"Waldshut-Tiengen, Stadt","type":"Große_Kreisstadt"},"district":{"key":"08337","name":"Waldshut","type":"Landkreis"},"federalState":{"key":"08","name":"Baden-Württemberg"}},{"name":"Park am Storchenturm","postalCode":"79761","locality":"Waldshut-Tiengen","municipality":{"key":"08337126","name":"Waldshut-Tiengen, Stadt","type":"Große_Kreisstadt"},"district":{"key":"08337","name":"Waldshut","type":"Landkreis"},"federalState":{"key":"08","name":"Baden-Württemberg"}},{"name":"Pater-Jordan-Str.","postalCode":"79761","locality":"Waldshut-Tiengen","municipality":{"key":"08337126","name":"Waldshut-Tiengen, Stadt","type":"Große_Kreisstadt"},"district":{"key":"08337","name":"Waldshut","type":"Landkreis"},"federalState":{"key":"08","name":"Baden-Württemberg"}},{"name":"Peter-Thumb-Str.","postalCode":"79761","locality":"Waldshut-Tiengen","municipality":{"key":"08337126","name":"Waldshut-Tiengen, Stadt","type":"Große_Kreisstadt"},"district":{"key":"08337","name":"Waldshut","type":"Landkreis"},"federalState":{"key":"08","name":"Baden-Württemberg"}},{"name":"Pfadfinderweg","postalCode":"79761","locality":"Waldshut-Tiengen","municipality":{"key":"08337126","name":"Waldshut-Tiengen, Stadt","type":"Große_Kreisstadt"},"district":{"key":"08337","name":"Waldshut","type":"Landkreis"},"federalState":{"key":"08","name":"Baden-Württemberg"}},{"name":"Pfarrer-Kistner-Weg","postalCode":"79761","locality":"Waldshut-Tiengen","municipality":{"key":"08337126","name":"Waldshut-Tiengen, Stadt","type":"Große_Kreisstadt"},"district":{"key":"08337","name":"Waldshut","type":"Landkreis"},"federalState":{"key":"08","name":"Baden-Württemberg"}},{"name":"Pflanzenschulweg","postalCode":"79761","locality":"Waldshut-Tiengen","municipality":{"key":"08337126","name":"Waldshut-Tiengen, Stadt","type":"Große_Kreisstadt"},"district":{"key":"08337","name":"Waldshut","type":"Landkreis"},"federalState":{"key":"08","name":"Baden-Württemberg"}},{"name":"Pflanzgartenweg","postalCode":"79761","locality":"Waldshut-Tiengen","municipality":{"key":"08337126","name":"Waldshut-Tiengen, Stadt","type":"Große_Kreisstadt"},"district":{"key":"08337","name":"Waldshut","type":"Landkreis"},"federalState":{"key":"08","name":"Baden-Württemberg"}},{"name":"Pflanzschulweg","postalCode":"79761","locality":"Waldshut-Tiengen","municipality":{"key":"08337126","name":"Waldshut-Tiengen, Stadt","type":"Große_Kreisstadt"},"district":{"key":"08337","name":"Waldshut","type":"Landkreis"},"federalState":{"key":"08","name":"Baden-Württemberg"}},{"name":"Pfohlenweg","postalCode":"79761","locality":"Waldshut-Tiengen","municipality":{"key":"08337126","name":"Waldshut-Tiengen, Stadt","type":"Große_Kreisstadt"},"district":{"key":"08337","name":"Waldshut","type":"Landkreis"},"federalState":{"key":"08","name":"Baden-Württemberg"}},{"name":"Philipp-Reis-Str.","postalCode":"79761","locality":"Waldshut-Tiengen","municipality":{"key":"08337126","name":"Waldshut-Tiengen, Stadt","type":"Große_Kreisstadt"},"district":{"key":"08337","name":"Waldshut","type":"Landkreis"},"federalState":{"key":"08","name":"Baden-Württemberg"}},{"name":"Pommernstr.","postalCode":"79761","locality":"Waldshut-Tiengen","municipality":{"key":"08337126","name":"Waldshut-Tiengen, Stadt","type":"Große_Kreisstadt"},"district":{"key":"08337","name":"Waldshut","type":"Landkreis"},"federalState":{"key":"08","name":"Baden-Württemberg"}},{"name":"Porschestr.","postalCode":"79761","locality":"Waldshut-Tiengen","municipality":{"key":"08337126","name":"Waldshut-Tiengen, Stadt","type":"Große_Kreisstadt"},"district":{"key":"08337","name":"Waldshut","type":"Landkreis"},"federalState":{"key":"08","name":"Baden-Württemberg"}},{"name":"Poststr.","postalCode":"79761","locality":"Waldshut-Tiengen","municipality":{"key":"08337126","name":"Waldshut-Tiengen, Stadt","type":"Große_Kreisstadt"},"district":{"key":"08337","name":"Waldshut","type":"Landkreis"},"federalState":{"key":"08","name":"Baden-Württemberg"}},{"name":"Prälatenweg","postalCode":"79761","locality":"Waldshut-Tiengen","municipality":{"key":"08337126","name":"Waldshut-Tiengen, Stadt","type":"Große_Kreisstadt"},"district":{"key":"08337","name":"Waldshut","type":"Landkreis"},"federalState":{"key":"08","name":"Baden-Württemberg"}},{"name":"Priestergasse","postalCode":"79761","locality":"Waldshut-Tiengen","municipality":{"key":"08337126","name":"Waldshut-Tiengen, Stadt","type":"Große_Kreisstadt"},"district":{"key":"08337","name":"Waldshut","type":"Landkreis"},"federalState":{"key":"08","name":"Baden-Württemberg"}},{"name":"Pritschenweg","postalCode":"79761","locality":"Waldshut-Tiengen","municipality":{"key":"08337126","name":"Waldshut-Tiengen, Stadt","type":"Große_Kreisstadt"},"district":{"key":"08337","name":"Waldshut","type":"Landkreis"},"federalState":{"key":"08","name":"Baden-Württemberg"}},{"name":"Quarzmühlenweg","postalCode":"79761","locality":"Waldshut-Tiengen","municipality":{"key":"08337126","name":"Waldshut-Tiengen, Stadt","type":"Große_Kreisstadt"},"district":{"key":"08337","name":"Waldshut","type":"Landkreis"},"federalState":{"key":"08","name":"Baden-Württemberg"}},{"name":"Querweg","postalCode":"79761","locality":"Waldshut-Tiengen","municipality":{"key":"08337126","name":"Waldshut-Tiengen, Stadt","type":"Große_Kreisstadt"},"district":{"key":"08337","name":"Waldshut","type":"Landkreis"},"federalState":{"key":"08","name":"Baden-Württemberg"}},{"name":"Rotrütteweg","postalCode":"79837","locality":"Häusern","municipality":{"key":"08337045","name":"Häusern","type":"Kreisangehörige_Gemeinde"},"district":{"key":"08337","name":"Waldshut","type":"Landkreis"},"federalState":{"key":"08","name":"Baden-Württemberg"}},{"name":"Sägeweg","postalCode":"79837","locality":"Häusern","municipality":{"key":"08337045","name":"Häusern","type":"Kreisangehörige_Gemeinde"},"district":{"key":"08337","name":"Waldshut","type":"Landkreis"},"federalState":{"key":"08","name":"Baden-Württemberg"}},{"name":"Sankt-Blasier-Str.","postalCode":"79837","locality":"Häusern","municipality":{"key":"08337045","name":"Häusern","type":"Kreisangehörige_Gemeinde"},"district":{"key":"08337","name":"Waldshut","type":"Landkreis"},"federalState":{"key":"08","name":"Baden-Württemberg"}},{"name":"Sankt-Fridolin-Str.","postalCode":"79837","locality":"Häusern","municipality":{"key":"08337045","name":"Häusern","type":"Kreisangehörige_Gemeinde"},"district":{"key":"08337","name":"Waldshut","type":"Landkreis"},"federalState":{"key":"08","name":"Baden-Württemberg"}},{"name":"Schluchseer Str.","postalCode":"79837","locality":"Häusern","municipality":{"key":"08337045","name":"Häusern","type":"Kreisangehörige_Gemeinde"},"district":{"key":"08337","name":"Waldshut","type":"Landkreis"},"federalState":{"key":"08","name":"Baden-Württemberg"}},{"name":"Schmalzbergweg","postalCode":"79837","locality":"Häusern","municipality":{"key":"08337045","name":"Häusern","type":"Kreisangehörige_Gemeinde"},"district":{"key":"08337","name":"Waldshut","type":"Landkreis"},"federalState":{"key":"08","name":"Baden-Württemberg"}},{"name":"Schönenbachweg","postalCode":"79837","locality":"Häusern","municipality":{"key":"08337045","name":"Häusern","type":"Kreisangehörige_Gemeinde"},"district":{"key":"08337","name":"Waldshut","type":"Landkreis"},"federalState":{"key":"08","name":"Baden-Württemberg"}},{"name":"Schwand","postalCode":"79837","locality":"Häusern","municipality":{"key":"08337045","name":"Häusern","type":"Kreisangehörige_Gemeinde"},"district":{"key":"08337","name":"Waldshut","type":"Landkreis"},"federalState":{"key":"08","name":"Baden-Württemberg"}},{"name":"Schwandmättle","postalCode":"79837","locality":"Häusern","municipality":{"key":"08337045","name":"Häusern","type":"Kreisangehörige_Gemeinde"},"district":{"key":"08337","name":"Waldshut","type":"Landkreis"},"federalState":{"key":"08","name":"Baden-Württemberg"}},{"name":"Schwarzabruckweg","postalCode":"79837","locality":"Häusern","municipality":{"key":"08337045","name":"Häusern","type":"Kreisangehörige_Gemeinde"},"district":{"key":"08337","name":"Waldshut","type":"Landkreis"},"federalState":{"key":"08","name":"Baden-Württemberg"}},{"name":"Schwarzatalweg","postalCode":"79837","locality":"Häusern","municipality":{"key":"08337045","name":"Häusern","type":"Kreisangehörige_Gemeinde"},"district":{"key":"08337","name":"Waldshut","type":"Landkreis"},"federalState":{"key":"08","name":"Baden-Württemberg"}},{"name":"Spitzacker","postalCode":"79837","locality":"Häusern","municipality":{"key":"08337045","name":"Häusern","type":"Kreisangehörige_Gemeinde"},"district":{"key":"08337","name":"Waldshut","type":"Landkreis"},"federalState":{"key":"08","name":"Baden-Württemberg"}},{"name":"Steigweg","postalCode":"79837","locality":"Häusern","municipality":{"key":"08337045","name":"Häusern","type":"Kreisangehörige_Gemeinde"},"district":{"key":"08337","name":"Waldshut","type":"Landkreis"},"federalState":{"key":"08","name":"Baden-Württemberg"}},{"name":"Tannenschachen","postalCode":"79837","locality":"Häusern","municipality":{"key":"08337045","name":"Häusern","type":"Kreisangehörige_Gemeinde"},"district":{"key":"08337","name":"Waldshut","type":"Landkreis"},"federalState":{"key":"08","name":"Baden-Württemberg"}},{"name":"Taubachrain","postalCode":"79837","locality":"Häusern","municipality":{"key":"08337045","name":"Häusern","type":"Kreisangehörige_Gemeinde"},"district":{"key":"08337","name":"Waldshut","type":"Landkreis"},"federalState":{"key":"08","name":"Baden-Württemberg"}},{"name":"Taubachweg","postalCode":"79837","locality":"Häusern","municipality":{"key":"08337045","name":"Häusern","type":"Kreisangehörige_Gemeinde"},"district":{"key":"08337","name":"Waldshut","type":"Landkreis"},"federalState":{"key":"08","name":"Baden-Württemberg"}},{"name":"Ulmenweg","postalCode":"79761","locality":"Waldshut-Tiengen","municipality":{"key":"08337126","name":"Waldshut-Tiengen, Stadt","type":"Große_Kreisstadt"},"district":{"key":"08337","name":"Waldshut","type":"Landkreis"},"federalState":{"key":"08","name":"Baden-Württemberg"}},{"name":"Unteralpfener Str.","postalCode":"79761","locality":"Waldshut-Tiengen","municipality":{"key":"08337126","name":"Waldshut-Tiengen, Stadt","type":"Große_Kreisstadt"},"district":{"key":"08337","name":"Waldshut","type":"Landkreis"},"federalState":{"key":"08","name":"Baden-Württemberg"}},{"name":"Unter den Reben","postalCode":"79761","locality":"Waldshut-Tiengen","municipality":{"key":"08337126","name":"Waldshut-Tiengen, Stadt","type":"Große_Kreisstadt"},"district":{"key":"08337","name":"Waldshut","type":"Landkreis"},"federalState":{"key":"08","name":"Baden-Württemberg"}},{"name":"Unter der Steigtrotte","postalCode":"79761","locality":"Waldshut-Tiengen","municipality":{"key":"08337126","name":"Waldshut-Tiengen, Stadt","type":"Große_Kreisstadt"},"district":{"key":"08337","name":"Waldshut","type":"Landkreis"},"federalState":{"key":"08","name":"Baden-Württemberg"}},{"name":"Untere Gaisäckerstr.","postalCode":"79761","locality":"Waldshut-Tiengen","municipality":{"key":"08337126","name":"Waldshut-Tiengen, Stadt","type":"Große_Kreisstadt"},"district":{"key":"08337","name":"Waldshut","type":"Landkreis"},"federalState":{"key":"08","name":"Baden-Württemberg"}},{"name":"Untere Hangweg","postalCode":"79761","locality":"Waldshut-Tiengen","municipality":{"key":"08337126","name":"Waldshut-Tiengen, Stadt","type":"Große_Kreisstadt"},"district":{"key":"08337","name":"Waldshut","type":"Landkreis"},"federalState":{"key":"08","name":"Baden-Württemberg"}},{"name":"Untere Haspelstr.","postalCode":"79761","locality":"Waldshut-Tiengen","municipality":{"key":"08337126","name":"Waldshut-Tiengen, Stadt","type":"Große_Kreisstadt"},"district":{"key":"08337","name":"Waldshut","type":"Landkreis"},"federalState":{"key":"08","name":"Baden-Württemberg"}},{"name":"Untere Landstr.","postalCode":"79761","locality":"Waldshut-Tiengen","municipality":{"key":"08337126","name":"Waldshut-Tiengen, Stadt","type":"Große_Kreisstadt"},"district":{"key":"08337","name":"Waldshut","type":"Landkreis"},"federalState":{"key":"08","name":"Baden-Württemberg"}},{"name":"Unterer Dreierweg","postalCode":"79761","locality":"Waldshut-Tiengen","municipality":{"key":"08337126","name":"Waldshut-Tiengen, Stadt","type":"Große_Kreisstadt"},"district":{"key":"08337","name":"Waldshut","type":"Landkreis"},"federalState":{"key":"08","name":"Baden-Württemberg"}},{"name":"Unterer Grenzweg","postalCode":"79761","locality":"Waldshut-Tiengen","municipality":{"key":"08337126","name":"Waldshut-Tiengen, Stadt","type":"Große_Kreisstadt"},"district":{"key":"08337","name":"Waldshut","type":"Landkreis"},"federalState":{"key":"08","name":"Baden-Württemberg"}},{"name":"Unterer Hagenmattweg","postalCode":"79761","locality":"Waldshut-Tiengen","municipality":{"key":"08337126","name":"Waldshut-Tiengen, Stadt","type":"Große_Kreisstadt"},"district":{"key":"08337","name":"Waldshut","type":"Landkreis"},"federalState":{"key":"08","name":"Baden-Württemberg"}},{"name":"Unterer Hüttenweg","postalCode":"79761","locality":"Waldshut-Tiengen","municipality":{"key":"08337126","name":"Waldshut-Tiengen, Stadt","type":"Große_Kreisstadt"},"district":{"key":"08337","name":"Waldshut","type":"Landkreis"},"federalState":{"key":"08","name":"Baden-Württemberg"}},{"name":"Unterer Sechserweg","postalCode":"79761","locality":"Waldshut-Tiengen","municipality":{"key":"08337126","name":"Waldshut-Tiengen, Stadt","type":"Große_Kreisstadt"},"district":{"key":"08337","name":"Waldshut","type":"Landkreis"},"federalState":{"key":"08","name":"Baden-Württemberg"}},{"name":"Unterer Tännlehauweg","postalCode":"79761","locality":"Waldshut-Tiengen","municipality":{"key":"08337126","name":"Waldshut-Tiengen, Stadt","type":"Große_Kreisstadt"},"district":{"key":"08337","name":"Waldshut","type":"Landkreis"},"federalState":{"key":"08","name":"Baden-Württemberg"}},{"name":"Unterer Zwölferweg","postalCode":"79761","locality":"Waldshut-Tiengen","municipality":{"key":"08337126","name":"Waldshut-Tiengen, Stadt","type":"Große_Kreisstadt"},"district":{"key":"08337","name":"Waldshut","type":"Landkreis"},"federalState":{"key":"08","name":"Baden-Württemberg"}},{"name":"Von-Kilian-Str.","postalCode":"79761","locality":"Waldshut-Tiengen","municipality":{"key":"08337126","name":"Waldshut-Tiengen, Stadt","type":"Große_Kreisstadt"},"district":{"key":"08337","name":"Waldshut","type":"Landkreis"},"federalState":{"key":"08","name":"Baden-Württemberg"}},{"name":"Von-Opel-Str.","postalCode":"79761","locality":"Waldshut-Tiengen","municipality":{"key":"08337126","name":"Waldshut-Tiengen, Stadt","type":"Große_Kreisstadt"},"district":{"key":"08337","name":"Waldshut","type":"Landkreis"},"federalState":{"key":"08","name":"Baden-Württemberg"}},{"name":"Waldlehrpfad","postalCode":"79837","locality":"Häusern","municipality":{"key":"08337045","name":"Häusern","type":"Kreisangehörige_Gemeinde"},"district":{"key":"08337","name":"Waldshut","type":"Landkreis"},"federalState":{"key":"08","name":"Baden-Württemberg"}},{"name":"Wittlisbergweg","postalCode":"79837","locality":"Häusern","municipality":{"key":"08337045","name":"Häusern","type":"Kreisangehörige_Gemeinde"},"district":{"key":"08337","name":"Waldshut","type":"Landkreis"},"federalState":{"key":"08","name":"Baden-Württemberg"}},{"name":"Würzemoos","postalCode":"79837","locality":"Häusern","municipality":{"key":"08337045","name":"Häusern","type":"Kreisangehörige_Gemeinde"},"district":{"key":"08337","name":"Waldshut","type":"Landkreis"},"federalState":{"key":"08","name":"Baden-Württemberg"}},{"name":"Zum Brotkübel","postalCode":"79837","locality":"Häusern","municipality":{"key":"08337045","name":"Häusern","type":"Kreisangehörige_Gemeinde"},"district":{"key":"08337","name":"Waldshut","type":"Landkreis"},"federalState":{"key":"08","name":"Baden-Württemberg"}},{"name":"Zur Lehnern","postalCode":"79837","locality":"Häusern","municipality":{"key":"08337045","name":"Häusern","type":"Kreisangehörige_Gemeinde"},"district":{"key":"08337","name":"Waldshut","type":"Landkreis"},"federalState":{"key":"08","name":"Baden-Württemberg"}},{"name":"Äuleweg","postalCode":"79761","locality":"Waldshut-Tiengen","municipality":{"key":"08337126","name":"Waldshut-Tiengen, Stadt","type":"Große_Kreisstadt"},"district":{"key":"08337","name":"Waldshut","type":"Landkreis"},"federalState":{"key":"08","name":"Baden-Württemberg"}},{"name":"Übertal","postalCode":"79761","locality":"Waldshut-Tiengen","municipality":{"key":"08337126","name":"Waldshut-Tiengen, Stadt","type":"Große_Kreisstadt"},"district":{"key":"08337","name":"Waldshut","type":"Landkreis"},"federalState":{"key":"08","name":"Baden-Württemberg"}},]