[{"name":"Ackermannstr.","postalCode":"82216","locality":"Maisach","municipality":{"key":"09179134","name":"Maisach","type":"Kreisangehörige_Gemeinde"},"district":{"key":"09179","name":"Fürstenfeldbruck","type":"Landkreis"},"federalState":{"key":"09","name":"Bayern"}},{"name":"Adalbert-Stifter-Str.","postalCode":"82216","locality":"Maisach","municipality":{"key":"09179134","name":"Maisach","type":"Kreisangehörige_Gemeinde"},"district":{"key":"09179","name":"Fürstenfeldbruck","type":"Landkreis"},"federalState":{"key":"09","name":"Bayern"}},{"name":"Ahornstr.","postalCode":"82216","locality":"Maisach","municipality":{"key":"09179134","name":"Maisach","type":"Kreisangehörige_Gemeinde"},"district":{"key":"09179","name":"Fürstenfeldbruck","type":"Landkreis"},"federalState":{"key":"09","name":"Bayern"}},{"name":"Almrauschstr.","postalCode":"82216","locality":"Maisach","municipality":{"key":"09179134","name":"Maisach","type":"Kreisangehörige_Gemeinde"},"district":{"key":"09179","name":"Fürstenfeldbruck","type":"Landkreis"},"federalState":{"key":"09","name":"Bayern"}},{"name":"Alpenrosenstr.","postalCode":"82216","locality":"Maisach","municipality":{"key":"09179134","name":"Maisach","type":"Kreisangehörige_Gemeinde"},"district":{"key":"09179","name":"Fürstenfeldbruck","type":"Landkreis"},"federalState":{"key":"09","name":"Bayern"}},{"name":"Alpspitzweg","postalCode":"82216","locality":"Maisach","municipality":{"key":"09179134","name":"Maisach","type":"Kreisangehörige_Gemeinde"},"district":{"key":"09179","name":"Fürstenfeldbruck","type":"Landkreis"},"federalState":{"key":"09","name":"Bayern"}},{"name":"Alte Brucker Str.","postalCode":"82216","locality":"Maisach","municipality":{"key":"09179134","name":"Maisach","type":"Kreisangehörige_Gemeinde"},"district":{"key":"09179","name":"Fürstenfeldbruck","type":"Landkreis"},"federalState":{"key":"09","name":"Bayern"}},{"name":"Alte Brucker Str.","postalCode":"82256","locality":"Maisach","municipality":{"key":"09179134","name":"Maisach","type":"Kreisangehörige_Gemeinde"},"district":{"key":"09179","name":"Fürstenfeldbruck","type":"Landkreis"},"federalState":{"key":"09","name":"Bayern"}},{"name":"Am Bahnhof","postalCode":"82216","locality":"Maisach","municipality":{"key":"09179134","name":"Maisach","type":"Kreisangehörige_Gemeinde"},"district":{"key":"09179","name":"Fürstenfeldbruck","type":"Landkreis"},"federalState":{"key":"09","name":"Bayern"}},{"name":"Am Bauhof","postalCode":"82216","locality":"Maisach","municipality":{"key":"09179134","name":"Maisach","type":"Kreisangehörige_Gemeinde"},"district":{"key":"09179","name":"Fürstenfeldbruck","type":"Landkreis"},"federalState":{"key":"09","name":"Bayern"}},{"name":"Ameisenschlag","postalCode":"82216","locality":"Maisach","municipality":{"key":"09179134","name":"Maisach","type":"Kreisangehörige_Gemeinde"},"district":{"key":"09179","name":"Fürstenfeldbruck","type":"Landkreis"},"federalState":{"key":"09","name":"Bayern"}},{"name":"Am Fischberg","postalCode":"82216","locality":"Maisach","municipality":{"key":"09179134","name":"Maisach","type":"Kreisangehörige_Gemeinde"},"district":{"key":"09179","name":"Fürstenfeldbruck","type":"Landkreis"},"federalState":{"key":"09","name":"Bayern"}},{"name":"Am Gresfeld","postalCode":"82216","locality":"Maisach","municipality":{"key":"09179134","name":"Maisach","type":"Kreisangehörige_Gemeinde"},"district":{"key":"09179","name":"Fürstenfeldbruck","type":"Landkreis"},"federalState":{"key":"09","name":"Bayern"}},{"name":"Am Gut","postalCode":"82216","locality":"Maisach","municipality":{"key":"09179134","name":"Maisach","type":"Kreisangehörige_Gemeinde"},"district":{"key":"09179","name":"Fürstenfeldbruck","type":"Landkreis"},"federalState":{"key":"09","name":"Bayern"}},{"name":"Am Kirchanger","postalCode":"82216","locality":"Maisach","municipality":{"key":"09179134","name":"Maisach","type":"Kreisangehörige_Gemeinde"},"district":{"key":"09179","name":"Fürstenfeldbruck","type":"Landkreis"},"federalState":{"key":"09","name":"Bayern"}},{"name":"Am Lindenhof","postalCode":"82216","locality":"Maisach","municipality":{"key":"09179134","name":"Maisach","type":"Kreisangehörige_Gemeinde"},"district":{"key":"09179","name":"Fürstenfeldbruck","type":"Landkreis"},"federalState":{"key":"09","name":"Bayern"}},{"name":"Am Oberfeld","postalCode":"82216","locality":"Maisach","municipality":{"key":"09179134","name":"Maisach","type":"Kreisangehörige_Gemeinde"},"district":{"key":"09179","name":"Fürstenfeldbruck","type":"Landkreis"},"federalState":{"key":"09","name":"Bayern"}},{"name":"Am Sandberg","postalCode":"82216","locality":"Maisach","municipality":{"key":"09179134","name":"Maisach","type":"Kreisangehörige_Gemeinde"},"district":{"key":"09179","name":"Fürstenfeldbruck","type":"Landkreis"},"federalState":{"key":"09","name":"Bayern"}},{"name":"Amselweg","postalCode":"82216","locality":"Maisach","municipality":{"key":"09179134","name":"Maisach","type":"Kreisangehörige_Gemeinde"},"district":{"key":"09179","name":"Fürstenfeldbruck","type":"Landkreis"},"federalState":{"key":"09","name":"Bayern"}},{"name":"Am Steinacker","postalCode":"82216","locality":"Maisach","municipality":{"key":"09179134","name":"Maisach","type":"Kreisangehörige_Gemeinde"},"district":{"key":"09179","name":"Fürstenfeldbruck","type":"Landkreis"},"federalState":{"key":"09","name":"Bayern"}},{"name":"Am Unterfeld","postalCode":"82216","locality":"Maisach","municipality":{"key":"09179134","name":"Maisach","type":"Kreisangehörige_Gemeinde"},"district":{"key":"09179","name":"Fürstenfeldbruck","type":"Landkreis"},"federalState":{"key":"09","name":"Bayern"}},{"name":"Angerstr.","postalCode":"82216","locality":"Maisach","municipality":{"key":"09179134","name":"Maisach","type":"Kreisangehörige_Gemeinde"},"district":{"key":"09179","name":"Fürstenfeldbruck","type":"Landkreis"},"federalState":{"key":"09","name":"Bayern"}},{"name":"Antonie-Woerner-Str.","postalCode":"82216","locality":"Maisach","municipality":{"key":"09179134","name":"Maisach","type":"Kreisangehörige_Gemeinde"},"district":{"key":"09179","name":"Fürstenfeldbruck","type":"Landkreis"},"federalState":{"key":"09","name":"Bayern"}},{"name":"Anzengruberstr.","postalCode":"82216","locality":"Maisach","municipality":{"key":"09179134","name":"Maisach","type":"Kreisangehörige_Gemeinde"},"district":{"key":"09179","name":"Fürstenfeldbruck","type":"Landkreis"},"federalState":{"key":"09","name":"Bayern"}},{"name":"Anzhofen","postalCode":"82216","locality":"Maisach","municipality":{"key":"09179134","name":"Maisach","type":"Kreisangehörige_Gemeinde"},"district":{"key":"09179","name":"Fürstenfeldbruck","type":"Landkreis"},"federalState":{"key":"09","name":"Bayern"}},{"name":"Arnikastr.","postalCode":"82216","locality":"Maisach","municipality":{"key":"09179134","name":"Maisach","type":"Kreisangehörige_Gemeinde"},"district":{"key":"09179","name":"Fürstenfeldbruck","type":"Landkreis"},"federalState":{"key":"09","name":"Bayern"}},{"name":"Aufkirchner Str.","postalCode":"82216","locality":"Maisach","municipality":{"key":"09179134","name":"Maisach","type":"Kreisangehörige_Gemeinde"},"district":{"key":"09179","name":"Fürstenfeldbruck","type":"Landkreis"},"federalState":{"key":"09","name":"Bayern"}},{"name":"Aumüllerstr.","postalCode":"82216","locality":"Maisach","municipality":{"key":"09179134","name":"Maisach","type":"Kreisangehörige_Gemeinde"},"district":{"key":"09179","name":"Fürstenfeldbruck","type":"Landkreis"},"federalState":{"key":"09","name":"Bayern"}},{"name":"Bachfeldweg","postalCode":"82216","locality":"Maisach","municipality":{"key":"09179134","name":"Maisach","type":"Kreisangehörige_Gemeinde"},"district":{"key":"09179","name":"Fürstenfeldbruck","type":"Landkreis"},"federalState":{"key":"09","name":"Bayern"}},{"name":"Badweg","postalCode":"82216","locality":"Maisach","municipality":{"key":"09179134","name":"Maisach","type":"Kreisangehörige_Gemeinde"},"district":{"key":"09179","name":"Fürstenfeldbruck","type":"Landkreis"},"federalState":{"key":"09","name":"Bayern"}},{"name":"Bahnhofstr.","postalCode":"82216","locality":"Maisach","municipality":{"key":"09179134","name":"Maisach","type":"Kreisangehörige_Gemeinde"},"district":{"key":"09179","name":"Fürstenfeldbruck","type":"Landkreis"},"federalState":{"key":"09","name":"Bayern"}},{"name":"Baumpark Gernlinden","postalCode":"82216","locality":"Maisach","municipality":{"key":"09179134","name":"Maisach","type":"Kreisangehörige_Gemeinde"},"district":{"key":"09179","name":"Fürstenfeldbruck","type":"Landkreis"},"federalState":{"key":"09","name":"Bayern"}},{"name":"Bergstr.","postalCode":"82216","locality":"Maisach","municipality":{"key":"09179134","name":"Maisach","type":"Kreisangehörige_Gemeinde"},"district":{"key":"09179","name":"Fürstenfeldbruck","type":"Landkreis"},"federalState":{"key":"09","name":"Bayern"}},{"name":"Berlepschstr.","postalCode":"82216","locality":"Maisach","municipality":{"key":"09179134","name":"Maisach","type":"Kreisangehörige_Gemeinde"},"district":{"key":"09179","name":"Fürstenfeldbruck","type":"Landkreis"},"federalState":{"key":"09","name":"Bayern"}},{"name":"Bert-Brecht-Weg","postalCode":"82216","locality":"Maisach","municipality":{"key":"09179134","name":"Maisach","type":"Kreisangehörige_Gemeinde"},"district":{"key":"09179","name":"Fürstenfeldbruck","type":"Landkreis"},"federalState":{"key":"09","name":"Bayern"}},{"name":"Birkenstr.","postalCode":"82216","locality":"Maisach","municipality":{"key":"09179134","name":"Maisach","type":"Kreisangehörige_Gemeinde"},"district":{"key":"09179","name":"Fürstenfeldbruck","type":"Landkreis"},"federalState":{"key":"09","name":"Bayern"}},{"name":"Blumenstr.","postalCode":"82216","locality":"Maisach","municipality":{"key":"09179134","name":"Maisach","type":"Kreisangehörige_Gemeinde"},"district":{"key":"09179","name":"Fürstenfeldbruck","type":"Landkreis"},"federalState":{"key":"09","name":"Bayern"}},{"name":"Bräuhausstr.","postalCode":"82216","locality":"Maisach","municipality":{"key":"09179134","name":"Maisach","type":"Kreisangehörige_Gemeinde"},"district":{"key":"09179","name":"Fürstenfeldbruck","type":"Landkreis"},"federalState":{"key":"09","name":"Bayern"}},{"name":"Brauneckstr.","postalCode":"82216","locality":"Maisach","municipality":{"key":"09179134","name":"Maisach","type":"Kreisangehörige_Gemeinde"},"district":{"key":"09179","name":"Fürstenfeldbruck","type":"Landkreis"},"federalState":{"key":"09","name":"Bayern"}},{"name":"Breitensteinweg","postalCode":"82216","locality":"Maisach","municipality":{"key":"09179134","name":"Maisach","type":"Kreisangehörige_Gemeinde"},"district":{"key":"09179","name":"Fürstenfeldbruck","type":"Landkreis"},"federalState":{"key":"09","name":"Bayern"}},{"name":"Breitenweg","postalCode":"82216","locality":"Maisach","municipality":{"key":"09179134","name":"Maisach","type":"Kreisangehörige_Gemeinde"},"district":{"key":"09179","name":"Fürstenfeldbruck","type":"Landkreis"},"federalState":{"key":"09","name":"Bayern"}},{"name":"Brucker Str.","postalCode":"82216","locality":"Maisach","municipality":{"key":"09179134","name":"Maisach","type":"Kreisangehörige_Gemeinde"},"district":{"key":"09179","name":"Fürstenfeldbruck","type":"Landkreis"},"federalState":{"key":"09","name":"Bayern"}},{"name":"Bruder-Konrad-Str.","postalCode":"82216","locality":"Maisach","municipality":{"key":"09179134","name":"Maisach","type":"Kreisangehörige_Gemeinde"},"district":{"key":"09179","name":"Fürstenfeldbruck","type":"Landkreis"},"federalState":{"key":"09","name":"Bayern"}},{"name":"Bruggweg","postalCode":"82216","locality":"Maisach","municipality":{"key":"09179134","name":"Maisach","type":"Kreisangehörige_Gemeinde"},"district":{"key":"09179","name":"Fürstenfeldbruck","type":"Landkreis"},"federalState":{"key":"09","name":"Bayern"}},{"name":"Buchenstr.","postalCode":"82216","locality":"Maisach","municipality":{"key":"09179134","name":"Maisach","type":"Kreisangehörige_Gemeinde"},"district":{"key":"09179","name":"Fürstenfeldbruck","type":"Landkreis"},"federalState":{"key":"09","name":"Bayern"}},{"name":"Bürgermeister-Bals-Str.","postalCode":"82216","locality":"Maisach","municipality":{"key":"09179134","name":"Maisach","type":"Kreisangehörige_Gemeinde"},"district":{"key":"09179","name":"Fürstenfeldbruck","type":"Landkreis"},"federalState":{"key":"09","name":"Bayern"}},{"name":"Bürgermeister-Grichter-Str.","postalCode":"82216","locality":"Maisach","municipality":{"key":"09179134","name":"Maisach","type":"Kreisangehörige_Gemeinde"},"district":{"key":"09179","name":"Fürstenfeldbruck","type":"Landkreis"},"federalState":{"key":"09","name":"Bayern"}},{"name":"Bürgermeister-Mösl-Str.","postalCode":"82216","locality":"Maisach","municipality":{"key":"09179134","name":"Maisach","type":"Kreisangehörige_Gemeinde"},"district":{"key":"09179","name":"Fürstenfeldbruck","type":"Landkreis"},"federalState":{"key":"09","name":"Bayern"}},{"name":"Bürgermeister-Müller-Str.","postalCode":"82216","locality":"Maisach","municipality":{"key":"09179134","name":"Maisach","type":"Kreisangehörige_Gemeinde"},"district":{"key":"09179","name":"Fürstenfeldbruck","type":"Landkreis"},"federalState":{"key":"09","name":"Bayern"}},{"name":"Bürgermeister-Popfinger-Str.","postalCode":"82216","locality":"Maisach","municipality":{"key":"09179134","name":"Maisach","type":"Kreisangehörige_Gemeinde"},"district":{"key":"09179","name":"Fürstenfeldbruck","type":"Landkreis"},"federalState":{"key":"09","name":"Bayern"}},{"name":"Bürgermeister-Schlatter-Str.","postalCode":"82216","locality":"Maisach","municipality":{"key":"09179134","name":"Maisach","type":"Kreisangehörige_Gemeinde"},"district":{"key":"09179","name":"Fürstenfeldbruck","type":"Landkreis"},"federalState":{"key":"09","name":"Bayern"}},{"name":"Bürgermeister-Schwarzmann-Str.","postalCode":"82216","locality":"Maisach","municipality":{"key":"09179134","name":"Maisach","type":"Kreisangehörige_Gemeinde"},"district":{"key":"09179","name":"Fürstenfeldbruck","type":"Landkreis"},"federalState":{"key":"09","name":"Bayern"}},{"name":"Bürgermeister-Sommer-Str.","postalCode":"82216","locality":"Maisach","municipality":{"key":"09179134","name":"Maisach","type":"Kreisangehörige_Gemeinde"},"district":{"key":"09179","name":"Fürstenfeldbruck","type":"Landkreis"},"federalState":{"key":"09","name":"Bayern"}},{"name":"Buschingstr.","postalCode":"82216","locality":"Maisach","municipality":{"key":"09179134","name":"Maisach","type":"Kreisangehörige_Gemeinde"},"district":{"key":"09179","name":"Fürstenfeldbruck","type":"Landkreis"},"federalState":{"key":"09","name":"Bayern"}},{"name":"Carl-von-Linde-Str.","postalCode":"82256","locality":"Fürstenfeldbruck","municipality":{"key":"09179121","name":"Fürstenfeldbruck, GKSt","type":"Große_Kreisstadt"},"district":{"key":"09179","name":"Fürstenfeldbruck","type":"Landkreis"},"federalState":{"key":"09","name":"Bayern"}},{"name":"Cerveteristr.","postalCode":"82256","locality":"Fürstenfeldbruck","municipality":{"key":"09179121","name":"Fürstenfeldbruck, GKSt","type":"Große_Kreisstadt"},"district":{"key":"09179","name":"Fürstenfeldbruck","type":"Landkreis"},"federalState":{"key":"09","name":"Bayern"}},{"name":"Dahlienstr.","postalCode":"82216","locality":"Maisach","municipality":{"key":"09179134","name":"Maisach","type":"Kreisangehörige_Gemeinde"},"district":{"key":"09179","name":"Fürstenfeldbruck","type":"Landkreis"},"federalState":{"key":"09","name":"Bayern"}},{"name":"Dellingerweg","postalCode":"82216","locality":"Maisach","municipality":{"key":"09179134","name":"Maisach","type":"Kreisangehörige_Gemeinde"},"district":{"key":"09179","name":"Fürstenfeldbruck","type":"Landkreis"},"federalState":{"key":"09","name":"Bayern"}},{"name":"Dinkelweg","postalCode":"82216","locality":"Maisach","municipality":{"key":"09179134","name":"Maisach","type":"Kreisangehörige_Gemeinde"},"district":{"key":"09179","name":"Fürstenfeldbruck","type":"Landkreis"},"federalState":{"key":"09","name":"Bayern"}},{"name":"Doktor-Josef-Thiel-Weg","postalCode":"82216","locality":"Maisach","municipality":{"key":"09179134","name":"Maisach","type":"Kreisangehörige_Gemeinde"},"district":{"key":"09179","name":"Fürstenfeldbruck","type":"Landkreis"},"federalState":{"key":"09","name":"Bayern"}},{"name":"Edelweißstr.","postalCode":"82216","locality":"Maisach","municipality":{"key":"09179134","name":"Maisach","type":"Kreisangehörige_Gemeinde"},"district":{"key":"09179","name":"Fürstenfeldbruck","type":"Landkreis"},"federalState":{"key":"09","name":"Bayern"}},{"name":"Efeuweg","postalCode":"82216","locality":"Maisach","municipality":{"key":"09179134","name":"Maisach","type":"Kreisangehörige_Gemeinde"},"district":{"key":"09179","name":"Fürstenfeldbruck","type":"Landkreis"},"federalState":{"key":"09","name":"Bayern"}},{"name":"Eibenweg","postalCode":"82216","locality":"Maisach","municipality":{"key":"09179134","name":"Maisach","type":"Kreisangehörige_Gemeinde"},"district":{"key":"09179","name":"Fürstenfeldbruck","type":"Landkreis"},"federalState":{"key":"09","name":"Bayern"}},{"name":"Eichenstr.","postalCode":"82216","locality":"Maisach","municipality":{"key":"09179134","name":"Maisach","type":"Kreisangehörige_Gemeinde"},"district":{"key":"09179","name":"Fürstenfeldbruck","type":"Landkreis"},"federalState":{"key":"09","name":"Bayern"}},{"name":"Einsbacher Str.","postalCode":"82216","locality":"Maisach","municipality":{"key":"09179134","name":"Maisach","type":"Kreisangehörige_Gemeinde"},"district":{"key":"09179","name":"Fürstenfeldbruck","type":"Landkreis"},"federalState":{"key":"09","name":"Bayern"}},{"name":"Emmeringer Str.","postalCode":"82216","locality":"Maisach","municipality":{"key":"09179134","name":"Maisach","type":"Kreisangehörige_Gemeinde"},"district":{"key":"09179","name":"Fürstenfeldbruck","type":"Landkreis"},"federalState":{"key":"09","name":"Bayern"}},{"name":"Emmy-Noether-Str.","postalCode":"82216","locality":"Maisach","municipality":{"key":"09179134","name":"Maisach","type":"Kreisangehörige_Gemeinde"},"district":{"key":"09179","name":"Fürstenfeldbruck","type":"Landkreis"},"federalState":{"key":"09","name":"Bayern"}},{"name":"Enzianstr.","postalCode":"82216","locality":"Maisach","municipality":{"key":"09179134","name":"Maisach","type":"Kreisangehörige_Gemeinde"},"district":{"key":"09179","name":"Fürstenfeldbruck","type":"Landkreis"},"federalState":{"key":"09","name":"Bayern"}},{"name":"Estinger Str.","postalCode":"82216","locality":"Maisach","municipality":{"key":"09179134","name":"Maisach","type":"Kreisangehörige_Gemeinde"},"district":{"key":"09179","name":"Fürstenfeldbruck","type":"Landkreis"},"federalState":{"key":"09","name":"Bayern"}},{"name":"Feldenstr.","postalCode":"82216","locality":"Maisach","municipality":{"key":"09179134","name":"Maisach","type":"Kreisangehörige_Gemeinde"},"district":{"key":"09179","name":"Fürstenfeldbruck","type":"Landkreis"},"federalState":{"key":"09","name":"Bayern"}},{"name":"Feldstr.","postalCode":"82216","locality":"Maisach","municipality":{"key":"09179134","name":"Maisach","type":"Kreisangehörige_Gemeinde"},"district":{"key":"09179","name":"Fürstenfeldbruck","type":"Landkreis"},"federalState":{"key":"09","name":"Bayern"}},{"name":"Feuerhausweg","postalCode":"82216","locality":"Maisach","municipality":{"key":"09179134","name":"Maisach","type":"Kreisangehörige_Gemeinde"},"district":{"key":"09179","name":"Fürstenfeldbruck","type":"Landkreis"},"federalState":{"key":"09","name":"Bayern"}},{"name":"Fichtenstr.","postalCode":"82216","locality":"Maisach","municipality":{"key":"09179134","name":"Maisach","type":"Kreisangehörige_Gemeinde"},"district":{"key":"09179","name":"Fürstenfeldbruck","type":"Landkreis"},"federalState":{"key":"09","name":"Bayern"}},{"name":"Finkenweg","postalCode":"82216","locality":"Maisach","municipality":{"key":"09179134","name":"Maisach","type":"Kreisangehörige_Gemeinde"},"district":{"key":"09179","name":"Fürstenfeldbruck","type":"Landkreis"},"federalState":{"key":"09","name":"Bayern"}},{"name":"Fliederstr.","postalCode":"82216","locality":"Maisach","municipality":{"key":"09179134","name":"Maisach","type":"Kreisangehörige_Gemeinde"},"district":{"key":"09179","name":"Fürstenfeldbruck","type":"Landkreis"},"federalState":{"key":"09","name":"Bayern"}},{"name":"Flurstr.","postalCode":"82216","locality":"Maisach","municipality":{"key":"09179134","name":"Maisach","type":"Kreisangehörige_Gemeinde"},"district":{"key":"09179","name":"Fürstenfeldbruck","type":"Landkreis"},"federalState":{"key":"09","name":"Bayern"}},{"name":"Frauenberger Str.","postalCode":"82216","locality":"Maisach","municipality":{"key":"09179134","name":"Maisach","type":"Kreisangehörige_Gemeinde"},"district":{"key":"09179","name":"Fürstenfeldbruck","type":"Landkreis"},"federalState":{"key":"09","name":"Bayern"}},{"name":"Friedenstr.","postalCode":"82216","locality":"Maisach","municipality":{"key":"09179134","name":"Maisach","type":"Kreisangehörige_Gemeinde"},"district":{"key":"09179","name":"Fürstenfeldbruck","type":"Landkreis"},"federalState":{"key":"09","name":"Bayern"}},{"name":"Friedhofstr.","postalCode":"82216","locality":"Maisach","municipality":{"key":"09179134","name":"Maisach","type":"Kreisangehörige_Gemeinde"},"district":{"key":"09179","name":"Fürstenfeldbruck","type":"Landkreis"},"federalState":{"key":"09","name":"Bayern"}},{"name":"Fritz-Reuter-Str.","postalCode":"82216","locality":"Maisach","municipality":{"key":"09179134","name":"Maisach","type":"Kreisangehörige_Gemeinde"},"district":{"key":"09179","name":"Fürstenfeldbruck","type":"Landkreis"},"federalState":{"key":"09","name":"Bayern"}},{"name":"Frühlingstr.","postalCode":"82216","locality":"Maisach","municipality":{"key":"09179134","name":"Maisach","type":"Kreisangehörige_Gemeinde"},"district":{"key":"09179","name":"Fürstenfeldbruck","type":"Landkreis"},"federalState":{"key":"09","name":"Bayern"}},{"name":"Fußberger Str.","postalCode":"82216","locality":"Maisach","municipality":{"key":"09179134","name":"Maisach","type":"Kreisangehörige_Gemeinde"},"district":{"key":"09179","name":"Fürstenfeldbruck","type":"Landkreis"},"federalState":{"key":"09","name":"Bayern"}},{"name":"Ganghoferstr.","postalCode":"82216","locality":"Maisach","municipality":{"key":"09179134","name":"Maisach","type":"Kreisangehörige_Gemeinde"},"district":{"key":"09179","name":"Fürstenfeldbruck","type":"Landkreis"},"federalState":{"key":"09","name":"Bayern"}},{"name":"Gärtnerstr.","postalCode":"82216","locality":"Maisach","municipality":{"key":"09179134","name":"Maisach","type":"Kreisangehörige_Gemeinde"},"district":{"key":"09179","name":"Fürstenfeldbruck","type":"Landkreis"},"federalState":{"key":"09","name":"Bayern"}},{"name":"Gebrüder-Grimm-Weg","postalCode":"82216","locality":"Maisach","municipality":{"key":"09179134","name":"Maisach","type":"Kreisangehörige_Gemeinde"},"district":{"key":"09179","name":"Fürstenfeldbruck","type":"Landkreis"},"federalState":{"key":"09","name":"Bayern"}},{"name":"Geigelsteinweg","postalCode":"82216","locality":"Maisach","municipality":{"key":"09179134","name":"Maisach","type":"Kreisangehörige_Gemeinde"},"district":{"key":"09179","name":"Fürstenfeldbruck","type":"Landkreis"},"federalState":{"key":"09","name":"Bayern"}},{"name":"Gernlindener Str.","postalCode":"82216","locality":"Maisach","municipality":{"key":"09179134","name":"Maisach","type":"Kreisangehörige_Gemeinde"},"district":{"key":"09179","name":"Fürstenfeldbruck","type":"Landkreis"},"federalState":{"key":"09","name":"Bayern"}},{"name":"Gertraud-Kölbl-Str.","postalCode":"82216","locality":"Maisach","municipality":{"key":"09179134","name":"Maisach","type":"Kreisangehörige_Gemeinde"},"district":{"key":"09179","name":"Fürstenfeldbruck","type":"Landkreis"},"federalState":{"key":"09","name":"Bayern"}},{"name":"Goethestr.","postalCode":"82216","locality":"Maisach","municipality":{"key":"09179134","name":"Maisach","type":"Kreisangehörige_Gemeinde"},"district":{"key":"09179","name":"Fürstenfeldbruck","type":"Landkreis"},"federalState":{"key":"09","name":"Bayern"}},{"name":"Göttlerstr.","postalCode":"82216","locality":"Maisach","municipality":{"key":"09179134","name":"Maisach","type":"Kreisangehörige_Gemeinde"},"district":{"key":"09179","name":"Fürstenfeldbruck","type":"Landkreis"},"federalState":{"key":"09","name":"Bayern"}},{"name":"Graf-Toerring-Str.","postalCode":"82216","locality":"Maisach","municipality":{"key":"09179134","name":"Maisach","type":"Kreisangehörige_Gemeinde"},"district":{"key":"09179","name":"Fürstenfeldbruck","type":"Landkreis"},"federalState":{"key":"09","name":"Bayern"}},{"name":"Grubenstr.","postalCode":"82216","locality":"Maisach","municipality":{"key":"09179134","name":"Maisach","type":"Kreisangehörige_Gemeinde"},"district":{"key":"09179","name":"Fürstenfeldbruck","type":"Landkreis"},"federalState":{"key":"09","name":"Bayern"}},{"name":"Gut Gernlinden","postalCode":"82216","locality":"Maisach","municipality":{"key":"09179134","name":"Maisach","type":"Kreisangehörige_Gemeinde"},"district":{"key":"09179","name":"Fürstenfeldbruck","type":"Landkreis"},"federalState":{"key":"09","name":"Bayern"}},{"name":"Hakenstr.","postalCode":"82216","locality":"Maisach","municipality":{"key":"09179134","name":"Maisach","type":"Kreisangehörige_Gemeinde"},"district":{"key":"09179","name":"Fürstenfeldbruck","type":"Landkreis"},"federalState":{"key":"09","name":"Bayern"}},{"name":"Hans-Wegmann-Str.","postalCode":"82216","locality":"Maisach","municipality":{"key":"09179134","name":"Maisach","type":"Kreisangehörige_Gemeinde"},"district":{"key":"09179","name":"Fürstenfeldbruck","type":"Landkreis"},"federalState":{"key":"09","name":"Bayern"}},{"name":"Hauptstr.","postalCode":"82216","locality":"Maisach","municipality":{"key":"09179134","name":"Maisach","type":"Kreisangehörige_Gemeinde"},"district":{"key":"09179","name":"Fürstenfeldbruck","type":"Landkreis"},"federalState":{"key":"09","name":"Bayern"}},{"name":"Hauserstr.","postalCode":"82216","locality":"Maisach","municipality":{"key":"09179134","name":"Maisach","type":"Kreisangehörige_Gemeinde"},"district":{"key":"09179","name":"Fürstenfeldbruck","type":"Landkreis"},"federalState":{"key":"09","name":"Bayern"}},{"name":"Heinestr.","postalCode":"82216","locality":"Maisach","municipality":{"key":"09179134","name":"Maisach","type":"Kreisangehörige_Gemeinde"},"district":{"key":"09179","name":"Fürstenfeldbruck","type":"Landkreis"},"federalState":{"key":"09","name":"Bayern"}},{"name":"Heinzingerstr.","postalCode":"82216","locality":"Maisach","municipality":{"key":"09179134","name":"Maisach","type":"Kreisangehörige_Gemeinde"},"district":{"key":"09179","name":"Fürstenfeldbruck","type":"Landkreis"},"federalState":{"key":"09","name":"Bayern"}},{"name":"Herbststr.","postalCode":"82216","locality":"Maisach","municipality":{"key":"09179134","name":"Maisach","type":"Kreisangehörige_Gemeinde"},"district":{"key":"09179","name":"Fürstenfeldbruck","type":"Landkreis"},"federalState":{"key":"09","name":"Bayern"}},{"name":"Hermann-Löns-Str.","postalCode":"82216","locality":"Maisach","municipality":{"key":"09179134","name":"Maisach","type":"Kreisangehörige_Gemeinde"},"district":{"key":"09179","name":"Fürstenfeldbruck","type":"Landkreis"},"federalState":{"key":"09","name":"Bayern"}},{"name":"Herrenstr.","postalCode":"82216","locality":"Maisach","municipality":{"key":"09179134","name":"Maisach","type":"Kreisangehörige_Gemeinde"},"district":{"key":"09179","name":"Fürstenfeldbruck","type":"Landkreis"},"federalState":{"key":"09","name":"Bayern"}},{"name":"Hochgstattweg","postalCode":"82216","locality":"Maisach","municipality":{"key":"09179134","name":"Maisach","type":"Kreisangehörige_Gemeinde"},"district":{"key":"09179","name":"Fürstenfeldbruck","type":"Landkreis"},"federalState":{"key":"09","name":"Bayern"}},{"name":"Hochriesweg","postalCode":"82216","locality":"Maisach","municipality":{"key":"09179134","name":"Maisach","type":"Kreisangehörige_Gemeinde"},"district":{"key":"09179","name":"Fürstenfeldbruck","type":"Landkreis"},"federalState":{"key":"09","name":"Bayern"}},{"name":"Hufschmiedstr.","postalCode":"82216","locality":"Maisach","municipality":{"key":"09179134","name":"Maisach","type":"Kreisangehörige_Gemeinde"},"district":{"key":"09179","name":"Fürstenfeldbruck","type":"Landkreis"},"federalState":{"key":"09","name":"Bayern"}},{"name":"Hugo-Brunninger-Str.","postalCode":"82216","locality":"Maisach","municipality":{"key":"09179134","name":"Maisach","type":"Kreisangehörige_Gemeinde"},"district":{"key":"09179","name":"Fürstenfeldbruck","type":"Landkreis"},"federalState":{"key":"09","name":"Bayern"}},{"name":"Im Krautgarten","postalCode":"82216","locality":"Maisach","municipality":{"key":"09179134","name":"Maisach","type":"Kreisangehörige_Gemeinde"},"district":{"key":"09179","name":"Fürstenfeldbruck","type":"Landkreis"},"federalState":{"key":"09","name":"Bayern"}},{"name":"Jahnstr.","postalCode":"82216","locality":"Maisach","municipality":{"key":"09179134","name":"Maisach","type":"Kreisangehörige_Gemeinde"},"district":{"key":"09179","name":"Fürstenfeldbruck","type":"Landkreis"},"federalState":{"key":"09","name":"Bayern"}},{"name":"Jasminweg","postalCode":"82216","locality":"Maisach","municipality":{"key":"09179134","name":"Maisach","type":"Kreisangehörige_Gemeinde"},"district":{"key":"09179","name":"Fürstenfeldbruck","type":"Landkreis"},"federalState":{"key":"09","name":"Bayern"}},{"name":"Jennerweg","postalCode":"82216","locality":"Maisach","municipality":{"key":"09179134","name":"Maisach","type":"Kreisangehörige_Gemeinde"},"district":{"key":"09179","name":"Fürstenfeldbruck","type":"Landkreis"},"federalState":{"key":"09","name":"Bayern"}},{"name":"Josef-Bauer-Str.","postalCode":"82216","locality":"Maisach","municipality":{"key":"09179134","name":"Maisach","type":"Kreisangehörige_Gemeinde"},"district":{"key":"09179","name":"Fürstenfeldbruck","type":"Landkreis"},"federalState":{"key":"09","name":"Bayern"}},{"name":"Josef-Sedlmayr-Str.","postalCode":"82216","locality":"Maisach","municipality":{"key":"09179134","name":"Maisach","type":"Kreisangehörige_Gemeinde"},"district":{"key":"09179","name":"Fürstenfeldbruck","type":"Landkreis"},"federalState":{"key":"09","name":"Bayern"}},{"name":"Kandlerstr.","postalCode":"82216","locality":"Maisach","municipality":{"key":"09179134","name":"Maisach","type":"Kreisangehörige_Gemeinde"},"district":{"key":"09179","name":"Fürstenfeldbruck","type":"Landkreis"},"federalState":{"key":"09","name":"Bayern"}},{"name":"Karlstr.","postalCode":"82216","locality":"Maisach","municipality":{"key":"09179134","name":"Maisach","type":"Kreisangehörige_Gemeinde"},"district":{"key":"09179","name":"Fürstenfeldbruck","type":"Landkreis"},"federalState":{"key":"09","name":"Bayern"}},{"name":"Kehlsteinweg","postalCode":"82216","locality":"Maisach","municipality":{"key":"09179134","name":"Maisach","type":"Kreisangehörige_Gemeinde"},"district":{"key":"09179","name":"Fürstenfeldbruck","type":"Landkreis"},"federalState":{"key":"09","name":"Bayern"}},{"name":"Kellerstr.","postalCode":"82216","locality":"Maisach","municipality":{"key":"09179134","name":"Maisach","type":"Kreisangehörige_Gemeinde"},"district":{"key":"09179","name":"Fürstenfeldbruck","type":"Landkreis"},"federalState":{"key":"09","name":"Bayern"}},{"name":"Keltenstr.","postalCode":"82216","locality":"Maisach","municipality":{"key":"09179134","name":"Maisach","type":"Kreisangehörige_Gemeinde"},"district":{"key":"09179","name":"Fürstenfeldbruck","type":"Landkreis"},"federalState":{"key":"09","name":"Bayern"}},{"name":"Kermarstr.","postalCode":"82216","locality":"Maisach","municipality":{"key":"09179134","name":"Maisach","type":"Kreisangehörige_Gemeinde"},"district":{"key":"09179","name":"Fürstenfeldbruck","type":"Landkreis"},"federalState":{"key":"09","name":"Bayern"}},{"name":"Kernweg","postalCode":"82216","locality":"Maisach","municipality":{"key":"09179134","name":"Maisach","type":"Kreisangehörige_Gemeinde"},"district":{"key":"09179","name":"Fürstenfeldbruck","type":"Landkreis"},"federalState":{"key":"09","name":"Bayern"}},{"name":"Kirchbergstr.","postalCode":"82216","locality":"Maisach","municipality":{"key":"09179134","name":"Maisach","type":"Kreisangehörige_Gemeinde"},"district":{"key":"09179","name":"Fürstenfeldbruck","type":"Landkreis"},"federalState":{"key":"09","name":"Bayern"}},{"name":"Kirchenstr.","postalCode":"82216","locality":"Maisach","municipality":{"key":"09179134","name":"Maisach","type":"Kreisangehörige_Gemeinde"},"district":{"key":"09179","name":"Fürstenfeldbruck","type":"Landkreis"},"federalState":{"key":"09","name":"Bayern"}},{"name":"Kirchfeldstr.","postalCode":"82216","locality":"Maisach","municipality":{"key":"09179134","name":"Maisach","type":"Kreisangehörige_Gemeinde"},"district":{"key":"09179","name":"Fürstenfeldbruck","type":"Landkreis"},"federalState":{"key":"09","name":"Bayern"}},{"name":"Kirchweg","postalCode":"82216","locality":"Maisach","municipality":{"key":"09179134","name":"Maisach","type":"Kreisangehörige_Gemeinde"},"district":{"key":"09179","name":"Fürstenfeldbruck","type":"Landkreis"},"federalState":{"key":"09","name":"Bayern"}},{"name":"Kleiberweg","postalCode":"82216","locality":"Maisach","municipality":{"key":"09179134","name":"Maisach","type":"Kreisangehörige_Gemeinde"},"district":{"key":"09179","name":"Fürstenfeldbruck","type":"Landkreis"},"federalState":{"key":"09","name":"Bayern"}},{"name":"Kohlstattstr.","postalCode":"82216","locality":"Maisach","municipality":{"key":"09179134","name":"Maisach","type":"Kreisangehörige_Gemeinde"},"district":{"key":"09179","name":"Fürstenfeldbruck","type":"Landkreis"},"federalState":{"key":"09","name":"Bayern"}},{"name":"Kolpingweg","postalCode":"82216","locality":"Maisach","municipality":{"key":"09179134","name":"Maisach","type":"Kreisangehörige_Gemeinde"},"district":{"key":"09179","name":"Fürstenfeldbruck","type":"Landkreis"},"federalState":{"key":"09","name":"Bayern"}},{"name":"Königstr.","postalCode":"82216","locality":"Maisach","municipality":{"key":"09179134","name":"Maisach","type":"Kreisangehörige_Gemeinde"},"district":{"key":"09179","name":"Fürstenfeldbruck","type":"Landkreis"},"federalState":{"key":"09","name":"Bayern"}},{"name":"Krautgartenweg","postalCode":"82216","locality":"Maisach","municipality":{"key":"09179134","name":"Maisach","type":"Kreisangehörige_Gemeinde"},"district":{"key":"09179","name":"Fürstenfeldbruck","type":"Landkreis"},"federalState":{"key":"09","name":"Bayern"}},{"name":"Kreuzeckweg","postalCode":"82216","locality":"Maisach","municipality":{"key":"09179134","name":"Maisach","type":"Kreisangehörige_Gemeinde"},"district":{"key":"09179","name":"Fürstenfeldbruck","type":"Landkreis"},"federalState":{"key":"09","name":"Bayern"}},{"name":"Kreuzstr.","postalCode":"82216","locality":"Maisach","municipality":{"key":"09179134","name":"Maisach","type":"Kreisangehörige_Gemeinde"},"district":{"key":"09179","name":"Fürstenfeldbruck","type":"Landkreis"},"federalState":{"key":"09","name":"Bayern"}},{"name":"Kreuzweg","postalCode":"82216","locality":"Maisach","municipality":{"key":"09179134","name":"Maisach","type":"Kreisangehörige_Gemeinde"},"district":{"key":"09179","name":"Fürstenfeldbruck","type":"Landkreis"},"federalState":{"key":"09","name":"Bayern"}},{"name":"Kreuzwiesenstr.","postalCode":"82216","locality":"Maisach","municipality":{"key":"09179134","name":"Maisach","type":"Kreisangehörige_Gemeinde"},"district":{"key":"09179","name":"Fürstenfeldbruck","type":"Landkreis"},"federalState":{"key":"09","name":"Bayern"}},{"name":"Krokusstr.","postalCode":"82216","locality":"Maisach","municipality":{"key":"09179134","name":"Maisach","type":"Kreisangehörige_Gemeinde"},"district":{"key":"09179","name":"Fürstenfeldbruck","type":"Landkreis"},"federalState":{"key":"09","name":"Bayern"}},{"name":"Kühbergstr.","postalCode":"82216","locality":"Maisach","municipality":{"key":"09179134","name":"Maisach","type":"Kreisangehörige_Gemeinde"},"district":{"key":"09179","name":"Fürstenfeldbruck","type":"Landkreis"},"federalState":{"key":"09","name":"Bayern"}},{"name":"Lärchenweg","postalCode":"82216","locality":"Maisach","municipality":{"key":"09179134","name":"Maisach","type":"Kreisangehörige_Gemeinde"},"district":{"key":"09179","name":"Fürstenfeldbruck","type":"Landkreis"},"federalState":{"key":"09","name":"Bayern"}},{"name":"Laurentiusstr.","postalCode":"82216","locality":"Maisach","municipality":{"key":"09179134","name":"Maisach","type":"Kreisangehörige_Gemeinde"},"district":{"key":"09179","name":"Fürstenfeldbruck","type":"Landkreis"},"federalState":{"key":"09","name":"Bayern"}},{"name":"Lavendelweg","postalCode":"82216","locality":"Maisach","municipality":{"key":"09179134","name":"Maisach","type":"Kreisangehörige_Gemeinde"},"district":{"key":"09179","name":"Fürstenfeldbruck","type":"Landkreis"},"federalState":{"key":"09","name":"Bayern"}},{"name":"Liebigstr.","postalCode":"82216","locality":"Maisach","municipality":{"key":"09179134","name":"Maisach","type":"Kreisangehörige_Gemeinde"},"district":{"key":"09179","name":"Fürstenfeldbruck","type":"Landkreis"},"federalState":{"key":"09","name":"Bayern"}},{"name":"Lilienstr.","postalCode":"82216","locality":"Maisach","municipality":{"key":"09179134","name":"Maisach","type":"Kreisangehörige_Gemeinde"},"district":{"key":"09179","name":"Fürstenfeldbruck","type":"Landkreis"},"federalState":{"key":"09","name":"Bayern"}},{"name":"Lindacher Str.","postalCode":"82216","locality":"Maisach","municipality":{"key":"09179134","name":"Maisach","type":"Kreisangehörige_Gemeinde"},"district":{"key":"09179","name":"Fürstenfeldbruck","type":"Landkreis"},"federalState":{"key":"09","name":"Bayern"}},{"name":"Lindenstr.","postalCode":"82216","locality":"Maisach","municipality":{"key":"09179134","name":"Maisach","type":"Kreisangehörige_Gemeinde"},"district":{"key":"09179","name":"Fürstenfeldbruck","type":"Landkreis"},"federalState":{"key":"09","name":"Bayern"}},{"name":"Lohstr.","postalCode":"82216","locality":"Maisach","municipality":{"key":"09179134","name":"Maisach","type":"Kreisangehörige_Gemeinde"},"district":{"key":"09179","name":"Fürstenfeldbruck","type":"Landkreis"},"federalState":{"key":"09","name":"Bayern"}},{"name":"Ludwig-Thoma-Str.","postalCode":"82216","locality":"Maisach","municipality":{"key":"09179134","name":"Maisach","type":"Kreisangehörige_Gemeinde"},"district":{"key":"09179","name":"Fürstenfeldbruck","type":"Landkreis"},"federalState":{"key":"09","name":"Bayern"}},{"name":"Lugbergstr.","postalCode":"82216","locality":"Maisach","municipality":{"key":"09179134","name":"Maisach","type":"Kreisangehörige_Gemeinde"},"district":{"key":"09179","name":"Fürstenfeldbruck","type":"Landkreis"},"federalState":{"key":"09","name":"Bayern"}},{"name":"Luitpoldstr.","postalCode":"82216","locality":"Maisach","municipality":{"key":"09179134","name":"Maisach","type":"Kreisangehörige_Gemeinde"},"district":{"key":"09179","name":"Fürstenfeldbruck","type":"Landkreis"},"federalState":{"key":"09","name":"Bayern"}},{"name":"Lusstr.","postalCode":"82216","locality":"Maisach","municipality":{"key":"09179134","name":"Maisach","type":"Kreisangehörige_Gemeinde"},"district":{"key":"09179","name":"Fürstenfeldbruck","type":"Landkreis"},"federalState":{"key":"09","name":"Bayern"}},{"name":"Maisacher Str.","postalCode":"82216","locality":"Maisach","municipality":{"key":"09179134","name":"Maisach","type":"Kreisangehörige_Gemeinde"},"district":{"key":"09179","name":"Fürstenfeldbruck","type":"Landkreis"},"federalState":{"key":"09","name":"Bayern"}},{"name":"Malchinger Str.","postalCode":"82216","locality":"Maisach","municipality":{"key":"09179134","name":"Maisach","type":"Kreisangehörige_Gemeinde"},"district":{"key":"09179","name":"Fürstenfeldbruck","type":"Landkreis"},"federalState":{"key":"09","name":"Bayern"}},{"name":"Mammendorfer Str.","postalCode":"82216","locality":"Maisach","municipality":{"key":"09179134","name":"Maisach","type":"Kreisangehörige_Gemeinde"},"district":{"key":"09179","name":"Fürstenfeldbruck","type":"Landkreis"},"federalState":{"key":"09","name":"Bayern"}},{"name":"Max-Rappenglitz-Ring","postalCode":"82216","locality":"Maisach","municipality":{"key":"09179134","name":"Maisach","type":"Kreisangehörige_Gemeinde"},"district":{"key":"09179","name":"Fürstenfeldbruck","type":"Landkreis"},"federalState":{"key":"09","name":"Bayern"}},{"name":"Meisenweg","postalCode":"82216","locality":"Maisach","municipality":{"key":"09179134","name":"Maisach","type":"Kreisangehörige_Gemeinde"},"district":{"key":"09179","name":"Fürstenfeldbruck","type":"Landkreis"},"federalState":{"key":"09","name":"Bayern"}},{"name":"Metzgerstr.","postalCode":"82216","locality":"Maisach","municipality":{"key":"09179134","name":"Maisach","type":"Kreisangehörige_Gemeinde"},"district":{"key":"09179","name":"Fürstenfeldbruck","type":"Landkreis"},"federalState":{"key":"09","name":"Bayern"}},{"name":"Mitterfeldstr.","postalCode":"82216","locality":"Maisach","municipality":{"key":"09179134","name":"Maisach","type":"Kreisangehörige_Gemeinde"},"district":{"key":"09179","name":"Fürstenfeldbruck","type":"Landkreis"},"federalState":{"key":"09","name":"Bayern"}},{"name":"Moosalmstr.","postalCode":"82216","locality":"Maisach","municipality":{"key":"09179134","name":"Maisach","type":"Kreisangehörige_Gemeinde"},"district":{"key":"09179","name":"Fürstenfeldbruck","type":"Landkreis"},"federalState":{"key":"09","name":"Bayern"}},{"name":"Moosstr.","postalCode":"82216","locality":"Maisach","municipality":{"key":"09179134","name":"Maisach","type":"Kreisangehörige_Gemeinde"},"district":{"key":"09179","name":"Fürstenfeldbruck","type":"Landkreis"},"federalState":{"key":"09","name":"Bayern"}},{"name":"Mooswiesenstr.","postalCode":"82216","locality":"Maisach","municipality":{"key":"09179134","name":"Maisach","type":"Kreisangehörige_Gemeinde"},"district":{"key":"09179","name":"Fürstenfeldbruck","type":"Landkreis"},"federalState":{"key":"09","name":"Bayern"}},{"name":"Moserstr.","postalCode":"82216","locality":"Maisach","municipality":{"key":"09179134","name":"Maisach","type":"Kreisangehörige_Gemeinde"},"district":{"key":"09179","name":"Fürstenfeldbruck","type":"Landkreis"},"federalState":{"key":"09","name":"Bayern"}},{"name":"Mühlfeldstr.","postalCode":"82216","locality":"Maisach","municipality":{"key":"09179134","name":"Maisach","type":"Kreisangehörige_Gemeinde"},"district":{"key":"09179","name":"Fürstenfeldbruck","type":"Landkreis"},"federalState":{"key":"09","name":"Bayern"}},{"name":"Mühlstr.","postalCode":"82216","locality":"Maisach","municipality":{"key":"09179134","name":"Maisach","type":"Kreisangehörige_Gemeinde"},"district":{"key":"09179","name":"Fürstenfeldbruck","type":"Landkreis"},"federalState":{"key":"09","name":"Bayern"}},{"name":"Müllerstr.","postalCode":"82216","locality":"Maisach","municipality":{"key":"09179134","name":"Maisach","type":"Kreisangehörige_Gemeinde"},"district":{"key":"09179","name":"Fürstenfeldbruck","type":"Landkreis"},"federalState":{"key":"09","name":"Bayern"}},{"name":"Nelkenstr.","postalCode":"82216","locality":"Maisach","municipality":{"key":"09179134","name":"Maisach","type":"Kreisangehörige_Gemeinde"},"district":{"key":"09179","name":"Fürstenfeldbruck","type":"Landkreis"},"federalState":{"key":"09","name":"Bayern"}},{"name":"Nottensteinstr.","postalCode":"82216","locality":"Maisach","municipality":{"key":"09179134","name":"Maisach","type":"Kreisangehörige_Gemeinde"},"district":{"key":"09179","name":"Fürstenfeldbruck","type":"Landkreis"},"federalState":{"key":"09","name":"Bayern"}},{"name":"Oberweg-Nord","postalCode":"82216","locality":"Maisach","municipality":{"key":"09179134","name":"Maisach","type":"Kreisangehörige_Gemeinde"},"district":{"key":"09179","name":"Fürstenfeldbruck","type":"Landkreis"},"federalState":{"key":"09","name":"Bayern"}},{"name":"Otto-Hahn-Str.","postalCode":"82216","locality":"Maisach","municipality":{"key":"09179134","name":"Maisach","type":"Kreisangehörige_Gemeinde"},"district":{"key":"09179","name":"Fürstenfeldbruck","type":"Landkreis"},"federalState":{"key":"09","name":"Bayern"}},{"name":"Pfarrer-Benker-Str.","postalCode":"82216","locality":"Maisach","municipality":{"key":"09179134","name":"Maisach","type":"Kreisangehörige_Gemeinde"},"district":{"key":"09179","name":"Fürstenfeldbruck","type":"Landkreis"},"federalState":{"key":"09","name":"Bayern"}},{"name":"Pfarrer-Betzl-Str.","postalCode":"82216","locality":"Maisach","municipality":{"key":"09179134","name":"Maisach","type":"Kreisangehörige_Gemeinde"},"district":{"key":"09179","name":"Fürstenfeldbruck","type":"Landkreis"},"federalState":{"key":"09","name":"Bayern"}},{"name":"Pfarrer-Dippel-Str.","postalCode":"82216","locality":"Maisach","municipality":{"key":"09179134","name":"Maisach","type":"Kreisangehörige_Gemeinde"},"district":{"key":"09179","name":"Fürstenfeldbruck","type":"Landkreis"},"federalState":{"key":"09","name":"Bayern"}},{"name":"Pfarrgasse","postalCode":"82216","locality":"Maisach","municipality":{"key":"09179134","name":"Maisach","type":"Kreisangehörige_Gemeinde"},"district":{"key":"09179","name":"Fürstenfeldbruck","type":"Landkreis"},"federalState":{"key":"09","name":"Bayern"}},{"name":"Pfarrstr.","postalCode":"82216","locality":"Maisach","municipality":{"key":"09179134","name":"Maisach","type":"Kreisangehörige_Gemeinde"},"district":{"key":"09179","name":"Fürstenfeldbruck","type":"Landkreis"},"federalState":{"key":"09","name":"Bayern"}},{"name":"Pfingstrosenstr.","postalCode":"82216","locality":"Maisach","municipality":{"key":"09179134","name":"Maisach","type":"Kreisangehörige_Gemeinde"},"district":{"key":"09179","name":"Fürstenfeldbruck","type":"Landkreis"},"federalState":{"key":"09","name":"Bayern"}},{"name":"Pommernstr.","postalCode":"82216","locality":"Maisach","municipality":{"key":"09179134","name":"Maisach","type":"Kreisangehörige_Gemeinde"},"district":{"key":"09179","name":"Fürstenfeldbruck","type":"Landkreis"},"federalState":{"key":"09","name":"Bayern"}},{"name":"Poststr.","postalCode":"82216","locality":"Maisach","municipality":{"key":"09179134","name":"Maisach","type":"Kreisangehörige_Gemeinde"},"district":{"key":"09179","name":"Fürstenfeldbruck","type":"Landkreis"},"federalState":{"key":"09","name":"Bayern"}},{"name":"Primelweg","postalCode":"82216","locality":"Maisach","municipality":{"key":"09179134","name":"Maisach","type":"Kreisangehörige_Gemeinde"},"district":{"key":"09179","name":"Fürstenfeldbruck","type":"Landkreis"},"federalState":{"key":"09","name":"Bayern"}},{"name":"Rathausplatz","postalCode":"82216","locality":"Maisach","municipality":{"key":"09179134","name":"Maisach","type":"Kreisangehörige_Gemeinde"},"district":{"key":"09179","name":"Fürstenfeldbruck","type":"Landkreis"},"federalState":{"key":"09","name":"Bayern"}},{"name":"Reschstr.","postalCode":"82216","locality":"Maisach","municipality":{"key":"09179134","name":"Maisach","type":"Kreisangehörige_Gemeinde"},"district":{"key":"09179","name":"Fürstenfeldbruck","type":"Landkreis"},"federalState":{"key":"09","name":"Bayern"}},{"name":"Riederstr.","postalCode":"82216","locality":"Maisach","municipality":{"key":"09179134","name":"Maisach","type":"Kreisangehörige_Gemeinde"},"district":{"key":"09179","name":"Fürstenfeldbruck","type":"Landkreis"},"federalState":{"key":"09","name":"Bayern"}},{"name":"Riedlstr.","postalCode":"82216","locality":"Maisach","municipality":{"key":"09179134","name":"Maisach","type":"Kreisangehörige_Gemeinde"},"district":{"key":"09179","name":"Fürstenfeldbruck","type":"Landkreis"},"federalState":{"key":"09","name":"Bayern"}},{"name":"Ringstr.","postalCode":"82216","locality":"Maisach","municipality":{"key":"09179134","name":"Maisach","type":"Kreisangehörige_Gemeinde"},"district":{"key":"09179","name":"Fürstenfeldbruck","type":"Landkreis"},"federalState":{"key":"09","name":"Bayern"}},{"name":"Ringweg","postalCode":"82216","locality":"Maisach","municipality":{"key":"09179134","name":"Maisach","type":"Kreisangehörige_Gemeinde"},"district":{"key":"09179","name":"Fürstenfeldbruck","type":"Landkreis"},"federalState":{"key":"09","name":"Bayern"}},{"name":"Römerstr.","postalCode":"82216","locality":"Maisach","municipality":{"key":"09179134","name":"Maisach","type":"Kreisangehörige_Gemeinde"},"district":{"key":"09179","name":"Fürstenfeldbruck","type":"Landkreis"},"federalState":{"key":"09","name":"Bayern"}},{"name":"Rosenstr.","postalCode":"82216","locality":"Maisach","municipality":{"key":"09179134","name":"Maisach","type":"Kreisangehörige_Gemeinde"},"district":{"key":"09179","name":"Fürstenfeldbruck","type":"Landkreis"},"federalState":{"key":"09","name":"Bayern"}},{"name":"Roßfeldweg","postalCode":"82216","locality":"Maisach","municipality":{"key":"09179134","name":"Maisach","type":"Kreisangehörige_Gemeinde"},"district":{"key":"09179","name":"Fürstenfeldbruck","type":"Landkreis"},"federalState":{"key":"09","name":"Bayern"}},{"name":"Rotwandweg","postalCode":"82216","locality":"Maisach","municipality":{"key":"09179134","name":"Maisach","type":"Kreisangehörige_Gemeinde"},"district":{"key":"09179","name":"Fürstenfeldbruck","type":"Landkreis"},"federalState":{"key":"09","name":"Bayern"}},{"name":"Rudi-Haimerl-Weg","postalCode":"82216","locality":"Maisach","municipality":{"key":"09179134","name":"Maisach","type":"Kreisangehörige_Gemeinde"},"district":{"key":"09179","name":"Fürstenfeldbruck","type":"Landkreis"},"federalState":{"key":"09","name":"Bayern"}},{"name":"Sankt-Wolfgang-Str.","postalCode":"82216","locality":"Maisach","municipality":{"key":"09179134","name":"Maisach","type":"Kreisangehörige_Gemeinde"},"district":{"key":"09179","name":"Fürstenfeldbruck","type":"Landkreis"},"federalState":{"key":"09","name":"Bayern"}},{"name":"Schanzstr.","postalCode":"82216","locality":"Maisach","municipality":{"key":"09179134","name":"Maisach","type":"Kreisangehörige_Gemeinde"},"district":{"key":"09179","name":"Fürstenfeldbruck","type":"Landkreis"},"federalState":{"key":"09","name":"Bayern"}},{"name":"Schillerstr.","postalCode":"82216","locality":"Maisach","municipality":{"key":"09179134","name":"Maisach","type":"Kreisangehörige_Gemeinde"},"district":{"key":"09179","name":"Fürstenfeldbruck","type":"Landkreis"},"federalState":{"key":"09","name":"Bayern"}},{"name":"Schlesierstr.","postalCode":"82216","locality":"Maisach","municipality":{"key":"09179134","name":"Maisach","type":"Kreisangehörige_Gemeinde"},"district":{"key":"09179","name":"Fürstenfeldbruck","type":"Landkreis"},"federalState":{"key":"09","name":"Bayern"}},{"name":"Schmidhammerstr.","postalCode":"82216","locality":"Maisach","municipality":{"key":"09179134","name":"Maisach","type":"Kreisangehörige_Gemeinde"},"district":{"key":"09179","name":"Fürstenfeldbruck","type":"Landkreis"},"federalState":{"key":"09","name":"Bayern"}},{"name":"Schmiedstr.","postalCode":"82216","locality":"Maisach","municipality":{"key":"09179134","name":"Maisach","type":"Kreisangehörige_Gemeinde"},"district":{"key":"09179","name":"Fürstenfeldbruck","type":"Landkreis"},"federalState":{"key":"09","name":"Bayern"}},{"name":"Schulstr.","postalCode":"82216","locality":"Maisach","municipality":{"key":"09179134","name":"Maisach","type":"Kreisangehörige_Gemeinde"},"district":{"key":"09179","name":"Fürstenfeldbruck","type":"Landkreis"},"federalState":{"key":"09","name":"Bayern"}},{"name":"Schulweg","postalCode":"82216","locality":"Maisach","municipality":{"key":"09179134","name":"Maisach","type":"Kreisangehörige_Gemeinde"},"district":{"key":"09179","name":"Fürstenfeldbruck","type":"Landkreis"},"federalState":{"key":"09","name":"Bayern"}},{"name":"Siedlerstr.","postalCode":"82216","locality":"Maisach","municipality":{"key":"09179134","name":"Maisach","type":"Kreisangehörige_Gemeinde"},"district":{"key":"09179","name":"Fürstenfeldbruck","type":"Landkreis"},"federalState":{"key":"09","name":"Bayern"}},{"name":"Silberdistelstr.","postalCode":"82216","locality":"Maisach","municipality":{"key":"09179134","name":"Maisach","type":"Kreisangehörige_Gemeinde"},"district":{"key":"09179","name":"Fürstenfeldbruck","type":"Landkreis"},"federalState":{"key":"09","name":"Bayern"}},{"name":"Sommerstr.","postalCode":"82216","locality":"Maisach","municipality":{"key":"09179134","name":"Maisach","type":"Kreisangehörige_Gemeinde"},"district":{"key":"09179","name":"Fürstenfeldbruck","type":"Landkreis"},"federalState":{"key":"09","name":"Bayern"}},{"name":"Sonnenstr.","postalCode":"82216","locality":"Maisach","municipality":{"key":"09179134","name":"Maisach","type":"Kreisangehörige_Gemeinde"},"district":{"key":"09179","name":"Fürstenfeldbruck","type":"Landkreis"},"federalState":{"key":"09","name":"Bayern"}},{"name":"Stefanus Str.","postalCode":"82216","locality":"Maisach","municipality":{"key":"09179134","name":"Maisach","type":"Kreisangehörige_Gemeinde"},"district":{"key":"09179","name":"Fürstenfeldbruck","type":"Landkreis"},"federalState":{"key":"09","name":"Bayern"}},{"name":"Steinbrechweg","postalCode":"82216","locality":"Maisach","municipality":{"key":"09179134","name":"Maisach","type":"Kreisangehörige_Gemeinde"},"district":{"key":"09179","name":"Fürstenfeldbruck","type":"Landkreis"},"federalState":{"key":"09","name":"Bayern"}},{"name":"Steinröselweg","postalCode":"82216","locality":"Maisach","municipality":{"key":"09179134","name":"Maisach","type":"Kreisangehörige_Gemeinde"},"district":{"key":"09179","name":"Fürstenfeldbruck","type":"Landkreis"},"federalState":{"key":"09","name":"Bayern"}},{"name":"Sudetenstr.","postalCode":"82216","locality":"Maisach","municipality":{"key":"09179134","name":"Maisach","type":"Kreisangehörige_Gemeinde"},"district":{"key":"09179","name":"Fürstenfeldbruck","type":"Landkreis"},"federalState":{"key":"09","name":"Bayern"}},{"name":"Südumgehung Maisach","postalCode":"82216","locality":"Maisach","municipality":{"key":"09179134","name":"Maisach","type":"Kreisangehörige_Gemeinde"},"district":{"key":"09179","name":"Fürstenfeldbruck","type":"Landkreis"},"federalState":{"key":"09","name":"Bayern"}},{"name":"Südumgehung Maisach","postalCode":"82256","locality":"Maisach","municipality":{"key":"09179134","name":"Maisach","type":"Kreisangehörige_Gemeinde"},"district":{"key":"09179","name":"Fürstenfeldbruck","type":"Landkreis"},"federalState":{"key":"09","name":"Bayern"}},{"name":"Taubensteinweg","postalCode":"82216","locality":"Maisach","municipality":{"key":"09179134","name":"Maisach","type":"Kreisangehörige_Gemeinde"},"district":{"key":"09179","name":"Fürstenfeldbruck","type":"Landkreis"},"federalState":{"key":"09","name":"Bayern"}},{"name":"Triebstr.","postalCode":"82216","locality":"Maisach","municipality":{"key":"09179134","name":"Maisach","type":"Kreisangehörige_Gemeinde"},"district":{"key":"09179","name":"Fürstenfeldbruck","type":"Landkreis"},"federalState":{"key":"09","name":"Bayern"}},{"name":"Tulpenstr.","postalCode":"82216","locality":"Maisach","municipality":{"key":"09179134","name":"Maisach","type":"Kreisangehörige_Gemeinde"},"district":{"key":"09179","name":"Fürstenfeldbruck","type":"Landkreis"},"federalState":{"key":"09","name":"Bayern"}},{"name":"Ulmenweg","postalCode":"82216","locality":"Maisach","municipality":{"key":"09179134","name":"Maisach","type":"Kreisangehörige_Gemeinde"},"district":{"key":"09179","name":"Fürstenfeldbruck","type":"Landkreis"},"federalState":{"key":"09","name":"Bayern"}},{"name":"Untere Mühlstr.","postalCode":"82216","locality":"Maisach","municipality":{"key":"09179134","name":"Maisach","type":"Kreisangehörige_Gemeinde"},"district":{"key":"09179","name":"Fürstenfeldbruck","type":"Landkreis"},"federalState":{"key":"09","name":"Bayern"}},{"name":"Verdistr.","postalCode":"82216","locality":"Maisach","municipality":{"key":"09179134","name":"Maisach","type":"Kreisangehörige_Gemeinde"},"district":{"key":"09179","name":"Fürstenfeldbruck","type":"Landkreis"},"federalState":{"key":"09","name":"Bayern"}},{"name":"Von-Eichendorff-Str.","postalCode":"82216","locality":"Maisach","municipality":{"key":"09179134","name":"Maisach","type":"Kreisangehörige_Gemeinde"},"district":{"key":"09179","name":"Fürstenfeldbruck","type":"Landkreis"},"federalState":{"key":"09","name":"Bayern"}},{"name":"Wagnerstr.","postalCode":"82216","locality":"Maisach","municipality":{"key":"09179134","name":"Maisach","type":"Kreisangehörige_Gemeinde"},"district":{"key":"09179","name":"Fürstenfeldbruck","type":"Landkreis"},"federalState":{"key":"09","name":"Bayern"}},{"name":"Waldweg","postalCode":"82216","locality":"Maisach","municipality":{"key":"09179134","name":"Maisach","type":"Kreisangehörige_Gemeinde"},"district":{"key":"09179","name":"Fürstenfeldbruck","type":"Landkreis"},"federalState":{"key":"09","name":"Bayern"}},{"name":"Watzmannweg","postalCode":"82216","locality":"Maisach","municipality":{"key":"09179134","name":"Maisach","type":"Kreisangehörige_Gemeinde"},"district":{"key":"09179","name":"Fürstenfeldbruck","type":"Landkreis"},"federalState":{"key":"09","name":"Bayern"}},{"name":"Wegacker","postalCode":"82216","locality":"Maisach","municipality":{"key":"09179134","name":"Maisach","type":"Kreisangehörige_Gemeinde"},"district":{"key":"09179","name":"Fürstenfeldbruck","type":"Landkreis"},"federalState":{"key":"09","name":"Bayern"}},{"name":"Weidlweg","postalCode":"82216","locality":"Maisach","municipality":{"key":"09179134","name":"Maisach","type":"Kreisangehörige_Gemeinde"},"district":{"key":"09179","name":"Fürstenfeldbruck","type":"Landkreis"},"federalState":{"key":"09","name":"Bayern"}},{"name":"Weiherbachweg","postalCode":"82216","locality":"Maisach","municipality":{"key":"09179134","name":"Maisach","type":"Kreisangehörige_Gemeinde"},"district":{"key":"09179","name":"Fürstenfeldbruck","type":"Landkreis"},"federalState":{"key":"09","name":"Bayern"}},{"name":"Weinbergstr.","postalCode":"82216","locality":"Maisach","municipality":{"key":"09179134","name":"Maisach","type":"Kreisangehörige_Gemeinde"},"district":{"key":"09179","name":"Fürstenfeldbruck","type":"Landkreis"},"federalState":{"key":"09","name":"Bayern"}},{"name":"Wendelsteinweg","postalCode":"82216","locality":"Maisach","municipality":{"key":"09179134","name":"Maisach","type":"Kreisangehörige_Gemeinde"},"district":{"key":"09179","name":"Fürstenfeldbruck","type":"Landkreis"},"federalState":{"key":"09","name":"Bayern"}},{"name":"Westendstr.","postalCode":"82216","locality":"Maisach","municipality":{"key":"09179134","name":"Maisach","type":"Kreisangehörige_Gemeinde"},"district":{"key":"09179","name":"Fürstenfeldbruck","type":"Landkreis"},"federalState":{"key":"09","name":"Bayern"}},{"name":"Wettersteinstr.","postalCode":"82216","locality":"Maisach","municipality":{"key":"09179134","name":"Maisach","type":"Kreisangehörige_Gemeinde"},"district":{"key":"09179","name":"Fürstenfeldbruck","type":"Landkreis"},"federalState":{"key":"09","name":"Bayern"}},{"name":"Wielandstr.","postalCode":"82216","locality":"Maisach","municipality":{"key":"09179134","name":"Maisach","type":"Kreisangehörige_Gemeinde"},"district":{"key":"09179","name":"Fürstenfeldbruck","type":"Landkreis"},"federalState":{"key":"09","name":"Bayern"}},{"name":"Wiesenstr.","postalCode":"82216","locality":"Maisach","municipality":{"key":"09179134","name":"Maisach","type":"Kreisangehörige_Gemeinde"},"district":{"key":"09179","name":"Fürstenfeldbruck","type":"Landkreis"},"federalState":{"key":"09","name":"Bayern"}},{"name":"Wilhelm-Busch-Weg","postalCode":"82216","locality":"Maisach","municipality":{"key":"09179134","name":"Maisach","type":"Kreisangehörige_Gemeinde"},"district":{"key":"09179","name":"Fürstenfeldbruck","type":"Landkreis"},"federalState":{"key":"09","name":"Bayern"}},{"name":"Wilhelmstr.","postalCode":"82216","locality":"Maisach","municipality":{"key":"09179134","name":"Maisach","type":"Kreisangehörige_Gemeinde"},"district":{"key":"09179","name":"Fürstenfeldbruck","type":"Landkreis"},"federalState":{"key":"09","name":"Bayern"}},{"name":"Willy-Behm-Weg","postalCode":"82216","locality":"Maisach","municipality":{"key":"09179134","name":"Maisach","type":"Kreisangehörige_Gemeinde"},"district":{"key":"09179","name":"Fürstenfeldbruck","type":"Landkreis"},"federalState":{"key":"09","name":"Bayern"}},{"name":"Winterstr.","postalCode":"82216","locality":"Maisach","municipality":{"key":"09179134","name":"Maisach","type":"Kreisangehörige_Gemeinde"},"district":{"key":"09179","name":"Fürstenfeldbruck","type":"Landkreis"},"federalState":{"key":"09","name":"Bayern"}},{"name":"Zangmeisterstr.","postalCode":"82216","locality":"Maisach","municipality":{"key":"09179134","name":"Maisach","type":"Kreisangehörige_Gemeinde"},"district":{"key":"09179","name":"Fürstenfeldbruck","type":"Landkreis"},"federalState":{"key":"09","name":"Bayern"}},{"name":"Zentrumspassage","postalCode":"82216","locality":"Maisach","municipality":{"key":"09179134","name":"Maisach","type":"Kreisangehörige_Gemeinde"},"district":{"key":"09179","name":"Fürstenfeldbruck","type":"Landkreis"},"federalState":{"key":"09","name":"Bayern"}},{"name":"Zeppelinstr.","postalCode":"82216","locality":"Maisach","municipality":{"key":"09179134","name":"Maisach","type":"Kreisangehörige_Gemeinde"},"district":{"key":"09179","name":"Fürstenfeldbruck","type":"Landkreis"},"federalState":{"key":"09","name":"Bayern"}},{"name":"Zugspitzstr.","postalCode":"82216","locality":"Maisach","municipality":{"key":"09179134","name":"Maisach","type":"Kreisangehörige_Gemeinde"},"district":{"key":"09179","name":"Fürstenfeldbruck","type":"Landkreis"},"federalState":{"key":"09","name":"Bayern"}},{"name":"Zum Fuchsberg","postalCode":"82216","locality":"Maisach","municipality":{"key":"09179134","name":"Maisach","type":"Kreisangehörige_Gemeinde"},"district":{"key":"09179","name":"Fürstenfeldbruck","type":"Landkreis"},"federalState":{"key":"09","name":"Bayern"}},{"name":"Zum Lerchl","postalCode":"82216","locality":"Maisach","municipality":{"key":"09179134","name":"Maisach","type":"Kreisangehörige_Gemeinde"},"district":{"key":"09179","name":"Fürstenfeldbruck","type":"Landkreis"},"federalState":{"key":"09","name":"Bayern"}},{"name":"Zweigstr.","postalCode":"82216","locality":"Maisach","municipality":{"key":"09179134","name":"Maisach","type":"Kreisangehörige_Gemeinde"},"district":{"key":"09179","name":"Fürstenfeldbruck","type":"Landkreis"},"federalState":{"key":"09","name":"Bayern"}},{"name":"Überackerstr.","postalCode":"82216","locality":"Maisach","municipality":{"key":"09179134","name":"Maisach","type":"Kreisangehörige_Gemeinde"},"district":{"key":"09179","name":"Fürstenfeldbruck","type":"Landkreis"},"federalState":{"key":"09","name":"Bayern"}},]