[{"name":"Adelheidstr.","postalCode":"71665","locality":"Vaihingen an der Enz","municipality":{"key":"08118073","name":"Vaihingen an der Enz, Stadt","type":"Große_Kreisstadt"},"district":{"key":"08118","name":"Ludwigsburg","type":"Landkreis"},"federalState":{"key":"08","name":"Baden-Württemberg"}},{"name":"Adenauerstr.","postalCode":"71665","locality":"Vaihingen an der Enz","municipality":{"key":"08118073","name":"Vaihingen an der Enz, Stadt","type":"Große_Kreisstadt"},"district":{"key":"08118","name":"Ludwigsburg","type":"Landkreis"},"federalState":{"key":"08","name":"Baden-Württemberg"}},{"name":"Adlerstr.","postalCode":"71665","locality":"Vaihingen an der Enz","municipality":{"key":"08118073","name":"Vaihingen an der Enz, Stadt","type":"Große_Kreisstadt"},"district":{"key":"08118","name":"Ludwigsburg","type":"Landkreis"},"federalState":{"key":"08","name":"Baden-Württemberg"}},{"name":"Adolf-Greinert-Weg","postalCode":"71665","locality":"Vaihingen an der Enz","municipality":{"key":"08118073","name":"Vaihingen an der Enz, Stadt","type":"Große_Kreisstadt"},"district":{"key":"08118","name":"Ludwigsburg","type":"Landkreis"},"federalState":{"key":"08","name":"Baden-Württemberg"}},{"name":"Ahornweg","postalCode":"71665","locality":"Vaihingen an der Enz","municipality":{"key":"08118073","name":"Vaihingen an der Enz, Stadt","type":"Große_Kreisstadt"},"district":{"key":"08118","name":"Ludwigsburg","type":"Landkreis"},"federalState":{"key":"08","name":"Baden-Württemberg"}},{"name":"Akazienweg","postalCode":"71665","locality":"Vaihingen an der Enz","municipality":{"key":"08118073","name":"Vaihingen an der Enz, Stadt","type":"Große_Kreisstadt"},"district":{"key":"08118","name":"Ludwigsburg","type":"Landkreis"},"federalState":{"key":"08","name":"Baden-Württemberg"}},{"name":"Akkermanstr.","postalCode":"71665","locality":"Vaihingen an der Enz","municipality":{"key":"08118073","name":"Vaihingen an der Enz, Stadt","type":"Große_Kreisstadt"},"district":{"key":"08118","name":"Ludwigsburg","type":"Landkreis"},"federalState":{"key":"08","name":"Baden-Württemberg"}},{"name":"Albert-Schweitzer-Str.","postalCode":"71665","locality":"Vaihingen an der Enz","municipality":{"key":"08118073","name":"Vaihingen an der Enz, Stadt","type":"Große_Kreisstadt"},"district":{"key":"08118","name":"Ludwigsburg","type":"Landkreis"},"federalState":{"key":"08","name":"Baden-Württemberg"}},{"name":"Alemannenstr.","postalCode":"71665","locality":"Vaihingen an der Enz","municipality":{"key":"08118073","name":"Vaihingen an der Enz, Stadt","type":"Große_Kreisstadt"},"district":{"key":"08118","name":"Ludwigsburg","type":"Landkreis"},"federalState":{"key":"08","name":"Baden-Württemberg"}},{"name":"Alte Keltergasse","postalCode":"71665","locality":"Vaihingen an der Enz","municipality":{"key":"08118073","name":"Vaihingen an der Enz, Stadt","type":"Große_Kreisstadt"},"district":{"key":"08118","name":"Ludwigsburg","type":"Landkreis"},"federalState":{"key":"08","name":"Baden-Württemberg"}},{"name":"Alte Kleinglattbacher Str.","postalCode":"71665","locality":"Vaihingen an der Enz","municipality":{"key":"08118073","name":"Vaihingen an der Enz, Stadt","type":"Große_Kreisstadt"},"district":{"key":"08118","name":"Ludwigsburg","type":"Landkreis"},"federalState":{"key":"08","name":"Baden-Württemberg"}},{"name":"Alte Marktstr.","postalCode":"71665","locality":"Vaihingen an der Enz","municipality":{"key":"08118073","name":"Vaihingen an der Enz, Stadt","type":"Große_Kreisstadt"},"district":{"key":"08118","name":"Ludwigsburg","type":"Landkreis"},"federalState":{"key":"08","name":"Baden-Württemberg"}},{"name":"Alter Postweg","postalCode":"71665","locality":"Vaihingen an der Enz","municipality":{"key":"08118073","name":"Vaihingen an der Enz, Stadt","type":"Große_Kreisstadt"},"district":{"key":"08118","name":"Ludwigsburg","type":"Landkreis"},"federalState":{"key":"08","name":"Baden-Württemberg"}},{"name":"Alter-Postweg","postalCode":"71665","locality":"Vaihingen an der Enz","municipality":{"key":"08118073","name":"Vaihingen an der Enz, Stadt","type":"Große_Kreisstadt"},"district":{"key":"08118","name":"Ludwigsburg","type":"Landkreis"},"federalState":{"key":"08","name":"Baden-Württemberg"}},{"name":"Alter Ziegeleiweg","postalCode":"71665","locality":"Vaihingen an der Enz","municipality":{"key":"08118073","name":"Vaihingen an der Enz, Stadt","type":"Große_Kreisstadt"},"district":{"key":"08118","name":"Ludwigsburg","type":"Landkreis"},"federalState":{"key":"08","name":"Baden-Württemberg"}},{"name":"Alte Schulstr.","postalCode":"71665","locality":"Vaihingen an der Enz","municipality":{"key":"08118073","name":"Vaihingen an der Enz, Stadt","type":"Große_Kreisstadt"},"district":{"key":"08118","name":"Ludwigsburg","type":"Landkreis"},"federalState":{"key":"08","name":"Baden-Württemberg"}},{"name":"Alte Vaihinger Steige","postalCode":"71665","locality":"Vaihingen an der Enz","municipality":{"key":"08118073","name":"Vaihingen an der Enz, Stadt","type":"Große_Kreisstadt"},"district":{"key":"08118","name":"Ludwigsburg","type":"Landkreis"},"federalState":{"key":"08","name":"Baden-Württemberg"}},{"name":"Am Bach","postalCode":"71665","locality":"Vaihingen an der Enz","municipality":{"key":"08118073","name":"Vaihingen an der Enz, Stadt","type":"Große_Kreisstadt"},"district":{"key":"08118","name":"Ludwigsburg","type":"Landkreis"},"federalState":{"key":"08","name":"Baden-Württemberg"}},{"name":"Am Bergle","postalCode":"71665","locality":"Vaihingen an der Enz","municipality":{"key":"08118073","name":"Vaihingen an der Enz, Stadt","type":"Große_Kreisstadt"},"district":{"key":"08118","name":"Ludwigsburg","type":"Landkreis"},"federalState":{"key":"08","name":"Baden-Württemberg"}},{"name":"Am Enzweihinger Tor","postalCode":"71665","locality":"Vaihingen an der Enz","municipality":{"key":"08118073","name":"Vaihingen an der Enz, Stadt","type":"Große_Kreisstadt"},"district":{"key":"08118","name":"Ludwigsburg","type":"Landkreis"},"federalState":{"key":"08","name":"Baden-Württemberg"}},{"name":"Am Forchenwald","postalCode":"71665","locality":"Vaihingen an der Enz","municipality":{"key":"08118073","name":"Vaihingen an der Enz, Stadt","type":"Große_Kreisstadt"},"district":{"key":"08118","name":"Ludwigsburg","type":"Landkreis"},"federalState":{"key":"08","name":"Baden-Württemberg"}},{"name":"Am Fuchsloch","postalCode":"71665","locality":"Vaihingen an der Enz","municipality":{"key":"08118073","name":"Vaihingen an der Enz, Stadt","type":"Große_Kreisstadt"},"district":{"key":"08118","name":"Ludwigsburg","type":"Landkreis"},"federalState":{"key":"08","name":"Baden-Württemberg"}},{"name":"Am Galgenfeld","postalCode":"71665","locality":"Vaihingen an der Enz","municipality":{"key":"08118073","name":"Vaihingen an der Enz, Stadt","type":"Große_Kreisstadt"},"district":{"key":"08118","name":"Ludwigsburg","type":"Landkreis"},"federalState":{"key":"08","name":"Baden-Württemberg"}},{"name":"Am Hammelberg","postalCode":"71665","locality":"Vaihingen an der Enz","municipality":{"key":"08118073","name":"Vaihingen an der Enz, Stadt","type":"Große_Kreisstadt"},"district":{"key":"08118","name":"Ludwigsburg","type":"Landkreis"},"federalState":{"key":"08","name":"Baden-Württemberg"}},{"name":"Am Illinger Weg","postalCode":"71665","locality":"Vaihingen an der Enz","municipality":{"key":"08118073","name":"Vaihingen an der Enz, Stadt","type":"Große_Kreisstadt"},"district":{"key":"08118","name":"Ludwigsburg","type":"Landkreis"},"federalState":{"key":"08","name":"Baden-Württemberg"}},{"name":"Am Kalkwerk","postalCode":"71665","locality":"Vaihingen an der Enz","municipality":{"key":"08118073","name":"Vaihingen an der Enz, Stadt","type":"Große_Kreisstadt"},"district":{"key":"08118","name":"Ludwigsburg","type":"Landkreis"},"federalState":{"key":"08","name":"Baden-Württemberg"}},{"name":"Am Schelmenbusch","postalCode":"71665","locality":"Vaihingen an der Enz","municipality":{"key":"08118073","name":"Vaihingen an der Enz, Stadt","type":"Große_Kreisstadt"},"district":{"key":"08118","name":"Ludwigsburg","type":"Landkreis"},"federalState":{"key":"08","name":"Baden-Württemberg"}},{"name":"Am Schloßgarten","postalCode":"71665","locality":"Vaihingen an der Enz","municipality":{"key":"08118073","name":"Vaihingen an der Enz, Stadt","type":"Große_Kreisstadt"},"district":{"key":"08118","name":"Ludwigsburg","type":"Landkreis"},"federalState":{"key":"08","name":"Baden-Württemberg"}},{"name":"Amselweg","postalCode":"71665","locality":"Vaihingen an der Enz","municipality":{"key":"08118073","name":"Vaihingen an der Enz, Stadt","type":"Große_Kreisstadt"},"district":{"key":"08118","name":"Ludwigsburg","type":"Landkreis"},"federalState":{"key":"08","name":"Baden-Württemberg"}},{"name":"Am Wäschbrünnele","postalCode":"71665","locality":"Vaihingen an der Enz","municipality":{"key":"08118073","name":"Vaihingen an der Enz, Stadt","type":"Große_Kreisstadt"},"district":{"key":"08118","name":"Ludwigsburg","type":"Landkreis"},"federalState":{"key":"08","name":"Baden-Württemberg"}},{"name":"Am Wolfsberg","postalCode":"71665","locality":"Vaihingen an der Enz","municipality":{"key":"08118073","name":"Vaihingen an der Enz, Stadt","type":"Große_Kreisstadt"},"district":{"key":"08118","name":"Ludwigsburg","type":"Landkreis"},"federalState":{"key":"08","name":"Baden-Württemberg"}},{"name":"An der Bahnschranke","postalCode":"71665","locality":"Vaihingen an der Enz","municipality":{"key":"08118073","name":"Vaihingen an der Enz, Stadt","type":"Große_Kreisstadt"},"district":{"key":"08118","name":"Ludwigsburg","type":"Landkreis"},"federalState":{"key":"08","name":"Baden-Württemberg"}},{"name":"An der Reichsstr.","postalCode":"71665","locality":"Vaihingen an der Enz","municipality":{"key":"08118073","name":"Vaihingen an der Enz, Stadt","type":"Große_Kreisstadt"},"district":{"key":"08118","name":"Ludwigsburg","type":"Landkreis"},"federalState":{"key":"08","name":"Baden-Württemberg"}},{"name":"An der Schelmenhalde","postalCode":"71665","locality":"Vaihingen an der Enz","municipality":{"key":"08118073","name":"Vaihingen an der Enz, Stadt","type":"Große_Kreisstadt"},"district":{"key":"08118","name":"Ludwigsburg","type":"Landkreis"},"federalState":{"key":"08","name":"Baden-Württemberg"}},{"name":"Andreaestr.","postalCode":"71665","locality":"Vaihingen an der Enz","municipality":{"key":"08118073","name":"Vaihingen an der Enz, Stadt","type":"Große_Kreisstadt"},"district":{"key":"08118","name":"Ludwigsburg","type":"Landkreis"},"federalState":{"key":"08","name":"Baden-Württemberg"}},{"name":"Angelhof","postalCode":"71665","locality":"Vaihingen an der Enz","municipality":{"key":"08118073","name":"Vaihingen an der Enz, Stadt","type":"Große_Kreisstadt"},"district":{"key":"08118","name":"Ludwigsburg","type":"Landkreis"},"federalState":{"key":"08","name":"Baden-Württemberg"}},{"name":"Angelstr.","postalCode":"71665","locality":"Vaihingen an der Enz","municipality":{"key":"08118073","name":"Vaihingen an der Enz, Stadt","type":"Große_Kreisstadt"},"district":{"key":"08118","name":"Ludwigsburg","type":"Landkreis"},"federalState":{"key":"08","name":"Baden-Württemberg"}},{"name":"Aschacherstr.","postalCode":"71665","locality":"Vaihingen an der Enz","municipality":{"key":"08118073","name":"Vaihingen an der Enz, Stadt","type":"Große_Kreisstadt"},"district":{"key":"08118","name":"Ludwigsburg","type":"Landkreis"},"federalState":{"key":"08","name":"Baden-Württemberg"}},{"name":"Aschmannstr.","postalCode":"71665","locality":"Vaihingen an der Enz","municipality":{"key":"08118073","name":"Vaihingen an der Enz, Stadt","type":"Große_Kreisstadt"},"district":{"key":"08118","name":"Ludwigsburg","type":"Landkreis"},"federalState":{"key":"08","name":"Baden-Württemberg"}},{"name":"Auf dem Angel","postalCode":"71665","locality":"Vaihingen an der Enz","municipality":{"key":"08118073","name":"Vaihingen an der Enz, Stadt","type":"Große_Kreisstadt"},"district":{"key":"08118","name":"Ludwigsburg","type":"Landkreis"},"federalState":{"key":"08","name":"Baden-Württemberg"}},{"name":"August-Lämmle-Str.","postalCode":"71665","locality":"Vaihingen an der Enz","municipality":{"key":"08118073","name":"Vaihingen an der Enz, Stadt","type":"Große_Kreisstadt"},"district":{"key":"08118","name":"Ludwigsburg","type":"Landkreis"},"federalState":{"key":"08","name":"Baden-Württemberg"}},{"name":"Auricher Str.","postalCode":"71665","locality":"Vaihingen an der Enz","municipality":{"key":"08118073","name":"Vaihingen an der Enz, Stadt","type":"Große_Kreisstadt"},"district":{"key":"08118","name":"Ludwigsburg","type":"Landkreis"},"federalState":{"key":"08","name":"Baden-Württemberg"}},{"name":"Austr.","postalCode":"71665","locality":"Vaihingen an der Enz","municipality":{"key":"08118073","name":"Vaihingen an der Enz, Stadt","type":"Große_Kreisstadt"},"district":{"key":"08118","name":"Ludwigsburg","type":"Landkreis"},"federalState":{"key":"08","name":"Baden-Württemberg"}},{"name":"Bachstr.","postalCode":"71665","locality":"Vaihingen an der Enz","municipality":{"key":"08118073","name":"Vaihingen an der Enz, Stadt","type":"Große_Kreisstadt"},"district":{"key":"08118","name":"Ludwigsburg","type":"Landkreis"},"federalState":{"key":"08","name":"Baden-Württemberg"}},{"name":"Backhausgasse","postalCode":"71665","locality":"Vaihingen an der Enz","municipality":{"key":"08118073","name":"Vaihingen an der Enz, Stadt","type":"Große_Kreisstadt"},"district":{"key":"08118","name":"Ludwigsburg","type":"Landkreis"},"federalState":{"key":"08","name":"Baden-Württemberg"}},{"name":"Bahnhofstr.","postalCode":"71665","locality":"Vaihingen an der Enz","municipality":{"key":"08118073","name":"Vaihingen an der Enz, Stadt","type":"Große_Kreisstadt"},"district":{"key":"08118","name":"Ludwigsburg","type":"Landkreis"},"federalState":{"key":"08","name":"Baden-Württemberg"}},{"name":"Baiselsbergstr.","postalCode":"71665","locality":"Vaihingen an der Enz","municipality":{"key":"08118073","name":"Vaihingen an der Enz, Stadt","type":"Große_Kreisstadt"},"district":{"key":"08118","name":"Ludwigsburg","type":"Landkreis"},"federalState":{"key":"08","name":"Baden-Württemberg"}},{"name":"Balzhalde","postalCode":"71665","locality":"Vaihingen an der Enz","municipality":{"key":"08118073","name":"Vaihingen an der Enz, Stadt","type":"Große_Kreisstadt"},"district":{"key":"08118","name":"Ludwigsburg","type":"Landkreis"},"federalState":{"key":"08","name":"Baden-Württemberg"}},{"name":"Bärbelhauweg","postalCode":"71665","locality":"Vaihingen an der Enz","municipality":{"key":"08118073","name":"Vaihingen an der Enz, Stadt","type":"Große_Kreisstadt"},"district":{"key":"08118","name":"Ludwigsburg","type":"Landkreis"},"federalState":{"key":"08","name":"Baden-Württemberg"}},{"name":"Bärentalweg","postalCode":"71665","locality":"Vaihingen an der Enz","municipality":{"key":"08118073","name":"Vaihingen an der Enz, Stadt","type":"Große_Kreisstadt"},"district":{"key":"08118","name":"Ludwigsburg","type":"Landkreis"},"federalState":{"key":"08","name":"Baden-Württemberg"}},{"name":"Bartenbergstr.","postalCode":"71665","locality":"Vaihingen an der Enz","municipality":{"key":"08118073","name":"Vaihingen an der Enz, Stadt","type":"Große_Kreisstadt"},"district":{"key":"08118","name":"Ludwigsburg","type":"Landkreis"},"federalState":{"key":"08","name":"Baden-Württemberg"}},{"name":"Beerhaldenstr.","postalCode":"71665","locality":"Vaihingen an der Enz","municipality":{"key":"08118073","name":"Vaihingen an der Enz, Stadt","type":"Große_Kreisstadt"},"district":{"key":"08118","name":"Ludwigsburg","type":"Landkreis"},"federalState":{"key":"08","name":"Baden-Württemberg"}},{"name":"Beethovenstr.","postalCode":"71665","locality":"Vaihingen an der Enz","municipality":{"key":"08118073","name":"Vaihingen an der Enz, Stadt","type":"Große_Kreisstadt"},"district":{"key":"08118","name":"Ludwigsburg","type":"Landkreis"},"federalState":{"key":"08","name":"Baden-Württemberg"}},{"name":"Belreinstr.","postalCode":"71665","locality":"Vaihingen an der Enz","municipality":{"key":"08118073","name":"Vaihingen an der Enz, Stadt","type":"Große_Kreisstadt"},"district":{"key":"08118","name":"Ludwigsburg","type":"Landkreis"},"federalState":{"key":"08","name":"Baden-Württemberg"}},{"name":"Berengerstr.","postalCode":"71665","locality":"Vaihingen an der Enz","municipality":{"key":"08118073","name":"Vaihingen an der Enz, Stadt","type":"Große_Kreisstadt"},"district":{"key":"08118","name":"Ludwigsburg","type":"Landkreis"},"federalState":{"key":"08","name":"Baden-Württemberg"}},{"name":"Berglesweg","postalCode":"71665","locality":"Vaihingen an der Enz","municipality":{"key":"08118073","name":"Vaihingen an der Enz, Stadt","type":"Große_Kreisstadt"},"district":{"key":"08118","name":"Ludwigsburg","type":"Landkreis"},"federalState":{"key":"08","name":"Baden-Württemberg"}},{"name":"Bergstr.","postalCode":"71665","locality":"Vaihingen an der Enz","municipality":{"key":"08118073","name":"Vaihingen an der Enz, Stadt","type":"Große_Kreisstadt"},"district":{"key":"08118","name":"Ludwigsburg","type":"Landkreis"},"federalState":{"key":"08","name":"Baden-Württemberg"}},{"name":"Bergweg","postalCode":"71665","locality":"Vaihingen an der Enz","municipality":{"key":"08118073","name":"Vaihingen an der Enz, Stadt","type":"Große_Kreisstadt"},"district":{"key":"08118","name":"Ludwigsburg","type":"Landkreis"},"federalState":{"key":"08","name":"Baden-Württemberg"}},{"name":"Bietigheimer Str.","postalCode":"71665","locality":"Vaihingen an der Enz","municipality":{"key":"08118073","name":"Vaihingen an der Enz, Stadt","type":"Große_Kreisstadt"},"district":{"key":"08118","name":"Ludwigsburg","type":"Landkreis"},"federalState":{"key":"08","name":"Baden-Württemberg"}},{"name":"Birkenweg","postalCode":"71665","locality":"Vaihingen an der Enz","municipality":{"key":"08118073","name":"Vaihingen an der Enz, Stadt","type":"Große_Kreisstadt"},"district":{"key":"08118","name":"Ludwigsburg","type":"Landkreis"},"federalState":{"key":"08","name":"Baden-Württemberg"}},{"name":"Bismarckstr.","postalCode":"71665","locality":"Vaihingen an der Enz","municipality":{"key":"08118073","name":"Vaihingen an der Enz, Stadt","type":"Große_Kreisstadt"},"district":{"key":"08118","name":"Ludwigsburg","type":"Landkreis"},"federalState":{"key":"08","name":"Baden-Württemberg"}},{"name":"Blumenweg","postalCode":"71665","locality":"Vaihingen an der Enz","municipality":{"key":"08118073","name":"Vaihingen an der Enz, Stadt","type":"Große_Kreisstadt"},"district":{"key":"08118","name":"Ludwigsburg","type":"Landkreis"},"federalState":{"key":"08","name":"Baden-Württemberg"}},{"name":"Bogenstr.","postalCode":"71665","locality":"Vaihingen an der Enz","municipality":{"key":"08118073","name":"Vaihingen an der Enz, Stadt","type":"Große_Kreisstadt"},"district":{"key":"08118","name":"Ludwigsburg","type":"Landkreis"},"federalState":{"key":"08","name":"Baden-Württemberg"}},{"name":"Bonlander Steige","postalCode":"71665","locality":"Vaihingen an der Enz","municipality":{"key":"08118073","name":"Vaihingen an der Enz, Stadt","type":"Große_Kreisstadt"},"district":{"key":"08118","name":"Ludwigsburg","type":"Landkreis"},"federalState":{"key":"08","name":"Baden-Württemberg"}},{"name":"Brahmsweg","postalCode":"71665","locality":"Vaihingen an der Enz","municipality":{"key":"08118073","name":"Vaihingen an der Enz, Stadt","type":"Große_Kreisstadt"},"district":{"key":"08118","name":"Ludwigsburg","type":"Landkreis"},"federalState":{"key":"08","name":"Baden-Württemberg"}},{"name":"Braitstr.","postalCode":"71665","locality":"Vaihingen an der Enz","municipality":{"key":"08118073","name":"Vaihingen an der Enz, Stadt","type":"Große_Kreisstadt"},"district":{"key":"08118","name":"Ludwigsburg","type":"Landkreis"},"federalState":{"key":"08","name":"Baden-Württemberg"}},{"name":"Brandweg","postalCode":"71665","locality":"Vaihingen an der Enz","municipality":{"key":"08118073","name":"Vaihingen an der Enz, Stadt","type":"Große_Kreisstadt"},"district":{"key":"08118","name":"Ludwigsburg","type":"Landkreis"},"federalState":{"key":"08","name":"Baden-Württemberg"}},{"name":"Brechtweg","postalCode":"71665","locality":"Vaihingen an der Enz","municipality":{"key":"08118073","name":"Vaihingen an der Enz, Stadt","type":"Große_Kreisstadt"},"district":{"key":"08118","name":"Ludwigsburg","type":"Landkreis"},"federalState":{"key":"08","name":"Baden-Württemberg"}},{"name":"Brenzstr.","postalCode":"71665","locality":"Vaihingen an der Enz","municipality":{"key":"08118073","name":"Vaihingen an der Enz, Stadt","type":"Große_Kreisstadt"},"district":{"key":"08118","name":"Ludwigsburg","type":"Landkreis"},"federalState":{"key":"08","name":"Baden-Württemberg"}},{"name":"Breslauer Str.","postalCode":"71665","locality":"Vaihingen an der Enz","municipality":{"key":"08118073","name":"Vaihingen an der Enz, Stadt","type":"Große_Kreisstadt"},"district":{"key":"08118","name":"Ludwigsburg","type":"Landkreis"},"federalState":{"key":"08","name":"Baden-Württemberg"}},{"name":"Brückenstr.","postalCode":"71665","locality":"Vaihingen an der Enz","municipality":{"key":"08118073","name":"Vaihingen an der Enz, Stadt","type":"Große_Kreisstadt"},"district":{"key":"08118","name":"Ludwigsburg","type":"Landkreis"},"federalState":{"key":"08","name":"Baden-Württemberg"}},{"name":"Bruderhausweg","postalCode":"71665","locality":"Vaihingen an der Enz","municipality":{"key":"08118073","name":"Vaihingen an der Enz, Stadt","type":"Große_Kreisstadt"},"district":{"key":"08118","name":"Ludwigsburg","type":"Landkreis"},"federalState":{"key":"08","name":"Baden-Württemberg"}},{"name":"Brunnenhaldenstr.","postalCode":"71665","locality":"Vaihingen an der Enz","municipality":{"key":"08118073","name":"Vaihingen an der Enz, Stadt","type":"Große_Kreisstadt"},"district":{"key":"08118","name":"Ludwigsburg","type":"Landkreis"},"federalState":{"key":"08","name":"Baden-Württemberg"}},{"name":"Brunnenstr.","postalCode":"71665","locality":"Vaihingen an der Enz","municipality":{"key":"08118073","name":"Vaihingen an der Enz, Stadt","type":"Große_Kreisstadt"},"district":{"key":"08118","name":"Ludwigsburg","type":"Landkreis"},"federalState":{"key":"08","name":"Baden-Württemberg"}},{"name":"Brünner Str.","postalCode":"71665","locality":"Vaihingen an der Enz","municipality":{"key":"08118073","name":"Vaihingen an der Enz, Stadt","type":"Große_Kreisstadt"},"district":{"key":"08118","name":"Ludwigsburg","type":"Landkreis"},"federalState":{"key":"08","name":"Baden-Württemberg"}},{"name":"Buchenrainweg","postalCode":"71665","locality":"Vaihingen an der Enz","municipality":{"key":"08118073","name":"Vaihingen an der Enz, Stadt","type":"Große_Kreisstadt"},"district":{"key":"08118","name":"Ludwigsburg","type":"Landkreis"},"federalState":{"key":"08","name":"Baden-Württemberg"}},{"name":"Buchenweg","postalCode":"71665","locality":"Vaihingen an der Enz","municipality":{"key":"08118073","name":"Vaihingen an der Enz, Stadt","type":"Große_Kreisstadt"},"district":{"key":"08118","name":"Ludwigsburg","type":"Landkreis"},"federalState":{"key":"08","name":"Baden-Württemberg"}},{"name":"Buolweg","postalCode":"71665","locality":"Vaihingen an der Enz","municipality":{"key":"08118073","name":"Vaihingen an der Enz, Stadt","type":"Große_Kreisstadt"},"district":{"key":"08118","name":"Ludwigsburg","type":"Landkreis"},"federalState":{"key":"08","name":"Baden-Württemberg"}},{"name":"Burggasse","postalCode":"71665","locality":"Vaihingen an der Enz","municipality":{"key":"08118073","name":"Vaihingen an der Enz, Stadt","type":"Große_Kreisstadt"},"district":{"key":"08118","name":"Ludwigsburg","type":"Landkreis"},"federalState":{"key":"08","name":"Baden-Württemberg"}},{"name":"Burgsteige","postalCode":"71665","locality":"Vaihingen an der Enz","municipality":{"key":"08118073","name":"Vaihingen an der Enz, Stadt","type":"Große_Kreisstadt"},"district":{"key":"08118","name":"Ludwigsburg","type":"Landkreis"},"federalState":{"key":"08","name":"Baden-Württemberg"}},{"name":"Burgweg","postalCode":"71665","locality":"Vaihingen an der Enz","municipality":{"key":"08118073","name":"Vaihingen an der Enz, Stadt","type":"Große_Kreisstadt"},"district":{"key":"08118","name":"Ludwigsburg","type":"Landkreis"},"federalState":{"key":"08","name":"Baden-Württemberg"}},{"name":"Consbruchstr.","postalCode":"71665","locality":"Vaihingen an der Enz","municipality":{"key":"08118073","name":"Vaihingen an der Enz, Stadt","type":"Große_Kreisstadt"},"district":{"key":"08118","name":"Ludwigsburg","type":"Landkreis"},"federalState":{"key":"08","name":"Baden-Württemberg"}},{"name":"Daimlerstr.","postalCode":"71665","locality":"Vaihingen an der Enz","municipality":{"key":"08118073","name":"Vaihingen an der Enz, Stadt","type":"Große_Kreisstadt"},"district":{"key":"08118","name":"Ludwigsburg","type":"Landkreis"},"federalState":{"key":"08","name":"Baden-Württemberg"}},{"name":"Dammstr.","postalCode":"71665","locality":"Vaihingen an der Enz","municipality":{"key":"08118073","name":"Vaihingen an der Enz, Stadt","type":"Große_Kreisstadt"},"district":{"key":"08118","name":"Ludwigsburg","type":"Landkreis"},"federalState":{"key":"08","name":"Baden-Württemberg"}},{"name":"Danziger Str.","postalCode":"71665","locality":"Vaihingen an der Enz","municipality":{"key":"08118073","name":"Vaihingen an der Enz, Stadt","type":"Große_Kreisstadt"},"district":{"key":"08118","name":"Ludwigsburg","type":"Landkreis"},"federalState":{"key":"08","name":"Baden-Württemberg"}},{"name":"Deichelgasse","postalCode":"71665","locality":"Vaihingen an der Enz","municipality":{"key":"08118073","name":"Vaihingen an der Enz, Stadt","type":"Große_Kreisstadt"},"district":{"key":"08118","name":"Ludwigsburg","type":"Landkreis"},"federalState":{"key":"08","name":"Baden-Württemberg"}},{"name":"Dennefgärten","postalCode":"71665","locality":"Vaihingen an der Enz","municipality":{"key":"08118073","name":"Vaihingen an der Enz, Stadt","type":"Große_Kreisstadt"},"district":{"key":"08118","name":"Ludwigsburg","type":"Landkreis"},"federalState":{"key":"08","name":"Baden-Württemberg"}},{"name":"Dennefstr.","postalCode":"71665","locality":"Vaihingen an der Enz","municipality":{"key":"08118073","name":"Vaihingen an der Enz, Stadt","type":"Große_Kreisstadt"},"district":{"key":"08118","name":"Ludwigsburg","type":"Landkreis"},"federalState":{"key":"08","name":"Baden-Württemberg"}},{"name":"Dennefweg","postalCode":"71665","locality":"Vaihingen an der Enz","municipality":{"key":"08118073","name":"Vaihingen an der Enz, Stadt","type":"Große_Kreisstadt"},"district":{"key":"08118","name":"Ludwigsburg","type":"Landkreis"},"federalState":{"key":"08","name":"Baden-Württemberg"}},{"name":"Deponieweg","postalCode":"71665","locality":"Vaihingen an der Enz","municipality":{"key":"08118073","name":"Vaihingen an der Enz, Stadt","type":"Große_Kreisstadt"},"district":{"key":"08118","name":"Ludwigsburg","type":"Landkreis"},"federalState":{"key":"08","name":"Baden-Württemberg"}},{"name":"Diamantenstr.","postalCode":"71665","locality":"Vaihingen an der Enz","municipality":{"key":"08118073","name":"Vaihingen an der Enz, Stadt","type":"Große_Kreisstadt"},"district":{"key":"08118","name":"Ludwigsburg","type":"Landkreis"},"federalState":{"key":"08","name":"Baden-Württemberg"}},{"name":"Dieselstr.","postalCode":"71665","locality":"Vaihingen an der Enz","municipality":{"key":"08118073","name":"Vaihingen an der Enz, Stadt","type":"Große_Kreisstadt"},"district":{"key":"08118","name":"Ludwigsburg","type":"Landkreis"},"federalState":{"key":"08","name":"Baden-Württemberg"}},{"name":"Dietmannstr.","postalCode":"71665","locality":"Vaihingen an der Enz","municipality":{"key":"08118073","name":"Vaihingen an der Enz, Stadt","type":"Große_Kreisstadt"},"district":{"key":"08118","name":"Ludwigsburg","type":"Landkreis"},"federalState":{"key":"08","name":"Baden-Württemberg"}},{"name":"Dinkelweg","postalCode":"71665","locality":"Vaihingen an der Enz","municipality":{"key":"08118073","name":"Vaihingen an der Enz, Stadt","type":"Große_Kreisstadt"},"district":{"key":"08118","name":"Ludwigsburg","type":"Landkreis"},"federalState":{"key":"08","name":"Baden-Württemberg"}},{"name":"Dr.-Karl-Bausch-Str.","postalCode":"71665","locality":"Vaihingen an der Enz","municipality":{"key":"08118073","name":"Vaihingen an der Enz, Stadt","type":"Große_Kreisstadt"},"district":{"key":"08118","name":"Ludwigsburg","type":"Landkreis"},"federalState":{"key":"08","name":"Baden-Württemberg"}},{"name":"Drosselweg","postalCode":"71665","locality":"Vaihingen an der Enz","municipality":{"key":"08118073","name":"Vaihingen an der Enz, Stadt","type":"Große_Kreisstadt"},"district":{"key":"08118","name":"Ludwigsburg","type":"Landkreis"},"federalState":{"key":"08","name":"Baden-Württemberg"}},{"name":"Dürerstr.","postalCode":"71665","locality":"Vaihingen an der Enz","municipality":{"key":"08118073","name":"Vaihingen an der Enz, Stadt","type":"Große_Kreisstadt"},"district":{"key":"08118","name":"Ludwigsburg","type":"Landkreis"},"federalState":{"key":"08","name":"Baden-Württemberg"}},{"name":"Eberdinger Str.","postalCode":"71665","locality":"Vaihingen an der Enz","municipality":{"key":"08118073","name":"Vaihingen an der Enz, Stadt","type":"Große_Kreisstadt"},"district":{"key":"08118","name":"Ludwigsburg","type":"Landkreis"},"federalState":{"key":"08","name":"Baden-Württemberg"}},{"name":"Eberhardstr.","postalCode":"71665","locality":"Vaihingen an der Enz","municipality":{"key":"08118073","name":"Vaihingen an der Enz, Stadt","type":"Große_Kreisstadt"},"district":{"key":"08118","name":"Ludwigsburg","type":"Landkreis"},"federalState":{"key":"08","name":"Baden-Württemberg"}},{"name":"Eibenweg","postalCode":"71665","locality":"Vaihingen an der Enz","municipality":{"key":"08118073","name":"Vaihingen an der Enz, Stadt","type":"Große_Kreisstadt"},"district":{"key":"08118","name":"Ludwigsburg","type":"Landkreis"},"federalState":{"key":"08","name":"Baden-Württemberg"}},{"name":"Eichendorffstr.","postalCode":"71665","locality":"Vaihingen an der Enz","municipality":{"key":"08118073","name":"Vaihingen an der Enz, Stadt","type":"Große_Kreisstadt"},"district":{"key":"08118","name":"Ludwigsburg","type":"Landkreis"},"federalState":{"key":"08","name":"Baden-Württemberg"}},{"name":"Eichenrainweg","postalCode":"71665","locality":"Vaihingen an der Enz","municipality":{"key":"08118073","name":"Vaihingen an der Enz, Stadt","type":"Große_Kreisstadt"},"district":{"key":"08118","name":"Ludwigsburg","type":"Landkreis"},"federalState":{"key":"08","name":"Baden-Württemberg"}},{"name":"Eichenstr.","postalCode":"71665","locality":"Vaihingen an der Enz","municipality":{"key":"08118073","name":"Vaihingen an der Enz, Stadt","type":"Große_Kreisstadt"},"district":{"key":"08118","name":"Ludwigsburg","type":"Landkreis"},"federalState":{"key":"08","name":"Baden-Württemberg"}},{"name":"Eichhof","postalCode":"71665","locality":"Vaihingen an der Enz","municipality":{"key":"08118073","name":"Vaihingen an der Enz, Stadt","type":"Große_Kreisstadt"},"district":{"key":"08118","name":"Ludwigsburg","type":"Landkreis"},"federalState":{"key":"08","name":"Baden-Württemberg"}},{"name":"Einsteinstr.","postalCode":"71665","locality":"Vaihingen an der Enz","municipality":{"key":"08118073","name":"Vaihingen an der Enz, Stadt","type":"Große_Kreisstadt"},"district":{"key":"08118","name":"Ludwigsburg","type":"Landkreis"},"federalState":{"key":"08","name":"Baden-Württemberg"}},{"name":"Emil-Keßler-Weg","postalCode":"71665","locality":"Vaihingen an der Enz","municipality":{"key":"08118073","name":"Vaihingen an der Enz, Stadt","type":"Große_Kreisstadt"},"district":{"key":"08118","name":"Ludwigsburg","type":"Landkreis"},"federalState":{"key":"08","name":"Baden-Württemberg"}},{"name":"Ensinger Str.","postalCode":"71665","locality":"Vaihingen an der Enz","municipality":{"key":"08118073","name":"Vaihingen an der Enz, Stadt","type":"Große_Kreisstadt"},"district":{"key":"08118","name":"Ludwigsburg","type":"Landkreis"},"federalState":{"key":"08","name":"Baden-Württemberg"}},{"name":"Enzbrücke","postalCode":"71665","locality":"Vaihingen an der Enz","municipality":{"key":"08118073","name":"Vaihingen an der Enz, Stadt","type":"Große_Kreisstadt"},"district":{"key":"08118","name":"Ludwigsburg","type":"Landkreis"},"federalState":{"key":"08","name":"Baden-Württemberg"}},{"name":"Enzgasse","postalCode":"71665","locality":"Vaihingen an der Enz","municipality":{"key":"08118073","name":"Vaihingen an der Enz, Stadt","type":"Große_Kreisstadt"},"district":{"key":"08118","name":"Ludwigsburg","type":"Landkreis"},"federalState":{"key":"08","name":"Baden-Württemberg"}},{"name":"Enzhaldenweg","postalCode":"71665","locality":"Vaihingen an der Enz","municipality":{"key":"08118073","name":"Vaihingen an der Enz, Stadt","type":"Große_Kreisstadt"},"district":{"key":"08118","name":"Ludwigsburg","type":"Landkreis"},"federalState":{"key":"08","name":"Baden-Württemberg"}},{"name":"Enzweihinger Str.","postalCode":"71665","locality":"Vaihingen an der Enz","municipality":{"key":"08118073","name":"Vaihingen an der Enz, Stadt","type":"Große_Kreisstadt"},"district":{"key":"08118","name":"Ludwigsburg","type":"Landkreis"},"federalState":{"key":"08","name":"Baden-Württemberg"}},{"name":"Erich-Blum-Str.","postalCode":"71665","locality":"Vaihingen an der Enz","municipality":{"key":"08118073","name":"Vaihingen an der Enz, Stadt","type":"Große_Kreisstadt"},"district":{"key":"08118","name":"Ludwigsburg","type":"Landkreis"},"federalState":{"key":"08","name":"Baden-Württemberg"}},{"name":"Erlenweg","postalCode":"71665","locality":"Vaihingen an der Enz","municipality":{"key":"08118073","name":"Vaihingen an der Enz, Stadt","type":"Große_Kreisstadt"},"district":{"key":"08118","name":"Ludwigsburg","type":"Landkreis"},"federalState":{"key":"08","name":"Baden-Württemberg"}},{"name":"Eselsburgweg","postalCode":"71665","locality":"Vaihingen an der Enz","municipality":{"key":"08118073","name":"Vaihingen an der Enz, Stadt","type":"Große_Kreisstadt"},"district":{"key":"08118","name":"Ludwigsburg","type":"Landkreis"},"federalState":{"key":"08","name":"Baden-Württemberg"}},{"name":"Eugenstr.","postalCode":"71665","locality":"Vaihingen an der Enz","municipality":{"key":"08118073","name":"Vaihingen an der Enz, Stadt","type":"Große_Kreisstadt"},"district":{"key":"08118","name":"Ludwigsburg","type":"Landkreis"},"federalState":{"key":"08","name":"Baden-Württemberg"}},{"name":"Fasanenstr.","postalCode":"71665","locality":"Vaihingen an der Enz","municipality":{"key":"08118073","name":"Vaihingen an der Enz, Stadt","type":"Große_Kreisstadt"},"district":{"key":"08118","name":"Ludwigsburg","type":"Landkreis"},"federalState":{"key":"08","name":"Baden-Württemberg"}},{"name":"Fichtenstr.","postalCode":"71665","locality":"Vaihingen an der Enz","municipality":{"key":"08118073","name":"Vaihingen an der Enz, Stadt","type":"Große_Kreisstadt"},"district":{"key":"08118","name":"Ludwigsburg","type":"Landkreis"},"federalState":{"key":"08","name":"Baden-Württemberg"}},{"name":"Findeisenstr.","postalCode":"71665","locality":"Vaihingen an der Enz","municipality":{"key":"08118073","name":"Vaihingen an der Enz, Stadt","type":"Große_Kreisstadt"},"district":{"key":"08118","name":"Ludwigsburg","type":"Landkreis"},"federalState":{"key":"08","name":"Baden-Württemberg"}},{"name":"Finkenweg","postalCode":"71665","locality":"Vaihingen an der Enz","municipality":{"key":"08118073","name":"Vaihingen an der Enz, Stadt","type":"Große_Kreisstadt"},"district":{"key":"08118","name":"Ludwigsburg","type":"Landkreis"},"federalState":{"key":"08","name":"Baden-Württemberg"}},{"name":"Fischerweg","postalCode":"71665","locality":"Vaihingen an der Enz","municipality":{"key":"08118073","name":"Vaihingen an der Enz, Stadt","type":"Große_Kreisstadt"},"district":{"key":"08118","name":"Ludwigsburg","type":"Landkreis"},"federalState":{"key":"08","name":"Baden-Württemberg"}},{"name":"Fischgasse","postalCode":"71665","locality":"Vaihingen an der Enz","municipality":{"key":"08118073","name":"Vaihingen an der Enz, Stadt","type":"Große_Kreisstadt"},"district":{"key":"08118","name":"Ludwigsburg","type":"Landkreis"},"federalState":{"key":"08","name":"Baden-Württemberg"}},{"name":"Fleckkelterweg","postalCode":"71665","locality":"Vaihingen an der Enz","municipality":{"key":"08118073","name":"Vaihingen an der Enz, Stadt","type":"Große_Kreisstadt"},"district":{"key":"08118","name":"Ludwigsburg","type":"Landkreis"},"federalState":{"key":"08","name":"Baden-Württemberg"}},{"name":"Fliederweg","postalCode":"71665","locality":"Vaihingen an der Enz","municipality":{"key":"08118073","name":"Vaihingen an der Enz, Stadt","type":"Große_Kreisstadt"},"district":{"key":"08118","name":"Ludwigsburg","type":"Landkreis"},"federalState":{"key":"08","name":"Baden-Württemberg"}},{"name":"Florian-Geyer-Str.","postalCode":"71665","locality":"Vaihingen an der Enz","municipality":{"key":"08118073","name":"Vaihingen an der Enz, Stadt","type":"Große_Kreisstadt"},"district":{"key":"08118","name":"Ludwigsburg","type":"Landkreis"},"federalState":{"key":"08","name":"Baden-Württemberg"}},{"name":"Florianstr.","postalCode":"71665","locality":"Vaihingen an der Enz","municipality":{"key":"08118073","name":"Vaihingen an der Enz, Stadt","type":"Große_Kreisstadt"},"district":{"key":"08118","name":"Ludwigsburg","type":"Landkreis"},"federalState":{"key":"08","name":"Baden-Württemberg"}},{"name":"Floschweg","postalCode":"71665","locality":"Vaihingen an der Enz","municipality":{"key":"08118073","name":"Vaihingen an der Enz, Stadt","type":"Große_Kreisstadt"},"district":{"key":"08118","name":"Ludwigsburg","type":"Landkreis"},"federalState":{"key":"08","name":"Baden-Württemberg"}},{"name":"Flößerstr.","postalCode":"71665","locality":"Vaihingen an der Enz","municipality":{"key":"08118073","name":"Vaihingen an der Enz, Stadt","type":"Große_Kreisstadt"},"district":{"key":"08118","name":"Ludwigsburg","type":"Landkreis"},"federalState":{"key":"08","name":"Baden-Württemberg"}},{"name":"Flugplatz","postalCode":"71665","locality":"Vaihingen an der Enz","municipality":{"key":"08118073","name":"Vaihingen an der Enz, Stadt","type":"Große_Kreisstadt"},"district":{"key":"08118","name":"Ludwigsburg","type":"Landkreis"},"federalState":{"key":"08","name":"Baden-Württemberg"}},{"name":"Fontaneweg","postalCode":"71665","locality":"Vaihingen an der Enz","municipality":{"key":"08118073","name":"Vaihingen an der Enz, Stadt","type":"Große_Kreisstadt"},"district":{"key":"08118","name":"Ludwigsburg","type":"Landkreis"},"federalState":{"key":"08","name":"Baden-Württemberg"}},{"name":"Forellengasse","postalCode":"71665","locality":"Vaihingen an der Enz","municipality":{"key":"08118073","name":"Vaihingen an der Enz, Stadt","type":"Große_Kreisstadt"},"district":{"key":"08118","name":"Ludwigsburg","type":"Landkreis"},"federalState":{"key":"08","name":"Baden-Württemberg"}},{"name":"Franckstr.","postalCode":"71665","locality":"Vaihingen an der Enz","municipality":{"key":"08118073","name":"Vaihingen an der Enz, Stadt","type":"Große_Kreisstadt"},"district":{"key":"08118","name":"Ludwigsburg","type":"Landkreis"},"federalState":{"key":"08","name":"Baden-Württemberg"}},{"name":"Frieder-Schwarz-Weg","postalCode":"71665","locality":"Vaihingen an der Enz","municipality":{"key":"08118073","name":"Vaihingen an der Enz, Stadt","type":"Große_Kreisstadt"},"district":{"key":"08118","name":"Ludwigsburg","type":"Landkreis"},"federalState":{"key":"08","name":"Baden-Württemberg"}},{"name":"Friedrich-Harkort-Weg","postalCode":"71665","locality":"Vaihingen an der Enz","municipality":{"key":"08118073","name":"Vaihingen an der Enz, Stadt","type":"Große_Kreisstadt"},"district":{"key":"08118","name":"Ludwigsburg","type":"Landkreis"},"federalState":{"key":"08","name":"Baden-Württemberg"}},{"name":"Friedrich-Kraut-Str.","postalCode":"71665","locality":"Vaihingen an der Enz","municipality":{"key":"08118073","name":"Vaihingen an der Enz, Stadt","type":"Große_Kreisstadt"},"district":{"key":"08118","name":"Ludwigsburg","type":"Landkreis"},"federalState":{"key":"08","name":"Baden-Württemberg"}},{"name":"Friedrichstr.","postalCode":"71665","locality":"Vaihingen an der Enz","municipality":{"key":"08118073","name":"Vaihingen an der Enz, Stadt","type":"Große_Kreisstadt"},"district":{"key":"08118","name":"Ludwigsburg","type":"Landkreis"},"federalState":{"key":"08","name":"Baden-Württemberg"}},{"name":"Fuchsloch","postalCode":"71665","locality":"Vaihingen an der Enz","municipality":{"key":"08118073","name":"Vaihingen an der Enz, Stadt","type":"Große_Kreisstadt"},"district":{"key":"08118","name":"Ludwigsburg","type":"Landkreis"},"federalState":{"key":"08","name":"Baden-Württemberg"}},{"name":"Furtbergstr.","postalCode":"71665","locality":"Vaihingen an der Enz","municipality":{"key":"08118073","name":"Vaihingen an der Enz, Stadt","type":"Große_Kreisstadt"},"district":{"key":"08118","name":"Ludwigsburg","type":"Landkreis"},"federalState":{"key":"08","name":"Baden-Württemberg"}},{"name":"Gänsheide","postalCode":"71665","locality":"Vaihingen an der Enz","municipality":{"key":"08118073","name":"Vaihingen an der Enz, Stadt","type":"Große_Kreisstadt"},"district":{"key":"08118","name":"Ludwigsburg","type":"Landkreis"},"federalState":{"key":"08","name":"Baden-Württemberg"}},{"name":"Gartenstr.","postalCode":"71665","locality":"Vaihingen an der Enz","municipality":{"key":"08118073","name":"Vaihingen an der Enz, Stadt","type":"Große_Kreisstadt"},"district":{"key":"08118","name":"Ludwigsburg","type":"Landkreis"},"federalState":{"key":"08","name":"Baden-Württemberg"}},{"name":"Gebrüder-Sus-Weg","postalCode":"71665","locality":"Vaihingen an der Enz","municipality":{"key":"08118073","name":"Vaihingen an der Enz, Stadt","type":"Große_Kreisstadt"},"district":{"key":"08118","name":"Ludwigsburg","type":"Landkreis"},"federalState":{"key":"08","name":"Baden-Württemberg"}},{"name":"Geißweg","postalCode":"71665","locality":"Vaihingen an der Enz","municipality":{"key":"08118073","name":"Vaihingen an der Enz, Stadt","type":"Große_Kreisstadt"},"district":{"key":"08118","name":"Ludwigsburg","type":"Landkreis"},"federalState":{"key":"08","name":"Baden-Württemberg"}},{"name":"Geranienweg","postalCode":"71665","locality":"Vaihingen an der Enz","municipality":{"key":"08118073","name":"Vaihingen an der Enz, Stadt","type":"Große_Kreisstadt"},"district":{"key":"08118","name":"Ludwigsburg","type":"Landkreis"},"federalState":{"key":"08","name":"Baden-Württemberg"}},{"name":"Gerberstr.","postalCode":"71665","locality":"Vaihingen an der Enz","municipality":{"key":"08118073","name":"Vaihingen an der Enz, Stadt","type":"Große_Kreisstadt"},"district":{"key":"08118","name":"Ludwigsburg","type":"Landkreis"},"federalState":{"key":"08","name":"Baden-Württemberg"}},{"name":"Gerokstr.","postalCode":"71665","locality":"Vaihingen an der Enz","municipality":{"key":"08118073","name":"Vaihingen an der Enz, Stadt","type":"Große_Kreisstadt"},"district":{"key":"08118","name":"Ludwigsburg","type":"Landkreis"},"federalState":{"key":"08","name":"Baden-Württemberg"}},{"name":"Gerstenweg","postalCode":"71665","locality":"Vaihingen an der Enz","municipality":{"key":"08118073","name":"Vaihingen an der Enz, Stadt","type":"Große_Kreisstadt"},"district":{"key":"08118","name":"Ludwigsburg","type":"Landkreis"},"federalState":{"key":"08","name":"Baden-Württemberg"}},{"name":"Gewölb","postalCode":"71665","locality":"Vaihingen an der Enz","municipality":{"key":"08118073","name":"Vaihingen an der Enz, Stadt","type":"Große_Kreisstadt"},"district":{"key":"08118","name":"Ludwigsburg","type":"Landkreis"},"federalState":{"key":"08","name":"Baden-Württemberg"}},{"name":"Goethestr.","postalCode":"71665","locality":"Vaihingen an der Enz","municipality":{"key":"08118073","name":"Vaihingen an der Enz, Stadt","type":"Große_Kreisstadt"},"district":{"key":"08118","name":"Ludwigsburg","type":"Landkreis"},"federalState":{"key":"08","name":"Baden-Württemberg"}},{"name":"Gottfried-Keller-Str.","postalCode":"71665","locality":"Vaihingen an der Enz","municipality":{"key":"08118073","name":"Vaihingen an der Enz, Stadt","type":"Große_Kreisstadt"},"district":{"key":"08118","name":"Ludwigsburg","type":"Landkreis"},"federalState":{"key":"08","name":"Baden-Württemberg"}},{"name":"Grabenbrunnenweg","postalCode":"71665","locality":"Vaihingen an der Enz","municipality":{"key":"08118073","name":"Vaihingen an der Enz, Stadt","type":"Große_Kreisstadt"},"district":{"key":"08118","name":"Ludwigsburg","type":"Landkreis"},"federalState":{"key":"08","name":"Baden-Württemberg"}},{"name":"Grabenstr.","postalCode":"71665","locality":"Vaihingen an der Enz","municipality":{"key":"08118073","name":"Vaihingen an der Enz, Stadt","type":"Große_Kreisstadt"},"district":{"key":"08118","name":"Ludwigsburg","type":"Landkreis"},"federalState":{"key":"08","name":"Baden-Württemberg"}},{"name":"Grafenreisach Weg","postalCode":"71665","locality":"Vaihingen an der Enz","municipality":{"key":"08118073","name":"Vaihingen an der Enz, Stadt","type":"Große_Kreisstadt"},"district":{"key":"08118","name":"Ludwigsburg","type":"Landkreis"},"federalState":{"key":"08","name":"Baden-Württemberg"}},{"name":"Graf-Gottfried-Str.","postalCode":"71665","locality":"Vaihingen an der Enz","municipality":{"key":"08118073","name":"Vaihingen an der Enz, Stadt","type":"Große_Kreisstadt"},"district":{"key":"08118","name":"Ludwigsburg","type":"Landkreis"},"federalState":{"key":"08","name":"Baden-Württemberg"}},{"name":"Grempstr.","postalCode":"71665","locality":"Vaihingen an der Enz","municipality":{"key":"08118073","name":"Vaihingen an der Enz, Stadt","type":"Große_Kreisstadt"},"district":{"key":"08118","name":"Ludwigsburg","type":"Landkreis"},"federalState":{"key":"08","name":"Baden-Württemberg"}},{"name":"Grenzweg","postalCode":"71665","locality":"Vaihingen an der Enz","municipality":{"key":"08118073","name":"Vaihingen an der Enz, Stadt","type":"Große_Kreisstadt"},"district":{"key":"08118","name":"Ludwigsburg","type":"Landkreis"},"federalState":{"key":"08","name":"Baden-Württemberg"}},{"name":"Grimmengasse","postalCode":"71665","locality":"Vaihingen an der Enz","municipality":{"key":"08118073","name":"Vaihingen an der Enz, Stadt","type":"Große_Kreisstadt"},"district":{"key":"08118","name":"Ludwigsburg","type":"Landkreis"},"federalState":{"key":"08","name":"Baden-Württemberg"}},{"name":"Großglattbacher Pfad","postalCode":"71665","locality":"Vaihingen an der Enz","municipality":{"key":"08118073","name":"Vaihingen an der Enz, Stadt","type":"Große_Kreisstadt"},"district":{"key":"08118","name":"Ludwigsburg","type":"Landkreis"},"federalState":{"key":"08","name":"Baden-Württemberg"}},{"name":"Großglattbacher Weg","postalCode":"71665","locality":"Vaihingen an der Enz","municipality":{"key":"08118073","name":"Vaihingen an der Enz, Stadt","type":"Große_Kreisstadt"},"district":{"key":"08118","name":"Ludwigsburg","type":"Landkreis"},"federalState":{"key":"08","name":"Baden-Württemberg"}},{"name":"Guckenhauser Weg","postalCode":"71665","locality":"Vaihingen an der Enz","municipality":{"key":"08118073","name":"Vaihingen an der Enz, Stadt","type":"Große_Kreisstadt"},"district":{"key":"08118","name":"Ludwigsburg","type":"Landkreis"},"federalState":{"key":"08","name":"Baden-Württemberg"}},{"name":"Gündelbacher Str.","postalCode":"71665","locality":"Vaihingen an der Enz","municipality":{"key":"08118073","name":"Vaihingen an der Enz, Stadt","type":"Große_Kreisstadt"},"district":{"key":"08118","name":"Ludwigsburg","type":"Landkreis"},"federalState":{"key":"08","name":"Baden-Württemberg"}},{"name":"Gündelbacher Weg","postalCode":"71665","locality":"Vaihingen an der Enz","municipality":{"key":"08118073","name":"Vaihingen an der Enz, Stadt","type":"Große_Kreisstadt"},"district":{"key":"08118","name":"Ludwigsburg","type":"Landkreis"},"federalState":{"key":"08","name":"Baden-Württemberg"}},{"name":"Gutenbergstr.","postalCode":"71665","locality":"Vaihingen an der Enz","municipality":{"key":"08118073","name":"Vaihingen an der Enz, Stadt","type":"Große_Kreisstadt"},"district":{"key":"08118","name":"Ludwigsburg","type":"Landkreis"},"federalState":{"key":"08","name":"Baden-Württemberg"}},{"name":"Habergartenweg","postalCode":"71665","locality":"Vaihingen an der Enz","municipality":{"key":"08118073","name":"Vaihingen an der Enz, Stadt","type":"Große_Kreisstadt"},"district":{"key":"08118","name":"Ludwigsburg","type":"Landkreis"},"federalState":{"key":"08","name":"Baden-Württemberg"}},{"name":"Haberkernweg","postalCode":"71665","locality":"Vaihingen an der Enz","municipality":{"key":"08118073","name":"Vaihingen an der Enz, Stadt","type":"Große_Kreisstadt"},"district":{"key":"08118","name":"Ludwigsburg","type":"Landkreis"},"federalState":{"key":"08","name":"Baden-Württemberg"}},{"name":"Haferweg","postalCode":"71665","locality":"Vaihingen an der Enz","municipality":{"key":"08118073","name":"Vaihingen an der Enz, Stadt","type":"Große_Kreisstadt"},"district":{"key":"08118","name":"Ludwigsburg","type":"Landkreis"},"federalState":{"key":"08","name":"Baden-Württemberg"}},{"name":"Häfnerhaslacher Weg","postalCode":"71665","locality":"Vaihingen an der Enz","municipality":{"key":"08118073","name":"Vaihingen an der Enz, Stadt","type":"Große_Kreisstadt"},"district":{"key":"08118","name":"Ludwigsburg","type":"Landkreis"},"federalState":{"key":"08","name":"Baden-Württemberg"}},{"name":"Hagdornweg","postalCode":"71665","locality":"Vaihingen an der Enz","municipality":{"key":"08118073","name":"Vaihingen an der Enz, Stadt","type":"Große_Kreisstadt"},"district":{"key":"08118","name":"Ludwigsburg","type":"Landkreis"},"federalState":{"key":"08","name":"Baden-Württemberg"}},{"name":"Hagenrainstr.","postalCode":"71665","locality":"Vaihingen an der Enz","municipality":{"key":"08118073","name":"Vaihingen an der Enz, Stadt","type":"Große_Kreisstadt"},"district":{"key":"08118","name":"Ludwigsburg","type":"Landkreis"},"federalState":{"key":"08","name":"Baden-Württemberg"}},{"name":"Hainbuchenweg","postalCode":"71665","locality":"Vaihingen an der Enz","municipality":{"key":"08118073","name":"Vaihingen an der Enz, Stadt","type":"Große_Kreisstadt"},"district":{"key":"08118","name":"Ludwigsburg","type":"Landkreis"},"federalState":{"key":"08","name":"Baden-Württemberg"}},{"name":"Hakenweg","postalCode":"71665","locality":"Vaihingen an der Enz","municipality":{"key":"08118073","name":"Vaihingen an der Enz, Stadt","type":"Große_Kreisstadt"},"district":{"key":"08118","name":"Ludwigsburg","type":"Landkreis"},"federalState":{"key":"08","name":"Baden-Württemberg"}},{"name":"Häldenkopfstr.","postalCode":"71665","locality":"Vaihingen an der Enz","municipality":{"key":"08118073","name":"Vaihingen an der Enz, Stadt","type":"Große_Kreisstadt"},"district":{"key":"08118","name":"Ludwigsburg","type":"Landkreis"},"federalState":{"key":"08","name":"Baden-Württemberg"}},{"name":"Häldenrainweg","postalCode":"71665","locality":"Vaihingen an der Enz","municipality":{"key":"08118073","name":"Vaihingen an der Enz, Stadt","type":"Große_Kreisstadt"},"district":{"key":"08118","name":"Ludwigsburg","type":"Landkreis"},"federalState":{"key":"08","name":"Baden-Württemberg"}},{"name":"Haldenweg","postalCode":"71665","locality":"Vaihingen an der Enz","municipality":{"key":"08118073","name":"Vaihingen an der Enz, Stadt","type":"Große_Kreisstadt"},"district":{"key":"08118","name":"Ludwigsburg","type":"Landkreis"},"federalState":{"key":"08","name":"Baden-Württemberg"}},{"name":"Hamberger See Str.","postalCode":"71665","locality":"Vaihingen an der Enz","municipality":{"key":"08118073","name":"Vaihingen an der Enz, Stadt","type":"Große_Kreisstadt"},"district":{"key":"08118","name":"Ludwigsburg","type":"Landkreis"},"federalState":{"key":"08","name":"Baden-Württemberg"}},{"name":"Hans-Krieg-Str.","postalCode":"71665","locality":"Vaihingen an der Enz","municipality":{"key":"08118073","name":"Vaihingen an der Enz, Stadt","type":"Große_Kreisstadt"},"district":{"key":"08118","name":"Ludwigsburg","type":"Landkreis"},"federalState":{"key":"08","name":"Baden-Württemberg"}},{"name":"Hans-Thoma-Str.","postalCode":"71665","locality":"Vaihingen an der Enz","municipality":{"key":"08118073","name":"Vaihingen an der Enz, Stadt","type":"Große_Kreisstadt"},"district":{"key":"08118","name":"Ludwigsburg","type":"Landkreis"},"federalState":{"key":"08","name":"Baden-Württemberg"}},{"name":"Haselweg","postalCode":"71665","locality":"Vaihingen an der Enz","municipality":{"key":"08118073","name":"Vaihingen an der Enz, Stadt","type":"Große_Kreisstadt"},"district":{"key":"08118","name":"Ludwigsburg","type":"Landkreis"},"federalState":{"key":"08","name":"Baden-Württemberg"}},{"name":"Hauffstr.","postalCode":"71665","locality":"Vaihingen an der Enz","municipality":{"key":"08118073","name":"Vaihingen an der Enz, Stadt","type":"Große_Kreisstadt"},"district":{"key":"08118","name":"Ludwigsburg","type":"Landkreis"},"federalState":{"key":"08","name":"Baden-Württemberg"}},{"name":"Hauptstr.","postalCode":"71665","locality":"Vaihingen an der Enz","municipality":{"key":"08118073","name":"Vaihingen an der Enz, Stadt","type":"Große_Kreisstadt"},"district":{"key":"08118","name":"Ludwigsburg","type":"Landkreis"},"federalState":{"key":"08","name":"Baden-Württemberg"}},{"name":"Hebelweg","postalCode":"71665","locality":"Vaihingen an der Enz","municipality":{"key":"08118073","name":"Vaihingen an der Enz, Stadt","type":"Große_Kreisstadt"},"district":{"key":"08118","name":"Ludwigsburg","type":"Landkreis"},"federalState":{"key":"08","name":"Baden-Württemberg"}},{"name":"Hedwigstr.","postalCode":"71665","locality":"Vaihingen an der Enz","municipality":{"key":"08118073","name":"Vaihingen an der Enz, Stadt","type":"Große_Kreisstadt"},"district":{"key":"08118","name":"Ludwigsburg","type":"Landkreis"},"federalState":{"key":"08","name":"Baden-Württemberg"}},{"name":"Heidenköpfles Weg","postalCode":"71665","locality":"Vaihingen an der Enz","municipality":{"key":"08118073","name":"Vaihingen an der Enz, Stadt","type":"Große_Kreisstadt"},"district":{"key":"08118","name":"Ludwigsburg","type":"Landkreis"},"federalState":{"key":"08","name":"Baden-Württemberg"}},{"name":"Heidenring","postalCode":"71665","locality":"Vaihingen an der Enz","municipality":{"key":"08118073","name":"Vaihingen an der Enz, Stadt","type":"Große_Kreisstadt"},"district":{"key":"08118","name":"Ludwigsburg","type":"Landkreis"},"federalState":{"key":"08","name":"Baden-Württemberg"}},{"name":"Heidestr.","postalCode":"71665","locality":"Vaihingen an der Enz","municipality":{"key":"08118073","name":"Vaihingen an der Enz, Stadt","type":"Große_Kreisstadt"},"district":{"key":"08118","name":"Ludwigsburg","type":"Landkreis"},"federalState":{"key":"08","name":"Baden-Württemberg"}},{"name":"Heilbronner Str.","postalCode":"71665","locality":"Vaihingen an der Enz","municipality":{"key":"08118073","name":"Vaihingen an der Enz, Stadt","type":"Große_Kreisstadt"},"district":{"key":"08118","name":"Ludwigsburg","type":"Landkreis"},"federalState":{"key":"08","name":"Baden-Württemberg"}},{"name":"Heiligkreuzstr.","postalCode":"71665","locality":"Vaihingen an der Enz","municipality":{"key":"08118073","name":"Vaihingen an der Enz, Stadt","type":"Große_Kreisstadt"},"district":{"key":"08118","name":"Ludwigsburg","type":"Landkreis"},"federalState":{"key":"08","name":"Baden-Württemberg"}},{"name":"Heineweg","postalCode":"71665","locality":"Vaihingen an der Enz","municipality":{"key":"08118073","name":"Vaihingen an der Enz, Stadt","type":"Große_Kreisstadt"},"district":{"key":"08118","name":"Ludwigsburg","type":"Landkreis"},"federalState":{"key":"08","name":"Baden-Württemberg"}},{"name":"Heinrich-Bürger-Weg","postalCode":"71665","locality":"Vaihingen an der Enz","municipality":{"key":"08118073","name":"Vaihingen an der Enz, Stadt","type":"Große_Kreisstadt"},"district":{"key":"08118","name":"Ludwigsburg","type":"Landkreis"},"federalState":{"key":"08","name":"Baden-Württemberg"}},{"name":"Helmensteinweg","postalCode":"71665","locality":"Vaihingen an der Enz","municipality":{"key":"08118073","name":"Vaihingen an der Enz, Stadt","type":"Große_Kreisstadt"},"district":{"key":"08118","name":"Ludwigsburg","type":"Landkreis"},"federalState":{"key":"08","name":"Baden-Württemberg"}},{"name":"Helmut-Ulmer-Str.","postalCode":"71665","locality":"Vaihingen an der Enz","municipality":{"key":"08118073","name":"Vaihingen an der Enz, Stadt","type":"Große_Kreisstadt"},"district":{"key":"08118","name":"Ludwigsburg","type":"Landkreis"},"federalState":{"key":"08","name":"Baden-Württemberg"}},{"name":"Hemminger Weg","postalCode":"71665","locality":"Vaihingen an der Enz","municipality":{"key":"08118073","name":"Vaihingen an der Enz, Stadt","type":"Große_Kreisstadt"},"district":{"key":"08118","name":"Ludwigsburg","type":"Landkreis"},"federalState":{"key":"08","name":"Baden-Württemberg"}},{"name":"Herbergasse","postalCode":"71665","locality":"Vaihingen an der Enz","municipality":{"key":"08118073","name":"Vaihingen an der Enz, Stadt","type":"Große_Kreisstadt"},"district":{"key":"08118","name":"Ludwigsburg","type":"Landkreis"},"federalState":{"key":"08","name":"Baden-Württemberg"}},{"name":"Herdweg","postalCode":"71665","locality":"Vaihingen an der Enz","municipality":{"key":"08118073","name":"Vaihingen an der Enz, Stadt","type":"Große_Kreisstadt"},"district":{"key":"08118","name":"Ludwigsburg","type":"Landkreis"},"federalState":{"key":"08","name":"Baden-Württemberg"}},{"name":"Hermann-Löns-Str.","postalCode":"71665","locality":"Vaihingen an der Enz","municipality":{"key":"08118073","name":"Vaihingen an der Enz, Stadt","type":"Große_Kreisstadt"},"district":{"key":"08118","name":"Ludwigsburg","type":"Landkreis"},"federalState":{"key":"08","name":"Baden-Württemberg"}},{"name":"Heroldstr.","postalCode":"71665","locality":"Vaihingen an der Enz","municipality":{"key":"08118073","name":"Vaihingen an der Enz, Stadt","type":"Große_Kreisstadt"},"district":{"key":"08118","name":"Ludwigsburg","type":"Landkreis"},"federalState":{"key":"08","name":"Baden-Württemberg"}},{"name":"Herrenweg","postalCode":"71665","locality":"Vaihingen an der Enz","municipality":{"key":"08118073","name":"Vaihingen an der Enz, Stadt","type":"Große_Kreisstadt"},"district":{"key":"08118","name":"Ludwigsburg","type":"Landkreis"},"federalState":{"key":"08","name":"Baden-Württemberg"}},{"name":"Herrenwiesen","postalCode":"71665","locality":"Vaihingen an der Enz","municipality":{"key":"08118073","name":"Vaihingen an der Enz, Stadt","type":"Große_Kreisstadt"},"district":{"key":"08118","name":"Ludwigsburg","type":"Landkreis"},"federalState":{"key":"08","name":"Baden-Württemberg"}},{"name":"Hertzstr.","postalCode":"71665","locality":"Vaihingen an der Enz","municipality":{"key":"08118073","name":"Vaihingen an der Enz, Stadt","type":"Große_Kreisstadt"},"district":{"key":"08118","name":"Ludwigsburg","type":"Landkreis"},"federalState":{"key":"08","name":"Baden-Württemberg"}},{"name":"Hessenthalerweg","postalCode":"71665","locality":"Vaihingen an der Enz","municipality":{"key":"08118073","name":"Vaihingen an der Enz, Stadt","type":"Große_Kreisstadt"},"district":{"key":"08118","name":"Ludwigsburg","type":"Landkreis"},"federalState":{"key":"08","name":"Baden-Württemberg"}},{"name":"Hexenpfädle","postalCode":"71665","locality":"Vaihingen an der Enz","municipality":{"key":"08118073","name":"Vaihingen an der Enz, Stadt","type":"Große_Kreisstadt"},"district":{"key":"08118","name":"Ludwigsburg","type":"Landkreis"},"federalState":{"key":"08","name":"Baden-Württemberg"}},{"name":"Hildenstr.","postalCode":"71665","locality":"Vaihingen an der Enz","municipality":{"key":"08118073","name":"Vaihingen an der Enz, Stadt","type":"Große_Kreisstadt"},"district":{"key":"08118","name":"Ludwigsburg","type":"Landkreis"},"federalState":{"key":"08","name":"Baden-Württemberg"}},{"name":"Hillerstr.","postalCode":"71665","locality":"Vaihingen an der Enz","municipality":{"key":"08118073","name":"Vaihingen an der Enz, Stadt","type":"Große_Kreisstadt"},"district":{"key":"08118","name":"Ludwigsburg","type":"Landkreis"},"federalState":{"key":"08","name":"Baden-Württemberg"}},{"name":"Hindenburgstr.","postalCode":"71665","locality":"Vaihingen an der Enz","municipality":{"key":"08118073","name":"Vaihingen an der Enz, Stadt","type":"Große_Kreisstadt"},"district":{"key":"08118","name":"Ludwigsburg","type":"Landkreis"},"federalState":{"key":"08","name":"Baden-Württemberg"}},{"name":"Hinter der Mühle","postalCode":"71665","locality":"Vaihingen an der Enz","municipality":{"key":"08118073","name":"Vaihingen an der Enz, Stadt","type":"Große_Kreisstadt"},"district":{"key":"08118","name":"Ludwigsburg","type":"Landkreis"},"federalState":{"key":"08","name":"Baden-Württemberg"}},{"name":"Hinter der Ziegelhütte","postalCode":"71665","locality":"Vaihingen an der Enz","municipality":{"key":"08118073","name":"Vaihingen an der Enz, Stadt","type":"Große_Kreisstadt"},"district":{"key":"08118","name":"Ludwigsburg","type":"Landkreis"},"federalState":{"key":"08","name":"Baden-Württemberg"}},{"name":"Hintere Gasse","postalCode":"71665","locality":"Vaihingen an der Enz","municipality":{"key":"08118073","name":"Vaihingen an der Enz, Stadt","type":"Große_Kreisstadt"},"district":{"key":"08118","name":"Ludwigsburg","type":"Landkreis"},"federalState":{"key":"08","name":"Baden-Württemberg"}},{"name":"Hintere Hofstr.","postalCode":"71665","locality":"Vaihingen an der Enz","municipality":{"key":"08118073","name":"Vaihingen an der Enz, Stadt","type":"Große_Kreisstadt"},"district":{"key":"08118","name":"Ludwigsburg","type":"Landkreis"},"federalState":{"key":"08","name":"Baden-Württemberg"}},{"name":"Hirsauer Str.","postalCode":"71665","locality":"Vaihingen an der Enz","municipality":{"key":"08118073","name":"Vaihingen an der Enz, Stadt","type":"Große_Kreisstadt"},"district":{"key":"08118","name":"Ludwigsburg","type":"Landkreis"},"federalState":{"key":"08","name":"Baden-Württemberg"}},{"name":"Hochdorfer Str.","postalCode":"71665","locality":"Vaihingen an der Enz","municipality":{"key":"08118073","name":"Vaihingen an der Enz, Stadt","type":"Große_Kreisstadt"},"district":{"key":"08118","name":"Ludwigsburg","type":"Landkreis"},"federalState":{"key":"08","name":"Baden-Württemberg"}},{"name":"Hochwasserschutzdamm der Enz","postalCode":"71665","locality":"Vaihingen an der Enz","municipality":{"key":"08118073","name":"Vaihingen an der Enz, Stadt","type":"Große_Kreisstadt"},"district":{"key":"08118","name":"Ludwigsburg","type":"Landkreis"},"federalState":{"key":"08","name":"Baden-Württemberg"}},{"name":"Hohbergstr.","postalCode":"71665","locality":"Vaihingen an der Enz","municipality":{"key":"08118073","name":"Vaihingen an der Enz, Stadt","type":"Große_Kreisstadt"},"district":{"key":"08118","name":"Ludwigsburg","type":"Landkreis"},"federalState":{"key":"08","name":"Baden-Württemberg"}},{"name":"Hohenhaslacher Str.","postalCode":"71665","locality":"Vaihingen an der Enz","municipality":{"key":"08118073","name":"Vaihingen an der Enz, Stadt","type":"Große_Kreisstadt"},"district":{"key":"08118","name":"Ludwigsburg","type":"Landkreis"},"federalState":{"key":"08","name":"Baden-Württemberg"}},{"name":"Illinger Str.","postalCode":"71665","locality":"Vaihingen an der Enz","municipality":{"key":"08118073","name":"Vaihingen an der Enz, Stadt","type":"Große_Kreisstadt"},"district":{"key":"08118","name":"Ludwigsburg","type":"Landkreis"},"federalState":{"key":"08","name":"Baden-Württemberg"}},{"name":"Im Aischbach","postalCode":"71665","locality":"Vaihingen an der Enz","municipality":{"key":"08118073","name":"Vaihingen an der Enz, Stadt","type":"Große_Kreisstadt"},"district":{"key":"08118","name":"Ludwigsburg","type":"Landkreis"},"federalState":{"key":"08","name":"Baden-Württemberg"}},{"name":"Im Auricher Tal","postalCode":"71665","locality":"Vaihingen an der Enz","municipality":{"key":"08118073","name":"Vaihingen an der Enz, Stadt","type":"Große_Kreisstadt"},"district":{"key":"08118","name":"Ludwigsburg","type":"Landkreis"},"federalState":{"key":"08","name":"Baden-Württemberg"}},{"name":"Im Biegel","postalCode":"71665","locality":"Vaihingen an der Enz","municipality":{"key":"08118073","name":"Vaihingen an der Enz, Stadt","type":"Große_Kreisstadt"},"district":{"key":"08118","name":"Ludwigsburg","type":"Landkreis"},"federalState":{"key":"08","name":"Baden-Württemberg"}},{"name":"Im Gänsacker","postalCode":"71665","locality":"Vaihingen an der Enz","municipality":{"key":"08118073","name":"Vaihingen an der Enz, Stadt","type":"Große_Kreisstadt"},"district":{"key":"08118","name":"Ludwigsburg","type":"Landkreis"},"federalState":{"key":"08","name":"Baden-Württemberg"}},{"name":"Im Gäßle","postalCode":"71665","locality":"Vaihingen an der Enz","municipality":{"key":"08118073","name":"Vaihingen an der Enz, Stadt","type":"Große_Kreisstadt"},"district":{"key":"08118","name":"Ludwigsburg","type":"Landkreis"},"federalState":{"key":"08","name":"Baden-Württemberg"}},{"name":"Im Graben","postalCode":"71665","locality":"Vaihingen an der Enz","municipality":{"key":"08118073","name":"Vaihingen an der Enz, Stadt","type":"Große_Kreisstadt"},"district":{"key":"08118","name":"Ludwigsburg","type":"Landkreis"},"federalState":{"key":"08","name":"Baden-Württemberg"}},{"name":"Im Hörnle","postalCode":"71665","locality":"Vaihingen an der Enz","municipality":{"key":"08118073","name":"Vaihingen an der Enz, Stadt","type":"Große_Kreisstadt"},"district":{"key":"08118","name":"Ludwigsburg","type":"Landkreis"},"federalState":{"key":"08","name":"Baden-Württemberg"}},{"name":"Im kleinen Täle","postalCode":"71665","locality":"Vaihingen an der Enz","municipality":{"key":"08118073","name":"Vaihingen an der Enz, Stadt","type":"Große_Kreisstadt"},"district":{"key":"08118","name":"Ludwigsburg","type":"Landkreis"},"federalState":{"key":"08","name":"Baden-Württemberg"}},{"name":"Im Mühlenring","postalCode":"71665","locality":"Vaihingen an der Enz","municipality":{"key":"08118073","name":"Vaihingen an der Enz, Stadt","type":"Große_Kreisstadt"},"district":{"key":"08118","name":"Ludwigsburg","type":"Landkreis"},"federalState":{"key":"08","name":"Baden-Württemberg"}},{"name":"Im Mühlkanal","postalCode":"71665","locality":"Vaihingen an der Enz","municipality":{"key":"08118073","name":"Vaihingen an der Enz, Stadt","type":"Große_Kreisstadt"},"district":{"key":"08118","name":"Ludwigsburg","type":"Landkreis"},"federalState":{"key":"08","name":"Baden-Württemberg"}},{"name":"Im Pfädle","postalCode":"71665","locality":"Vaihingen an der Enz","municipality":{"key":"08118073","name":"Vaihingen an der Enz, Stadt","type":"Große_Kreisstadt"},"district":{"key":"08118","name":"Ludwigsburg","type":"Landkreis"},"federalState":{"key":"08","name":"Baden-Württemberg"}},{"name":"Im Rötenhart","postalCode":"71665","locality":"Vaihingen an der Enz","municipality":{"key":"08118073","name":"Vaihingen an der Enz, Stadt","type":"Große_Kreisstadt"},"district":{"key":"08118","name":"Ludwigsburg","type":"Landkreis"},"federalState":{"key":"08","name":"Baden-Württemberg"}},{"name":"Im See","postalCode":"71665","locality":"Vaihingen an der Enz","municipality":{"key":"08118073","name":"Vaihingen an der Enz, Stadt","type":"Große_Kreisstadt"},"district":{"key":"08118","name":"Ludwigsburg","type":"Landkreis"},"federalState":{"key":"08","name":"Baden-Württemberg"}},{"name":"Im Seerain","postalCode":"71665","locality":"Vaihingen an der Enz","municipality":{"key":"08118073","name":"Vaihingen an der Enz, Stadt","type":"Große_Kreisstadt"},"district":{"key":"08118","name":"Ludwigsburg","type":"Landkreis"},"federalState":{"key":"08","name":"Baden-Württemberg"}},{"name":"Im Steinbruch","postalCode":"71665","locality":"Vaihingen an der Enz","municipality":{"key":"08118073","name":"Vaihingen an der Enz, Stadt","type":"Große_Kreisstadt"},"district":{"key":"08118","name":"Ludwigsburg","type":"Landkreis"},"federalState":{"key":"08","name":"Baden-Württemberg"}},{"name":"Im Steinfeld","postalCode":"71665","locality":"Vaihingen an der Enz","municipality":{"key":"08118073","name":"Vaihingen an der Enz, Stadt","type":"Große_Kreisstadt"},"district":{"key":"08118","name":"Ludwigsburg","type":"Landkreis"},"federalState":{"key":"08","name":"Baden-Württemberg"}},{"name":"Im Stöcklesbrunnen","postalCode":"71665","locality":"Vaihingen an der Enz","municipality":{"key":"08118073","name":"Vaihingen an der Enz, Stadt","type":"Große_Kreisstadt"},"district":{"key":"08118","name":"Ludwigsburg","type":"Landkreis"},"federalState":{"key":"08","name":"Baden-Württemberg"}},{"name":"Im Taigtrog","postalCode":"71665","locality":"Vaihingen an der Enz","municipality":{"key":"08118073","name":"Vaihingen an der Enz, Stadt","type":"Große_Kreisstadt"},"district":{"key":"08118","name":"Ludwigsburg","type":"Landkreis"},"federalState":{"key":"08","name":"Baden-Württemberg"}},{"name":"Im Wiesengrund","postalCode":"71665","locality":"Vaihingen an der Enz","municipality":{"key":"08118073","name":"Vaihingen an der Enz, Stadt","type":"Große_Kreisstadt"},"district":{"key":"08118","name":"Ludwigsburg","type":"Landkreis"},"federalState":{"key":"08","name":"Baden-Württemberg"}},{"name":"In der Au","postalCode":"71665","locality":"Vaihingen an der Enz","municipality":{"key":"08118073","name":"Vaihingen an der Enz, Stadt","type":"Große_Kreisstadt"},"district":{"key":"08118","name":"Ludwigsburg","type":"Landkreis"},"federalState":{"key":"08","name":"Baden-Württemberg"}},{"name":"In der Laute","postalCode":"71665","locality":"Vaihingen an der Enz","municipality":{"key":"08118073","name":"Vaihingen an der Enz, Stadt","type":"Große_Kreisstadt"},"district":{"key":"08118","name":"Ludwigsburg","type":"Landkreis"},"federalState":{"key":"08","name":"Baden-Württemberg"}},{"name":"In der Seite","postalCode":"71665","locality":"Vaihingen an der Enz","municipality":{"key":"08118073","name":"Vaihingen an der Enz, Stadt","type":"Große_Kreisstadt"},"district":{"key":"08118","name":"Ludwigsburg","type":"Landkreis"},"federalState":{"key":"08","name":"Baden-Württemberg"}},{"name":"Industriestr.","postalCode":"71665","locality":"Vaihingen an der Enz","municipality":{"key":"08118073","name":"Vaihingen an der Enz, Stadt","type":"Große_Kreisstadt"},"district":{"key":"08118","name":"Ludwigsburg","type":"Landkreis"},"federalState":{"key":"08","name":"Baden-Württemberg"}},{"name":"Jägerstr.","postalCode":"71665","locality":"Vaihingen an der Enz","municipality":{"key":"08118073","name":"Vaihingen an der Enz, Stadt","type":"Große_Kreisstadt"},"district":{"key":"08118","name":"Ludwigsburg","type":"Landkreis"},"federalState":{"key":"08","name":"Baden-Württemberg"}},{"name":"Jahnstr.","postalCode":"71665","locality":"Vaihingen an der Enz","municipality":{"key":"08118073","name":"Vaihingen an der Enz, Stadt","type":"Große_Kreisstadt"},"district":{"key":"08118","name":"Ludwigsburg","type":"Landkreis"},"federalState":{"key":"08","name":"Baden-Württemberg"}},{"name":"Jauerniger Str.","postalCode":"71665","locality":"Vaihingen an der Enz","municipality":{"key":"08118073","name":"Vaihingen an der Enz, Stadt","type":"Große_Kreisstadt"},"district":{"key":"08118","name":"Ludwigsburg","type":"Landkreis"},"federalState":{"key":"08","name":"Baden-Württemberg"}},{"name":"Joseph-Haydn-Str.","postalCode":"71665","locality":"Vaihingen an der Enz","municipality":{"key":"08118073","name":"Vaihingen an der Enz, Stadt","type":"Große_Kreisstadt"},"district":{"key":"08118","name":"Ludwigsburg","type":"Landkreis"},"federalState":{"key":"08","name":"Baden-Württemberg"}},{"name":"Kalkäckerstr.","postalCode":"71665","locality":"Vaihingen an der Enz","municipality":{"key":"08118073","name":"Vaihingen an der Enz, Stadt","type":"Große_Kreisstadt"},"district":{"key":"08118","name":"Ludwigsburg","type":"Landkreis"},"federalState":{"key":"08","name":"Baden-Württemberg"}},{"name":"Kanalweg","postalCode":"71665","locality":"Vaihingen an der Enz","municipality":{"key":"08118073","name":"Vaihingen an der Enz, Stadt","type":"Große_Kreisstadt"},"district":{"key":"08118","name":"Ludwigsburg","type":"Landkreis"},"federalState":{"key":"08","name":"Baden-Württemberg"}},{"name":"Kantstr.","postalCode":"71665","locality":"Vaihingen an der Enz","municipality":{"key":"08118073","name":"Vaihingen an der Enz, Stadt","type":"Große_Kreisstadt"},"district":{"key":"08118","name":"Ludwigsburg","type":"Landkreis"},"federalState":{"key":"08","name":"Baden-Württemberg"}},{"name":"Karl-Blessing-Str.","postalCode":"71665","locality":"Vaihingen an der Enz","municipality":{"key":"08118073","name":"Vaihingen an der Enz, Stadt","type":"Große_Kreisstadt"},"district":{"key":"08118","name":"Ludwigsburg","type":"Landkreis"},"federalState":{"key":"08","name":"Baden-Württemberg"}},{"name":"Karl-Stotz-Platz","postalCode":"71665","locality":"Vaihingen an der Enz","municipality":{"key":"08118073","name":"Vaihingen an der Enz, Stadt","type":"Große_Kreisstadt"},"district":{"key":"08118","name":"Ludwigsburg","type":"Landkreis"},"federalState":{"key":"08","name":"Baden-Württemberg"}},{"name":"Kastanienweg","postalCode":"71665","locality":"Vaihingen an der Enz","municipality":{"key":"08118073","name":"Vaihingen an der Enz, Stadt","type":"Große_Kreisstadt"},"district":{"key":"08118","name":"Ludwigsburg","type":"Landkreis"},"federalState":{"key":"08","name":"Baden-Württemberg"}},{"name":"Kästnerstr.","postalCode":"71665","locality":"Vaihingen an der Enz","municipality":{"key":"08118073","name":"Vaihingen an der Enz, Stadt","type":"Große_Kreisstadt"},"district":{"key":"08118","name":"Ludwigsburg","type":"Landkreis"},"federalState":{"key":"08","name":"Baden-Württemberg"}},{"name":"Katharinenstr.","postalCode":"71665","locality":"Vaihingen an der Enz","municipality":{"key":"08118073","name":"Vaihingen an der Enz, Stadt","type":"Große_Kreisstadt"},"district":{"key":"08118","name":"Ludwigsburg","type":"Landkreis"},"federalState":{"key":"08","name":"Baden-Württemberg"}},{"name":"Kehlstr.","postalCode":"71665","locality":"Vaihingen an der Enz","municipality":{"key":"08118073","name":"Vaihingen an der Enz, Stadt","type":"Große_Kreisstadt"},"district":{"key":"08118","name":"Ludwigsburg","type":"Landkreis"},"federalState":{"key":"08","name":"Baden-Württemberg"}},{"name":"Keltergasse","postalCode":"71665","locality":"Vaihingen an der Enz","municipality":{"key":"08118073","name":"Vaihingen an der Enz, Stadt","type":"Große_Kreisstadt"},"district":{"key":"08118","name":"Ludwigsburg","type":"Landkreis"},"federalState":{"key":"08","name":"Baden-Württemberg"}},{"name":"Kelterplatz","postalCode":"71665","locality":"Vaihingen an der Enz","municipality":{"key":"08118073","name":"Vaihingen an der Enz, Stadt","type":"Große_Kreisstadt"},"district":{"key":"08118","name":"Ludwigsburg","type":"Landkreis"},"federalState":{"key":"08","name":"Baden-Württemberg"}},{"name":"Keplerstr.","postalCode":"71665","locality":"Vaihingen an der Enz","municipality":{"key":"08118073","name":"Vaihingen an der Enz, Stadt","type":"Große_Kreisstadt"},"district":{"key":"08118","name":"Ludwigsburg","type":"Landkreis"},"federalState":{"key":"08","name":"Baden-Württemberg"}},{"name":"Kernerstr.","postalCode":"71665","locality":"Vaihingen an der Enz","municipality":{"key":"08118073","name":"Vaihingen an der Enz, Stadt","type":"Große_Kreisstadt"},"district":{"key":"08118","name":"Ludwigsburg","type":"Landkreis"},"federalState":{"key":"08","name":"Baden-Württemberg"}},{"name":"Kiefernweg","postalCode":"71665","locality":"Vaihingen an der Enz","municipality":{"key":"08118073","name":"Vaihingen an der Enz, Stadt","type":"Große_Kreisstadt"},"district":{"key":"08118","name":"Ludwigsburg","type":"Landkreis"},"federalState":{"key":"08","name":"Baden-Württemberg"}},{"name":"Kindergartenweg","postalCode":"71665","locality":"Vaihingen an der Enz","municipality":{"key":"08118073","name":"Vaihingen an der Enz, Stadt","type":"Große_Kreisstadt"},"district":{"key":"08118","name":"Ludwigsburg","type":"Landkreis"},"federalState":{"key":"08","name":"Baden-Württemberg"}},{"name":"Kirchfeldweg","postalCode":"71665","locality":"Vaihingen an der Enz","municipality":{"key":"08118073","name":"Vaihingen an der Enz, Stadt","type":"Große_Kreisstadt"},"district":{"key":"08118","name":"Ludwigsburg","type":"Landkreis"},"federalState":{"key":"08","name":"Baden-Württemberg"}},{"name":"Kirchplatz","postalCode":"71665","locality":"Vaihingen an der Enz","municipality":{"key":"08118073","name":"Vaihingen an der Enz, Stadt","type":"Große_Kreisstadt"},"district":{"key":"08118","name":"Ludwigsburg","type":"Landkreis"},"federalState":{"key":"08","name":"Baden-Württemberg"}},{"name":"Kirchstr.","postalCode":"71665","locality":"Vaihingen an der Enz","municipality":{"key":"08118073","name":"Vaihingen an der Enz, Stadt","type":"Große_Kreisstadt"},"district":{"key":"08118","name":"Ludwigsburg","type":"Landkreis"},"federalState":{"key":"08","name":"Baden-Württemberg"}},{"name":"Kirschweg","postalCode":"71665","locality":"Vaihingen an der Enz","municipality":{"key":"08118073","name":"Vaihingen an der Enz, Stadt","type":"Große_Kreisstadt"},"district":{"key":"08118","name":"Ludwigsburg","type":"Landkreis"},"federalState":{"key":"08","name":"Baden-Württemberg"}},{"name":"Klaiberstr.","postalCode":"71665","locality":"Vaihingen an der Enz","municipality":{"key":"08118073","name":"Vaihingen an der Enz, Stadt","type":"Große_Kreisstadt"},"district":{"key":"08118","name":"Ludwigsburg","type":"Landkreis"},"federalState":{"key":"08","name":"Baden-Württemberg"}},{"name":"Kleinglattbacher Str.","postalCode":"71665","locality":"Vaihingen an der Enz","municipality":{"key":"08118073","name":"Vaihingen an der Enz, Stadt","type":"Große_Kreisstadt"},"district":{"key":"08118","name":"Ludwigsburg","type":"Landkreis"},"federalState":{"key":"08","name":"Baden-Württemberg"}},{"name":"Kleiststr.","postalCode":"71665","locality":"Vaihingen an der Enz","municipality":{"key":"08118073","name":"Vaihingen an der Enz, Stadt","type":"Große_Kreisstadt"},"district":{"key":"08118","name":"Ludwigsburg","type":"Landkreis"},"federalState":{"key":"08","name":"Baden-Württemberg"}},{"name":"Klepperschelle","postalCode":"71665","locality":"Vaihingen an der Enz","municipality":{"key":"08118073","name":"Vaihingen an der Enz, Stadt","type":"Große_Kreisstadt"},"district":{"key":"08118","name":"Ludwigsburg","type":"Landkreis"},"federalState":{"key":"08","name":"Baden-Württemberg"}},{"name":"Klosterbergstr.","postalCode":"71665","locality":"Vaihingen an der Enz","municipality":{"key":"08118073","name":"Vaihingen an der Enz, Stadt","type":"Große_Kreisstadt"},"district":{"key":"08118","name":"Ludwigsburg","type":"Landkreis"},"federalState":{"key":"08","name":"Baden-Württemberg"}},{"name":"Klöstitzer Weg","postalCode":"71665","locality":"Vaihingen an der Enz","municipality":{"key":"08118073","name":"Vaihingen an der Enz, Stadt","type":"Große_Kreisstadt"},"district":{"key":"08118","name":"Ludwigsburg","type":"Landkreis"},"federalState":{"key":"08","name":"Baden-Württemberg"}},{"name":"Knieselweg","postalCode":"71665","locality":"Vaihingen an der Enz","municipality":{"key":"08118073","name":"Vaihingen an der Enz, Stadt","type":"Große_Kreisstadt"},"district":{"key":"08118","name":"Ludwigsburg","type":"Landkreis"},"federalState":{"key":"08","name":"Baden-Württemberg"}},{"name":"Kolberger Str.","postalCode":"71665","locality":"Vaihingen an der Enz","municipality":{"key":"08118073","name":"Vaihingen an der Enz, Stadt","type":"Große_Kreisstadt"},"district":{"key":"08118","name":"Ludwigsburg","type":"Landkreis"},"federalState":{"key":"08","name":"Baden-Württemberg"}},{"name":"Kolosserweg","postalCode":"71665","locality":"Vaihingen an der Enz","municipality":{"key":"08118073","name":"Vaihingen an der Enz, Stadt","type":"Große_Kreisstadt"},"district":{"key":"08118","name":"Ludwigsburg","type":"Landkreis"},"federalState":{"key":"08","name":"Baden-Württemberg"}},{"name":"Königsberger Str.","postalCode":"71665","locality":"Vaihingen an der Enz","municipality":{"key":"08118073","name":"Vaihingen an der Enz, Stadt","type":"Große_Kreisstadt"},"district":{"key":"08118","name":"Ludwigsburg","type":"Landkreis"},"federalState":{"key":"08","name":"Baden-Württemberg"}},{"name":"Kopernikusstr.","postalCode":"71665","locality":"Vaihingen an der Enz","municipality":{"key":"08118073","name":"Vaihingen an der Enz, Stadt","type":"Große_Kreisstadt"},"district":{"key":"08118","name":"Ludwigsburg","type":"Landkreis"},"federalState":{"key":"08","name":"Baden-Württemberg"}},{"name":"Köpflesweg","postalCode":"71665","locality":"Vaihingen an der Enz","municipality":{"key":"08118073","name":"Vaihingen an der Enz, Stadt","type":"Große_Kreisstadt"},"district":{"key":"08118","name":"Ludwigsburg","type":"Landkreis"},"federalState":{"key":"08","name":"Baden-Württemberg"}},{"name":"Köpfwiesenweg","postalCode":"71665","locality":"Vaihingen an der Enz","municipality":{"key":"08118073","name":"Vaihingen an der Enz, Stadt","type":"Große_Kreisstadt"},"district":{"key":"08118","name":"Ludwigsburg","type":"Landkreis"},"federalState":{"key":"08","name":"Baden-Württemberg"}},{"name":"Koppstr.","postalCode":"71665","locality":"Vaihingen an der Enz","municipality":{"key":"08118073","name":"Vaihingen an der Enz, Stadt","type":"Große_Kreisstadt"},"district":{"key":"08118","name":"Ludwigsburg","type":"Landkreis"},"federalState":{"key":"08","name":"Baden-Württemberg"}},{"name":"Kornblumenweg","postalCode":"71665","locality":"Vaihingen an der Enz","municipality":{"key":"08118073","name":"Vaihingen an der Enz, Stadt","type":"Große_Kreisstadt"},"district":{"key":"08118","name":"Ludwigsburg","type":"Landkreis"},"federalState":{"key":"08","name":"Baden-Württemberg"}},{"name":"Köszeger Str.","postalCode":"71665","locality":"Vaihingen an der Enz","municipality":{"key":"08118073","name":"Vaihingen an der Enz, Stadt","type":"Große_Kreisstadt"},"district":{"key":"08118","name":"Ludwigsburg","type":"Landkreis"},"federalState":{"key":"08","name":"Baden-Württemberg"}},{"name":"Krautgartenweg","postalCode":"71665","locality":"Vaihingen an der Enz","municipality":{"key":"08118073","name":"Vaihingen an der Enz, Stadt","type":"Große_Kreisstadt"},"district":{"key":"08118","name":"Ludwigsburg","type":"Landkreis"},"federalState":{"key":"08","name":"Baden-Württemberg"}},{"name":"Kreuzweg","postalCode":"71665","locality":"Vaihingen an der Enz","municipality":{"key":"08118073","name":"Vaihingen an der Enz, Stadt","type":"Große_Kreisstadt"},"district":{"key":"08118","name":"Ludwigsburg","type":"Landkreis"},"federalState":{"key":"08","name":"Baden-Württemberg"}},{"name":"Krümmlingstr.","postalCode":"71665","locality":"Vaihingen an der Enz","municipality":{"key":"08118073","name":"Vaihingen an der Enz, Stadt","type":"Große_Kreisstadt"},"district":{"key":"08118","name":"Ludwigsburg","type":"Landkreis"},"federalState":{"key":"08","name":"Baden-Württemberg"}},{"name":"Kurt-Schumacher-Str.","postalCode":"71665","locality":"Vaihingen an der Enz","municipality":{"key":"08118073","name":"Vaihingen an der Enz, Stadt","type":"Große_Kreisstadt"},"district":{"key":"08118","name":"Ludwigsburg","type":"Landkreis"},"federalState":{"key":"08","name":"Baden-Württemberg"}},{"name":"Laihleweg","postalCode":"71665","locality":"Vaihingen an der Enz","municipality":{"key":"08118073","name":"Vaihingen an der Enz, Stadt","type":"Große_Kreisstadt"},"district":{"key":"08118","name":"Ludwigsburg","type":"Landkreis"},"federalState":{"key":"08","name":"Baden-Württemberg"}},{"name":"Ländelstr.","postalCode":"71665","locality":"Vaihingen an der Enz","municipality":{"key":"08118073","name":"Vaihingen an der Enz, Stadt","type":"Große_Kreisstadt"},"district":{"key":"08118","name":"Ludwigsburg","type":"Landkreis"},"federalState":{"key":"08","name":"Baden-Württemberg"}},{"name":"Langenbergstr.","postalCode":"71665","locality":"Vaihingen an der Enz","municipality":{"key":"08118073","name":"Vaihingen an der Enz, Stadt","type":"Große_Kreisstadt"},"district":{"key":"08118","name":"Ludwigsburg","type":"Landkreis"},"federalState":{"key":"08","name":"Baden-Württemberg"}},{"name":"Lärchenweg","postalCode":"71665","locality":"Vaihingen an der Enz","municipality":{"key":"08118073","name":"Vaihingen an der Enz, Stadt","type":"Große_Kreisstadt"},"district":{"key":"08118","name":"Ludwigsburg","type":"Landkreis"},"federalState":{"key":"08","name":"Baden-Württemberg"}},{"name":"Lateinschulgasse","postalCode":"71665","locality":"Vaihingen an der Enz","municipality":{"key":"08118073","name":"Vaihingen an der Enz, Stadt","type":"Große_Kreisstadt"},"district":{"key":"08118","name":"Ludwigsburg","type":"Landkreis"},"federalState":{"key":"08","name":"Baden-Württemberg"}},{"name":"Laubsteigle","postalCode":"71665","locality":"Vaihingen an der Enz","municipality":{"key":"08118073","name":"Vaihingen an der Enz, Stadt","type":"Große_Kreisstadt"},"district":{"key":"08118","name":"Ludwigsburg","type":"Landkreis"},"federalState":{"key":"08","name":"Baden-Württemberg"}},{"name":"Lauerplanieweg","postalCode":"71665","locality":"Vaihingen an der Enz","municipality":{"key":"08118073","name":"Vaihingen an der Enz, Stadt","type":"Große_Kreisstadt"},"district":{"key":"08118","name":"Ludwigsburg","type":"Landkreis"},"federalState":{"key":"08","name":"Baden-Württemberg"}},{"name":"Lavendelweg","postalCode":"71665","locality":"Vaihingen an der Enz","municipality":{"key":"08118073","name":"Vaihingen an der Enz, Stadt","type":"Große_Kreisstadt"},"district":{"key":"08118","name":"Ludwigsburg","type":"Landkreis"},"federalState":{"key":"08","name":"Baden-Württemberg"}},{"name":"Lehmenstr.","postalCode":"71665","locality":"Vaihingen an der Enz","municipality":{"key":"08118073","name":"Vaihingen an der Enz, Stadt","type":"Große_Kreisstadt"},"district":{"key":"08118","name":"Ludwigsburg","type":"Landkreis"},"federalState":{"key":"08","name":"Baden-Württemberg"}},{"name":"Leimfabrikstr.","postalCode":"71665","locality":"Vaihingen an der Enz","municipality":{"key":"08118073","name":"Vaihingen an der Enz, Stadt","type":"Große_Kreisstadt"},"district":{"key":"08118","name":"Ludwigsburg","type":"Landkreis"},"federalState":{"key":"08","name":"Baden-Württemberg"}},{"name":"Leinfelder Str.","postalCode":"71665","locality":"Vaihingen an der Enz","municipality":{"key":"08118073","name":"Vaihingen an der Enz, Stadt","type":"Große_Kreisstadt"},"district":{"key":"08118","name":"Ludwigsburg","type":"Landkreis"},"federalState":{"key":"08","name":"Baden-Württemberg"}},{"name":"Lenaustr.","postalCode":"71665","locality":"Vaihingen an der Enz","municipality":{"key":"08118073","name":"Vaihingen an der Enz, Stadt","type":"Große_Kreisstadt"},"district":{"key":"08118","name":"Ludwigsburg","type":"Landkreis"},"federalState":{"key":"08","name":"Baden-Württemberg"}},{"name":"Lerchenbergstr.","postalCode":"71665","locality":"Vaihingen an der Enz","municipality":{"key":"08118073","name":"Vaihingen an der Enz, Stadt","type":"Große_Kreisstadt"},"district":{"key":"08118","name":"Ludwigsburg","type":"Landkreis"},"federalState":{"key":"08","name":"Baden-Württemberg"}},{"name":"Lessingstr.","postalCode":"71665","locality":"Vaihingen an der Enz","municipality":{"key":"08118073","name":"Vaihingen an der Enz, Stadt","type":"Große_Kreisstadt"},"district":{"key":"08118","name":"Ludwigsburg","type":"Landkreis"},"federalState":{"key":"08","name":"Baden-Württemberg"}},{"name":"Lichtenklingenweg","postalCode":"71665","locality":"Vaihingen an der Enz","municipality":{"key":"08118073","name":"Vaihingen an der Enz, Stadt","type":"Große_Kreisstadt"},"district":{"key":"08118","name":"Ludwigsburg","type":"Landkreis"},"federalState":{"key":"08","name":"Baden-Württemberg"}},{"name":"Lichtenplanie","postalCode":"71665","locality":"Vaihingen an der Enz","municipality":{"key":"08118073","name":"Vaihingen an der Enz, Stadt","type":"Große_Kreisstadt"},"district":{"key":"08118","name":"Ludwigsburg","type":"Landkreis"},"federalState":{"key":"08","name":"Baden-Württemberg"}},{"name":"Lichtenplanieweg","postalCode":"71665","locality":"Vaihingen an der Enz","municipality":{"key":"08118073","name":"Vaihingen an der Enz, Stadt","type":"Große_Kreisstadt"},"district":{"key":"08118","name":"Ludwigsburg","type":"Landkreis"},"federalState":{"key":"08","name":"Baden-Württemberg"}},{"name":"Lilienstr.","postalCode":"71665","locality":"Vaihingen an der Enz","municipality":{"key":"08118073","name":"Vaihingen an der Enz, Stadt","type":"Große_Kreisstadt"},"district":{"key":"08118","name":"Ludwigsburg","type":"Landkreis"},"federalState":{"key":"08","name":"Baden-Württemberg"}},{"name":"Lilo-Herrmann-Ring","postalCode":"71665","locality":"Vaihingen an der Enz","municipality":{"key":"08118073","name":"Vaihingen an der Enz, Stadt","type":"Große_Kreisstadt"},"district":{"key":"08118","name":"Ludwigsburg","type":"Landkreis"},"federalState":{"key":"08","name":"Baden-Württemberg"}},{"name":"Lindenallee","postalCode":"71665","locality":"Vaihingen an der Enz","municipality":{"key":"08118073","name":"Vaihingen an der Enz, Stadt","type":"Große_Kreisstadt"},"district":{"key":"08118","name":"Ludwigsburg","type":"Landkreis"},"federalState":{"key":"08","name":"Baden-Württemberg"}},{"name":"Lindenstr.","postalCode":"71665","locality":"Vaihingen an der Enz","municipality":{"key":"08118073","name":"Vaihingen an der Enz, Stadt","type":"Große_Kreisstadt"},"district":{"key":"08118","name":"Ludwigsburg","type":"Landkreis"},"federalState":{"key":"08","name":"Baden-Württemberg"}},{"name":"Löbertstr.","postalCode":"71665","locality":"Vaihingen an der Enz","municipality":{"key":"08118073","name":"Vaihingen an der Enz, Stadt","type":"Große_Kreisstadt"},"district":{"key":"08118","name":"Ludwigsburg","type":"Landkreis"},"federalState":{"key":"08","name":"Baden-Württemberg"}},{"name":"Lorenzenstr.","postalCode":"71665","locality":"Vaihingen an der Enz","municipality":{"key":"08118073","name":"Vaihingen an der Enz, Stadt","type":"Große_Kreisstadt"},"district":{"key":"08118","name":"Ludwigsburg","type":"Landkreis"},"federalState":{"key":"08","name":"Baden-Württemberg"}},{"name":"Ludwig-Richter-Str.","postalCode":"71665","locality":"Vaihingen an der Enz","municipality":{"key":"08118073","name":"Vaihingen an der Enz, Stadt","type":"Große_Kreisstadt"},"district":{"key":"08118","name":"Ludwigsburg","type":"Landkreis"},"federalState":{"key":"08","name":"Baden-Württemberg"}},{"name":"Ludwigsburger Str.","postalCode":"71665","locality":"Vaihingen an der Enz","municipality":{"key":"08118073","name":"Vaihingen an der Enz, Stadt","type":"Große_Kreisstadt"},"district":{"key":"08118","name":"Ludwigsburg","type":"Landkreis"},"federalState":{"key":"08","name":"Baden-Württemberg"}},{"name":"Lugstr.","postalCode":"71665","locality":"Vaihingen an der Enz","municipality":{"key":"08118073","name":"Vaihingen an der Enz, Stadt","type":"Große_Kreisstadt"},"district":{"key":"08118","name":"Ludwigsburg","type":"Landkreis"},"federalState":{"key":"08","name":"Baden-Württemberg"}},{"name":"Lupinenweg","postalCode":"71665","locality":"Vaihingen an der Enz","municipality":{"key":"08118073","name":"Vaihingen an der Enz, Stadt","type":"Große_Kreisstadt"},"district":{"key":"08118","name":"Ludwigsburg","type":"Landkreis"},"federalState":{"key":"08","name":"Baden-Württemberg"}},{"name":"Machtolfstr.","postalCode":"71665","locality":"Vaihingen an der Enz","municipality":{"key":"08118073","name":"Vaihingen an der Enz, Stadt","type":"Große_Kreisstadt"},"district":{"key":"08118","name":"Ludwigsburg","type":"Landkreis"},"federalState":{"key":"08","name":"Baden-Württemberg"}},{"name":"Mahlmühlenweg","postalCode":"71665","locality":"Vaihingen an der Enz","municipality":{"key":"08118073","name":"Vaihingen an der Enz, Stadt","type":"Große_Kreisstadt"},"district":{"key":"08118","name":"Ludwigsburg","type":"Landkreis"},"federalState":{"key":"08","name":"Baden-Württemberg"}},{"name":"Maientagsrondell","postalCode":"71665","locality":"Vaihingen an der Enz","municipality":{"key":"08118073","name":"Vaihingen an der Enz, Stadt","type":"Große_Kreisstadt"},"district":{"key":"08118","name":"Ludwigsburg","type":"Landkreis"},"federalState":{"key":"08","name":"Baden-Württemberg"}},{"name":"Manfred-Behr-Str.","postalCode":"71665","locality":"Vaihingen an der Enz","municipality":{"key":"08118073","name":"Vaihingen an der Enz, Stadt","type":"Große_Kreisstadt"},"district":{"key":"08118","name":"Ludwigsburg","type":"Landkreis"},"federalState":{"key":"08","name":"Baden-Württemberg"}},{"name":"Mangoldstr.","postalCode":"71665","locality":"Vaihingen an der Enz","municipality":{"key":"08118073","name":"Vaihingen an der Enz, Stadt","type":"Große_Kreisstadt"},"district":{"key":"08118","name":"Ludwigsburg","type":"Landkreis"},"federalState":{"key":"08","name":"Baden-Württemberg"}},{"name":"Margeritenweg","postalCode":"71665","locality":"Vaihingen an der Enz","municipality":{"key":"08118073","name":"Vaihingen an der Enz, Stadt","type":"Große_Kreisstadt"},"district":{"key":"08118","name":"Ludwigsburg","type":"Landkreis"},"federalState":{"key":"08","name":"Baden-Württemberg"}},{"name":"Marienburger Str.","postalCode":"71665","locality":"Vaihingen an der Enz","municipality":{"key":"08118073","name":"Vaihingen an der Enz, Stadt","type":"Große_Kreisstadt"},"district":{"key":"08118","name":"Ludwigsburg","type":"Landkreis"},"federalState":{"key":"08","name":"Baden-Württemberg"}},{"name":"Maronenweg","postalCode":"71665","locality":"Vaihingen an der Enz","municipality":{"key":"08118073","name":"Vaihingen an der Enz, Stadt","type":"Große_Kreisstadt"},"district":{"key":"08118","name":"Ludwigsburg","type":"Landkreis"},"federalState":{"key":"08","name":"Baden-Württemberg"}},{"name":"Maulbeerweg","postalCode":"71665","locality":"Vaihingen an der Enz","municipality":{"key":"08118073","name":"Vaihingen an der Enz, Stadt","type":"Große_Kreisstadt"},"district":{"key":"08118","name":"Ludwigsburg","type":"Landkreis"},"federalState":{"key":"08","name":"Baden-Württemberg"}},{"name":"Meisenweg","postalCode":"71665","locality":"Vaihingen an der Enz","municipality":{"key":"08118073","name":"Vaihingen an der Enz, Stadt","type":"Große_Kreisstadt"},"district":{"key":"08118","name":"Ludwigsburg","type":"Landkreis"},"federalState":{"key":"08","name":"Baden-Württemberg"}},{"name":"Mendelstr.","postalCode":"71665","locality":"Vaihingen an der Enz","municipality":{"key":"08118073","name":"Vaihingen an der Enz, Stadt","type":"Große_Kreisstadt"},"district":{"key":"08118","name":"Ludwigsburg","type":"Landkreis"},"federalState":{"key":"08","name":"Baden-Württemberg"}},{"name":"Mergenthalerstr.","postalCode":"71665","locality":"Vaihingen an der Enz","municipality":{"key":"08118073","name":"Vaihingen an der Enz, Stadt","type":"Große_Kreisstadt"},"district":{"key":"08118","name":"Ludwigsburg","type":"Landkreis"},"federalState":{"key":"08","name":"Baden-Württemberg"}},{"name":"Merkurweg","postalCode":"71665","locality":"Vaihingen an der Enz","municipality":{"key":"08118073","name":"Vaihingen an der Enz, Stadt","type":"Große_Kreisstadt"},"district":{"key":"08118","name":"Ludwigsburg","type":"Landkreis"},"federalState":{"key":"08","name":"Baden-Württemberg"}},{"name":"Metterstr.","postalCode":"71665","locality":"Vaihingen an der Enz","municipality":{"key":"08118073","name":"Vaihingen an der Enz, Stadt","type":"Große_Kreisstadt"},"district":{"key":"08118","name":"Ludwigsburg","type":"Landkreis"},"federalState":{"key":"08","name":"Baden-Württemberg"}},{"name":"Mittlere Gasse","postalCode":"71665","locality":"Vaihingen an der Enz","municipality":{"key":"08118073","name":"Vaihingen an der Enz, Stadt","type":"Große_Kreisstadt"},"district":{"key":"08118","name":"Ludwigsburg","type":"Landkreis"},"federalState":{"key":"08","name":"Baden-Württemberg"}},{"name":"Mittlerer Höhenweg","postalCode":"71665","locality":"Vaihingen an der Enz","municipality":{"key":"08118073","name":"Vaihingen an der Enz, Stadt","type":"Große_Kreisstadt"},"district":{"key":"08118","name":"Ludwigsburg","type":"Landkreis"},"federalState":{"key":"08","name":"Baden-Württemberg"}},{"name":"Mohnweg","postalCode":"71665","locality":"Vaihingen an der Enz","municipality":{"key":"08118073","name":"Vaihingen an der Enz, Stadt","type":"Große_Kreisstadt"},"district":{"key":"08118","name":"Ludwigsburg","type":"Landkreis"},"federalState":{"key":"08","name":"Baden-Württemberg"}},{"name":"Mönchbergstr.","postalCode":"71665","locality":"Vaihingen an der Enz","municipality":{"key":"08118073","name":"Vaihingen an der Enz, Stadt","type":"Große_Kreisstadt"},"district":{"key":"08118","name":"Ludwigsburg","type":"Landkreis"},"federalState":{"key":"08","name":"Baden-Württemberg"}},{"name":"Mörikestr.","postalCode":"71665","locality":"Vaihingen an der Enz","municipality":{"key":"08118073","name":"Vaihingen an der Enz, Stadt","type":"Große_Kreisstadt"},"district":{"key":"08118","name":"Ludwigsburg","type":"Landkreis"},"federalState":{"key":"08","name":"Baden-Württemberg"}},{"name":"Mozartstr.","postalCode":"71665","locality":"Vaihingen an der Enz","municipality":{"key":"08118073","name":"Vaihingen an der Enz, Stadt","type":"Große_Kreisstadt"},"district":{"key":"08118","name":"Ludwigsburg","type":"Landkreis"},"federalState":{"key":"08","name":"Baden-Württemberg"}},{"name":"Mühlhäuser Str.","postalCode":"71665","locality":"Vaihingen an der Enz","municipality":{"key":"08118073","name":"Vaihingen an der Enz, Stadt","type":"Große_Kreisstadt"},"district":{"key":"08118","name":"Ludwigsburg","type":"Landkreis"},"federalState":{"key":"08","name":"Baden-Württemberg"}},{"name":"Mühlstr.","postalCode":"71665","locality":"Vaihingen an der Enz","municipality":{"key":"08118073","name":"Vaihingen an der Enz, Stadt","type":"Große_Kreisstadt"},"district":{"key":"08118","name":"Ludwigsburg","type":"Landkreis"},"federalState":{"key":"08","name":"Baden-Württemberg"}},{"name":"Mühltorstr.","postalCode":"71665","locality":"Vaihingen an der Enz","municipality":{"key":"08118073","name":"Vaihingen an der Enz, Stadt","type":"Große_Kreisstadt"},"district":{"key":"08118","name":"Ludwigsburg","type":"Landkreis"},"federalState":{"key":"08","name":"Baden-Württemberg"}},{"name":"Mühlweg","postalCode":"71665","locality":"Vaihingen an der Enz","municipality":{"key":"08118073","name":"Vaihingen an der Enz, Stadt","type":"Große_Kreisstadt"},"district":{"key":"08118","name":"Ludwigsburg","type":"Landkreis"},"federalState":{"key":"08","name":"Baden-Württemberg"}},{"name":"Mühlwiesenweg","postalCode":"71665","locality":"Vaihingen an der Enz","municipality":{"key":"08118073","name":"Vaihingen an der Enz, Stadt","type":"Große_Kreisstadt"},"district":{"key":"08118","name":"Ludwigsburg","type":"Landkreis"},"federalState":{"key":"08","name":"Baden-Württemberg"}},{"name":"Muskatellerstr.","postalCode":"71665","locality":"Vaihingen an der Enz","municipality":{"key":"08118073","name":"Vaihingen an der Enz, Stadt","type":"Große_Kreisstadt"},"district":{"key":"08118","name":"Ludwigsburg","type":"Landkreis"},"federalState":{"key":"08","name":"Baden-Württemberg"}},{"name":"Nachtigallstal","postalCode":"71665","locality":"Vaihingen an der Enz","municipality":{"key":"08118073","name":"Vaihingen an der Enz, Stadt","type":"Große_Kreisstadt"},"district":{"key":"08118","name":"Ludwigsburg","type":"Landkreis"},"federalState":{"key":"08","name":"Baden-Württemberg"}},{"name":"Narzissenweg","postalCode":"71665","locality":"Vaihingen an der Enz","municipality":{"key":"08118073","name":"Vaihingen an der Enz, Stadt","type":"Große_Kreisstadt"},"district":{"key":"08118","name":"Ludwigsburg","type":"Landkreis"},"federalState":{"key":"08","name":"Baden-Württemberg"}},{"name":"Nebensteigle","postalCode":"71665","locality":"Vaihingen an der Enz","municipality":{"key":"08118073","name":"Vaihingen an der Enz, Stadt","type":"Große_Kreisstadt"},"district":{"key":"08118","name":"Ludwigsburg","type":"Landkreis"},"federalState":{"key":"08","name":"Baden-Württemberg"}},{"name":"Nelkenweg","postalCode":"71665","locality":"Vaihingen an der Enz","municipality":{"key":"08118073","name":"Vaihingen an der Enz, Stadt","type":"Große_Kreisstadt"},"district":{"key":"08118","name":"Ludwigsburg","type":"Landkreis"},"federalState":{"key":"08","name":"Baden-Württemberg"}},{"name":"Neue Bahnhofstr.","postalCode":"71665","locality":"Vaihingen an der Enz","municipality":{"key":"08118073","name":"Vaihingen an der Enz, Stadt","type":"Große_Kreisstadt"},"district":{"key":"08118","name":"Ludwigsburg","type":"Landkreis"},"federalState":{"key":"08","name":"Baden-Württemberg"}},{"name":"Neue Schulstr.","postalCode":"71665","locality":"Vaihingen an der Enz","municipality":{"key":"08118073","name":"Vaihingen an der Enz, Stadt","type":"Große_Kreisstadt"},"district":{"key":"08118","name":"Ludwigsburg","type":"Landkreis"},"federalState":{"key":"08","name":"Baden-Württemberg"}},{"name":"Nussbaumweg","postalCode":"71665","locality":"Vaihingen an der Enz","municipality":{"key":"08118073","name":"Vaihingen an der Enz, Stadt","type":"Große_Kreisstadt"},"district":{"key":"08118","name":"Ludwigsburg","type":"Landkreis"},"federalState":{"key":"08","name":"Baden-Württemberg"}},{"name":"Nussdorfer Str.","postalCode":"71665","locality":"Vaihingen an der Enz","municipality":{"key":"08118073","name":"Vaihingen an der Enz, Stadt","type":"Große_Kreisstadt"},"district":{"key":"08118","name":"Ludwigsburg","type":"Landkreis"},"federalState":{"key":"08","name":"Baden-Württemberg"}},{"name":"Ob der Linde","postalCode":"71665","locality":"Vaihingen an der Enz","municipality":{"key":"08118073","name":"Vaihingen an der Enz, Stadt","type":"Große_Kreisstadt"},"district":{"key":"08118","name":"Ludwigsburg","type":"Landkreis"},"federalState":{"key":"08","name":"Baden-Württemberg"}},{"name":"Oberamteigasse","postalCode":"71665","locality":"Vaihingen an der Enz","municipality":{"key":"08118073","name":"Vaihingen an der Enz, Stadt","type":"Große_Kreisstadt"},"district":{"key":"08118","name":"Ludwigsburg","type":"Landkreis"},"federalState":{"key":"08","name":"Baden-Württemberg"}},{"name":"Obere Gasse","postalCode":"71665","locality":"Vaihingen an der Enz","municipality":{"key":"08118073","name":"Vaihingen an der Enz, Stadt","type":"Große_Kreisstadt"},"district":{"key":"08118","name":"Ludwigsburg","type":"Landkreis"},"federalState":{"key":"08","name":"Baden-Württemberg"}},{"name":"Obere Kirchgasse","postalCode":"71665","locality":"Vaihingen an der Enz","municipality":{"key":"08118073","name":"Vaihingen an der Enz, Stadt","type":"Große_Kreisstadt"},"district":{"key":"08118","name":"Ludwigsburg","type":"Landkreis"},"federalState":{"key":"08","name":"Baden-Württemberg"}},{"name":"Oberer Junghölzlesweg","postalCode":"71665","locality":"Vaihingen an der Enz","municipality":{"key":"08118073","name":"Vaihingen an der Enz, Stadt","type":"Große_Kreisstadt"},"district":{"key":"08118","name":"Ludwigsburg","type":"Landkreis"},"federalState":{"key":"08","name":"Baden-Württemberg"}},{"name":"Oberer Lehen","postalCode":"71665","locality":"Vaihingen an der Enz","municipality":{"key":"08118073","name":"Vaihingen an der Enz, Stadt","type":"Große_Kreisstadt"},"district":{"key":"08118","name":"Ludwigsburg","type":"Landkreis"},"federalState":{"key":"08","name":"Baden-Württemberg"}},{"name":"Oberer Linsenberg","postalCode":"71665","locality":"Vaihingen an der Enz","municipality":{"key":"08118073","name":"Vaihingen an der Enz, Stadt","type":"Große_Kreisstadt"},"district":{"key":"08118","name":"Ludwigsburg","type":"Landkreis"},"federalState":{"key":"08","name":"Baden-Württemberg"}},{"name":"Oberriexinger Weg","postalCode":"71665","locality":"Vaihingen an der Enz","municipality":{"key":"08118073","name":"Vaihingen an der Enz, Stadt","type":"Große_Kreisstadt"},"district":{"key":"08118","name":"Ludwigsburg","type":"Landkreis"},"federalState":{"key":"08","name":"Baden-Württemberg"}},{"name":"Orchideenweg","postalCode":"71665","locality":"Vaihingen an der Enz","municipality":{"key":"08118073","name":"Vaihingen an der Enz, Stadt","type":"Große_Kreisstadt"},"district":{"key":"08118","name":"Ludwigsburg","type":"Landkreis"},"federalState":{"key":"08","name":"Baden-Württemberg"}},{"name":"Osterwiesenweg","postalCode":"71665","locality":"Vaihingen an der Enz","municipality":{"key":"08118073","name":"Vaihingen an der Enz, Stadt","type":"Große_Kreisstadt"},"district":{"key":"08118","name":"Ludwigsburg","type":"Landkreis"},"federalState":{"key":"08","name":"Baden-Württemberg"}},{"name":"Otternweg","postalCode":"71665","locality":"Vaihingen an der Enz","municipality":{"key":"08118073","name":"Vaihingen an der Enz, Stadt","type":"Große_Kreisstadt"},"district":{"key":"08118","name":"Ludwigsburg","type":"Landkreis"},"federalState":{"key":"08","name":"Baden-Württemberg"}},{"name":"Panoramastr.","postalCode":"71665","locality":"Vaihingen an der Enz","municipality":{"key":"08118073","name":"Vaihingen an der Enz, Stadt","type":"Große_Kreisstadt"},"district":{"key":"08118","name":"Ludwigsburg","type":"Landkreis"},"federalState":{"key":"08","name":"Baden-Württemberg"}},{"name":"Papierfabrikstr.","postalCode":"71665","locality":"Vaihingen an der Enz","municipality":{"key":"08118073","name":"Vaihingen an der Enz, Stadt","type":"Große_Kreisstadt"},"district":{"key":"08118","name":"Ludwigsburg","type":"Landkreis"},"federalState":{"key":"08","name":"Baden-Württemberg"}},{"name":"Pappelweg","postalCode":"71665","locality":"Vaihingen an der Enz","municipality":{"key":"08118073","name":"Vaihingen an der Enz, Stadt","type":"Große_Kreisstadt"},"district":{"key":"08118","name":"Ludwigsburg","type":"Landkreis"},"federalState":{"key":"08","name":"Baden-Württemberg"}},{"name":"Paracelsusstr.","postalCode":"71665","locality":"Vaihingen an der Enz","municipality":{"key":"08118073","name":"Vaihingen an der Enz, Stadt","type":"Große_Kreisstadt"},"district":{"key":"08118","name":"Ludwigsburg","type":"Landkreis"},"federalState":{"key":"08","name":"Baden-Württemberg"}},{"name":"Pestalozzistr.","postalCode":"71665","locality":"Vaihingen an der Enz","municipality":{"key":"08118073","name":"Vaihingen an der Enz, Stadt","type":"Große_Kreisstadt"},"district":{"key":"08118","name":"Ludwigsburg","type":"Landkreis"},"federalState":{"key":"08","name":"Baden-Württemberg"}},{"name":"Pflanzschulweg","postalCode":"71665","locality":"Vaihingen an der Enz","municipality":{"key":"08118073","name":"Vaihingen an der Enz, Stadt","type":"Große_Kreisstadt"},"district":{"key":"08118","name":"Ludwigsburg","type":"Landkreis"},"federalState":{"key":"08","name":"Baden-Württemberg"}},{"name":"Pforzheimer Str.","postalCode":"71665","locality":"Vaihingen an der Enz","municipality":{"key":"08118073","name":"Vaihingen an der Enz, Stadt","type":"Große_Kreisstadt"},"district":{"key":"08118","name":"Ludwigsburg","type":"Landkreis"},"federalState":{"key":"08","name":"Baden-Württemberg"}},{"name":"Philosophenweg","postalCode":"71665","locality":"Vaihingen an der Enz","municipality":{"key":"08118073","name":"Vaihingen an der Enz, Stadt","type":"Große_Kreisstadt"},"district":{"key":"08118","name":"Ludwigsburg","type":"Landkreis"},"federalState":{"key":"08","name":"Baden-Württemberg"}},{"name":"Planckstr.","postalCode":"71665","locality":"Vaihingen an der Enz","municipality":{"key":"08118073","name":"Vaihingen an der Enz, Stadt","type":"Große_Kreisstadt"},"district":{"key":"08118","name":"Ludwigsburg","type":"Landkreis"},"federalState":{"key":"08","name":"Baden-Württemberg"}},{"name":"Platanenstr.","postalCode":"71665","locality":"Vaihingen an der Enz","municipality":{"key":"08118073","name":"Vaihingen an der Enz, Stadt","type":"Große_Kreisstadt"},"district":{"key":"08118","name":"Ludwigsburg","type":"Landkreis"},"federalState":{"key":"08","name":"Baden-Württemberg"}},{"name":"Plattenweg","postalCode":"71665","locality":"Vaihingen an der Enz","municipality":{"key":"08118073","name":"Vaihingen an der Enz, Stadt","type":"Große_Kreisstadt"},"district":{"key":"08118","name":"Ludwigsburg","type":"Landkreis"},"federalState":{"key":"08","name":"Baden-Württemberg"}},{"name":"Portugieserstr.","postalCode":"71665","locality":"Vaihingen an der Enz","municipality":{"key":"08118073","name":"Vaihingen an der Enz, Stadt","type":"Große_Kreisstadt"},"district":{"key":"08118","name":"Ludwigsburg","type":"Landkreis"},"federalState":{"key":"08","name":"Baden-Württemberg"}},{"name":"Poststr.","postalCode":"71665","locality":"Vaihingen an der Enz","municipality":{"key":"08118073","name":"Vaihingen an der Enz, Stadt","type":"Große_Kreisstadt"},"district":{"key":"08118","name":"Ludwigsburg","type":"Landkreis"},"federalState":{"key":"08","name":"Baden-Württemberg"}},{"name":"Primelweg","postalCode":"71665","locality":"Vaihingen an der Enz","municipality":{"key":"08118073","name":"Vaihingen an der Enz, Stadt","type":"Große_Kreisstadt"},"district":{"key":"08118","name":"Ludwigsburg","type":"Landkreis"},"federalState":{"key":"08","name":"Baden-Württemberg"}},{"name":"Pulverdingen","postalCode":"71665","locality":"Vaihingen an der Enz","municipality":{"key":"08118073","name":"Vaihingen an der Enz, Stadt","type":"Große_Kreisstadt"},"district":{"key":"08118","name":"Ludwigsburg","type":"Landkreis"},"federalState":{"key":"08","name":"Baden-Württemberg"}},{"name":"Quellenweg","postalCode":"71665","locality":"Vaihingen an der Enz","municipality":{"key":"08118073","name":"Vaihingen an der Enz, Stadt","type":"Große_Kreisstadt"},"district":{"key":"08118","name":"Ludwigsburg","type":"Landkreis"},"federalState":{"key":"08","name":"Baden-Württemberg"}},{"name":"Radbrunnengasse","postalCode":"71665","locality":"Vaihingen an der Enz","municipality":{"key":"08118073","name":"Vaihingen an der Enz, Stadt","type":"Große_Kreisstadt"},"district":{"key":"08118","name":"Ludwigsburg","type":"Landkreis"},"federalState":{"key":"08","name":"Baden-Württemberg"}},{"name":"Raiffeisenstr.","postalCode":"71665","locality":"Vaihingen an der Enz","municipality":{"key":"08118073","name":"Vaihingen an der Enz, Stadt","type":"Große_Kreisstadt"},"district":{"key":"08118","name":"Ludwigsburg","type":"Landkreis"},"federalState":{"key":"08","name":"Baden-Württemberg"}},{"name":"Rampacherstr.","postalCode":"71665","locality":"Vaihingen an der Enz","municipality":{"key":"08118073","name":"Vaihingen an der Enz, Stadt","type":"Große_Kreisstadt"},"district":{"key":"08118","name":"Ludwigsburg","type":"Landkreis"},"federalState":{"key":"08","name":"Baden-Württemberg"}},{"name":"Rathausstr.","postalCode":"71665","locality":"Vaihingen an der Enz","municipality":{"key":"08118073","name":"Vaihingen an der Enz, Stadt","type":"Große_Kreisstadt"},"district":{"key":"08118","name":"Ludwigsburg","type":"Landkreis"},"federalState":{"key":"08","name":"Baden-Württemberg"}},{"name":"Rebenstr.","postalCode":"71665","locality":"Vaihingen an der Enz","municipality":{"key":"08118073","name":"Vaihingen an der Enz, Stadt","type":"Große_Kreisstadt"},"district":{"key":"08118","name":"Ludwigsburg","type":"Landkreis"},"federalState":{"key":"08","name":"Baden-Württemberg"}},{"name":"Rebhaldenstr.","postalCode":"71665","locality":"Vaihingen an der Enz","municipality":{"key":"08118073","name":"Vaihingen an der Enz, Stadt","type":"Große_Kreisstadt"},"district":{"key":"08118","name":"Ludwigsburg","type":"Landkreis"},"federalState":{"key":"08","name":"Baden-Württemberg"}},{"name":"Rechbergstr.","postalCode":"71665","locality":"Vaihingen an der Enz","municipality":{"key":"08118073","name":"Vaihingen an der Enz, Stadt","type":"Große_Kreisstadt"},"district":{"key":"08118","name":"Ludwigsburg","type":"Landkreis"},"federalState":{"key":"08","name":"Baden-Württemberg"}},{"name":"Reiffengasse","postalCode":"71665","locality":"Vaihingen an der Enz","municipality":{"key":"08118073","name":"Vaihingen an der Enz, Stadt","type":"Große_Kreisstadt"},"district":{"key":"08118","name":"Ludwigsburg","type":"Landkreis"},"federalState":{"key":"08","name":"Baden-Württemberg"}},{"name":"Reitsteige","postalCode":"71665","locality":"Vaihingen an der Enz","municipality":{"key":"08118073","name":"Vaihingen an der Enz, Stadt","type":"Große_Kreisstadt"},"district":{"key":"08118","name":"Ludwigsburg","type":"Landkreis"},"federalState":{"key":"08","name":"Baden-Württemberg"}},{"name":"Rennweg","postalCode":"71665","locality":"Vaihingen an der Enz","municipality":{"key":"08118073","name":"Vaihingen an der Enz, Stadt","type":"Große_Kreisstadt"},"district":{"key":"08118","name":"Ludwigsburg","type":"Landkreis"},"federalState":{"key":"08","name":"Baden-Württemberg"}},{"name":"Reservoirweg","postalCode":"71665","locality":"Vaihingen an der Enz","municipality":{"key":"08118073","name":"Vaihingen an der Enz, Stadt","type":"Große_Kreisstadt"},"district":{"key":"08118","name":"Ludwigsburg","type":"Landkreis"},"federalState":{"key":"08","name":"Baden-Württemberg"}},{"name":"Reutwiesenstr.","postalCode":"71665","locality":"Vaihingen an der Enz","municipality":{"key":"08118073","name":"Vaihingen an der Enz, Stadt","type":"Große_Kreisstadt"},"district":{"key":"08118","name":"Ludwigsburg","type":"Landkreis"},"federalState":{"key":"08","name":"Baden-Württemberg"}},{"name":"Richard-Wagner-Str.","postalCode":"71665","locality":"Vaihingen an der Enz","municipality":{"key":"08118073","name":"Vaihingen an der Enz, Stadt","type":"Große_Kreisstadt"},"district":{"key":"08118","name":"Ludwigsburg","type":"Landkreis"},"federalState":{"key":"08","name":"Baden-Württemberg"}},{"name":"Richthofenstr.","postalCode":"71665","locality":"Vaihingen an der Enz","municipality":{"key":"08118073","name":"Vaihingen an der Enz, Stadt","type":"Große_Kreisstadt"},"district":{"key":"08118","name":"Ludwigsburg","type":"Landkreis"},"federalState":{"key":"08","name":"Baden-Württemberg"}},{"name":"Rieserweg","postalCode":"71665","locality":"Vaihingen an der Enz","municipality":{"key":"08118073","name":"Vaihingen an der Enz, Stadt","type":"Große_Kreisstadt"},"district":{"key":"08118","name":"Ludwigsburg","type":"Landkreis"},"federalState":{"key":"08","name":"Baden-Württemberg"}},{"name":"Rieter Str.","postalCode":"71665","locality":"Vaihingen an der Enz","municipality":{"key":"08118073","name":"Vaihingen an der Enz, Stadt","type":"Große_Kreisstadt"},"district":{"key":"08118","name":"Ludwigsburg","type":"Landkreis"},"federalState":{"key":"08","name":"Baden-Württemberg"}},{"name":"Ritterstr.","postalCode":"71665","locality":"Vaihingen an der Enz","municipality":{"key":"08118073","name":"Vaihingen an der Enz, Stadt","type":"Große_Kreisstadt"},"district":{"key":"08118","name":"Ludwigsburg","type":"Landkreis"},"federalState":{"key":"08","name":"Baden-Württemberg"}},{"name":"Rivanerweg","postalCode":"71665","locality":"Vaihingen an der Enz","municipality":{"key":"08118073","name":"Vaihingen an der Enz, Stadt","type":"Große_Kreisstadt"},"district":{"key":"08118","name":"Ludwigsburg","type":"Landkreis"},"federalState":{"key":"08","name":"Baden-Württemberg"}},{"name":"Robert-Bosch-Str.","postalCode":"71665","locality":"Vaihingen an der Enz","municipality":{"key":"08118073","name":"Vaihingen an der Enz, Stadt","type":"Große_Kreisstadt"},"district":{"key":"08118","name":"Ludwigsburg","type":"Landkreis"},"federalState":{"key":"08","name":"Baden-Württemberg"}},{"name":"Robert-Koch-Str.","postalCode":"71665","locality":"Vaihingen an der Enz","municipality":{"key":"08118073","name":"Vaihingen an der Enz, Stadt","type":"Große_Kreisstadt"},"district":{"key":"08118","name":"Ludwigsburg","type":"Landkreis"},"federalState":{"key":"08","name":"Baden-Württemberg"}},{"name":"Roggenweg","postalCode":"71665","locality":"Vaihingen an der Enz","municipality":{"key":"08118073","name":"Vaihingen an der Enz, Stadt","type":"Große_Kreisstadt"},"district":{"key":"08118","name":"Ludwigsburg","type":"Landkreis"},"federalState":{"key":"08","name":"Baden-Württemberg"}},{"name":"Rohrackerweg","postalCode":"71665","locality":"Vaihingen an der Enz","municipality":{"key":"08118073","name":"Vaihingen an der Enz, Stadt","type":"Große_Kreisstadt"},"district":{"key":"08118","name":"Ludwigsburg","type":"Landkreis"},"federalState":{"key":"08","name":"Baden-Württemberg"}},{"name":"Römerstr.","postalCode":"71665","locality":"Vaihingen an der Enz","municipality":{"key":"08118073","name":"Vaihingen an der Enz, Stadt","type":"Große_Kreisstadt"},"district":{"key":"08118","name":"Ludwigsburg","type":"Landkreis"},"federalState":{"key":"08","name":"Baden-Württemberg"}},{"name":"Röntgenstr.","postalCode":"71665","locality":"Vaihingen an der Enz","municipality":{"key":"08118073","name":"Vaihingen an der Enz, Stadt","type":"Große_Kreisstadt"},"district":{"key":"08118","name":"Ludwigsburg","type":"Landkreis"},"federalState":{"key":"08","name":"Baden-Württemberg"}},{"name":"Rosentalweg","postalCode":"71665","locality":"Vaihingen an der Enz","municipality":{"key":"08118073","name":"Vaihingen an der Enz, Stadt","type":"Große_Kreisstadt"},"district":{"key":"08118","name":"Ludwigsburg","type":"Landkreis"},"federalState":{"key":"08","name":"Baden-Württemberg"}},{"name":"Rosenweg","postalCode":"71665","locality":"Vaihingen an der Enz","municipality":{"key":"08118073","name":"Vaihingen an der Enz, Stadt","type":"Große_Kreisstadt"},"district":{"key":"08118","name":"Ludwigsburg","type":"Landkreis"},"federalState":{"key":"08","name":"Baden-Württemberg"}},{"name":"Rosmarinweg","postalCode":"71665","locality":"Vaihingen an der Enz","municipality":{"key":"08118073","name":"Vaihingen an der Enz, Stadt","type":"Große_Kreisstadt"},"district":{"key":"08118","name":"Ludwigsburg","type":"Landkreis"},"federalState":{"key":"08","name":"Baden-Württemberg"}},{"name":"Roßwager Str.","postalCode":"71665","locality":"Vaihingen an der Enz","municipality":{"key":"08118073","name":"Vaihingen an der Enz, Stadt","type":"Große_Kreisstadt"},"district":{"key":"08118","name":"Ludwigsburg","type":"Landkreis"},"federalState":{"key":"08","name":"Baden-Württemberg"}},{"name":"Rotenbergstr.","postalCode":"71665","locality":"Vaihingen an der Enz","municipality":{"key":"08118073","name":"Vaihingen an der Enz, Stadt","type":"Große_Kreisstadt"},"district":{"key":"08118","name":"Ludwigsburg","type":"Landkreis"},"federalState":{"key":"08","name":"Baden-Württemberg"}},{"name":"Rotkleeweg","postalCode":"71665","locality":"Vaihingen an der Enz","municipality":{"key":"08118073","name":"Vaihingen an der Enz, Stadt","type":"Große_Kreisstadt"},"district":{"key":"08118","name":"Ludwigsburg","type":"Landkreis"},"federalState":{"key":"08","name":"Baden-Württemberg"}},{"name":"Rudolf-Strom-Weg","postalCode":"71665","locality":"Vaihingen an der Enz","municipality":{"key":"08118073","name":"Vaihingen an der Enz, Stadt","type":"Große_Kreisstadt"},"district":{"key":"08118","name":"Ludwigsburg","type":"Landkreis"},"federalState":{"key":"08","name":"Baden-Württemberg"}},{"name":"Rümpflestr.","postalCode":"71665","locality":"Vaihingen an der Enz","municipality":{"key":"08118073","name":"Vaihingen an der Enz, Stadt","type":"Große_Kreisstadt"},"district":{"key":"08118","name":"Ludwigsburg","type":"Landkreis"},"federalState":{"key":"08","name":"Baden-Württemberg"}},{"name":"Salbeiweg","postalCode":"71665","locality":"Vaihingen an der Enz","municipality":{"key":"08118073","name":"Vaihingen an der Enz, Stadt","type":"Große_Kreisstadt"},"district":{"key":"08118","name":"Ludwigsburg","type":"Landkreis"},"federalState":{"key":"08","name":"Baden-Württemberg"}},{"name":"Salzäckerstr.","postalCode":"71665","locality":"Vaihingen an der Enz","municipality":{"key":"08118073","name":"Vaihingen an der Enz, Stadt","type":"Große_Kreisstadt"},"district":{"key":"08118","name":"Ludwigsburg","type":"Landkreis"},"federalState":{"key":"08","name":"Baden-Württemberg"}},{"name":"Salzäckerweg","postalCode":"71665","locality":"Vaihingen an der Enz","municipality":{"key":"08118073","name":"Vaihingen an der Enz, Stadt","type":"Große_Kreisstadt"},"district":{"key":"08118","name":"Ludwigsburg","type":"Landkreis"},"federalState":{"key":"08","name":"Baden-Württemberg"}},{"name":"Sandäckerweg","postalCode":"71665","locality":"Vaihingen an der Enz","municipality":{"key":"08118073","name":"Vaihingen an der Enz, Stadt","type":"Große_Kreisstadt"},"district":{"key":"08118","name":"Ludwigsburg","type":"Landkreis"},"federalState":{"key":"08","name":"Baden-Württemberg"}},{"name":"Sandgrubenweg","postalCode":"71665","locality":"Vaihingen an der Enz","municipality":{"key":"08118073","name":"Vaihingen an der Enz, Stadt","type":"Große_Kreisstadt"},"district":{"key":"08118","name":"Ludwigsburg","type":"Landkreis"},"federalState":{"key":"08","name":"Baden-Württemberg"}},{"name":"Sankt-Leonhard-Str.","postalCode":"71665","locality":"Vaihingen an der Enz","municipality":{"key":"08118073","name":"Vaihingen an der Enz, Stadt","type":"Große_Kreisstadt"},"district":{"key":"08118","name":"Ludwigsburg","type":"Landkreis"},"federalState":{"key":"08","name":"Baden-Württemberg"}},{"name":"Sankt-Martin-Str.","postalCode":"71665","locality":"Vaihingen an der Enz","municipality":{"key":"08118073","name":"Vaihingen an der Enz, Stadt","type":"Große_Kreisstadt"},"district":{"key":"08118","name":"Ludwigsburg","type":"Landkreis"},"federalState":{"key":"08","name":"Baden-Württemberg"}},{"name":"Sankt-Veith-Str.","postalCode":"71665","locality":"Vaihingen an der Enz","municipality":{"key":"08118073","name":"Vaihingen an der Enz, Stadt","type":"Große_Kreisstadt"},"district":{"key":"08118","name":"Ludwigsburg","type":"Landkreis"},"federalState":{"key":"08","name":"Baden-Württemberg"}},{"name":"Schafgasse","postalCode":"71665","locality":"Vaihingen an der Enz","municipality":{"key":"08118073","name":"Vaihingen an der Enz, Stadt","type":"Große_Kreisstadt"},"district":{"key":"08118","name":"Ludwigsburg","type":"Landkreis"},"federalState":{"key":"08","name":"Baden-Württemberg"}},{"name":"Schanzreiterweg","postalCode":"71665","locality":"Vaihingen an der Enz","municipality":{"key":"08118073","name":"Vaihingen an der Enz, Stadt","type":"Große_Kreisstadt"},"district":{"key":"08118","name":"Ludwigsburg","type":"Landkreis"},"federalState":{"key":"08","name":"Baden-Württemberg"}},{"name":"Schanzweg","postalCode":"71665","locality":"Vaihingen an der Enz","municipality":{"key":"08118073","name":"Vaihingen an der Enz, Stadt","type":"Große_Kreisstadt"},"district":{"key":"08118","name":"Ludwigsburg","type":"Landkreis"},"federalState":{"key":"08","name":"Baden-Württemberg"}},{"name":"Schelmenweg","postalCode":"71665","locality":"Vaihingen an der Enz","municipality":{"key":"08118073","name":"Vaihingen an der Enz, Stadt","type":"Große_Kreisstadt"},"district":{"key":"08118","name":"Ludwigsburg","type":"Landkreis"},"federalState":{"key":"08","name":"Baden-Württemberg"}},{"name":"Schießmauerstr.","postalCode":"71665","locality":"Vaihingen an der Enz","municipality":{"key":"08118073","name":"Vaihingen an der Enz, Stadt","type":"Große_Kreisstadt"},"district":{"key":"08118","name":"Ludwigsburg","type":"Landkreis"},"federalState":{"key":"08","name":"Baden-Württemberg"}},{"name":"Schillerstr.","postalCode":"71665","locality":"Vaihingen an der Enz","municipality":{"key":"08118073","name":"Vaihingen an der Enz, Stadt","type":"Große_Kreisstadt"},"district":{"key":"08118","name":"Ludwigsburg","type":"Landkreis"},"federalState":{"key":"08","name":"Baden-Württemberg"}},{"name":"Schlehenweg","postalCode":"71665","locality":"Vaihingen an der Enz","municipality":{"key":"08118073","name":"Vaihingen an der Enz, Stadt","type":"Große_Kreisstadt"},"district":{"key":"08118","name":"Ludwigsburg","type":"Landkreis"},"federalState":{"key":"08","name":"Baden-Württemberg"}},{"name":"Schleißbergstr.","postalCode":"71665","locality":"Vaihingen an der Enz","municipality":{"key":"08118073","name":"Vaihingen an der Enz, Stadt","type":"Große_Kreisstadt"},"district":{"key":"08118","name":"Ludwigsburg","type":"Landkreis"},"federalState":{"key":"08","name":"Baden-Württemberg"}},{"name":"Schlesierstr.","postalCode":"71665","locality":"Vaihingen an der Enz","municipality":{"key":"08118073","name":"Vaihingen an der Enz, Stadt","type":"Große_Kreisstadt"},"district":{"key":"08118","name":"Ludwigsburg","type":"Landkreis"},"federalState":{"key":"08","name":"Baden-Württemberg"}},{"name":"Schloßbergstr.","postalCode":"71665","locality":"Vaihingen an der Enz","municipality":{"key":"08118073","name":"Vaihingen an der Enz, Stadt","type":"Große_Kreisstadt"},"district":{"key":"08118","name":"Ludwigsburg","type":"Landkreis"},"federalState":{"key":"08","name":"Baden-Württemberg"}},{"name":"Schloßpark","postalCode":"71665","locality":"Vaihingen an der Enz","municipality":{"key":"08118073","name":"Vaihingen an der Enz, Stadt","type":"Große_Kreisstadt"},"district":{"key":"08118","name":"Ludwigsburg","type":"Landkreis"},"federalState":{"key":"08","name":"Baden-Württemberg"}},{"name":"Schloßstr.","postalCode":"71665","locality":"Vaihingen an der Enz","municipality":{"key":"08118073","name":"Vaihingen an der Enz, Stadt","type":"Große_Kreisstadt"},"district":{"key":"08118","name":"Ludwigsburg","type":"Landkreis"},"federalState":{"key":"08","name":"Baden-Württemberg"}},{"name":"Schneckenhäldenweg","postalCode":"71665","locality":"Vaihingen an der Enz","municipality":{"key":"08118073","name":"Vaihingen an der Enz, Stadt","type":"Große_Kreisstadt"},"district":{"key":"08118","name":"Ludwigsburg","type":"Landkreis"},"federalState":{"key":"08","name":"Baden-Württemberg"}},{"name":"Schnürle","postalCode":"71665","locality":"Vaihingen an der Enz","municipality":{"key":"08118073","name":"Vaihingen an der Enz, Stadt","type":"Große_Kreisstadt"},"district":{"key":"08118","name":"Ludwigsburg","type":"Landkreis"},"federalState":{"key":"08","name":"Baden-Württemberg"}},{"name":"Schreinergasse","postalCode":"71665","locality":"Vaihingen an der Enz","municipality":{"key":"08118073","name":"Vaihingen an der Enz, Stadt","type":"Große_Kreisstadt"},"district":{"key":"08118","name":"Ludwigsburg","type":"Landkreis"},"federalState":{"key":"08","name":"Baden-Württemberg"}},{"name":"Schulstr.","postalCode":"71665","locality":"Vaihingen an der Enz","municipality":{"key":"08118073","name":"Vaihingen an der Enz, Stadt","type":"Große_Kreisstadt"},"district":{"key":"08118","name":"Ludwigsburg","type":"Landkreis"},"federalState":{"key":"08","name":"Baden-Württemberg"}},{"name":"Schützenstr.","postalCode":"71665","locality":"Vaihingen an der Enz","municipality":{"key":"08118073","name":"Vaihingen an der Enz, Stadt","type":"Große_Kreisstadt"},"district":{"key":"08118","name":"Ludwigsburg","type":"Landkreis"},"federalState":{"key":"08","name":"Baden-Württemberg"}},{"name":"Schützinger Str.","postalCode":"71665","locality":"Vaihingen an der Enz","municipality":{"key":"08118073","name":"Vaihingen an der Enz, Stadt","type":"Große_Kreisstadt"},"district":{"key":"08118","name":"Ludwigsburg","type":"Landkreis"},"federalState":{"key":"08","name":"Baden-Württemberg"}},{"name":"Schützinger Weg","postalCode":"71665","locality":"Vaihingen an der Enz","municipality":{"key":"08118073","name":"Vaihingen an der Enz, Stadt","type":"Große_Kreisstadt"},"district":{"key":"08118","name":"Ludwigsburg","type":"Landkreis"},"federalState":{"key":"08","name":"Baden-Württemberg"}},{"name":"Schwabstr.","postalCode":"71665","locality":"Vaihingen an der Enz","municipality":{"key":"08118073","name":"Vaihingen an der Enz, Stadt","type":"Große_Kreisstadt"},"district":{"key":"08118","name":"Ludwigsburg","type":"Landkreis"},"federalState":{"key":"08","name":"Baden-Württemberg"}},{"name":"Schwalbenweg","postalCode":"71665","locality":"Vaihingen an der Enz","municipality":{"key":"08118073","name":"Vaihingen an der Enz, Stadt","type":"Große_Kreisstadt"},"district":{"key":"08118","name":"Ludwigsburg","type":"Landkreis"},"federalState":{"key":"08","name":"Baden-Württemberg"}},{"name":"Schwanengasse","postalCode":"71665","locality":"Vaihingen an der Enz","municipality":{"key":"08118073","name":"Vaihingen an der Enz, Stadt","type":"Große_Kreisstadt"},"district":{"key":"08118","name":"Ludwigsburg","type":"Landkreis"},"federalState":{"key":"08","name":"Baden-Württemberg"}},{"name":"Schwarzwaldstr.","postalCode":"71665","locality":"Vaihingen an der Enz","municipality":{"key":"08118073","name":"Vaihingen an der Enz, Stadt","type":"Große_Kreisstadt"},"district":{"key":"08118","name":"Ludwigsburg","type":"Landkreis"},"federalState":{"key":"08","name":"Baden-Württemberg"}},{"name":"Schwieberdinger Str.","postalCode":"71665","locality":"Vaihingen an der Enz","municipality":{"key":"08118073","name":"Vaihingen an der Enz, Stadt","type":"Große_Kreisstadt"},"district":{"key":"08118","name":"Ludwigsburg","type":"Landkreis"},"federalState":{"key":"08","name":"Baden-Württemberg"}},{"name":"Seegasse","postalCode":"71665","locality":"Vaihingen an der Enz","municipality":{"key":"08118073","name":"Vaihingen an der Enz, Stadt","type":"Große_Kreisstadt"},"district":{"key":"08118","name":"Ludwigsburg","type":"Landkreis"},"federalState":{"key":"08","name":"Baden-Württemberg"}},{"name":"Seewaldstr.","postalCode":"71665","locality":"Vaihingen an der Enz","municipality":{"key":"08118073","name":"Vaihingen an der Enz, Stadt","type":"Große_Kreisstadt"},"district":{"key":"08118","name":"Ludwigsburg","type":"Landkreis"},"federalState":{"key":"08","name":"Baden-Württemberg"}},{"name":"Seitenstr.","postalCode":"71665","locality":"Vaihingen an der Enz","municipality":{"key":"08118073","name":"Vaihingen an der Enz, Stadt","type":"Große_Kreisstadt"},"district":{"key":"08118","name":"Ludwigsburg","type":"Landkreis"},"federalState":{"key":"08","name":"Baden-Württemberg"}},{"name":"Sersheimer Str.","postalCode":"71665","locality":"Vaihingen an der Enz","municipality":{"key":"08118073","name":"Vaihingen an der Enz, Stadt","type":"Große_Kreisstadt"},"district":{"key":"08118","name":"Ludwigsburg","type":"Landkreis"},"federalState":{"key":"08","name":"Baden-Württemberg"}},{"name":"Silberhörnlestr.","postalCode":"71665","locality":"Vaihingen an der Enz","municipality":{"key":"08118073","name":"Vaihingen an der Enz, Stadt","type":"Große_Kreisstadt"},"district":{"key":"08118","name":"Ludwigsburg","type":"Landkreis"},"federalState":{"key":"08","name":"Baden-Württemberg"}},{"name":"Silcherstr.","postalCode":"71665","locality":"Vaihingen an der Enz","municipality":{"key":"08118073","name":"Vaihingen an der Enz, Stadt","type":"Große_Kreisstadt"},"district":{"key":"08118","name":"Ludwigsburg","type":"Landkreis"},"federalState":{"key":"08","name":"Baden-Württemberg"}},{"name":"Silvanerstr.","postalCode":"71665","locality":"Vaihingen an der Enz","municipality":{"key":"08118073","name":"Vaihingen an der Enz, Stadt","type":"Große_Kreisstadt"},"district":{"key":"08118","name":"Ludwigsburg","type":"Landkreis"},"federalState":{"key":"08","name":"Baden-Württemberg"}},{"name":"Solitude-Allee","postalCode":"71665","locality":"Vaihingen an der Enz","municipality":{"key":"08118073","name":"Vaihingen an der Enz, Stadt","type":"Große_Kreisstadt"},"district":{"key":"08118","name":"Ludwigsburg","type":"Landkreis"},"federalState":{"key":"08","name":"Baden-Württemberg"}},{"name":"Sonnenbergstr.","postalCode":"71665","locality":"Vaihingen an der Enz","municipality":{"key":"08118073","name":"Vaihingen an der Enz, Stadt","type":"Große_Kreisstadt"},"district":{"key":"08118","name":"Ludwigsburg","type":"Landkreis"},"federalState":{"key":"08","name":"Baden-Württemberg"}},{"name":"Sonnenblumenweg","postalCode":"71665","locality":"Vaihingen an der Enz","municipality":{"key":"08118073","name":"Vaihingen an der Enz, Stadt","type":"Große_Kreisstadt"},"district":{"key":"08118","name":"Ludwigsburg","type":"Landkreis"},"federalState":{"key":"08","name":"Baden-Württemberg"}},{"name":"Sonnenhof","postalCode":"71665","locality":"Vaihingen an der Enz","municipality":{"key":"08118073","name":"Vaihingen an der Enz, Stadt","type":"Große_Kreisstadt"},"district":{"key":"08118","name":"Ludwigsburg","type":"Landkreis"},"federalState":{"key":"08","name":"Baden-Württemberg"}},{"name":"Sonnenwirtleweg","postalCode":"71665","locality":"Vaihingen an der Enz","municipality":{"key":"08118073","name":"Vaihingen an der Enz, Stadt","type":"Große_Kreisstadt"},"district":{"key":"08118","name":"Ludwigsburg","type":"Landkreis"},"federalState":{"key":"08","name":"Baden-Württemberg"}},{"name":"Sperberweg","postalCode":"71665","locality":"Vaihingen an der Enz","municipality":{"key":"08118073","name":"Vaihingen an der Enz, Stadt","type":"Große_Kreisstadt"},"district":{"key":"08118","name":"Ludwigsburg","type":"Landkreis"},"federalState":{"key":"08","name":"Baden-Württemberg"}},{"name":"Spitalstr.","postalCode":"71665","locality":"Vaihingen an der Enz","municipality":{"key":"08118073","name":"Vaihingen an der Enz, Stadt","type":"Große_Kreisstadt"},"district":{"key":"08118","name":"Ludwigsburg","type":"Landkreis"},"federalState":{"key":"08","name":"Baden-Württemberg"}},{"name":"Stadtmauerstr.","postalCode":"71665","locality":"Vaihingen an der Enz","municipality":{"key":"08118073","name":"Vaihingen an der Enz, Stadt","type":"Große_Kreisstadt"},"district":{"key":"08118","name":"Ludwigsburg","type":"Landkreis"},"federalState":{"key":"08","name":"Baden-Württemberg"}},{"name":"Stegwiesenstr.","postalCode":"71665","locality":"Vaihingen an der Enz","municipality":{"key":"08118073","name":"Vaihingen an der Enz, Stadt","type":"Große_Kreisstadt"},"district":{"key":"08118","name":"Ludwigsburg","type":"Landkreis"},"federalState":{"key":"08","name":"Baden-Württemberg"}},{"name":"Steinbachhofstr.","postalCode":"71665","locality":"Vaihingen an der Enz","municipality":{"key":"08118073","name":"Vaihingen an der Enz, Stadt","type":"Große_Kreisstadt"},"district":{"key":"08118","name":"Ludwigsburg","type":"Landkreis"},"federalState":{"key":"08","name":"Baden-Württemberg"}},{"name":"Steinbachhofweg","postalCode":"71665","locality":"Vaihingen an der Enz","municipality":{"key":"08118073","name":"Vaihingen an der Enz, Stadt","type":"Große_Kreisstadt"},"district":{"key":"08118","name":"Ludwigsburg","type":"Landkreis"},"federalState":{"key":"08","name":"Baden-Württemberg"}},{"name":"Tafingerstr.","postalCode":"71665","locality":"Vaihingen an der Enz","municipality":{"key":"08118073","name":"Vaihingen an der Enz, Stadt","type":"Große_Kreisstadt"},"district":{"key":"08118","name":"Ludwigsburg","type":"Landkreis"},"federalState":{"key":"08","name":"Baden-Württemberg"}},{"name":"Talweg","postalCode":"71665","locality":"Vaihingen an der Enz","municipality":{"key":"08118073","name":"Vaihingen an der Enz, Stadt","type":"Große_Kreisstadt"},"district":{"key":"08118","name":"Ludwigsburg","type":"Landkreis"},"federalState":{"key":"08","name":"Baden-Württemberg"}},{"name":"Tannenweg","postalCode":"71665","locality":"Vaihingen an der Enz","municipality":{"key":"08118073","name":"Vaihingen an der Enz, Stadt","type":"Große_Kreisstadt"},"district":{"key":"08118","name":"Ludwigsburg","type":"Landkreis"},"federalState":{"key":"08","name":"Baden-Württemberg"}},{"name":"Taxisring","postalCode":"71665","locality":"Vaihingen an der Enz","municipality":{"key":"08118073","name":"Vaihingen an der Enz, Stadt","type":"Große_Kreisstadt"},"district":{"key":"08118","name":"Ludwigsburg","type":"Landkreis"},"federalState":{"key":"08","name":"Baden-Württemberg"}},{"name":"Teckstr.","postalCode":"71665","locality":"Vaihingen an der Enz","municipality":{"key":"08118073","name":"Vaihingen an der Enz, Stadt","type":"Große_Kreisstadt"},"district":{"key":"08118","name":"Ludwigsburg","type":"Landkreis"},"federalState":{"key":"08","name":"Baden-Württemberg"}},{"name":"Theodor-Heuss-Str.","postalCode":"71665","locality":"Vaihingen an der Enz","municipality":{"key":"08118073","name":"Vaihingen an der Enz, Stadt","type":"Große_Kreisstadt"},"district":{"key":"08118","name":"Ludwigsburg","type":"Landkreis"},"federalState":{"key":"08","name":"Baden-Württemberg"}},{"name":"Theodor-Storm-Str.","postalCode":"71665","locality":"Vaihingen an der Enz","municipality":{"key":"08118073","name":"Vaihingen an der Enz, Stadt","type":"Große_Kreisstadt"},"district":{"key":"08118","name":"Ludwigsburg","type":"Landkreis"},"federalState":{"key":"08","name":"Baden-Württemberg"}},{"name":"Thymianweg","postalCode":"71665","locality":"Vaihingen an der Enz","municipality":{"key":"08118073","name":"Vaihingen an der Enz, Stadt","type":"Große_Kreisstadt"},"district":{"key":"08118","name":"Ludwigsburg","type":"Landkreis"},"federalState":{"key":"08","name":"Baden-Württemberg"}},{"name":"Tiefes Tal","postalCode":"71665","locality":"Vaihingen an der Enz","municipality":{"key":"08118073","name":"Vaihingen an der Enz, Stadt","type":"Große_Kreisstadt"},"district":{"key":"08118","name":"Ludwigsburg","type":"Landkreis"},"federalState":{"key":"08","name":"Baden-Württemberg"}},{"name":"Tiergartensteige","postalCode":"71665","locality":"Vaihingen an der Enz","municipality":{"key":"08118073","name":"Vaihingen an der Enz, Stadt","type":"Große_Kreisstadt"},"district":{"key":"08118","name":"Ludwigsburg","type":"Landkreis"},"federalState":{"key":"08","name":"Baden-Württemberg"}},{"name":"Tiergartenstr.","postalCode":"71665","locality":"Vaihingen an der Enz","municipality":{"key":"08118073","name":"Vaihingen an der Enz, Stadt","type":"Große_Kreisstadt"},"district":{"key":"08118","name":"Ludwigsburg","type":"Landkreis"},"federalState":{"key":"08","name":"Baden-Württemberg"}},{"name":"Tilsiter Str.","postalCode":"71665","locality":"Vaihingen an der Enz","municipality":{"key":"08118073","name":"Vaihingen an der Enz, Stadt","type":"Große_Kreisstadt"},"district":{"key":"08118","name":"Ludwigsburg","type":"Landkreis"},"federalState":{"key":"08","name":"Baden-Württemberg"}},{"name":"Toräckerstr.","postalCode":"71665","locality":"Vaihingen an der Enz","municipality":{"key":"08118073","name":"Vaihingen an der Enz, Stadt","type":"Große_Kreisstadt"},"district":{"key":"08118","name":"Ludwigsburg","type":"Landkreis"},"federalState":{"key":"08","name":"Baden-Württemberg"}},{"name":"Traminerweg","postalCode":"71665","locality":"Vaihingen an der Enz","municipality":{"key":"08118073","name":"Vaihingen an der Enz, Stadt","type":"Große_Kreisstadt"},"district":{"key":"08118","name":"Ludwigsburg","type":"Landkreis"},"federalState":{"key":"08","name":"Baden-Württemberg"}},{"name":"Tränkgässle","postalCode":"71665","locality":"Vaihingen an der Enz","municipality":{"key":"08118073","name":"Vaihingen an der Enz, Stadt","type":"Große_Kreisstadt"},"district":{"key":"08118","name":"Ludwigsburg","type":"Landkreis"},"federalState":{"key":"08","name":"Baden-Württemberg"}},{"name":"Traubenstr.","postalCode":"71665","locality":"Vaihingen an der Enz","municipality":{"key":"08118073","name":"Vaihingen an der Enz, Stadt","type":"Große_Kreisstadt"},"district":{"key":"08118","name":"Ludwigsburg","type":"Landkreis"},"federalState":{"key":"08","name":"Baden-Württemberg"}},{"name":"Traufweg","postalCode":"71665","locality":"Vaihingen an der Enz","municipality":{"key":"08118073","name":"Vaihingen an der Enz, Stadt","type":"Große_Kreisstadt"},"district":{"key":"08118","name":"Ludwigsburg","type":"Landkreis"},"federalState":{"key":"08","name":"Baden-Württemberg"}},{"name":"Tulpenweg","postalCode":"71665","locality":"Vaihingen an der Enz","municipality":{"key":"08118073","name":"Vaihingen an der Enz, Stadt","type":"Große_Kreisstadt"},"district":{"key":"08118","name":"Ludwigsburg","type":"Landkreis"},"federalState":{"key":"08","name":"Baden-Württemberg"}},{"name":"Turmstr.","postalCode":"71665","locality":"Vaihingen an der Enz","municipality":{"key":"08118073","name":"Vaihingen an der Enz, Stadt","type":"Große_Kreisstadt"},"district":{"key":"08118","name":"Ludwigsburg","type":"Landkreis"},"federalState":{"key":"08","name":"Baden-Württemberg"}},{"name":"Uhlandstr.","postalCode":"71665","locality":"Vaihingen an der Enz","municipality":{"key":"08118073","name":"Vaihingen an der Enz, Stadt","type":"Große_Kreisstadt"},"district":{"key":"08118","name":"Ludwigsburg","type":"Landkreis"},"federalState":{"key":"08","name":"Baden-Württemberg"}},{"name":"Ulmenweg","postalCode":"71665","locality":"Vaihingen an der Enz","municipality":{"key":"08118073","name":"Vaihingen an der Enz, Stadt","type":"Große_Kreisstadt"},"district":{"key":"08118","name":"Ludwigsburg","type":"Landkreis"},"federalState":{"key":"08","name":"Baden-Württemberg"}},{"name":"Ulrichstr.","postalCode":"71665","locality":"Vaihingen an der Enz","municipality":{"key":"08118073","name":"Vaihingen an der Enz, Stadt","type":"Große_Kreisstadt"},"district":{"key":"08118","name":"Ludwigsburg","type":"Landkreis"},"federalState":{"key":"08","name":"Baden-Württemberg"}},{"name":"Unter dem Burghof","postalCode":"71665","locality":"Vaihingen an der Enz","municipality":{"key":"08118073","name":"Vaihingen an der Enz, Stadt","type":"Große_Kreisstadt"},"district":{"key":"08118","name":"Ludwigsburg","type":"Landkreis"},"federalState":{"key":"08","name":"Baden-Württemberg"}},{"name":"Unter dem Hagenbach","postalCode":"71665","locality":"Vaihingen an der Enz","municipality":{"key":"08118073","name":"Vaihingen an der Enz, Stadt","type":"Große_Kreisstadt"},"district":{"key":"08118","name":"Ludwigsburg","type":"Landkreis"},"federalState":{"key":"08","name":"Baden-Württemberg"}},{"name":"Unter den Weingärten","postalCode":"71665","locality":"Vaihingen an der Enz","municipality":{"key":"08118073","name":"Vaihingen an der Enz, Stadt","type":"Große_Kreisstadt"},"district":{"key":"08118","name":"Ludwigsburg","type":"Landkreis"},"federalState":{"key":"08","name":"Baden-Württemberg"}},{"name":"Unter der Schule","postalCode":"71665","locality":"Vaihingen an der Enz","municipality":{"key":"08118073","name":"Vaihingen an der Enz, Stadt","type":"Große_Kreisstadt"},"district":{"key":"08118","name":"Ludwigsburg","type":"Landkreis"},"federalState":{"key":"08","name":"Baden-Württemberg"}},{"name":"Unter Eck","postalCode":"71665","locality":"Vaihingen an der Enz","municipality":{"key":"08118073","name":"Vaihingen an der Enz, Stadt","type":"Große_Kreisstadt"},"district":{"key":"08118","name":"Ludwigsburg","type":"Landkreis"},"federalState":{"key":"08","name":"Baden-Württemberg"}},{"name":"Untere Kirchgasse","postalCode":"71665","locality":"Vaihingen an der Enz","municipality":{"key":"08118073","name":"Vaihingen an der Enz, Stadt","type":"Große_Kreisstadt"},"district":{"key":"08118","name":"Ludwigsburg","type":"Landkreis"},"federalState":{"key":"08","name":"Baden-Württemberg"}},{"name":"Unterer Hof","postalCode":"71665","locality":"Vaihingen an der Enz","municipality":{"key":"08118073","name":"Vaihingen an der Enz, Stadt","type":"Große_Kreisstadt"},"district":{"key":"08118","name":"Ludwigsburg","type":"Landkreis"},"federalState":{"key":"08","name":"Baden-Württemberg"}},{"name":"Unterer Junghölzlesweg","postalCode":"71665","locality":"Vaihingen an der Enz","municipality":{"key":"08118073","name":"Vaihingen an der Enz, Stadt","type":"Große_Kreisstadt"},"district":{"key":"08118","name":"Ludwigsburg","type":"Landkreis"},"federalState":{"key":"08","name":"Baden-Württemberg"}},{"name":"Urbanweg","postalCode":"71665","locality":"Vaihingen an der Enz","municipality":{"key":"08118073","name":"Vaihingen an der Enz, Stadt","type":"Große_Kreisstadt"},"district":{"key":"08118","name":"Ludwigsburg","type":"Landkreis"},"federalState":{"key":"08","name":"Baden-Württemberg"}},{"name":"Vaihinger Str.","postalCode":"71665","locality":"Vaihingen an der Enz","municipality":{"key":"08118073","name":"Vaihingen an der Enz, Stadt","type":"Große_Kreisstadt"},"district":{"key":"08118","name":"Ludwigsburg","type":"Landkreis"},"federalState":{"key":"08","name":"Baden-Württemberg"}},{"name":"Veilchenweg","postalCode":"71665","locality":"Vaihingen an der Enz","municipality":{"key":"08118073","name":"Vaihingen an der Enz, Stadt","type":"Große_Kreisstadt"},"district":{"key":"08118","name":"Ludwigsburg","type":"Landkreis"},"federalState":{"key":"08","name":"Baden-Württemberg"}},{"name":"Vogelbeerweg","postalCode":"71665","locality":"Vaihingen an der Enz","municipality":{"key":"08118073","name":"Vaihingen an der Enz, Stadt","type":"Große_Kreisstadt"},"district":{"key":"08118","name":"Ludwigsburg","type":"Landkreis"},"federalState":{"key":"08","name":"Baden-Württemberg"}},{"name":"Volksschulweg","postalCode":"71665","locality":"Vaihingen an der Enz","municipality":{"key":"08118073","name":"Vaihingen an der Enz, Stadt","type":"Große_Kreisstadt"},"district":{"key":"08118","name":"Ludwigsburg","type":"Landkreis"},"federalState":{"key":"08","name":"Baden-Württemberg"}},{"name":"Von-Neurath-Str.","postalCode":"71665","locality":"Vaihingen an der Enz","municipality":{"key":"08118073","name":"Vaihingen an der Enz, Stadt","type":"Große_Kreisstadt"},"district":{"key":"08118","name":"Ludwigsburg","type":"Landkreis"},"federalState":{"key":"08","name":"Baden-Württemberg"}},{"name":"Von-Reischach-Str.","postalCode":"71665","locality":"Vaihingen an der Enz","municipality":{"key":"08118073","name":"Vaihingen an der Enz, Stadt","type":"Große_Kreisstadt"},"district":{"key":"08118","name":"Ludwigsburg","type":"Landkreis"},"federalState":{"key":"08","name":"Baden-Württemberg"}},{"name":"Waagstr.","postalCode":"71665","locality":"Vaihingen an der Enz","municipality":{"key":"08118073","name":"Vaihingen an der Enz, Stadt","type":"Große_Kreisstadt"},"district":{"key":"08118","name":"Ludwigsburg","type":"Landkreis"},"federalState":{"key":"08","name":"Baden-Württemberg"}},{"name":"Wacholderweg","postalCode":"71665","locality":"Vaihingen an der Enz","municipality":{"key":"08118073","name":"Vaihingen an der Enz, Stadt","type":"Große_Kreisstadt"},"district":{"key":"08118","name":"Ludwigsburg","type":"Landkreis"},"federalState":{"key":"08","name":"Baden-Württemberg"}},{"name":"Wachtkopfstr.","postalCode":"71665","locality":"Vaihingen an der Enz","municipality":{"key":"08118073","name":"Vaihingen an der Enz, Stadt","type":"Große_Kreisstadt"},"district":{"key":"08118","name":"Ludwigsburg","type":"Landkreis"},"federalState":{"key":"08","name":"Baden-Württemberg"}},{"name":"Waldstr.","postalCode":"71665","locality":"Vaihingen an der Enz","municipality":{"key":"08118073","name":"Vaihingen an der Enz, Stadt","type":"Große_Kreisstadt"},"district":{"key":"08118","name":"Ludwigsburg","type":"Landkreis"},"federalState":{"key":"08","name":"Baden-Württemberg"}},{"name":"Walter-de-Pay-Str.","postalCode":"71665","locality":"Vaihingen an der Enz","municipality":{"key":"08118073","name":"Vaihingen an der Enz, Stadt","type":"Große_Kreisstadt"},"district":{"key":"08118","name":"Ludwigsburg","type":"Landkreis"},"federalState":{"key":"08","name":"Baden-Württemberg"}},{"name":"Wannenweg","postalCode":"71665","locality":"Vaihingen an der Enz","municipality":{"key":"08118073","name":"Vaihingen an der Enz, Stadt","type":"Große_Kreisstadt"},"district":{"key":"08118","name":"Ludwigsburg","type":"Landkreis"},"federalState":{"key":"08","name":"Baden-Württemberg"}},{"name":"Wassermanngasse","postalCode":"71665","locality":"Vaihingen an der Enz","municipality":{"key":"08118073","name":"Vaihingen an der Enz, Stadt","type":"Große_Kreisstadt"},"district":{"key":"08118","name":"Ludwigsburg","type":"Landkreis"},"federalState":{"key":"08","name":"Baden-Württemberg"}},{"name":"Weg am Waldrand","postalCode":"71665","locality":"Vaihingen an der Enz","municipality":{"key":"08118073","name":"Vaihingen an der Enz, Stadt","type":"Große_Kreisstadt"},"district":{"key":"08118","name":"Ludwigsburg","type":"Landkreis"},"federalState":{"key":"08","name":"Baden-Württemberg"}},{"name":"Weidenweg","postalCode":"71665","locality":"Vaihingen an der Enz","municipality":{"key":"08118073","name":"Vaihingen an der Enz, Stadt","type":"Große_Kreisstadt"},"district":{"key":"08118","name":"Ludwigsburg","type":"Landkreis"},"federalState":{"key":"08","name":"Baden-Württemberg"}},{"name":"Weilerstr.","postalCode":"71665","locality":"Vaihingen an der Enz","municipality":{"key":"08118073","name":"Vaihingen an der Enz, Stadt","type":"Große_Kreisstadt"},"district":{"key":"08118","name":"Ludwigsburg","type":"Landkreis"},"federalState":{"key":"08","name":"Baden-Württemberg"}},{"name":"Weinbergstr.","postalCode":"71665","locality":"Vaihingen an der Enz","municipality":{"key":"08118073","name":"Vaihingen an der Enz, Stadt","type":"Große_Kreisstadt"},"district":{"key":"08118","name":"Ludwigsburg","type":"Landkreis"},"federalState":{"key":"08","name":"Baden-Württemberg"}},{"name":"Weinbergweg","postalCode":"71665","locality":"Vaihingen an der Enz","municipality":{"key":"08118073","name":"Vaihingen an der Enz, Stadt","type":"Große_Kreisstadt"},"district":{"key":"08118","name":"Ludwigsburg","type":"Landkreis"},"federalState":{"key":"08","name":"Baden-Württemberg"}},{"name":"Weingasse","postalCode":"71665","locality":"Vaihingen an der Enz","municipality":{"key":"08118073","name":"Vaihingen an der Enz, Stadt","type":"Große_Kreisstadt"},"district":{"key":"08118","name":"Ludwigsburg","type":"Landkreis"},"federalState":{"key":"08","name":"Baden-Württemberg"}},{"name":"Weinkellerstr.","postalCode":"71665","locality":"Vaihingen an der Enz","municipality":{"key":"08118073","name":"Vaihingen an der Enz, Stadt","type":"Große_Kreisstadt"},"district":{"key":"08118","name":"Ludwigsburg","type":"Landkreis"},"federalState":{"key":"08","name":"Baden-Württemberg"}},{"name":"Weinring","postalCode":"71665","locality":"Vaihingen an der Enz","municipality":{"key":"08118073","name":"Vaihingen an der Enz, Stadt","type":"Große_Kreisstadt"},"district":{"key":"08118","name":"Ludwigsburg","type":"Landkreis"},"federalState":{"key":"08","name":"Baden-Württemberg"}},{"name":"Weinsteige","postalCode":"71665","locality":"Vaihingen an der Enz","municipality":{"key":"08118073","name":"Vaihingen an der Enz, Stadt","type":"Große_Kreisstadt"},"district":{"key":"08118","name":"Ludwigsburg","type":"Landkreis"},"federalState":{"key":"08","name":"Baden-Württemberg"}},{"name":"Weizenstr.","postalCode":"71665","locality":"Vaihingen an der Enz","municipality":{"key":"08118073","name":"Vaihingen an der Enz, Stadt","type":"Große_Kreisstadt"},"district":{"key":"08118","name":"Ludwigsburg","type":"Landkreis"},"federalState":{"key":"08","name":"Baden-Württemberg"}},{"name":"Wellingtonienweg","postalCode":"71665","locality":"Vaihingen an der Enz","municipality":{"key":"08118073","name":"Vaihingen an der Enz, Stadt","type":"Große_Kreisstadt"},"district":{"key":"08118","name":"Ludwigsburg","type":"Landkreis"},"federalState":{"key":"08","name":"Baden-Württemberg"}},{"name":"Wielandstr.","postalCode":"71665","locality":"Vaihingen an der Enz","municipality":{"key":"08118073","name":"Vaihingen an der Enz, Stadt","type":"Große_Kreisstadt"},"district":{"key":"08118","name":"Ludwigsburg","type":"Landkreis"},"federalState":{"key":"08","name":"Baden-Württemberg"}},{"name":"Wiesentalstr.","postalCode":"71665","locality":"Vaihingen an der Enz","municipality":{"key":"08118073","name":"Vaihingen an der Enz, Stadt","type":"Große_Kreisstadt"},"district":{"key":"08118","name":"Ludwigsburg","type":"Landkreis"},"federalState":{"key":"08","name":"Baden-Württemberg"}},{"name":"Wilhelm-Busch-Str.","postalCode":"71665","locality":"Vaihingen an der Enz","municipality":{"key":"08118073","name":"Vaihingen an der Enz, Stadt","type":"Große_Kreisstadt"},"district":{"key":"08118","name":"Ludwigsburg","type":"Landkreis"},"federalState":{"key":"08","name":"Baden-Württemberg"}},{"name":"Wilhelm-Feil-Str.","postalCode":"71665","locality":"Vaihingen an der Enz","municipality":{"key":"08118073","name":"Vaihingen an der Enz, Stadt","type":"Große_Kreisstadt"},"district":{"key":"08118","name":"Ludwigsburg","type":"Landkreis"},"federalState":{"key":"08","name":"Baden-Württemberg"}},{"name":"Wilhelm-Scheerer-Str.","postalCode":"71665","locality":"Vaihingen an der Enz","municipality":{"key":"08118073","name":"Vaihingen an der Enz, Stadt","type":"Große_Kreisstadt"},"district":{"key":"08118","name":"Ludwigsburg","type":"Landkreis"},"federalState":{"key":"08","name":"Baden-Württemberg"}},{"name":"Wilhelmstr.","postalCode":"71665","locality":"Vaihingen an der Enz","municipality":{"key":"08118073","name":"Vaihingen an der Enz, Stadt","type":"Große_Kreisstadt"},"district":{"key":"08118","name":"Ludwigsburg","type":"Landkreis"},"federalState":{"key":"08","name":"Baden-Württemberg"}},{"name":"Wilhelm-von-Hohenheim-Str.","postalCode":"71665","locality":"Vaihingen an der Enz","municipality":{"key":"08118073","name":"Vaihingen an der Enz, Stadt","type":"Große_Kreisstadt"},"district":{"key":"08118","name":"Ludwigsburg","type":"Landkreis"},"federalState":{"key":"08","name":"Baden-Württemberg"}},{"name":"Winzerstr.","postalCode":"71665","locality":"Vaihingen an der Enz","municipality":{"key":"08118073","name":"Vaihingen an der Enz, Stadt","type":"Große_Kreisstadt"},"district":{"key":"08118","name":"Ludwigsburg","type":"Landkreis"},"federalState":{"key":"08","name":"Baden-Württemberg"}},{"name":"Withauweg","postalCode":"71665","locality":"Vaihingen an der Enz","municipality":{"key":"08118073","name":"Vaihingen an der Enz, Stadt","type":"Große_Kreisstadt"},"district":{"key":"08118","name":"Ludwigsburg","type":"Landkreis"},"federalState":{"key":"08","name":"Baden-Württemberg"}},{"name":"Yorckstr.","postalCode":"71636","locality":"Ludwigsburg","municipality":{"key":"08118048","name":"Ludwigsburg, Stadt","type":"Große_Kreisstadt"},"district":{"key":"08118","name":"Ludwigsburg","type":"Landkreis"},"federalState":{"key":"08","name":"Baden-Württemberg"}},{"name":"Zeppelinstr.","postalCode":"71665","locality":"Vaihingen an der Enz","municipality":{"key":"08118073","name":"Vaihingen an der Enz, Stadt","type":"Große_Kreisstadt"},"district":{"key":"08118","name":"Ludwigsburg","type":"Landkreis"},"federalState":{"key":"08","name":"Baden-Württemberg"}},{"name":"Ziegelgartenstr.","postalCode":"71665","locality":"Vaihingen an der Enz","municipality":{"key":"08118073","name":"Vaihingen an der Enz, Stadt","type":"Große_Kreisstadt"},"district":{"key":"08118","name":"Ludwigsburg","type":"Landkreis"},"federalState":{"key":"08","name":"Baden-Württemberg"}},{"name":"Znaimer Str.","postalCode":"71665","locality":"Vaihingen an der Enz","municipality":{"key":"08118073","name":"Vaihingen an der Enz, Stadt","type":"Große_Kreisstadt"},"district":{"key":"08118","name":"Ludwigsburg","type":"Landkreis"},"federalState":{"key":"08","name":"Baden-Württemberg"}},{"name":"Zum Veilchenweg","postalCode":"71665","locality":"Vaihingen an der Enz","municipality":{"key":"08118073","name":"Vaihingen an der Enz, Stadt","type":"Große_Kreisstadt"},"district":{"key":"08118","name":"Ludwigsburg","type":"Landkreis"},"federalState":{"key":"08","name":"Baden-Württemberg"}},{"name":"Zum vorderen Weinberg","postalCode":"71665","locality":"Vaihingen an der Enz","municipality":{"key":"08118073","name":"Vaihingen an der Enz, Stadt","type":"Große_Kreisstadt"},"district":{"key":"08118","name":"Ludwigsburg","type":"Landkreis"},"federalState":{"key":"08","name":"Baden-Württemberg"}},{"name":"Östlicher Parkweg","postalCode":"71634","locality":"Ludwigsburg","municipality":{"key":"08118048","name":"Ludwigsburg, Stadt","type":"Große_Kreisstadt"},"district":{"key":"08118","name":"Ludwigsburg","type":"Landkreis"},"federalState":{"key":"08","name":"Baden-Württemberg"}},{"name":"Östlicher Parkweg","postalCode":"71642","locality":"Ludwigsburg","municipality":{"key":"08118048","name":"Ludwigsburg, Stadt","type":"Große_Kreisstadt"},"district":{"key":"08118","name":"Ludwigsburg","type":"Landkreis"},"federalState":{"key":"08","name":"Baden-Württemberg"}},{"name":"Überkinger Str.","postalCode":"71642","locality":"Ludwigsburg","municipality":{"key":"08118048","name":"Ludwigsburg, Stadt","type":"Große_Kreisstadt"},"district":{"key":"08118","name":"Ludwigsburg","type":"Landkreis"},"federalState":{"key":"08","name":"Baden-Württemberg"}},]