[{"name":"Ackerweg","postalCode":"48488","locality":"Emsbüren","municipality":{"key":"03454010","name":"Emsbüren","type":"Kreisangehörige_Gemeinde"},"district":{"key":"03454","name":"Emsland","type":"Landkreis"},"federalState":{"key":"03","name":"Niedersachsen"}},{"name":"Ahlde","postalCode":"48488","locality":"Emsbüren","municipality":{"key":"03454010","name":"Emsbüren","type":"Kreisangehörige_Gemeinde"},"district":{"key":"03454","name":"Emsland","type":"Landkreis"},"federalState":{"key":"03","name":"Niedersachsen"}},{"name":"Ahlder Str.","postalCode":"48488","locality":"Emsbüren","municipality":{"key":"03454010","name":"Emsbüren","type":"Kreisangehörige_Gemeinde"},"district":{"key":"03454","name":"Emsland","type":"Landkreis"},"federalState":{"key":"03","name":"Niedersachsen"}},{"name":"Ahornweg","postalCode":"48488","locality":"Emsbüren","municipality":{"key":"03454010","name":"Emsbüren","type":"Kreisangehörige_Gemeinde"},"district":{"key":"03454","name":"Emsland","type":"Landkreis"},"federalState":{"key":"03","name":"Niedersachsen"}},{"name":"Albert-Deitering-Str.","postalCode":"48488","locality":"Emsbüren","municipality":{"key":"03454010","name":"Emsbüren","type":"Kreisangehörige_Gemeinde"},"district":{"key":"03454","name":"Emsland","type":"Landkreis"},"federalState":{"key":"03","name":"Niedersachsen"}},{"name":"Alter Schulweg","postalCode":"48488","locality":"Emsbüren","municipality":{"key":"03454010","name":"Emsbüren","type":"Kreisangehörige_Gemeinde"},"district":{"key":"03454","name":"Emsland","type":"Landkreis"},"federalState":{"key":"03","name":"Niedersachsen"}},{"name":"Alte Steege","postalCode":"48488","locality":"Emsbüren","municipality":{"key":"03454010","name":"Emsbüren","type":"Kreisangehörige_Gemeinde"},"district":{"key":"03454","name":"Emsland","type":"Landkreis"},"federalState":{"key":"03","name":"Niedersachsen"}},{"name":"Am Bach","postalCode":"48488","locality":"Emsbüren","municipality":{"key":"03454010","name":"Emsbüren","type":"Kreisangehörige_Gemeinde"},"district":{"key":"03454","name":"Emsland","type":"Landkreis"},"federalState":{"key":"03","name":"Niedersachsen"}},{"name":"Am Bahndamm","postalCode":"48488","locality":"Emsbüren","municipality":{"key":"03454010","name":"Emsbüren","type":"Kreisangehörige_Gemeinde"},"district":{"key":"03454","name":"Emsland","type":"Landkreis"},"federalState":{"key":"03","name":"Niedersachsen"}},{"name":"Am Bauerngarten","postalCode":"48488","locality":"Emsbüren","municipality":{"key":"03454010","name":"Emsbüren","type":"Kreisangehörige_Gemeinde"},"district":{"key":"03454","name":"Emsland","type":"Landkreis"},"federalState":{"key":"03","name":"Niedersachsen"}},{"name":"Am Emstal","postalCode":"48488","locality":"Emsbüren","municipality":{"key":"03454010","name":"Emsbüren","type":"Kreisangehörige_Gemeinde"},"district":{"key":"03454","name":"Emsland","type":"Landkreis"},"federalState":{"key":"03","name":"Niedersachsen"}},{"name":"Am Erdberg","postalCode":"48488","locality":"Emsbüren","municipality":{"key":"03454010","name":"Emsbüren","type":"Kreisangehörige_Gemeinde"},"district":{"key":"03454","name":"Emsland","type":"Landkreis"},"federalState":{"key":"03","name":"Niedersachsen"}},{"name":"Am Falkenhorst","postalCode":"48488","locality":"Emsbüren","municipality":{"key":"03454010","name":"Emsbüren","type":"Kreisangehörige_Gemeinde"},"district":{"key":"03454","name":"Emsland","type":"Landkreis"},"federalState":{"key":"03","name":"Niedersachsen"}},{"name":"Am Feldkamp","postalCode":"48488","locality":"Emsbüren","municipality":{"key":"03454010","name":"Emsbüren","type":"Kreisangehörige_Gemeinde"},"district":{"key":"03454","name":"Emsland","type":"Landkreis"},"federalState":{"key":"03","name":"Niedersachsen"}},{"name":"Am Fleckenbach","postalCode":"48488","locality":"Emsbüren","municipality":{"key":"03454010","name":"Emsbüren","type":"Kreisangehörige_Gemeinde"},"district":{"key":"03454","name":"Emsland","type":"Landkreis"},"federalState":{"key":"03","name":"Niedersachsen"}},{"name":"Am Grünen Revier","postalCode":"48488","locality":"Emsbüren","municipality":{"key":"03454010","name":"Emsbüren","type":"Kreisangehörige_Gemeinde"},"district":{"key":"03454","name":"Emsland","type":"Landkreis"},"federalState":{"key":"03","name":"Niedersachsen"}},{"name":"Am Haferkamp","postalCode":"48488","locality":"Emsbüren","municipality":{"key":"03454010","name":"Emsbüren","type":"Kreisangehörige_Gemeinde"},"district":{"key":"03454","name":"Emsland","type":"Landkreis"},"federalState":{"key":"03","name":"Niedersachsen"}},{"name":"Am Heimathof","postalCode":"48488","locality":"Emsbüren","municipality":{"key":"03454010","name":"Emsbüren","type":"Kreisangehörige_Gemeinde"},"district":{"key":"03454","name":"Emsland","type":"Landkreis"},"federalState":{"key":"03","name":"Niedersachsen"}},{"name":"Am Kamp","postalCode":"48488","locality":"Emsbüren","municipality":{"key":"03454010","name":"Emsbüren","type":"Kreisangehörige_Gemeinde"},"district":{"key":"03454","name":"Emsland","type":"Landkreis"},"federalState":{"key":"03","name":"Niedersachsen"}},{"name":"Am Kirchplatz","postalCode":"48488","locality":"Emsbüren","municipality":{"key":"03454010","name":"Emsbüren","type":"Kreisangehörige_Gemeinde"},"district":{"key":"03454","name":"Emsland","type":"Landkreis"},"federalState":{"key":"03","name":"Niedersachsen"}},{"name":"Am Kräutergarten","postalCode":"48488","locality":"Emsbüren","municipality":{"key":"03454010","name":"Emsbüren","type":"Kreisangehörige_Gemeinde"},"district":{"key":"03454","name":"Emsland","type":"Landkreis"},"federalState":{"key":"03","name":"Niedersachsen"}},{"name":"Am Lohbach","postalCode":"48488","locality":"Emsbüren","municipality":{"key":"03454010","name":"Emsbüren","type":"Kreisangehörige_Gemeinde"},"district":{"key":"03454","name":"Emsland","type":"Landkreis"},"federalState":{"key":"03","name":"Niedersachsen"}},{"name":"Am Ludgerus","postalCode":"48488","locality":"Emsbüren","municipality":{"key":"03454010","name":"Emsbüren","type":"Kreisangehörige_Gemeinde"},"district":{"key":"03454","name":"Emsland","type":"Landkreis"},"federalState":{"key":"03","name":"Niedersachsen"}},{"name":"Am Nattenberg","postalCode":"48488","locality":"Emsbüren","municipality":{"key":"03454010","name":"Emsbüren","type":"Kreisangehörige_Gemeinde"},"district":{"key":"03454","name":"Emsland","type":"Landkreis"},"federalState":{"key":"03","name":"Niedersachsen"}},{"name":"Am Poschkeberg","postalCode":"48488","locality":"Emsbüren","municipality":{"key":"03454010","name":"Emsbüren","type":"Kreisangehörige_Gemeinde"},"district":{"key":"03454","name":"Emsland","type":"Landkreis"},"federalState":{"key":"03","name":"Niedersachsen"}},{"name":"Am Rampool","postalCode":"48488","locality":"Emsbüren","municipality":{"key":"03454010","name":"Emsbüren","type":"Kreisangehörige_Gemeinde"},"district":{"key":"03454","name":"Emsland","type":"Landkreis"},"federalState":{"key":"03","name":"Niedersachsen"}},{"name":"Am Santenkamp","postalCode":"48488","locality":"Emsbüren","municipality":{"key":"03454010","name":"Emsbüren","type":"Kreisangehörige_Gemeinde"},"district":{"key":"03454","name":"Emsland","type":"Landkreis"},"federalState":{"key":"03","name":"Niedersachsen"}},{"name":"Am Schmiedefeuer","postalCode":"48488","locality":"Emsbüren","municipality":{"key":"03454010","name":"Emsbüren","type":"Kreisangehörige_Gemeinde"},"district":{"key":"03454","name":"Emsland","type":"Landkreis"},"federalState":{"key":"03","name":"Niedersachsen"}},{"name":"Am Schüttenkamp","postalCode":"48488","locality":"Emsbüren","municipality":{"key":"03454010","name":"Emsbüren","type":"Kreisangehörige_Gemeinde"},"district":{"key":"03454","name":"Emsland","type":"Landkreis"},"federalState":{"key":"03","name":"Niedersachsen"}},{"name":"Am See","postalCode":"48488","locality":"Emsbüren","municipality":{"key":"03454010","name":"Emsbüren","type":"Kreisangehörige_Gemeinde"},"district":{"key":"03454","name":"Emsland","type":"Landkreis"},"federalState":{"key":"03","name":"Niedersachsen"}},{"name":"Amselweg","postalCode":"48488","locality":"Emsbüren","municipality":{"key":"03454010","name":"Emsbüren","type":"Kreisangehörige_Gemeinde"},"district":{"key":"03454","name":"Emsland","type":"Landkreis"},"federalState":{"key":"03","name":"Niedersachsen"}},{"name":"Am Spellberg","postalCode":"48488","locality":"Emsbüren","municipality":{"key":"03454010","name":"Emsbüren","type":"Kreisangehörige_Gemeinde"},"district":{"key":"03454","name":"Emsland","type":"Landkreis"},"federalState":{"key":"03","name":"Niedersachsen"}},{"name":"Am Steinkamp","postalCode":"48488","locality":"Emsbüren","municipality":{"key":"03454010","name":"Emsbüren","type":"Kreisangehörige_Gemeinde"},"district":{"key":"03454","name":"Emsland","type":"Landkreis"},"federalState":{"key":"03","name":"Niedersachsen"}},{"name":"Am Stillen Wasser","postalCode":"48488","locality":"Emsbüren","municipality":{"key":"03454010","name":"Emsbüren","type":"Kreisangehörige_Gemeinde"},"district":{"key":"03454","name":"Emsland","type":"Landkreis"},"federalState":{"key":"03","name":"Niedersachsen"}},{"name":"Am Uhlenkopp","postalCode":"48488","locality":"Emsbüren","municipality":{"key":"03454010","name":"Emsbüren","type":"Kreisangehörige_Gemeinde"},"district":{"key":"03454","name":"Emsland","type":"Landkreis"},"federalState":{"key":"03","name":"Niedersachsen"}},{"name":"Am Waldessaum","postalCode":"48488","locality":"Emsbüren","municipality":{"key":"03454010","name":"Emsbüren","type":"Kreisangehörige_Gemeinde"},"district":{"key":"03454","name":"Emsland","type":"Landkreis"},"federalState":{"key":"03","name":"Niedersachsen"}},{"name":"Am Wall","postalCode":"48488","locality":"Emsbüren","municipality":{"key":"03454010","name":"Emsbüren","type":"Kreisangehörige_Gemeinde"},"district":{"key":"03454","name":"Emsland","type":"Landkreis"},"federalState":{"key":"03","name":"Niedersachsen"}},{"name":"An der Aa","postalCode":"48488","locality":"Emsbüren","municipality":{"key":"03454010","name":"Emsbüren","type":"Kreisangehörige_Gemeinde"},"district":{"key":"03454","name":"Emsland","type":"Landkreis"},"federalState":{"key":"03","name":"Niedersachsen"}},{"name":"An der Gleesener Schule","postalCode":"48488","locality":"Emsbüren","municipality":{"key":"03454010","name":"Emsbüren","type":"Kreisangehörige_Gemeinde"},"district":{"key":"03454","name":"Emsland","type":"Landkreis"},"federalState":{"key":"03","name":"Niedersachsen"}},{"name":"An der Waldschule","postalCode":"48488","locality":"Emsbüren","municipality":{"key":"03454010","name":"Emsbüren","type":"Kreisangehörige_Gemeinde"},"district":{"key":"03454","name":"Emsland","type":"Landkreis"},"federalState":{"key":"03","name":"Niedersachsen"}},{"name":"Anglerpfad","postalCode":"48488","locality":"Emsbüren","municipality":{"key":"03454010","name":"Emsbüren","type":"Kreisangehörige_Gemeinde"},"district":{"key":"03454","name":"Emsland","type":"Landkreis"},"federalState":{"key":"03","name":"Niedersachsen"}},{"name":"Anisweg","postalCode":"48488","locality":"Emsbüren","municipality":{"key":"03454010","name":"Emsbüren","type":"Kreisangehörige_Gemeinde"},"district":{"key":"03454","name":"Emsland","type":"Landkreis"},"federalState":{"key":"03","name":"Niedersachsen"}},{"name":"Asternstr.","postalCode":"48488","locality":"Emsbüren","municipality":{"key":"03454010","name":"Emsbüren","type":"Kreisangehörige_Gemeinde"},"district":{"key":"03454","name":"Emsland","type":"Landkreis"},"federalState":{"key":"03","name":"Niedersachsen"}},{"name":"Auf dem Diek","postalCode":"48488","locality":"Emsbüren","municipality":{"key":"03454010","name":"Emsbüren","type":"Kreisangehörige_Gemeinde"},"district":{"key":"03454","name":"Emsland","type":"Landkreis"},"federalState":{"key":"03","name":"Niedersachsen"}},{"name":"Auf dem Hügel","postalCode":"48488","locality":"Emsbüren","municipality":{"key":"03454010","name":"Emsbüren","type":"Kreisangehörige_Gemeinde"},"district":{"key":"03454","name":"Emsland","type":"Landkreis"},"federalState":{"key":"03","name":"Niedersachsen"}},{"name":"Auf der Haar","postalCode":"48488","locality":"Emsbüren","municipality":{"key":"03454010","name":"Emsbüren","type":"Kreisangehörige_Gemeinde"},"district":{"key":"03454","name":"Emsland","type":"Landkreis"},"federalState":{"key":"03","name":"Niedersachsen"}},{"name":"Auf der Worte","postalCode":"48488","locality":"Emsbüren","municipality":{"key":"03454010","name":"Emsbüren","type":"Kreisangehörige_Gemeinde"},"district":{"key":"03454","name":"Emsland","type":"Landkreis"},"federalState":{"key":"03","name":"Niedersachsen"}},{"name":"Bahnhofstr.","postalCode":"48488","locality":"Emsbüren","municipality":{"key":"03454010","name":"Emsbüren","type":"Kreisangehörige_Gemeinde"},"district":{"key":"03454","name":"Emsland","type":"Landkreis"},"federalState":{"key":"03","name":"Niedersachsen"}},{"name":"Basilikumstr.","postalCode":"48488","locality":"Emsbüren","municipality":{"key":"03454010","name":"Emsbüren","type":"Kreisangehörige_Gemeinde"},"district":{"key":"03454","name":"Emsland","type":"Landkreis"},"federalState":{"key":"03","name":"Niedersachsen"}},{"name":"Benzstr.","postalCode":"48488","locality":"Emsbüren","municipality":{"key":"03454010","name":"Emsbüren","type":"Kreisangehörige_Gemeinde"},"district":{"key":"03454","name":"Emsland","type":"Landkreis"},"federalState":{"key":"03","name":"Niedersachsen"}},{"name":"Bernte","postalCode":"48488","locality":"Emsbüren","municipality":{"key":"03454010","name":"Emsbüren","type":"Kreisangehörige_Gemeinde"},"district":{"key":"03454","name":"Emsland","type":"Landkreis"},"federalState":{"key":"03","name":"Niedersachsen"}},{"name":"Bernte 32","postalCode":"48488","locality":"Emsbüren","municipality":{"key":"03454010","name":"Emsbüren","type":"Kreisangehörige_Gemeinde"},"district":{"key":"03454","name":"Emsland","type":"Landkreis"},"federalState":{"key":"03","name":"Niedersachsen"}},{"name":"Binsenweg","postalCode":"48488","locality":"Emsbüren","municipality":{"key":"03454010","name":"Emsbüren","type":"Kreisangehörige_Gemeinde"},"district":{"key":"03454","name":"Emsland","type":"Landkreis"},"federalState":{"key":"03","name":"Niedersachsen"}},{"name":"Birkenstr.","postalCode":"48488","locality":"Emsbüren","municipality":{"key":"03454010","name":"Emsbüren","type":"Kreisangehörige_Gemeinde"},"district":{"key":"03454","name":"Emsland","type":"Landkreis"},"federalState":{"key":"03","name":"Niedersachsen"}},{"name":"Bleßhuhnstr.","postalCode":"48488","locality":"Emsbüren","municipality":{"key":"03454010","name":"Emsbüren","type":"Kreisangehörige_Gemeinde"},"district":{"key":"03454","name":"Emsland","type":"Landkreis"},"federalState":{"key":"03","name":"Niedersachsen"}},{"name":"Boombrede","postalCode":"48488","locality":"Emsbüren","municipality":{"key":"03454010","name":"Emsbüren","type":"Kreisangehörige_Gemeinde"},"district":{"key":"03454","name":"Emsland","type":"Landkreis"},"federalState":{"key":"03","name":"Niedersachsen"}},{"name":"Borkenweg","postalCode":"48488","locality":"Emsbüren","municipality":{"key":"03454010","name":"Emsbüren","type":"Kreisangehörige_Gemeinde"},"district":{"key":"03454","name":"Emsland","type":"Landkreis"},"federalState":{"key":"03","name":"Niedersachsen"}},{"name":"Bovenberge","postalCode":"48488","locality":"Emsbüren","municipality":{"key":"03454010","name":"Emsbüren","type":"Kreisangehörige_Gemeinde"},"district":{"key":"03454","name":"Emsland","type":"Landkreis"},"federalState":{"key":"03","name":"Niedersachsen"}},{"name":"Bramscher Str.","postalCode":"48488","locality":"Emsbüren","municipality":{"key":"03454010","name":"Emsbüren","type":"Kreisangehörige_Gemeinde"},"district":{"key":"03454","name":"Emsland","type":"Landkreis"},"federalState":{"key":"03","name":"Niedersachsen"}},{"name":"Brombeerweg","postalCode":"48488","locality":"Emsbüren","municipality":{"key":"03454010","name":"Emsbüren","type":"Kreisangehörige_Gemeinde"},"district":{"key":"03454","name":"Emsland","type":"Landkreis"},"federalState":{"key":"03","name":"Niedersachsen"}},{"name":"Brunnenweg","postalCode":"48488","locality":"Emsbüren","municipality":{"key":"03454010","name":"Emsbüren","type":"Kreisangehörige_Gemeinde"},"district":{"key":"03454","name":"Emsland","type":"Landkreis"},"federalState":{"key":"03","name":"Niedersachsen"}},{"name":"Buchenweg","postalCode":"48488","locality":"Emsbüren","municipality":{"key":"03454010","name":"Emsbüren","type":"Kreisangehörige_Gemeinde"},"district":{"key":"03454","name":"Emsland","type":"Landkreis"},"federalState":{"key":"03","name":"Niedersachsen"}},{"name":"Bürgermeister-Korte-Weg","postalCode":"48488","locality":"Emsbüren","municipality":{"key":"03454010","name":"Emsbüren","type":"Kreisangehörige_Gemeinde"},"district":{"key":"03454","name":"Emsland","type":"Landkreis"},"federalState":{"key":"03","name":"Niedersachsen"}},{"name":"Buschweg","postalCode":"48488","locality":"Emsbüren","municipality":{"key":"03454010","name":"Emsbüren","type":"Kreisangehörige_Gemeinde"},"district":{"key":"03454","name":"Emsland","type":"Landkreis"},"federalState":{"key":"03","name":"Niedersachsen"}},{"name":"Bussardhöhe","postalCode":"48488","locality":"Emsbüren","municipality":{"key":"03454010","name":"Emsbüren","type":"Kreisangehörige_Gemeinde"},"district":{"key":"03454","name":"Emsland","type":"Landkreis"},"federalState":{"key":"03","name":"Niedersachsen"}},{"name":"Dahlhok","postalCode":"48488","locality":"Emsbüren","municipality":{"key":"03454010","name":"Emsbüren","type":"Kreisangehörige_Gemeinde"},"district":{"key":"03454","name":"Emsland","type":"Landkreis"},"federalState":{"key":"03","name":"Niedersachsen"}},{"name":"Dahlienstr.","postalCode":"48488","locality":"Emsbüren","municipality":{"key":"03454010","name":"Emsbüren","type":"Kreisangehörige_Gemeinde"},"district":{"key":"03454","name":"Emsland","type":"Landkreis"},"federalState":{"key":"03","name":"Niedersachsen"}},{"name":"Deutzstr.","postalCode":"48488","locality":"Emsbüren","municipality":{"key":"03454010","name":"Emsbüren","type":"Kreisangehörige_Gemeinde"},"district":{"key":"03454","name":"Emsland","type":"Landkreis"},"federalState":{"key":"03","name":"Niedersachsen"}},{"name":"Dieselstr.","postalCode":"48488","locality":"Emsbüren","municipality":{"key":"03454010","name":"Emsbüren","type":"Kreisangehörige_Gemeinde"},"district":{"key":"03454","name":"Emsland","type":"Landkreis"},"federalState":{"key":"03","name":"Niedersachsen"}},{"name":"Dillen Drey","postalCode":"48488","locality":"Emsbüren","municipality":{"key":"03454010","name":"Emsbüren","type":"Kreisangehörige_Gemeinde"},"district":{"key":"03454","name":"Emsland","type":"Landkreis"},"federalState":{"key":"03","name":"Niedersachsen"}},{"name":"Dillweg","postalCode":"48488","locality":"Emsbüren","municipality":{"key":"03454010","name":"Emsbüren","type":"Kreisangehörige_Gemeinde"},"district":{"key":"03454","name":"Emsland","type":"Landkreis"},"federalState":{"key":"03","name":"Niedersachsen"}},{"name":"Dorfstr.","postalCode":"48488","locality":"Emsbüren","municipality":{"key":"03454010","name":"Emsbüren","type":"Kreisangehörige_Gemeinde"},"district":{"key":"03454","name":"Emsland","type":"Landkreis"},"federalState":{"key":"03","name":"Niedersachsen"}},{"name":"Drievordener Diek","postalCode":"48488","locality":"Emsbüren","municipality":{"key":"03454010","name":"Emsbüren","type":"Kreisangehörige_Gemeinde"},"district":{"key":"03454","name":"Emsland","type":"Landkreis"},"federalState":{"key":"03","name":"Niedersachsen"}},{"name":"Drievordener Str.","postalCode":"48488","locality":"Emsbüren","municipality":{"key":"03454010","name":"Emsbüren","type":"Kreisangehörige_Gemeinde"},"district":{"key":"03454","name":"Emsland","type":"Landkreis"},"federalState":{"key":"03","name":"Niedersachsen"}},{"name":"Eichendorffstr.","postalCode":"48488","locality":"Emsbüren","municipality":{"key":"03454010","name":"Emsbüren","type":"Kreisangehörige_Gemeinde"},"district":{"key":"03454","name":"Emsland","type":"Landkreis"},"federalState":{"key":"03","name":"Niedersachsen"}},{"name":"Eichenstr.","postalCode":"48488","locality":"Emsbüren","municipality":{"key":"03454010","name":"Emsbüren","type":"Kreisangehörige_Gemeinde"},"district":{"key":"03454","name":"Emsland","type":"Landkreis"},"federalState":{"key":"03","name":"Niedersachsen"}},{"name":"Elbergen","postalCode":"48488","locality":"Emsbüren","municipality":{"key":"03454010","name":"Emsbüren","type":"Kreisangehörige_Gemeinde"},"district":{"key":"03454","name":"Emsland","type":"Landkreis"},"federalState":{"key":"03","name":"Niedersachsen"}},{"name":"Elisabeth-Bertling-Str.","postalCode":"48488","locality":"Emsbüren","municipality":{"key":"03454010","name":"Emsbüren","type":"Kreisangehörige_Gemeinde"},"district":{"key":"03454","name":"Emsland","type":"Landkreis"},"federalState":{"key":"03","name":"Niedersachsen"}},{"name":"Elisabethstr.","postalCode":"48488","locality":"Emsbüren","municipality":{"key":"03454010","name":"Emsbüren","type":"Kreisangehörige_Gemeinde"},"district":{"key":"03454","name":"Emsland","type":"Landkreis"},"federalState":{"key":"03","name":"Niedersachsen"}},{"name":"Elsterweg","postalCode":"48488","locality":"Emsbüren","municipality":{"key":"03454010","name":"Emsbüren","type":"Kreisangehörige_Gemeinde"},"district":{"key":"03454","name":"Emsland","type":"Landkreis"},"federalState":{"key":"03","name":"Niedersachsen"}},{"name":"Ems-Au","postalCode":"48488","locality":"Emsbüren","municipality":{"key":"03454010","name":"Emsbüren","type":"Kreisangehörige_Gemeinde"},"district":{"key":"03454","name":"Emsland","type":"Landkreis"},"federalState":{"key":"03","name":"Niedersachsen"}},{"name":"Emsblick","postalCode":"48488","locality":"Emsbüren","municipality":{"key":"03454010","name":"Emsbüren","type":"Kreisangehörige_Gemeinde"},"district":{"key":"03454","name":"Emsland","type":"Landkreis"},"federalState":{"key":"03","name":"Niedersachsen"}},{"name":"Emsflach","postalCode":"48488","locality":"Emsbüren","municipality":{"key":"03454010","name":"Emsbüren","type":"Kreisangehörige_Gemeinde"},"district":{"key":"03454","name":"Emsland","type":"Landkreis"},"federalState":{"key":"03","name":"Niedersachsen"}},{"name":"Emskämpe","postalCode":"48488","locality":"Emsbüren","municipality":{"key":"03454010","name":"Emsbüren","type":"Kreisangehörige_Gemeinde"},"district":{"key":"03454","name":"Emsland","type":"Landkreis"},"federalState":{"key":"03","name":"Niedersachsen"}},{"name":"Emsstr.","postalCode":"48488","locality":"Emsbüren","municipality":{"key":"03454010","name":"Emsbüren","type":"Kreisangehörige_Gemeinde"},"district":{"key":"03454","name":"Emsland","type":"Landkreis"},"federalState":{"key":"03","name":"Niedersachsen"}},{"name":"Erikaweg","postalCode":"48488","locality":"Emsbüren","municipality":{"key":"03454010","name":"Emsbüren","type":"Kreisangehörige_Gemeinde"},"district":{"key":"03454","name":"Emsland","type":"Landkreis"},"federalState":{"key":"03","name":"Niedersachsen"}},{"name":"Erlenweg","postalCode":"48488","locality":"Emsbüren","municipality":{"key":"03454010","name":"Emsbüren","type":"Kreisangehörige_Gemeinde"},"district":{"key":"03454","name":"Emsland","type":"Landkreis"},"federalState":{"key":"03","name":"Niedersachsen"}},{"name":"Eschstr.","postalCode":"48488","locality":"Emsbüren","municipality":{"key":"03454010","name":"Emsbüren","type":"Kreisangehörige_Gemeinde"},"district":{"key":"03454","name":"Emsland","type":"Landkreis"},"federalState":{"key":"03","name":"Niedersachsen"}},{"name":"Espenweg","postalCode":"48488","locality":"Emsbüren","municipality":{"key":"03454010","name":"Emsbüren","type":"Kreisangehörige_Gemeinde"},"district":{"key":"03454","name":"Emsland","type":"Landkreis"},"federalState":{"key":"03","name":"Niedersachsen"}},{"name":"Falkenweg","postalCode":"48488","locality":"Emsbüren","municipality":{"key":"03454010","name":"Emsbüren","type":"Kreisangehörige_Gemeinde"},"district":{"key":"03454","name":"Emsland","type":"Landkreis"},"federalState":{"key":"03","name":"Niedersachsen"}},{"name":"Fasanenweg","postalCode":"48488","locality":"Emsbüren","municipality":{"key":"03454010","name":"Emsbüren","type":"Kreisangehörige_Gemeinde"},"district":{"key":"03454","name":"Emsland","type":"Landkreis"},"federalState":{"key":"03","name":"Niedersachsen"}},{"name":"Feldkampweg","postalCode":"48488","locality":"Emsbüren","municipality":{"key":"03454010","name":"Emsbüren","type":"Kreisangehörige_Gemeinde"},"district":{"key":"03454","name":"Emsland","type":"Landkreis"},"federalState":{"key":"03","name":"Niedersachsen"}},{"name":"Feldstr.","postalCode":"48488","locality":"Emsbüren","municipality":{"key":"03454010","name":"Emsbüren","type":"Kreisangehörige_Gemeinde"},"district":{"key":"03454","name":"Emsland","type":"Landkreis"},"federalState":{"key":"03","name":"Niedersachsen"}},{"name":"Fenchelweg","postalCode":"48488","locality":"Emsbüren","municipality":{"key":"03454010","name":"Emsbüren","type":"Kreisangehörige_Gemeinde"},"district":{"key":"03454","name":"Emsland","type":"Landkreis"},"federalState":{"key":"03","name":"Niedersachsen"}},{"name":"Fenna-Weg","postalCode":"48488","locality":"Emsbüren","municipality":{"key":"03454010","name":"Emsbüren","type":"Kreisangehörige_Gemeinde"},"district":{"key":"03454","name":"Emsland","type":"Landkreis"},"federalState":{"key":"03","name":"Niedersachsen"}},{"name":"Finkenweg","postalCode":"48488","locality":"Emsbüren","municipality":{"key":"03454010","name":"Emsbüren","type":"Kreisangehörige_Gemeinde"},"district":{"key":"03454","name":"Emsland","type":"Landkreis"},"federalState":{"key":"03","name":"Niedersachsen"}},{"name":"Fischerweg","postalCode":"48488","locality":"Emsbüren","municipality":{"key":"03454010","name":"Emsbüren","type":"Kreisangehörige_Gemeinde"},"district":{"key":"03454","name":"Emsland","type":"Landkreis"},"federalState":{"key":"03","name":"Niedersachsen"}},{"name":"Fleckenweg","postalCode":"48488","locality":"Emsbüren","municipality":{"key":"03454010","name":"Emsbüren","type":"Kreisangehörige_Gemeinde"},"district":{"key":"03454","name":"Emsland","type":"Landkreis"},"federalState":{"key":"03","name":"Niedersachsen"}},{"name":"Fliederstr.","postalCode":"48488","locality":"Emsbüren","municipality":{"key":"03454010","name":"Emsbüren","type":"Kreisangehörige_Gemeinde"},"district":{"key":"03454","name":"Emsland","type":"Landkreis"},"federalState":{"key":"03","name":"Niedersachsen"}},{"name":"Forstweg","postalCode":"48488","locality":"Emsbüren","municipality":{"key":"03454010","name":"Emsbüren","type":"Kreisangehörige_Gemeinde"},"district":{"key":"03454","name":"Emsland","type":"Landkreis"},"federalState":{"key":"03","name":"Niedersachsen"}},{"name":"Franz-Silies-Str.","postalCode":"48488","locality":"Emsbüren","municipality":{"key":"03454010","name":"Emsbüren","type":"Kreisangehörige_Gemeinde"},"district":{"key":"03454","name":"Emsland","type":"Landkreis"},"federalState":{"key":"03","name":"Niedersachsen"}},{"name":"Fuchsienweg","postalCode":"48488","locality":"Emsbüren","municipality":{"key":"03454010","name":"Emsbüren","type":"Kreisangehörige_Gemeinde"},"district":{"key":"03454","name":"Emsland","type":"Landkreis"},"federalState":{"key":"03","name":"Niedersachsen"}},{"name":"Fuchspfad","postalCode":"48488","locality":"Emsbüren","municipality":{"key":"03454010","name":"Emsbüren","type":"Kreisangehörige_Gemeinde"},"district":{"key":"03454","name":"Emsland","type":"Landkreis"},"federalState":{"key":"03","name":"Niedersachsen"}},{"name":"Gartenweg","postalCode":"48488","locality":"Emsbüren","municipality":{"key":"03454010","name":"Emsbüren","type":"Kreisangehörige_Gemeinde"},"district":{"key":"03454","name":"Emsland","type":"Landkreis"},"federalState":{"key":"03","name":"Niedersachsen"}},{"name":"Geranienweg","postalCode":"48488","locality":"Emsbüren","municipality":{"key":"03454010","name":"Emsbüren","type":"Kreisangehörige_Gemeinde"},"district":{"key":"03454","name":"Emsland","type":"Landkreis"},"federalState":{"key":"03","name":"Niedersachsen"}},{"name":"Gerstenweg","postalCode":"48488","locality":"Emsbüren","municipality":{"key":"03454010","name":"Emsbüren","type":"Kreisangehörige_Gemeinde"},"district":{"key":"03454","name":"Emsland","type":"Landkreis"},"federalState":{"key":"03","name":"Niedersachsen"}},{"name":"Ginsterweg","postalCode":"48488","locality":"Emsbüren","municipality":{"key":"03454010","name":"Emsbüren","type":"Kreisangehörige_Gemeinde"},"district":{"key":"03454","name":"Emsland","type":"Landkreis"},"federalState":{"key":"03","name":"Niedersachsen"}},{"name":"Glatzer Str.","postalCode":"48488","locality":"Emsbüren","municipality":{"key":"03454010","name":"Emsbüren","type":"Kreisangehörige_Gemeinde"},"district":{"key":"03454","name":"Emsland","type":"Landkreis"},"federalState":{"key":"03","name":"Niedersachsen"}},{"name":"Gleisweg","postalCode":"48488","locality":"Emsbüren","municipality":{"key":"03454010","name":"Emsbüren","type":"Kreisangehörige_Gemeinde"},"district":{"key":"03454","name":"Emsland","type":"Landkreis"},"federalState":{"key":"03","name":"Niedersachsen"}},{"name":"Grabenweg","postalCode":"48488","locality":"Emsbüren","municipality":{"key":"03454010","name":"Emsbüren","type":"Kreisangehörige_Gemeinde"},"district":{"key":"03454","name":"Emsland","type":"Landkreis"},"federalState":{"key":"03","name":"Niedersachsen"}},{"name":"Grenzstr.","postalCode":"48488","locality":"Emsbüren","municipality":{"key":"03454010","name":"Emsbüren","type":"Kreisangehörige_Gemeinde"},"district":{"key":"03454","name":"Emsland","type":"Landkreis"},"federalState":{"key":"03","name":"Niedersachsen"}},{"name":"Haagenkamp","postalCode":"48488","locality":"Emsbüren","municipality":{"key":"03454010","name":"Emsbüren","type":"Kreisangehörige_Gemeinde"},"district":{"key":"03454","name":"Emsland","type":"Landkreis"},"federalState":{"key":"03","name":"Niedersachsen"}},{"name":"Habichtsweg","postalCode":"48488","locality":"Emsbüren","municipality":{"key":"03454010","name":"Emsbüren","type":"Kreisangehörige_Gemeinde"},"district":{"key":"03454","name":"Emsland","type":"Landkreis"},"federalState":{"key":"03","name":"Niedersachsen"}},{"name":"Hanwischer Höhe","postalCode":"48488","locality":"Emsbüren","municipality":{"key":"03454010","name":"Emsbüren","type":"Kreisangehörige_Gemeinde"},"district":{"key":"03454","name":"Emsland","type":"Landkreis"},"federalState":{"key":"03","name":"Niedersachsen"}},{"name":"Hanwische Str.","postalCode":"48488","locality":"Emsbüren","municipality":{"key":"03454010","name":"Emsbüren","type":"Kreisangehörige_Gemeinde"},"district":{"key":"03454","name":"Emsland","type":"Landkreis"},"federalState":{"key":"03","name":"Niedersachsen"}},{"name":"Haverlandweg","postalCode":"48488","locality":"Emsbüren","municipality":{"key":"03454010","name":"Emsbüren","type":"Kreisangehörige_Gemeinde"},"district":{"key":"03454","name":"Emsland","type":"Landkreis"},"federalState":{"key":"03","name":"Niedersachsen"}},{"name":"Hedwigstr.","postalCode":"48488","locality":"Emsbüren","municipality":{"key":"03454010","name":"Emsbüren","type":"Kreisangehörige_Gemeinde"},"district":{"key":"03454","name":"Emsland","type":"Landkreis"},"federalState":{"key":"03","name":"Niedersachsen"}},{"name":"Heidelbeerweg","postalCode":"48488","locality":"Emsbüren","municipality":{"key":"03454010","name":"Emsbüren","type":"Kreisangehörige_Gemeinde"},"district":{"key":"03454","name":"Emsland","type":"Landkreis"},"federalState":{"key":"03","name":"Niedersachsen"}},{"name":"Heideweg","postalCode":"48488","locality":"Emsbüren","municipality":{"key":"03454010","name":"Emsbüren","type":"Kreisangehörige_Gemeinde"},"district":{"key":"03454","name":"Emsland","type":"Landkreis"},"federalState":{"key":"03","name":"Niedersachsen"}},{"name":"Heie","postalCode":"48488","locality":"Emsbüren","municipality":{"key":"03454010","name":"Emsbüren","type":"Kreisangehörige_Gemeinde"},"district":{"key":"03454","name":"Emsland","type":"Landkreis"},"federalState":{"key":"03","name":"Niedersachsen"}},{"name":"Helschen","postalCode":"48488","locality":"Emsbüren","municipality":{"key":"03454010","name":"Emsbüren","type":"Kreisangehörige_Gemeinde"},"district":{"key":"03454","name":"Emsland","type":"Landkreis"},"federalState":{"key":"03","name":"Niedersachsen"}},{"name":"Helschener Str.","postalCode":"48488","locality":"Emsbüren","municipality":{"key":"03454010","name":"Emsbüren","type":"Kreisangehörige_Gemeinde"},"district":{"key":"03454","name":"Emsland","type":"Landkreis"},"federalState":{"key":"03","name":"Niedersachsen"}},{"name":"Heßbergstr.","postalCode":"48488","locality":"Emsbüren","municipality":{"key":"03454010","name":"Emsbüren","type":"Kreisangehörige_Gemeinde"},"district":{"key":"03454","name":"Emsland","type":"Landkreis"},"federalState":{"key":"03","name":"Niedersachsen"}},{"name":"Hesselte","postalCode":"48488","locality":"Emsbüren","municipality":{"key":"03454010","name":"Emsbüren","type":"Kreisangehörige_Gemeinde"},"district":{"key":"03454","name":"Emsland","type":"Landkreis"},"federalState":{"key":"03","name":"Niedersachsen"}},{"name":"Himbeerweg","postalCode":"48488","locality":"Emsbüren","municipality":{"key":"03454010","name":"Emsbüren","type":"Kreisangehörige_Gemeinde"},"district":{"key":"03454","name":"Emsland","type":"Landkreis"},"federalState":{"key":"03","name":"Niedersachsen"}},{"name":"Hinter Quaings Hof","postalCode":"48488","locality":"Emsbüren","municipality":{"key":"03454010","name":"Emsbüren","type":"Kreisangehörige_Gemeinde"},"district":{"key":"03454","name":"Emsland","type":"Landkreis"},"federalState":{"key":"03","name":"Niedersachsen"}},{"name":"Hövelsstr.","postalCode":"48488","locality":"Emsbüren","municipality":{"key":"03454010","name":"Emsbüren","type":"Kreisangehörige_Gemeinde"},"district":{"key":"03454","name":"Emsland","type":"Landkreis"},"federalState":{"key":"03","name":"Niedersachsen"}},{"name":"Hügeleschweg","postalCode":"48488","locality":"Emsbüren","municipality":{"key":"03454010","name":"Emsbüren","type":"Kreisangehörige_Gemeinde"},"district":{"key":"03454","name":"Emsland","type":"Landkreis"},"federalState":{"key":"03","name":"Niedersachsen"}},{"name":"Hülskrabbenweg","postalCode":"48488","locality":"Emsbüren","municipality":{"key":"03454010","name":"Emsbüren","type":"Kreisangehörige_Gemeinde"},"district":{"key":"03454","name":"Emsland","type":"Landkreis"},"federalState":{"key":"03","name":"Niedersachsen"}},{"name":"Humboldtstr.","postalCode":"48488","locality":"Emsbüren","municipality":{"key":"03454010","name":"Emsbüren","type":"Kreisangehörige_Gemeinde"},"district":{"key":"03454","name":"Emsland","type":"Landkreis"},"federalState":{"key":"03","name":"Niedersachsen"}},{"name":"Im Dunkern","postalCode":"48488","locality":"Emsbüren","municipality":{"key":"03454010","name":"Emsbüren","type":"Kreisangehörige_Gemeinde"},"district":{"key":"03454","name":"Emsland","type":"Landkreis"},"federalState":{"key":"03","name":"Niedersachsen"}},{"name":"Im Eichenbusch","postalCode":"48488","locality":"Emsbüren","municipality":{"key":"03454010","name":"Emsbüren","type":"Kreisangehörige_Gemeinde"},"district":{"key":"03454","name":"Emsland","type":"Landkreis"},"federalState":{"key":"03","name":"Niedersachsen"}},{"name":"Im Emshook","postalCode":"48488","locality":"Emsbüren","municipality":{"key":"03454010","name":"Emsbüren","type":"Kreisangehörige_Gemeinde"},"district":{"key":"03454","name":"Emsland","type":"Landkreis"},"federalState":{"key":"03","name":"Niedersachsen"}},{"name":"Im Gartenfeld","postalCode":"48488","locality":"Emsbüren","municipality":{"key":"03454010","name":"Emsbüren","type":"Kreisangehörige_Gemeinde"},"district":{"key":"03454","name":"Emsland","type":"Landkreis"},"federalState":{"key":"03","name":"Niedersachsen"}},{"name":"Im Hagen","postalCode":"48488","locality":"Emsbüren","municipality":{"key":"03454010","name":"Emsbüren","type":"Kreisangehörige_Gemeinde"},"district":{"key":"03454","name":"Emsland","type":"Landkreis"},"federalState":{"key":"03","name":"Niedersachsen"}},{"name":"Immenweg","postalCode":"48488","locality":"Emsbüren","municipality":{"key":"03454010","name":"Emsbüren","type":"Kreisangehörige_Gemeinde"},"district":{"key":"03454","name":"Emsland","type":"Landkreis"},"federalState":{"key":"03","name":"Niedersachsen"}},{"name":"Im Rehwinkel","postalCode":"48488","locality":"Emsbüren","municipality":{"key":"03454010","name":"Emsbüren","type":"Kreisangehörige_Gemeinde"},"district":{"key":"03454","name":"Emsland","type":"Landkreis"},"federalState":{"key":"03","name":"Niedersachsen"}},{"name":"Im Windfeld","postalCode":"48488","locality":"Emsbüren","municipality":{"key":"03454010","name":"Emsbüren","type":"Kreisangehörige_Gemeinde"},"district":{"key":"03454","name":"Emsland","type":"Landkreis"},"federalState":{"key":"03","name":"Niedersachsen"}},{"name":"In den Gärten","postalCode":"48488","locality":"Emsbüren","municipality":{"key":"03454010","name":"Emsbüren","type":"Kreisangehörige_Gemeinde"},"district":{"key":"03454","name":"Emsland","type":"Landkreis"},"federalState":{"key":"03","name":"Niedersachsen"}},{"name":"In den Tannen","postalCode":"48488","locality":"Emsbüren","municipality":{"key":"03454010","name":"Emsbüren","type":"Kreisangehörige_Gemeinde"},"district":{"key":"03454","name":"Emsland","type":"Landkreis"},"federalState":{"key":"03","name":"Niedersachsen"}},{"name":"In der Maate","postalCode":"48488","locality":"Emsbüren","municipality":{"key":"03454010","name":"Emsbüren","type":"Kreisangehörige_Gemeinde"},"district":{"key":"03454","name":"Emsland","type":"Landkreis"},"federalState":{"key":"03","name":"Niedersachsen"}},{"name":"In der Stroote","postalCode":"48488","locality":"Emsbüren","municipality":{"key":"03454010","name":"Emsbüren","type":"Kreisangehörige_Gemeinde"},"district":{"key":"03454","name":"Emsland","type":"Landkreis"},"federalState":{"key":"03","name":"Niedersachsen"}},{"name":"Industriestr.","postalCode":"48488","locality":"Emsbüren","municipality":{"key":"03454010","name":"Emsbüren","type":"Kreisangehörige_Gemeinde"},"district":{"key":"03454","name":"Emsland","type":"Landkreis"},"federalState":{"key":"03","name":"Niedersachsen"}},{"name":"Johannisbeerweg","postalCode":"48488","locality":"Emsbüren","municipality":{"key":"03454010","name":"Emsbüren","type":"Kreisangehörige_Gemeinde"},"district":{"key":"03454","name":"Emsland","type":"Landkreis"},"federalState":{"key":"03","name":"Niedersachsen"}},{"name":"Josef-Krämer-Str.","postalCode":"48488","locality":"Emsbüren","municipality":{"key":"03454010","name":"Emsbüren","type":"Kreisangehörige_Gemeinde"},"district":{"key":"03454","name":"Emsland","type":"Landkreis"},"federalState":{"key":"03","name":"Niedersachsen"}},{"name":"Josef-Rothkötter-Str.","postalCode":"48488","locality":"Emsbüren","municipality":{"key":"03454010","name":"Emsbüren","type":"Kreisangehörige_Gemeinde"},"district":{"key":"03454","name":"Emsland","type":"Landkreis"},"federalState":{"key":"03","name":"Niedersachsen"}},{"name":"Josef-Tiesmeyer-Str.","postalCode":"48488","locality":"Emsbüren","municipality":{"key":"03454010","name":"Emsbüren","type":"Kreisangehörige_Gemeinde"},"district":{"key":"03454","name":"Emsland","type":"Landkreis"},"federalState":{"key":"03","name":"Niedersachsen"}},{"name":"Kamillenweg","postalCode":"48488","locality":"Emsbüren","municipality":{"key":"03454010","name":"Emsbüren","type":"Kreisangehörige_Gemeinde"},"district":{"key":"03454","name":"Emsland","type":"Landkreis"},"federalState":{"key":"03","name":"Niedersachsen"}},{"name":"Karolienstr.","postalCode":"48488","locality":"Emsbüren","municipality":{"key":"03454010","name":"Emsbüren","type":"Kreisangehörige_Gemeinde"},"district":{"key":"03454","name":"Emsland","type":"Landkreis"},"federalState":{"key":"03","name":"Niedersachsen"}},{"name":"Kerbelweg","postalCode":"48488","locality":"Emsbüren","municipality":{"key":"03454010","name":"Emsbüren","type":"Kreisangehörige_Gemeinde"},"district":{"key":"03454","name":"Emsland","type":"Landkreis"},"federalState":{"key":"03","name":"Niedersachsen"}},{"name":"Kespelweg","postalCode":"48488","locality":"Emsbüren","municipality":{"key":"03454010","name":"Emsbüren","type":"Kreisangehörige_Gemeinde"},"district":{"key":"03454","name":"Emsland","type":"Landkreis"},"federalState":{"key":"03","name":"Niedersachsen"}},{"name":"Kiebitzstr.","postalCode":"48488","locality":"Emsbüren","municipality":{"key":"03454010","name":"Emsbüren","type":"Kreisangehörige_Gemeinde"},"district":{"key":"03454","name":"Emsland","type":"Landkreis"},"federalState":{"key":"03","name":"Niedersachsen"}},{"name":"Kieselstr.","postalCode":"48488","locality":"Emsbüren","municipality":{"key":"03454010","name":"Emsbüren","type":"Kreisangehörige_Gemeinde"},"district":{"key":"03454","name":"Emsland","type":"Landkreis"},"federalState":{"key":"03","name":"Niedersachsen"}},{"name":"Kornblumenstr.","postalCode":"48488","locality":"Emsbüren","municipality":{"key":"03454010","name":"Emsbüren","type":"Kreisangehörige_Gemeinde"},"district":{"key":"03454","name":"Emsland","type":"Landkreis"},"federalState":{"key":"03","name":"Niedersachsen"}},{"name":"Kostverloren","postalCode":"48488","locality":"Emsbüren","municipality":{"key":"03454010","name":"Emsbüren","type":"Kreisangehörige_Gemeinde"},"district":{"key":"03454","name":"Emsland","type":"Landkreis"},"federalState":{"key":"03","name":"Niedersachsen"}},{"name":"Kräuterstr.","postalCode":"48488","locality":"Emsbüren","municipality":{"key":"03454010","name":"Emsbüren","type":"Kreisangehörige_Gemeinde"},"district":{"key":"03454","name":"Emsland","type":"Landkreis"},"federalState":{"key":"03","name":"Niedersachsen"}},{"name":"Kuhm","postalCode":"48488","locality":"Emsbüren","municipality":{"key":"03454010","name":"Emsbüren","type":"Kreisangehörige_Gemeinde"},"district":{"key":"03454","name":"Emsland","type":"Landkreis"},"federalState":{"key":"03","name":"Niedersachsen"}},{"name":"Kunkemühlenweg","postalCode":"48488","locality":"Emsbüren","municipality":{"key":"03454010","name":"Emsbüren","type":"Kreisangehörige_Gemeinde"},"district":{"key":"03454","name":"Emsland","type":"Landkreis"},"federalState":{"key":"03","name":"Niedersachsen"}},{"name":"Lambertiweg","postalCode":"48488","locality":"Emsbüren","municipality":{"key":"03454010","name":"Emsbüren","type":"Kreisangehörige_Gemeinde"},"district":{"key":"03454","name":"Emsland","type":"Landkreis"},"federalState":{"key":"03","name":"Niedersachsen"}},{"name":"Lange Str.","postalCode":"48488","locality":"Emsbüren","municipality":{"key":"03454010","name":"Emsbüren","type":"Kreisangehörige_Gemeinde"},"district":{"key":"03454","name":"Emsland","type":"Landkreis"},"federalState":{"key":"03","name":"Niedersachsen"}},{"name":"Lavendelweg","postalCode":"48488","locality":"Emsbüren","municipality":{"key":"03454010","name":"Emsbüren","type":"Kreisangehörige_Gemeinde"},"district":{"key":"03454","name":"Emsland","type":"Landkreis"},"federalState":{"key":"03","name":"Niedersachsen"}},{"name":"Lescheder Str.","postalCode":"48488","locality":"Emsbüren","municipality":{"key":"03454010","name":"Emsbüren","type":"Kreisangehörige_Gemeinde"},"district":{"key":"03454","name":"Emsland","type":"Landkreis"},"federalState":{"key":"03","name":"Niedersachsen"}},{"name":"Letberger Str.","postalCode":"48488","locality":"Emsbüren","municipality":{"key":"03454010","name":"Emsbüren","type":"Kreisangehörige_Gemeinde"},"district":{"key":"03454","name":"Emsland","type":"Landkreis"},"federalState":{"key":"03","name":"Niedersachsen"}},{"name":"Lilienstr.","postalCode":"48488","locality":"Emsbüren","municipality":{"key":"03454010","name":"Emsbüren","type":"Kreisangehörige_Gemeinde"},"district":{"key":"03454","name":"Emsland","type":"Landkreis"},"federalState":{"key":"03","name":"Niedersachsen"}},{"name":"Lindenweg","postalCode":"48488","locality":"Emsbüren","municipality":{"key":"03454010","name":"Emsbüren","type":"Kreisangehörige_Gemeinde"},"district":{"key":"03454","name":"Emsland","type":"Landkreis"},"federalState":{"key":"03","name":"Niedersachsen"}},{"name":"Lingener Str.","postalCode":"48488","locality":"Emsbüren","municipality":{"key":"03454010","name":"Emsbüren","type":"Kreisangehörige_Gemeinde"},"district":{"key":"03454","name":"Emsland","type":"Landkreis"},"federalState":{"key":"03","name":"Niedersachsen"}},{"name":"Listruper Wehr","postalCode":"48488","locality":"Emsbüren","municipality":{"key":"03454010","name":"Emsbüren","type":"Kreisangehörige_Gemeinde"},"district":{"key":"03454","name":"Emsland","type":"Landkreis"},"federalState":{"key":"03","name":"Niedersachsen"}},{"name":"Lönsweg","postalCode":"48488","locality":"Emsbüren","municipality":{"key":"03454010","name":"Emsbüren","type":"Kreisangehörige_Gemeinde"},"district":{"key":"03454","name":"Emsland","type":"Landkreis"},"federalState":{"key":"03","name":"Niedersachsen"}},{"name":"Luisenweg","postalCode":"48488","locality":"Emsbüren","municipality":{"key":"03454010","name":"Emsbüren","type":"Kreisangehörige_Gemeinde"},"district":{"key":"03454","name":"Emsland","type":"Landkreis"},"federalState":{"key":"03","name":"Niedersachsen"}},{"name":"Magistratstr.","postalCode":"48488","locality":"Emsbüren","municipality":{"key":"03454010","name":"Emsbüren","type":"Kreisangehörige_Gemeinde"},"district":{"key":"03454","name":"Emsland","type":"Landkreis"},"federalState":{"key":"03","name":"Niedersachsen"}},{"name":"Maria-Mönch-Tegeder-Str.","postalCode":"48488","locality":"Emsbüren","municipality":{"key":"03454010","name":"Emsbüren","type":"Kreisangehörige_Gemeinde"},"district":{"key":"03454","name":"Emsland","type":"Landkreis"},"federalState":{"key":"03","name":"Niedersachsen"}},{"name":"Marienstr.","postalCode":"48488","locality":"Emsbüren","municipality":{"key":"03454010","name":"Emsbüren","type":"Kreisangehörige_Gemeinde"},"district":{"key":"03454","name":"Emsland","type":"Landkreis"},"federalState":{"key":"03","name":"Niedersachsen"}},{"name":"Markt","postalCode":"48488","locality":"Emsbüren","municipality":{"key":"03454010","name":"Emsbüren","type":"Kreisangehörige_Gemeinde"},"district":{"key":"03454","name":"Emsland","type":"Landkreis"},"federalState":{"key":"03","name":"Niedersachsen"}},{"name":"Marthastr.","postalCode":"48488","locality":"Emsbüren","municipality":{"key":"03454010","name":"Emsbüren","type":"Kreisangehörige_Gemeinde"},"district":{"key":"03454","name":"Emsland","type":"Landkreis"},"federalState":{"key":"03","name":"Niedersachsen"}},{"name":"Mathildenweg","postalCode":"48488","locality":"Emsbüren","municipality":{"key":"03454010","name":"Emsbüren","type":"Kreisangehörige_Gemeinde"},"district":{"key":"03454","name":"Emsland","type":"Landkreis"},"federalState":{"key":"03","name":"Niedersachsen"}},{"name":"Mehringen","postalCode":"48488","locality":"Emsbüren","municipality":{"key":"03454010","name":"Emsbüren","type":"Kreisangehörige_Gemeinde"},"district":{"key":"03454","name":"Emsland","type":"Landkreis"},"federalState":{"key":"03","name":"Niedersachsen"}},{"name":"Mehringer Str.","postalCode":"48488","locality":"Emsbüren","municipality":{"key":"03454010","name":"Emsbüren","type":"Kreisangehörige_Gemeinde"},"district":{"key":"03454","name":"Emsland","type":"Landkreis"},"federalState":{"key":"03","name":"Niedersachsen"}},{"name":"Meisenweg","postalCode":"48488","locality":"Emsbüren","municipality":{"key":"03454010","name":"Emsbüren","type":"Kreisangehörige_Gemeinde"},"district":{"key":"03454","name":"Emsland","type":"Landkreis"},"federalState":{"key":"03","name":"Niedersachsen"}},{"name":"Melissenweg","postalCode":"48488","locality":"Emsbüren","municipality":{"key":"03454010","name":"Emsbüren","type":"Kreisangehörige_Gemeinde"},"district":{"key":"03454","name":"Emsland","type":"Landkreis"},"federalState":{"key":"03","name":"Niedersachsen"}},{"name":"Merlinweg","postalCode":"48488","locality":"Emsbüren","municipality":{"key":"03454010","name":"Emsbüren","type":"Kreisangehörige_Gemeinde"},"district":{"key":"03454","name":"Emsland","type":"Landkreis"},"federalState":{"key":"03","name":"Niedersachsen"}},{"name":"Milanweg","postalCode":"48488","locality":"Emsbüren","municipality":{"key":"03454010","name":"Emsbüren","type":"Kreisangehörige_Gemeinde"},"district":{"key":"03454","name":"Emsland","type":"Landkreis"},"federalState":{"key":"03","name":"Niedersachsen"}},{"name":"Minzeweg","postalCode":"48488","locality":"Emsbüren","municipality":{"key":"03454010","name":"Emsbüren","type":"Kreisangehörige_Gemeinde"},"district":{"key":"03454","name":"Emsland","type":"Landkreis"},"federalState":{"key":"03","name":"Niedersachsen"}},{"name":"Moorlage","postalCode":"48488","locality":"Emsbüren","municipality":{"key":"03454010","name":"Emsbüren","type":"Kreisangehörige_Gemeinde"},"district":{"key":"03454","name":"Emsland","type":"Landkreis"},"federalState":{"key":"03","name":"Niedersachsen"}},{"name":"Moorlager Str.","postalCode":"48488","locality":"Emsbüren","municipality":{"key":"03454010","name":"Emsbüren","type":"Kreisangehörige_Gemeinde"},"district":{"key":"03454","name":"Emsland","type":"Landkreis"},"federalState":{"key":"03","name":"Niedersachsen"}},{"name":"MSGR-Scheperjans-Str.","postalCode":"48488","locality":"Emsbüren","municipality":{"key":"03454010","name":"Emsbüren","type":"Kreisangehörige_Gemeinde"},"district":{"key":"03454","name":"Emsland","type":"Landkreis"},"federalState":{"key":"03","name":"Niedersachsen"}},{"name":"Mühlenstr.","postalCode":"48488","locality":"Emsbüren","municipality":{"key":"03454010","name":"Emsbüren","type":"Kreisangehörige_Gemeinde"},"district":{"key":"03454","name":"Emsland","type":"Landkreis"},"federalState":{"key":"03","name":"Niedersachsen"}},{"name":"Mühlentorweg","postalCode":"48488","locality":"Emsbüren","municipality":{"key":"03454010","name":"Emsbüren","type":"Kreisangehörige_Gemeinde"},"district":{"key":"03454","name":"Emsland","type":"Landkreis"},"federalState":{"key":"03","name":"Niedersachsen"}},{"name":"Nachtigallenstr.","postalCode":"48488","locality":"Emsbüren","municipality":{"key":"03454010","name":"Emsbüren","type":"Kreisangehörige_Gemeinde"},"district":{"key":"03454","name":"Emsland","type":"Landkreis"},"federalState":{"key":"03","name":"Niedersachsen"}},{"name":"Nach Wintermannshof","postalCode":"48488","locality":"Emsbüren","municipality":{"key":"03454010","name":"Emsbüren","type":"Kreisangehörige_Gemeinde"},"district":{"key":"03454","name":"Emsland","type":"Landkreis"},"federalState":{"key":"03","name":"Niedersachsen"}},{"name":"Napoleondamm","postalCode":"48488","locality":"Emsbüren","municipality":{"key":"03454010","name":"Emsbüren","type":"Kreisangehörige_Gemeinde"},"district":{"key":"03454","name":"Emsland","type":"Landkreis"},"federalState":{"key":"03","name":"Niedersachsen"}},{"name":"Narzissenstr.","postalCode":"48488","locality":"Emsbüren","municipality":{"key":"03454010","name":"Emsbüren","type":"Kreisangehörige_Gemeinde"},"district":{"key":"03454","name":"Emsland","type":"Landkreis"},"federalState":{"key":"03","name":"Niedersachsen"}},{"name":"Nelkenstr.","postalCode":"48488","locality":"Emsbüren","municipality":{"key":"03454010","name":"Emsbüren","type":"Kreisangehörige_Gemeinde"},"district":{"key":"03454","name":"Emsland","type":"Landkreis"},"federalState":{"key":"03","name":"Niedersachsen"}},{"name":"Nußbaumweg","postalCode":"48488","locality":"Emsbüren","municipality":{"key":"03454010","name":"Emsbüren","type":"Kreisangehörige_Gemeinde"},"district":{"key":"03454","name":"Emsland","type":"Landkreis"},"federalState":{"key":"03","name":"Niedersachsen"}},{"name":"Oevelgünne","postalCode":"48488","locality":"Emsbüren","municipality":{"key":"03454010","name":"Emsbüren","type":"Kreisangehörige_Gemeinde"},"district":{"key":"03454","name":"Emsland","type":"Landkreis"},"federalState":{"key":"03","name":"Niedersachsen"}},{"name":"Papenstr.","postalCode":"48488","locality":"Emsbüren","municipality":{"key":"03454010","name":"Emsbüren","type":"Kreisangehörige_Gemeinde"},"district":{"key":"03454","name":"Emsland","type":"Landkreis"},"federalState":{"key":"03","name":"Niedersachsen"}},{"name":"Pappelweg","postalCode":"48488","locality":"Emsbüren","municipality":{"key":"03454010","name":"Emsbüren","type":"Kreisangehörige_Gemeinde"},"district":{"key":"03454","name":"Emsland","type":"Landkreis"},"federalState":{"key":"03","name":"Niedersachsen"}},{"name":"Petersilienweg","postalCode":"48488","locality":"Emsbüren","municipality":{"key":"03454010","name":"Emsbüren","type":"Kreisangehörige_Gemeinde"},"district":{"key":"03454","name":"Emsland","type":"Landkreis"},"federalState":{"key":"03","name":"Niedersachsen"}},{"name":"Prozessionsweg","postalCode":"48488","locality":"Emsbüren","municipality":{"key":"03454010","name":"Emsbüren","type":"Kreisangehörige_Gemeinde"},"district":{"key":"03454","name":"Emsland","type":"Landkreis"},"federalState":{"key":"03","name":"Niedersachsen"}},{"name":"Querstr.","postalCode":"48488","locality":"Emsbüren","municipality":{"key":"03454010","name":"Emsbüren","type":"Kreisangehörige_Gemeinde"},"district":{"key":"03454","name":"Emsland","type":"Landkreis"},"federalState":{"key":"03","name":"Niedersachsen"}},{"name":"Rebhuhnweg","postalCode":"48488","locality":"Emsbüren","municipality":{"key":"03454010","name":"Emsbüren","type":"Kreisangehörige_Gemeinde"},"district":{"key":"03454","name":"Emsland","type":"Landkreis"},"federalState":{"key":"03","name":"Niedersachsen"}},{"name":"Reuterweg","postalCode":"48488","locality":"Emsbüren","municipality":{"key":"03454010","name":"Emsbüren","type":"Kreisangehörige_Gemeinde"},"district":{"key":"03454","name":"Emsland","type":"Landkreis"},"federalState":{"key":"03","name":"Niedersachsen"}},{"name":"Richters Esch","postalCode":"48488","locality":"Emsbüren","municipality":{"key":"03454010","name":"Emsbüren","type":"Kreisangehörige_Gemeinde"},"district":{"key":"03454","name":"Emsland","type":"Landkreis"},"federalState":{"key":"03","name":"Niedersachsen"}},{"name":"Richthofstr.","postalCode":"48488","locality":"Emsbüren","municipality":{"key":"03454010","name":"Emsbüren","type":"Kreisangehörige_Gemeinde"},"district":{"key":"03454","name":"Emsland","type":"Landkreis"},"federalState":{"key":"03","name":"Niedersachsen"}},{"name":"Rosenstr.","postalCode":"48488","locality":"Emsbüren","municipality":{"key":"03454010","name":"Emsbüren","type":"Kreisangehörige_Gemeinde"},"district":{"key":"03454","name":"Emsland","type":"Landkreis"},"federalState":{"key":"03","name":"Niedersachsen"}},{"name":"Rosmarinstr.","postalCode":"48488","locality":"Emsbüren","municipality":{"key":"03454010","name":"Emsbüren","type":"Kreisangehörige_Gemeinde"},"district":{"key":"03454","name":"Emsland","type":"Landkreis"},"federalState":{"key":"03","name":"Niedersachsen"}},{"name":"Salbeiweg","postalCode":"48488","locality":"Emsbüren","municipality":{"key":"03454010","name":"Emsbüren","type":"Kreisangehörige_Gemeinde"},"district":{"key":"03454","name":"Emsland","type":"Landkreis"},"federalState":{"key":"03","name":"Niedersachsen"}},{"name":"Sandäcker","postalCode":"48488","locality":"Emsbüren","municipality":{"key":"03454010","name":"Emsbüren","type":"Kreisangehörige_Gemeinde"},"district":{"key":"03454","name":"Emsland","type":"Landkreis"},"federalState":{"key":"03","name":"Niedersachsen"}},{"name":"Sandstr.","postalCode":"48488","locality":"Emsbüren","municipality":{"key":"03454010","name":"Emsbüren","type":"Kreisangehörige_Gemeinde"},"district":{"key":"03454","name":"Emsland","type":"Landkreis"},"federalState":{"key":"03","name":"Niedersachsen"}},{"name":"Schilfweg","postalCode":"48488","locality":"Emsbüren","municipality":{"key":"03454010","name":"Emsbüren","type":"Kreisangehörige_Gemeinde"},"district":{"key":"03454","name":"Emsland","type":"Landkreis"},"federalState":{"key":"03","name":"Niedersachsen"}},{"name":"Schleheneck","postalCode":"48488","locality":"Emsbüren","municipality":{"key":"03454010","name":"Emsbüren","type":"Kreisangehörige_Gemeinde"},"district":{"key":"03454","name":"Emsland","type":"Landkreis"},"federalState":{"key":"03","name":"Niedersachsen"}},{"name":"Schmiedestr.","postalCode":"48488","locality":"Emsbüren","municipality":{"key":"03454010","name":"Emsbüren","type":"Kreisangehörige_Gemeinde"},"district":{"key":"03454","name":"Emsland","type":"Landkreis"},"federalState":{"key":"03","name":"Niedersachsen"}},{"name":"Schnepfenstr.","postalCode":"48488","locality":"Emsbüren","municipality":{"key":"03454010","name":"Emsbüren","type":"Kreisangehörige_Gemeinde"},"district":{"key":"03454","name":"Emsland","type":"Landkreis"},"federalState":{"key":"03","name":"Niedersachsen"}},{"name":"Schulstr.","postalCode":"48488","locality":"Emsbüren","municipality":{"key":"03454010","name":"Emsbüren","type":"Kreisangehörige_Gemeinde"},"district":{"key":"03454","name":"Emsland","type":"Landkreis"},"federalState":{"key":"03","name":"Niedersachsen"}},{"name":"Schüttorfer Str.","postalCode":"48488","locality":"Emsbüren","municipality":{"key":"03454010","name":"Emsbüren","type":"Kreisangehörige_Gemeinde"},"district":{"key":"03454","name":"Emsland","type":"Landkreis"},"federalState":{"key":"03","name":"Niedersachsen"}},{"name":"Schützenstr.","postalCode":"48488","locality":"Emsbüren","municipality":{"key":"03454010","name":"Emsbüren","type":"Kreisangehörige_Gemeinde"},"district":{"key":"03454","name":"Emsland","type":"Landkreis"},"federalState":{"key":"03","name":"Niedersachsen"}},{"name":"Siemensstr.","postalCode":"48488","locality":"Emsbüren","municipality":{"key":"03454010","name":"Emsbüren","type":"Kreisangehörige_Gemeinde"},"district":{"key":"03454","name":"Emsland","type":"Landkreis"},"federalState":{"key":"03","name":"Niedersachsen"}},{"name":"Simonenweg","postalCode":"48488","locality":"Emsbüren","municipality":{"key":"03454010","name":"Emsbüren","type":"Kreisangehörige_Gemeinde"},"district":{"key":"03454","name":"Emsland","type":"Landkreis"},"federalState":{"key":"03","name":"Niedersachsen"}},{"name":"Sommerweg","postalCode":"48488","locality":"Emsbüren","municipality":{"key":"03454010","name":"Emsbüren","type":"Kreisangehörige_Gemeinde"},"district":{"key":"03454","name":"Emsland","type":"Landkreis"},"federalState":{"key":"03","name":"Niedersachsen"}},{"name":"Sonnenblumenweg","postalCode":"48488","locality":"Emsbüren","municipality":{"key":"03454010","name":"Emsbüren","type":"Kreisangehörige_Gemeinde"},"district":{"key":"03454","name":"Emsland","type":"Landkreis"},"federalState":{"key":"03","name":"Niedersachsen"}},{"name":"Sonnenweg","postalCode":"48488","locality":"Emsbüren","municipality":{"key":"03454010","name":"Emsbüren","type":"Kreisangehörige_Gemeinde"},"district":{"key":"03454","name":"Emsland","type":"Landkreis"},"federalState":{"key":"03","name":"Niedersachsen"}},{"name":"Sophienstr.","postalCode":"48488","locality":"Emsbüren","municipality":{"key":"03454010","name":"Emsbüren","type":"Kreisangehörige_Gemeinde"},"district":{"key":"03454","name":"Emsland","type":"Landkreis"},"federalState":{"key":"03","name":"Niedersachsen"}},{"name":"Sperberweg","postalCode":"48488","locality":"Emsbüren","municipality":{"key":"03454010","name":"Emsbüren","type":"Kreisangehörige_Gemeinde"},"district":{"key":"03454","name":"Emsland","type":"Landkreis"},"federalState":{"key":"03","name":"Niedersachsen"}},{"name":"Stefaniestr.","postalCode":"48488","locality":"Emsbüren","municipality":{"key":"03454010","name":"Emsbüren","type":"Kreisangehörige_Gemeinde"},"district":{"key":"03454","name":"Emsland","type":"Landkreis"},"federalState":{"key":"03","name":"Niedersachsen"}},{"name":"Steinstr.","postalCode":"48488","locality":"Emsbüren","municipality":{"key":"03454010","name":"Emsbüren","type":"Kreisangehörige_Gemeinde"},"district":{"key":"03454","name":"Emsland","type":"Landkreis"},"federalState":{"key":"03","name":"Niedersachsen"}},{"name":"Stormstr.","postalCode":"48488","locality":"Emsbüren","municipality":{"key":"03454010","name":"Emsbüren","type":"Kreisangehörige_Gemeinde"},"district":{"key":"03454","name":"Emsland","type":"Landkreis"},"federalState":{"key":"03","name":"Niedersachsen"}},{"name":"Suddenstr.","postalCode":"48488","locality":"Emsbüren","municipality":{"key":"03454010","name":"Emsbüren","type":"Kreisangehörige_Gemeinde"},"district":{"key":"03454","name":"Emsland","type":"Landkreis"},"federalState":{"key":"03","name":"Niedersachsen"}},{"name":"Tannenstr.","postalCode":"48488","locality":"Emsbüren","municipality":{"key":"03454010","name":"Emsbüren","type":"Kreisangehörige_Gemeinde"},"district":{"key":"03454","name":"Emsland","type":"Landkreis"},"federalState":{"key":"03","name":"Niedersachsen"}},{"name":"Taubenstr.","postalCode":"48488","locality":"Emsbüren","municipality":{"key":"03454010","name":"Emsbüren","type":"Kreisangehörige_Gemeinde"},"district":{"key":"03454","name":"Emsland","type":"Landkreis"},"federalState":{"key":"03","name":"Niedersachsen"}},{"name":"Teilstr.","postalCode":"48488","locality":"Emsbüren","municipality":{"key":"03454010","name":"Emsbüren","type":"Kreisangehörige_Gemeinde"},"district":{"key":"03454","name":"Emsland","type":"Landkreis"},"federalState":{"key":"03","name":"Niedersachsen"}},{"name":"Thymianstr.","postalCode":"48488","locality":"Emsbüren","municipality":{"key":"03454010","name":"Emsbüren","type":"Kreisangehörige_Gemeinde"},"district":{"key":"03454","name":"Emsland","type":"Landkreis"},"federalState":{"key":"03","name":"Niedersachsen"}},{"name":"Tietmeyerstr.","postalCode":"48488","locality":"Emsbüren","municipality":{"key":"03454010","name":"Emsbüren","type":"Kreisangehörige_Gemeinde"},"district":{"key":"03454","name":"Emsland","type":"Landkreis"},"federalState":{"key":"03","name":"Niedersachsen"}},{"name":"Tiggelwerkweg","postalCode":"48488","locality":"Emsbüren","municipality":{"key":"03454010","name":"Emsbüren","type":"Kreisangehörige_Gemeinde"},"district":{"key":"03454","name":"Emsland","type":"Landkreis"},"federalState":{"key":"03","name":"Niedersachsen"}},{"name":"Tulpenstr.","postalCode":"48488","locality":"Emsbüren","municipality":{"key":"03454010","name":"Emsbüren","type":"Kreisangehörige_Gemeinde"},"district":{"key":"03454","name":"Emsland","type":"Landkreis"},"federalState":{"key":"03","name":"Niedersachsen"}},{"name":"Uhlandweg","postalCode":"48488","locality":"Emsbüren","municipality":{"key":"03454010","name":"Emsbüren","type":"Kreisangehörige_Gemeinde"},"district":{"key":"03454","name":"Emsland","type":"Landkreis"},"federalState":{"key":"03","name":"Niedersachsen"}},{"name":"Uphok","postalCode":"48488","locality":"Emsbüren","municipality":{"key":"03454010","name":"Emsbüren","type":"Kreisangehörige_Gemeinde"},"district":{"key":"03454","name":"Emsland","type":"Landkreis"},"federalState":{"key":"03","name":"Niedersachsen"}},{"name":"Veilchenweg","postalCode":"48488","locality":"Emsbüren","municipality":{"key":"03454010","name":"Emsbüren","type":"Kreisangehörige_Gemeinde"},"district":{"key":"03454","name":"Emsland","type":"Landkreis"},"federalState":{"key":"03","name":"Niedersachsen"}},{"name":"von-Linde-Str.","postalCode":"48488","locality":"Emsbüren","municipality":{"key":"03454010","name":"Emsbüren","type":"Kreisangehörige_Gemeinde"},"district":{"key":"03454","name":"Emsland","type":"Landkreis"},"federalState":{"key":"03","name":"Niedersachsen"}},{"name":"Wachtelweg","postalCode":"48488","locality":"Emsbüren","municipality":{"key":"03454010","name":"Emsbüren","type":"Kreisangehörige_Gemeinde"},"district":{"key":"03454","name":"Emsland","type":"Landkreis"},"federalState":{"key":"03","name":"Niedersachsen"}},{"name":"Waldschlösschenweg","postalCode":"48488","locality":"Emsbüren","municipality":{"key":"03454010","name":"Emsbüren","type":"Kreisangehörige_Gemeinde"},"district":{"key":"03454","name":"Emsland","type":"Landkreis"},"federalState":{"key":"03","name":"Niedersachsen"}},{"name":"Waldstr.","postalCode":"48488","locality":"Emsbüren","municipality":{"key":"03454010","name":"Emsbüren","type":"Kreisangehörige_Gemeinde"},"district":{"key":"03454","name":"Emsland","type":"Landkreis"},"federalState":{"key":"03","name":"Niedersachsen"}},{"name":"Weidenstr.","postalCode":"48488","locality":"Emsbüren","municipality":{"key":"03454010","name":"Emsbüren","type":"Kreisangehörige_Gemeinde"},"district":{"key":"03454","name":"Emsland","type":"Landkreis"},"federalState":{"key":"03","name":"Niedersachsen"}},{"name":"Widbuschweg","postalCode":"48488","locality":"Emsbüren","municipality":{"key":"03454010","name":"Emsbüren","type":"Kreisangehörige_Gemeinde"},"district":{"key":"03454","name":"Emsland","type":"Landkreis"},"federalState":{"key":"03","name":"Niedersachsen"}},{"name":"Wieschebrinkweg","postalCode":"48488","locality":"Emsbüren","municipality":{"key":"03454010","name":"Emsbüren","type":"Kreisangehörige_Gemeinde"},"district":{"key":"03454","name":"Emsland","type":"Landkreis"},"federalState":{"key":"03","name":"Niedersachsen"}},{"name":"Wiesenstr.","postalCode":"48488","locality":"Emsbüren","municipality":{"key":"03454010","name":"Emsbüren","type":"Kreisangehörige_Gemeinde"},"district":{"key":"03454","name":"Emsland","type":"Landkreis"},"federalState":{"key":"03","name":"Niedersachsen"}},{"name":"Wilhelm-van-Lengerich-Str.","postalCode":"48488","locality":"Emsbüren","municipality":{"key":"03454010","name":"Emsbüren","type":"Kreisangehörige_Gemeinde"},"district":{"key":"03454","name":"Emsland","type":"Landkreis"},"federalState":{"key":"03","name":"Niedersachsen"}},{"name":"Windthorststr.","postalCode":"48488","locality":"Emsbüren","municipality":{"key":"03454010","name":"Emsbüren","type":"Kreisangehörige_Gemeinde"},"district":{"key":"03454","name":"Emsland","type":"Landkreis"},"federalState":{"key":"03","name":"Niedersachsen"}},{"name":"Wülkersweg","postalCode":"48488","locality":"Emsbüren","municipality":{"key":"03454010","name":"Emsbüren","type":"Kreisangehörige_Gemeinde"},"district":{"key":"03454","name":"Emsland","type":"Landkreis"},"federalState":{"key":"03","name":"Niedersachsen"}},{"name":"Ziegeleidamm","postalCode":"48488","locality":"Emsbüren","municipality":{"key":"03454010","name":"Emsbüren","type":"Kreisangehörige_Gemeinde"},"district":{"key":"03454","name":"Emsland","type":"Landkreis"},"federalState":{"key":"03","name":"Niedersachsen"}},{"name":"Zu den Fischerhütten","postalCode":"48488","locality":"Emsbüren","municipality":{"key":"03454010","name":"Emsbüren","type":"Kreisangehörige_Gemeinde"},"district":{"key":"03454","name":"Emsland","type":"Landkreis"},"federalState":{"key":"03","name":"Niedersachsen"}},{"name":"Zum Backhaus","postalCode":"48488","locality":"Emsbüren","municipality":{"key":"03454010","name":"Emsbüren","type":"Kreisangehörige_Gemeinde"},"district":{"key":"03454","name":"Emsland","type":"Landkreis"},"federalState":{"key":"03","name":"Niedersachsen"}},{"name":"Zum Braken","postalCode":"48488","locality":"Emsbüren","municipality":{"key":"03454010","name":"Emsbüren","type":"Kreisangehörige_Gemeinde"},"district":{"key":"03454","name":"Emsland","type":"Landkreis"},"federalState":{"key":"03","name":"Niedersachsen"}},{"name":"Zum Emsufer","postalCode":"48488","locality":"Emsbüren","municipality":{"key":"03454010","name":"Emsbüren","type":"Kreisangehörige_Gemeinde"},"district":{"key":"03454","name":"Emsland","type":"Landkreis"},"federalState":{"key":"03","name":"Niedersachsen"}},{"name":"Zum Feldhook","postalCode":"48488","locality":"Emsbüren","municipality":{"key":"03454010","name":"Emsbüren","type":"Kreisangehörige_Gemeinde"},"district":{"key":"03454","name":"Emsland","type":"Landkreis"},"federalState":{"key":"03","name":"Niedersachsen"}},{"name":"Zum Fernen Sand","postalCode":"48488","locality":"Emsbüren","municipality":{"key":"03454010","name":"Emsbüren","type":"Kreisangehörige_Gemeinde"},"district":{"key":"03454","name":"Emsland","type":"Landkreis"},"federalState":{"key":"03","name":"Niedersachsen"}},{"name":"Zum Kamphook","postalCode":"48488","locality":"Emsbüren","municipality":{"key":"03454010","name":"Emsbüren","type":"Kreisangehörige_Gemeinde"},"district":{"key":"03454","name":"Emsland","type":"Landkreis"},"federalState":{"key":"03","name":"Niedersachsen"}},{"name":"Zum Kuckshörn","postalCode":"48488","locality":"Emsbüren","municipality":{"key":"03454010","name":"Emsbüren","type":"Kreisangehörige_Gemeinde"},"district":{"key":"03454","name":"Emsland","type":"Landkreis"},"federalState":{"key":"03","name":"Niedersachsen"}},{"name":"Zum Palhügel","postalCode":"48488","locality":"Emsbüren","municipality":{"key":"03454010","name":"Emsbüren","type":"Kreisangehörige_Gemeinde"},"district":{"key":"03454","name":"Emsland","type":"Landkreis"},"federalState":{"key":"03","name":"Niedersachsen"}},{"name":"Zum Schultenhook","postalCode":"48488","locality":"Emsbüren","municipality":{"key":"03454010","name":"Emsbüren","type":"Kreisangehörige_Gemeinde"},"district":{"key":"03454","name":"Emsland","type":"Landkreis"},"federalState":{"key":"03","name":"Niedersachsen"}},{"name":"Zum Sportplatz","postalCode":"48488","locality":"Emsbüren","municipality":{"key":"03454010","name":"Emsbüren","type":"Kreisangehörige_Gemeinde"},"district":{"key":"03454","name":"Emsland","type":"Landkreis"},"federalState":{"key":"03","name":"Niedersachsen"}},{"name":"Zum Sunderhügel","postalCode":"48488","locality":"Emsbüren","municipality":{"key":"03454010","name":"Emsbüren","type":"Kreisangehörige_Gemeinde"},"district":{"key":"03454","name":"Emsland","type":"Landkreis"},"federalState":{"key":"03","name":"Niedersachsen"}},{"name":"Zum Wasser","postalCode":"48488","locality":"Emsbüren","municipality":{"key":"03454010","name":"Emsbüren","type":"Kreisangehörige_Gemeinde"},"district":{"key":"03454","name":"Emsland","type":"Landkreis"},"federalState":{"key":"03","name":"Niedersachsen"}},{"name":"Zur Halbinsel","postalCode":"48488","locality":"Emsbüren","municipality":{"key":"03454010","name":"Emsbüren","type":"Kreisangehörige_Gemeinde"},"district":{"key":"03454","name":"Emsland","type":"Landkreis"},"federalState":{"key":"03","name":"Niedersachsen"}},{"name":"Zur Kreissandgrube","postalCode":"48488","locality":"Emsbüren","municipality":{"key":"03454010","name":"Emsbüren","type":"Kreisangehörige_Gemeinde"},"district":{"key":"03454","name":"Emsland","type":"Landkreis"},"federalState":{"key":"03","name":"Niedersachsen"}},{"name":"Zur Nore","postalCode":"48488","locality":"Emsbüren","municipality":{"key":"03454010","name":"Emsbüren","type":"Kreisangehörige_Gemeinde"},"district":{"key":"03454","name":"Emsland","type":"Landkreis"},"federalState":{"key":"03","name":"Niedersachsen"}},{"name":"Zur Streuobstwiese","postalCode":"48488","locality":"Emsbüren","municipality":{"key":"03454010","name":"Emsbüren","type":"Kreisangehörige_Gemeinde"},"district":{"key":"03454","name":"Emsland","type":"Landkreis"},"federalState":{"key":"03","name":"Niedersachsen"}},{"name":"Zur Wagenremise","postalCode":"48488","locality":"Emsbüren","municipality":{"key":"03454010","name":"Emsbüren","type":"Kreisangehörige_Gemeinde"},"district":{"key":"03454","name":"Emsland","type":"Landkreis"},"federalState":{"key":"03","name":"Niedersachsen"}},{"name":"Zur Windmühle","postalCode":"48488","locality":"Emsbüren","municipality":{"key":"03454010","name":"Emsbüren","type":"Kreisangehörige_Gemeinde"},"district":{"key":"03454","name":"Emsland","type":"Landkreis"},"federalState":{"key":"03","name":"Niedersachsen"}},]