[{"name":"Adolf-Geyer-Str.","postalCode":"95336","locality":"Mainleus","municipality":{"key":"09477136","name":"Mainleus, M","type":"Markt"},"district":{"key":"09477","name":"Kulmbach","type":"Landkreis"},"federalState":{"key":"09","name":"Bayern"}},{"name":"Adolf-Münzer-Str.","postalCode":"95336","locality":"Mainleus","municipality":{"key":"09477136","name":"Mainleus, M","type":"Markt"},"district":{"key":"09477","name":"Kulmbach","type":"Landkreis"},"federalState":{"key":"09","name":"Bayern"}},{"name":"Alte Str.","postalCode":"95336","locality":"Mainleus","municipality":{"key":"09477136","name":"Mainleus, M","type":"Markt"},"district":{"key":"09477","name":"Kulmbach","type":"Landkreis"},"federalState":{"key":"09","name":"Bayern"}},{"name":"Am Berglein","postalCode":"95336","locality":"Mainleus","municipality":{"key":"09477136","name":"Mainleus, M","type":"Markt"},"district":{"key":"09477","name":"Kulmbach","type":"Landkreis"},"federalState":{"key":"09","name":"Bayern"}},{"name":"Am Brunnfeld","postalCode":"95336","locality":"Mainleus","municipality":{"key":"09477136","name":"Mainleus, M","type":"Markt"},"district":{"key":"09477","name":"Kulmbach","type":"Landkreis"},"federalState":{"key":"09","name":"Bayern"}},{"name":"Am Eichenhang","postalCode":"95336","locality":"Mainleus","municipality":{"key":"09477136","name":"Mainleus, M","type":"Markt"},"district":{"key":"09477","name":"Kulmbach","type":"Landkreis"},"federalState":{"key":"09","name":"Bayern"}},{"name":"Am Eichholz","postalCode":"95336","locality":"Mainleus","municipality":{"key":"09477136","name":"Mainleus, M","type":"Markt"},"district":{"key":"09477","name":"Kulmbach","type":"Landkreis"},"federalState":{"key":"09","name":"Bayern"}},{"name":"Am Eisweiher","postalCode":"95336","locality":"Mainleus","municipality":{"key":"09477136","name":"Mainleus, M","type":"Markt"},"district":{"key":"09477","name":"Kulmbach","type":"Landkreis"},"federalState":{"key":"09","name":"Bayern"}},{"name":"Am Gänsgries","postalCode":"95336","locality":"Mainleus","municipality":{"key":"09477136","name":"Mainleus, M","type":"Markt"},"district":{"key":"09477","name":"Kulmbach","type":"Landkreis"},"federalState":{"key":"09","name":"Bayern"}},{"name":"Am Gemeindeholz","postalCode":"95336","locality":"Mainleus","municipality":{"key":"09477136","name":"Mainleus, M","type":"Markt"},"district":{"key":"09477","name":"Kulmbach","type":"Landkreis"},"federalState":{"key":"09","name":"Bayern"}},{"name":"Am Gericht","postalCode":"95336","locality":"Mainleus","municipality":{"key":"09477136","name":"Mainleus, M","type":"Markt"},"district":{"key":"09477","name":"Kulmbach","type":"Landkreis"},"federalState":{"key":"09","name":"Bayern"}},{"name":"Am Gräberfeld","postalCode":"95336","locality":"Mainleus","municipality":{"key":"09477136","name":"Mainleus, M","type":"Markt"},"district":{"key":"09477","name":"Kulmbach","type":"Landkreis"},"federalState":{"key":"09","name":"Bayern"}},{"name":"Am Gries","postalCode":"95336","locality":"Mainleus","municipality":{"key":"09477136","name":"Mainleus, M","type":"Markt"},"district":{"key":"09477","name":"Kulmbach","type":"Landkreis"},"federalState":{"key":"09","name":"Bayern"}},{"name":"Am Kohlet","postalCode":"95336","locality":"Mainleus","municipality":{"key":"09477136","name":"Mainleus, M","type":"Markt"},"district":{"key":"09477","name":"Kulmbach","type":"Landkreis"},"federalState":{"key":"09","name":"Bayern"}},{"name":"Am Rorbach","postalCode":"95336","locality":"Mainleus","municipality":{"key":"09477136","name":"Mainleus, M","type":"Markt"},"district":{"key":"09477","name":"Kulmbach","type":"Landkreis"},"federalState":{"key":"09","name":"Bayern"}},{"name":"Am Schloß","postalCode":"95336","locality":"Mainleus","municipality":{"key":"09477136","name":"Mainleus, M","type":"Markt"},"district":{"key":"09477","name":"Kulmbach","type":"Landkreis"},"federalState":{"key":"09","name":"Bayern"}},{"name":"Am Schloth","postalCode":"95336","locality":"Mainleus","municipality":{"key":"09477136","name":"Mainleus, M","type":"Markt"},"district":{"key":"09477","name":"Kulmbach","type":"Landkreis"},"federalState":{"key":"09","name":"Bayern"}},{"name":"Am Steinloch","postalCode":"95336","locality":"Mainleus","municipality":{"key":"09477136","name":"Mainleus, M","type":"Markt"},"district":{"key":"09477","name":"Kulmbach","type":"Landkreis"},"federalState":{"key":"09","name":"Bayern"}},{"name":"Am Wiesenplatz","postalCode":"95336","locality":"Mainleus","municipality":{"key":"09477136","name":"Mainleus, M","type":"Markt"},"district":{"key":"09477","name":"Kulmbach","type":"Landkreis"},"federalState":{"key":"09","name":"Bayern"}},{"name":"Auweg","postalCode":"95336","locality":"Mainleus","municipality":{"key":"09477136","name":"Mainleus, M","type":"Markt"},"district":{"key":"09477","name":"Kulmbach","type":"Landkreis"},"federalState":{"key":"09","name":"Bayern"}},{"name":"Bäbberla","postalCode":"95336","locality":"Mainleus","municipality":{"key":"09477136","name":"Mainleus, M","type":"Markt"},"district":{"key":"09477","name":"Kulmbach","type":"Landkreis"},"federalState":{"key":"09","name":"Bayern"}},{"name":"Bahnhofstr.","postalCode":"95336","locality":"Mainleus","municipality":{"key":"09477136","name":"Mainleus, M","type":"Markt"},"district":{"key":"09477","name":"Kulmbach","type":"Landkreis"},"federalState":{"key":"09","name":"Bayern"}},{"name":"Bergleite","postalCode":"95336","locality":"Mainleus","municipality":{"key":"09477136","name":"Mainleus, M","type":"Markt"},"district":{"key":"09477","name":"Kulmbach","type":"Landkreis"},"federalState":{"key":"09","name":"Bayern"}},{"name":"Bergstr.","postalCode":"95336","locality":"Mainleus","municipality":{"key":"09477136","name":"Mainleus, M","type":"Markt"},"district":{"key":"09477","name":"Kulmbach","type":"Landkreis"},"federalState":{"key":"09","name":"Bayern"}},{"name":"Bgm.-Angerer-Str.","postalCode":"95336","locality":"Mainleus","municipality":{"key":"09477136","name":"Mainleus, M","type":"Markt"},"district":{"key":"09477","name":"Kulmbach","type":"Landkreis"},"federalState":{"key":"09","name":"Bayern"}},{"name":"Bgm. Schneider-Str.","postalCode":"95336","locality":"Mainleus","municipality":{"key":"09477136","name":"Mainleus, M","type":"Markt"},"district":{"key":"09477","name":"Kulmbach","type":"Landkreis"},"federalState":{"key":"09","name":"Bayern"}},{"name":"Birkig","postalCode":"95336","locality":"Mainleus","municipality":{"key":"09477136","name":"Mainleus, M","type":"Markt"},"district":{"key":"09477","name":"Kulmbach","type":"Landkreis"},"federalState":{"key":"09","name":"Bayern"}},{"name":"Bodenäckerstr.","postalCode":"95336","locality":"Mainleus","municipality":{"key":"09477136","name":"Mainleus, M","type":"Markt"},"district":{"key":"09477","name":"Kulmbach","type":"Landkreis"},"federalState":{"key":"09","name":"Bayern"}},{"name":"Braugasse","postalCode":"95336","locality":"Mainleus","municipality":{"key":"09477136","name":"Mainleus, M","type":"Markt"},"district":{"key":"09477","name":"Kulmbach","type":"Landkreis"},"federalState":{"key":"09","name":"Bayern"}},{"name":"Brunnenleite","postalCode":"95336","locality":"Mainleus","municipality":{"key":"09477136","name":"Mainleus, M","type":"Markt"},"district":{"key":"09477","name":"Kulmbach","type":"Landkreis"},"federalState":{"key":"09","name":"Bayern"}},{"name":"Buchenweg","postalCode":"95336","locality":"Mainleus","municipality":{"key":"09477136","name":"Mainleus, M","type":"Markt"},"district":{"key":"09477","name":"Kulmbach","type":"Landkreis"},"federalState":{"key":"09","name":"Bayern"}},{"name":"Bürgermeister-Schmidt-Str.","postalCode":"95336","locality":"Mainleus","municipality":{"key":"09477136","name":"Mainleus, M","type":"Markt"},"district":{"key":"09477","name":"Kulmbach","type":"Landkreis"},"federalState":{"key":"09","name":"Bayern"}},{"name":"Bürgermeister-Werner-Grampp-Str.","postalCode":"95336","locality":"Mainleus","municipality":{"key":"09477136","name":"Mainleus, M","type":"Markt"},"district":{"key":"09477","name":"Kulmbach","type":"Landkreis"},"federalState":{"key":"09","name":"Bayern"}},{"name":"Burgkunstadter Str.","postalCode":"95336","locality":"Mainleus","municipality":{"key":"09477136","name":"Mainleus, M","type":"Markt"},"district":{"key":"09477","name":"Kulmbach","type":"Landkreis"},"federalState":{"key":"09","name":"Bayern"}},{"name":"Caspar-Fischer-Str.","postalCode":"95326","locality":"Kulmbach","municipality":{"key":"09477128","name":"Kulmbach, GKSt","type":"Große_Kreisstadt"},"district":{"key":"09477","name":"Kulmbach","type":"Landkreis"},"federalState":{"key":"09","name":"Bayern"}},{"name":"Christian-Pertsch-Str.","postalCode":"95326","locality":"Kulmbach","municipality":{"key":"09477128","name":"Kulmbach, GKSt","type":"Große_Kreisstadt"},"district":{"key":"09477","name":"Kulmbach","type":"Landkreis"},"federalState":{"key":"09","name":"Bayern"}},{"name":"Danndorf","postalCode":"95336","locality":"Mainleus","municipality":{"key":"09477136","name":"Mainleus, M","type":"Markt"},"district":{"key":"09477","name":"Kulmbach","type":"Landkreis"},"federalState":{"key":"09","name":"Bayern"}},{"name":"Eichenweg","postalCode":"95336","locality":"Mainleus","municipality":{"key":"09477136","name":"Mainleus, M","type":"Markt"},"district":{"key":"09477","name":"Kulmbach","type":"Landkreis"},"federalState":{"key":"09","name":"Bayern"}},{"name":"Erhard-Zethner-Str.","postalCode":"95336","locality":"Mainleus","municipality":{"key":"09477136","name":"Mainleus, M","type":"Markt"},"district":{"key":"09477","name":"Kulmbach","type":"Landkreis"},"federalState":{"key":"09","name":"Bayern"}},{"name":"Erlenweg","postalCode":"95336","locality":"Mainleus","municipality":{"key":"09477136","name":"Mainleus, M","type":"Markt"},"district":{"key":"09477","name":"Kulmbach","type":"Landkreis"},"federalState":{"key":"09","name":"Bayern"}},{"name":"Eugen-Ritter-Str.","postalCode":"95336","locality":"Mainleus","municipality":{"key":"09477136","name":"Mainleus, M","type":"Markt"},"district":{"key":"09477","name":"Kulmbach","type":"Landkreis"},"federalState":{"key":"09","name":"Bayern"}},{"name":"Fasoldshof","postalCode":"95336","locality":"Mainleus","municipality":{"key":"09477136","name":"Mainleus, M","type":"Markt"},"district":{"key":"09477","name":"Kulmbach","type":"Landkreis"},"federalState":{"key":"09","name":"Bayern"}},{"name":"Festweg","postalCode":"95336","locality":"Mainleus","municipality":{"key":"09477136","name":"Mainleus, M","type":"Markt"},"district":{"key":"09477","name":"Kulmbach","type":"Landkreis"},"federalState":{"key":"09","name":"Bayern"}},{"name":"Friedhofstr.","postalCode":"95336","locality":"Mainleus","municipality":{"key":"09477136","name":"Mainleus, M","type":"Markt"},"district":{"key":"09477","name":"Kulmbach","type":"Landkreis"},"federalState":{"key":"09","name":"Bayern"}},{"name":"Fritz-Hornschuch-Platz","postalCode":"95336","locality":"Mainleus","municipality":{"key":"09477136","name":"Mainleus, M","type":"Markt"},"district":{"key":"09477","name":"Kulmbach","type":"Landkreis"},"federalState":{"key":"09","name":"Bayern"}},{"name":"Gartenstr.","postalCode":"95336","locality":"Mainleus","municipality":{"key":"09477136","name":"Mainleus, M","type":"Markt"},"district":{"key":"09477","name":"Kulmbach","type":"Landkreis"},"federalState":{"key":"09","name":"Bayern"}},{"name":"Griesweg","postalCode":"95336","locality":"Mainleus","municipality":{"key":"09477136","name":"Mainleus, M","type":"Markt"},"district":{"key":"09477","name":"Kulmbach","type":"Landkreis"},"federalState":{"key":"09","name":"Bayern"}},{"name":"Grölitzenstr.","postalCode":"95336","locality":"Mainleus","municipality":{"key":"09477136","name":"Mainleus, M","type":"Markt"},"district":{"key":"09477","name":"Kulmbach","type":"Landkreis"},"federalState":{"key":"09","name":"Bayern"}},{"name":"Gut","postalCode":"95336","locality":"Mainleus","municipality":{"key":"09477136","name":"Mainleus, M","type":"Markt"},"district":{"key":"09477","name":"Kulmbach","type":"Landkreis"},"federalState":{"key":"09","name":"Bayern"}},{"name":"Hainbuchen","postalCode":"95336","locality":"Mainleus","municipality":{"key":"09477136","name":"Mainleus, M","type":"Markt"},"district":{"key":"09477","name":"Kulmbach","type":"Landkreis"},"federalState":{"key":"09","name":"Bayern"}},{"name":"Hainleite","postalCode":"95336","locality":"Mainleus","municipality":{"key":"09477136","name":"Mainleus, M","type":"Markt"},"district":{"key":"09477","name":"Kulmbach","type":"Landkreis"},"federalState":{"key":"09","name":"Bayern"}},{"name":"Hainstr.","postalCode":"95336","locality":"Mainleus","municipality":{"key":"09477136","name":"Mainleus, M","type":"Markt"},"district":{"key":"09477","name":"Kulmbach","type":"Landkreis"},"federalState":{"key":"09","name":"Bayern"}},{"name":"Hainweg","postalCode":"95336","locality":"Mainleus","municipality":{"key":"09477136","name":"Mainleus, M","type":"Markt"},"district":{"key":"09477","name":"Kulmbach","type":"Landkreis"},"federalState":{"key":"09","name":"Bayern"}},{"name":"Hans-Grimm-Weg","postalCode":"95336","locality":"Mainleus","municipality":{"key":"09477136","name":"Mainleus, M","type":"Markt"},"district":{"key":"09477","name":"Kulmbach","type":"Landkreis"},"federalState":{"key":"09","name":"Bayern"}},{"name":"Haselweg","postalCode":"95336","locality":"Mainleus","municipality":{"key":"09477136","name":"Mainleus, M","type":"Markt"},"district":{"key":"09477","name":"Kulmbach","type":"Landkreis"},"federalState":{"key":"09","name":"Bayern"}},{"name":"Hauptstr.","postalCode":"95336","locality":"Mainleus","municipality":{"key":"09477136","name":"Mainleus, M","type":"Markt"},"district":{"key":"09477","name":"Kulmbach","type":"Landkreis"},"federalState":{"key":"09","name":"Bayern"}},{"name":"Heinrich-Schneider-Str.","postalCode":"95336","locality":"Mainleus","municipality":{"key":"09477136","name":"Mainleus, M","type":"Markt"},"district":{"key":"09477","name":"Kulmbach","type":"Landkreis"},"federalState":{"key":"09","name":"Bayern"}},{"name":"Hollerweg","postalCode":"95336","locality":"Mainleus","municipality":{"key":"09477136","name":"Mainleus, M","type":"Markt"},"district":{"key":"09477","name":"Kulmbach","type":"Landkreis"},"federalState":{"key":"09","name":"Bayern"}},{"name":"Hopfengarten","postalCode":"95336","locality":"Mainleus","municipality":{"key":"09477136","name":"Mainleus, M","type":"Markt"},"district":{"key":"09477","name":"Kulmbach","type":"Landkreis"},"federalState":{"key":"09","name":"Bayern"}},{"name":"Hornschuchstr.","postalCode":"95336","locality":"Mainleus","municipality":{"key":"09477136","name":"Mainleus, M","type":"Markt"},"district":{"key":"09477","name":"Kulmbach","type":"Landkreis"},"federalState":{"key":"09","name":"Bayern"}},{"name":"In der Ecken","postalCode":"95336","locality":"Mainleus","municipality":{"key":"09477136","name":"Mainleus, M","type":"Markt"},"district":{"key":"09477","name":"Kulmbach","type":"Landkreis"},"federalState":{"key":"09","name":"Bayern"}},{"name":"In der Nassau","postalCode":"95336","locality":"Mainleus","municipality":{"key":"09477136","name":"Mainleus, M","type":"Markt"},"district":{"key":"09477","name":"Kulmbach","type":"Landkreis"},"federalState":{"key":"09","name":"Bayern"}},{"name":"Industriestr.","postalCode":"95336","locality":"Mainleus","municipality":{"key":"09477136","name":"Mainleus, M","type":"Markt"},"district":{"key":"09477","name":"Kulmbach","type":"Landkreis"},"federalState":{"key":"09","name":"Bayern"}},{"name":"Jägerndorfer Str.","postalCode":"95326","locality":"Kulmbach","municipality":{"key":"09477128","name":"Kulmbach, GKSt","type":"Große_Kreisstadt"},"district":{"key":"09477","name":"Kulmbach","type":"Landkreis"},"federalState":{"key":"09","name":"Bayern"}},{"name":"Jean-Paul-Str.","postalCode":"95326","locality":"Kulmbach","municipality":{"key":"09477128","name":"Kulmbach, GKSt","type":"Große_Kreisstadt"},"district":{"key":"09477","name":"Kulmbach","type":"Landkreis"},"federalState":{"key":"09","name":"Bayern"}},{"name":"Joachimsthaler Weg","postalCode":"95326","locality":"Kulmbach","municipality":{"key":"09477128","name":"Kulmbach, GKSt","type":"Große_Kreisstadt"},"district":{"key":"09477","name":"Kulmbach","type":"Landkreis"},"federalState":{"key":"09","name":"Bayern"}},{"name":"Johann-Brenk-Str.","postalCode":"95326","locality":"Kulmbach","municipality":{"key":"09477128","name":"Kulmbach, GKSt","type":"Große_Kreisstadt"},"district":{"key":"09477","name":"Kulmbach","type":"Landkreis"},"federalState":{"key":"09","name":"Bayern"}},{"name":"Johann-Eck-Str.","postalCode":"95326","locality":"Kulmbach","municipality":{"key":"09477128","name":"Kulmbach, GKSt","type":"Große_Kreisstadt"},"district":{"key":"09477","name":"Kulmbach","type":"Landkreis"},"federalState":{"key":"09","name":"Bayern"}},{"name":"Johannesweg","postalCode":"95326","locality":"Kulmbach","municipality":{"key":"09477128","name":"Kulmbach, GKSt","type":"Große_Kreisstadt"},"district":{"key":"09477","name":"Kulmbach","type":"Landkreis"},"federalState":{"key":"09","name":"Bayern"}},{"name":"Johann-Völker-Str.","postalCode":"95326","locality":"Kulmbach","municipality":{"key":"09477128","name":"Kulmbach, GKSt","type":"Große_Kreisstadt"},"district":{"key":"09477","name":"Kulmbach","type":"Landkreis"},"federalState":{"key":"09","name":"Bayern"}},{"name":"Kellergasse","postalCode":"95336","locality":"Mainleus","municipality":{"key":"09477136","name":"Mainleus, M","type":"Markt"},"district":{"key":"09477","name":"Kulmbach","type":"Landkreis"},"federalState":{"key":"09","name":"Bayern"}},{"name":"Kelterweg","postalCode":"95336","locality":"Mainleus","municipality":{"key":"09477136","name":"Mainleus, M","type":"Markt"},"district":{"key":"09477","name":"Kulmbach","type":"Landkreis"},"federalState":{"key":"09","name":"Bayern"}},{"name":"Kirchsteig","postalCode":"95336","locality":"Mainleus","municipality":{"key":"09477136","name":"Mainleus, M","type":"Markt"},"district":{"key":"09477","name":"Kulmbach","type":"Landkreis"},"federalState":{"key":"09","name":"Bayern"}},{"name":"Kirchweg","postalCode":"95336","locality":"Mainleus","municipality":{"key":"09477136","name":"Mainleus, M","type":"Markt"},"district":{"key":"09477","name":"Kulmbach","type":"Landkreis"},"federalState":{"key":"09","name":"Bayern"}},{"name":"Kirschleite","postalCode":"95336","locality":"Mainleus","municipality":{"key":"09477136","name":"Mainleus, M","type":"Markt"},"district":{"key":"09477","name":"Kulmbach","type":"Landkreis"},"federalState":{"key":"09","name":"Bayern"}},{"name":"Königsberger Str.","postalCode":"95336","locality":"Mainleus","municipality":{"key":"09477136","name":"Mainleus, M","type":"Markt"},"district":{"key":"09477","name":"Kulmbach","type":"Landkreis"},"federalState":{"key":"09","name":"Bayern"}},{"name":"Konrad-Popp-Platz","postalCode":"95336","locality":"Mainleus","municipality":{"key":"09477136","name":"Mainleus, M","type":"Markt"},"district":{"key":"09477","name":"Kulmbach","type":"Landkreis"},"federalState":{"key":"09","name":"Bayern"}},{"name":"Kornweg","postalCode":"95336","locality":"Mainleus","municipality":{"key":"09477136","name":"Mainleus, M","type":"Markt"},"district":{"key":"09477","name":"Kulmbach","type":"Landkreis"},"federalState":{"key":"09","name":"Bayern"}},{"name":"KU 3","postalCode":"95336","locality":"Mainleus","municipality":{"key":"09477136","name":"Mainleus, M","type":"Markt"},"district":{"key":"09477","name":"Kulmbach","type":"Landkreis"},"federalState":{"key":"09","name":"Bayern"}},{"name":"KU 6","postalCode":"95336","locality":"Mainleus","municipality":{"key":"09477136","name":"Mainleus, M","type":"Markt"},"district":{"key":"09477","name":"Kulmbach","type":"Landkreis"},"federalState":{"key":"09","name":"Bayern"}},{"name":"Kulmbacher Str.","postalCode":"95336","locality":"Mainleus","municipality":{"key":"09477136","name":"Mainleus, M","type":"Markt"},"district":{"key":"09477","name":"Kulmbach","type":"Landkreis"},"federalState":{"key":"09","name":"Bayern"}},{"name":"Lämmerweg","postalCode":"95336","locality":"Mainleus","municipality":{"key":"09477136","name":"Mainleus, M","type":"Markt"},"district":{"key":"09477","name":"Kulmbach","type":"Landkreis"},"federalState":{"key":"09","name":"Bayern"}},{"name":"Liegnitzer Str.","postalCode":"95336","locality":"Mainleus","municipality":{"key":"09477136","name":"Mainleus, M","type":"Markt"},"district":{"key":"09477","name":"Kulmbach","type":"Landkreis"},"federalState":{"key":"09","name":"Bayern"}},{"name":"Mandelweg","postalCode":"95336","locality":"Mainleus","municipality":{"key":"09477136","name":"Mainleus, M","type":"Markt"},"district":{"key":"09477","name":"Kulmbach","type":"Landkreis"},"federalState":{"key":"09","name":"Bayern"}},{"name":"Mittelweg","postalCode":"95336","locality":"Mainleus","municipality":{"key":"09477136","name":"Mainleus, M","type":"Markt"},"district":{"key":"09477","name":"Kulmbach","type":"Landkreis"},"federalState":{"key":"09","name":"Bayern"}},{"name":"Mittlere Fischäckergasse","postalCode":"95336","locality":"Mainleus","municipality":{"key":"09477136","name":"Mainleus, M","type":"Markt"},"district":{"key":"09477","name":"Kulmbach","type":"Landkreis"},"federalState":{"key":"09","name":"Bayern"}},{"name":"Mühlstr.","postalCode":"95336","locality":"Mainleus","municipality":{"key":"09477136","name":"Mainleus, M","type":"Markt"},"district":{"key":"09477","name":"Kulmbach","type":"Landkreis"},"federalState":{"key":"09","name":"Bayern"}},{"name":"Nordweg","postalCode":"95336","locality":"Mainleus","municipality":{"key":"09477136","name":"Mainleus, M","type":"Markt"},"district":{"key":"09477","name":"Kulmbach","type":"Landkreis"},"federalState":{"key":"09","name":"Bayern"}},{"name":"Oberdorf","postalCode":"95336","locality":"Mainleus","municipality":{"key":"09477136","name":"Mainleus, M","type":"Markt"},"district":{"key":"09477","name":"Kulmbach","type":"Landkreis"},"federalState":{"key":"09","name":"Bayern"}},{"name":"Obere Au","postalCode":"95336","locality":"Mainleus","municipality":{"key":"09477136","name":"Mainleus, M","type":"Markt"},"district":{"key":"09477","name":"Kulmbach","type":"Landkreis"},"federalState":{"key":"09","name":"Bayern"}},{"name":"Obere Fischäckergasse","postalCode":"95336","locality":"Mainleus","municipality":{"key":"09477136","name":"Mainleus, M","type":"Markt"},"district":{"key":"09477","name":"Kulmbach","type":"Landkreis"},"federalState":{"key":"09","name":"Bayern"}},{"name":"Patersbergweg","postalCode":"95336","locality":"Mainleus","municipality":{"key":"09477136","name":"Mainleus, M","type":"Markt"},"district":{"key":"09477","name":"Kulmbach","type":"Landkreis"},"federalState":{"key":"09","name":"Bayern"}},{"name":"Peter-Beck-Str.","postalCode":"95336","locality":"Mainleus","municipality":{"key":"09477136","name":"Mainleus, M","type":"Markt"},"district":{"key":"09477","name":"Kulmbach","type":"Landkreis"},"federalState":{"key":"09","name":"Bayern"}},{"name":"Pfarrgasse","postalCode":"95336","locality":"Mainleus","municipality":{"key":"09477136","name":"Mainleus, M","type":"Markt"},"district":{"key":"09477","name":"Kulmbach","type":"Landkreis"},"federalState":{"key":"09","name":"Bayern"}},{"name":"Pölz","postalCode":"95336","locality":"Mainleus","municipality":{"key":"09477136","name":"Mainleus, M","type":"Markt"},"district":{"key":"09477","name":"Kulmbach","type":"Landkreis"},"federalState":{"key":"09","name":"Bayern"}},{"name":"Pölzer Str.","postalCode":"95336","locality":"Mainleus","municipality":{"key":"09477136","name":"Mainleus, M","type":"Markt"},"district":{"key":"09477","name":"Kulmbach","type":"Landkreis"},"federalState":{"key":"09","name":"Bayern"}},{"name":"Prötschenbacher Weg","postalCode":"95336","locality":"Mainleus","municipality":{"key":"09477136","name":"Mainleus, M","type":"Markt"},"district":{"key":"09477","name":"Kulmbach","type":"Landkreis"},"federalState":{"key":"09","name":"Bayern"}},{"name":"Ringstr.","postalCode":"95336","locality":"Mainleus","municipality":{"key":"09477136","name":"Mainleus, M","type":"Markt"},"district":{"key":"09477","name":"Kulmbach","type":"Landkreis"},"federalState":{"key":"09","name":"Bayern"}},{"name":"Romanweg","postalCode":"95336","locality":"Mainleus","municipality":{"key":"09477136","name":"Mainleus, M","type":"Markt"},"district":{"key":"09477","name":"Kulmbach","type":"Landkreis"},"federalState":{"key":"09","name":"Bayern"}},{"name":"Rosenweg","postalCode":"95336","locality":"Mainleus","municipality":{"key":"09477136","name":"Mainleus, M","type":"Markt"},"district":{"key":"09477","name":"Kulmbach","type":"Landkreis"},"federalState":{"key":"09","name":"Bayern"}},{"name":"Röthenstr.","postalCode":"95336","locality":"Mainleus","municipality":{"key":"09477136","name":"Mainleus, M","type":"Markt"},"district":{"key":"09477","name":"Kulmbach","type":"Landkreis"},"federalState":{"key":"09","name":"Bayern"}},{"name":"Schlesierstr.","postalCode":"95336","locality":"Mainleus","municipality":{"key":"09477136","name":"Mainleus, M","type":"Markt"},"district":{"key":"09477","name":"Kulmbach","type":"Landkreis"},"federalState":{"key":"09","name":"Bayern"}},{"name":"Schloßberg","postalCode":"95336","locality":"Mainleus","municipality":{"key":"09477136","name":"Mainleus, M","type":"Markt"},"district":{"key":"09477","name":"Kulmbach","type":"Landkreis"},"federalState":{"key":"09","name":"Bayern"}},{"name":"Schneidergasse","postalCode":"95336","locality":"Mainleus","municipality":{"key":"09477136","name":"Mainleus, M","type":"Markt"},"district":{"key":"09477","name":"Kulmbach","type":"Landkreis"},"federalState":{"key":"09","name":"Bayern"}},{"name":"Schulstr.","postalCode":"95336","locality":"Mainleus","municipality":{"key":"09477136","name":"Mainleus, M","type":"Markt"},"district":{"key":"09477","name":"Kulmbach","type":"Landkreis"},"federalState":{"key":"09","name":"Bayern"}},{"name":"Schwarzach","postalCode":"95336","locality":"Mainleus","municipality":{"key":"09477136","name":"Mainleus, M","type":"Markt"},"district":{"key":"09477","name":"Kulmbach","type":"Landkreis"},"federalState":{"key":"09","name":"Bayern"}},{"name":"Siedlerstr.","postalCode":"95336","locality":"Mainleus","municipality":{"key":"09477136","name":"Mainleus, M","type":"Markt"},"district":{"key":"09477","name":"Kulmbach","type":"Landkreis"},"federalState":{"key":"09","name":"Bayern"}},{"name":"Sommerweg","postalCode":"95336","locality":"Mainleus","municipality":{"key":"09477136","name":"Mainleus, M","type":"Markt"},"district":{"key":"09477","name":"Kulmbach","type":"Landkreis"},"federalState":{"key":"09","name":"Bayern"}},{"name":"Sonnenleite","postalCode":"95336","locality":"Mainleus","municipality":{"key":"09477136","name":"Mainleus, M","type":"Markt"},"district":{"key":"09477","name":"Kulmbach","type":"Landkreis"},"federalState":{"key":"09","name":"Bayern"}},{"name":"Spinnereistr.","postalCode":"95336","locality":"Mainleus","municipality":{"key":"09477136","name":"Mainleus, M","type":"Markt"},"district":{"key":"09477","name":"Kulmbach","type":"Landkreis"},"federalState":{"key":"09","name":"Bayern"}},{"name":"Steinweg","postalCode":"95336","locality":"Mainleus","municipality":{"key":"09477136","name":"Mainleus, M","type":"Markt"},"district":{"key":"09477","name":"Kulmbach","type":"Landkreis"},"federalState":{"key":"09","name":"Bayern"}},{"name":"Stettiner Str.","postalCode":"95336","locality":"Mainleus","municipality":{"key":"09477136","name":"Mainleus, M","type":"Markt"},"district":{"key":"09477","name":"Kulmbach","type":"Landkreis"},"federalState":{"key":"09","name":"Bayern"}},{"name":"Sudetenstr.","postalCode":"95336","locality":"Mainleus","municipality":{"key":"09477136","name":"Mainleus, M","type":"Markt"},"district":{"key":"09477","name":"Kulmbach","type":"Landkreis"},"federalState":{"key":"09","name":"Bayern"}},{"name":"Südstr.","postalCode":"95336","locality":"Mainleus","municipality":{"key":"09477136","name":"Mainleus, M","type":"Markt"},"district":{"key":"09477","name":"Kulmbach","type":"Landkreis"},"federalState":{"key":"09","name":"Bayern"}},{"name":"Tiefe Äcker","postalCode":"95336","locality":"Mainleus","municipality":{"key":"09477136","name":"Mainleus, M","type":"Markt"},"district":{"key":"09477","name":"Kulmbach","type":"Landkreis"},"federalState":{"key":"09","name":"Bayern"}},{"name":"Tiefe Gasse","postalCode":"95336","locality":"Mainleus","municipality":{"key":"09477136","name":"Mainleus, M","type":"Markt"},"district":{"key":"09477","name":"Kulmbach","type":"Landkreis"},"federalState":{"key":"09","name":"Bayern"}},{"name":"Tiefer Graben","postalCode":"95336","locality":"Mainleus","municipality":{"key":"09477136","name":"Mainleus, M","type":"Markt"},"district":{"key":"09477","name":"Kulmbach","type":"Landkreis"},"federalState":{"key":"09","name":"Bayern"}},{"name":"Torweg","postalCode":"95336","locality":"Mainleus","municipality":{"key":"09477136","name":"Mainleus, M","type":"Markt"},"district":{"key":"09477","name":"Kulmbach","type":"Landkreis"},"federalState":{"key":"09","name":"Bayern"}},{"name":"Untere Fischäckergasse","postalCode":"95336","locality":"Mainleus","municipality":{"key":"09477136","name":"Mainleus, M","type":"Markt"},"district":{"key":"09477","name":"Kulmbach","type":"Landkreis"},"federalState":{"key":"09","name":"Bayern"}},{"name":"Veitlahm","postalCode":"95336","locality":"Mainleus","municipality":{"key":"09477136","name":"Mainleus, M","type":"Markt"},"district":{"key":"09477","name":"Kulmbach","type":"Landkreis"},"federalState":{"key":"09","name":"Bayern"}},{"name":"Weberstr.","postalCode":"95336","locality":"Mainleus","municipality":{"key":"09477136","name":"Mainleus, M","type":"Markt"},"district":{"key":"09477","name":"Kulmbach","type":"Landkreis"},"federalState":{"key":"09","name":"Bayern"}},{"name":"Weichselgarten","postalCode":"95336","locality":"Mainleus","municipality":{"key":"09477136","name":"Mainleus, M","type":"Markt"},"district":{"key":"09477","name":"Kulmbach","type":"Landkreis"},"federalState":{"key":"09","name":"Bayern"}},{"name":"Wernstein","postalCode":"95336","locality":"Mainleus","municipality":{"key":"09477136","name":"Mainleus, M","type":"Markt"},"district":{"key":"09477","name":"Kulmbach","type":"Landkreis"},"federalState":{"key":"09","name":"Bayern"}},{"name":"Wernsteiner Str.","postalCode":"95336","locality":"Mainleus","municipality":{"key":"09477136","name":"Mainleus, M","type":"Markt"},"district":{"key":"09477","name":"Kulmbach","type":"Landkreis"},"federalState":{"key":"09","name":"Bayern"}},{"name":"Wichernweg","postalCode":"95336","locality":"Mainleus","municipality":{"key":"09477136","name":"Mainleus, M","type":"Markt"},"district":{"key":"09477","name":"Kulmbach","type":"Landkreis"},"federalState":{"key":"09","name":"Bayern"}},{"name":"Willmersreuth","postalCode":"95336","locality":"Mainleus","municipality":{"key":"09477136","name":"Mainleus, M","type":"Markt"},"district":{"key":"09477","name":"Kulmbach","type":"Landkreis"},"federalState":{"key":"09","name":"Bayern"}},{"name":"Wilmersreuther Str.","postalCode":"95336","locality":"Mainleus","municipality":{"key":"09477136","name":"Mainleus, M","type":"Markt"},"district":{"key":"09477","name":"Kulmbach","type":"Landkreis"},"federalState":{"key":"09","name":"Bayern"}},{"name":"Wolfgang-Gack-Str.","postalCode":"95336","locality":"Mainleus","municipality":{"key":"09477136","name":"Mainleus, M","type":"Markt"},"district":{"key":"09477","name":"Kulmbach","type":"Landkreis"},"federalState":{"key":"09","name":"Bayern"}},{"name":"Wolfsleite","postalCode":"95336","locality":"Mainleus","municipality":{"key":"09477136","name":"Mainleus, M","type":"Markt"},"district":{"key":"09477","name":"Kulmbach","type":"Landkreis"},"federalState":{"key":"09","name":"Bayern"}},{"name":"Wüstendorf","postalCode":"95336","locality":"Mainleus","municipality":{"key":"09477136","name":"Mainleus, M","type":"Markt"},"district":{"key":"09477","name":"Kulmbach","type":"Landkreis"},"federalState":{"key":"09","name":"Bayern"}},{"name":"Zum Kaspersberg","postalCode":"95336","locality":"Mainleus","municipality":{"key":"09477136","name":"Mainleus, M","type":"Markt"},"district":{"key":"09477","name":"Kulmbach","type":"Landkreis"},"federalState":{"key":"09","name":"Bayern"}},{"name":"Ängerlein","postalCode":"95326","locality":"Kulmbach","municipality":{"key":"09477128","name":"Kulmbach, GKSt","type":"Große_Kreisstadt"},"district":{"key":"09477","name":"Kulmbach","type":"Landkreis"},"federalState":{"key":"09","name":"Bayern"}},]