[{"key":"10238806","name":"Aeschenmooswaldrandweg","postalCode":"5452","locality":"Oberrohrdorf","commune":{"key":"4037","name":"Oberrohrdorf","shortName":"Oberrohrdorf"},"district":{"key":"1902","name":"Bezirk Baden"},"canton":{"key":"19","code":"AG","name":"Aargau"},"status":"Real"},{"key":"10156070","name":"Altbergstrasse","postalCode":"5452","locality":"Oberrohrdorf","commune":{"key":"4037","name":"Oberrohrdorf","shortName":"Oberrohrdorf"},"district":{"key":"1902","name":"Bezirk Baden"},"canton":{"key":"19","code":"AG","name":"Aargau"},"status":"Real"},{"key":"10093044","name":"Bächliweg","postalCode":"5452","locality":"Oberrohrdorf","commune":{"key":"4037","name":"Oberrohrdorf","shortName":"Oberrohrdorf"},"district":{"key":"1902","name":"Bezirk Baden"},"canton":{"key":"19","code":"AG","name":"Aargau"},"status":"Real"},{"key":"10034951","name":"Badenerstrasse","postalCode":"5452","locality":"Oberrohrdorf","commune":{"key":"4037","name":"Oberrohrdorf","shortName":"Oberrohrdorf"},"district":{"key":"1902","name":"Bezirk Baden"},"canton":{"key":"19","code":"AG","name":"Aargau"},"status":"Real"},{"key":"10241957","name":"Baderstrasse","postalCode":"5452","locality":"Oberrohrdorf","commune":{"key":"4037","name":"Oberrohrdorf","shortName":"Oberrohrdorf"},"district":{"key":"1902","name":"Bezirk Baden"},"canton":{"key":"19","code":"AG","name":"Aargau"},"status":"Real"},{"key":"10052875","name":"Berg","postalCode":"5452","locality":"Oberrohrdorf","commune":{"key":"4037","name":"Oberrohrdorf","shortName":"Oberrohrdorf"},"district":{"key":"1902","name":"Bezirk Baden"},"canton":{"key":"19","code":"AG","name":"Aargau"},"status":"Real"},{"key":"10132307","name":"Bergstrasse","postalCode":"5452","locality":"Oberrohrdorf","commune":{"key":"4037","name":"Oberrohrdorf","shortName":"Oberrohrdorf"},"district":{"key":"1902","name":"Bezirk Baden"},"canton":{"key":"19","code":"AG","name":"Aargau"},"status":"Real"},{"key":"10242685","name":"Bergstrasse Wald","postalCode":"5452","locality":"Oberrohrdorf","commune":{"key":"4037","name":"Oberrohrdorf","shortName":"Oberrohrdorf"},"district":{"key":"1902","name":"Bezirk Baden"},"canton":{"key":"19","code":"AG","name":"Aargau"},"status":"Real"},{"key":"10071926","name":"Binsenstrasse","postalCode":"5452","locality":"Oberrohrdorf","commune":{"key":"4037","name":"Oberrohrdorf","shortName":"Oberrohrdorf"},"district":{"key":"1902","name":"Bezirk Baden"},"canton":{"key":"19","code":"AG","name":"Aargau"},"status":"Real"},{"key":"10034954","name":"Böhlistrasse","postalCode":"5452","locality":"Oberrohrdorf","commune":{"key":"4037","name":"Oberrohrdorf","shortName":"Oberrohrdorf"},"district":{"key":"1902","name":"Bezirk Baden"},"canton":{"key":"19","code":"AG","name":"Aargau"},"status":"Real"},{"key":"10111406","name":"Brüggliacher","postalCode":"5452","locality":"Oberrohrdorf","commune":{"key":"4037","name":"Oberrohrdorf","shortName":"Oberrohrdorf"},"district":{"key":"1902","name":"Bezirk Baden"},"canton":{"key":"19","code":"AG","name":"Aargau"},"status":"Real"},{"key":"10093043","name":"Brunnengässli","postalCode":"5452","locality":"Oberrohrdorf","commune":{"key":"4037","name":"Oberrohrdorf","shortName":"Oberrohrdorf"},"district":{"key":"1902","name":"Bezirk Baden"},"canton":{"key":"19","code":"AG","name":"Aargau"},"status":"Real"},{"key":"10034952","name":"Buacherstrasse","postalCode":"5452","locality":"Oberrohrdorf","commune":{"key":"4037","name":"Oberrohrdorf","shortName":"Oberrohrdorf"},"district":{"key":"1902","name":"Bezirk Baden"},"canton":{"key":"19","code":"AG","name":"Aargau"},"status":"Real"},{"key":"10238810","name":"Buechraisteig","postalCode":"5452","locality":"Oberrohrdorf","commune":{"key":"4037","name":"Oberrohrdorf","shortName":"Oberrohrdorf"},"district":{"key":"1902","name":"Bezirk Baden"},"canton":{"key":"19","code":"AG","name":"Aargau"},"status":"Real"},{"key":"10034953","name":"Buechraiweg","postalCode":"5452","locality":"Oberrohrdorf","commune":{"key":"4037","name":"Oberrohrdorf","shortName":"Oberrohrdorf"},"district":{"key":"1902","name":"Bezirk Baden"},"canton":{"key":"19","code":"AG","name":"Aargau"},"status":"Real"},{"key":"10034955","name":"Büntenquartier","postalCode":"5452","locality":"Oberrohrdorf","commune":{"key":"4037","name":"Oberrohrdorf","shortName":"Oberrohrdorf"},"district":{"key":"1902","name":"Bezirk Baden"},"canton":{"key":"19","code":"AG","name":"Aargau"},"status":"Real"},{"key":"10071927","name":"Busslingerstrasse","postalCode":"5452","locality":"Oberrohrdorf","commune":{"key":"4037","name":"Oberrohrdorf","shortName":"Oberrohrdorf"},"district":{"key":"1902","name":"Bezirk Baden"},"canton":{"key":"19","code":"AG","name":"Aargau"},"status":"Real"},{"key":"10093045","name":"Chellerächer","postalCode":"5452","locality":"Oberrohrdorf","commune":{"key":"4037","name":"Oberrohrdorf","shortName":"Oberrohrdorf"},"district":{"key":"1902","name":"Bezirk Baden"},"canton":{"key":"19","code":"AG","name":"Aargau"},"status":"Real"},{"key":"10238814","name":"Chileweg","postalCode":"5452","locality":"Oberrohrdorf","commune":{"key":"4037","name":"Oberrohrdorf","shortName":"Oberrohrdorf"},"district":{"key":"1902","name":"Bezirk Baden"},"canton":{"key":"19","code":"AG","name":"Aargau"},"status":"Real"},{"key":"10101589","name":"Cholacherstrasse","postalCode":"5452","locality":"Oberrohrdorf","commune":{"key":"4037","name":"Oberrohrdorf","shortName":"Oberrohrdorf"},"district":{"key":"1902","name":"Bezirk Baden"},"canton":{"key":"19","code":"AG","name":"Aargau"},"status":"Real"},{"key":"10238818","name":"Cholacherweg","postalCode":"5452","locality":"Oberrohrdorf","commune":{"key":"4037","name":"Oberrohrdorf","shortName":"Oberrohrdorf"},"district":{"key":"1902","name":"Bezirk Baden"},"canton":{"key":"19","code":"AG","name":"Aargau"},"status":"Real"},{"key":"10180965","name":"Dorfstrasse","postalCode":"5452","locality":"Oberrohrdorf","commune":{"key":"4037","name":"Oberrohrdorf","shortName":"Oberrohrdorf"},"district":{"key":"1902","name":"Bezirk Baden"},"canton":{"key":"19","code":"AG","name":"Aargau"},"status":"Real"},{"key":"10238822","name":"Fabriklerweg","postalCode":"5452","locality":"Oberrohrdorf","commune":{"key":"4037","name":"Oberrohrdorf","shortName":"Oberrohrdorf"},"district":{"key":"1902","name":"Bezirk Baden"},"canton":{"key":"19","code":"AG","name":"Aargau"},"status":"Real"},{"key":"10071928","name":"Feldweg","postalCode":"5452","locality":"Oberrohrdorf","commune":{"key":"4037","name":"Oberrohrdorf","shortName":"Oberrohrdorf"},"district":{"key":"1902","name":"Bezirk Baden"},"canton":{"key":"19","code":"AG","name":"Aargau"},"status":"Real"},{"key":"10034958","name":"Gässli","postalCode":"5452","locality":"Oberrohrdorf","commune":{"key":"4037","name":"Oberrohrdorf","shortName":"Oberrohrdorf"},"district":{"key":"1902","name":"Bezirk Baden"},"canton":{"key":"19","code":"AG","name":"Aargau"},"status":"Real"},{"key":"10034956","name":"Geissraistrasse","postalCode":"5452","locality":"Oberrohrdorf","commune":{"key":"4037","name":"Oberrohrdorf","shortName":"Oberrohrdorf"},"district":{"key":"1902","name":"Bezirk Baden"},"canton":{"key":"19","code":"AG","name":"Aargau"},"status":"Real"},{"key":"10056759","name":"Gheidweg","postalCode":"5452","locality":"Oberrohrdorf","commune":{"key":"4037","name":"Oberrohrdorf","shortName":"Oberrohrdorf"},"district":{"key":"1902","name":"Bezirk Baden"},"canton":{"key":"19","code":"AG","name":"Aargau"},"status":"Real"},{"key":"10093046","name":"Grabenmattstrasse","postalCode":"5452","locality":"Oberrohrdorf","commune":{"key":"4037","name":"Oberrohrdorf","shortName":"Oberrohrdorf"},"district":{"key":"1902","name":"Bezirk Baden"},"canton":{"key":"19","code":"AG","name":"Aargau"},"status":"Real"},{"key":"10117817","name":"Grossberg","postalCode":"5452","locality":"Oberrohrdorf","commune":{"key":"4037","name":"Oberrohrdorf","shortName":"Oberrohrdorf"},"district":{"key":"1902","name":"Bezirk Baden"},"canton":{"key":"19","code":"AG","name":"Aargau"},"status":"Real"},{"key":"10071929","name":"Grundacherweg","postalCode":"5452","locality":"Oberrohrdorf","commune":{"key":"4037","name":"Oberrohrdorf","shortName":"Oberrohrdorf"},"district":{"key":"1902","name":"Bezirk Baden"},"canton":{"key":"19","code":"AG","name":"Aargau"},"status":"Real"},{"key":"10034957","name":"Gwigg","postalCode":"5452","locality":"Oberrohrdorf","commune":{"key":"4037","name":"Oberrohrdorf","shortName":"Oberrohrdorf"},"district":{"key":"1902","name":"Bezirk Baden"},"canton":{"key":"19","code":"AG","name":"Aargau"},"status":"Real"},{"key":"10122995","name":"Gwiggweg","postalCode":"5452","locality":"Oberrohrdorf","commune":{"key":"4037","name":"Oberrohrdorf","shortName":"Oberrohrdorf"},"district":{"key":"1902","name":"Bezirk Baden"},"canton":{"key":"19","code":"AG","name":"Aargau"},"status":"Real"},{"key":"10238826","name":"Haberrütistrasse","postalCode":"5452","locality":"Oberrohrdorf","commune":{"key":"4037","name":"Oberrohrdorf","shortName":"Oberrohrdorf"},"district":{"key":"1902","name":"Bezirk Baden"},"canton":{"key":"19","code":"AG","name":"Aargau"},"status":"Real"},{"key":"10034959","name":"Haufroosstrasse","postalCode":"5452","locality":"Oberrohrdorf","commune":{"key":"4037","name":"Oberrohrdorf","shortName":"Oberrohrdorf"},"district":{"key":"1902","name":"Bezirk Baden"},"canton":{"key":"19","code":"AG","name":"Aargau"},"status":"Real"},{"key":"10139692","name":"Heckenweg","postalCode":"5452","locality":"Oberrohrdorf","commune":{"key":"4037","name":"Oberrohrdorf","shortName":"Oberrohrdorf"},"district":{"key":"1902","name":"Bezirk Baden"},"canton":{"key":"19","code":"AG","name":"Aargau"},"status":"Real"},{"key":"10238829","name":"Heereweg","postalCode":"5452","locality":"Oberrohrdorf","commune":{"key":"4037","name":"Oberrohrdorf","shortName":"Oberrohrdorf"},"district":{"key":"1902","name":"Bezirk Baden"},"canton":{"key":"19","code":"AG","name":"Aargau"},"status":"Real"},{"key":"10056760","name":"Hinterbächlistrasse","postalCode":"5452","locality":"Oberrohrdorf","commune":{"key":"4037","name":"Oberrohrdorf","shortName":"Oberrohrdorf"},"district":{"key":"1902","name":"Bezirk Baden"},"canton":{"key":"19","code":"AG","name":"Aargau"},"status":"Real"},{"key":"10238833","name":"Hinterhaustrasse","postalCode":"5452","locality":"Oberrohrdorf","commune":{"key":"4037","name":"Oberrohrdorf","shortName":"Oberrohrdorf"},"district":{"key":"1902","name":"Bezirk Baden"},"canton":{"key":"19","code":"AG","name":"Aargau"},"status":"Real"},{"key":"10093047","name":"Hintermatthof","postalCode":"5452","locality":"Oberrohrdorf","commune":{"key":"4037","name":"Oberrohrdorf","shortName":"Oberrohrdorf"},"district":{"key":"1902","name":"Bezirk Baden"},"canton":{"key":"19","code":"AG","name":"Aargau"},"status":"Real"},{"key":"10071930","name":"Hochstettweg","postalCode":"5452","locality":"Oberrohrdorf","commune":{"key":"4037","name":"Oberrohrdorf","shortName":"Oberrohrdorf"},"district":{"key":"1902","name":"Bezirk Baden"},"canton":{"key":"19","code":"AG","name":"Aargau"},"status":"Real"},{"key":"10034960","name":"Hochstrasse","postalCode":"5452","locality":"Oberrohrdorf","commune":{"key":"4037","name":"Oberrohrdorf","shortName":"Oberrohrdorf"},"district":{"key":"1902","name":"Bezirk Baden"},"canton":{"key":"19","code":"AG","name":"Aargau"},"status":"Real"},{"key":"10111407","name":"Hofmatt","postalCode":"5452","locality":"Oberrohrdorf","commune":{"key":"4037","name":"Oberrohrdorf","shortName":"Oberrohrdorf"},"district":{"key":"1902","name":"Bezirk Baden"},"canton":{"key":"19","code":"AG","name":"Aargau"},"status":"Real"},{"key":"10238837","name":"Höhenweg","postalCode":"5452","locality":"Oberrohrdorf","commune":{"key":"4037","name":"Oberrohrdorf","shortName":"Oberrohrdorf"},"district":{"key":"1902","name":"Bezirk Baden"},"canton":{"key":"19","code":"AG","name":"Aargau"},"status":"Real"},{"key":"10242686","name":"Höhenweg Wald","postalCode":"5452","locality":"Oberrohrdorf","commune":{"key":"4037","name":"Oberrohrdorf","shortName":"Oberrohrdorf"},"district":{"key":"1902","name":"Bezirk Baden"},"canton":{"key":"19","code":"AG","name":"Aargau"},"status":"Real"},{"key":"10093048","name":"Huttenacherstrasse","postalCode":"5452","locality":"Oberrohrdorf","commune":{"key":"4037","name":"Oberrohrdorf","shortName":"Oberrohrdorf"},"district":{"key":"1902","name":"Bezirk Baden"},"canton":{"key":"19","code":"AG","name":"Aargau"},"status":"Real"},{"key":"10056761","name":"Huttenpeterstrasse","postalCode":"5452","locality":"Oberrohrdorf","commune":{"key":"4037","name":"Oberrohrdorf","shortName":"Oberrohrdorf"},"district":{"key":"1902","name":"Bezirk Baden"},"canton":{"key":"19","code":"AG","name":"Aargau"},"status":"Real"},{"key":"10119818","name":"Im Feld","postalCode":"5452","locality":"Oberrohrdorf","commune":{"key":"4037","name":"Oberrohrdorf","shortName":"Oberrohrdorf"},"district":{"key":"1902","name":"Bezirk Baden"},"canton":{"key":"19","code":"AG","name":"Aargau"},"status":"Real"},{"key":"10131126","name":"Im Grundacher","postalCode":"5452","locality":"Oberrohrdorf","commune":{"key":"4037","name":"Oberrohrdorf","shortName":"Oberrohrdorf"},"district":{"key":"1902","name":"Bezirk Baden"},"canton":{"key":"19","code":"AG","name":"Aargau"},"status":"Real"},{"key":"10180966","name":"Im Täli","postalCode":"5452","locality":"Oberrohrdorf","commune":{"key":"4037","name":"Oberrohrdorf","shortName":"Oberrohrdorf"},"district":{"key":"1902","name":"Bezirk Baden"},"canton":{"key":"19","code":"AG","name":"Aargau"},"status":"Real"},{"key":"10238841","name":"Ischlag","postalCode":"5452","locality":"Oberrohrdorf","commune":{"key":"4037","name":"Oberrohrdorf","shortName":"Oberrohrdorf"},"district":{"key":"1902","name":"Bezirk Baden"},"canton":{"key":"19","code":"AG","name":"Aargau"},"status":"Real"},{"key":"10238847","name":"Judechilhofstrasse","postalCode":"5452","locality":"Oberrohrdorf","commune":{"key":"4037","name":"Oberrohrdorf","shortName":"Oberrohrdorf"},"district":{"key":"1902","name":"Bezirk Baden"},"canton":{"key":"19","code":"AG","name":"Aargau"},"status":"Real"},{"key":"10137162","name":"Kastanierai","postalCode":"5452","locality":"Oberrohrdorf","commune":{"key":"4037","name":"Oberrohrdorf","shortName":"Oberrohrdorf"},"district":{"key":"1902","name":"Bezirk Baden"},"canton":{"key":"19","code":"AG","name":"Aargau"},"status":"Real"},{"key":"10238851","name":"Leiächerweg","postalCode":"5452","locality":"Oberrohrdorf","commune":{"key":"4037","name":"Oberrohrdorf","shortName":"Oberrohrdorf"},"district":{"key":"1902","name":"Bezirk Baden"},"canton":{"key":"19","code":"AG","name":"Aargau"},"status":"Real"},{"key":"10034961","name":"Loonstrasse","postalCode":"5452","locality":"Oberrohrdorf","commune":{"key":"4037","name":"Oberrohrdorf","shortName":"Oberrohrdorf"},"district":{"key":"1902","name":"Bezirk Baden"},"canton":{"key":"19","code":"AG","name":"Aargau"},"status":"Real"},{"key":"10034962","name":"Luxhaldenstrasse","postalCode":"5452","locality":"Oberrohrdorf","commune":{"key":"4037","name":"Oberrohrdorf","shortName":"Oberrohrdorf"},"district":{"key":"1902","name":"Bezirk Baden"},"canton":{"key":"19","code":"AG","name":"Aargau"},"status":"Real"},{"key":"10093049","name":"Luxmattenstrasse","postalCode":"5452","locality":"Oberrohrdorf","commune":{"key":"4037","name":"Oberrohrdorf","shortName":"Oberrohrdorf"},"district":{"key":"1902","name":"Bezirk Baden"},"canton":{"key":"19","code":"AG","name":"Aargau"},"status":"Real"},{"key":"10238855","name":"Mittlere Aeschenmoosstrasse","postalCode":"5452","locality":"Oberrohrdorf","commune":{"key":"4037","name":"Oberrohrdorf","shortName":"Oberrohrdorf"},"district":{"key":"1902","name":"Bezirk Baden"},"canton":{"key":"19","code":"AG","name":"Aargau"},"status":"Real"},{"key":"10238859","name":"Mittlisthaustrasse","postalCode":"5452","locality":"Oberrohrdorf","commune":{"key":"4037","name":"Oberrohrdorf","shortName":"Oberrohrdorf"},"district":{"key":"1902","name":"Bezirk Baden"},"canton":{"key":"19","code":"AG","name":"Aargau"},"status":"Real"},{"key":"10101590","name":"Morgenacherstrasse","postalCode":"5452","locality":"Oberrohrdorf","commune":{"key":"4037","name":"Oberrohrdorf","shortName":"Oberrohrdorf"},"district":{"key":"1902","name":"Bezirk Baden"},"canton":{"key":"19","code":"AG","name":"Aargau"},"status":"Real"},{"key":"10188280","name":"Mülibachweg","postalCode":"5452","locality":"Oberrohrdorf","commune":{"key":"4037","name":"Oberrohrdorf","shortName":"Oberrohrdorf"},"district":{"key":"1902","name":"Bezirk Baden"},"canton":{"key":"19","code":"AG","name":"Aargau"},"status":"Real"},{"key":"10034963","name":"Neumattweg","postalCode":"5452","locality":"Oberrohrdorf","commune":{"key":"4037","name":"Oberrohrdorf","shortName":"Oberrohrdorf"},"district":{"key":"1902","name":"Bezirk Baden"},"canton":{"key":"19","code":"AG","name":"Aargau"},"status":"Real"},{"key":"10034964","name":"Niederrohrdorferstrasse","postalCode":"5452","locality":"Oberrohrdorf","commune":{"key":"4037","name":"Oberrohrdorf","shortName":"Oberrohrdorf"},"district":{"key":"1902","name":"Bezirk Baden"},"canton":{"key":"19","code":"AG","name":"Aargau"},"status":"Real"},{"key":"10238863","name":"Obenhindstrasse","postalCode":"5452","locality":"Oberrohrdorf","commune":{"key":"4037","name":"Oberrohrdorf","shortName":"Oberrohrdorf"},"district":{"key":"1902","name":"Bezirk Baden"},"canton":{"key":"19","code":"AG","name":"Aargau"},"status":"Real"},{"key":"10056762","name":"Oberdorfstrasse","postalCode":"5452","locality":"Oberrohrdorf","commune":{"key":"4037","name":"Oberrohrdorf","shortName":"Oberrohrdorf"},"district":{"key":"1902","name":"Bezirk Baden"},"canton":{"key":"19","code":"AG","name":"Aargau"},"status":"Real"},{"key":"10093050","name":"Obere Grabenmattstrasse","postalCode":"5452","locality":"Oberrohrdorf","commune":{"key":"4037","name":"Oberrohrdorf","shortName":"Oberrohrdorf"},"district":{"key":"1902","name":"Bezirk Baden"},"canton":{"key":"19","code":"AG","name":"Aargau"},"status":"Real"},{"key":"10238871","name":"Obere Mittlisthaustrasse","postalCode":"5452","locality":"Oberrohrdorf","commune":{"key":"4037","name":"Oberrohrdorf","shortName":"Oberrohrdorf"},"district":{"key":"1902","name":"Bezirk Baden"},"canton":{"key":"19","code":"AG","name":"Aargau"},"status":"Real"},{"key":"10180967","name":"Oberer Schüracherweg","postalCode":"5452","locality":"Oberrohrdorf","commune":{"key":"4037","name":"Oberrohrdorf","shortName":"Oberrohrdorf"},"district":{"key":"1902","name":"Bezirk Baden"},"canton":{"key":"19","code":"AG","name":"Aargau"},"status":"Real"},{"key":"10238875","name":"Obere Sorchenstrasse","postalCode":"5452","locality":"Oberrohrdorf","commune":{"key":"4037","name":"Oberrohrdorf","shortName":"Oberrohrdorf"},"district":{"key":"1902","name":"Bezirk Baden"},"canton":{"key":"19","code":"AG","name":"Aargau"},"status":"Real"},{"key":"10238879","name":"Oberriedweg","postalCode":"5452","locality":"Oberrohrdorf","commune":{"key":"4037","name":"Oberrohrdorf","shortName":"Oberrohrdorf"},"district":{"key":"1902","name":"Bezirk Baden"},"canton":{"key":"19","code":"AG","name":"Aargau"},"status":"Real"},{"key":"10238867","name":"Ober Winkelacherweg","postalCode":"5452","locality":"Oberrohrdorf","commune":{"key":"4037","name":"Oberrohrdorf","shortName":"Oberrohrdorf"},"district":{"key":"1902","name":"Bezirk Baden"},"canton":{"key":"19","code":"AG","name":"Aargau"},"status":"Real"},{"key":"10238883","name":"Ramsighaustrasse","postalCode":"5452","locality":"Oberrohrdorf","commune":{"key":"4037","name":"Oberrohrdorf","shortName":"Oberrohrdorf"},"district":{"key":"1902","name":"Bezirk Baden"},"canton":{"key":"19","code":"AG","name":"Aargau"},"status":"Real"},{"key":"10051229","name":"Ramsigweg","postalCode":"5452","locality":"Oberrohrdorf","commune":{"key":"4037","name":"Oberrohrdorf","shortName":"Oberrohrdorf"},"district":{"key":"1902","name":"Bezirk Baden"},"canton":{"key":"19","code":"AG","name":"Aargau"},"status":"Real"},{"key":"10071931","name":"Rebbergweg","postalCode":"5452","locality":"Oberrohrdorf","commune":{"key":"4037","name":"Oberrohrdorf","shortName":"Oberrohrdorf"},"district":{"key":"1902","name":"Bezirk Baden"},"canton":{"key":"19","code":"AG","name":"Aargau"},"status":"Real"},{"key":"10034965","name":"Riedmattenstrasse","postalCode":"5452","locality":"Oberrohrdorf","commune":{"key":"4037","name":"Oberrohrdorf","shortName":"Oberrohrdorf"},"district":{"key":"1902","name":"Bezirk Baden"},"canton":{"key":"19","code":"AG","name":"Aargau"},"status":"Real"},{"key":"10192009","name":"Riedweg","postalCode":"5452","locality":"Oberrohrdorf","commune":{"key":"4037","name":"Oberrohrdorf","shortName":"Oberrohrdorf"},"district":{"key":"1902","name":"Bezirk Baden"},"canton":{"key":"19","code":"AG","name":"Aargau"},"status":"Real"},{"key":"10117818","name":"Ringstrasse","postalCode":"5452","locality":"Oberrohrdorf","commune":{"key":"4037","name":"Oberrohrdorf","shortName":"Oberrohrdorf"},"district":{"key":"1902","name":"Bezirk Baden"},"canton":{"key":"19","code":"AG","name":"Aargau"},"status":"Real"},{"key":"10093051","name":"Rotrischstrasse","postalCode":"5452","locality":"Oberrohrdorf","commune":{"key":"4037","name":"Oberrohrdorf","shortName":"Oberrohrdorf"},"district":{"key":"1902","name":"Bezirk Baden"},"canton":{"key":"19","code":"AG","name":"Aargau"},"status":"Real"},{"key":"10238887","name":"Rüslerhaustrasse","postalCode":"5452","locality":"Oberrohrdorf","commune":{"key":"4037","name":"Oberrohrdorf","shortName":"Oberrohrdorf"},"district":{"key":"1902","name":"Bezirk Baden"},"canton":{"key":"19","code":"AG","name":"Aargau"},"status":"Real"},{"key":"10051230","name":"Rüslerstrasse","postalCode":"5452","locality":"Oberrohrdorf","commune":{"key":"4037","name":"Oberrohrdorf","shortName":"Oberrohrdorf"},"district":{"key":"1902","name":"Bezirk Baden"},"canton":{"key":"19","code":"AG","name":"Aargau"},"status":"Real"},{"key":"10034966","name":"Scheidweg","postalCode":"5452","locality":"Oberrohrdorf","commune":{"key":"4037","name":"Oberrohrdorf","shortName":"Oberrohrdorf"},"district":{"key":"1902","name":"Bezirk Baden"},"canton":{"key":"19","code":"AG","name":"Aargau"},"status":"Real"},{"key":"10238891","name":"Schlittweg","postalCode":"5452","locality":"Oberrohrdorf","commune":{"key":"4037","name":"Oberrohrdorf","shortName":"Oberrohrdorf"},"district":{"key":"1902","name":"Bezirk Baden"},"canton":{"key":"19","code":"AG","name":"Aargau"},"status":"Real"},{"key":"10113976","name":"Schüracherweg","postalCode":"5452","locality":"Oberrohrdorf","commune":{"key":"4037","name":"Oberrohrdorf","shortName":"Oberrohrdorf"},"district":{"key":"1902","name":"Bezirk Baden"},"canton":{"key":"19","code":"AG","name":"Aargau"},"status":"Real"},{"key":"10238895","name":"Sennenberghöhenweg","postalCode":"5452","locality":"Oberrohrdorf","commune":{"key":"4037","name":"Oberrohrdorf","shortName":"Oberrohrdorf"},"district":{"key":"1902","name":"Bezirk Baden"},"canton":{"key":"19","code":"AG","name":"Aargau"},"status":"Real"},{"key":"10238899","name":"Sennenbergstrasse","postalCode":"5452","locality":"Oberrohrdorf","commune":{"key":"4037","name":"Oberrohrdorf","shortName":"Oberrohrdorf"},"district":{"key":"1902","name":"Bezirk Baden"},"canton":{"key":"19","code":"AG","name":"Aargau"},"status":"Real"},{"key":"10034967","name":"Sonnhalde","postalCode":"5452","locality":"Oberrohrdorf","commune":{"key":"4037","name":"Oberrohrdorf","shortName":"Oberrohrdorf"},"district":{"key":"1902","name":"Bezirk Baden"},"canton":{"key":"19","code":"AG","name":"Aargau"},"status":"Real"},{"key":"10122866","name":"Sonnmatt","postalCode":"5452","locality":"Oberrohrdorf","commune":{"key":"4037","name":"Oberrohrdorf","shortName":"Oberrohrdorf"},"district":{"key":"1902","name":"Bezirk Baden"},"canton":{"key":"19","code":"AG","name":"Aargau"},"status":"Real"},{"key":"10101591","name":"Sorchenstrasse","postalCode":"5452","locality":"Oberrohrdorf","commune":{"key":"4037","name":"Oberrohrdorf","shortName":"Oberrohrdorf"},"district":{"key":"1902","name":"Bezirk Baden"},"canton":{"key":"19","code":"AG","name":"Aargau"},"status":"Real"},{"key":"10111408","name":"Steiacher","postalCode":"5452","locality":"Oberrohrdorf","commune":{"key":"4037","name":"Oberrohrdorf","shortName":"Oberrohrdorf"},"district":{"key":"1902","name":"Bezirk Baden"},"canton":{"key":"19","code":"AG","name":"Aargau"},"status":"Real"},{"key":"10093052","name":"Steigässli","postalCode":"5452","locality":"Oberrohrdorf","commune":{"key":"4037","name":"Oberrohrdorf","shortName":"Oberrohrdorf"},"district":{"key":"1902","name":"Bezirk Baden"},"canton":{"key":"19","code":"AG","name":"Aargau"},"status":"Real"},{"key":"10034968","name":"Steigstrasse","postalCode":"5452","locality":"Oberrohrdorf","commune":{"key":"4037","name":"Oberrohrdorf","shortName":"Oberrohrdorf"},"district":{"key":"1902","name":"Bezirk Baden"},"canton":{"key":"19","code":"AG","name":"Aargau"},"status":"Real"},{"key":"10238903","name":"Tälisteig","postalCode":"5452","locality":"Oberrohrdorf","commune":{"key":"4037","name":"Oberrohrdorf","shortName":"Oberrohrdorf"},"district":{"key":"1902","name":"Bezirk Baden"},"canton":{"key":"19","code":"AG","name":"Aargau"},"status":"Real"},{"key":"10071932","name":"Tänndliacher","postalCode":"5452","locality":"Oberrohrdorf","commune":{"key":"4037","name":"Oberrohrdorf","shortName":"Oberrohrdorf"},"district":{"key":"1902","name":"Bezirk Baden"},"canton":{"key":"19","code":"AG","name":"Aargau"},"status":"Real"},{"key":"10238907","name":"Tänndliacherstrasse","postalCode":"5452","locality":"Oberrohrdorf","commune":{"key":"4037","name":"Oberrohrdorf","shortName":"Oberrohrdorf"},"district":{"key":"1902","name":"Bezirk Baden"},"canton":{"key":"19","code":"AG","name":"Aargau"},"status":"Real"},{"key":"10238911","name":"Tannenhogerweg","postalCode":"5452","locality":"Oberrohrdorf","commune":{"key":"4037","name":"Oberrohrdorf","shortName":"Oberrohrdorf"},"district":{"key":"1902","name":"Bezirk Baden"},"canton":{"key":"19","code":"AG","name":"Aargau"},"status":"Real"},{"key":"10238915","name":"Tannwaldstrasse","postalCode":"5452","locality":"Oberrohrdorf","commune":{"key":"4037","name":"Oberrohrdorf","shortName":"Oberrohrdorf"},"district":{"key":"1902","name":"Bezirk Baden"},"canton":{"key":"19","code":"AG","name":"Aargau"},"status":"Real"},{"key":"10242235","name":"Unterer Bächliweg","postalCode":"5452","locality":"Oberrohrdorf","commune":{"key":"4037","name":"Oberrohrdorf","shortName":"Oberrohrdorf"},"district":{"key":"1902","name":"Bezirk Baden"},"canton":{"key":"19","code":"AG","name":"Aargau"},"status":"Real"},{"key":"10238927","name":"Unterriedsteig","postalCode":"5452","locality":"Oberrohrdorf","commune":{"key":"4037","name":"Oberrohrdorf","shortName":"Oberrohrdorf"},"district":{"key":"1902","name":"Bezirk Baden"},"canton":{"key":"19","code":"AG","name":"Aargau"},"status":"Real"},{"key":"10034969","name":"Unterriedstrasse","postalCode":"5452","locality":"Oberrohrdorf","commune":{"key":"4037","name":"Oberrohrdorf","shortName":"Oberrohrdorf"},"district":{"key":"1902","name":"Bezirk Baden"},"canton":{"key":"19","code":"AG","name":"Aargau"},"status":"Real"},{"key":"10238919","name":"Unter Sorchenstrasse","postalCode":"5452","locality":"Oberrohrdorf","commune":{"key":"4037","name":"Oberrohrdorf","shortName":"Oberrohrdorf"},"district":{"key":"1902","name":"Bezirk Baden"},"canton":{"key":"19","code":"AG","name":"Aargau"},"status":"Real"},{"key":"10238923","name":"Unter Winkelacherweg","postalCode":"5452","locality":"Oberrohrdorf","commune":{"key":"4037","name":"Oberrohrdorf","shortName":"Oberrohrdorf"},"district":{"key":"1902","name":"Bezirk Baden"},"canton":{"key":"19","code":"AG","name":"Aargau"},"status":"Real"},{"key":"10071933","name":"Vorderi Böde","postalCode":"5452","locality":"Oberrohrdorf","commune":{"key":"4037","name":"Oberrohrdorf","shortName":"Oberrohrdorf"},"district":{"key":"1902","name":"Bezirk Baden"},"canton":{"key":"19","code":"AG","name":"Aargau"},"status":"Real"},{"key":"10051231","name":"Weidhofstrasse","postalCode":"5452","locality":"Oberrohrdorf","commune":{"key":"4037","name":"Oberrohrdorf","shortName":"Oberrohrdorf"},"district":{"key":"1902","name":"Bezirk Baden"},"canton":{"key":"19","code":"AG","name":"Aargau"},"status":"Real"},{"key":"10238931","name":"Weidweg","postalCode":"5452","locality":"Oberrohrdorf","commune":{"key":"4037","name":"Oberrohrdorf","shortName":"Oberrohrdorf"},"district":{"key":"1902","name":"Bezirk Baden"},"canton":{"key":"19","code":"AG","name":"Aargau"},"status":"Real"},{"key":"10034970","name":"Weihermattstrasse","postalCode":"5452","locality":"Oberrohrdorf","commune":{"key":"4037","name":"Oberrohrdorf","shortName":"Oberrohrdorf"},"district":{"key":"1902","name":"Bezirk Baden"},"canton":{"key":"19","code":"AG","name":"Aargau"},"status":"Real"},{"key":"10093053","name":"Zelgli","postalCode":"5452","locality":"Oberrohrdorf","commune":{"key":"4037","name":"Oberrohrdorf","shortName":"Oberrohrdorf"},"district":{"key":"1902","name":"Bezirk Baden"},"canton":{"key":"19","code":"AG","name":"Aargau"},"status":"Real"},{"key":"10071934","name":"Zentrum","postalCode":"5452","locality":"Oberrohrdorf","commune":{"key":"4037","name":"Oberrohrdorf","shortName":"Oberrohrdorf"},"district":{"key":"1902","name":"Bezirk Baden"},"canton":{"key":"19","code":"AG","name":"Aargau"},"status":"Real"},{"key":"10238935","name":"Ziggweg","postalCode":"5452","locality":"Oberrohrdorf","commune":{"key":"4037","name":"Oberrohrdorf","shortName":"Oberrohrdorf"},"district":{"key":"1902","name":"Bezirk Baden"},"canton":{"key":"19","code":"AG","name":"Aargau"},"status":"Real"},{"key":"10071935","name":"Zürichstrasse","postalCode":"5452","locality":"Oberrohrdorf","commune":{"key":"4037","name":"Oberrohrdorf","shortName":"Oberrohrdorf"},"district":{"key":"1902","name":"Bezirk Baden"},"canton":{"key":"19","code":"AG","name":"Aargau"},"status":"Real"},]