[{"key":"10015473","name":"Aeschbachweg","postalCode":"3657","locality":"Schwanden (Sigriswil)","commune":{"key":"938","name":"Sigriswil","shortName":"Sigriswil"},"district":{"key":"247","name":"Verwaltungskreis Thun"},"canton":{"key":"2","code":"BE","name":"Bern / Berne"},"status":"Real"},{"key":"10166797","name":"Aeschlenallmend","postalCode":"3657","locality":"Schwanden (Sigriswil)","commune":{"key":"938","name":"Sigriswil","shortName":"Sigriswil"},"district":{"key":"247","name":"Verwaltungskreis Thun"},"canton":{"key":"2","code":"BE","name":"Bern / Berne"},"status":"Real"},{"key":"10185082","name":"Allmendschwandstrasse","postalCode":"3657","locality":"Schwanden (Sigriswil)","commune":{"key":"938","name":"Sigriswil","shortName":"Sigriswil"},"district":{"key":"247","name":"Verwaltungskreis Thun"},"canton":{"key":"2","code":"BE","name":"Bern / Berne"},"status":"Real"},{"key":"10108378","name":"Alpiglen","postalCode":"3655","locality":"Sigriswil","commune":{"key":"938","name":"Sigriswil","shortName":"Sigriswil"},"district":{"key":"247","name":"Verwaltungskreis Thun"},"canton":{"key":"2","code":"BE","name":"Bern / Berne"},"status":"Real"},{"key":"10108378","name":"Alpiglen","postalCode":"3657","locality":"Schwanden (Sigriswil)","commune":{"key":"938","name":"Sigriswil","shortName":"Sigriswil"},"district":{"key":"247","name":"Verwaltungskreis Thun"},"canton":{"key":"2","code":"BE","name":"Bern / Berne"},"status":"Real"},{"key":"10015445","name":"Auf dem Bühl","postalCode":"3655","locality":"Sigriswil","commune":{"key":"938","name":"Sigriswil","shortName":"Sigriswil"},"district":{"key":"247","name":"Verwaltungskreis Thun"},"canton":{"key":"2","code":"BE","name":"Bern / Berne"},"status":"Real"},{"key":"10165218","name":"Bärgsunneweg","postalCode":"3657","locality":"Schwanden (Sigriswil)","commune":{"key":"938","name":"Sigriswil","shortName":"Sigriswil"},"district":{"key":"247","name":"Verwaltungskreis Thun"},"canton":{"key":"2","code":"BE","name":"Bern / Berne"},"status":"Real"},{"key":"10015474","name":"Beiweg","postalCode":"3657","locality":"Schwanden (Sigriswil)","commune":{"key":"938","name":"Sigriswil","shortName":"Sigriswil"},"district":{"key":"247","name":"Verwaltungskreis Thun"},"canton":{"key":"2","code":"BE","name":"Bern / Berne"},"status":"Real"},{"key":"10165394","name":"Bodenweg","postalCode":"3657","locality":"Schwanden (Sigriswil)","commune":{"key":"938","name":"Sigriswil","shortName":"Sigriswil"},"district":{"key":"247","name":"Verwaltungskreis Thun"},"canton":{"key":"2","code":"BE","name":"Bern / Berne"},"status":"Real"},{"key":"10220902","name":"Bodmi","postalCode":"3657","locality":"Schwanden (Sigriswil)","commune":{"key":"938","name":"Sigriswil","shortName":"Sigriswil"},"district":{"key":"247","name":"Verwaltungskreis Thun"},"canton":{"key":"2","code":"BE","name":"Bern / Berne"},"status":"Real"},{"key":"10114010","name":"Brendeleggweg","postalCode":"3655","locality":"Sigriswil","commune":{"key":"938","name":"Sigriswil","shortName":"Sigriswil"},"district":{"key":"247","name":"Verwaltungskreis Thun"},"canton":{"key":"2","code":"BE","name":"Bern / Berne"},"status":"Real"},{"key":"10015475","name":"Buchholzstrasse","postalCode":"3657","locality":"Schwanden (Sigriswil)","commune":{"key":"938","name":"Sigriswil","shortName":"Sigriswil"},"district":{"key":"247","name":"Verwaltungskreis Thun"},"canton":{"key":"2","code":"BE","name":"Bern / Berne"},"status":"Real"},{"key":"10220907","name":"Büffel","postalCode":"3657","locality":"Schwanden (Sigriswil)","commune":{"key":"938","name":"Sigriswil","shortName":"Sigriswil"},"district":{"key":"247","name":"Verwaltungskreis Thun"},"canton":{"key":"2","code":"BE","name":"Bern / Berne"},"status":"Real"},{"key":"10114011","name":"Bühlweg","postalCode":"3655","locality":"Sigriswil","commune":{"key":"938","name":"Sigriswil","shortName":"Sigriswil"},"district":{"key":"247","name":"Verwaltungskreis Thun"},"canton":{"key":"2","code":"BE","name":"Bern / Berne"},"status":"Real"},{"key":"10220916","name":"Burggraben","postalCode":"3657","locality":"Schwanden (Sigriswil)","commune":{"key":"938","name":"Sigriswil","shortName":"Sigriswil"},"district":{"key":"247","name":"Verwaltungskreis Thun"},"canton":{"key":"2","code":"BE","name":"Bern / Berne"},"status":"Real"},{"key":"10185077","name":"Dorfstrasse","postalCode":"3655","locality":"Sigriswil","commune":{"key":"938","name":"Sigriswil","shortName":"Sigriswil"},"district":{"key":"247","name":"Verwaltungskreis Thun"},"canton":{"key":"2","code":"BE","name":"Bern / Berne"},"status":"Real"},{"key":"10015476","name":"Dreispitzweg","postalCode":"3657","locality":"Schwanden (Sigriswil)","commune":{"key":"938","name":"Sigriswil","shortName":"Sigriswil"},"district":{"key":"247","name":"Verwaltungskreis Thun"},"canton":{"key":"2","code":"BE","name":"Bern / Berne"},"status":"Real"},{"key":"10218022","name":"Dünzenegg","postalCode":"3657","locality":"Schwanden (Sigriswil)","commune":{"key":"938","name":"Sigriswil","shortName":"Sigriswil"},"district":{"key":"247","name":"Verwaltungskreis Thun"},"canton":{"key":"2","code":"BE","name":"Bern / Berne"},"status":"Real"},{"key":"10015477","name":"Eggenweg","postalCode":"3657","locality":"Schwanden (Sigriswil)","commune":{"key":"938","name":"Sigriswil","shortName":"Sigriswil"},"district":{"key":"247","name":"Verwaltungskreis Thun"},"canton":{"key":"2","code":"BE","name":"Bern / Berne"},"status":"Real"},{"key":"10114015","name":"Eggisbühlweg","postalCode":"3655","locality":"Sigriswil","commune":{"key":"938","name":"Sigriswil","shortName":"Sigriswil"},"district":{"key":"247","name":"Verwaltungskreis Thun"},"canton":{"key":"2","code":"BE","name":"Bern / Berne"},"status":"Real"},{"key":"10157660","name":"Egglenweg","postalCode":"3655","locality":"Sigriswil","commune":{"key":"938","name":"Sigriswil","shortName":"Sigriswil"},"district":{"key":"247","name":"Verwaltungskreis Thun"},"canton":{"key":"2","code":"BE","name":"Bern / Berne"},"status":"Real"},{"key":"10218033","name":"Endorfallmiweg","postalCode":"3655","locality":"Sigriswil","commune":{"key":"938","name":"Sigriswil","shortName":"Sigriswil"},"district":{"key":"247","name":"Verwaltungskreis Thun"},"canton":{"key":"2","code":"BE","name":"Bern / Berne"},"status":"Real"},{"key":"10218033","name":"Endorfallmiweg","postalCode":"3657","locality":"Schwanden (Sigriswil)","commune":{"key":"938","name":"Sigriswil","shortName":"Sigriswil"},"district":{"key":"247","name":"Verwaltungskreis Thun"},"canton":{"key":"2","code":"BE","name":"Bern / Berne"},"status":"Real"},{"key":"10157651","name":"Endorfhohle","postalCode":"3655","locality":"Sigriswil","commune":{"key":"938","name":"Sigriswil","shortName":"Sigriswil"},"district":{"key":"247","name":"Verwaltungskreis Thun"},"canton":{"key":"2","code":"BE","name":"Bern / Berne"},"status":"Real"},{"key":"10155761","name":"Endorfstrasse","postalCode":"3655","locality":"Sigriswil","commune":{"key":"938","name":"Sigriswil","shortName":"Sigriswil"},"district":{"key":"247","name":"Verwaltungskreis Thun"},"canton":{"key":"2","code":"BE","name":"Bern / Berne"},"status":"Real"},{"key":"10015449","name":"Feldenstrasse","postalCode":"3655","locality":"Sigriswil","commune":{"key":"938","name":"Sigriswil","shortName":"Sigriswil"},"district":{"key":"247","name":"Verwaltungskreis Thun"},"canton":{"key":"2","code":"BE","name":"Bern / Berne"},"status":"Real"},{"key":"10061940","name":"Feldmoosweg","postalCode":"3657","locality":"Schwanden (Sigriswil)","commune":{"key":"938","name":"Sigriswil","shortName":"Sigriswil"},"district":{"key":"247","name":"Verwaltungskreis Thun"},"canton":{"key":"2","code":"BE","name":"Bern / Berne"},"status":"Real"},{"key":"10218035","name":"Flühlauenen","postalCode":"3657","locality":"Schwanden (Sigriswil)","commune":{"key":"938","name":"Sigriswil","shortName":"Sigriswil"},"district":{"key":"247","name":"Verwaltungskreis Thun"},"canton":{"key":"2","code":"BE","name":"Bern / Berne"},"status":"Real"},{"key":"10081919","name":"Gänsweid","postalCode":"3655","locality":"Sigriswil","commune":{"key":"938","name":"Sigriswil","shortName":"Sigriswil"},"district":{"key":"247","name":"Verwaltungskreis Thun"},"canton":{"key":"2","code":"BE","name":"Bern / Berne"},"status":"Real"},{"key":"10125019","name":"Gersternstrasse","postalCode":"3655","locality":"Sigriswil","commune":{"key":"938","name":"Sigriswil","shortName":"Sigriswil"},"district":{"key":"247","name":"Verwaltungskreis Thun"},"canton":{"key":"2","code":"BE","name":"Bern / Berne"},"status":"Real"},{"key":"10125019","name":"Gersternstrasse","postalCode":"3657","locality":"Schwanden (Sigriswil)","commune":{"key":"938","name":"Sigriswil","shortName":"Sigriswil"},"district":{"key":"247","name":"Verwaltungskreis Thun"},"canton":{"key":"2","code":"BE","name":"Bern / Berne"},"status":"Real"},{"key":"10081926","name":"Gibelackerweg","postalCode":"3657","locality":"Schwanden (Sigriswil)","commune":{"key":"938","name":"Sigriswil","shortName":"Sigriswil"},"district":{"key":"247","name":"Verwaltungskreis Thun"},"canton":{"key":"2","code":"BE","name":"Bern / Berne"},"status":"Real"},{"key":"10165395","name":"Gorchenweg","postalCode":"3657","locality":"Schwanden (Sigriswil)","commune":{"key":"938","name":"Sigriswil","shortName":"Sigriswil"},"district":{"key":"247","name":"Verwaltungskreis Thun"},"canton":{"key":"2","code":"BE","name":"Bern / Berne"},"status":"Real"},{"key":"10187186","name":"Grabenmühle","postalCode":"3655","locality":"Sigriswil","commune":{"key":"938","name":"Sigriswil","shortName":"Sigriswil"},"district":{"key":"247","name":"Verwaltungskreis Thun"},"canton":{"key":"2","code":"BE","name":"Bern / Berne"},"status":"Real"},{"key":"10157661","name":"Grönstrasse","postalCode":"3655","locality":"Sigriswil","commune":{"key":"938","name":"Sigriswil","shortName":"Sigriswil"},"district":{"key":"247","name":"Verwaltungskreis Thun"},"canton":{"key":"2","code":"BE","name":"Bern / Berne"},"status":"Real"},{"key":"10185083","name":"Grubisweg","postalCode":"3657","locality":"Schwanden (Sigriswil)","commune":{"key":"938","name":"Sigriswil","shortName":"Sigriswil"},"district":{"key":"247","name":"Verwaltungskreis Thun"},"canton":{"key":"2","code":"BE","name":"Bern / Berne"},"status":"Real"},{"key":"10157659","name":"Gumiweg","postalCode":"3655","locality":"Sigriswil","commune":{"key":"938","name":"Sigriswil","shortName":"Sigriswil"},"district":{"key":"247","name":"Verwaltungskreis Thun"},"canton":{"key":"2","code":"BE","name":"Bern / Berne"},"status":"Real"},{"key":"10015478","name":"Hauetenweg","postalCode":"3657","locality":"Schwanden (Sigriswil)","commune":{"key":"938","name":"Sigriswil","shortName":"Sigriswil"},"district":{"key":"247","name":"Verwaltungskreis Thun"},"canton":{"key":"2","code":"BE","name":"Bern / Berne"},"status":"Real"},{"key":"10165396","name":"Heitibodenweg","postalCode":"3657","locality":"Schwanden (Sigriswil)","commune":{"key":"938","name":"Sigriswil","shortName":"Sigriswil"},"district":{"key":"247","name":"Verwaltungskreis Thun"},"canton":{"key":"2","code":"BE","name":"Bern / Berne"},"status":"Real"},{"key":"10163167","name":"Holzgasse","postalCode":"3657","locality":"Schwanden (Sigriswil)","commune":{"key":"938","name":"Sigriswil","shortName":"Sigriswil"},"district":{"key":"247","name":"Verwaltungskreis Thun"},"canton":{"key":"2","code":"BE","name":"Bern / Berne"},"status":"Real"},{"key":"10217668","name":"Hormettlen","postalCode":"3657","locality":"Schwanden (Sigriswil)","commune":{"key":"938","name":"Sigriswil","shortName":"Sigriswil"},"district":{"key":"247","name":"Verwaltungskreis Thun"},"canton":{"key":"2","code":"BE","name":"Bern / Berne"},"status":"Real"},{"key":"10217676","name":"Hubelhörnli","postalCode":"3657","locality":"Schwanden (Sigriswil)","commune":{"key":"938","name":"Sigriswil","shortName":"Sigriswil"},"district":{"key":"247","name":"Verwaltungskreis Thun"},"canton":{"key":"2","code":"BE","name":"Bern / Berne"},"status":"Real"},{"key":"10217680","name":"Huetgrabestrasse","postalCode":"3657","locality":"Schwanden (Sigriswil)","commune":{"key":"938","name":"Sigriswil","shortName":"Sigriswil"},"district":{"key":"247","name":"Verwaltungskreis Thun"},"canton":{"key":"2","code":"BE","name":"Bern / Berne"},"status":"Real"},{"key":"10220985","name":"In den Wängen","postalCode":"3655","locality":"Sigriswil","commune":{"key":"938","name":"Sigriswil","shortName":"Sigriswil"},"district":{"key":"247","name":"Verwaltungskreis Thun"},"canton":{"key":"2","code":"BE","name":"Bern / Berne"},"status":"Real"},{"key":"10218998","name":"Justistalstrasse","postalCode":"3657","locality":"Schwanden (Sigriswil)","commune":{"key":"938","name":"Sigriswil","shortName":"Sigriswil"},"district":{"key":"247","name":"Verwaltungskreis Thun"},"canton":{"key":"2","code":"BE","name":"Bern / Berne"},"status":"Real"},{"key":"10015451","name":"Kappeliweg","postalCode":"3655","locality":"Sigriswil","commune":{"key":"938","name":"Sigriswil","shortName":"Sigriswil"},"district":{"key":"247","name":"Verwaltungskreis Thun"},"canton":{"key":"2","code":"BE","name":"Bern / Berne"},"status":"Real"},{"key":"10220993","name":"Kehle","postalCode":"3655","locality":"Sigriswil","commune":{"key":"938","name":"Sigriswil","shortName":"Sigriswil"},"district":{"key":"247","name":"Verwaltungskreis Thun"},"canton":{"key":"2","code":"BE","name":"Bern / Berne"},"status":"Real"},{"key":"10220993","name":"Kehle","postalCode":"3657","locality":"Schwanden (Sigriswil)","commune":{"key":"938","name":"Sigriswil","shortName":"Sigriswil"},"district":{"key":"247","name":"Verwaltungskreis Thun"},"canton":{"key":"2","code":"BE","name":"Bern / Berne"},"status":"Real"},{"key":"10114014","name":"Kirchgässli","postalCode":"3655","locality":"Sigriswil","commune":{"key":"938","name":"Sigriswil","shortName":"Sigriswil"},"district":{"key":"247","name":"Verwaltungskreis Thun"},"canton":{"key":"2","code":"BE","name":"Bern / Berne"},"status":"Real"},{"key":"10157648","name":"Kreuzstrasse","postalCode":"3655","locality":"Sigriswil","commune":{"key":"938","name":"Sigriswil","shortName":"Sigriswil"},"district":{"key":"247","name":"Verwaltungskreis Thun"},"canton":{"key":"2","code":"BE","name":"Bern / Berne"},"status":"Real"},{"key":"10112969","name":"Lauenenweg","postalCode":"3657","locality":"Schwanden (Sigriswil)","commune":{"key":"938","name":"Sigriswil","shortName":"Sigriswil"},"district":{"key":"247","name":"Verwaltungskreis Thun"},"canton":{"key":"2","code":"BE","name":"Bern / Berne"},"status":"Real"},{"key":"10185084","name":"Margelstrasse","postalCode":"3657","locality":"Schwanden (Sigriswil)","commune":{"key":"938","name":"Sigriswil","shortName":"Sigriswil"},"district":{"key":"247","name":"Verwaltungskreis Thun"},"canton":{"key":"2","code":"BE","name":"Bern / Berne"},"status":"Real"},{"key":"10140322","name":"Mattizaunweg","postalCode":"3657","locality":"Schwanden (Sigriswil)","commune":{"key":"938","name":"Sigriswil","shortName":"Sigriswil"},"district":{"key":"247","name":"Verwaltungskreis Thun"},"canton":{"key":"2","code":"BE","name":"Bern / Berne"},"status":"Real"},{"key":"10061945","name":"Meiersmaadstrasse","postalCode":"3657","locality":"Schwanden (Sigriswil)","commune":{"key":"938","name":"Sigriswil","shortName":"Sigriswil"},"district":{"key":"247","name":"Verwaltungskreis Thun"},"canton":{"key":"2","code":"BE","name":"Bern / Berne"},"status":"Real"},{"key":"10220997","name":"Merligweg","postalCode":"3655","locality":"Sigriswil","commune":{"key":"938","name":"Sigriswil","shortName":"Sigriswil"},"district":{"key":"247","name":"Verwaltungskreis Thun"},"canton":{"key":"2","code":"BE","name":"Bern / Berne"},"status":"Real"},{"key":"10166798","name":"Michelbühlweg","postalCode":"3657","locality":"Schwanden (Sigriswil)","commune":{"key":"938","name":"Sigriswil","shortName":"Sigriswil"},"district":{"key":"247","name":"Verwaltungskreis Thun"},"canton":{"key":"2","code":"BE","name":"Bern / Berne"},"status":"Real"},{"key":"10217704","name":"Mittelberg","postalCode":"3657","locality":"Schwanden (Sigriswil)","commune":{"key":"938","name":"Sigriswil","shortName":"Sigriswil"},"district":{"key":"247","name":"Verwaltungskreis Thun"},"canton":{"key":"2","code":"BE","name":"Bern / Berne"},"status":"Real"},{"key":"10219020","name":"Mittelbergli","postalCode":"3657","locality":"Schwanden (Sigriswil)","commune":{"key":"938","name":"Sigriswil","shortName":"Sigriswil"},"district":{"key":"247","name":"Verwaltungskreis Thun"},"canton":{"key":"2","code":"BE","name":"Bern / Berne"},"status":"Real"},{"key":"10167075","name":"Mösernweg","postalCode":"3657","locality":"Schwanden (Sigriswil)","commune":{"key":"938","name":"Sigriswil","shortName":"Sigriswil"},"district":{"key":"247","name":"Verwaltungskreis Thun"},"canton":{"key":"2","code":"BE","name":"Bern / Berne"},"status":"Real"},{"key":"10114013","name":"Musterplatzweg","postalCode":"3655","locality":"Sigriswil","commune":{"key":"938","name":"Sigriswil","shortName":"Sigriswil"},"district":{"key":"247","name":"Verwaltungskreis Thun"},"canton":{"key":"2","code":"BE","name":"Bern / Berne"},"status":"Real"},{"key":"10015453","name":"Niesenblickweg","postalCode":"3655","locality":"Sigriswil","commune":{"key":"938","name":"Sigriswil","shortName":"Sigriswil"},"district":{"key":"247","name":"Verwaltungskreis Thun"},"canton":{"key":"2","code":"BE","name":"Bern / Berne"},"status":"Real"},{"key":"10219032","name":"Oberer Mäscher","postalCode":"3657","locality":"Schwanden (Sigriswil)","commune":{"key":"938","name":"Sigriswil","shortName":"Sigriswil"},"district":{"key":"247","name":"Verwaltungskreis Thun"},"canton":{"key":"2","code":"BE","name":"Bern / Berne"},"status":"Real"},{"key":"10219036","name":"Oberes Hörnli","postalCode":"3657","locality":"Schwanden (Sigriswil)","commune":{"key":"938","name":"Sigriswil","shortName":"Sigriswil"},"district":{"key":"247","name":"Verwaltungskreis Thun"},"canton":{"key":"2","code":"BE","name":"Bern / Berne"},"status":"Real"},{"key":"10219028","name":"Obere Zettenalp","postalCode":"3657","locality":"Schwanden (Sigriswil)","commune":{"key":"938","name":"Sigriswil","shortName":"Sigriswil"},"district":{"key":"247","name":"Verwaltungskreis Thun"},"canton":{"key":"2","code":"BE","name":"Bern / Berne"},"status":"Real"},{"key":"10014887","name":"Oberhofenberg","postalCode":"3657","locality":"Schwanden (Sigriswil)","commune":{"key":"938","name":"Sigriswil","shortName":"Sigriswil"},"district":{"key":"247","name":"Verwaltungskreis Thun"},"canton":{"key":"2","code":"BE","name":"Bern / Berne"},"status":"Real"},{"key":"10061946","name":"Oberi Mattestrasse","postalCode":"3657","locality":"Schwanden (Sigriswil)","commune":{"key":"938","name":"Sigriswil","shortName":"Sigriswil"},"district":{"key":"247","name":"Verwaltungskreis Thun"},"canton":{"key":"2","code":"BE","name":"Bern / Berne"},"status":"Real"},{"key":"10163621","name":"Oertliweidweg","postalCode":"3657","locality":"Schwanden (Sigriswil)","commune":{"key":"938","name":"Sigriswil","shortName":"Sigriswil"},"district":{"key":"247","name":"Verwaltungskreis Thun"},"canton":{"key":"2","code":"BE","name":"Bern / Berne"},"status":"Real"},{"key":"10114012","name":"Panoramaweg","postalCode":"3655","locality":"Sigriswil","commune":{"key":"938","name":"Sigriswil","shortName":"Sigriswil"},"district":{"key":"247","name":"Verwaltungskreis Thun"},"canton":{"key":"2","code":"BE","name":"Bern / Berne"},"status":"Real"},{"key":"10219044","name":"Pressernberg","postalCode":"3657","locality":"Schwanden (Sigriswil)","commune":{"key":"938","name":"Sigriswil","shortName":"Sigriswil"},"district":{"key":"247","name":"Verwaltungskreis Thun"},"canton":{"key":"2","code":"BE","name":"Bern / Berne"},"status":"Real"},{"key":"10114913","name":"Räftlistrasse","postalCode":"3655","locality":"Sigriswil","commune":{"key":"938","name":"Sigriswil","shortName":"Sigriswil"},"district":{"key":"247","name":"Verwaltungskreis Thun"},"canton":{"key":"2","code":"BE","name":"Bern / Berne"},"status":"Real"},{"key":"10131900","name":"Raftstrasse","postalCode":"3655","locality":"Sigriswil","commune":{"key":"938","name":"Sigriswil","shortName":"Sigriswil"},"district":{"key":"247","name":"Verwaltungskreis Thun"},"canton":{"key":"2","code":"BE","name":"Bern / Berne"},"status":"Real"},{"key":"10167078","name":"Rehlochweg","postalCode":"3657","locality":"Schwanden (Sigriswil)","commune":{"key":"938","name":"Sigriswil","shortName":"Sigriswil"},"district":{"key":"247","name":"Verwaltungskreis Thun"},"canton":{"key":"2","code":"BE","name":"Bern / Berne"},"status":"Real"},{"key":"10163622","name":"Reuststrasse","postalCode":"3657","locality":"Schwanden (Sigriswil)","commune":{"key":"938","name":"Sigriswil","shortName":"Sigriswil"},"district":{"key":"247","name":"Verwaltungskreis Thun"},"canton":{"key":"2","code":"BE","name":"Bern / Berne"},"status":"Real"},{"key":"10218410","name":"Rossschatten","postalCode":"3657","locality":"Schwanden (Sigriswil)","commune":{"key":"938","name":"Sigriswil","shortName":"Sigriswil"},"district":{"key":"247","name":"Verwaltungskreis Thun"},"canton":{"key":"2","code":"BE","name":"Bern / Berne"},"status":"Real"},{"key":"10114008","name":"Rotbühlweg","postalCode":"3655","locality":"Sigriswil","commune":{"key":"938","name":"Sigriswil","shortName":"Sigriswil"},"district":{"key":"247","name":"Verwaltungskreis Thun"},"canton":{"key":"2","code":"BE","name":"Bern / Berne"},"status":"Real"},{"key":"10218414","name":"Rüeggersweid","postalCode":"3657","locality":"Schwanden (Sigriswil)","commune":{"key":"938","name":"Sigriswil","shortName":"Sigriswil"},"district":{"key":"247","name":"Verwaltungskreis Thun"},"canton":{"key":"2","code":"BE","name":"Bern / Berne"},"status":"Real"},{"key":"10061950","name":"Sagimaadweg","postalCode":"3657","locality":"Schwanden (Sigriswil)","commune":{"key":"938","name":"Sigriswil","shortName":"Sigriswil"},"district":{"key":"247","name":"Verwaltungskreis Thun"},"canton":{"key":"2","code":"BE","name":"Bern / Berne"},"status":"Real"},{"key":"10157655","name":"Sanggenbühl","postalCode":"3655","locality":"Sigriswil","commune":{"key":"938","name":"Sigriswil","shortName":"Sigriswil"},"district":{"key":"247","name":"Verwaltungskreis Thun"},"canton":{"key":"2","code":"BE","name":"Bern / Berne"},"status":"Real"},{"key":"10218419","name":"Sattelegg","postalCode":"3657","locality":"Schwanden (Sigriswil)","commune":{"key":"938","name":"Sigriswil","shortName":"Sigriswil"},"district":{"key":"247","name":"Verwaltungskreis Thun"},"canton":{"key":"2","code":"BE","name":"Bern / Berne"},"status":"Real"},{"key":"10108680","name":"Satteleggweg","postalCode":"3657","locality":"Schwanden (Sigriswil)","commune":{"key":"938","name":"Sigriswil","shortName":"Sigriswil"},"district":{"key":"247","name":"Verwaltungskreis Thun"},"canton":{"key":"2","code":"BE","name":"Bern / Berne"},"status":"Real"},{"key":"10219068","name":"Sausenegg","postalCode":"3657","locality":"Schwanden (Sigriswil)","commune":{"key":"938","name":"Sigriswil","shortName":"Sigriswil"},"district":{"key":"247","name":"Verwaltungskreis Thun"},"canton":{"key":"2","code":"BE","name":"Bern / Berne"},"status":"Real"},{"key":"10114007","name":"Schliereggweg","postalCode":"3655","locality":"Sigriswil","commune":{"key":"938","name":"Sigriswil","shortName":"Sigriswil"},"district":{"key":"247","name":"Verwaltungskreis Thun"},"canton":{"key":"2","code":"BE","name":"Bern / Berne"},"status":"Real"},{"key":"10218425","name":"Schnabel","postalCode":"3657","locality":"Schwanden (Sigriswil)","commune":{"key":"938","name":"Sigriswil","shortName":"Sigriswil"},"district":{"key":"247","name":"Verwaltungskreis Thun"},"canton":{"key":"2","code":"BE","name":"Bern / Berne"},"status":"Real"},{"key":"10198669","name":"Schopf","postalCode":"3657","locality":"Schwanden (Sigriswil)","commune":{"key":"938","name":"Sigriswil","shortName":"Sigriswil"},"district":{"key":"247","name":"Verwaltungskreis Thun"},"canton":{"key":"2","code":"BE","name":"Bern / Berne"},"status":"Real"},{"key":"10163623","name":"Schwandenallmiweg","postalCode":"3657","locality":"Schwanden (Sigriswil)","commune":{"key":"938","name":"Sigriswil","shortName":"Sigriswil"},"district":{"key":"247","name":"Verwaltungskreis Thun"},"canton":{"key":"2","code":"BE","name":"Bern / Berne"},"status":"Real"},{"key":"10114914","name":"Schwandenstrasse","postalCode":"3657","locality":"Schwanden (Sigriswil)","commune":{"key":"938","name":"Sigriswil","shortName":"Sigriswil"},"district":{"key":"247","name":"Verwaltungskreis Thun"},"canton":{"key":"2","code":"BE","name":"Bern / Berne"},"status":"Real"},{"key":"10157657","name":"Schwendlihohle","postalCode":"3655","locality":"Sigriswil","commune":{"key":"938","name":"Sigriswil","shortName":"Sigriswil"},"district":{"key":"247","name":"Verwaltungskreis Thun"},"canton":{"key":"2","code":"BE","name":"Bern / Berne"},"status":"Real"},{"key":"10105939","name":"Sellmatte","postalCode":"3655","locality":"Sigriswil","commune":{"key":"938","name":"Sigriswil","shortName":"Sigriswil"},"district":{"key":"247","name":"Verwaltungskreis Thun"},"canton":{"key":"2","code":"BE","name":"Bern / Berne"},"status":"Real"},{"key":"10218429","name":"Sigriswilbergli","postalCode":"3657","locality":"Schwanden (Sigriswil)","commune":{"key":"938","name":"Sigriswil","shortName":"Sigriswil"},"district":{"key":"247","name":"Verwaltungskreis Thun"},"canton":{"key":"2","code":"BE","name":"Bern / Berne"},"status":"Real"},{"key":"10148659","name":"Sigriswilergrat","postalCode":"3657","locality":"Schwanden (Sigriswil)","commune":{"key":"938","name":"Sigriswil","shortName":"Sigriswil"},"district":{"key":"247","name":"Verwaltungskreis Thun"},"canton":{"key":"2","code":"BE","name":"Bern / Berne"},"status":"Real"},{"key":"10015441","name":"Sigriswilstrasse","postalCode":"3655","locality":"Sigriswil","commune":{"key":"938","name":"Sigriswil","shortName":"Sigriswil"},"district":{"key":"247","name":"Verwaltungskreis Thun"},"canton":{"key":"2","code":"BE","name":"Bern / Berne"},"status":"Real"},{"key":"10218433","name":"Speicherberg","postalCode":"3657","locality":"Schwanden (Sigriswil)","commune":{"key":"938","name":"Sigriswil","shortName":"Sigriswil"},"district":{"key":"247","name":"Verwaltungskreis Thun"},"canton":{"key":"2","code":"BE","name":"Bern / Berne"},"status":"Real"},{"key":"10218437","name":"Stampf","postalCode":"3657","locality":"Schwanden (Sigriswil)","commune":{"key":"938","name":"Sigriswil","shortName":"Sigriswil"},"district":{"key":"247","name":"Verwaltungskreis Thun"},"canton":{"key":"2","code":"BE","name":"Bern / Berne"},"status":"Real"},{"key":"10163162","name":"Stampfiweg","postalCode":"3657","locality":"Schwanden (Sigriswil)","commune":{"key":"938","name":"Sigriswil","shortName":"Sigriswil"},"district":{"key":"247","name":"Verwaltungskreis Thun"},"canton":{"key":"2","code":"BE","name":"Bern / Berne"},"status":"Real"},{"key":"10015479","name":"Stampfstrasse","postalCode":"3657","locality":"Schwanden (Sigriswil)","commune":{"key":"938","name":"Sigriswil","shortName":"Sigriswil"},"district":{"key":"247","name":"Verwaltungskreis Thun"},"canton":{"key":"2","code":"BE","name":"Bern / Berne"},"status":"Real"},{"key":"10059877","name":"Surenbergli","postalCode":"3655","locality":"Sigriswil","commune":{"key":"938","name":"Sigriswil","shortName":"Sigriswil"},"district":{"key":"247","name":"Verwaltungskreis Thun"},"canton":{"key":"2","code":"BE","name":"Bern / Berne"},"status":"Real"},{"key":"10059877","name":"Surenbergli","postalCode":"3657","locality":"Schwanden (Sigriswil)","commune":{"key":"938","name":"Sigriswil","shortName":"Sigriswil"},"district":{"key":"247","name":"Verwaltungskreis Thun"},"canton":{"key":"2","code":"BE","name":"Bern / Berne"},"status":"Real"},{"key":"10218451","name":"Thüelboden","postalCode":"3657","locality":"Schwanden (Sigriswil)","commune":{"key":"938","name":"Sigriswil","shortName":"Sigriswil"},"district":{"key":"247","name":"Verwaltungskreis Thun"},"canton":{"key":"2","code":"BE","name":"Bern / Berne"},"status":"Real"},{"key":"10218454","name":"Tönimoos","postalCode":"3657","locality":"Schwanden (Sigriswil)","commune":{"key":"938","name":"Sigriswil","shortName":"Sigriswil"},"district":{"key":"247","name":"Verwaltungskreis Thun"},"canton":{"key":"2","code":"BE","name":"Bern / Berne"},"status":"Real"},{"key":"10218463","name":"Tschingel Allmend","postalCode":"3657","locality":"Schwanden (Sigriswil)","commune":{"key":"938","name":"Sigriswil","shortName":"Sigriswil"},"district":{"key":"247","name":"Verwaltungskreis Thun"},"canton":{"key":"2","code":"BE","name":"Bern / Berne"},"status":"Real"},{"key":"10157662","name":"Tschingelstrasse","postalCode":"3655","locality":"Sigriswil","commune":{"key":"938","name":"Sigriswil","shortName":"Sigriswil"},"district":{"key":"247","name":"Verwaltungskreis Thun"},"canton":{"key":"2","code":"BE","name":"Bern / Berne"},"status":"Real"},{"key":"10055819","name":"Tüelbodenstrasse","postalCode":"3657","locality":"Schwanden (Sigriswil)","commune":{"key":"938","name":"Sigriswil","shortName":"Sigriswil"},"district":{"key":"247","name":"Verwaltungskreis Thun"},"canton":{"key":"2","code":"BE","name":"Bern / Berne"},"status":"Real"},{"key":"10218468","name":"Twingi","postalCode":"3657","locality":"Schwanden (Sigriswil)","commune":{"key":"938","name":"Sigriswil","shortName":"Sigriswil"},"district":{"key":"247","name":"Verwaltungskreis Thun"},"canton":{"key":"2","code":"BE","name":"Bern / Berne"},"status":"Real"},{"key":"10218472","name":"Unter Bergli","postalCode":"3655","locality":"Sigriswil","commune":{"key":"938","name":"Sigriswil","shortName":"Sigriswil"},"district":{"key":"247","name":"Verwaltungskreis Thun"},"canton":{"key":"2","code":"BE","name":"Bern / Berne"},"status":"Real"},{"key":"10081922","name":"Untere Feldenstrasse","postalCode":"3655","locality":"Sigriswil","commune":{"key":"938","name":"Sigriswil","shortName":"Sigriswil"},"district":{"key":"247","name":"Verwaltungskreis Thun"},"canton":{"key":"2","code":"BE","name":"Bern / Berne"},"status":"Real"},{"key":"10217036","name":"Unterer Mäscher","postalCode":"3657","locality":"Schwanden (Sigriswil)","commune":{"key":"938","name":"Sigriswil","shortName":"Sigriswil"},"district":{"key":"247","name":"Verwaltungskreis Thun"},"canton":{"key":"2","code":"BE","name":"Bern / Berne"},"status":"Real"},{"key":"10059878","name":"Unterer Staldenweg","postalCode":"3657","locality":"Schwanden (Sigriswil)","commune":{"key":"938","name":"Sigriswil","shortName":"Sigriswil"},"district":{"key":"247","name":"Verwaltungskreis Thun"},"canton":{"key":"2","code":"BE","name":"Bern / Berne"},"status":"Real"},{"key":"10157652","name":"Unteres Räftli","postalCode":"3655","locality":"Sigriswil","commune":{"key":"938","name":"Sigriswil","shortName":"Sigriswil"},"district":{"key":"247","name":"Verwaltungskreis Thun"},"canton":{"key":"2","code":"BE","name":"Bern / Berne"},"status":"Real"},{"key":"10218475","name":"Untere Zettenalp","postalCode":"3657","locality":"Schwanden (Sigriswil)","commune":{"key":"938","name":"Sigriswil","shortName":"Sigriswil"},"district":{"key":"247","name":"Verwaltungskreis Thun"},"canton":{"key":"2","code":"BE","name":"Bern / Berne"},"status":"Real"},{"key":"10015480","name":"Unterwegenstrasse","postalCode":"3657","locality":"Schwanden (Sigriswil)","commune":{"key":"938","name":"Sigriswil","shortName":"Sigriswil"},"district":{"key":"247","name":"Verwaltungskreis Thun"},"canton":{"key":"2","code":"BE","name":"Bern / Berne"},"status":"Real"},{"key":"10114006","name":"Vikar-Kuhn-Weg","postalCode":"3655","locality":"Sigriswil","commune":{"key":"938","name":"Sigriswil","shortName":"Sigriswil"},"district":{"key":"247","name":"Verwaltungskreis Thun"},"canton":{"key":"2","code":"BE","name":"Bern / Berne"},"status":"Real"},{"key":"10140320","name":"Wilerallmistrasse","postalCode":"3655","locality":"Sigriswil","commune":{"key":"938","name":"Sigriswil","shortName":"Sigriswil"},"district":{"key":"247","name":"Verwaltungskreis Thun"},"canton":{"key":"2","code":"BE","name":"Bern / Berne"},"status":"Real"},{"key":"10015461","name":"Windigenweg","postalCode":"3655","locality":"Sigriswil","commune":{"key":"938","name":"Sigriswil","shortName":"Sigriswil"},"district":{"key":"247","name":"Verwaltungskreis Thun"},"canton":{"key":"2","code":"BE","name":"Bern / Berne"},"status":"Real"},{"key":"10185085","name":"Zelgliweg","postalCode":"3657","locality":"Schwanden (Sigriswil)","commune":{"key":"938","name":"Sigriswil","shortName":"Sigriswil"},"district":{"key":"247","name":"Verwaltungskreis Thun"},"canton":{"key":"2","code":"BE","name":"Bern / Berne"},"status":"Real"},{"key":"10157658","name":"Zelgweg","postalCode":"3655","locality":"Sigriswil","commune":{"key":"938","name":"Sigriswil","shortName":"Sigriswil"},"district":{"key":"247","name":"Verwaltungskreis Thun"},"canton":{"key":"2","code":"BE","name":"Bern / Berne"},"status":"Real"},{"key":"10152172","name":"Zettenalpstrasse","postalCode":"3657","locality":"Schwanden (Sigriswil)","commune":{"key":"938","name":"Sigriswil","shortName":"Sigriswil"},"district":{"key":"247","name":"Verwaltungskreis Thun"},"canton":{"key":"2","code":"BE","name":"Bern / Berne"},"status":"Real"},{"key":"10157654","name":"Züntihohle","postalCode":"3655","locality":"Sigriswil","commune":{"key":"938","name":"Sigriswil","shortName":"Sigriswil"},"district":{"key":"247","name":"Verwaltungskreis Thun"},"canton":{"key":"2","code":"BE","name":"Bern / Berne"},"status":"Real"},]