[{"name":"Am Berg","postalCode":"97618","locality":"Niederlauer","municipality":{"key":"09673146","name":"Niederlauer","type":"Kreisangehörige_Gemeinde"},"district":{"key":"09673","name":"Rhön-Grabfeld","type":"Landkreis"},"federalState":{"key":"09","name":"Bayern"}},{"name":"Am Bergstück","postalCode":"97618","locality":"Niederlauer","municipality":{"key":"09673146","name":"Niederlauer","type":"Kreisangehörige_Gemeinde"},"district":{"key":"09673","name":"Rhön-Grabfeld","type":"Landkreis"},"federalState":{"key":"09","name":"Bayern"}},{"name":"Am Ebersbach","postalCode":"97618","locality":"Niederlauer","municipality":{"key":"09673146","name":"Niederlauer","type":"Kreisangehörige_Gemeinde"},"district":{"key":"09673","name":"Rhön-Grabfeld","type":"Landkreis"},"federalState":{"key":"09","name":"Bayern"}},{"name":"Am Helmig","postalCode":"97618","locality":"Niederlauer","municipality":{"key":"09673146","name":"Niederlauer","type":"Kreisangehörige_Gemeinde"},"district":{"key":"09673","name":"Rhön-Grabfeld","type":"Landkreis"},"federalState":{"key":"09","name":"Bayern"}},{"name":"Am Rück","postalCode":"97618","locality":"Niederlauer","municipality":{"key":"09673146","name":"Niederlauer","type":"Kreisangehörige_Gemeinde"},"district":{"key":"09673","name":"Rhön-Grabfeld","type":"Landkreis"},"federalState":{"key":"09","name":"Bayern"}},{"name":"An der Bahn","postalCode":"97618","locality":"Niederlauer","municipality":{"key":"09673146","name":"Niederlauer","type":"Kreisangehörige_Gemeinde"},"district":{"key":"09673","name":"Rhön-Grabfeld","type":"Landkreis"},"federalState":{"key":"09","name":"Bayern"}},{"name":"Bergstr.","postalCode":"97618","locality":"Niederlauer","municipality":{"key":"09673146","name":"Niederlauer","type":"Kreisangehörige_Gemeinde"},"district":{"key":"09673","name":"Rhön-Grabfeld","type":"Landkreis"},"federalState":{"key":"09","name":"Bayern"}},{"name":"Bettelbaum","postalCode":"97618","locality":"Niederlauer","municipality":{"key":"09673146","name":"Niederlauer","type":"Kreisangehörige_Gemeinde"},"district":{"key":"09673","name":"Rhön-Grabfeld","type":"Landkreis"},"federalState":{"key":"09","name":"Bayern"}},{"name":"Birkenweg","postalCode":"97618","locality":"Niederlauer","municipality":{"key":"09673146","name":"Niederlauer","type":"Kreisangehörige_Gemeinde"},"district":{"key":"09673","name":"Rhön-Grabfeld","type":"Landkreis"},"federalState":{"key":"09","name":"Bayern"}},{"name":"Brückenstr.","postalCode":"97618","locality":"Niederlauer","municipality":{"key":"09673146","name":"Niederlauer","type":"Kreisangehörige_Gemeinde"},"district":{"key":"09673","name":"Rhön-Grabfeld","type":"Landkreis"},"federalState":{"key":"09","name":"Bayern"}},{"name":"Brunnengasse","postalCode":"97618","locality":"Niederlauer","municipality":{"key":"09673146","name":"Niederlauer","type":"Kreisangehörige_Gemeinde"},"district":{"key":"09673","name":"Rhön-Grabfeld","type":"Landkreis"},"federalState":{"key":"09","name":"Bayern"}},{"name":"Brunnenstr.","postalCode":"97618","locality":"Niederlauer","municipality":{"key":"09673146","name":"Niederlauer","type":"Kreisangehörige_Gemeinde"},"district":{"key":"09673","name":"Rhön-Grabfeld","type":"Landkreis"},"federalState":{"key":"09","name":"Bayern"}},{"name":"Buhleitenweg","postalCode":"97618","locality":"Niederlauer","municipality":{"key":"09673146","name":"Niederlauer","type":"Kreisangehörige_Gemeinde"},"district":{"key":"09673","name":"Rhön-Grabfeld","type":"Landkreis"},"federalState":{"key":"09","name":"Bayern"}},{"name":"Ebersbacher Str.","postalCode":"97618","locality":"Niederlauer","municipality":{"key":"09673146","name":"Niederlauer","type":"Kreisangehörige_Gemeinde"},"district":{"key":"09673","name":"Rhön-Grabfeld","type":"Landkreis"},"federalState":{"key":"09","name":"Bayern"}},{"name":"Eichelgasse","postalCode":"97618","locality":"Niederlauer","municipality":{"key":"09673146","name":"Niederlauer","type":"Kreisangehörige_Gemeinde"},"district":{"key":"09673","name":"Rhön-Grabfeld","type":"Landkreis"},"federalState":{"key":"09","name":"Bayern"}},{"name":"Gartenstr.","postalCode":"97618","locality":"Niederlauer","municipality":{"key":"09673146","name":"Niederlauer","type":"Kreisangehörige_Gemeinde"},"district":{"key":"09673","name":"Rhön-Grabfeld","type":"Landkreis"},"federalState":{"key":"09","name":"Bayern"}},{"name":"Grubenstr.","postalCode":"97618","locality":"Niederlauer","municipality":{"key":"09673146","name":"Niederlauer","type":"Kreisangehörige_Gemeinde"},"district":{"key":"09673","name":"Rhön-Grabfeld","type":"Landkreis"},"federalState":{"key":"09","name":"Bayern"}},{"name":"Hauptstr.","postalCode":"97618","locality":"Niederlauer","municipality":{"key":"09673146","name":"Niederlauer","type":"Kreisangehörige_Gemeinde"},"district":{"key":"09673","name":"Rhön-Grabfeld","type":"Landkreis"},"federalState":{"key":"09","name":"Bayern"}},{"name":"Höllweg","postalCode":"97618","locality":"Niederlauer","municipality":{"key":"09673146","name":"Niederlauer","type":"Kreisangehörige_Gemeinde"},"district":{"key":"09673","name":"Rhön-Grabfeld","type":"Landkreis"},"federalState":{"key":"09","name":"Bayern"}},{"name":"Im Mittelfeld","postalCode":"97618","locality":"Niederlauer","municipality":{"key":"09673146","name":"Niederlauer","type":"Kreisangehörige_Gemeinde"},"district":{"key":"09673","name":"Rhön-Grabfeld","type":"Landkreis"},"federalState":{"key":"09","name":"Bayern"}},{"name":"Industriestr.","postalCode":"97618","locality":"Niederlauer","municipality":{"key":"09673146","name":"Niederlauer","type":"Kreisangehörige_Gemeinde"},"district":{"key":"09673","name":"Rhön-Grabfeld","type":"Landkreis"},"federalState":{"key":"09","name":"Bayern"}},{"name":"Jägergasse","postalCode":"97618","locality":"Niederlauer","municipality":{"key":"09673146","name":"Niederlauer","type":"Kreisangehörige_Gemeinde"},"district":{"key":"09673","name":"Rhön-Grabfeld","type":"Landkreis"},"federalState":{"key":"09","name":"Bayern"}},{"name":"Katzenhackstr.","postalCode":"97618","locality":"Niederlauer","municipality":{"key":"09673146","name":"Niederlauer","type":"Kreisangehörige_Gemeinde"},"district":{"key":"09673","name":"Rhön-Grabfeld","type":"Landkreis"},"federalState":{"key":"09","name":"Bayern"}},{"name":"Kirchbergstr.","postalCode":"97618","locality":"Niederlauer","municipality":{"key":"09673146","name":"Niederlauer","type":"Kreisangehörige_Gemeinde"},"district":{"key":"09673","name":"Rhön-Grabfeld","type":"Landkreis"},"federalState":{"key":"09","name":"Bayern"}},{"name":"Kirchgasse","postalCode":"97618","locality":"Niederlauer","municipality":{"key":"09673146","name":"Niederlauer","type":"Kreisangehörige_Gemeinde"},"district":{"key":"09673","name":"Rhön-Grabfeld","type":"Landkreis"},"federalState":{"key":"09","name":"Bayern"}},{"name":"Kunzstr.","postalCode":"97618","locality":"Niederlauer","municipality":{"key":"09673146","name":"Niederlauer","type":"Kreisangehörige_Gemeinde"},"district":{"key":"09673","name":"Rhön-Grabfeld","type":"Landkreis"},"federalState":{"key":"09","name":"Bayern"}},{"name":"Lännerweg","postalCode":"97618","locality":"Niederlauer","municipality":{"key":"09673146","name":"Niederlauer","type":"Kreisangehörige_Gemeinde"},"district":{"key":"09673","name":"Rhön-Grabfeld","type":"Landkreis"},"federalState":{"key":"09","name":"Bayern"}},{"name":"Lauerblick","postalCode":"97618","locality":"Niederlauer","municipality":{"key":"09673146","name":"Niederlauer","type":"Kreisangehörige_Gemeinde"},"district":{"key":"09673","name":"Rhön-Grabfeld","type":"Landkreis"},"federalState":{"key":"09","name":"Bayern"}},{"name":"Mühlstr.","postalCode":"97618","locality":"Niederlauer","municipality":{"key":"09673146","name":"Niederlauer","type":"Kreisangehörige_Gemeinde"},"district":{"key":"09673","name":"Rhön-Grabfeld","type":"Landkreis"},"federalState":{"key":"09","name":"Bayern"}},{"name":"Niederlaurer Str.","postalCode":"97618","locality":"Niederlauer","municipality":{"key":"09673146","name":"Niederlauer","type":"Kreisangehörige_Gemeinde"},"district":{"key":"09673","name":"Rhön-Grabfeld","type":"Landkreis"},"federalState":{"key":"09","name":"Bayern"}},{"name":"Nußdorfstr.","postalCode":"97618","locality":"Niederlauer","municipality":{"key":"09673146","name":"Niederlauer","type":"Kreisangehörige_Gemeinde"},"district":{"key":"09673","name":"Rhön-Grabfeld","type":"Landkreis"},"federalState":{"key":"09","name":"Bayern"}},{"name":"Obertorstr.","postalCode":"97618","locality":"Niederlauer","municipality":{"key":"09673146","name":"Niederlauer","type":"Kreisangehörige_Gemeinde"},"district":{"key":"09673","name":"Rhön-Grabfeld","type":"Landkreis"},"federalState":{"key":"09","name":"Bayern"}},{"name":"Palmsbergstr.","postalCode":"97618","locality":"Niederlauer","municipality":{"key":"09673146","name":"Niederlauer","type":"Kreisangehörige_Gemeinde"},"district":{"key":"09673","name":"Rhön-Grabfeld","type":"Landkreis"},"federalState":{"key":"09","name":"Bayern"}},{"name":"Quellenstr.","postalCode":"97618","locality":"Niederlauer","municipality":{"key":"09673146","name":"Niederlauer","type":"Kreisangehörige_Gemeinde"},"district":{"key":"09673","name":"Rhön-Grabfeld","type":"Landkreis"},"federalState":{"key":"09","name":"Bayern"}},{"name":"Raingasse","postalCode":"97618","locality":"Niederlauer","municipality":{"key":"09673146","name":"Niederlauer","type":"Kreisangehörige_Gemeinde"},"district":{"key":"09673","name":"Rhön-Grabfeld","type":"Landkreis"},"federalState":{"key":"09","name":"Bayern"}},{"name":"Riemenschneiderstr.","postalCode":"97618","locality":"Niederlauer","municipality":{"key":"09673146","name":"Niederlauer","type":"Kreisangehörige_Gemeinde"},"district":{"key":"09673","name":"Rhön-Grabfeld","type":"Landkreis"},"federalState":{"key":"09","name":"Bayern"}},{"name":"Ringstr.","postalCode":"97618","locality":"Niederlauer","municipality":{"key":"09673146","name":"Niederlauer","type":"Kreisangehörige_Gemeinde"},"district":{"key":"09673","name":"Rhön-Grabfeld","type":"Landkreis"},"federalState":{"key":"09","name":"Bayern"}},{"name":"Saalestr.","postalCode":"97618","locality":"Niederlauer","municipality":{"key":"09673146","name":"Niederlauer","type":"Kreisangehörige_Gemeinde"},"district":{"key":"09673","name":"Rhön-Grabfeld","type":"Landkreis"},"federalState":{"key":"09","name":"Bayern"}},{"name":"Sandheide","postalCode":"97618","locality":"Niederlauer","municipality":{"key":"09673146","name":"Niederlauer","type":"Kreisangehörige_Gemeinde"},"district":{"key":"09673","name":"Rhön-Grabfeld","type":"Landkreis"},"federalState":{"key":"09","name":"Bayern"}},{"name":"Sandstr.","postalCode":"97618","locality":"Niederlauer","municipality":{"key":"09673146","name":"Niederlauer","type":"Kreisangehörige_Gemeinde"},"district":{"key":"09673","name":"Rhön-Grabfeld","type":"Landkreis"},"federalState":{"key":"09","name":"Bayern"}},{"name":"Sonnenstr.","postalCode":"97618","locality":"Niederlauer","municipality":{"key":"09673146","name":"Niederlauer","type":"Kreisangehörige_Gemeinde"},"district":{"key":"09673","name":"Rhön-Grabfeld","type":"Landkreis"},"federalState":{"key":"09","name":"Bayern"}},{"name":"Steinstr.","postalCode":"97618","locality":"Niederlauer","municipality":{"key":"09673146","name":"Niederlauer","type":"Kreisangehörige_Gemeinde"},"district":{"key":"09673","name":"Rhön-Grabfeld","type":"Landkreis"},"federalState":{"key":"09","name":"Bayern"}},{"name":"Wegscheide","postalCode":"97618","locality":"Niederlauer","municipality":{"key":"09673146","name":"Niederlauer","type":"Kreisangehörige_Gemeinde"},"district":{"key":"09673","name":"Rhön-Grabfeld","type":"Landkreis"},"federalState":{"key":"09","name":"Bayern"}},{"name":"Wendstr.","postalCode":"97618","locality":"Niederlauer","municipality":{"key":"09673146","name":"Niederlauer","type":"Kreisangehörige_Gemeinde"},"district":{"key":"09673","name":"Rhön-Grabfeld","type":"Landkreis"},"federalState":{"key":"09","name":"Bayern"}},{"name":"Wiesenmühle","postalCode":"97618","locality":"Niederlauer","municipality":{"key":"09673146","name":"Niederlauer","type":"Kreisangehörige_Gemeinde"},"district":{"key":"09673","name":"Rhön-Grabfeld","type":"Landkreis"},"federalState":{"key":"09","name":"Bayern"}},{"name":"Zur Ockergrube","postalCode":"97618","locality":"Niederlauer","municipality":{"key":"09673146","name":"Niederlauer","type":"Kreisangehörige_Gemeinde"},"district":{"key":"09673","name":"Rhön-Grabfeld","type":"Landkreis"},"federalState":{"key":"09","name":"Bayern"}},]