[{"name":"Am Wald","postalCode":"16818","locality":"Walsleben","municipality":{"key":"12068452","name":"Walsleben","type":"Kreisangehörige_Gemeinde"},"district":{"key":"12068","name":"Ostprignitz-Ruppin","type":"Landkreis"},"federalState":{"key":"12","name":"Brandenburg"}},{"name":"Bahnhofstr.","postalCode":"16818","locality":"Walsleben","municipality":{"key":"12068452","name":"Walsleben","type":"Kreisangehörige_Gemeinde"},"district":{"key":"12068","name":"Ostprignitz-Ruppin","type":"Landkreis"},"federalState":{"key":"12","name":"Brandenburg"}},{"name":"Bergstr.","postalCode":"16818","locality":"Walsleben","municipality":{"key":"12068452","name":"Walsleben","type":"Kreisangehörige_Gemeinde"},"district":{"key":"12068","name":"Ostprignitz-Ruppin","type":"Landkreis"},"federalState":{"key":"12","name":"Brandenburg"}},{"name":"Dannenfeld","postalCode":"16818","locality":"Walsleben","municipality":{"key":"12068452","name":"Walsleben","type":"Kreisangehörige_Gemeinde"},"district":{"key":"12068","name":"Ostprignitz-Ruppin","type":"Landkreis"},"federalState":{"key":"12","name":"Brandenburg"}},{"name":"Dannenfelder Weg","postalCode":"16818","locality":"Walsleben","municipality":{"key":"12068452","name":"Walsleben","type":"Kreisangehörige_Gemeinde"},"district":{"key":"12068","name":"Ostprignitz-Ruppin","type":"Landkreis"},"federalState":{"key":"12","name":"Brandenburg"}},{"name":"Dorfstr.","postalCode":"16818","locality":"Walsleben","municipality":{"key":"12068452","name":"Walsleben","type":"Kreisangehörige_Gemeinde"},"district":{"key":"12068","name":"Ostprignitz-Ruppin","type":"Landkreis"},"federalState":{"key":"12","name":"Brandenburg"}},{"name":"Kiefernweg","postalCode":"16818","locality":"Walsleben","municipality":{"key":"12068452","name":"Walsleben","type":"Kreisangehörige_Gemeinde"},"district":{"key":"12068","name":"Ostprignitz-Ruppin","type":"Landkreis"},"federalState":{"key":"12","name":"Brandenburg"}},{"name":"Maulbeerweg","postalCode":"16818","locality":"Walsleben","municipality":{"key":"12068452","name":"Walsleben","type":"Kreisangehörige_Gemeinde"},"district":{"key":"12068","name":"Ostprignitz-Ruppin","type":"Landkreis"},"federalState":{"key":"12","name":"Brandenburg"}},{"name":"Mühlenweg","postalCode":"16818","locality":"Walsleben","municipality":{"key":"12068452","name":"Walsleben","type":"Kreisangehörige_Gemeinde"},"district":{"key":"12068","name":"Ostprignitz-Ruppin","type":"Landkreis"},"federalState":{"key":"12","name":"Brandenburg"}},{"name":"Neurppiner Str.","postalCode":"16818","locality":"Walsleben","municipality":{"key":"12068452","name":"Walsleben","type":"Kreisangehörige_Gemeinde"},"district":{"key":"12068","name":"Ostprignitz-Ruppin","type":"Landkreis"},"federalState":{"key":"12","name":"Brandenburg"}},{"name":"Neuruppiner Str.","postalCode":"16818","locality":"Walsleben","municipality":{"key":"12068452","name":"Walsleben","type":"Kreisangehörige_Gemeinde"},"district":{"key":"12068","name":"Ostprignitz-Ruppin","type":"Landkreis"},"federalState":{"key":"12","name":"Brandenburg"}},{"name":"Paalzow","postalCode":"16818","locality":"Walsleben","municipality":{"key":"12068452","name":"Walsleben","type":"Kreisangehörige_Gemeinde"},"district":{"key":"12068","name":"Ostprignitz-Ruppin","type":"Landkreis"},"federalState":{"key":"12","name":"Brandenburg"}},{"name":"Zum Sägewerk","postalCode":"16818","locality":"Walsleben","municipality":{"key":"12068452","name":"Walsleben","type":"Kreisangehörige_Gemeinde"},"district":{"key":"12068","name":"Ostprignitz-Ruppin","type":"Landkreis"},"federalState":{"key":"12","name":"Brandenburg"}},]