[{"key":"10239348","name":"A1","postalCode":"4852","locality":"Rothrist","commune":{"key":"4282","name":"Rothrist","shortName":"Rothrist"},"district":{"key":"1910","name":"Bezirk Zofingen"},"canton":{"key":"19","code":"AG","name":"Aargau"},"status":"Real"},{"key":"10239352","name":"A2","postalCode":"4852","locality":"Rothrist","commune":{"key":"4282","name":"Rothrist","shortName":"Rothrist"},"district":{"key":"1910","name":"Bezirk Zofingen"},"canton":{"key":"19","code":"AG","name":"Aargau"},"status":"Real"},{"key":"10184257","name":"Aareweg","postalCode":"4852","locality":"Rothrist","commune":{"key":"4282","name":"Rothrist","shortName":"Rothrist"},"district":{"key":"1910","name":"Bezirk Zofingen"},"canton":{"key":"19","code":"AG","name":"Aargau"},"status":"Real"},{"key":"10046242","name":"Alte Aarburgerstrasse","postalCode":"4852","locality":"Rothrist","commune":{"key":"4282","name":"Rothrist","shortName":"Rothrist"},"district":{"key":"1910","name":"Bezirk Zofingen"},"canton":{"key":"19","code":"AG","name":"Aargau"},"status":"Real"},{"key":"10036653","name":"Bachweg","postalCode":"4852","locality":"Rothrist","commune":{"key":"4282","name":"Rothrist","shortName":"Rothrist"},"district":{"key":"1910","name":"Bezirk Zofingen"},"canton":{"key":"19","code":"AG","name":"Aargau"},"status":"Real"},{"key":"10094411","name":"Bahnhofstrasse","postalCode":"4852","locality":"Rothrist","commune":{"key":"4282","name":"Rothrist","shortName":"Rothrist"},"district":{"key":"1910","name":"Bezirk Zofingen"},"canton":{"key":"19","code":"AG","name":"Aargau"},"status":"Real"},{"key":"10124878","name":"Bahnweg","postalCode":"4852","locality":"Rothrist","commune":{"key":"4282","name":"Rothrist","shortName":"Rothrist"},"district":{"key":"1910","name":"Bezirk Zofingen"},"canton":{"key":"19","code":"AG","name":"Aargau"},"status":"Real"},{"key":"10036654","name":"Belchenweg","postalCode":"4852","locality":"Rothrist","commune":{"key":"4282","name":"Rothrist","shortName":"Rothrist"},"district":{"key":"1910","name":"Bezirk Zofingen"},"canton":{"key":"19","code":"AG","name":"Aargau"},"status":"Real"},{"key":"10046243","name":"Bernstrasse","postalCode":"4852","locality":"Rothrist","commune":{"key":"4282","name":"Rothrist","shortName":"Rothrist"},"district":{"key":"1910","name":"Bezirk Zofingen"},"canton":{"key":"19","code":"AG","name":"Aargau"},"status":"Real"},{"key":"10036655","name":"Bifangweg","postalCode":"4852","locality":"Rothrist","commune":{"key":"4282","name":"Rothrist","shortName":"Rothrist"},"district":{"key":"1910","name":"Bezirk Zofingen"},"canton":{"key":"19","code":"AG","name":"Aargau"},"status":"Real"},{"key":"10131921","name":"Birchliweidweg","postalCode":"4852","locality":"Rothrist","commune":{"key":"4282","name":"Rothrist","shortName":"Rothrist"},"district":{"key":"1910","name":"Bezirk Zofingen"},"canton":{"key":"19","code":"AG","name":"Aargau"},"status":"Real"},{"key":"10078749","name":"Birkenweg","postalCode":"4852","locality":"Rothrist","commune":{"key":"4282","name":"Rothrist","shortName":"Rothrist"},"district":{"key":"1910","name":"Bezirk Zofingen"},"canton":{"key":"19","code":"AG","name":"Aargau"},"status":"Real"},{"key":"10107579","name":"Bleicherhubelweg","postalCode":"4852","locality":"Rothrist","commune":{"key":"4282","name":"Rothrist","shortName":"Rothrist"},"district":{"key":"1910","name":"Bezirk Zofingen"},"canton":{"key":"19","code":"AG","name":"Aargau"},"status":"Real"},{"key":"10036656","name":"Blumenweg","postalCode":"4852","locality":"Rothrist","commune":{"key":"4282","name":"Rothrist","shortName":"Rothrist"},"district":{"key":"1910","name":"Bezirk Zofingen"},"canton":{"key":"19","code":"AG","name":"Aargau"},"status":"Real"},{"key":"10094412","name":"Bonigerweg","postalCode":"4852","locality":"Rothrist","commune":{"key":"4282","name":"Rothrist","shortName":"Rothrist"},"district":{"key":"1910","name":"Bezirk Zofingen"},"canton":{"key":"19","code":"AG","name":"Aargau"},"status":"Real"},{"key":"10184258","name":"Bornweg","postalCode":"4852","locality":"Rothrist","commune":{"key":"4282","name":"Rothrist","shortName":"Rothrist"},"district":{"key":"1910","name":"Bezirk Zofingen"},"canton":{"key":"19","code":"AG","name":"Aargau"},"status":"Real"},{"key":"10175223","name":"Breitenstrasse","postalCode":"4852","locality":"Rothrist","commune":{"key":"4282","name":"Rothrist","shortName":"Rothrist"},"district":{"key":"1910","name":"Bezirk Zofingen"},"canton":{"key":"19","code":"AG","name":"Aargau"},"status":"Real"},{"key":"10078750","name":"Brunnerweg","postalCode":"4852","locality":"Rothrist","commune":{"key":"4282","name":"Rothrist","shortName":"Rothrist"},"district":{"key":"1910","name":"Bezirk Zofingen"},"canton":{"key":"19","code":"AG","name":"Aargau"},"status":"Real"},{"key":"10036657","name":"Brunnhaldenweg","postalCode":"4852","locality":"Rothrist","commune":{"key":"4282","name":"Rothrist","shortName":"Rothrist"},"district":{"key":"1910","name":"Bezirk Zofingen"},"canton":{"key":"19","code":"AG","name":"Aargau"},"status":"Real"},{"key":"10189460","name":"Buchenweg","postalCode":"4852","locality":"Rothrist","commune":{"key":"4282","name":"Rothrist","shortName":"Rothrist"},"district":{"key":"1910","name":"Bezirk Zofingen"},"canton":{"key":"19","code":"AG","name":"Aargau"},"status":"Real"},{"key":"10111117","name":"Buchrainweg","postalCode":"4852","locality":"Rothrist","commune":{"key":"4282","name":"Rothrist","shortName":"Rothrist"},"district":{"key":"1910","name":"Bezirk Zofingen"},"canton":{"key":"19","code":"AG","name":"Aargau"},"status":"Real"},{"key":"10094413","name":"Chaletweg","postalCode":"4852","locality":"Rothrist","commune":{"key":"4282","name":"Rothrist","shortName":"Rothrist"},"district":{"key":"1910","name":"Bezirk Zofingen"},"canton":{"key":"19","code":"AG","name":"Aargau"},"status":"Real"},{"key":"10094735","name":"Eggasse","postalCode":"4852","locality":"Rothrist","commune":{"key":"4282","name":"Rothrist","shortName":"Rothrist"},"district":{"key":"1910","name":"Bezirk Zofingen"},"canton":{"key":"19","code":"AG","name":"Aargau"},"status":"Real"},{"key":"10094410","name":"Eggasse","postalCode":"4852","locality":"Rothrist","commune":{"key":"4282","name":"Rothrist","shortName":"Rothrist"},"district":{"key":"1910","name":"Bezirk Zofingen"},"canton":{"key":"19","code":"AG","name":"Aargau"},"status":"Real"},{"key":"10078751","name":"Eigerweg","postalCode":"4852","locality":"Rothrist","commune":{"key":"4282","name":"Rothrist","shortName":"Rothrist"},"district":{"key":"1910","name":"Bezirk Zofingen"},"canton":{"key":"19","code":"AG","name":"Aargau"},"status":"Real"},{"key":"10162257","name":"Erlenweg","postalCode":"4852","locality":"Rothrist","commune":{"key":"4282","name":"Rothrist","shortName":"Rothrist"},"district":{"key":"1910","name":"Bezirk Zofingen"},"canton":{"key":"19","code":"AG","name":"Aargau"},"status":"Real"},{"key":"10036658","name":"E. Zimmermannweg","postalCode":"4852","locality":"Rothrist","commune":{"key":"4282","name":"Rothrist","shortName":"Rothrist"},"district":{"key":"1910","name":"Bezirk Zofingen"},"canton":{"key":"19","code":"AG","name":"Aargau"},"status":"Real"},{"key":"10046244","name":"Feldweg","postalCode":"4852","locality":"Rothrist","commune":{"key":"4282","name":"Rothrist","shortName":"Rothrist"},"district":{"key":"1910","name":"Bezirk Zofingen"},"canton":{"key":"19","code":"AG","name":"Aargau"},"status":"Real"},{"key":"10036659","name":"Fichtenweg","postalCode":"4852","locality":"Rothrist","commune":{"key":"4282","name":"Rothrist","shortName":"Rothrist"},"district":{"key":"1910","name":"Bezirk Zofingen"},"canton":{"key":"19","code":"AG","name":"Aargau"},"status":"Real"},{"key":"10184259","name":"Fliederweg","postalCode":"4852","locality":"Rothrist","commune":{"key":"4282","name":"Rothrist","shortName":"Rothrist"},"district":{"key":"1910","name":"Bezirk Zofingen"},"canton":{"key":"19","code":"AG","name":"Aargau"},"status":"Real"},{"key":"10036660","name":"Flurweg","postalCode":"4852","locality":"Rothrist","commune":{"key":"4282","name":"Rothrist","shortName":"Rothrist"},"district":{"key":"1910","name":"Bezirk Zofingen"},"canton":{"key":"19","code":"AG","name":"Aargau"},"status":"Real"},{"key":"10078752","name":"Froburgweg","postalCode":"4852","locality":"Rothrist","commune":{"key":"4282","name":"Rothrist","shortName":"Rothrist"},"district":{"key":"1910","name":"Bezirk Zofingen"},"canton":{"key":"19","code":"AG","name":"Aargau"},"status":"Real"},{"key":"10123870","name":"Fröschentalweg","postalCode":"4852","locality":"Rothrist","commune":{"key":"4282","name":"Rothrist","shortName":"Rothrist"},"district":{"key":"1910","name":"Bezirk Zofingen"},"canton":{"key":"19","code":"AG","name":"Aargau"},"status":"Real"},{"key":"10036661","name":"Fuchsweidweg","postalCode":"4852","locality":"Rothrist","commune":{"key":"4282","name":"Rothrist","shortName":"Rothrist"},"district":{"key":"1910","name":"Bezirk Zofingen"},"canton":{"key":"19","code":"AG","name":"Aargau"},"status":"Real"},{"key":"10036662","name":"Gallirain","postalCode":"4852","locality":"Rothrist","commune":{"key":"4282","name":"Rothrist","shortName":"Rothrist"},"district":{"key":"1910","name":"Bezirk Zofingen"},"canton":{"key":"19","code":"AG","name":"Aargau"},"status":"Real"},{"key":"10036663","name":"Galliweg","postalCode":"4852","locality":"Rothrist","commune":{"key":"4282","name":"Rothrist","shortName":"Rothrist"},"district":{"key":"1910","name":"Bezirk Zofingen"},"canton":{"key":"19","code":"AG","name":"Aargau"},"status":"Real"},{"key":"10078753","name":"Geisshubelweg","postalCode":"4852","locality":"Rothrist","commune":{"key":"4282","name":"Rothrist","shortName":"Rothrist"},"district":{"key":"1910","name":"Bezirk Zofingen"},"canton":{"key":"19","code":"AG","name":"Aargau"},"status":"Real"},{"key":"10036664","name":"Gfillweg","postalCode":"4852","locality":"Rothrist","commune":{"key":"4282","name":"Rothrist","shortName":"Rothrist"},"district":{"key":"1910","name":"Bezirk Zofingen"},"canton":{"key":"19","code":"AG","name":"Aargau"},"status":"Real"},{"key":"10094414","name":"Gländstrasse","postalCode":"4852","locality":"Rothrist","commune":{"key":"4282","name":"Rothrist","shortName":"Rothrist"},"district":{"key":"1910","name":"Bezirk Zofingen"},"canton":{"key":"19","code":"AG","name":"Aargau"},"status":"Real"},{"key":"10122324","name":"Gländstrasse","postalCode":"4852","locality":"Rothrist","commune":{"key":"4282","name":"Rothrist","shortName":"Rothrist"},"district":{"key":"1910","name":"Bezirk Zofingen"},"canton":{"key":"19","code":"AG","name":"Aargau"},"status":"Real"},{"key":"10036665","name":"Grienweg","postalCode":"4852","locality":"Rothrist","commune":{"key":"4282","name":"Rothrist","shortName":"Rothrist"},"district":{"key":"1910","name":"Bezirk Zofingen"},"canton":{"key":"19","code":"AG","name":"Aargau"},"status":"Real"},{"key":"10134441","name":"Grossenweg","postalCode":"4852","locality":"Rothrist","commune":{"key":"4282","name":"Rothrist","shortName":"Rothrist"},"district":{"key":"1910","name":"Bezirk Zofingen"},"canton":{"key":"19","code":"AG","name":"Aargau"},"status":"Real"},{"key":"10188806","name":"Grubenweg","postalCode":"4852","locality":"Rothrist","commune":{"key":"4282","name":"Rothrist","shortName":"Rothrist"},"district":{"key":"1910","name":"Bezirk Zofingen"},"canton":{"key":"19","code":"AG","name":"Aargau"},"status":"Real"},{"key":"10111234","name":"Grundweg","postalCode":"4852","locality":"Rothrist","commune":{"key":"4282","name":"Rothrist","shortName":"Rothrist"},"district":{"key":"1910","name":"Bezirk Zofingen"},"canton":{"key":"19","code":"AG","name":"Aargau"},"status":"Real"},{"key":"10037316","name":"Grüthgässli","postalCode":"4852","locality":"Rothrist","commune":{"key":"4282","name":"Rothrist","shortName":"Rothrist"},"district":{"key":"1910","name":"Bezirk Zofingen"},"canton":{"key":"19","code":"AG","name":"Aargau"},"status":"Real"},{"key":"10251484","name":"Haldenweg","postalCode":"4852","locality":"Rothrist","commune":{"key":"4282","name":"Rothrist","shortName":"Rothrist"},"district":{"key":"1910","name":"Bezirk Zofingen"},"canton":{"key":"19","code":"AG","name":"Aargau"},"status":"Real"},{"key":"10094415","name":"Hallwylerweg","postalCode":"4852","locality":"Rothrist","commune":{"key":"4282","name":"Rothrist","shortName":"Rothrist"},"district":{"key":"1910","name":"Bezirk Zofingen"},"canton":{"key":"19","code":"AG","name":"Aargau"},"status":"Real"},{"key":"10165332","name":"Haselweg","postalCode":"4852","locality":"Rothrist","commune":{"key":"4282","name":"Rothrist","shortName":"Rothrist"},"district":{"key":"1910","name":"Bezirk Zofingen"},"canton":{"key":"19","code":"AG","name":"Aargau"},"status":"Real"},{"key":"10037317","name":"Helblingstrasse","postalCode":"4852","locality":"Rothrist","commune":{"key":"4282","name":"Rothrist","shortName":"Rothrist"},"district":{"key":"1910","name":"Bezirk Zofingen"},"canton":{"key":"19","code":"AG","name":"Aargau"},"status":"Real"},{"key":"10124879","name":"Hofackerweg","postalCode":"4852","locality":"Rothrist","commune":{"key":"4282","name":"Rothrist","shortName":"Rothrist"},"district":{"key":"1910","name":"Bezirk Zofingen"},"canton":{"key":"19","code":"AG","name":"Aargau"},"status":"Real"},{"key":"10078754","name":"Holzweidweg","postalCode":"4852","locality":"Rothrist","commune":{"key":"4282","name":"Rothrist","shortName":"Rothrist"},"district":{"key":"1910","name":"Bezirk Zofingen"},"canton":{"key":"19","code":"AG","name":"Aargau"},"status":"Real"},{"key":"10094416","name":"Industrieweg","postalCode":"4852","locality":"Rothrist","commune":{"key":"4282","name":"Rothrist","shortName":"Rothrist"},"district":{"key":"1910","name":"Bezirk Zofingen"},"canton":{"key":"19","code":"AG","name":"Aargau"},"status":"Real"},{"key":"10036652","name":"Jöndliweg","postalCode":"4852","locality":"Rothrist","commune":{"key":"4282","name":"Rothrist","shortName":"Rothrist"},"district":{"key":"1910","name":"Bezirk Zofingen"},"canton":{"key":"19","code":"AG","name":"Aargau"},"status":"Real"},{"key":"10037318","name":"Juraweg","postalCode":"4852","locality":"Rothrist","commune":{"key":"4282","name":"Rothrist","shortName":"Rothrist"},"district":{"key":"1910","name":"Bezirk Zofingen"},"canton":{"key":"19","code":"AG","name":"Aargau"},"status":"Real"},{"key":"10037319","name":"Kanalweg","postalCode":"4852","locality":"Rothrist","commune":{"key":"4282","name":"Rothrist","shortName":"Rothrist"},"district":{"key":"1910","name":"Bezirk Zofingen"},"canton":{"key":"19","code":"AG","name":"Aargau"},"status":"Real"},{"key":"10078755","name":"Kieferweg","postalCode":"4852","locality":"Rothrist","commune":{"key":"4282","name":"Rothrist","shortName":"Rothrist"},"district":{"key":"1910","name":"Bezirk Zofingen"},"canton":{"key":"19","code":"AG","name":"Aargau"},"status":"Real"},{"key":"10037320","name":"Kirchweg","postalCode":"4852","locality":"Rothrist","commune":{"key":"4282","name":"Rothrist","shortName":"Rothrist"},"district":{"key":"1910","name":"Bezirk Zofingen"},"canton":{"key":"19","code":"AG","name":"Aargau"},"status":"Real"},{"key":"10188807","name":"Kornweg","postalCode":"4852","locality":"Rothrist","commune":{"key":"4282","name":"Rothrist","shortName":"Rothrist"},"district":{"key":"1910","name":"Bezirk Zofingen"},"canton":{"key":"19","code":"AG","name":"Aargau"},"status":"Real"},{"key":"10129339","name":"Lärchenweg","postalCode":"4852","locality":"Rothrist","commune":{"key":"4282","name":"Rothrist","shortName":"Rothrist"},"district":{"key":"1910","name":"Bezirk Zofingen"},"canton":{"key":"19","code":"AG","name":"Aargau"},"status":"Real"},{"key":"10037322","name":"Lässerweg","postalCode":"4852","locality":"Rothrist","commune":{"key":"4282","name":"Rothrist","shortName":"Rothrist"},"district":{"key":"1910","name":"Bezirk Zofingen"},"canton":{"key":"19","code":"AG","name":"Aargau"},"status":"Real"},{"key":"10094417","name":"Laubweg","postalCode":"4852","locality":"Rothrist","commune":{"key":"4282","name":"Rothrist","shortName":"Rothrist"},"district":{"key":"1910","name":"Bezirk Zofingen"},"canton":{"key":"19","code":"AG","name":"Aargau"},"status":"Real"},{"key":"10037321","name":"Lehenweg","postalCode":"4852","locality":"Rothrist","commune":{"key":"4282","name":"Rothrist","shortName":"Rothrist"},"district":{"key":"1910","name":"Bezirk Zofingen"},"canton":{"key":"19","code":"AG","name":"Aargau"},"status":"Real"},{"key":"10136279","name":"Lindenweg","postalCode":"4852","locality":"Rothrist","commune":{"key":"4282","name":"Rothrist","shortName":"Rothrist"},"district":{"key":"1910","name":"Bezirk Zofingen"},"canton":{"key":"19","code":"AG","name":"Aargau"},"status":"Real"},{"key":"10037324","name":"Mätteliweg","postalCode":"4852","locality":"Rothrist","commune":{"key":"4282","name":"Rothrist","shortName":"Rothrist"},"district":{"key":"1910","name":"Bezirk Zofingen"},"canton":{"key":"19","code":"AG","name":"Aargau"},"status":"Real"},{"key":"10037323","name":"Mittlererweg","postalCode":"4852","locality":"Rothrist","commune":{"key":"4282","name":"Rothrist","shortName":"Rothrist"},"district":{"key":"1910","name":"Bezirk Zofingen"},"canton":{"key":"19","code":"AG","name":"Aargau"},"status":"Real"},{"key":"10094418","name":"Moosweg","postalCode":"4852","locality":"Rothrist","commune":{"key":"4282","name":"Rothrist","shortName":"Rothrist"},"district":{"key":"1910","name":"Bezirk Zofingen"},"canton":{"key":"19","code":"AG","name":"Aargau"},"status":"Real"},{"key":"10122876","name":"Natternweg","postalCode":"4852","locality":"Rothrist","commune":{"key":"4282","name":"Rothrist","shortName":"Rothrist"},"district":{"key":"1910","name":"Bezirk Zofingen"},"canton":{"key":"19","code":"AG","name":"Aargau"},"status":"Real"},{"key":"10078756","name":"Nelkenweg","postalCode":"4852","locality":"Rothrist","commune":{"key":"4282","name":"Rothrist","shortName":"Rothrist"},"district":{"key":"1910","name":"Bezirk Zofingen"},"canton":{"key":"19","code":"AG","name":"Aargau"},"status":"Real"},{"key":"10037325","name":"Neue Aarburgerstrasse","postalCode":"4852","locality":"Rothrist","commune":{"key":"4282","name":"Rothrist","shortName":"Rothrist"},"district":{"key":"1910","name":"Bezirk Zofingen"},"canton":{"key":"19","code":"AG","name":"Aargau"},"status":"Real"},{"key":"10094419","name":"Neue Industriestrasse","postalCode":"4852","locality":"Rothrist","commune":{"key":"4282","name":"Rothrist","shortName":"Rothrist"},"district":{"key":"1910","name":"Bezirk Zofingen"},"canton":{"key":"19","code":"AG","name":"Aargau"},"status":"Real"},{"key":"10188808","name":"Neuweg","postalCode":"4852","locality":"Rothrist","commune":{"key":"4282","name":"Rothrist","shortName":"Rothrist"},"district":{"key":"1910","name":"Bezirk Zofingen"},"canton":{"key":"19","code":"AG","name":"Aargau"},"status":"Real"},{"key":"10078757","name":"Nussweg","postalCode":"4852","locality":"Rothrist","commune":{"key":"4282","name":"Rothrist","shortName":"Rothrist"},"district":{"key":"1910","name":"Bezirk Zofingen"},"canton":{"key":"19","code":"AG","name":"Aargau"},"status":"Real"},{"key":"10037326","name":"Oberholzweg","postalCode":"4852","locality":"Rothrist","commune":{"key":"4282","name":"Rothrist","shortName":"Rothrist"},"district":{"key":"1910","name":"Bezirk Zofingen"},"canton":{"key":"19","code":"AG","name":"Aargau"},"status":"Real"},{"key":"10127763","name":"Oberwilerweg","postalCode":"4852","locality":"Rothrist","commune":{"key":"4282","name":"Rothrist","shortName":"Rothrist"},"district":{"key":"1910","name":"Bezirk Zofingen"},"canton":{"key":"19","code":"AG","name":"Aargau"},"status":"Real"},{"key":"10124880","name":"Packerweg","postalCode":"4852","locality":"Rothrist","commune":{"key":"4282","name":"Rothrist","shortName":"Rothrist"},"district":{"key":"1910","name":"Bezirk Zofingen"},"canton":{"key":"19","code":"AG","name":"Aargau"},"status":"Real"},{"key":"10137954","name":"Parkweg","postalCode":"4852","locality":"Rothrist","commune":{"key":"4282","name":"Rothrist","shortName":"Rothrist"},"district":{"key":"1910","name":"Bezirk Zofingen"},"canton":{"key":"19","code":"AG","name":"Aargau"},"status":"Real"},{"key":"10094420","name":"Pfaffnernweg","postalCode":"4852","locality":"Rothrist","commune":{"key":"4282","name":"Rothrist","shortName":"Rothrist"},"district":{"key":"1910","name":"Bezirk Zofingen"},"canton":{"key":"19","code":"AG","name":"Aargau"},"status":"Real"},{"key":"10116157","name":"Pilatusweg","postalCode":"4852","locality":"Rothrist","commune":{"key":"4282","name":"Rothrist","shortName":"Rothrist"},"district":{"key":"1910","name":"Bezirk Zofingen"},"canton":{"key":"19","code":"AG","name":"Aargau"},"status":"Real"},{"key":"10239356","name":"Quellenweg","postalCode":"4852","locality":"Rothrist","commune":{"key":"4282","name":"Rothrist","shortName":"Rothrist"},"district":{"key":"1910","name":"Bezirk Zofingen"},"canton":{"key":"19","code":"AG","name":"Aargau"},"status":"Real"},{"key":"10038081","name":"Reservoirweg","postalCode":"4852","locality":"Rothrist","commune":{"key":"4282","name":"Rothrist","shortName":"Rothrist"},"district":{"key":"1910","name":"Bezirk Zofingen"},"canton":{"key":"19","code":"AG","name":"Aargau"},"status":"Real"},{"key":"10111118","name":"Rigiweg","postalCode":"4852","locality":"Rothrist","commune":{"key":"4282","name":"Rothrist","shortName":"Rothrist"},"district":{"key":"1910","name":"Bezirk Zofingen"},"canton":{"key":"19","code":"AG","name":"Aargau"},"status":"Real"},{"key":"10038082","name":"Ringweg","postalCode":"4852","locality":"Rothrist","commune":{"key":"4282","name":"Rothrist","shortName":"Rothrist"},"district":{"key":"1910","name":"Bezirk Zofingen"},"canton":{"key":"19","code":"AG","name":"Aargau"},"status":"Real"},{"key":"10132150","name":"Rishaldenweg","postalCode":"4852","locality":"Rothrist","commune":{"key":"4282","name":"Rothrist","shortName":"Rothrist"},"district":{"key":"1910","name":"Bezirk Zofingen"},"canton":{"key":"19","code":"AG","name":"Aargau"},"status":"Real"},{"key":"10239344","name":"Robert Barth-Weg","postalCode":"4852","locality":"Rothrist","commune":{"key":"4282","name":"Rothrist","shortName":"Rothrist"},"district":{"key":"1910","name":"Bezirk Zofingen"},"canton":{"key":"19","code":"AG","name":"Aargau"},"status":"Real"},{"key":"10078758","name":"Roggenweg","postalCode":"4852","locality":"Rothrist","commune":{"key":"4282","name":"Rothrist","shortName":"Rothrist"},"district":{"key":"1910","name":"Bezirk Zofingen"},"canton":{"key":"19","code":"AG","name":"Aargau"},"status":"Real"},{"key":"10188809","name":"Rosenweg","postalCode":"4852","locality":"Rothrist","commune":{"key":"4282","name":"Rothrist","shortName":"Rothrist"},"district":{"key":"1910","name":"Bezirk Zofingen"},"canton":{"key":"19","code":"AG","name":"Aargau"},"status":"Real"},{"key":"10038084","name":"Rössliweg","postalCode":"4852","locality":"Rothrist","commune":{"key":"4282","name":"Rothrist","shortName":"Rothrist"},"district":{"key":"1910","name":"Bezirk Zofingen"},"canton":{"key":"19","code":"AG","name":"Aargau"},"status":"Real"},{"key":"10120125","name":"Rothmattweg","postalCode":"4852","locality":"Rothrist","commune":{"key":"4282","name":"Rothrist","shortName":"Rothrist"},"district":{"key":"1910","name":"Bezirk Zofingen"},"canton":{"key":"19","code":"AG","name":"Aargau"},"status":"Real"},{"key":"10038083","name":"Rubernstrasse","postalCode":"4852","locality":"Rothrist","commune":{"key":"4282","name":"Rothrist","shortName":"Rothrist"},"district":{"key":"1910","name":"Bezirk Zofingen"},"canton":{"key":"19","code":"AG","name":"Aargau"},"status":"Real"},{"key":"10046241","name":"Sägetstrasse","postalCode":"4852","locality":"Rothrist","commune":{"key":"4282","name":"Rothrist","shortName":"Rothrist"},"district":{"key":"1910","name":"Bezirk Zofingen"},"canton":{"key":"19","code":"AG","name":"Aargau"},"status":"Real"},{"key":"10114548","name":"Säliweg","postalCode":"4852","locality":"Rothrist","commune":{"key":"4282","name":"Rothrist","shortName":"Rothrist"},"district":{"key":"1910","name":"Bezirk Zofingen"},"canton":{"key":"19","code":"AG","name":"Aargau"},"status":"Real"},{"key":"10197310","name":"Sandweg","postalCode":"4852","locality":"Rothrist","commune":{"key":"4282","name":"Rothrist","shortName":"Rothrist"},"district":{"key":"1910","name":"Bezirk Zofingen"},"canton":{"key":"19","code":"AG","name":"Aargau"},"status":"Real"},{"key":"10046249","name":"Säntisweg","postalCode":"4852","locality":"Rothrist","commune":{"key":"4282","name":"Rothrist","shortName":"Rothrist"},"district":{"key":"1910","name":"Bezirk Zofingen"},"canton":{"key":"19","code":"AG","name":"Aargau"},"status":"Real"},{"key":"10038085","name":"Schärhusweg","postalCode":"4852","locality":"Rothrist","commune":{"key":"4282","name":"Rothrist","shortName":"Rothrist"},"district":{"key":"1910","name":"Bezirk Zofingen"},"canton":{"key":"19","code":"AG","name":"Aargau"},"status":"Real"},{"key":"10078759","name":"Schellbergweg","postalCode":"4852","locality":"Rothrist","commune":{"key":"4282","name":"Rothrist","shortName":"Rothrist"},"district":{"key":"1910","name":"Bezirk Zofingen"},"canton":{"key":"19","code":"AG","name":"Aargau"},"status":"Real"},{"key":"10046245","name":"Schluhenweg","postalCode":"4852","locality":"Rothrist","commune":{"key":"4282","name":"Rothrist","shortName":"Rothrist"},"district":{"key":"1910","name":"Bezirk Zofingen"},"canton":{"key":"19","code":"AG","name":"Aargau"},"status":"Real"},{"key":"10258539","name":"Schmitterweg","postalCode":"4852","locality":"Rothrist","commune":{"key":"4282","name":"Rothrist","shortName":"Rothrist"},"district":{"key":"1910","name":"Bezirk Zofingen"},"canton":{"key":"19","code":"AG","name":"Aargau"},"status":"Real"},{"key":"10094421","name":"Schulweg","postalCode":"4852","locality":"Rothrist","commune":{"key":"4282","name":"Rothrist","shortName":"Rothrist"},"district":{"key":"1910","name":"Bezirk Zofingen"},"canton":{"key":"19","code":"AG","name":"Aargau"},"status":"Real"},{"key":"10046246","name":"Schützenweg","postalCode":"4852","locality":"Rothrist","commune":{"key":"4282","name":"Rothrist","shortName":"Rothrist"},"district":{"key":"1910","name":"Bezirk Zofingen"},"canton":{"key":"19","code":"AG","name":"Aargau"},"status":"Real"},{"key":"10038086","name":"Sennhofweg","postalCode":"4852","locality":"Rothrist","commune":{"key":"4282","name":"Rothrist","shortName":"Rothrist"},"district":{"key":"1910","name":"Bezirk Zofingen"},"canton":{"key":"19","code":"AG","name":"Aargau"},"status":"Real"},{"key":"10140738","name":"Sonnenblumenweg","postalCode":"4852","locality":"Rothrist","commune":{"key":"4282","name":"Rothrist","shortName":"Rothrist"},"district":{"key":"1910","name":"Bezirk Zofingen"},"canton":{"key":"19","code":"AG","name":"Aargau"},"status":"Real"},{"key":"10117486","name":"Sonnhaldenweg","postalCode":"4852","locality":"Rothrist","commune":{"key":"4282","name":"Rothrist","shortName":"Rothrist"},"district":{"key":"1910","name":"Bezirk Zofingen"},"canton":{"key":"19","code":"AG","name":"Aargau"},"status":"Real"},{"key":"10046247","name":"Spannortweg","postalCode":"4852","locality":"Rothrist","commune":{"key":"4282","name":"Rothrist","shortName":"Rothrist"},"district":{"key":"1910","name":"Bezirk Zofingen"},"canton":{"key":"19","code":"AG","name":"Aargau"},"status":"Real"},{"key":"10078760","name":"Spycherweg","postalCode":"4852","locality":"Rothrist","commune":{"key":"4282","name":"Rothrist","shortName":"Rothrist"},"district":{"key":"1910","name":"Bezirk Zofingen"},"canton":{"key":"19","code":"AG","name":"Aargau"},"status":"Real"},{"key":"10038087","name":"Stampfiweg","postalCode":"4852","locality":"Rothrist","commune":{"key":"4282","name":"Rothrist","shortName":"Rothrist"},"district":{"key":"1910","name":"Bezirk Zofingen"},"canton":{"key":"19","code":"AG","name":"Aargau"},"status":"Real"},{"key":"10107580","name":"Stauwehrweg","postalCode":"4852","locality":"Rothrist","commune":{"key":"4282","name":"Rothrist","shortName":"Rothrist"},"district":{"key":"1910","name":"Bezirk Zofingen"},"canton":{"key":"19","code":"AG","name":"Aargau"},"status":"Real"},{"key":"10188810","name":"Steinackerweg","postalCode":"4852","locality":"Rothrist","commune":{"key":"4282","name":"Rothrist","shortName":"Rothrist"},"district":{"key":"1910","name":"Bezirk Zofingen"},"canton":{"key":"19","code":"AG","name":"Aargau"},"status":"Real"},{"key":"10038088","name":"Stockweg","postalCode":"4852","locality":"Rothrist","commune":{"key":"4282","name":"Rothrist","shortName":"Rothrist"},"district":{"key":"1910","name":"Bezirk Zofingen"},"canton":{"key":"19","code":"AG","name":"Aargau"},"status":"Real"},{"key":"10046248","name":"Studenweg","postalCode":"4852","locality":"Rothrist","commune":{"key":"4282","name":"Rothrist","shortName":"Rothrist"},"district":{"key":"1910","name":"Bezirk Zofingen"},"canton":{"key":"19","code":"AG","name":"Aargau"},"status":"Real"},{"key":"10038089","name":"Titlisweg","postalCode":"4852","locality":"Rothrist","commune":{"key":"4282","name":"Rothrist","shortName":"Rothrist"},"district":{"key":"1910","name":"Bezirk Zofingen"},"canton":{"key":"19","code":"AG","name":"Aargau"},"status":"Real"},{"key":"10046250","name":"Tödiweg","postalCode":"4852","locality":"Rothrist","commune":{"key":"4282","name":"Rothrist","shortName":"Rothrist"},"district":{"key":"1910","name":"Bezirk Zofingen"},"canton":{"key":"19","code":"AG","name":"Aargau"},"status":"Real"},{"key":"10111119","name":"Tulpenweg","postalCode":"4852","locality":"Rothrist","commune":{"key":"4282","name":"Rothrist","shortName":"Rothrist"},"district":{"key":"1910","name":"Bezirk Zofingen"},"canton":{"key":"19","code":"AG","name":"Aargau"},"status":"Real"},{"key":"10124881","name":"Unterer Froburgweg","postalCode":"4852","locality":"Rothrist","commune":{"key":"4282","name":"Rothrist","shortName":"Rothrist"},"district":{"key":"1910","name":"Bezirk Zofingen"},"canton":{"key":"19","code":"AG","name":"Aargau"},"status":"Real"},{"key":"10046251","name":"Weidweg","postalCode":"4852","locality":"Rothrist","commune":{"key":"4282","name":"Rothrist","shortName":"Rothrist"},"district":{"key":"1910","name":"Bezirk Zofingen"},"canton":{"key":"19","code":"AG","name":"Aargau"},"status":"Real"},{"key":"10094422","name":"Weierweg","postalCode":"4852","locality":"Rothrist","commune":{"key":"4282","name":"Rothrist","shortName":"Rothrist"},"district":{"key":"1910","name":"Bezirk Zofingen"},"canton":{"key":"19","code":"AG","name":"Aargau"},"status":"Real"},{"key":"10078761","name":"Weissensteinweg","postalCode":"4852","locality":"Rothrist","commune":{"key":"4282","name":"Rothrist","shortName":"Rothrist"},"district":{"key":"1910","name":"Bezirk Zofingen"},"canton":{"key":"19","code":"AG","name":"Aargau"},"status":"Real"},{"key":"10189461","name":"Winterhaldenweg","postalCode":"4852","locality":"Rothrist","commune":{"key":"4282","name":"Rothrist","shortName":"Rothrist"},"district":{"key":"1910","name":"Bezirk Zofingen"},"canton":{"key":"19","code":"AG","name":"Aargau"},"status":"Real"},{"key":"10038090","name":"Zederweg","postalCode":"4852","locality":"Rothrist","commune":{"key":"4282","name":"Rothrist","shortName":"Rothrist"},"district":{"key":"1910","name":"Bezirk Zofingen"},"canton":{"key":"19","code":"AG","name":"Aargau"},"status":"Real"},{"key":"10038091","name":"Zentrumsweg","postalCode":"4852","locality":"Rothrist","commune":{"key":"4282","name":"Rothrist","shortName":"Rothrist"},"district":{"key":"1910","name":"Bezirk Zofingen"},"canton":{"key":"19","code":"AG","name":"Aargau"},"status":"Real"},{"key":"10038092","name":"Zimmerliweg","postalCode":"4852","locality":"Rothrist","commune":{"key":"4282","name":"Rothrist","shortName":"Rothrist"},"district":{"key":"1910","name":"Bezirk Zofingen"},"canton":{"key":"19","code":"AG","name":"Aargau"},"status":"Real"},]