[{"name":"Ahornweg","postalCode":"34479","locality":"Breuna","municipality":{"key":"06633004","name":"Breuna","type":"Kreisangehörige_Gemeinde"},"district":{"key":"06633","name":"Kassel","type":"Landkreis"},"federalState":{"key":"06","name":"Hessen"}},{"name":"Alsbergstr.","postalCode":"34479","locality":"Breuna","municipality":{"key":"06633004","name":"Breuna","type":"Kreisangehörige_Gemeinde"},"district":{"key":"06633","name":"Kassel","type":"Landkreis"},"federalState":{"key":"06","name":"Hessen"}},{"name":"Alte Schulstr.","postalCode":"34479","locality":"Breuna","municipality":{"key":"06633004","name":"Breuna","type":"Kreisangehörige_Gemeinde"},"district":{"key":"06633","name":"Kassel","type":"Landkreis"},"federalState":{"key":"06","name":"Hessen"}},{"name":"Am Bachmann","postalCode":"34479","locality":"Breuna","municipality":{"key":"06633004","name":"Breuna","type":"Kreisangehörige_Gemeinde"},"district":{"key":"06633","name":"Kassel","type":"Landkreis"},"federalState":{"key":"06","name":"Hessen"}},{"name":"Am Backhaus","postalCode":"34479","locality":"Breuna","municipality":{"key":"06633004","name":"Breuna","type":"Kreisangehörige_Gemeinde"},"district":{"key":"06633","name":"Kassel","type":"Landkreis"},"federalState":{"key":"06","name":"Hessen"}},{"name":"Am Bühl","postalCode":"34479","locality":"Breuna","municipality":{"key":"06633004","name":"Breuna","type":"Kreisangehörige_Gemeinde"},"district":{"key":"06633","name":"Kassel","type":"Landkreis"},"federalState":{"key":"06","name":"Hessen"}},{"name":"Am Burghof","postalCode":"34479","locality":"Breuna","municipality":{"key":"06633004","name":"Breuna","type":"Kreisangehörige_Gemeinde"},"district":{"key":"06633","name":"Kassel","type":"Landkreis"},"federalState":{"key":"06","name":"Hessen"}},{"name":"Am Dorfplatz","postalCode":"34479","locality":"Breuna","municipality":{"key":"06633004","name":"Breuna","type":"Kreisangehörige_Gemeinde"},"district":{"key":"06633","name":"Kassel","type":"Landkreis"},"federalState":{"key":"06","name":"Hessen"}},{"name":"Am Hain","postalCode":"34479","locality":"Breuna","municipality":{"key":"06633004","name":"Breuna","type":"Kreisangehörige_Gemeinde"},"district":{"key":"06633","name":"Kassel","type":"Landkreis"},"federalState":{"key":"06","name":"Hessen"}},{"name":"Am Heizwerk","postalCode":"34479","locality":"Breuna","municipality":{"key":"06633004","name":"Breuna","type":"Kreisangehörige_Gemeinde"},"district":{"key":"06633","name":"Kassel","type":"Landkreis"},"federalState":{"key":"06","name":"Hessen"}},{"name":"Am Ortsfeld","postalCode":"34479","locality":"Breuna","municipality":{"key":"06633004","name":"Breuna","type":"Kreisangehörige_Gemeinde"},"district":{"key":"06633","name":"Kassel","type":"Landkreis"},"federalState":{"key":"06","name":"Hessen"}},{"name":"Am Ruhrpfad","postalCode":"34479","locality":"Breuna","municipality":{"key":"06633004","name":"Breuna","type":"Kreisangehörige_Gemeinde"},"district":{"key":"06633","name":"Kassel","type":"Landkreis"},"federalState":{"key":"06","name":"Hessen"}},{"name":"Amselweg","postalCode":"34479","locality":"Breuna","municipality":{"key":"06633004","name":"Breuna","type":"Kreisangehörige_Gemeinde"},"district":{"key":"06633","name":"Kassel","type":"Landkreis"},"federalState":{"key":"06","name":"Hessen"}},{"name":"Am Sportplatz","postalCode":"34479","locality":"Breuna","municipality":{"key":"06633004","name":"Breuna","type":"Kreisangehörige_Gemeinde"},"district":{"key":"06633","name":"Kassel","type":"Landkreis"},"federalState":{"key":"06","name":"Hessen"}},{"name":"Am Spring","postalCode":"34479","locality":"Breuna","municipality":{"key":"06633004","name":"Breuna","type":"Kreisangehörige_Gemeinde"},"district":{"key":"06633","name":"Kassel","type":"Landkreis"},"federalState":{"key":"06","name":"Hessen"}},{"name":"Am Steinbruch","postalCode":"34479","locality":"Breuna","municipality":{"key":"06633004","name":"Breuna","type":"Kreisangehörige_Gemeinde"},"district":{"key":"06633","name":"Kassel","type":"Landkreis"},"federalState":{"key":"06","name":"Hessen"}},{"name":"Am Steinkopf","postalCode":"34479","locality":"Breuna","municipality":{"key":"06633004","name":"Breuna","type":"Kreisangehörige_Gemeinde"},"district":{"key":"06633","name":"Kassel","type":"Landkreis"},"federalState":{"key":"06","name":"Hessen"}},{"name":"Am Wiesacker","postalCode":"34479","locality":"Breuna","municipality":{"key":"06633004","name":"Breuna","type":"Kreisangehörige_Gemeinde"},"district":{"key":"06633","name":"Kassel","type":"Landkreis"},"federalState":{"key":"06","name":"Hessen"}},{"name":"An der Kirche","postalCode":"34479","locality":"Breuna","municipality":{"key":"06633004","name":"Breuna","type":"Kreisangehörige_Gemeinde"},"district":{"key":"06633","name":"Kassel","type":"Landkreis"},"federalState":{"key":"06","name":"Hessen"}},{"name":"An der Schanze","postalCode":"34479","locality":"Breuna","municipality":{"key":"06633004","name":"Breuna","type":"Kreisangehörige_Gemeinde"},"district":{"key":"06633","name":"Kassel","type":"Landkreis"},"federalState":{"key":"06","name":"Hessen"}},{"name":"An der Steinklippe","postalCode":"34479","locality":"Breuna","municipality":{"key":"06633004","name":"Breuna","type":"Kreisangehörige_Gemeinde"},"district":{"key":"06633","name":"Kassel","type":"Landkreis"},"federalState":{"key":"06","name":"Hessen"}},{"name":"An der Tränke","postalCode":"34479","locality":"Breuna","municipality":{"key":"06633004","name":"Breuna","type":"Kreisangehörige_Gemeinde"},"district":{"key":"06633","name":"Kassel","type":"Landkreis"},"federalState":{"key":"06","name":"Hessen"}},{"name":"Arolser Str.","postalCode":"34479","locality":"Breuna","municipality":{"key":"06633004","name":"Breuna","type":"Kreisangehörige_Gemeinde"},"district":{"key":"06633","name":"Kassel","type":"Landkreis"},"federalState":{"key":"06","name":"Hessen"}},{"name":"Backofenstr.","postalCode":"34479","locality":"Breuna","municipality":{"key":"06633004","name":"Breuna","type":"Kreisangehörige_Gemeinde"},"district":{"key":"06633","name":"Kassel","type":"Landkreis"},"federalState":{"key":"06","name":"Hessen"}},{"name":"Baumschule","postalCode":"34479","locality":"Breuna","municipality":{"key":"06633004","name":"Breuna","type":"Kreisangehörige_Gemeinde"},"district":{"key":"06633","name":"Kassel","type":"Landkreis"},"federalState":{"key":"06","name":"Hessen"}},{"name":"Bergstr.","postalCode":"34479","locality":"Breuna","municipality":{"key":"06633004","name":"Breuna","type":"Kreisangehörige_Gemeinde"},"district":{"key":"06633","name":"Kassel","type":"Landkreis"},"federalState":{"key":"06","name":"Hessen"}},{"name":"Berliner Str.","postalCode":"34479","locality":"Breuna","municipality":{"key":"06633004","name":"Breuna","type":"Kreisangehörige_Gemeinde"},"district":{"key":"06633","name":"Kassel","type":"Landkreis"},"federalState":{"key":"06","name":"Hessen"}},{"name":"Birkenweg","postalCode":"34479","locality":"Breuna","municipality":{"key":"06633004","name":"Breuna","type":"Kreisangehörige_Gemeinde"},"district":{"key":"06633","name":"Kassel","type":"Landkreis"},"federalState":{"key":"06","name":"Hessen"}},{"name":"Bodenweg","postalCode":"34479","locality":"Breuna","municipality":{"key":"06633004","name":"Breuna","type":"Kreisangehörige_Gemeinde"},"district":{"key":"06633","name":"Kassel","type":"Landkreis"},"federalState":{"key":"06","name":"Hessen"}},{"name":"Boneforth","postalCode":"34479","locality":"Breuna","municipality":{"key":"06633004","name":"Breuna","type":"Kreisangehörige_Gemeinde"},"district":{"key":"06633","name":"Kassel","type":"Landkreis"},"federalState":{"key":"06","name":"Hessen"}},{"name":"Breunaer Str.","postalCode":"34479","locality":"Breuna","municipality":{"key":"06633004","name":"Breuna","type":"Kreisangehörige_Gemeinde"},"district":{"key":"06633","name":"Kassel","type":"Landkreis"},"federalState":{"key":"06","name":"Hessen"}},{"name":"Brüderstr.","postalCode":"34479","locality":"Breuna","municipality":{"key":"06633004","name":"Breuna","type":"Kreisangehörige_Gemeinde"},"district":{"key":"06633","name":"Kassel","type":"Landkreis"},"federalState":{"key":"06","name":"Hessen"}},{"name":"Brunnenstr.","postalCode":"34479","locality":"Breuna","municipality":{"key":"06633004","name":"Breuna","type":"Kreisangehörige_Gemeinde"},"district":{"key":"06633","name":"Kassel","type":"Landkreis"},"federalState":{"key":"06","name":"Hessen"}},{"name":"Bubornstr.","postalCode":"34479","locality":"Breuna","municipality":{"key":"06633004","name":"Breuna","type":"Kreisangehörige_Gemeinde"},"district":{"key":"06633","name":"Kassel","type":"Landkreis"},"federalState":{"key":"06","name":"Hessen"}},{"name":"Buchenweg","postalCode":"34479","locality":"Breuna","municipality":{"key":"06633004","name":"Breuna","type":"Kreisangehörige_Gemeinde"},"district":{"key":"06633","name":"Kassel","type":"Landkreis"},"federalState":{"key":"06","name":"Hessen"}},{"name":"Burgtwete","postalCode":"34479","locality":"Breuna","municipality":{"key":"06633004","name":"Breuna","type":"Kreisangehörige_Gemeinde"},"district":{"key":"06633","name":"Kassel","type":"Landkreis"},"federalState":{"key":"06","name":"Hessen"}},{"name":"Calenberger Str.","postalCode":"34479","locality":"Breuna","municipality":{"key":"06633004","name":"Breuna","type":"Kreisangehörige_Gemeinde"},"district":{"key":"06633","name":"Kassel","type":"Landkreis"},"federalState":{"key":"06","name":"Hessen"}},{"name":"Chattenweg","postalCode":"34479","locality":"Breuna","municipality":{"key":"06633004","name":"Breuna","type":"Kreisangehörige_Gemeinde"},"district":{"key":"06633","name":"Kassel","type":"Landkreis"},"federalState":{"key":"06","name":"Hessen"}},{"name":"Chattenwinkel","postalCode":"34479","locality":"Breuna","municipality":{"key":"06633004","name":"Breuna","type":"Kreisangehörige_Gemeinde"},"district":{"key":"06633","name":"Kassel","type":"Landkreis"},"federalState":{"key":"06","name":"Hessen"}},{"name":"Dachsbergstr.","postalCode":"34131","locality":"Kassel","municipality":{"key":"06611000","name":"Kassel, documenta-Stadt","type":"Kreisfreie_Stadt"},"district":{"key":"06611","name":"Kassel, documenta-Stadt","type":"Kreisfreie_Stadt"},"federalState":{"key":"06","name":"Hessen"}},{"name":"Dag-Hammarskjöld-Str.","postalCode":"34119","locality":"Kassel","municipality":{"key":"06611000","name":"Kassel, documenta-Stadt","type":"Kreisfreie_Stadt"},"district":{"key":"06611","name":"Kassel, documenta-Stadt","type":"Kreisfreie_Stadt"},"federalState":{"key":"06","name":"Hessen"}},{"name":"Dahlheimer Weg","postalCode":"34123","locality":"Kassel","municipality":{"key":"06611000","name":"Kassel, documenta-Stadt","type":"Kreisfreie_Stadt"},"district":{"key":"06611","name":"Kassel, documenta-Stadt","type":"Kreisfreie_Stadt"},"federalState":{"key":"06","name":"Hessen"}},{"name":"Dahlienweg","postalCode":"34121","locality":"Kassel","municipality":{"key":"06611000","name":"Kassel, documenta-Stadt","type":"Kreisfreie_Stadt"},"district":{"key":"06611","name":"Kassel, documenta-Stadt","type":"Kreisfreie_Stadt"},"federalState":{"key":"06","name":"Hessen"}},{"name":"Dahlienweg","postalCode":"34125","locality":"Kassel","municipality":{"key":"06611000","name":"Kassel, documenta-Stadt","type":"Kreisfreie_Stadt"},"district":{"key":"06611","name":"Kassel, documenta-Stadt","type":"Kreisfreie_Stadt"},"federalState":{"key":"06","name":"Hessen"}},{"name":"Dahlienweg","postalCode":"34128","locality":"Kassel","municipality":{"key":"06611000","name":"Kassel, documenta-Stadt","type":"Kreisfreie_Stadt"},"district":{"key":"06611","name":"Kassel, documenta-Stadt","type":"Kreisfreie_Stadt"},"federalState":{"key":"06","name":"Hessen"}},{"name":"Dahlienweg","postalCode":"53859","locality":"Niederkassel","municipality":{"key":"05382044","name":"Niederkassel, Stadt","type":"Stadt"},"district":{"key":"05382","name":"Rhein-Sieg-Kreis","type":"Kreis"},"federalState":{"key":"05","name":"Nordrhein-Westfalen"}},{"name":"Dalwigkstr.","postalCode":"34130","locality":"Kassel","municipality":{"key":"06611000","name":"Kassel, documenta-Stadt","type":"Kreisfreie_Stadt"},"district":{"key":"06611","name":"Kassel, documenta-Stadt","type":"Kreisfreie_Stadt"},"federalState":{"key":"06","name":"Hessen"}},{"name":"Damaschkebrücke","postalCode":"34123","locality":"Kassel","municipality":{"key":"06611000","name":"Kassel, documenta-Stadt","type":"Kreisfreie_Stadt"},"district":{"key":"06611","name":"Kassel, documenta-Stadt","type":"Kreisfreie_Stadt"},"federalState":{"key":"06","name":"Hessen"}},{"name":"Damaschkestr.","postalCode":"34121","locality":"Kassel","municipality":{"key":"06611000","name":"Kassel, documenta-Stadt","type":"Kreisfreie_Stadt"},"district":{"key":"06611","name":"Kassel, documenta-Stadt","type":"Kreisfreie_Stadt"},"federalState":{"key":"06","name":"Hessen"}},{"name":"Damaschkestr.","postalCode":"34123","locality":"Kassel","municipality":{"key":"06611000","name":"Kassel, documenta-Stadt","type":"Kreisfreie_Stadt"},"district":{"key":"06611","name":"Kassel, documenta-Stadt","type":"Kreisfreie_Stadt"},"federalState":{"key":"06","name":"Hessen"}},{"name":"Dantestr.","postalCode":"53859","locality":"Niederkassel","municipality":{"key":"05382044","name":"Niederkassel, Stadt","type":"Stadt"},"district":{"key":"05382","name":"Rhein-Sieg-Kreis","type":"Kreis"},"federalState":{"key":"05","name":"Nordrhein-Westfalen"}},{"name":"Danziger Str.","postalCode":"34121","locality":"Kassel","municipality":{"key":"06611000","name":"Kassel, documenta-Stadt","type":"Kreisfreie_Stadt"},"district":{"key":"06611","name":"Kassel, documenta-Stadt","type":"Kreisfreie_Stadt"},"federalState":{"key":"06","name":"Hessen"}},{"name":"Danziger Str.","postalCode":"53859","locality":"Niederkassel","municipality":{"key":"05382044","name":"Niederkassel, Stadt","type":"Stadt"},"district":{"key":"05382","name":"Rhein-Sieg-Kreis","type":"Kreis"},"federalState":{"key":"05","name":"Nordrhein-Westfalen"}},{"name":"Daspelstr.","postalCode":"34128","locality":"Kassel","municipality":{"key":"06611000","name":"Kassel, documenta-Stadt","type":"Kreisfreie_Stadt"},"district":{"key":"06611","name":"Kassel, documenta-Stadt","type":"Kreisfreie_Stadt"},"federalState":{"key":"06","name":"Hessen"}},{"name":"Deichstr.","postalCode":"53859","locality":"Niederkassel","municipality":{"key":"05382044","name":"Niederkassel, Stadt","type":"Stadt"},"district":{"key":"05382","name":"Rhein-Sieg-Kreis","type":"Kreis"},"federalState":{"key":"05","name":"Nordrhein-Westfalen"}},{"name":"Dennhäuser Str.","postalCode":"34134","locality":"Kassel","municipality":{"key":"06611000","name":"Kassel, documenta-Stadt","type":"Kreisfreie_Stadt"},"district":{"key":"06611","name":"Kassel, documenta-Stadt","type":"Kreisfreie_Stadt"},"federalState":{"key":"06","name":"Hessen"}},{"name":"Dessenborn","postalCode":"34125","locality":"Kassel","municipality":{"key":"06611000","name":"Kassel, documenta-Stadt","type":"Kreisfreie_Stadt"},"district":{"key":"06611","name":"Kassel, documenta-Stadt","type":"Kreisfreie_Stadt"},"federalState":{"key":"06","name":"Hessen"}},{"name":"Deutzer Str.","postalCode":"53859","locality":"Niederkassel","municipality":{"key":"05382044","name":"Niederkassel, Stadt","type":"Stadt"},"district":{"key":"05382","name":"Rhein-Sieg-Kreis","type":"Kreis"},"federalState":{"key":"05","name":"Nordrhein-Westfalen"}},{"name":"Diagonale","postalCode":"34125","locality":"Kassel","municipality":{"key":"06611000","name":"Kassel, documenta-Stadt","type":"Kreisfreie_Stadt"},"district":{"key":"06611","name":"Kassel, documenta-Stadt","type":"Kreisfreie_Stadt"},"federalState":{"key":"06","name":"Hessen"}},{"name":"Diagonale","postalCode":"34127","locality":"Kassel","municipality":{"key":"06611000","name":"Kassel, documenta-Stadt","type":"Kreisfreie_Stadt"},"district":{"key":"06611","name":"Kassel, documenta-Stadt","type":"Kreisfreie_Stadt"},"federalState":{"key":"06","name":"Hessen"}},{"name":"Diakonissenstr.","postalCode":"34119","locality":"Kassel","municipality":{"key":"06611000","name":"Kassel, documenta-Stadt","type":"Kreisfreie_Stadt"},"district":{"key":"06611","name":"Kassel, documenta-Stadt","type":"Kreisfreie_Stadt"},"federalState":{"key":"06","name":"Hessen"}},{"name":"Diebachsweg","postalCode":"34123","locality":"Kassel","municipality":{"key":"06611000","name":"Kassel, documenta-Stadt","type":"Kreisfreie_Stadt"},"district":{"key":"06611","name":"Kassel, documenta-Stadt","type":"Kreisfreie_Stadt"},"federalState":{"key":"06","name":"Hessen"}},{"name":"Die Freiheit","postalCode":"34117","locality":"Kassel","municipality":{"key":"06611000","name":"Kassel, documenta-Stadt","type":"Kreisfreie_Stadt"},"district":{"key":"06611","name":"Kassel, documenta-Stadt","type":"Kreisfreie_Stadt"},"federalState":{"key":"06","name":"Hessen"}},{"name":"Die große Heerstr.","postalCode":"53859","locality":"Niederkassel","municipality":{"key":"05382044","name":"Niederkassel, Stadt","type":"Stadt"},"district":{"key":"05382","name":"Rhein-Sieg-Kreis","type":"Kreis"},"federalState":{"key":"05","name":"Nordrhein-Westfalen"}},{"name":"Dietrich-Bonhoeffer-Str.","postalCode":"34132","locality":"Kassel","municipality":{"key":"06611000","name":"Kassel, documenta-Stadt","type":"Kreisfreie_Stadt"},"district":{"key":"06611","name":"Kassel, documenta-Stadt","type":"Kreisfreie_Stadt"},"federalState":{"key":"06","name":"Hessen"}},{"name":"Dietrich-Bonhoeffer-Str.","postalCode":"53859","locality":"Niederkassel","municipality":{"key":"05382044","name":"Niederkassel, Stadt","type":"Stadt"},"district":{"key":"05382","name":"Rhein-Sieg-Kreis","type":"Kreis"},"federalState":{"key":"05","name":"Nordrhein-Westfalen"}},{"name":"Dilichweg","postalCode":"34125","locality":"Kassel","municipality":{"key":"06611000","name":"Kassel, documenta-Stadt","type":"Kreisfreie_Stadt"},"district":{"key":"06611","name":"Kassel, documenta-Stadt","type":"Kreisfreie_Stadt"},"federalState":{"key":"06","name":"Hessen"}},{"name":"Dingelstedtstr.","postalCode":"34119","locality":"Kassel","municipality":{"key":"06611000","name":"Kassel, documenta-Stadt","type":"Kreisfreie_Stadt"},"district":{"key":"06611","name":"Kassel, documenta-Stadt","type":"Kreisfreie_Stadt"},"federalState":{"key":"06","name":"Hessen"}},{"name":"Dionysiusweg","postalCode":"53859","locality":"Niederkassel","municipality":{"key":"05382044","name":"Niederkassel, Stadt","type":"Stadt"},"district":{"key":"05382","name":"Rhein-Sieg-Kreis","type":"Kreis"},"federalState":{"key":"05","name":"Nordrhein-Westfalen"}},{"name":"Dischkaul","postalCode":"53859","locality":"Niederkassel","municipality":{"key":"05382044","name":"Niederkassel, Stadt","type":"Stadt"},"district":{"key":"05382","name":"Rhein-Sieg-Kreis","type":"Kreis"},"federalState":{"key":"05","name":"Nordrhein-Westfalen"}},{"name":"Distelbreite","postalCode":"34130","locality":"Kassel","municipality":{"key":"06611000","name":"Kassel, documenta-Stadt","type":"Kreisfreie_Stadt"},"district":{"key":"06611","name":"Kassel, documenta-Stadt","type":"Kreisfreie_Stadt"},"federalState":{"key":"06","name":"Hessen"}},{"name":"Dittershäuser Str.","postalCode":"34134","locality":"Kassel","municipality":{"key":"06611000","name":"Kassel, documenta-Stadt","type":"Kreisfreie_Stadt"},"district":{"key":"06611","name":"Kassel, documenta-Stadt","type":"Kreisfreie_Stadt"},"federalState":{"key":"06","name":"Hessen"}},{"name":"Doktorgasse","postalCode":"53859","locality":"Niederkassel","municipality":{"key":"05382044","name":"Niederkassel, Stadt","type":"Stadt"},"district":{"key":"05382","name":"Rhein-Sieg-Kreis","type":"Kreis"},"federalState":{"key":"05","name":"Nordrhein-Westfalen"}},{"name":"Döllbachstr.","postalCode":"34127","locality":"Kassel","municipality":{"key":"06611000","name":"Kassel, documenta-Stadt","type":"Kreisfreie_Stadt"},"district":{"key":"06611","name":"Kassel, documenta-Stadt","type":"Kreisfreie_Stadt"},"federalState":{"key":"06","name":"Hessen"}},{"name":"Domstr.","postalCode":"53859","locality":"Niederkassel","municipality":{"key":"05382044","name":"Niederkassel, Stadt","type":"Stadt"},"district":{"key":"05382","name":"Rhein-Sieg-Kreis","type":"Kreis"},"federalState":{"key":"05","name":"Nordrhein-Westfalen"}},{"name":"Döncherain","postalCode":"34134","locality":"Kassel","municipality":{"key":"06611000","name":"Kassel, documenta-Stadt","type":"Kreisfreie_Stadt"},"district":{"key":"06611","name":"Kassel, documenta-Stadt","type":"Kreisfreie_Stadt"},"federalState":{"key":"06","name":"Hessen"}},{"name":"Döncheweg","postalCode":"34131","locality":"Kassel","municipality":{"key":"06611000","name":"Kassel, documenta-Stadt","type":"Kreisfreie_Stadt"},"district":{"key":"06611","name":"Kassel, documenta-Stadt","type":"Kreisfreie_Stadt"},"federalState":{"key":"06","name":"Hessen"}},{"name":"Dormannweg","postalCode":"34123","locality":"Kassel","municipality":{"key":"06611000","name":"Kassel, documenta-Stadt","type":"Kreisfreie_Stadt"},"district":{"key":"06611","name":"Kassel, documenta-Stadt","type":"Kreisfreie_Stadt"},"federalState":{"key":"06","name":"Hessen"}},{"name":"Dörnbergstr.","postalCode":"34119","locality":"Kassel","municipality":{"key":"06611000","name":"Kassel, documenta-Stadt","type":"Kreisfreie_Stadt"},"district":{"key":"06611","name":"Kassel, documenta-Stadt","type":"Kreisfreie_Stadt"},"federalState":{"key":"06","name":"Hessen"}},{"name":"Dornländerweg","postalCode":"34132","locality":"Kassel","municipality":{"key":"06611000","name":"Kassel, documenta-Stadt","type":"Kreisfreie_Stadt"},"district":{"key":"06611","name":"Kassel, documenta-Stadt","type":"Kreisfreie_Stadt"},"federalState":{"key":"06","name":"Hessen"}},{"name":"Dornröschenpfad","postalCode":"34134","locality":"Kassel","municipality":{"key":"06611000","name":"Kassel, documenta-Stadt","type":"Kreisfreie_Stadt"},"district":{"key":"06611","name":"Kassel, documenta-Stadt","type":"Kreisfreie_Stadt"},"federalState":{"key":"06","name":"Hessen"}},{"name":"Dorothea-Viehmann-Park","postalCode":"34134","locality":"Kassel","municipality":{"key":"06611000","name":"Kassel, documenta-Stadt","type":"Kreisfreie_Stadt"},"district":{"key":"06611","name":"Kassel, documenta-Stadt","type":"Kreisfreie_Stadt"},"federalState":{"key":"06","name":"Hessen"}},{"name":"Dorothea-Viehmann-Str.","postalCode":"34134","locality":"Kassel","municipality":{"key":"06611000","name":"Kassel, documenta-Stadt","type":"Kreisfreie_Stadt"},"district":{"key":"06611","name":"Kassel, documenta-Stadt","type":"Kreisfreie_Stadt"},"federalState":{"key":"06","name":"Hessen"}},{"name":"Drachenfelsweg","postalCode":"53859","locality":"Niederkassel","municipality":{"key":"05382044","name":"Niederkassel, Stadt","type":"Stadt"},"district":{"key":"05382","name":"Rhein-Sieg-Kreis","type":"Kreis"},"federalState":{"key":"05","name":"Nordrhein-Westfalen"}},{"name":"Drahtmühlenweg","postalCode":"34123","locality":"Kassel","municipality":{"key":"06611000","name":"Kassel, documenta-Stadt","type":"Kreisfreie_Stadt"},"district":{"key":"06611","name":"Kassel, documenta-Stadt","type":"Kreisfreie_Stadt"},"federalState":{"key":"06","name":"Hessen"}},{"name":"Dresdener Str.","postalCode":"34123","locality":"Kassel","municipality":{"key":"06611000","name":"Kassel, documenta-Stadt","type":"Kreisfreie_Stadt"},"district":{"key":"06611","name":"Kassel, documenta-Stadt","type":"Kreisfreie_Stadt"},"federalState":{"key":"06","name":"Hessen"}},{"name":"Dresdener Str.","postalCode":"34125","locality":"Kassel","municipality":{"key":"06611000","name":"Kassel, documenta-Stadt","type":"Kreisfreie_Stadt"},"district":{"key":"06611","name":"Kassel, documenta-Stadt","type":"Kreisfreie_Stadt"},"federalState":{"key":"06","name":"Hessen"}},{"name":"Dresdener Str.","postalCode":"53859","locality":"Niederkassel","municipality":{"key":"05382044","name":"Niederkassel, Stadt","type":"Stadt"},"district":{"key":"05382","name":"Rhein-Sieg-Kreis","type":"Kreis"},"federalState":{"key":"05","name":"Nordrhein-Westfalen"}},{"name":"Drosselweg","postalCode":"34125","locality":"Kassel","municipality":{"key":"06611000","name":"Kassel, documenta-Stadt","type":"Kreisfreie_Stadt"},"district":{"key":"06611","name":"Kassel, documenta-Stadt","type":"Kreisfreie_Stadt"},"federalState":{"key":"06","name":"Hessen"}},{"name":"Eichenweg","postalCode":"34479","locality":"Breuna","municipality":{"key":"06633004","name":"Breuna","type":"Kreisangehörige_Gemeinde"},"district":{"key":"06633","name":"Kassel","type":"Landkreis"},"federalState":{"key":"06","name":"Hessen"}},{"name":"Entengasse","postalCode":"34479","locality":"Breuna","municipality":{"key":"06633004","name":"Breuna","type":"Kreisangehörige_Gemeinde"},"district":{"key":"06633","name":"Kassel","type":"Landkreis"},"federalState":{"key":"06","name":"Hessen"}},{"name":"Erlenweg","postalCode":"34479","locality":"Breuna","municipality":{"key":"06633004","name":"Breuna","type":"Kreisangehörige_Gemeinde"},"district":{"key":"06633","name":"Kassel","type":"Landkreis"},"federalState":{"key":"06","name":"Hessen"}},{"name":"Escheberger Str.","postalCode":"34479","locality":"Breuna","municipality":{"key":"06633004","name":"Breuna","type":"Kreisangehörige_Gemeinde"},"district":{"key":"06633","name":"Kassel","type":"Landkreis"},"federalState":{"key":"06","name":"Hessen"}},{"name":"Falkenweg","postalCode":"34479","locality":"Breuna","municipality":{"key":"06633004","name":"Breuna","type":"Kreisangehörige_Gemeinde"},"district":{"key":"06633","name":"Kassel","type":"Landkreis"},"federalState":{"key":"06","name":"Hessen"}},{"name":"Fasanenweg","postalCode":"34479","locality":"Breuna","municipality":{"key":"06633004","name":"Breuna","type":"Kreisangehörige_Gemeinde"},"district":{"key":"06633","name":"Kassel","type":"Landkreis"},"federalState":{"key":"06","name":"Hessen"}},{"name":"Fegesack","postalCode":"34479","locality":"Breuna","municipality":{"key":"06633004","name":"Breuna","type":"Kreisangehörige_Gemeinde"},"district":{"key":"06633","name":"Kassel","type":"Landkreis"},"federalState":{"key":"06","name":"Hessen"}},{"name":"Finkenweg","postalCode":"34479","locality":"Breuna","municipality":{"key":"06633004","name":"Breuna","type":"Kreisangehörige_Gemeinde"},"district":{"key":"06633","name":"Kassel","type":"Landkreis"},"federalState":{"key":"06","name":"Hessen"}},{"name":"Fuhrweg","postalCode":"34479","locality":"Breuna","municipality":{"key":"06633004","name":"Breuna","type":"Kreisangehörige_Gemeinde"},"district":{"key":"06633","name":"Kassel","type":"Landkreis"},"federalState":{"key":"06","name":"Hessen"}},{"name":"Gartenstr.","postalCode":"34479","locality":"Breuna","municipality":{"key":"06633004","name":"Breuna","type":"Kreisangehörige_Gemeinde"},"district":{"key":"06633","name":"Kassel","type":"Landkreis"},"federalState":{"key":"06","name":"Hessen"}},{"name":"Gartenweg","postalCode":"34479","locality":"Breuna","municipality":{"key":"06633004","name":"Breuna","type":"Kreisangehörige_Gemeinde"},"district":{"key":"06633","name":"Kassel","type":"Landkreis"},"federalState":{"key":"06","name":"Hessen"}},{"name":"Goldbreite","postalCode":"34479","locality":"Breuna","municipality":{"key":"06633004","name":"Breuna","type":"Kreisangehörige_Gemeinde"},"district":{"key":"06633","name":"Kassel","type":"Landkreis"},"federalState":{"key":"06","name":"Hessen"}},{"name":"Grundweg","postalCode":"34479","locality":"Breuna","municipality":{"key":"06633004","name":"Breuna","type":"Kreisangehörige_Gemeinde"},"district":{"key":"06633","name":"Kassel","type":"Landkreis"},"federalState":{"key":"06","name":"Hessen"}},{"name":"Grüner Weg","postalCode":"34479","locality":"Breuna","municipality":{"key":"06633004","name":"Breuna","type":"Kreisangehörige_Gemeinde"},"district":{"key":"06633","name":"Kassel","type":"Landkreis"},"federalState":{"key":"06","name":"Hessen"}},{"name":"Hasenwiese","postalCode":"34479","locality":"Breuna","municipality":{"key":"06633004","name":"Breuna","type":"Kreisangehörige_Gemeinde"},"district":{"key":"06633","name":"Kassel","type":"Landkreis"},"federalState":{"key":"06","name":"Hessen"}},{"name":"Hauedaer Weg","postalCode":"34479","locality":"Breuna","municipality":{"key":"06633004","name":"Breuna","type":"Kreisangehörige_Gemeinde"},"district":{"key":"06633","name":"Kassel","type":"Landkreis"},"federalState":{"key":"06","name":"Hessen"}},{"name":"Heinrich-Cöster-Weg","postalCode":"34479","locality":"Breuna","municipality":{"key":"06633004","name":"Breuna","type":"Kreisangehörige_Gemeinde"},"district":{"key":"06633","name":"Kassel","type":"Landkreis"},"federalState":{"key":"06","name":"Hessen"}},{"name":"Henger Weg","postalCode":"34479","locality":"Breuna","municipality":{"key":"06633004","name":"Breuna","type":"Kreisangehörige_Gemeinde"},"district":{"key":"06633","name":"Kassel","type":"Landkreis"},"federalState":{"key":"06","name":"Hessen"}},{"name":"Hinter den Höfen","postalCode":"34479","locality":"Breuna","municipality":{"key":"06633004","name":"Breuna","type":"Kreisangehörige_Gemeinde"},"district":{"key":"06633","name":"Kassel","type":"Landkreis"},"federalState":{"key":"06","name":"Hessen"}},{"name":"Hofhange","postalCode":"34479","locality":"Breuna","municipality":{"key":"06633004","name":"Breuna","type":"Kreisangehörige_Gemeinde"},"district":{"key":"06633","name":"Kassel","type":"Landkreis"},"federalState":{"key":"06","name":"Hessen"}},{"name":"Hohenloher Weg","postalCode":"34479","locality":"Breuna","municipality":{"key":"06633004","name":"Breuna","type":"Kreisangehörige_Gemeinde"},"district":{"key":"06633","name":"Kassel","type":"Landkreis"},"federalState":{"key":"06","name":"Hessen"}},{"name":"Hohentorstr.","postalCode":"34479","locality":"Breuna","municipality":{"key":"06633004","name":"Breuna","type":"Kreisangehörige_Gemeinde"},"district":{"key":"06633","name":"Kassel","type":"Landkreis"},"federalState":{"key":"06","name":"Hessen"}},{"name":"Holländische Str.","postalCode":"34479","locality":"Breuna","municipality":{"key":"06633004","name":"Breuna","type":"Kreisangehörige_Gemeinde"},"district":{"key":"06633","name":"Kassel","type":"Landkreis"},"federalState":{"key":"06","name":"Hessen"}},{"name":"Hopfenhof","postalCode":"34479","locality":"Breuna","municipality":{"key":"06633004","name":"Breuna","type":"Kreisangehörige_Gemeinde"},"district":{"key":"06633","name":"Kassel","type":"Landkreis"},"federalState":{"key":"06","name":"Hessen"}},{"name":"Hunoldstr.","postalCode":"34479","locality":"Breuna","municipality":{"key":"06633004","name":"Breuna","type":"Kreisangehörige_Gemeinde"},"district":{"key":"06633","name":"Kassel","type":"Landkreis"},"federalState":{"key":"06","name":"Hessen"}},{"name":"Igelsbettweg","postalCode":"34479","locality":"Breuna","municipality":{"key":"06633004","name":"Breuna","type":"Kreisangehörige_Gemeinde"},"district":{"key":"06633","name":"Kassel","type":"Landkreis"},"federalState":{"key":"06","name":"Hessen"}},{"name":"Im Rhödaer Grund","postalCode":"34479","locality":"Breuna","municipality":{"key":"06633004","name":"Breuna","type":"Kreisangehörige_Gemeinde"},"district":{"key":"06633","name":"Kassel","type":"Landkreis"},"federalState":{"key":"06","name":"Hessen"}},{"name":"Im Rischborn","postalCode":"34479","locality":"Breuna","municipality":{"key":"06633004","name":"Breuna","type":"Kreisangehörige_Gemeinde"},"district":{"key":"06633","name":"Kassel","type":"Landkreis"},"federalState":{"key":"06","name":"Hessen"}},{"name":"Im Strang","postalCode":"34479","locality":"Breuna","municipality":{"key":"06633004","name":"Breuna","type":"Kreisangehörige_Gemeinde"},"district":{"key":"06633","name":"Kassel","type":"Landkreis"},"federalState":{"key":"06","name":"Hessen"}},{"name":"Im Weinbrunnen","postalCode":"34479","locality":"Breuna","municipality":{"key":"06633004","name":"Breuna","type":"Kreisangehörige_Gemeinde"},"district":{"key":"06633","name":"Kassel","type":"Landkreis"},"federalState":{"key":"06","name":"Hessen"}},{"name":"In der Fahrt","postalCode":"34479","locality":"Breuna","municipality":{"key":"06633004","name":"Breuna","type":"Kreisangehörige_Gemeinde"},"district":{"key":"06633","name":"Kassel","type":"Landkreis"},"federalState":{"key":"06","name":"Hessen"}},{"name":"In der Witmete","postalCode":"34479","locality":"Breuna","municipality":{"key":"06633004","name":"Breuna","type":"Kreisangehörige_Gemeinde"},"district":{"key":"06633","name":"Kassel","type":"Landkreis"},"federalState":{"key":"06","name":"Hessen"}},{"name":"Jäckhstr.","postalCode":"34121","locality":"Kassel","municipality":{"key":"06611000","name":"Kassel, documenta-Stadt","type":"Kreisfreie_Stadt"},"district":{"key":"06611","name":"Kassel, documenta-Stadt","type":"Kreisfreie_Stadt"},"federalState":{"key":"06","name":"Hessen"}},{"name":"Jägerstr.","postalCode":"34117","locality":"Kassel","municipality":{"key":"06611000","name":"Kassel, documenta-Stadt","type":"Kreisfreie_Stadt"},"district":{"key":"06611","name":"Kassel, documenta-Stadt","type":"Kreisfreie_Stadt"},"federalState":{"key":"06","name":"Hessen"}},{"name":"Jahnstr.","postalCode":"34123","locality":"Kassel","municipality":{"key":"06611000","name":"Kassel, documenta-Stadt","type":"Kreisfreie_Stadt"},"district":{"key":"06611","name":"Kassel, documenta-Stadt","type":"Kreisfreie_Stadt"},"federalState":{"key":"06","name":"Hessen"}},{"name":"Jakobsgasse","postalCode":"34123","locality":"Kassel","municipality":{"key":"06611000","name":"Kassel, documenta-Stadt","type":"Kreisfreie_Stadt"},"district":{"key":"06611","name":"Kassel, documenta-Stadt","type":"Kreisfreie_Stadt"},"federalState":{"key":"06","name":"Hessen"}},{"name":"Jakobstr.","postalCode":"53859","locality":"Niederkassel","municipality":{"key":"05382044","name":"Niederkassel, Stadt","type":"Stadt"},"district":{"key":"05382","name":"Rhein-Sieg-Kreis","type":"Kreis"},"federalState":{"key":"05","name":"Nordrhein-Westfalen"}},{"name":"Jasminweg","postalCode":"34125","locality":"Kassel","municipality":{"key":"06611000","name":"Kassel, documenta-Stadt","type":"Kreisfreie_Stadt"},"district":{"key":"06611","name":"Kassel, documenta-Stadt","type":"Kreisfreie_Stadt"},"federalState":{"key":"06","name":"Hessen"}},{"name":"Jean-Sibelius-Str.","postalCode":"34128","locality":"Kassel","municipality":{"key":"06611000","name":"Kassel, documenta-Stadt","type":"Kreisfreie_Stadt"},"district":{"key":"06611","name":"Kassel, documenta-Stadt","type":"Kreisfreie_Stadt"},"federalState":{"key":"06","name":"Hessen"}},{"name":"Johanna-Vogt-Str.","postalCode":"34131","locality":"Kassel","municipality":{"key":"06611000","name":"Kassel, documenta-Stadt","type":"Kreisfreie_Stadt"},"district":{"key":"06611","name":"Kassel, documenta-Stadt","type":"Kreisfreie_Stadt"},"federalState":{"key":"06","name":"Hessen"}},{"name":"Johanna-Waescher-Str.","postalCode":"34131","locality":"Kassel","municipality":{"key":"06611000","name":"Kassel, documenta-Stadt","type":"Kreisfreie_Stadt"},"district":{"key":"06611","name":"Kassel, documenta-Stadt","type":"Kreisfreie_Stadt"},"federalState":{"key":"06","name":"Hessen"}},{"name":"Johann-Christian-Eberle-Str.","postalCode":"34134","locality":"Kassel","municipality":{"key":"06611000","name":"Kassel, documenta-Stadt","type":"Kreisfreie_Stadt"},"district":{"key":"06611","name":"Kassel, documenta-Stadt","type":"Kreisfreie_Stadt"},"federalState":{"key":"06","name":"Hessen"}},{"name":"Johannesstr.","postalCode":"34121","locality":"Kassel","municipality":{"key":"06611000","name":"Kassel, documenta-Stadt","type":"Kreisfreie_Stadt"},"district":{"key":"06611","name":"Kassel, documenta-Stadt","type":"Kreisfreie_Stadt"},"federalState":{"key":"06","name":"Hessen"}},{"name":"Johannesstr.","postalCode":"53859","locality":"Niederkassel","municipality":{"key":"05382044","name":"Niederkassel, Stadt","type":"Stadt"},"district":{"key":"05382","name":"Rhein-Sieg-Kreis","type":"Kreis"},"federalState":{"key":"05","name":"Nordrhein-Westfalen"}},{"name":"Johann-Hermann-Schein-Str.","postalCode":"34131","locality":"Kassel","municipality":{"key":"06611000","name":"Kassel, documenta-Stadt","type":"Kreisfreie_Stadt"},"district":{"key":"06611","name":"Kassel, documenta-Stadt","type":"Kreisfreie_Stadt"},"federalState":{"key":"06","name":"Hessen"}},{"name":"Johann-Jakoby-Str.","postalCode":"34132","locality":"Kassel","municipality":{"key":"06611000","name":"Kassel, documenta-Stadt","type":"Kreisfreie_Stadt"},"district":{"key":"06611","name":"Kassel, documenta-Stadt","type":"Kreisfreie_Stadt"},"federalState":{"key":"06","name":"Hessen"}},{"name":"Johann-Sebastian-Bach-Str.","postalCode":"34134","locality":"Kassel","municipality":{"key":"06611000","name":"Kassel, documenta-Stadt","type":"Kreisfreie_Stadt"},"district":{"key":"06611","name":"Kassel, documenta-Stadt","type":"Kreisfreie_Stadt"},"federalState":{"key":"06","name":"Hessen"}},{"name":"John-F.-Kennedy-Str.","postalCode":"34128","locality":"Kassel","municipality":{"key":"06611000","name":"Kassel, documenta-Stadt","type":"Kreisfreie_Stadt"},"district":{"key":"06611","name":"Kassel, documenta-Stadt","type":"Kreisfreie_Stadt"},"federalState":{"key":"06","name":"Hessen"}},{"name":"Jordanstr.","postalCode":"34117","locality":"Kassel","municipality":{"key":"06611000","name":"Kassel, documenta-Stadt","type":"Kreisfreie_Stadt"},"district":{"key":"06611","name":"Kassel, documenta-Stadt","type":"Kreisfreie_Stadt"},"federalState":{"key":"06","name":"Hessen"}},{"name":"Josef-Fischer-Str.","postalCode":"34127","locality":"Kassel","municipality":{"key":"06611000","name":"Kassel, documenta-Stadt","type":"Kreisfreie_Stadt"},"district":{"key":"06611","name":"Kassel, documenta-Stadt","type":"Kreisfreie_Stadt"},"federalState":{"key":"06","name":"Hessen"}},{"name":"Josefstr.","postalCode":"53859","locality":"Niederkassel","municipality":{"key":"05382044","name":"Niederkassel, Stadt","type":"Stadt"},"district":{"key":"05382","name":"Rhein-Sieg-Kreis","type":"Kreis"},"federalState":{"key":"05","name":"Nordrhein-Westfalen"}},{"name":"Joseph-Beuys-Str.","postalCode":"34117","locality":"Kassel","municipality":{"key":"06611000","name":"Kassel, documenta-Stadt","type":"Kreisfreie_Stadt"},"district":{"key":"06611","name":"Kassel, documenta-Stadt","type":"Kreisfreie_Stadt"},"federalState":{"key":"06","name":"Hessen"}},{"name":"Josephstr.","postalCode":"34125","locality":"Kassel","municipality":{"key":"06611000","name":"Kassel, documenta-Stadt","type":"Kreisfreie_Stadt"},"district":{"key":"06611","name":"Kassel, documenta-Stadt","type":"Kreisfreie_Stadt"},"federalState":{"key":"06","name":"Hessen"}},{"name":"Jugendheimstr.","postalCode":"34132","locality":"Kassel","municipality":{"key":"06611000","name":"Kassel, documenta-Stadt","type":"Kreisfreie_Stadt"},"district":{"key":"06611","name":"Kassel, documenta-Stadt","type":"Kreisfreie_Stadt"},"federalState":{"key":"06","name":"Hessen"}},{"name":"Julienstr.","postalCode":"34121","locality":"Kassel","municipality":{"key":"06611000","name":"Kassel, documenta-Stadt","type":"Kreisfreie_Stadt"},"district":{"key":"06611","name":"Kassel, documenta-Stadt","type":"Kreisfreie_Stadt"},"federalState":{"key":"06","name":"Hessen"}},{"name":"Julie-von-Kästner-Str.","postalCode":"34131","locality":"Kassel","municipality":{"key":"06611000","name":"Kassel, documenta-Stadt","type":"Kreisfreie_Stadt"},"district":{"key":"06611","name":"Kassel, documenta-Stadt","type":"Kreisfreie_Stadt"},"federalState":{"key":"06","name":"Hessen"}},{"name":"Julius-Leber-Str.","postalCode":"34132","locality":"Kassel","municipality":{"key":"06611000","name":"Kassel, documenta-Stadt","type":"Kreisfreie_Stadt"},"district":{"key":"06611","name":"Kassel, documenta-Stadt","type":"Kreisfreie_Stadt"},"federalState":{"key":"06","name":"Hessen"}},{"name":"Junkerstr.","postalCode":"53859","locality":"Niederkassel","municipality":{"key":"05382044","name":"Niederkassel, Stadt","type":"Stadt"},"district":{"key":"05382","name":"Rhein-Sieg-Kreis","type":"Kreis"},"federalState":{"key":"05","name":"Nordrhein-Westfalen"}},{"name":"Jussowstr.","postalCode":"34125","locality":"Kassel","municipality":{"key":"06611000","name":"Kassel, documenta-Stadt","type":"Kreisfreie_Stadt"},"district":{"key":"06611","name":"Kassel, documenta-Stadt","type":"Kreisfreie_Stadt"},"federalState":{"key":"06","name":"Hessen"}},{"name":"K86","postalCode":"34479","locality":"Breuna","municipality":{"key":"06633004","name":"Breuna","type":"Kreisangehörige_Gemeinde"},"district":{"key":"06633","name":"Kassel","type":"Landkreis"},"federalState":{"key":"06","name":"Hessen"}},{"name":"Kasseler Str.","postalCode":"34479","locality":"Breuna","municipality":{"key":"06633004","name":"Breuna","type":"Kreisangehörige_Gemeinde"},"district":{"key":"06633","name":"Kassel","type":"Landkreis"},"federalState":{"key":"06","name":"Hessen"}},{"name":"Kellergasse","postalCode":"34479","locality":"Breuna","municipality":{"key":"06633004","name":"Breuna","type":"Kreisangehörige_Gemeinde"},"district":{"key":"06633","name":"Kassel","type":"Landkreis"},"federalState":{"key":"06","name":"Hessen"}},{"name":"Kiefernweg","postalCode":"34479","locality":"Breuna","municipality":{"key":"06633004","name":"Breuna","type":"Kreisangehörige_Gemeinde"},"district":{"key":"06633","name":"Kassel","type":"Landkreis"},"federalState":{"key":"06","name":"Hessen"}},{"name":"Kirchstr.","postalCode":"34479","locality":"Breuna","municipality":{"key":"06633004","name":"Breuna","type":"Kreisangehörige_Gemeinde"},"district":{"key":"06633","name":"Kassel","type":"Landkreis"},"federalState":{"key":"06","name":"Hessen"}},{"name":"Kirchweg","postalCode":"34479","locality":"Breuna","municipality":{"key":"06633004","name":"Breuna","type":"Kreisangehörige_Gemeinde"},"district":{"key":"06633","name":"Kassel","type":"Landkreis"},"federalState":{"key":"06","name":"Hessen"}},{"name":"Lange Str.","postalCode":"34479","locality":"Breuna","municipality":{"key":"06633004","name":"Breuna","type":"Kreisangehörige_Gemeinde"},"district":{"key":"06633","name":"Kassel","type":"Landkreis"},"federalState":{"key":"06","name":"Hessen"}},{"name":"Lerchenweg","postalCode":"34479","locality":"Breuna","municipality":{"key":"06633004","name":"Breuna","type":"Kreisangehörige_Gemeinde"},"district":{"key":"06633","name":"Kassel","type":"Landkreis"},"federalState":{"key":"06","name":"Hessen"}},{"name":"Lindenweg","postalCode":"34479","locality":"Breuna","municipality":{"key":"06633004","name":"Breuna","type":"Kreisangehörige_Gemeinde"},"district":{"key":"06633","name":"Kassel","type":"Landkreis"},"federalState":{"key":"06","name":"Hessen"}},{"name":"Matthias-Weete-Str.","postalCode":"34479","locality":"Breuna","municipality":{"key":"06633004","name":"Breuna","type":"Kreisangehörige_Gemeinde"},"district":{"key":"06633","name":"Kassel","type":"Landkreis"},"federalState":{"key":"06","name":"Hessen"}},{"name":"Mauerstr.","postalCode":"34479","locality":"Breuna","municipality":{"key":"06633004","name":"Breuna","type":"Kreisangehörige_Gemeinde"},"district":{"key":"06633","name":"Kassel","type":"Landkreis"},"federalState":{"key":"06","name":"Hessen"}},{"name":"Mittelstr.","postalCode":"34479","locality":"Breuna","municipality":{"key":"06633004","name":"Breuna","type":"Kreisangehörige_Gemeinde"},"district":{"key":"06633","name":"Kassel","type":"Landkreis"},"federalState":{"key":"06","name":"Hessen"}},{"name":"Niedermeiser Str.","postalCode":"34479","locality":"Breuna","municipality":{"key":"06633004","name":"Breuna","type":"Kreisangehörige_Gemeinde"},"district":{"key":"06633","name":"Kassel","type":"Landkreis"},"federalState":{"key":"06","name":"Hessen"}},{"name":"Obere Str.","postalCode":"34479","locality":"Breuna","municipality":{"key":"06633004","name":"Breuna","type":"Kreisangehörige_Gemeinde"},"district":{"key":"06633","name":"Kassel","type":"Landkreis"},"federalState":{"key":"06","name":"Hessen"}},{"name":"Oberlistinger Str.","postalCode":"34479","locality":"Breuna","municipality":{"key":"06633004","name":"Breuna","type":"Kreisangehörige_Gemeinde"},"district":{"key":"06633","name":"Kassel","type":"Landkreis"},"federalState":{"key":"06","name":"Hessen"}},{"name":"Parkstr.","postalCode":"34479","locality":"Breuna","municipality":{"key":"06633004","name":"Breuna","type":"Kreisangehörige_Gemeinde"},"district":{"key":"06633","name":"Kassel","type":"Landkreis"},"federalState":{"key":"06","name":"Hessen"}},{"name":"Querstr.","postalCode":"34479","locality":"Breuna","municipality":{"key":"06633004","name":"Breuna","type":"Kreisangehörige_Gemeinde"},"district":{"key":"06633","name":"Kassel","type":"Landkreis"},"federalState":{"key":"06","name":"Hessen"}},{"name":"Rhödaer Str.","postalCode":"34479","locality":"Breuna","municipality":{"key":"06633004","name":"Breuna","type":"Kreisangehörige_Gemeinde"},"district":{"key":"06633","name":"Kassel","type":"Landkreis"},"federalState":{"key":"06","name":"Hessen"}},{"name":"Riesenweg","postalCode":"34479","locality":"Breuna","municipality":{"key":"06633004","name":"Breuna","type":"Kreisangehörige_Gemeinde"},"district":{"key":"06633","name":"Kassel","type":"Landkreis"},"federalState":{"key":"06","name":"Hessen"}},{"name":"Rosenstr.","postalCode":"34479","locality":"Breuna","municipality":{"key":"06633004","name":"Breuna","type":"Kreisangehörige_Gemeinde"},"district":{"key":"06633","name":"Kassel","type":"Landkreis"},"federalState":{"key":"06","name":"Hessen"}},{"name":"Rottweg","postalCode":"34479","locality":"Breuna","municipality":{"key":"06633004","name":"Breuna","type":"Kreisangehörige_Gemeinde"},"district":{"key":"06633","name":"Kassel","type":"Landkreis"},"federalState":{"key":"06","name":"Hessen"}},{"name":"Schmiedenweg","postalCode":"34479","locality":"Breuna","municipality":{"key":"06633004","name":"Breuna","type":"Kreisangehörige_Gemeinde"},"district":{"key":"06633","name":"Kassel","type":"Landkreis"},"federalState":{"key":"06","name":"Hessen"}},{"name":"Schratweg","postalCode":"34479","locality":"Breuna","municipality":{"key":"06633004","name":"Breuna","type":"Kreisangehörige_Gemeinde"},"district":{"key":"06633","name":"Kassel","type":"Landkreis"},"federalState":{"key":"06","name":"Hessen"}},{"name":"Schulstr.","postalCode":"34479","locality":"Breuna","municipality":{"key":"06633004","name":"Breuna","type":"Kreisangehörige_Gemeinde"},"district":{"key":"06633","name":"Kassel","type":"Landkreis"},"federalState":{"key":"06","name":"Hessen"}},{"name":"Sonnenfeld","postalCode":"34479","locality":"Breuna","municipality":{"key":"06633004","name":"Breuna","type":"Kreisangehörige_Gemeinde"},"district":{"key":"06633","name":"Kassel","type":"Landkreis"},"federalState":{"key":"06","name":"Hessen"}},{"name":"Stadtpfad","postalCode":"34479","locality":"Breuna","municipality":{"key":"06633004","name":"Breuna","type":"Kreisangehörige_Gemeinde"},"district":{"key":"06633","name":"Kassel","type":"Landkreis"},"federalState":{"key":"06","name":"Hessen"}},{"name":"Stadtweg","postalCode":"34479","locality":"Breuna","municipality":{"key":"06633004","name":"Breuna","type":"Kreisangehörige_Gemeinde"},"district":{"key":"06633","name":"Kassel","type":"Landkreis"},"federalState":{"key":"06","name":"Hessen"}},{"name":"Steinweg","postalCode":"34479","locality":"Breuna","municipality":{"key":"06633004","name":"Breuna","type":"Kreisangehörige_Gemeinde"},"district":{"key":"06633","name":"Kassel","type":"Landkreis"},"federalState":{"key":"06","name":"Hessen"}},{"name":"Susanne-Hamberg-Weg","postalCode":"34479","locality":"Breuna","municipality":{"key":"06633004","name":"Breuna","type":"Kreisangehörige_Gemeinde"},"district":{"key":"06633","name":"Kassel","type":"Landkreis"},"federalState":{"key":"06","name":"Hessen"}},{"name":"Talblick","postalCode":"34479","locality":"Breuna","municipality":{"key":"06633004","name":"Breuna","type":"Kreisangehörige_Gemeinde"},"district":{"key":"06633","name":"Kassel","type":"Landkreis"},"federalState":{"key":"06","name":"Hessen"}},{"name":"Teichweg","postalCode":"34479","locality":"Breuna","municipality":{"key":"06633004","name":"Breuna","type":"Kreisangehörige_Gemeinde"},"district":{"key":"06633","name":"Kassel","type":"Landkreis"},"federalState":{"key":"06","name":"Hessen"}},{"name":"Teichwiese","postalCode":"34479","locality":"Breuna","municipality":{"key":"06633004","name":"Breuna","type":"Kreisangehörige_Gemeinde"},"district":{"key":"06633","name":"Kassel","type":"Landkreis"},"federalState":{"key":"06","name":"Hessen"}},{"name":"Triftweg","postalCode":"34479","locality":"Breuna","municipality":{"key":"06633004","name":"Breuna","type":"Kreisangehörige_Gemeinde"},"district":{"key":"06633","name":"Kassel","type":"Landkreis"},"federalState":{"key":"06","name":"Hessen"}},{"name":"Twete","postalCode":"34479","locality":"Breuna","municipality":{"key":"06633004","name":"Breuna","type":"Kreisangehörige_Gemeinde"},"district":{"key":"06633","name":"Kassel","type":"Landkreis"},"federalState":{"key":"06","name":"Hessen"}},{"name":"Untere Str.","postalCode":"34479","locality":"Breuna","municipality":{"key":"06633004","name":"Breuna","type":"Kreisangehörige_Gemeinde"},"district":{"key":"06633","name":"Kassel","type":"Landkreis"},"federalState":{"key":"06","name":"Hessen"}},{"name":"Volkmarser Str.","postalCode":"34479","locality":"Breuna","municipality":{"key":"06633004","name":"Breuna","type":"Kreisangehörige_Gemeinde"},"district":{"key":"06633","name":"Kassel","type":"Landkreis"},"federalState":{"key":"06","name":"Hessen"}},{"name":"Waldlehrpfad Hoher Steiger","postalCode":"34479","locality":"Breuna","municipality":{"key":"06633004","name":"Breuna","type":"Kreisangehörige_Gemeinde"},"district":{"key":"06633","name":"Kassel","type":"Landkreis"},"federalState":{"key":"06","name":"Hessen"}},{"name":"Waldstr.","postalCode":"34479","locality":"Breuna","municipality":{"key":"06633004","name":"Breuna","type":"Kreisangehörige_Gemeinde"},"district":{"key":"06633","name":"Kassel","type":"Landkreis"},"federalState":{"key":"06","name":"Hessen"}},{"name":"Warburger Str.","postalCode":"34479","locality":"Breuna","municipality":{"key":"06633004","name":"Breuna","type":"Kreisangehörige_Gemeinde"},"district":{"key":"06633","name":"Kassel","type":"Landkreis"},"federalState":{"key":"06","name":"Hessen"}},{"name":"Weidenstr.","postalCode":"34479","locality":"Breuna","municipality":{"key":"06633004","name":"Breuna","type":"Kreisangehörige_Gemeinde"},"district":{"key":"06633","name":"Kassel","type":"Landkreis"},"federalState":{"key":"06","name":"Hessen"}},{"name":"Wettesinger Str.","postalCode":"34479","locality":"Breuna","municipality":{"key":"06633004","name":"Breuna","type":"Kreisangehörige_Gemeinde"},"district":{"key":"06633","name":"Kassel","type":"Landkreis"},"federalState":{"key":"06","name":"Hessen"}},{"name":"Wiesenstr.","postalCode":"34479","locality":"Breuna","municipality":{"key":"06633004","name":"Breuna","type":"Kreisangehörige_Gemeinde"},"district":{"key":"06633","name":"Kassel","type":"Landkreis"},"federalState":{"key":"06","name":"Hessen"}},{"name":"Wiesenweg","postalCode":"34479","locality":"Breuna","municipality":{"key":"06633004","name":"Breuna","type":"Kreisangehörige_Gemeinde"},"district":{"key":"06633","name":"Kassel","type":"Landkreis"},"federalState":{"key":"06","name":"Hessen"}},{"name":"Wolfhager Str.","postalCode":"34479","locality":"Breuna","municipality":{"key":"06633004","name":"Breuna","type":"Kreisangehörige_Gemeinde"},"district":{"key":"06633","name":"Kassel","type":"Landkreis"},"federalState":{"key":"06","name":"Hessen"}},{"name":"Yorckstr.","postalCode":"34123","locality":"Kassel","municipality":{"key":"06611000","name":"Kassel, documenta-Stadt","type":"Kreisfreie_Stadt"},"district":{"key":"06611","name":"Kassel, documenta-Stadt","type":"Kreisfreie_Stadt"},"federalState":{"key":"06","name":"Hessen"}},{"name":"Ysenburgstr.","postalCode":"34125","locality":"Kassel","municipality":{"key":"06611000","name":"Kassel, documenta-Stadt","type":"Kreisfreie_Stadt"},"district":{"key":"06611","name":"Kassel, documenta-Stadt","type":"Kreisfreie_Stadt"},"federalState":{"key":"06","name":"Hessen"}},{"name":"Zum Bodenfeld","postalCode":"34479","locality":"Breuna","municipality":{"key":"06633004","name":"Breuna","type":"Kreisangehörige_Gemeinde"},"district":{"key":"06633","name":"Kassel","type":"Landkreis"},"federalState":{"key":"06","name":"Hessen"}},{"name":"Zum Braunsberg","postalCode":"34479","locality":"Breuna","municipality":{"key":"06633004","name":"Breuna","type":"Kreisangehörige_Gemeinde"},"district":{"key":"06633","name":"Kassel","type":"Landkreis"},"federalState":{"key":"06","name":"Hessen"}},{"name":"Zum Goldesberg","postalCode":"34479","locality":"Breuna","municipality":{"key":"06633004","name":"Breuna","type":"Kreisangehörige_Gemeinde"},"district":{"key":"06633","name":"Kassel","type":"Landkreis"},"federalState":{"key":"06","name":"Hessen"}},{"name":"Zum Knapp","postalCode":"34479","locality":"Breuna","municipality":{"key":"06633004","name":"Breuna","type":"Kreisangehörige_Gemeinde"},"district":{"key":"06633","name":"Kassel","type":"Landkreis"},"federalState":{"key":"06","name":"Hessen"}},{"name":"Zum Osterplatz","postalCode":"34479","locality":"Breuna","municipality":{"key":"06633004","name":"Breuna","type":"Kreisangehörige_Gemeinde"},"district":{"key":"06633","name":"Kassel","type":"Landkreis"},"federalState":{"key":"06","name":"Hessen"}},{"name":"Zum Steinfeld","postalCode":"34479","locality":"Breuna","municipality":{"key":"06633004","name":"Breuna","type":"Kreisangehörige_Gemeinde"},"district":{"key":"06633","name":"Kassel","type":"Landkreis"},"federalState":{"key":"06","name":"Hessen"}},{"name":"Öderaner Str.","postalCode":"34123","locality":"Kassel","municipality":{"key":"06611000","name":"Kassel, documenta-Stadt","type":"Kreisfreie_Stadt"},"district":{"key":"06611","name":"Kassel, documenta-Stadt","type":"Kreisfreie_Stadt"},"federalState":{"key":"06","name":"Hessen"}},{"name":"Ölbergweg","postalCode":"53859","locality":"Niederkassel","municipality":{"key":"05382044","name":"Niederkassel, Stadt","type":"Stadt"},"district":{"key":"05382","name":"Rhein-Sieg-Kreis","type":"Kreis"},"federalState":{"key":"05","name":"Nordrhein-Westfalen"}},{"name":"Ölmühlenweg","postalCode":"34123","locality":"Kassel","municipality":{"key":"06611000","name":"Kassel, documenta-Stadt","type":"Kreisfreie_Stadt"},"district":{"key":"06611","name":"Kassel, documenta-Stadt","type":"Kreisfreie_Stadt"},"federalState":{"key":"06","name":"Hessen"}},]