[{"name":"Bahnhofstr.","postalCode":"54413","locality":"Rascheid","municipality":{"key":"07235112","name":"Rascheid","type":"Kreisangehörige_Gemeinde"},"district":{"key":"07235","name":"Trier-Saarburg","type":"Landkreis"},"federalState":{"key":"07","name":"Rheinland-Pfalz"}},{"name":"Bergstr.","postalCode":"54413","locality":"Rascheid","municipality":{"key":"07235112","name":"Rascheid","type":"Kreisangehörige_Gemeinde"},"district":{"key":"07235","name":"Trier-Saarburg","type":"Landkreis"},"federalState":{"key":"07","name":"Rheinland-Pfalz"}},{"name":"Brunnenstr.","postalCode":"54413","locality":"Rascheid","municipality":{"key":"07235112","name":"Rascheid","type":"Kreisangehörige_Gemeinde"},"district":{"key":"07235","name":"Trier-Saarburg","type":"Landkreis"},"federalState":{"key":"07","name":"Rheinland-Pfalz"}},{"name":"Dhronstr.","postalCode":"54413","locality":"Rascheid","municipality":{"key":"07235112","name":"Rascheid","type":"Kreisangehörige_Gemeinde"},"district":{"key":"07235","name":"Trier-Saarburg","type":"Landkreis"},"federalState":{"key":"07","name":"Rheinland-Pfalz"}},{"name":"Dorfstr.","postalCode":"54413","locality":"Rascheid","municipality":{"key":"07235112","name":"Rascheid","type":"Kreisangehörige_Gemeinde"},"district":{"key":"07235","name":"Trier-Saarburg","type":"Landkreis"},"federalState":{"key":"07","name":"Rheinland-Pfalz"}},{"name":"Gartenstr.","postalCode":"54413","locality":"Rascheid","municipality":{"key":"07235112","name":"Rascheid","type":"Kreisangehörige_Gemeinde"},"district":{"key":"07235","name":"Trier-Saarburg","type":"Landkreis"},"federalState":{"key":"07","name":"Rheinland-Pfalz"}},{"name":"Gunderhausenstr.","postalCode":"54413","locality":"Rascheid","municipality":{"key":"07235112","name":"Rascheid","type":"Kreisangehörige_Gemeinde"},"district":{"key":"07235","name":"Trier-Saarburg","type":"Landkreis"},"federalState":{"key":"07","name":"Rheinland-Pfalz"}},{"name":"Harschburgerstr.","postalCode":"54413","locality":"Rascheid","municipality":{"key":"07235112","name":"Rascheid","type":"Kreisangehörige_Gemeinde"},"district":{"key":"07235","name":"Trier-Saarburg","type":"Landkreis"},"federalState":{"key":"07","name":"Rheinland-Pfalz"}},{"name":"Hauptstr.","postalCode":"54413","locality":"Rascheid","municipality":{"key":"07235112","name":"Rascheid","type":"Kreisangehörige_Gemeinde"},"district":{"key":"07235","name":"Trier-Saarburg","type":"Landkreis"},"federalState":{"key":"07","name":"Rheinland-Pfalz"}},{"name":"Hermeskeiler Str.","postalCode":"54413","locality":"Rascheid","municipality":{"key":"07235112","name":"Rascheid","type":"Kreisangehörige_Gemeinde"},"district":{"key":"07235","name":"Trier-Saarburg","type":"Landkreis"},"federalState":{"key":"07","name":"Rheinland-Pfalz"}},{"name":"Hohlwiese","postalCode":"54413","locality":"Rascheid","municipality":{"key":"07235112","name":"Rascheid","type":"Kreisangehörige_Gemeinde"},"district":{"key":"07235","name":"Trier-Saarburg","type":"Landkreis"},"federalState":{"key":"07","name":"Rheinland-Pfalz"}},{"name":"Hunsrückhöhenstr.","postalCode":"54413","locality":"Rascheid","municipality":{"key":"07235112","name":"Rascheid","type":"Kreisangehörige_Gemeinde"},"district":{"key":"07235","name":"Trier-Saarburg","type":"Landkreis"},"federalState":{"key":"07","name":"Rheinland-Pfalz"}},{"name":"Im Gilmeter","postalCode":"54413","locality":"Rascheid","municipality":{"key":"07235112","name":"Rascheid","type":"Kreisangehörige_Gemeinde"},"district":{"key":"07235","name":"Trier-Saarburg","type":"Landkreis"},"federalState":{"key":"07","name":"Rheinland-Pfalz"}},{"name":"Im Kordel","postalCode":"54413","locality":"Rascheid","municipality":{"key":"07235112","name":"Rascheid","type":"Kreisangehörige_Gemeinde"},"district":{"key":"07235","name":"Trier-Saarburg","type":"Landkreis"},"federalState":{"key":"07","name":"Rheinland-Pfalz"}},{"name":"Im Nebengarten","postalCode":"54413","locality":"Rascheid","municipality":{"key":"07235112","name":"Rascheid","type":"Kreisangehörige_Gemeinde"},"district":{"key":"07235","name":"Trier-Saarburg","type":"Landkreis"},"federalState":{"key":"07","name":"Rheinland-Pfalz"}},{"name":"Im Rinkenfeld","postalCode":"54413","locality":"Rascheid","municipality":{"key":"07235112","name":"Rascheid","type":"Kreisangehörige_Gemeinde"},"district":{"key":"07235","name":"Trier-Saarburg","type":"Landkreis"},"federalState":{"key":"07","name":"Rheinland-Pfalz"}},{"name":"In der Nief","postalCode":"54413","locality":"Rascheid","municipality":{"key":"07235112","name":"Rascheid","type":"Kreisangehörige_Gemeinde"},"district":{"key":"07235","name":"Trier-Saarburg","type":"Landkreis"},"federalState":{"key":"07","name":"Rheinland-Pfalz"}},{"name":"Königsfeldschleife","postalCode":"54413","locality":"Rascheid","municipality":{"key":"07235112","name":"Rascheid","type":"Kreisangehörige_Gemeinde"},"district":{"key":"07235","name":"Trier-Saarburg","type":"Landkreis"},"federalState":{"key":"07","name":"Rheinland-Pfalz"}},{"name":"Raiffeisenstr.","postalCode":"54413","locality":"Rascheid","municipality":{"key":"07235112","name":"Rascheid","type":"Kreisangehörige_Gemeinde"},"district":{"key":"07235","name":"Trier-Saarburg","type":"Landkreis"},"federalState":{"key":"07","name":"Rheinland-Pfalz"}},{"name":"Schmiedestr.","postalCode":"54413","locality":"Rascheid","municipality":{"key":"07235112","name":"Rascheid","type":"Kreisangehörige_Gemeinde"},"district":{"key":"07235","name":"Trier-Saarburg","type":"Landkreis"},"federalState":{"key":"07","name":"Rheinland-Pfalz"}},{"name":"Schulstr.","postalCode":"54413","locality":"Rascheid","municipality":{"key":"07235112","name":"Rascheid","type":"Kreisangehörige_Gemeinde"},"district":{"key":"07235","name":"Trier-Saarburg","type":"Landkreis"},"federalState":{"key":"07","name":"Rheinland-Pfalz"}},{"name":"St. Anna-Str.","postalCode":"54413","locality":"Rascheid","municipality":{"key":"07235112","name":"Rascheid","type":"Kreisangehörige_Gemeinde"},"district":{"key":"07235","name":"Trier-Saarburg","type":"Landkreis"},"federalState":{"key":"07","name":"Rheinland-Pfalz"}},{"name":"Zum Markenbach","postalCode":"54413","locality":"Rascheid","municipality":{"key":"07235112","name":"Rascheid","type":"Kreisangehörige_Gemeinde"},"district":{"key":"07235","name":"Trier-Saarburg","type":"Landkreis"},"federalState":{"key":"07","name":"Rheinland-Pfalz"}},{"name":"Zur Heide","postalCode":"54413","locality":"Rascheid","municipality":{"key":"07235112","name":"Rascheid","type":"Kreisangehörige_Gemeinde"},"district":{"key":"07235","name":"Trier-Saarburg","type":"Landkreis"},"federalState":{"key":"07","name":"Rheinland-Pfalz"}},]