[{"name":"Am Berg","postalCode":"56729","locality":"Kehrig","municipality":{"key":"07137043","name":"Kehrig","type":"Kreisangehörige_Gemeinde"},"district":{"key":"07137","name":"Mayen-Koblenz","type":"Landkreis"},"federalState":{"key":"07","name":"Rheinland-Pfalz"}},{"name":"Am Klosterbach","postalCode":"56729","locality":"Kehrig","municipality":{"key":"07137043","name":"Kehrig","type":"Kreisangehörige_Gemeinde"},"district":{"key":"07137","name":"Mayen-Koblenz","type":"Landkreis"},"federalState":{"key":"07","name":"Rheinland-Pfalz"}},{"name":"Am Mückenstück","postalCode":"56729","locality":"Kehrig","municipality":{"key":"07137043","name":"Kehrig","type":"Kreisangehörige_Gemeinde"},"district":{"key":"07137","name":"Mayen-Koblenz","type":"Landkreis"},"federalState":{"key":"07","name":"Rheinland-Pfalz"}},{"name":"Am Pesch","postalCode":"56729","locality":"Kehrig","municipality":{"key":"07137043","name":"Kehrig","type":"Kreisangehörige_Gemeinde"},"district":{"key":"07137","name":"Mayen-Koblenz","type":"Landkreis"},"federalState":{"key":"07","name":"Rheinland-Pfalz"}},{"name":"Am Siegenpfad","postalCode":"56729","locality":"Kehrig","municipality":{"key":"07137043","name":"Kehrig","type":"Kreisangehörige_Gemeinde"},"district":{"key":"07137","name":"Mayen-Koblenz","type":"Landkreis"},"federalState":{"key":"07","name":"Rheinland-Pfalz"}},{"name":"An den Eschen","postalCode":"56729","locality":"Kehrig","municipality":{"key":"07137043","name":"Kehrig","type":"Kreisangehörige_Gemeinde"},"district":{"key":"07137","name":"Mayen-Koblenz","type":"Landkreis"},"federalState":{"key":"07","name":"Rheinland-Pfalz"}},{"name":"An Sankt Wolfgang","postalCode":"56729","locality":"Kehrig","municipality":{"key":"07137043","name":"Kehrig","type":"Kreisangehörige_Gemeinde"},"district":{"key":"07137","name":"Mayen-Koblenz","type":"Landkreis"},"federalState":{"key":"07","name":"Rheinland-Pfalz"}},{"name":"Auf der Fallscheuer","postalCode":"56729","locality":"Kehrig","municipality":{"key":"07137043","name":"Kehrig","type":"Kreisangehörige_Gemeinde"},"district":{"key":"07137","name":"Mayen-Koblenz","type":"Landkreis"},"federalState":{"key":"07","name":"Rheinland-Pfalz"}},{"name":"Auf der Hirscht","postalCode":"56729","locality":"Kehrig","municipality":{"key":"07137043","name":"Kehrig","type":"Kreisangehörige_Gemeinde"},"district":{"key":"07137","name":"Mayen-Koblenz","type":"Landkreis"},"federalState":{"key":"07","name":"Rheinland-Pfalz"}},{"name":"Bausberger Str.","postalCode":"56729","locality":"Kehrig","municipality":{"key":"07137043","name":"Kehrig","type":"Kreisangehörige_Gemeinde"},"district":{"key":"07137","name":"Mayen-Koblenz","type":"Landkreis"},"federalState":{"key":"07","name":"Rheinland-Pfalz"}},{"name":"Brunnen-Heerbachstr.","postalCode":"56729","locality":"Kehrig","municipality":{"key":"07137043","name":"Kehrig","type":"Kreisangehörige_Gemeinde"},"district":{"key":"07137","name":"Mayen-Koblenz","type":"Landkreis"},"federalState":{"key":"07","name":"Rheinland-Pfalz"}},{"name":"Daubhaus","postalCode":"56729","locality":"Kehrig","municipality":{"key":"07137043","name":"Kehrig","type":"Kreisangehörige_Gemeinde"},"district":{"key":"07137","name":"Mayen-Koblenz","type":"Landkreis"},"federalState":{"key":"07","name":"Rheinland-Pfalz"}},{"name":"Düngenheimer Str.","postalCode":"56729","locality":"Kehrig","municipality":{"key":"07137043","name":"Kehrig","type":"Kreisangehörige_Gemeinde"},"district":{"key":"07137","name":"Mayen-Koblenz","type":"Landkreis"},"federalState":{"key":"07","name":"Rheinland-Pfalz"}},{"name":"Elztalstr.","postalCode":"56729","locality":"Kehrig","municipality":{"key":"07137043","name":"Kehrig","type":"Kreisangehörige_Gemeinde"},"district":{"key":"07137","name":"Mayen-Koblenz","type":"Landkreis"},"federalState":{"key":"07","name":"Rheinland-Pfalz"}},{"name":"Gartenstr.","postalCode":"56729","locality":"Kehrig","municipality":{"key":"07137043","name":"Kehrig","type":"Kreisangehörige_Gemeinde"},"district":{"key":"07137","name":"Mayen-Koblenz","type":"Landkreis"},"federalState":{"key":"07","name":"Rheinland-Pfalz"}},{"name":"Geringer Str.","postalCode":"56729","locality":"Kehrig","municipality":{"key":"07137043","name":"Kehrig","type":"Kreisangehörige_Gemeinde"},"district":{"key":"07137","name":"Mayen-Koblenz","type":"Landkreis"},"federalState":{"key":"07","name":"Rheinland-Pfalz"}},{"name":"Geringer Weg","postalCode":"56729","locality":"Kehrig","municipality":{"key":"07137043","name":"Kehrig","type":"Kreisangehörige_Gemeinde"},"district":{"key":"07137","name":"Mayen-Koblenz","type":"Landkreis"},"federalState":{"key":"07","name":"Rheinland-Pfalz"}},{"name":"Herrenstr.","postalCode":"56729","locality":"Kehrig","municipality":{"key":"07137043","name":"Kehrig","type":"Kreisangehörige_Gemeinde"},"district":{"key":"07137","name":"Mayen-Koblenz","type":"Landkreis"},"federalState":{"key":"07","name":"Rheinland-Pfalz"}},{"name":"Im Peschen","postalCode":"56729","locality":"Kehrig","municipality":{"key":"07137043","name":"Kehrig","type":"Kreisangehörige_Gemeinde"},"district":{"key":"07137","name":"Mayen-Koblenz","type":"Landkreis"},"federalState":{"key":"07","name":"Rheinland-Pfalz"}},{"name":"Im Ramm","postalCode":"56729","locality":"Kehrig","municipality":{"key":"07137043","name":"Kehrig","type":"Kreisangehörige_Gemeinde"},"district":{"key":"07137","name":"Mayen-Koblenz","type":"Landkreis"},"federalState":{"key":"07","name":"Rheinland-Pfalz"}},{"name":"In der Mohl","postalCode":"56729","locality":"Kehrig","municipality":{"key":"07137043","name":"Kehrig","type":"Kreisangehörige_Gemeinde"},"district":{"key":"07137","name":"Mayen-Koblenz","type":"Landkreis"},"federalState":{"key":"07","name":"Rheinland-Pfalz"}},{"name":"Kirchstr.","postalCode":"56729","locality":"Kehrig","municipality":{"key":"07137043","name":"Kehrig","type":"Kreisangehörige_Gemeinde"},"district":{"key":"07137","name":"Mayen-Koblenz","type":"Landkreis"},"federalState":{"key":"07","name":"Rheinland-Pfalz"}},{"name":"Kleine Gartenstr.","postalCode":"56729","locality":"Kehrig","municipality":{"key":"07137043","name":"Kehrig","type":"Kreisangehörige_Gemeinde"},"district":{"key":"07137","name":"Mayen-Koblenz","type":"Landkreis"},"federalState":{"key":"07","name":"Rheinland-Pfalz"}},{"name":"Mayener Str.","postalCode":"56729","locality":"Kehrig","municipality":{"key":"07137043","name":"Kehrig","type":"Kreisangehörige_Gemeinde"},"district":{"key":"07137","name":"Mayen-Koblenz","type":"Landkreis"},"federalState":{"key":"07","name":"Rheinland-Pfalz"}},{"name":"Monrealer Str.","postalCode":"56729","locality":"Kehrig","municipality":{"key":"07137043","name":"Kehrig","type":"Kreisangehörige_Gemeinde"},"district":{"key":"07137","name":"Mayen-Koblenz","type":"Landkreis"},"federalState":{"key":"07","name":"Rheinland-Pfalz"}},{"name":"Polcher Str.","postalCode":"56729","locality":"Kehrig","municipality":{"key":"07137043","name":"Kehrig","type":"Kreisangehörige_Gemeinde"},"district":{"key":"07137","name":"Mayen-Koblenz","type":"Landkreis"},"federalState":{"key":"07","name":"Rheinland-Pfalz"}},{"name":"Pörschpesch","postalCode":"56729","locality":"Kehrig","municipality":{"key":"07137043","name":"Kehrig","type":"Kreisangehörige_Gemeinde"},"district":{"key":"07137","name":"Mayen-Koblenz","type":"Landkreis"},"federalState":{"key":"07","name":"Rheinland-Pfalz"}},{"name":"Raiffeisenstr.","postalCode":"56729","locality":"Kehrig","municipality":{"key":"07137043","name":"Kehrig","type":"Kreisangehörige_Gemeinde"},"district":{"key":"07137","name":"Mayen-Koblenz","type":"Landkreis"},"federalState":{"key":"07","name":"Rheinland-Pfalz"}},{"name":"Rosenstr.","postalCode":"56729","locality":"Kehrig","municipality":{"key":"07137043","name":"Kehrig","type":"Kreisangehörige_Gemeinde"},"district":{"key":"07137","name":"Mayen-Koblenz","type":"Landkreis"},"federalState":{"key":"07","name":"Rheinland-Pfalz"}},{"name":"Rote Hohl","postalCode":"56729","locality":"Kehrig","municipality":{"key":"07137043","name":"Kehrig","type":"Kreisangehörige_Gemeinde"},"district":{"key":"07137","name":"Mayen-Koblenz","type":"Landkreis"},"federalState":{"key":"07","name":"Rheinland-Pfalz"}},{"name":"Sonnenhang","postalCode":"56729","locality":"Kehrig","municipality":{"key":"07137043","name":"Kehrig","type":"Kreisangehörige_Gemeinde"},"district":{"key":"07137","name":"Mayen-Koblenz","type":"Landkreis"},"federalState":{"key":"07","name":"Rheinland-Pfalz"}},{"name":"St. Castor Str.","postalCode":"56729","locality":"Kehrig","municipality":{"key":"07137043","name":"Kehrig","type":"Kreisangehörige_Gemeinde"},"district":{"key":"07137","name":"Mayen-Koblenz","type":"Landkreis"},"federalState":{"key":"07","name":"Rheinland-Pfalz"}},{"name":"Veilchenhang","postalCode":"56729","locality":"Kehrig","municipality":{"key":"07137043","name":"Kehrig","type":"Kreisangehörige_Gemeinde"},"district":{"key":"07137","name":"Mayen-Koblenz","type":"Landkreis"},"federalState":{"key":"07","name":"Rheinland-Pfalz"}},{"name":"Weidenstr.","postalCode":"56729","locality":"Kehrig","municipality":{"key":"07137043","name":"Kehrig","type":"Kreisangehörige_Gemeinde"},"district":{"key":"07137","name":"Mayen-Koblenz","type":"Landkreis"},"federalState":{"key":"07","name":"Rheinland-Pfalz"}},]